<?xml version='1.0' encoding='UTF-8'?><gpx creator="YAMAP - https://yamap.com" xsi:schemaLocation="http://www.topografix.com/GPX/1/1 http://www.topografix.com/GPX/1/1/gpx.xsd" version="1.1" xmlns="http://www.topografix.com/GPX/1/1" xmlns:xsi="http://www.w3.org/2001/XMLSchema-instance"><metadata><bounds maxlat="33.3802843" maxlon="132.8609245" minlat="33.3677949" minlon="132.8534438"/></metadata><trk><name>高研山</name><number>1</number><trkseg><trkpt lat="33.377792" lon="132.8534821"><ele>629.8319902179425</ele><time>2026-03-15T01:21:45Z</time></trkpt><trkpt lat="33.3779802" lon="132.8534753"><ele>629.8330326906577</ele><time>2026-03-15T01:22:20Z</time></trkpt><trkpt lat="33.3781031" lon="132.853646"><ele>630.7108870341216</ele><time>2026-03-15T01:23:46Z</time></trkpt><trkpt lat="33.3781559" lon="132.8538551"><ele>633.1963712627286</ele><time>2026-03-15T01:24:15Z</time></trkpt><trkpt lat="33.3782769" lon="132.8540163"><ele>637.1992053472991</ele><time>2026-03-15T01:24:43Z</time></trkpt><trkpt lat="33.3783636" lon="132.8542166"><ele>641.5963152038589</ele><time>2026-03-15T01:25:15Z</time></trkpt><trkpt lat="33.3784328" lon="132.8544217"><ele>645.7204144956653</ele><time>2026-03-15T01:25:42Z</time></trkpt><trkpt lat="33.3784542" lon="132.8546555"><ele>649.5867847790736</ele><time>2026-03-15T01:26:11Z</time></trkpt><trkpt lat="33.378458" lon="132.8548845"><ele>653.8662964957865</ele><time>2026-03-15T01:26:41Z</time></trkpt><trkpt lat="33.378462" lon="132.8551132"><ele>658.400091790567</ele><time>2026-03-15T01:27:13Z</time></trkpt><trkpt lat="33.3785353" lon="132.8553147"><ele>663.0947779375731</ele><time>2026-03-15T01:27:41Z</time></trkpt><trkpt lat="33.3785413" lon="132.8555378"><ele>667.8846491009245</ele><time>2026-03-15T01:28:41Z</time></trkpt><trkpt lat="33.3787238" lon="132.8555036"><ele>675.2945226317083</ele><time>2026-03-15T01:29:45Z</time></trkpt><trkpt lat="33.3787033" lon="132.8557412"><ele>684.7228218485302</ele><time>2026-03-15T01:30:49Z</time></trkpt><trkpt lat="33.3786332" lon="132.855961"><ele>693.5542093373386</ele><time>2026-03-15T01:31:09Z</time></trkpt><trkpt lat="33.3785104" lon="132.8561193"><ele>700.7965386887444</ele><time>2026-03-15T01:31:48Z</time></trkpt><trkpt lat="33.3784696" lon="132.8563371"><ele>708.0086408778225</ele><time>2026-03-15T01:32:48Z</time></trkpt><trkpt lat="33.3784413" lon="132.8565582"><ele>718.7933487354094</ele><time>2026-03-15T01:34:23Z</time></trkpt><trkpt lat="33.3782732" lon="132.8566448"><ele>728.4968588248795</ele><time>2026-03-15T01:35:47Z</time></trkpt><trkpt lat="33.3780826" lon="132.8566618"><ele>737.0555420018194</ele><time>2026-03-15T01:36:19Z</time></trkpt><trkpt lat="33.3779003" lon="132.8566836"><ele>743.0859143067827</ele><time>2026-03-15T01:37:17Z</time></trkpt><trkpt lat="33.3777467" lon="132.8568293"><ele>750.3028243536874</ele><time>2026-03-15T01:38:01Z</time></trkpt><trkpt lat="33.3776367" lon="132.8570075"><ele>756.8099677889272</ele><time>2026-03-15T01:38:32Z</time></trkpt><trkpt lat="33.3774592" lon="132.8570802"><ele>760.451343073199</ele><time>2026-03-15T01:38:58Z</time></trkpt><trkpt lat="33.3772671" lon="132.8571057"><ele>761.1950228215782</ele><time>2026-03-15T01:39:25Z</time></trkpt><trkpt lat="33.3770898" lon="132.8572094"><ele>761.0925429849775</ele><time>2026-03-15T01:40:04Z</time></trkpt><trkpt lat="33.3769377" lon="132.8573342"><ele>764.0075475393332</ele><time>2026-03-15T01:40:54Z</time></trkpt><trkpt lat="33.3767561" lon="132.8573637"><ele>769.9308382075775</ele><time>2026-03-15T01:41:51Z</time></trkpt><trkpt lat="33.3765824" lon="132.8574341"><ele>776.0996223839678</ele><time>2026-03-15T01:42:24Z</time></trkpt><trkpt lat="33.3764129" lon="132.8575361"><ele>782.1998169308687</ele><time>2026-03-15T01:43:15Z</time></trkpt><trkpt lat="33.3762232" lon="132.8575685"><ele>788.0792654767118</ele><time>2026-03-15T01:44:05Z</time></trkpt><trkpt lat="33.3760715" lon="132.8576881"><ele>794.6797546911592</ele><time>2026-03-15T01:46:00Z</time></trkpt><trkpt lat="33.3758997" lon="132.8577628"><ele>802.145288274742</ele><time>2026-03-15T01:47:00Z</time></trkpt><trkpt lat="33.3757239" lon="132.8578178"><ele>809.4603200977448</ele><time>2026-03-15T01:47:57Z</time></trkpt><trkpt lat="33.3755431" lon="132.857796"><ele>817.3982063406769</ele><time>2026-03-15T01:48:47Z</time></trkpt><trkpt lat="33.3753619" lon="132.8578574"><ele>823.9883329287812</ele><time>2026-03-15T01:50:21Z</time></trkpt><trkpt lat="33.3751904" lon="132.8579405"><ele>832.1242097951884</ele><time>2026-03-15T01:51:41Z</time></trkpt><trkpt lat="33.375058" lon="132.8580903"><ele>840.8807142779764</ele><time>2026-03-15T01:52:50Z</time></trkpt><trkpt lat="33.3749078" lon="132.8582275"><ele>849.9318277961146</ele><time>2026-03-15T01:53:34Z</time></trkpt><trkpt lat="33.3747438" lon="132.8583321"><ele>857.2758225467715</ele><time>2026-03-15T01:54:16Z</time></trkpt><trkpt lat="33.3745563" lon="132.8583498"><ele>864.0882651324113</ele><time>2026-03-15T01:54:57Z</time></trkpt><trkpt lat="33.374369" lon="132.8583744"><ele>871.3233843403514</ele><time>2026-03-15T01:55:53Z</time></trkpt><trkpt lat="33.3742337" lon="132.8585382"><ele>877.1641993352891</ele><time>2026-03-15T01:57:22Z</time></trkpt><trkpt lat="33.3740979" lon="132.8586801"><ele>880.3166036350593</ele><time>2026-03-15T01:58:43Z</time></trkpt><trkpt lat="33.3739627" lon="132.8588296"><ele>882.8965379572319</ele><time>2026-03-15T01:59:14Z</time></trkpt><trkpt lat="33.3738239" lon="132.8589779"><ele>887.3409643036462</ele><time>2026-03-15T02:00:08Z</time></trkpt><trkpt lat="33.3736838" lon="132.8591142"><ele>894.7355506863147</ele><time>2026-03-15T02:01:04Z</time></trkpt><trkpt lat="33.3735137" lon="132.8592142"><ele>900.3158717940246</ele><time>2026-03-15T02:01:30Z</time></trkpt><trkpt lat="33.3733132" lon="132.8591735"><ele>904.5325787587554</ele><time>2026-03-15T02:02:09Z</time></trkpt><trkpt lat="33.3731208" lon="132.8591208"><ele>902.5931052809725</ele><time>2026-03-15T02:02:48Z</time></trkpt><trkpt lat="33.3729243" lon="132.8590495"><ele>899.4626779569539</ele><time>2026-03-15T02:03:21Z</time></trkpt><trkpt lat="33.372745" lon="132.8590248"><ele>895.7467466922093</ele><time>2026-03-15T02:03:45Z</time></trkpt><trkpt lat="33.3725767" lon="132.8589439"><ele>896.653958404277</ele><time>2026-03-15T02:05:02Z</time></trkpt><trkpt lat="33.3723969" lon="132.8589243"><ele>902.1989266863498</ele><time>2026-03-15T02:07:12Z</time></trkpt><trkpt lat="33.3722201" lon="132.8588652"><ele>914.3288448790317</ele><time>2026-03-15T02:10:41Z</time></trkpt><trkpt lat="33.3720799" lon="132.859038"><ele>926.7147577671667</ele><time>2026-03-15T02:11:45Z</time></trkpt><trkpt lat="33.3719314" lon="132.8591729"><ele>934.7350389713491</ele><time>2026-03-15T02:12:09Z</time></trkpt><trkpt lat="33.3718858" lon="132.8593871"><ele>935.2867179918212</ele><time>2026-03-15T02:13:17Z</time></trkpt><trkpt lat="33.3717614" lon="132.8595448"><ele>934.5431915369783</ele><time>2026-03-15T02:14:45Z</time></trkpt><trkpt lat="33.3715713" lon="132.8595239"><ele>934.470231749318</ele><time>2026-03-15T02:15:09Z</time></trkpt><trkpt lat="33.3713852" lon="132.8595118"><ele>938.1290951565801</ele><time>2026-03-15T02:16:05Z</time></trkpt><trkpt lat="33.3711998" lon="132.8594386"><ele>944.1720607630787</ele><time>2026-03-15T02:16:50Z</time></trkpt><trkpt lat="33.3710647" lon="132.8592815"><ele>951.1129173360126</ele><time>2026-03-15T02:17:22Z</time></trkpt><trkpt lat="33.3708804" lon="132.8592656"><ele>957.1370825476714</ele><time>2026-03-15T02:18:51Z</time></trkpt><trkpt lat="33.3706939" lon="132.8593072"><ele>964.9284785381242</ele><time>2026-03-15T02:20:09Z</time></trkpt><trkpt lat="33.3705258" lon="132.8593866"><ele>974.0613003686209</ele><time>2026-03-15T02:20:51Z</time></trkpt><trkpt lat="33.3703611" lon="132.8594859"><ele>983.470655013627</ele><time>2026-03-15T02:21:58Z</time></trkpt><trkpt lat="33.3701757" lon="132.8595233"><ele>990.877058381224</ele><time>2026-03-15T02:23:06Z</time></trkpt><trkpt lat="33.3699985" lon="132.8595746"><ele>999.7362114060247</ele><time>2026-03-15T02:24:28Z</time></trkpt><trkpt lat="33.3698165" lon="132.8596277"><ele>1009.0711212030001</ele><time>2026-03-15T02:25:46Z</time></trkpt><trkpt lat="33.3696421" lon="132.8596918"><ele>1018.73484854121</ele><time>2026-03-15T02:26:31Z</time></trkpt><trkpt lat="33.3694528" lon="132.8597496"><ele>1026.4873053219003</ele><time>2026-03-15T02:27:09Z</time></trkpt><trkpt lat="33.3692662" lon="132.8597303"><ele>1032.4352193975355</ele><time>2026-03-15T02:27:49Z</time></trkpt><trkpt lat="33.36908" lon="132.8597472"><ele>1038.2546890666545</ele><time>2026-03-15T02:28:35Z</time></trkpt><trkpt lat="33.3688941" lon="132.8597305"><ele>1045.1589342450136</ele><time>2026-03-15T02:29:31Z</time></trkpt><trkpt lat="33.3687099" lon="132.8598075"><ele>1050.5927376720335</ele><time>2026-03-15T02:30:04Z</time></trkpt><trkpt lat="33.3685561" lon="132.8599282"><ele>1055.1900446294248</ele><time>2026-03-15T02:30:41Z</time></trkpt><trkpt lat="33.3684115" lon="132.8600728"><ele>1056.6740414138358</ele><time>2026-03-15T02:31:02Z</time></trkpt><trkpt lat="33.3682892" lon="132.8602594"><ele>1058.6998123162093</ele><time>2026-03-15T02:31:30Z</time></trkpt><trkpt lat="33.3681779" lon="132.8604376"><ele>1059.2806924250374</ele><time>2026-03-15T02:32:04Z</time></trkpt><trkpt lat="33.3680454" lon="132.8605976"><ele>1061.2925123199582</ele><time>2026-03-15T02:32:27Z</time></trkpt><trkpt lat="33.3679116" lon="132.8607557"><ele>1062.9246807321006</ele><time>2026-03-15T02:32:51Z</time></trkpt><trkpt lat="33.3677949" lon="132.8609245"><ele>1065.780524285452</ele><time>2026-03-15T02:33:34Z</time></trkpt><trkpt lat="33.3679439" lon="132.860768"><ele>1064.8929665907272</ele><time>2026-03-15T02:51:11Z</time></trkpt><trkpt lat="33.368065" lon="132.8606047"><ele>1062.3890953436485</ele><time>2026-03-15T02:51:33Z</time></trkpt><trkpt lat="33.3682125" lon="132.8604495"><ele>1057.520252325176</ele><time>2026-03-15T02:51:51Z</time></trkpt><trkpt lat="33.3683143" lon="132.8602544"><ele>1055.0426949036496</ele><time>2026-03-15T02:52:17Z</time></trkpt><trkpt lat="33.3684511" lon="132.8600859"><ele>1053.199735963614</ele><time>2026-03-15T02:52:32Z</time></trkpt><trkpt lat="33.3686134" lon="132.8599445"><ele>1052.4872404624978</ele><time>2026-03-15T02:52:53Z</time></trkpt><trkpt lat="33.3687872" lon="132.8598542"><ele>1050.3573040118047</ele><time>2026-03-15T02:53:14Z</time></trkpt><trkpt lat="33.3689793" lon="132.8598339"><ele>1046.8903286919847</ele><time>2026-03-15T02:53:59Z</time></trkpt><trkpt lat="33.3691551" lon="132.8597747"><ele>1040.281843518056</ele><time>2026-03-15T02:54:42Z</time></trkpt><trkpt lat="33.3693457" lon="132.8597461"><ele>1033.467593187298</ele><time>2026-03-15T02:55:53Z</time></trkpt><trkpt lat="33.3695315" lon="132.8598043"><ele>1027.431681197337</ele><time>2026-03-15T02:56:19Z</time></trkpt><trkpt lat="33.3697326" lon="132.8597224"><ele>1023.0164124095272</ele><time>2026-03-15T02:56:40Z</time></trkpt><trkpt lat="33.3699192" lon="132.8596791"><ele>1017.4436245841648</ele><time>2026-03-15T02:57:04Z</time></trkpt><trkpt lat="33.3700952" lon="132.8595752"><ele>1009.3867823729744</ele><time>2026-03-15T02:57:38Z</time></trkpt><trkpt lat="33.3702956" lon="132.859563"><ele>1000.2334473542169</ele><time>2026-03-15T02:58:01Z</time></trkpt><trkpt lat="33.3704798" lon="132.859566"><ele>991.9333280144224</ele><time>2026-03-15T02:58:19Z</time></trkpt><trkpt lat="33.370639" lon="132.8594528"><ele>984.8434523886077</ele><time>2026-03-15T02:58:46Z</time></trkpt><trkpt lat="33.3708207" lon="132.8593997"><ele>976.5234395815174</ele><time>2026-03-15T02:59:21Z</time></trkpt><trkpt lat="33.3709996" lon="132.8593585"><ele>967.363413589126</ele><time>2026-03-15T02:59:57Z</time></trkpt><trkpt lat="33.3711085" lon="132.8595327"><ele>957.8953843852987</ele><time>2026-03-15T03:00:26Z</time></trkpt><trkpt lat="33.371108" lon="132.8597548"><ele>953.7907235786324</ele><time>2026-03-15T03:00:56Z</time></trkpt><trkpt lat="33.3711526" lon="132.8599743"><ele>950.0861848281884</ele><time>2026-03-15T03:01:47Z</time></trkpt><trkpt lat="33.3712799" lon="132.8601413"><ele>945.8929184785146</ele><time>2026-03-15T03:02:38Z</time></trkpt><trkpt lat="33.3714252" lon="132.8602881"><ele>938.5653290554295</ele><time>2026-03-15T03:02:59Z</time></trkpt><trkpt lat="33.3715646" lon="132.8604481"><ele>932.6016163801551</ele><time>2026-03-15T03:03:22Z</time></trkpt><trkpt lat="33.371739" lon="132.8605125"><ele>927.385025755857</ele><time>2026-03-15T03:03:43Z</time></trkpt><trkpt lat="33.3719136" lon="132.8604062"><ele>921.4842711450248</ele><time>2026-03-15T03:04:04Z</time></trkpt><trkpt lat="33.3720888" lon="132.8602772"><ele>916.5006176561157</ele><time>2026-03-15T03:04:24Z</time></trkpt><trkpt lat="33.3722264" lon="132.8601035"><ele>914.4436714815369</ele><time>2026-03-15T03:04:48Z</time></trkpt><trkpt lat="33.3723871" lon="132.8599649"><ele>914.0464706992229</ele><time>2026-03-15T03:05:20Z</time></trkpt><trkpt lat="33.3725838" lon="132.8599745"><ele>912.6185624499502</ele><time>2026-03-15T03:05:41Z</time></trkpt><trkpt lat="33.3727838" lon="132.8599541"><ele>909.5751072896206</ele><time>2026-03-15T03:06:01Z</time></trkpt><trkpt lat="33.372934" lon="132.8598137"><ele>905.5993338630509</ele><time>2026-03-15T03:06:25Z</time></trkpt><trkpt lat="33.3730084" lon="132.8596124"><ele>899.8588728596524</ele><time>2026-03-15T03:07:25Z</time></trkpt><trkpt lat="33.3730672" lon="132.8594014"><ele>893.010786030204</ele><time>2026-03-15T03:07:52Z</time></trkpt><trkpt lat="33.3730782" lon="132.8591822"><ele>889.7117513225412</ele><time>2026-03-15T03:08:27Z</time></trkpt><trkpt lat="33.3732637" lon="132.8592477"><ele>893.1325525937737</ele><time>2026-03-15T03:09:45Z</time></trkpt><trkpt lat="33.373447" lon="132.8592341"><ele>898.4337549693993</ele><time>2026-03-15T03:10:13Z</time></trkpt><trkpt lat="33.3736166" lon="132.8591534"><ele>901.1656009347624</ele><time>2026-03-15T03:10:37Z</time></trkpt><trkpt lat="33.3737981" lon="132.8591357"><ele>898.8342003439342</ele><time>2026-03-15T03:11:12Z</time></trkpt><trkpt lat="33.3739132" lon="132.8589591"><ele>894.4593399492074</ele><time>2026-03-15T03:11:46Z</time></trkpt><trkpt lat="33.3740617" lon="132.8588116"><ele>887.9214635102653</ele><time>2026-03-15T03:12:12Z</time></trkpt><trkpt lat="33.3741853" lon="132.858614"><ele>881.8050133101489</ele><time>2026-03-15T03:12:39Z</time></trkpt><trkpt lat="33.3743155" lon="132.8584587"><ele>877.7128848914864</ele><time>2026-03-15T03:13:00Z</time></trkpt><trkpt lat="33.3744982" lon="132.8584362"><ele>874.2961628713061</ele><time>2026-03-15T03:14:30Z</time></trkpt><trkpt lat="33.3747069" lon="132.8584323"><ele>868.7496293049762</ele><time>2026-03-15T03:15:02Z</time></trkpt><trkpt lat="33.3748865" lon="132.8583799"><ele>861.9614705485579</ele><time>2026-03-15T03:15:22Z</time></trkpt><trkpt lat="33.3750089" lon="132.8582006"><ele>855.2119740264184</ele><time>2026-03-15T03:15:59Z</time></trkpt><trkpt lat="33.3751421" lon="132.8580508"><ele>849.6388475556487</ele><time>2026-03-15T03:16:23Z</time></trkpt><trkpt lat="33.3752993" lon="132.8579363"><ele>842.1138338925288</ele><time>2026-03-15T03:16:49Z</time></trkpt><trkpt lat="33.3755003" lon="132.85789"><ele>833.2183152437292</ele><time>2026-03-15T03:17:18Z</time></trkpt><trkpt lat="33.3756956" lon="132.8578736"><ele>823.9369603190617</ele><time>2026-03-15T03:17:46Z</time></trkpt><trkpt lat="33.3758808" lon="132.8578309"><ele>815.6793045540799</ele><time>2026-03-15T03:18:09Z</time></trkpt><trkpt lat="33.3760593" lon="132.8577326"><ele>807.7158498106879</ele><time>2026-03-15T03:18:32Z</time></trkpt><trkpt lat="33.3762401" lon="132.8576387"><ele>799.365234252104</ele><time>2026-03-15T03:18:57Z</time></trkpt><trkpt lat="33.3764251" lon="132.8575786"><ele>790.8304547052552</ele><time>2026-03-15T03:19:38Z</time></trkpt><trkpt lat="33.3766005" lon="132.857482"><ele>782.7856902588246</ele><time>2026-03-15T03:20:04Z</time></trkpt><trkpt lat="33.3767957" lon="132.8574307"><ele>776.1594957323199</ele><time>2026-03-15T03:20:28Z</time></trkpt><trkpt lat="33.3769806" lon="132.8573615"><ele>769.2454239415688</ele><time>2026-03-15T03:20:55Z</time></trkpt><trkpt lat="33.3771502" lon="132.857219"><ele>761.1745089851615</ele><time>2026-03-15T03:21:24Z</time></trkpt><trkpt lat="33.3773105" lon="132.8571073"><ele>753.7283110550411</ele><time>2026-03-15T03:21:41Z</time></trkpt><trkpt lat="33.3774865" lon="132.8570332"><ele>749.0920390842397</ele><time>2026-03-15T03:22:06Z</time></trkpt><trkpt lat="33.3776572" lon="132.8569129"><ele>748.9060616879873</ele><time>2026-03-15T03:22:35Z</time></trkpt><trkpt lat="33.3778295" lon="132.8568083"><ele>747.5344841578216</ele><time>2026-03-15T03:22:56Z</time></trkpt><trkpt lat="33.3780031" lon="132.8567352"><ele>743.6512415941376</ele><time>2026-03-15T03:23:20Z</time></trkpt><trkpt lat="33.3781916" lon="132.8567205"><ele>737.4089362335734</ele><time>2026-03-15T03:23:38Z</time></trkpt><trkpt lat="33.3783852" lon="132.8566728"><ele>731.1971468918077</ele><time>2026-03-15T03:24:08Z</time></trkpt><trkpt lat="33.3785729" lon="132.8566206"><ele>727.9356599516086</ele><time>2026-03-15T03:24:53Z</time></trkpt><trkpt lat="33.3787638" lon="132.8565992"><ele>727.7609855080408</ele><time>2026-03-15T03:30:58Z</time></trkpt><trkpt lat="33.3789701" lon="132.8566038"><ele>729.9844972412264</ele><time>2026-03-15T03:31:28Z</time></trkpt><trkpt lat="33.3791634" lon="132.8566697"><ele>730.7271480958265</ele><time>2026-03-15T03:31:49Z</time></trkpt><trkpt lat="33.3793565" lon="132.8567299"><ele>730.0644218289511</ele><time>2026-03-15T03:32:12Z</time></trkpt><trkpt lat="33.3795371" lon="132.8567488"><ele>730.2141972595367</ele><time>2026-03-15T03:32:43Z</time></trkpt><trkpt lat="33.3797274" lon="132.856736"><ele>730.2091801406909</ele><time>2026-03-15T03:34:39Z</time></trkpt><trkpt lat="33.3799135" lon="132.8566998"><ele>730.4489363929034</ele><time>2026-03-15T03:35:02Z</time></trkpt><trkpt lat="33.380102" lon="132.8566817"><ele>731.4435478401529</ele><time>2026-03-15T03:35:32Z</time></trkpt><trkpt lat="33.3802843" lon="132.8567087"><ele>736.1899310615785</ele><time>2026-03-15T03:36:12Z</time></trkpt><trkpt lat="33.3800986" lon="132.8566514"><ele>738.609809399024</ele><time>2026-03-15T03:37:00Z</time></trkpt><trkpt lat="33.3799103" lon="132.8566921"><ele>736.8816591312092</ele><time>2026-03-15T03:37:26Z</time></trkpt><trkpt lat="33.379723" lon="132.8566993"><ele>732.0076567678974</ele><time>2026-03-15T03:37:50Z</time></trkpt><trkpt lat="33.3795372" lon="132.856707"><ele>730.4429605354184</ele><time>2026-03-15T03:38:20Z</time></trkpt><trkpt lat="33.3793485" lon="132.8567321"><ele>729.7516401673653</ele><time>2026-03-15T03:38:44Z</time></trkpt><trkpt lat="33.3791825" lon="132.8566308"><ele>729.4133663713156</ele><time>2026-03-15T03:39:01Z</time></trkpt><trkpt lat="33.3789948" lon="132.8565866"><ele>729.0706774689743</ele><time>2026-03-15T03:39:28Z</time></trkpt><trkpt lat="33.3787923" lon="132.8565776"><ele>729.5049667860158</ele><time>2026-03-15T03:39:52Z</time></trkpt><trkpt lat="33.3786068" lon="132.8565905"><ele>729.3262215345812</ele><time>2026-03-15T03:40:16Z</time></trkpt><trkpt lat="33.3786156" lon="132.8563577"><ele>723.4849804277665</ele><time>2026-03-15T03:42:50Z</time></trkpt><trkpt lat="33.3784415" lon="132.8562934"><ele>715.9514299997219</ele><time>2026-03-15T03:43:15Z</time></trkpt><trkpt lat="33.3785446" lon="132.8561063"><ele>705.8322597528075</ele><time>2026-03-15T03:44:08Z</time></trkpt><trkpt lat="33.3786903" lon="132.8559339"><ele>698.0744725201479</ele><time>2026-03-15T03:44:34Z</time></trkpt><trkpt lat="33.3787403" lon="132.8556977"><ele>690.9264419208566</ele><time>2026-03-15T03:44:56Z</time></trkpt><trkpt lat="33.3785433" lon="132.8556965"><ele>682.3107466872353</ele><time>2026-03-15T03:46:09Z</time></trkpt><trkpt lat="33.3785779" lon="132.8554762"><ele>673.4980658782337</ele><time>2026-03-15T03:46:38Z</time></trkpt><trkpt lat="33.3785521" lon="132.8552366"><ele>664.2967737531577</ele><time>2026-03-15T03:46:59Z</time></trkpt><trkpt lat="33.3784888" lon="132.8550207"><ele>658.804791064286</ele><time>2026-03-15T03:47:53Z</time></trkpt><trkpt lat="33.378469" lon="132.8547891"><ele>654.2046062028838</ele><time>2026-03-15T03:48:14Z</time></trkpt><trkpt lat="33.3784392" lon="132.8545709"><ele>649.6883045053798</ele><time>2026-03-15T03:48:40Z</time></trkpt><trkpt lat="33.3784041" lon="132.8543571"><ele>645.5534527111018</ele><time>2026-03-15T03:48:58Z</time></trkpt><trkpt lat="33.3783362" lon="132.8541234"><ele>641.2162755807038</ele><time>2026-03-15T03:49:22Z</time></trkpt><trkpt lat="33.3782429" lon="132.8539122"><ele>637.3463897829747</ele><time>2026-03-15T03:49:46Z</time></trkpt><trkpt lat="33.3781165" lon="132.8537284"><ele>632.576838587163</ele><time>2026-03-15T03:50:15Z</time></trkpt><trkpt lat="33.3780811" lon="132.8534824"><ele>627.9383415289126</ele><time>2026-03-15T03:50:35Z</time></trkpt><trkpt lat="33.3778797" lon="132.8534438"><ele>624.4598687259573</ele><time>2026-03-15T03:50:57Z</time></trkpt></trkseg></trk></gpx>