<?xml version='1.0' encoding='UTF-8'?><gpx creator="YAMAP - https://yamap.com" xsi:schemaLocation="http://www.topografix.com/GPX/1/1 http://www.topografix.com/GPX/1/1/gpx.xsd" version="1.1" xmlns="http://www.topografix.com/GPX/1/1" xmlns:xsi="http://www.w3.org/2001/XMLSchema-instance"><metadata><bounds maxlat="33.5543863" maxlon="132.9243329" minlat="33.5337605" minlon="132.9170058"/></metadata><trk><name>貝渚山・水なし山</name><number>1</number><trkseg><trkpt lat="33.554182" lon="132.9243329"><ele>1501.34</ele><time>2025-06-20T23:53:40Z</time></trkpt><trkpt lat="33.5540529" lon="132.9241425"><ele>1499.5349999999999</ele><time>2025-06-20T23:54:02Z</time></trkpt><trkpt lat="33.5539955" lon="132.9239088"><ele>1499.5666666666666</ele><time>2025-06-20T23:54:17Z</time></trkpt><trkpt lat="33.553995" lon="132.9236688"><ele>1498.5166666666667</ele><time>2025-06-20T23:54:32Z</time></trkpt><trkpt lat="33.5540569" lon="132.9234426"><ele>1498.6500000000003</ele><time>2025-06-20T23:54:47Z</time></trkpt><trkpt lat="33.5541897" lon="132.92326"><ele>1498.2266666666667</ele><time>2025-06-20T23:55:11Z</time></trkpt><trkpt lat="33.5543062" lon="132.9230701"><ele>1499.3433333333335</ele><time>2025-06-20T23:55:27Z</time></trkpt><trkpt lat="33.5543724" lon="132.9228404"><ele>1500.5900000000001</ele><time>2025-06-20T23:56:21Z</time></trkpt><trkpt lat="33.5543788" lon="132.9225887"><ele>1502.2666666666667</ele><time>2025-06-20T23:56:41Z</time></trkpt><trkpt lat="33.5542952" lon="132.9223924"><ele>1503.1933333333334</ele><time>2025-06-20T23:56:58Z</time></trkpt><trkpt lat="33.5541259" lon="132.9222976"><ele>1502.9233333333334</ele><time>2025-06-20T23:57:17Z</time></trkpt><trkpt lat="33.5539727" lon="132.9221398"><ele>1502.5100000000002</ele><time>2025-06-20T23:57:32Z</time></trkpt><trkpt lat="33.5538515" lon="132.9219731"><ele>1502.3666666666668</ele><time>2025-06-20T23:57:50Z</time></trkpt><trkpt lat="33.5537082" lon="132.9218132"><ele>1502.5133333333333</ele><time>2025-06-20T23:58:05Z</time></trkpt><trkpt lat="33.5535786" lon="132.9216474"><ele>1501.3066666666666</ele><time>2025-06-20T23:58:20Z</time></trkpt><trkpt lat="33.5534315" lon="132.9215113"><ele>1498.6766666666665</ele><time>2025-06-20T23:58:35Z</time></trkpt><trkpt lat="33.5533165" lon="132.9213448"><ele>1496.14</ele><time>2025-06-20T23:59:16Z</time></trkpt><trkpt lat="33.5532005" lon="132.9211686"><ele>1492.9233333333334</ele><time>2025-06-21T00:03:05Z</time></trkpt><trkpt lat="33.5530182" lon="132.9210818"><ele>1488.496666666667</ele><time>2025-06-21T00:03:29Z</time></trkpt><trkpt lat="33.5528592" lon="132.9209742"><ele>1484.5700000000004</ele><time>2025-06-21T00:04:08Z</time></trkpt><trkpt lat="33.5527117" lon="132.9208204"><ele>1481.5366666666666</ele><time>2025-06-21T00:04:35Z</time></trkpt><trkpt lat="33.5525603" lon="132.9207026"><ele>1480.3966666666668</ele><time>2025-06-21T00:04:53Z</time></trkpt><trkpt lat="33.5523625" lon="132.9206797"><ele>1479.3999999999999</ele><time>2025-06-21T00:05:13Z</time></trkpt><trkpt lat="33.5521864" lon="132.9206315"><ele>1477.5100000000002</ele><time>2025-06-21T00:05:34Z</time></trkpt><trkpt lat="33.5519996" lon="132.9206742"><ele>1475.64</ele><time>2025-06-21T00:06:56Z</time></trkpt><trkpt lat="33.5517917" lon="132.9206574"><ele>1472.6666666666667</ele><time>2025-06-21T00:07:25Z</time></trkpt><trkpt lat="33.5515994" lon="132.9206902"><ele>1471.256666666667</ele><time>2025-06-21T00:07:48Z</time></trkpt><trkpt lat="33.5514505" lon="132.9205508"><ele>1468.2766666666666</ele><time>2025-06-21T00:08:06Z</time></trkpt><trkpt lat="33.551305" lon="132.9203958"><ele>1464.99</ele><time>2025-06-21T00:08:27Z</time></trkpt><trkpt lat="33.5511032" lon="132.9203882"><ele>1459.9633333333334</ele><time>2025-06-21T00:08:59Z</time></trkpt><trkpt lat="33.5509243" lon="132.9203506"><ele>1455.493333333333</ele><time>2025-06-21T00:09:17Z</time></trkpt><trkpt lat="33.5507316" lon="132.9203591"><ele>1451.0</ele><time>2025-06-21T00:09:37Z</time></trkpt><trkpt lat="33.5505313" lon="132.9204007"><ele>1447.14</ele><time>2025-06-21T00:10:07Z</time></trkpt><trkpt lat="33.5503512" lon="132.9204578"><ele>1443.9566666666667</ele><time>2025-06-21T00:10:55Z</time></trkpt><trkpt lat="33.5501703" lon="132.9205154"><ele>1440.8700000000001</ele><time>2025-06-21T00:11:24Z</time></trkpt><trkpt lat="33.5499874" lon="132.9204905"><ele>1437.6933333333334</ele><time>2025-06-21T00:11:48Z</time></trkpt><trkpt lat="33.5497827" lon="132.9204972"><ele>1434.8100000000002</ele><time>2025-06-21T00:12:36Z</time></trkpt><trkpt lat="33.5495866" lon="132.920453"><ele>1433.1433333333334</ele><time>2025-06-21T00:13:03Z</time></trkpt><trkpt lat="33.5494171" lon="132.9203382"><ele>1432.91</ele><time>2025-06-21T00:13:21Z</time></trkpt><trkpt lat="33.5492357" lon="132.9202914"><ele>1432.7966666666669</ele><time>2025-06-21T00:13:42Z</time></trkpt><trkpt lat="33.5490755" lon="132.9204167"><ele>1433.0833333333333</ele><time>2025-06-21T00:14:12Z</time></trkpt><trkpt lat="33.5489326" lon="132.920577"><ele>1432.8566666666666</ele><time>2025-06-21T00:14:39Z</time></trkpt><trkpt lat="33.5487768" lon="132.9207168"><ele>1432.9766666666667</ele><time>2025-06-21T00:15:39Z</time></trkpt><trkpt lat="33.5485671" lon="132.9206858"><ele>1432.5133333333333</ele><time>2025-06-21T00:16:00Z</time></trkpt><trkpt lat="33.5483761" lon="132.9206623"><ele>1432.1266666666668</ele><time>2025-06-21T00:16:33Z</time></trkpt><trkpt lat="33.5481826" lon="132.9207186"><ele>1432.9800000000002</ele><time>2025-06-21T00:17:57Z</time></trkpt><trkpt lat="33.5479906" lon="132.9207423"><ele>1435.5333333333335</ele><time>2025-06-21T00:18:30Z</time></trkpt><trkpt lat="33.5478079" lon="132.9207673"><ele>1441.4766666666667</ele><time>2025-06-21T00:24:03Z</time></trkpt><trkpt lat="33.54762" lon="132.9207945"><ele>1447.72</ele><time>2025-06-21T00:25:00Z</time></trkpt><trkpt lat="33.5474346" lon="132.9208"><ele>1455.0</ele><time>2025-06-21T00:25:42Z</time></trkpt><trkpt lat="33.5472582" lon="132.9207433"><ele>1459.6533333333334</ele><time>2025-06-21T00:26:11Z</time></trkpt><trkpt lat="33.5470701" lon="132.920708"><ele>1462.3533333333335</ele><time>2025-06-21T00:26:47Z</time></trkpt><trkpt lat="33.5469117" lon="132.9208361"><ele>1462.2366666666667</ele><time>2025-06-21T00:27:14Z</time></trkpt><trkpt lat="33.5467416" lon="132.9209271"><ele>1459.9033333333334</ele><time>2025-06-21T00:27:34Z</time></trkpt><trkpt lat="33.5465567" lon="132.920826"><ele>1456.67</ele><time>2025-06-21T00:28:25Z</time></trkpt><trkpt lat="33.5463965" lon="132.9206877"><ele>1451.7866666666666</ele><time>2025-06-21T00:28:46Z</time></trkpt><trkpt lat="33.5462207" lon="132.9205683"><ele>1446.74</ele><time>2025-06-21T00:29:09Z</time></trkpt><trkpt lat="33.5460812" lon="132.9204106"><ele>1441.1766666666665</ele><time>2025-06-21T00:29:30Z</time></trkpt><trkpt lat="33.5459459" lon="132.9202629"><ele>1435.8566666666666</ele><time>2025-06-21T00:29:48Z</time></trkpt><trkpt lat="33.5458272" lon="132.9200638"><ele>1430.6333333333334</ele><time>2025-06-21T00:30:09Z</time></trkpt><trkpt lat="33.5456793" lon="132.9199273"><ele>1426.4766666666667</ele><time>2025-06-21T00:30:32Z</time></trkpt><trkpt lat="33.5455787" lon="132.919737"><ele>1423.4833333333336</ele><time>2025-06-21T00:30:52Z</time></trkpt><trkpt lat="33.5454486" lon="132.9195609"><ele>1421.67</ele><time>2025-06-21T00:31:13Z</time></trkpt><trkpt lat="33.5453197" lon="132.91939"><ele>1418.55</ele><time>2025-06-21T00:31:33Z</time></trkpt><trkpt lat="33.5451311" lon="132.9193486"><ele>1415.29</ele><time>2025-06-21T00:31:53Z</time></trkpt><trkpt lat="33.5449803" lon="132.919217"><ele>1412.596666666667</ele><time>2025-06-21T00:32:11Z</time></trkpt><trkpt lat="33.5448727" lon="132.9190339"><ele>1411.8733333333332</ele><time>2025-06-21T00:32:32Z</time></trkpt><trkpt lat="33.5448215" lon="132.9188257"><ele>1412.5200000000002</ele><time>2025-06-21T00:36:10Z</time></trkpt><trkpt lat="33.5446363" lon="132.9187902"><ele>1414.0866666666668</ele><time>2025-06-21T00:36:46Z</time></trkpt><trkpt lat="33.5444506" lon="132.9188701"><ele>1416.6033333333332</ele><time>2025-06-21T00:37:09Z</time></trkpt><trkpt lat="33.5442655" lon="132.918853"><ele>1418.8433333333332</ele><time>2025-06-21T00:38:09Z</time></trkpt><trkpt lat="33.5440965" lon="132.9187289"><ele>1420.1333333333334</ele><time>2025-06-21T00:39:00Z</time></trkpt><trkpt lat="33.5439306" lon="132.9186439"><ele>1419.0566666666666</ele><time>2025-06-21T00:39:18Z</time></trkpt><trkpt lat="33.54377" lon="132.9185215"><ele>1416.5466666666664</ele><time>2025-06-21T00:39:39Z</time></trkpt><trkpt lat="33.5436009" lon="132.9184138"><ele>1413.7300000000002</ele><time>2025-06-21T00:40:30Z</time></trkpt><trkpt lat="33.543446" lon="132.9182875"><ele>1412.3066666666666</ele><time>2025-06-21T00:41:51Z</time></trkpt><trkpt lat="33.5432455" lon="132.9182186"><ele>1412.39</ele><time>2025-06-21T00:42:21Z</time></trkpt><trkpt lat="33.5430733" lon="132.9181154"><ele>1412.9533333333336</ele><time>2025-06-21T00:42:47Z</time></trkpt><trkpt lat="33.5429008" lon="132.9180518"><ele>1413.3066666666666</ele><time>2025-06-21T00:43:13Z</time></trkpt><trkpt lat="33.542712" lon="132.9180143"><ele>1413.1033333333335</ele><time>2025-06-21T00:43:37Z</time></trkpt><trkpt lat="33.5425296" lon="132.9179656"><ele>1413.6733333333334</ele><time>2025-06-21T00:44:01Z</time></trkpt><trkpt lat="33.5423519" lon="132.9179214"><ele>1415.6333333333332</ele><time>2025-06-21T00:44:45Z</time></trkpt><trkpt lat="33.5421793" lon="132.9178021"><ele>1418.4133333333332</ele><time>2025-06-21T00:45:18Z</time></trkpt><trkpt lat="33.5420795" lon="132.9175883"><ele>1420.1533333333334</ele><time>2025-06-21T00:46:39Z</time></trkpt><trkpt lat="33.5419718" lon="132.9173867"><ele>1420.4800000000002</ele><time>2025-06-21T00:47:03Z</time></trkpt><trkpt lat="33.5418584" lon="132.9172128"><ele>1420.2133333333334</ele><time>2025-06-21T00:47:26Z</time></trkpt><trkpt lat="33.5417507" lon="132.9170058"><ele>1420.1499999999999</ele><time>2025-06-21T00:48:02Z</time></trkpt><trkpt lat="33.5415745" lon="132.9170916"><ele>1420.1200000000001</ele><time>2025-06-21T00:52:28Z</time></trkpt><trkpt lat="33.5414207" lon="132.9172296"><ele>1419.9666666666665</ele><time>2025-06-21T00:52:52Z</time></trkpt><trkpt lat="33.5412339" lon="132.9173162"><ele>1416.87</ele><time>2025-06-21T00:57:58Z</time></trkpt><trkpt lat="33.5410898" lon="132.9174457"><ele>1411.4000000000003</ele><time>2025-06-21T00:58:28Z</time></trkpt><trkpt lat="33.5409378" lon="132.917608"><ele>1403.8866666666665</ele><time>2025-06-21T00:59:04Z</time></trkpt><trkpt lat="33.5407497" lon="132.9177033"><ele>1398.0466666666669</ele><time>2025-06-21T00:59:40Z</time></trkpt><trkpt lat="33.5405731" lon="132.9178072"><ele>1393.7700000000002</ele><time>2025-06-21T01:00:07Z</time></trkpt><trkpt lat="33.5403948" lon="132.9179027"><ele>1390.5366666666669</ele><time>2025-06-21T01:00:43Z</time></trkpt><trkpt lat="33.5402204" lon="132.9180016"><ele>1387.7333333333336</ele><time>2025-06-21T01:02:16Z</time></trkpt><trkpt lat="33.5400911" lon="132.9181695"><ele>1384.88</ele><time>2025-06-21T01:02:40Z</time></trkpt><trkpt lat="33.5399366" lon="132.9183152"><ele>1381.8700000000001</ele><time>2025-06-21T01:03:06Z</time></trkpt><trkpt lat="33.5397731" lon="132.9184174"><ele>1376.9333333333334</ele><time>2025-06-21T01:03:59Z</time></trkpt><trkpt lat="33.5395983" lon="132.9184875"><ele>1370.5833333333333</ele><time>2025-06-21T01:04:32Z</time></trkpt><trkpt lat="33.5394169" lon="132.9185731"><ele>1364.1466666666668</ele><time>2025-06-21T01:04:53Z</time></trkpt><trkpt lat="33.5392532" lon="132.9186741"><ele>1358.53</ele><time>2025-06-21T01:06:17Z</time></trkpt><trkpt lat="33.5390812" lon="132.9188146"><ele>1354.7066666666667</ele><time>2025-06-21T01:06:43Z</time></trkpt><trkpt lat="33.5389618" lon="132.9190066"><ele>1352.3633333333335</ele><time>2025-06-21T01:07:04Z</time></trkpt><trkpt lat="33.5388216" lon="132.9191608"><ele>1351.7566666666667</ele><time>2025-06-21T01:07:31Z</time></trkpt><trkpt lat="33.5386623" lon="132.9192959"><ele>1353.8433333333335</ele><time>2025-06-21T01:08:01Z</time></trkpt><trkpt lat="33.5384839" lon="132.9193808"><ele>1356.4233333333334</ele><time>2025-06-21T01:08:34Z</time></trkpt><trkpt lat="33.5383343" lon="132.9195144"><ele>1359.3233333333335</ele><time>2025-06-21T01:08:58Z</time></trkpt><trkpt lat="33.5381876" lon="132.9196495"><ele>1360.11</ele><time>2025-06-21T01:09:49Z</time></trkpt><trkpt lat="33.5380004" lon="132.91968"><ele>1360.3333333333333</ele><time>2025-06-21T01:10:31Z</time></trkpt><trkpt lat="33.5379493" lon="132.9199012"><ele>1360.4266666666667</ele><time>2025-06-21T01:11:31Z</time></trkpt><trkpt lat="33.5377773" lon="132.9197768"><ele>1360.6000000000001</ele><time>2025-06-21T01:13:25Z</time></trkpt><trkpt lat="33.5375937" lon="132.9198076"><ele>1360.7666666666667</ele><time>2025-06-21T01:14:22Z</time></trkpt><trkpt lat="33.5373948" lon="132.9198526"><ele>1361.07</ele><time>2025-06-21T01:14:55Z</time></trkpt><trkpt lat="33.5371955" lon="132.919909"><ele>1361.3033333333335</ele><time>2025-06-21T01:15:25Z</time></trkpt><trkpt lat="33.5370054" lon="132.9199643"><ele>1361.6333333333332</ele><time>2025-06-21T01:15:49Z</time></trkpt><trkpt lat="33.536808" lon="132.9200057"><ele>1362.5600000000002</ele><time>2025-06-21T01:16:13Z</time></trkpt><trkpt lat="33.5366329" lon="132.9200578"><ele>1364.0766666666666</ele><time>2025-06-21T01:16:37Z</time></trkpt><trkpt lat="33.5364544" lon="132.9201029"><ele>1366.716666666667</ele><time>2025-06-21T01:17:28Z</time></trkpt><trkpt lat="33.5362675" lon="132.9201958"><ele>1369.4066666666668</ele><time>2025-06-21T01:17:55Z</time></trkpt><trkpt lat="33.5361463" lon="132.9203584"><ele>1371.9966666666667</ele><time>2025-06-21T01:18:37Z</time></trkpt><trkpt lat="33.5359782" lon="132.9204409"><ele>1374.3933333333334</ele><time>2025-06-21T01:19:46Z</time></trkpt><trkpt lat="33.5358006" lon="132.9205399"><ele>1377.986666666667</ele><time>2025-06-21T01:20:34Z</time></trkpt><trkpt lat="33.5356112" lon="132.9205705"><ele>1382.03</ele><time>2025-06-21T01:21:52Z</time></trkpt><trkpt lat="33.535435" lon="132.9206377"><ele>1386.3433333333332</ele><time>2025-06-21T01:22:22Z</time></trkpt><trkpt lat="33.5352739" lon="132.9207456"><ele>1388.8266666666668</ele><time>2025-06-21T01:22:58Z</time></trkpt><trkpt lat="33.5350981" lon="132.9208078"><ele>1390.2933333333333</ele><time>2025-06-21T01:24:16Z</time></trkpt><trkpt lat="33.5349113" lon="132.9207665"><ele>1390.5133333333333</ele><time>2025-06-21T01:24:52Z</time></trkpt><trkpt lat="33.5347372" lon="132.9208491"><ele>1390.8400000000001</ele><time>2025-06-21T01:25:34Z</time></trkpt><trkpt lat="33.5346046" lon="132.9210113"><ele>1391.17</ele><time>2025-06-21T01:26:22Z</time></trkpt><trkpt lat="33.5344456" lon="132.9211191"><ele>1391.7966666666669</ele><time>2025-06-21T01:27:19Z</time></trkpt><trkpt lat="33.534265" lon="132.921182"><ele>1391.99</ele><time>2025-06-21T01:27:55Z</time></trkpt><trkpt lat="33.5340909" lon="132.9212505"><ele>1394.573333333333</ele><time>2025-06-21T01:29:12Z</time></trkpt><trkpt lat="33.5339336" lon="132.9213569"><ele>1397.9466666666667</ele><time>2025-06-21T01:32:06Z</time></trkpt><trkpt lat="33.5337605" lon="132.9214827"><ele>1402.3233333333335</ele><time>2025-06-21T01:32:51Z</time></trkpt><trkpt lat="33.5339268" lon="132.9213872"><ele>1403.506666666667</ele><time>2025-06-21T01:47:12Z</time></trkpt><trkpt lat="33.5340904" lon="132.9212598"><ele>1402.3233333333335</ele><time>2025-06-21T01:49:48Z</time></trkpt><trkpt lat="33.534255" lon="132.9211709"><ele>1398.78</ele><time>2025-06-21T01:50:33Z</time></trkpt><trkpt lat="33.5344321" lon="132.9211138"><ele>1395.4066666666668</ele><time>2025-06-21T01:50:57Z</time></trkpt><trkpt lat="33.5346011" lon="132.9210352"><ele>1392.823333333333</ele><time>2025-06-21T01:51:27Z</time></trkpt><trkpt lat="33.5347394" lon="132.9208801"><ele>1391.7966666666669</ele><time>2025-06-21T01:51:57Z</time></trkpt><trkpt lat="33.5349234" lon="132.920762"><ele>1391.17</ele><time>2025-06-21T01:54:12Z</time></trkpt><trkpt lat="33.535121" lon="132.9208132"><ele>1390.8233333333335</ele><time>2025-06-21T01:55:03Z</time></trkpt><trkpt lat="33.5353138" lon="132.9207939"><ele>1390.3966666666668</ele><time>2025-06-21T01:55:39Z</time></trkpt><trkpt lat="33.5354629" lon="132.9206482"><ele>1390.0200000000002</ele><time>2025-06-21T01:56:06Z</time></trkpt><trkpt lat="33.535657" lon="132.9205707"><ele>1388.57</ele><time>2025-06-21T01:56:30Z</time></trkpt><trkpt lat="33.5358455" lon="132.9205486"><ele>1385.5266666666666</ele><time>2025-06-21T01:56:54Z</time></trkpt><trkpt lat="33.536019" lon="132.9204506"><ele>1381.3700000000001</ele><time>2025-06-21T01:57:15Z</time></trkpt><trkpt lat="33.536183" lon="132.9203573"><ele>1376.6133333333335</ele><time>2025-06-21T01:57:36Z</time></trkpt><trkpt lat="33.5363068" lon="132.9201987"><ele>1373.68</ele><time>2025-06-21T01:58:27Z</time></trkpt><trkpt lat="33.5364992" lon="132.9201236"><ele>1370.7633333333333</ele><time>2025-06-21T01:58:50Z</time></trkpt><trkpt lat="33.5366907" lon="132.9200561"><ele>1368.5333333333335</ele><time>2025-06-21T01:59:07Z</time></trkpt><trkpt lat="33.5368996" lon="132.9200357"><ele>1365.4066666666668</ele><time>2025-06-21T02:00:22Z</time></trkpt><trkpt lat="33.5370827" lon="132.9199442"><ele>1363.1733333333334</ele><time>2025-06-21T02:00:49Z</time></trkpt><trkpt lat="33.5372704" lon="132.9198986"><ele>1361.9533333333336</ele><time>2025-06-21T02:01:34Z</time></trkpt><trkpt lat="33.5374586" lon="132.9198374"><ele>1361.4633333333334</ele><time>2025-06-21T02:03:37Z</time></trkpt><trkpt lat="33.5376344" lon="132.9197637"><ele>1361.256666666667</ele><time>2025-06-21T02:04:16Z</time></trkpt><trkpt lat="33.5378093" lon="132.9197052"><ele>1361.0666666666666</ele><time>2025-06-21T02:05:19Z</time></trkpt><trkpt lat="33.5379904" lon="132.9197056"><ele>1360.7833333333333</ele><time>2025-06-21T02:05:52Z</time></trkpt><trkpt lat="33.5381938" lon="132.9196706"><ele>1360.5533333333333</ele><time>2025-06-21T02:06:19Z</time></trkpt><trkpt lat="33.5383556" lon="132.919535"><ele>1360.3333333333333</ele><time>2025-06-21T02:06:46Z</time></trkpt><trkpt lat="33.5385191" lon="132.9193846"><ele>1360.11</ele><time>2025-06-21T02:07:07Z</time></trkpt><trkpt lat="33.5386759" lon="132.9192758"><ele>1359.493333333333</ele><time>2025-06-21T02:07:24Z</time></trkpt><trkpt lat="33.538837" lon="132.919179"><ele>1356.5933333333332</ele><time>2025-06-21T02:07:45Z</time></trkpt><trkpt lat="33.5389588" lon="132.9190149"><ele>1354.0133333333333</ele><time>2025-06-21T02:10:39Z</time></trkpt><trkpt lat="33.5390815" lon="132.918824"><ele>1351.756666666667</ele><time>2025-06-21T02:11:15Z</time></trkpt><trkpt lat="33.5392447" lon="132.9187117"><ele>1351.91</ele><time>2025-06-21T02:11:45Z</time></trkpt><trkpt lat="33.5394165" lon="132.918575"><ele>1354.2533333333333</ele><time>2025-06-21T02:12:14Z</time></trkpt><trkpt lat="33.5396007" lon="132.9184987"><ele>1358.0766666666666</ele><time>2025-06-21T02:12:41Z</time></trkpt><trkpt lat="33.5397742" lon="132.9184325"><ele>1364.1466666666668</ele><time>2025-06-21T02:13:32Z</time></trkpt><trkpt lat="33.539934" lon="132.9183325"><ele>1370.5833333333333</ele><time>2025-06-21T02:14:53Z</time></trkpt><trkpt lat="33.5401076" lon="132.9182168"><ele>1376.5333333333335</ele><time>2025-06-21T02:15:53Z</time></trkpt><trkpt lat="33.5402095" lon="132.9180175"><ele>1380.9933333333336</ele><time>2025-06-21T02:16:35Z</time></trkpt><trkpt lat="33.5403701" lon="132.9178921"><ele>1383.6933333333334</ele><time>2025-06-21T02:17:08Z</time></trkpt><trkpt lat="33.5405447" lon="132.9178254"><ele>1386.9466666666667</ele><time>2025-06-21T02:17:38Z</time></trkpt><trkpt lat="33.5407214" lon="132.9177568"><ele>1389.67</ele><time>2025-06-21T02:18:23Z</time></trkpt><trkpt lat="33.5408935" lon="132.9176521"><ele>1392.9833333333333</ele><time>2025-06-21T02:19:41Z</time></trkpt><trkpt lat="33.5410501" lon="132.9175429"><ele>1396.4833333333333</ele><time>2025-06-21T02:20:32Z</time></trkpt><trkpt lat="33.5411924" lon="132.9174053"><ele>1401.1599999999999</ele><time>2025-06-21T02:21:53Z</time></trkpt><trkpt lat="33.5413434" lon="132.9172852"><ele>1407.7733333333333</ele><time>2025-06-21T02:22:50Z</time></trkpt><trkpt lat="33.5415045" lon="132.9171618"><ele>1413.99</ele><time>2025-06-21T02:23:50Z</time></trkpt><trkpt lat="33.5416575" lon="132.9170264"><ele>1418.7933333333333</ele><time>2025-06-21T02:24:53Z</time></trkpt><trkpt lat="33.5418244" lon="132.9171212"><ele>1419.9833333333336</ele><time>2025-06-21T02:26:14Z</time></trkpt><trkpt lat="33.5419226" lon="132.917303"><ele>1420.0600000000002</ele><time>2025-06-21T02:26:38Z</time></trkpt><trkpt lat="33.5420255" lon="132.917482"><ele>1420.0933333333335</ele><time>2025-06-21T02:27:08Z</time></trkpt><trkpt lat="33.5421152" lon="132.9176783"><ele>1420.3</ele><time>2025-06-21T02:27:44Z</time></trkpt><trkpt lat="33.5422236" lon="132.9178602"><ele>1420.5833333333333</ele><time>2025-06-21T02:28:14Z</time></trkpt><trkpt lat="33.5423973" lon="132.9179348"><ele>1419.6166666666666</ele><time>2025-06-21T02:30:35Z</time></trkpt><trkpt lat="33.5425843" lon="132.9179711"><ele>1417.51</ele><time>2025-06-21T02:31:20Z</time></trkpt><trkpt lat="33.5427814" lon="132.9180202"><ele>1414.9333333333334</ele><time>2025-06-21T02:31:41Z</time></trkpt><trkpt lat="33.5429688" lon="132.9180626"><ele>1413.36</ele><time>2025-06-21T02:32:05Z</time></trkpt><trkpt lat="33.5431553" lon="132.9181618"><ele>1412.9766666666667</ele><time>2025-06-21T02:35:56Z</time></trkpt><trkpt lat="33.5433252" lon="132.9182422"><ele>1412.8366666666668</ele><time>2025-06-21T02:36:26Z</time></trkpt><trkpt lat="33.5435108" lon="132.9183001"><ele>1412.3066666666666</ele><time>2025-06-21T02:37:04Z</time></trkpt><trkpt lat="33.543664" lon="132.9184239"><ele>1411.5466666666669</ele><time>2025-06-21T02:37:49Z</time></trkpt><trkpt lat="33.5438271" lon="132.9185492"><ele>1411.5833333333333</ele><time>2025-06-21T02:38:34Z</time></trkpt><trkpt lat="33.543983" lon="132.9186589"><ele>1413.59</ele><time>2025-06-21T02:39:15Z</time></trkpt><trkpt lat="33.5441505" lon="132.918766"><ele>1416.756666666667</ele><time>2025-06-21T02:40:09Z</time></trkpt><trkpt lat="33.5443273" lon="132.9188636"><ele>1419.09</ele><time>2025-06-21T02:41:03Z</time></trkpt><trkpt lat="33.5445302" lon="132.9188371"><ele>1419.8733333333332</ele><time>2025-06-21T02:41:32Z</time></trkpt><trkpt lat="33.5447239" lon="132.9187466"><ele>1418.1866666666665</ele><time>2025-06-21T02:41:55Z</time></trkpt><trkpt lat="33.5448399" lon="132.9189302"><ele>1415.6500000000003</ele><time>2025-06-21T02:42:15Z</time></trkpt><trkpt lat="33.5449422" lon="132.9191384"><ele>1413.11</ele><time>2025-06-21T02:44:57Z</time></trkpt><trkpt lat="33.5450999" lon="132.9192877"><ele>1411.8733333333337</ele><time>2025-06-21T02:45:18Z</time></trkpt><trkpt lat="33.5452604" lon="132.9194172"><ele>1412.5233333333333</ele><time>2025-06-21T02:45:51Z</time></trkpt><trkpt lat="33.5454099" lon="132.9195579"><ele>1415.1666666666667</ele><time>2025-06-21T02:46:24Z</time></trkpt><trkpt lat="33.5455586" lon="132.9196877"><ele>1417.9633333333334</ele><time>2025-06-21T02:46:57Z</time></trkpt><trkpt lat="33.545679" lon="132.9198676"><ele>1420.6933333333334</ele><time>2025-06-21T02:47:27Z</time></trkpt><trkpt lat="33.5458181" lon="132.920047"><ele>1422.506666666667</ele><time>2025-06-21T02:48:03Z</time></trkpt><trkpt lat="33.545941" lon="132.9202063"><ele>1425.7233333333334</ele><time>2025-06-21T02:48:30Z</time></trkpt><trkpt lat="33.5460671" lon="132.9203861"><ele>1429.7166666666665</ele><time>2025-06-21T02:49:11Z</time></trkpt><trkpt lat="33.5462" lon="132.9205542"><ele>1434.9399999999998</ele><time>2025-06-21T02:49:50Z</time></trkpt><trkpt lat="33.5463679" lon="132.9206531"><ele>1440.1200000000001</ele><time>2025-06-21T02:50:47Z</time></trkpt><trkpt lat="33.5465037" lon="132.9208057"><ele>1445.6733333333332</ele><time>2025-06-21T02:51:47Z</time></trkpt><trkpt lat="33.5466465" lon="132.9209557"><ele>1450.7300000000002</ele><time>2025-06-21T02:52:41Z</time></trkpt><trkpt lat="33.5468393" lon="132.9209192"><ele>1455.6566666666668</ele><time>2025-06-21T02:53:32Z</time></trkpt><trkpt lat="33.5469823" lon="132.9207779"><ele>1459.1899999999998</ele><time>2025-06-21T02:54:08Z</time></trkpt><trkpt lat="33.54715" lon="132.9206898"><ele>1461.5233333333333</ele><time>2025-06-21T02:55:05Z</time></trkpt><trkpt lat="33.547322" lon="132.9207752"><ele>1462.3666666666668</ele><time>2025-06-21T02:55:41Z</time></trkpt><trkpt lat="33.5475201" lon="132.920813"><ele>1461.9233333333334</ele><time>2025-06-21T02:56:10Z</time></trkpt><trkpt lat="33.5477048" lon="132.9207791"><ele>1458.2466666666667</ele><time>2025-06-21T02:57:13Z</time></trkpt><trkpt lat="33.5478905" lon="132.9207734"><ele>1452.7366666666667</ele><time>2025-06-21T02:57:52Z</time></trkpt><trkpt lat="33.5480763" lon="132.9207199"><ele>1445.0966666666666</ele><time>2025-06-21T03:04:52Z</time></trkpt><trkpt lat="33.5482627" lon="132.9206841"><ele>1438.9666666666665</ele><time>2025-06-21T03:05:22Z</time></trkpt><trkpt lat="33.5484538" lon="132.9206688"><ele>1434.6666666666667</ele><time>2025-06-21T03:05:52Z</time></trkpt><trkpt lat="33.5486509" lon="132.9206492"><ele>1431.9166666666667</ele><time>2025-06-21T03:06:13Z</time></trkpt><trkpt lat="33.5488413" lon="132.9207131"><ele>1431.7733333333333</ele><time>2025-06-21T03:06:37Z</time></trkpt><trkpt lat="33.5489653" lon="132.9205539"><ele>1431.5633333333335</ele><time>2025-06-21T03:08:01Z</time></trkpt><trkpt lat="33.5491122" lon="132.9203989"><ele>1432.7866666666669</ele><time>2025-06-21T03:08:28Z</time></trkpt><trkpt lat="33.5492498" lon="132.9202587"><ele>1432.68</ele><time>2025-06-21T03:09:07Z</time></trkpt><trkpt lat="33.5494278" lon="132.9203116"><ele>1432.3266666666666</ele><time>2025-06-21T03:09:28Z</time></trkpt><trkpt lat="33.5495811" lon="132.9204305"><ele>1432.216666666667</ele><time>2025-06-21T03:10:01Z</time></trkpt><trkpt lat="33.5497568" lon="132.920484"><ele>1432.1666666666667</ele><time>2025-06-21T03:10:40Z</time></trkpt><trkpt lat="33.5499571" lon="132.9205226"><ele>1433.0266666666666</ele><time>2025-06-21T03:11:09Z</time></trkpt><trkpt lat="33.5501451" lon="132.9205208"><ele>1434.6933333333334</ele><time>2025-06-21T03:11:36Z</time></trkpt><trkpt lat="33.550325" lon="132.9204826"><ele>1437.3066666666666</ele><time>2025-06-21T03:12:09Z</time></trkpt><trkpt lat="33.5505024" lon="132.9203744"><ele>1440.4366666666667</ele><time>2025-06-21T03:12:45Z</time></trkpt><trkpt lat="33.5506918" lon="132.9203575"><ele>1443.11</ele><time>2025-06-21T03:13:09Z</time></trkpt><trkpt lat="33.5508787" lon="132.9203246"><ele>1446.2266666666667</ele><time>2025-06-21T03:14:00Z</time></trkpt><trkpt lat="33.5510621" lon="132.9203598"><ele>1450.0866666666668</ele><time>2025-06-21T03:14:45Z</time></trkpt><trkpt lat="33.551244" lon="132.9203106"><ele>1453.8366666666668</ele><time>2025-06-21T03:15:21Z</time></trkpt><trkpt lat="33.5513749" lon="132.9204656"><ele>1458.1000000000001</ele><time>2025-06-21T03:16:30Z</time></trkpt><trkpt lat="33.5515049" lon="132.9206244"><ele>1462.54</ele><time>2025-06-21T03:17:12Z</time></trkpt><trkpt lat="33.5516849" lon="132.9206786"><ele>1467.14</ele><time>2025-06-21T03:18:00Z</time></trkpt><trkpt lat="33.5518674" lon="132.9206646"><ele>1469.8066666666666</ele><time>2025-06-21T03:18:18Z</time></trkpt><trkpt lat="33.552049" lon="132.9206641"><ele>1471.1466666666668</ele><time>2025-06-21T03:18:39Z</time></trkpt><trkpt lat="33.5522542" lon="132.920633"><ele>1472.5933333333335</ele><time>2025-06-21T03:19:06Z</time></trkpt><trkpt lat="33.5524542" lon="132.9206555"><ele>1474.8566666666666</ele><time>2025-06-21T03:20:57Z</time></trkpt><trkpt lat="33.5526313" lon="132.920749"><ele>1476.88</ele><time>2025-06-21T03:23:06Z</time></trkpt><trkpt lat="33.5527939" lon="132.9208654"><ele>1478.9533333333336</ele><time>2025-06-21T03:23:30Z</time></trkpt><trkpt lat="33.552954" lon="132.920989"><ele>1480.1866666666667</ele><time>2025-06-21T03:23:57Z</time></trkpt><trkpt lat="33.5530958" lon="132.9211315"><ele>1483.13</ele><time>2025-06-21T03:25:06Z</time></trkpt><trkpt lat="33.5532767" lon="132.9212322"><ele>1486.8866666666665</ele><time>2025-06-21T03:25:56Z</time></trkpt><trkpt lat="33.5533366" lon="132.921447"><ele>1490.3966666666668</ele><time>2025-06-21T03:26:26Z</time></trkpt><trkpt lat="33.5535055" lon="132.9215294"><ele>1493.7633333333333</ele><time>2025-06-21T03:26:52Z</time></trkpt><trkpt lat="33.5536427" lon="132.9216999"><ele>1496.1633333333332</ele><time>2025-06-21T03:27:16Z</time></trkpt><trkpt lat="33.5537846" lon="132.9218639"><ele>1500.3400000000001</ele><time>2025-06-21T03:27:40Z</time></trkpt><trkpt lat="33.5539033" lon="132.9220287"><ele>1502.5900000000001</ele><time>2025-06-21T03:28:03Z</time></trkpt><trkpt lat="33.5540459" lon="132.9222041"><ele>1504.0033333333333</ele><time>2025-06-21T03:29:42Z</time></trkpt><trkpt lat="33.554219" lon="132.9223344"><ele>1504.0933333333332</ele><time>2025-06-21T03:30:03Z</time></trkpt><trkpt lat="33.5543665" lon="132.9224641"><ele>1505.0600000000002</ele><time>2025-06-21T03:30:21Z</time></trkpt><trkpt lat="33.5543863" lon="132.9227084"><ele>1504.5166666666664</ele><time>2025-06-21T03:30:42Z</time></trkpt><trkpt lat="33.5543547" lon="132.9229477"><ele>1503.8266666666666</ele><time>2025-06-21T03:31:03Z</time></trkpt><trkpt lat="33.5542622" lon="132.9231342"><ele>1500.99</ele><time>2025-06-21T03:31:21Z</time></trkpt><trkpt lat="33.5541582" lon="132.9233476"><ele>1500.2166666666665</ele><time>2025-06-21T03:32:02Z</time></trkpt><trkpt lat="33.5540238" lon="132.9234983"><ele>1498.3233333333335</ele><time>2025-06-21T03:32:20Z</time></trkpt><trkpt lat="33.5540012" lon="132.9237357"><ele>1498.5900000000001</ele><time>2025-06-21T03:33:29Z</time></trkpt><trkpt lat="33.554027" lon="132.9239815"><ele>1498.33</ele><time>2025-06-21T03:33:50Z</time></trkpt><trkpt lat="33.5540961" lon="132.9242137"><ele>1499.33</ele><time>2025-06-21T03:34:26Z</time></trkpt><trkpt lat="33.554251" lon="132.9243328"><ele>1500.5233333333333</ele><time>2025-06-21T03:34:47Z</time></trkpt></trkseg></trk></gpx>