<?xml version='1.0' encoding='UTF-8'?><gpx creator="YAMAP - https://yamap.com" xsi:schemaLocation="http://www.topografix.com/GPX/1/1 http://www.topografix.com/GPX/1/1/gpx.xsd" version="1.1" xmlns="http://www.topografix.com/GPX/1/1" xmlns:xsi="http://www.w3.org/2001/XMLSchema-instance"><metadata><bounds maxlat="33.6703052" maxlon="132.6973474" minlat="33.654334" minlon="132.6894838"/></metadata><trk><name>黒岩岳</name><number>1</number><trkseg><trkpt lat="33.6702636" lon="132.6956717"><ele>255.69</ele><time>2026-01-10T22:50:14Z</time></trkpt><trkpt lat="33.6702737" lon="132.6954111"><ele>256.06</ele><time>2026-01-10T22:51:01Z</time></trkpt><trkpt lat="33.6701172" lon="132.6952874"><ele>256.41</ele><time>2026-01-10T22:51:25Z</time></trkpt><trkpt lat="33.6699544" lon="132.6951818"><ele>257.3933333333333</ele><time>2026-01-10T22:51:51Z</time></trkpt><trkpt lat="33.6698076" lon="132.6950302"><ele>258.56</ele><time>2026-01-10T22:52:09Z</time></trkpt><trkpt lat="33.6696532" lon="132.6948676"><ele>260.66</ele><time>2026-01-10T22:52:27Z</time></trkpt><trkpt lat="33.669516" lon="132.6946798"><ele>264.04333333333335</ele><time>2026-01-10T22:52:45Z</time></trkpt><trkpt lat="33.6693831" lon="132.6945004"><ele>266.1266666666667</ele><time>2026-01-10T22:53:03Z</time></trkpt><trkpt lat="33.6692056" lon="132.6946003"><ele>268.64000000000004</ele><time>2026-01-10T22:53:18Z</time></trkpt><trkpt lat="33.6690943" lon="132.6947872"><ele>270.45666666666665</ele><time>2026-01-10T22:53:33Z</time></trkpt><trkpt lat="33.6690123" lon="132.6950058"><ele>272.2666666666667</ele><time>2026-01-10T22:53:51Z</time></trkpt><trkpt lat="33.6689719" lon="132.6952254"><ele>270.74333333333334</ele><time>2026-01-10T22:54:06Z</time></trkpt><trkpt lat="33.6688335" lon="132.6954098"><ele>269.1566666666667</ele><time>2026-01-10T22:54:21Z</time></trkpt><trkpt lat="33.6687425" lon="132.6956059"><ele>270.3233333333333</ele><time>2026-01-10T22:54:36Z</time></trkpt><trkpt lat="33.6688556" lon="132.6958059"><ele>271.97333333333336</ele><time>2026-01-10T22:54:57Z</time></trkpt><trkpt lat="33.6688325" lon="132.696061"><ele>274.27333333333337</ele><time>2026-01-10T22:55:12Z</time></trkpt><trkpt lat="33.6689616" lon="132.6962141"><ele>273.5133333333333</ele><time>2026-01-10T22:55:30Z</time></trkpt><trkpt lat="33.6690812" lon="132.6963775"><ele>273.8766666666667</ele><time>2026-01-10T22:55:48Z</time></trkpt><trkpt lat="33.6692025" lon="132.6965867"><ele>275.9066666666667</ele><time>2026-01-10T22:56:10Z</time></trkpt><trkpt lat="33.6691922" lon="132.6968261"><ele>280.4466666666667</ele><time>2026-01-10T22:56:28Z</time></trkpt><trkpt lat="33.6692775" lon="132.6970332"><ele>284.4433333333334</ele><time>2026-01-10T22:56:49Z</time></trkpt><trkpt lat="33.6693946" lon="132.6972009"><ele>285.27</ele><time>2026-01-10T22:57:07Z</time></trkpt><trkpt lat="33.6695528" lon="132.6973362"><ele>285.68</ele><time>2026-01-10T22:57:22Z</time></trkpt><trkpt lat="33.6693655" lon="132.6973282"><ele>287.60999999999996</ele><time>2026-01-10T22:57:58Z</time></trkpt><trkpt lat="33.6692247" lon="132.6971824"><ele>289.63</ele><time>2026-01-10T22:58:16Z</time></trkpt><trkpt lat="33.6690389" lon="132.697098"><ele>293.6766666666667</ele><time>2026-01-10T22:58:34Z</time></trkpt><trkpt lat="33.6689225" lon="132.696917"><ele>298.4866666666666</ele><time>2026-01-10T22:58:52Z</time></trkpt><trkpt lat="33.6687842" lon="132.6967536"><ele>303.7966666666667</ele><time>2026-01-10T22:59:10Z</time></trkpt><trkpt lat="33.6686542" lon="132.6965711"><ele>307.44</ele><time>2026-01-10T22:59:31Z</time></trkpt><trkpt lat="33.6687238" lon="132.6968083"><ele>309.52333333333337</ele><time>2026-01-10T23:00:14Z</time></trkpt><trkpt lat="33.6687989" lon="132.6970315"><ele>310.58666666666664</ele><time>2026-01-10T23:00:31Z</time></trkpt><trkpt lat="33.6685889" lon="132.6969996"><ele>314.23</ele><time>2026-01-10T23:01:40Z</time></trkpt><trkpt lat="33.6683985" lon="132.6970129"><ele>321.11999999999995</ele><time>2026-01-10T23:02:43Z</time></trkpt><trkpt lat="33.6682289" lon="132.6969022"><ele>328.57666666666665</ele><time>2026-01-10T23:03:04Z</time></trkpt><trkpt lat="33.6680515" lon="132.6969512"><ele>334.8833333333333</ele><time>2026-01-10T23:03:36Z</time></trkpt><trkpt lat="33.6678555" lon="132.6969672"><ele>338.57666666666665</ele><time>2026-01-10T23:04:06Z</time></trkpt><trkpt lat="33.6676724" lon="132.6969506"><ele>343.83</ele><time>2026-01-10T23:04:24Z</time></trkpt><trkpt lat="33.6675139" lon="132.6968407"><ele>347.1666666666667</ele><time>2026-01-10T23:04:48Z</time></trkpt><trkpt lat="33.6674255" lon="132.6966475"><ele>348.97333333333336</ele><time>2026-01-10T23:05:24Z</time></trkpt><trkpt lat="33.6672581" lon="132.6964904"><ele>350.27333333333337</ele><time>2026-01-10T23:05:38Z</time></trkpt><trkpt lat="33.667116" lon="132.6963336"><ele>351.1966666666667</ele><time>2026-01-10T23:06:49Z</time></trkpt><trkpt lat="33.6669805" lon="132.6961634"><ele>353.55999999999995</ele><time>2026-01-10T23:07:08Z</time></trkpt><trkpt lat="33.6668629" lon="132.6959603"><ele>353.82</ele><time>2026-01-10T23:07:31Z</time></trkpt><trkpt lat="33.666821" lon="132.6957281"><ele>354.51</ele><time>2026-01-10T23:07:48Z</time></trkpt><trkpt lat="33.6667161" lon="132.6955087"><ele>357.59999999999997</ele><time>2026-01-10T23:08:18Z</time></trkpt><trkpt lat="33.6666915" lon="132.6952795"><ele>363.59999999999997</ele><time>2026-01-10T23:08:54Z</time></trkpt><trkpt lat="33.6666642" lon="132.6950626"><ele>370.40333333333336</ele><time>2026-01-10T23:09:27Z</time></trkpt><trkpt lat="33.6665662" lon="132.6948794"><ele>376.37999999999994</ele><time>2026-01-10T23:10:07Z</time></trkpt><trkpt lat="33.6664173" lon="132.6947559"><ele>381.8333333333333</ele><time>2026-01-10T23:11:24Z</time></trkpt><trkpt lat="33.6663309" lon="132.6945511"><ele>387.02333333333337</ele><time>2026-01-10T23:11:49Z</time></trkpt><trkpt lat="33.6662399" lon="132.6943636"><ele>391.46000000000004</ele><time>2026-01-10T23:13:11Z</time></trkpt><trkpt lat="33.6660875" lon="132.694244"><ele>396.3733333333334</ele><time>2026-01-10T23:13:41Z</time></trkpt><trkpt lat="33.6660012" lon="132.6940523"><ele>401.7866666666667</ele><time>2026-01-10T23:14:23Z</time></trkpt><trkpt lat="33.6658665" lon="132.6938652"><ele>407.49333333333334</ele><time>2026-01-10T23:15:11Z</time></trkpt><trkpt lat="33.6658286" lon="132.693631"><ele>412.6433333333334</ele><time>2026-01-10T23:15:51Z</time></trkpt><trkpt lat="33.6656961" lon="132.6934753"><ele>417.1333333333334</ele><time>2026-01-10T23:16:17Z</time></trkpt><trkpt lat="33.6656455" lon="132.6932662"><ele>421.2733333333333</ele><time>2026-01-10T23:17:24Z</time></trkpt><trkpt lat="33.665625" lon="132.6930466"><ele>425.84999999999997</ele><time>2026-01-10T23:17:43Z</time></trkpt><trkpt lat="33.6655909" lon="132.6928345"><ele>430.8533333333334</ele><time>2026-01-10T23:18:14Z</time></trkpt><trkpt lat="33.6655331" lon="132.6926066"><ele>436.2366666666667</ele><time>2026-01-10T23:18:50Z</time></trkpt><trkpt lat="33.6654277" lon="132.6924097"><ele>440.7</ele><time>2026-01-10T23:19:32Z</time></trkpt><trkpt lat="33.6652719" lon="132.6922885"><ele>446.15333333333336</ele><time>2026-01-10T23:20:11Z</time></trkpt><trkpt lat="33.6651221" lon="132.6921674"><ele>451.00333333333333</ele><time>2026-01-10T23:20:35Z</time></trkpt><trkpt lat="33.6649434" lon="132.6921247"><ele>455.89000000000004</ele><time>2026-01-10T23:21:01Z</time></trkpt><trkpt lat="33.6647972" lon="132.6919687"><ele>459.46999999999997</ele><time>2026-01-10T23:21:37Z</time></trkpt><trkpt lat="33.664619" lon="132.6918452"><ele>462.1033333333333</ele><time>2026-01-10T23:23:47Z</time></trkpt><trkpt lat="33.6644689" lon="132.6917032"><ele>466.1233333333333</ele><time>2026-01-10T23:24:08Z</time></trkpt><trkpt lat="33.6643353" lon="132.6915434"><ele>471.1066666666666</ele><time>2026-01-10T23:25:08Z</time></trkpt><trkpt lat="33.664188" lon="132.6914079"><ele>477.94666666666666</ele><time>2026-01-10T23:26:11Z</time></trkpt><trkpt lat="33.663997" lon="132.6913201"><ele>483.81</ele><time>2026-01-10T23:26:44Z</time></trkpt><trkpt lat="33.6638574" lon="132.6911511"><ele>489.09666666666664</ele><time>2026-01-10T23:28:00Z</time></trkpt><trkpt lat="33.6637123" lon="132.6910165"><ele>494.1466666666667</ele><time>2026-01-10T23:28:39Z</time></trkpt><trkpt lat="33.6635209" lon="132.6909608"><ele>499.8066666666667</ele><time>2026-01-10T23:29:30Z</time></trkpt><trkpt lat="33.663444" lon="132.6907641"><ele>505.15666666666675</ele><time>2026-01-10T23:30:21Z</time></trkpt><trkpt lat="33.663317" lon="132.690594"><ele>509.4433333333333</ele><time>2026-01-10T23:31:03Z</time></trkpt><trkpt lat="33.6631625" lon="132.6904778"><ele>512.7733333333334</ele><time>2026-01-10T23:31:51Z</time></trkpt><trkpt lat="33.6629897" lon="132.6905877"><ele>516.3333333333334</ele><time>2026-01-10T23:32:30Z</time></trkpt><trkpt lat="33.6627975" lon="132.6905584"><ele>519.5766666666666</ele><time>2026-01-10T23:32:48Z</time></trkpt><trkpt lat="33.6625957" lon="132.6905569"><ele>522.3299999999999</ele><time>2026-01-10T23:33:14Z</time></trkpt><trkpt lat="33.6624458" lon="132.6907042"><ele>523.9899999999999</ele><time>2026-01-10T23:33:33Z</time></trkpt><trkpt lat="33.6622614" lon="132.690784"><ele>526.2033333333334</ele><time>2026-01-10T23:34:48Z</time></trkpt><trkpt lat="33.6621544" lon="132.6906093"><ele>526.61</ele><time>2026-01-10T23:35:29Z</time></trkpt><trkpt lat="33.6619444" lon="132.6905903"><ele>528.3000000000001</ele><time>2026-01-10T23:35:50Z</time></trkpt><trkpt lat="33.6617354" lon="132.6905989"><ele>530.58</ele><time>2026-01-10T23:36:09Z</time></trkpt><trkpt lat="33.6615423" lon="132.69056"><ele>536.0366666666666</ele><time>2026-01-10T23:36:27Z</time></trkpt><trkpt lat="33.6613641" lon="132.6906356"><ele>541.6533333333333</ele><time>2026-01-10T23:36:51Z</time></trkpt><trkpt lat="33.6611806" lon="132.6906333"><ele>549.61</ele><time>2026-01-10T23:39:11Z</time></trkpt><trkpt lat="33.6609996" lon="132.6906237"><ele>557.2766666666668</ele><time>2026-01-10T23:39:34Z</time></trkpt><trkpt lat="33.6608228" lon="132.6907053"><ele>565.4333333333333</ele><time>2026-01-10T23:39:52Z</time></trkpt><trkpt lat="33.6606514" lon="132.6907899"><ele>570.9233333333333</ele><time>2026-01-10T23:40:51Z</time></trkpt><trkpt lat="33.6605058" lon="132.6909218"><ele>576.9233333333333</ele><time>2026-01-10T23:41:24Z</time></trkpt><trkpt lat="33.6604095" lon="132.6911108"><ele>582.8266666666667</ele><time>2026-01-10T23:42:15Z</time></trkpt><trkpt lat="33.660273" lon="132.6912782"><ele>589.4566666666667</ele><time>2026-01-10T23:42:36Z</time></trkpt><trkpt lat="33.6601081" lon="132.6914374"><ele>595.75</ele><time>2026-01-10T23:43:30Z</time></trkpt><trkpt lat="33.6599661" lon="132.6915847"><ele>600.9866666666667</ele><time>2026-01-10T23:43:45Z</time></trkpt><trkpt lat="33.6597987" lon="132.6917141"><ele>604.62</ele><time>2026-01-10T23:44:21Z</time></trkpt><trkpt lat="33.6596437" lon="132.6915481"><ele>607.8433333333334</ele><time>2026-01-10T23:45:12Z</time></trkpt><trkpt lat="33.6594612" lon="132.6915025"><ele>610.6933333333333</ele><time>2026-01-10T23:45:33Z</time></trkpt><trkpt lat="33.659273" lon="132.6915401"><ele>614.1233333333333</ele><time>2026-01-10T23:45:51Z</time></trkpt><trkpt lat="33.6590979" lon="132.6916518"><ele>616.91</ele><time>2026-01-10T23:46:24Z</time></trkpt><trkpt lat="33.658915" lon="132.6916916"><ele>619.7833333333333</ele><time>2026-01-10T23:46:52Z</time></trkpt><trkpt lat="33.6588212" lon="132.6918864"><ele>622.0400000000001</ele><time>2026-01-10T23:47:17Z</time></trkpt><trkpt lat="33.6586192" lon="132.6918857"><ele>624.3333333333334</ele><time>2026-01-10T23:48:44Z</time></trkpt><trkpt lat="33.6584728" lon="132.6917172"><ele>625.4733333333334</ele><time>2026-01-10T23:48:59Z</time></trkpt><trkpt lat="33.6583445" lon="132.6915453"><ele>626.34</ele><time>2026-01-10T23:49:22Z</time></trkpt><trkpt lat="33.6581457" lon="132.6916328"><ele>627.6466666666666</ele><time>2026-01-10T23:49:56Z</time></trkpt><trkpt lat="33.6579603" lon="132.6915438"><ele>629.3133333333334</ele><time>2026-01-10T23:50:35Z</time></trkpt><trkpt lat="33.6579354" lon="132.6913239"><ele>629.6933333333333</ele><time>2026-01-10T23:52:02Z</time></trkpt><trkpt lat="33.6579087" lon="132.6911072"><ele>626.87</ele><time>2026-01-10T23:52:17Z</time></trkpt><trkpt lat="33.6579804" lon="132.6908759"><ele>622.1433333333333</ele><time>2026-01-10T23:52:34Z</time></trkpt><trkpt lat="33.6581074" lon="132.6906954"><ele>617.59</ele><time>2026-01-10T23:52:54Z</time></trkpt><trkpt lat="33.6579141" lon="132.6906564"><ele>616.1766666666666</ele><time>2026-01-10T23:53:09Z</time></trkpt><trkpt lat="33.6577329" lon="132.6906348"><ele>617.8966666666666</ele><time>2026-01-10T23:53:43Z</time></trkpt><trkpt lat="33.6575516" lon="132.6906251"><ele>622.7099999999999</ele><time>2026-01-10T23:54:04Z</time></trkpt><trkpt lat="33.6573827" lon="132.6905362"><ele>627.52</ele><time>2026-01-10T23:55:35Z</time></trkpt><trkpt lat="33.657431" lon="132.6903088"><ele>630.9</ele><time>2026-01-10T23:55:55Z</time></trkpt><trkpt lat="33.6573978" lon="132.6900703"><ele>632.8100000000001</ele><time>2026-01-10T23:56:15Z</time></trkpt><trkpt lat="33.6571993" lon="132.6899958"><ele>635.0</ele><time>2026-01-10T23:56:39Z</time></trkpt><trkpt lat="33.6570551" lon="132.6898625"><ele>638.3166666666667</ele><time>2026-01-10T23:57:15Z</time></trkpt><trkpt lat="33.6568623" lon="132.6898045"><ele>641.9633333333333</ele><time>2026-01-10T23:57:45Z</time></trkpt><trkpt lat="33.6566891" lon="132.6897393"><ele>645.5600000000001</ele><time>2026-01-10T23:58:28Z</time></trkpt><trkpt lat="33.6564846" lon="132.6897264"><ele>650.4200000000001</ele><time>2026-01-10T23:59:09Z</time></trkpt><trkpt lat="33.6563069" lon="132.6896614"><ele>655.4933333333333</ele><time>2026-01-10T23:59:33Z</time></trkpt><trkpt lat="33.6561376" lon="132.6895599"><ele>660.0600000000001</ele><time>2026-01-11T00:00:32Z</time></trkpt><trkpt lat="33.6559463" lon="132.6895978"><ele>662.8633333333333</ele><time>2026-01-11T00:01:26Z</time></trkpt><trkpt lat="33.6557497" lon="132.6896052"><ele>665.1733333333333</ele><time>2026-01-11T00:01:44Z</time></trkpt><trkpt lat="33.655553" lon="132.6896783"><ele>667.3933333333333</ele><time>2026-01-11T00:02:01Z</time></trkpt><trkpt lat="33.6553574" lon="132.6897238"><ele>669.5066666666667</ele><time>2026-01-11T00:02:20Z</time></trkpt><trkpt lat="33.655259" lon="132.6899373"><ele>671.6466666666666</ele><time>2026-01-11T00:02:37Z</time></trkpt><trkpt lat="33.6551886" lon="132.6901471"><ele>673.4366666666667</ele><time>2026-01-11T00:02:55Z</time></trkpt><trkpt lat="33.6550941" lon="132.689929"><ele>675.37</ele><time>2026-01-11T00:04:18Z</time></trkpt><trkpt lat="33.654925" lon="132.6898315"><ele>677.88</ele><time>2026-01-11T00:04:47Z</time></trkpt><trkpt lat="33.65474" lon="132.689765"><ele>682.0200000000001</ele><time>2026-01-11T00:05:23Z</time></trkpt><trkpt lat="33.65456" lon="132.6896913"><ele>687.1833333333334</ele><time>2026-01-11T00:06:12Z</time></trkpt><trkpt lat="33.6545011" lon="132.6894838"><ele>692.63</ele><time>2026-01-11T00:12:50Z</time></trkpt><trkpt lat="33.654334" lon="132.6895797"><ele>694.3566666666667</ele><time>2026-01-11T00:13:29Z</time></trkpt><trkpt lat="33.6545804" lon="132.6896469"><ele>693.8733333333333</ele><time>2026-01-11T00:13:37Z</time></trkpt><trkpt lat="33.6548177" lon="132.689619"><ele>690.2366666666667</ele><time>2026-01-11T00:13:43Z</time></trkpt><trkpt lat="33.6549899" lon="132.6897574"><ele>686.3966666666666</ele><time>2026-01-11T00:15:23Z</time></trkpt><trkpt lat="33.6550586" lon="132.6899592"><ele>682.5166666666668</ele><time>2026-01-11T00:15:43Z</time></trkpt><trkpt lat="33.6551071" lon="132.6901705"><ele>679.62</ele><time>2026-01-11T00:16:04Z</time></trkpt><trkpt lat="33.6552105" lon="132.690349"><ele>677.0666666666667</ele><time>2026-01-11T00:16:22Z</time></trkpt><trkpt lat="33.6552953" lon="132.6901135"><ele>673.84</ele><time>2026-01-11T00:16:39Z</time></trkpt><trkpt lat="33.6553819" lon="132.6898908"><ele>671.1466666666666</ele><time>2026-01-11T00:16:56Z</time></trkpt><trkpt lat="33.6555238" lon="132.6897419"><ele>669.3533333333334</ele><time>2026-01-11T00:17:11Z</time></trkpt><trkpt lat="33.6557137" lon="132.6896847"><ele>667.7166666666667</ele><time>2026-01-11T00:17:26Z</time></trkpt><trkpt lat="33.6559036" lon="132.6896924"><ele>666.0966666666667</ele><time>2026-01-11T00:17:44Z</time></trkpt><trkpt lat="33.6560718" lon="132.6897836"><ele>664.1533333333334</ele><time>2026-01-11T00:18:02Z</time></trkpt><trkpt lat="33.6561966" lon="132.6899577"><ele>662.57</ele><time>2026-01-11T00:18:32Z</time></trkpt><trkpt lat="33.6563844" lon="132.6899536"><ele>660.7133333333334</ele><time>2026-01-11T00:19:19Z</time></trkpt><trkpt lat="33.6565195" lon="132.6898071"><ele>658.0133333333333</ele><time>2026-01-11T00:20:16Z</time></trkpt><trkpt lat="33.6566847" lon="132.689709"><ele>654.38</ele><time>2026-01-11T00:20:39Z</time></trkpt><trkpt lat="33.6568751" lon="132.6897855"><ele>649.6033333333334</ele><time>2026-01-11T00:20:57Z</time></trkpt><trkpt lat="33.6570414" lon="132.6899034"><ele>645.4266666666667</ele><time>2026-01-11T00:21:14Z</time></trkpt><trkpt lat="33.6571894" lon="132.6900654"><ele>641.62</ele><time>2026-01-11T00:21:34Z</time></trkpt><trkpt lat="33.6573713" lon="132.6900116"><ele>638.0600000000001</ele><time>2026-01-11T00:21:54Z</time></trkpt><trkpt lat="33.6574545" lon="132.6902474"><ele>634.9000000000001</ele><time>2026-01-11T00:22:09Z</time></trkpt><trkpt lat="33.6573899" lon="132.6904982"><ele>632.9200000000001</ele><time>2026-01-11T00:22:24Z</time></trkpt><trkpt lat="33.6574764" lon="132.6907001"><ele>630.6</ele><time>2026-01-11T00:22:42Z</time></trkpt><trkpt lat="33.6577097" lon="132.6906817"><ele>627.39</ele><time>2026-01-11T00:22:57Z</time></trkpt><trkpt lat="33.6579013" lon="132.6907946"><ele>622.3633333333333</ele><time>2026-01-11T00:23:09Z</time></trkpt><trkpt lat="33.658087" lon="132.6909141"><ele>619.3866666666668</ele><time>2026-01-11T00:23:27Z</time></trkpt><trkpt lat="33.6580199" lon="132.6911407"><ele>619.4833333333333</ele><time>2026-01-11T00:23:58Z</time></trkpt><trkpt lat="33.6579044" lon="132.6913349"><ele>623.63</ele><time>2026-01-11T00:24:32Z</time></trkpt><trkpt lat="33.6578965" lon="132.6915697"><ele>627.9466666666666</ele><time>2026-01-11T00:25:08Z</time></trkpt><trkpt lat="33.6580753" lon="132.691635"><ele>630.5466666666666</ele><time>2026-01-11T00:25:41Z</time></trkpt><trkpt lat="33.6582541" lon="132.6915424"><ele>630.12</ele><time>2026-01-11T00:26:05Z</time></trkpt><trkpt lat="33.6584566" lon="132.691633"><ele>627.8833333333333</ele><time>2026-01-11T00:26:29Z</time></trkpt><trkpt lat="33.6586111" lon="132.6917526"><ele>625.78</ele><time>2026-01-11T00:26:53Z</time></trkpt><trkpt lat="33.6587116" lon="132.6919395"><ele>624.58</ele><time>2026-01-11T00:27:29Z</time></trkpt><trkpt lat="33.6589042" lon="132.6919011"><ele>623.8533333333334</ele><time>2026-01-11T00:27:58Z</time></trkpt><trkpt lat="33.6590989" lon="132.6917984"><ele>621.9866666666667</ele><time>2026-01-11T00:28:27Z</time></trkpt><trkpt lat="33.6592874" lon="132.691675"><ele>619.0633333333334</ele><time>2026-01-11T00:28:53Z</time></trkpt><trkpt lat="33.6594682" lon="132.6916218"><ele>616.4633333333333</ele><time>2026-01-11T00:29:07Z</time></trkpt><trkpt lat="33.6596496" lon="132.6916458"><ele>614.02</ele><time>2026-01-11T00:29:29Z</time></trkpt><trkpt lat="33.6598551" lon="132.6916046"><ele>611.0866666666667</ele><time>2026-01-11T00:29:46Z</time></trkpt><trkpt lat="33.6600522" lon="132.6916442"><ele>607.5866666666667</ele><time>2026-01-11T00:30:04Z</time></trkpt><trkpt lat="33.6601927" lon="132.69149"><ele>604.0233333333334</ele><time>2026-01-11T00:30:46Z</time></trkpt><trkpt lat="33.6602992" lon="132.6912767"><ele>599.8000000000001</ele><time>2026-01-11T00:31:09Z</time></trkpt><trkpt lat="33.6604531" lon="132.6911301"><ele>594.3033333333333</ele><time>2026-01-11T00:31:42Z</time></trkpt><trkpt lat="33.6605861" lon="132.690956"><ele>587.4366666666666</ele><time>2026-01-11T00:32:06Z</time></trkpt><trkpt lat="33.6606818" lon="132.6907665"><ele>581.2566666666667</ele><time>2026-01-11T00:32:22Z</time></trkpt><trkpt lat="33.6608809" lon="132.6907748"><ele>575.11</ele><time>2026-01-11T00:32:40Z</time></trkpt><trkpt lat="33.6610536" lon="132.6906399"><ele>569.73</ele><time>2026-01-11T00:33:07Z</time></trkpt><trkpt lat="33.6612294" lon="132.6905903"><ele>562.8466666666667</ele><time>2026-01-11T00:33:23Z</time></trkpt><trkpt lat="33.6612975" lon="132.69079"><ele>555.78</ele><time>2026-01-11T00:34:00Z</time></trkpt><trkpt lat="33.6614499" lon="132.6906617"><ele>549.2933333333334</ele><time>2026-01-11T00:34:16Z</time></trkpt><trkpt lat="33.6616264" lon="132.6907717"><ele>543.7766666666666</ele><time>2026-01-11T00:34:22Z</time></trkpt><trkpt lat="33.6616983" lon="132.6905643"><ele>540.2766666666668</ele><time>2026-01-11T00:35:02Z</time></trkpt><trkpt lat="33.6618909" lon="132.6905977"><ele>536.1233333333333</ele><time>2026-01-11T00:35:20Z</time></trkpt><trkpt lat="33.6620795" lon="132.6907138"><ele>533.2566666666667</ele><time>2026-01-11T00:35:37Z</time></trkpt><trkpt lat="33.6622465" lon="132.6908322"><ele>530.1633333333334</ele><time>2026-01-11T00:35:55Z</time></trkpt><trkpt lat="33.6624538" lon="132.6908331"><ele>527.4566666666668</ele><time>2026-01-11T00:36:24Z</time></trkpt><trkpt lat="33.6625799" lon="132.69065"><ele>525.5100000000001</ele><time>2026-01-11T00:36:45Z</time></trkpt><trkpt lat="33.6627765" lon="132.6906631"><ele>523.3633333333333</ele><time>2026-01-11T00:37:03Z</time></trkpt><trkpt lat="33.6629226" lon="132.690796"><ele>521.1966666666667</ele><time>2026-01-11T00:37:20Z</time></trkpt><trkpt lat="33.6631254" lon="132.6908924"><ele>516.9433333333334</ele><time>2026-01-11T00:37:37Z</time></trkpt><trkpt lat="33.6633195" lon="132.6909613"><ele>511.99333333333334</ele><time>2026-01-11T00:37:55Z</time></trkpt><trkpt lat="33.6635085" lon="132.6909707"><ele>508.0900000000001</ele><time>2026-01-11T00:38:16Z</time></trkpt><trkpt lat="33.6637091" lon="132.6910008"><ele>504.6466666666667</ele><time>2026-01-11T00:38:34Z</time></trkpt><trkpt lat="33.6638335" lon="132.6911776"><ele>500.3033333333333</ele><time>2026-01-11T00:38:52Z</time></trkpt><trkpt lat="33.6639107" lon="132.6913898"><ele>494.00666666666666</ele><time>2026-01-11T00:39:16Z</time></trkpt><trkpt lat="33.6641005" lon="132.6913258"><ele>489.06666666666666</ele><time>2026-01-11T00:39:33Z</time></trkpt><trkpt lat="33.6642754" lon="132.6914205"><ele>484.95</ele><time>2026-01-11T00:39:51Z</time></trkpt><trkpt lat="33.66443" lon="132.6915654"><ele>480.68666666666667</ele><time>2026-01-11T00:40:09Z</time></trkpt><trkpt lat="33.6645412" lon="132.6917627"><ele>474.37000000000006</ele><time>2026-01-11T00:40:27Z</time></trkpt><trkpt lat="33.6647207" lon="132.6918386"><ele>469.02</ele><time>2026-01-11T00:40:48Z</time></trkpt><trkpt lat="33.6648478" lon="132.692004"><ele>465.3633333333334</ele><time>2026-01-11T00:41:07Z</time></trkpt><trkpt lat="33.6649547" lon="132.6921807"><ele>462.66333333333336</ele><time>2026-01-11T00:41:35Z</time></trkpt><trkpt lat="33.6651082" lon="132.692295"><ele>458.98</ele><time>2026-01-11T00:41:59Z</time></trkpt><trkpt lat="33.6652884" lon="132.6921882"><ele>454.5933333333334</ele><time>2026-01-11T00:42:22Z</time></trkpt><trkpt lat="33.6653882" lon="132.6923703"><ele>450.8233333333333</ele><time>2026-01-11T00:42:52Z</time></trkpt><trkpt lat="33.6654874" lon="132.6925597"><ele>447.32</ele><time>2026-01-11T00:43:06Z</time></trkpt><trkpt lat="33.6655671" lon="132.6927723"><ele>444.11666666666673</ele><time>2026-01-11T00:43:24Z</time></trkpt><trkpt lat="33.6656259" lon="132.6930112"><ele>439.17666666666673</ele><time>2026-01-11T00:43:48Z</time></trkpt><trkpt lat="33.6656451" lon="132.6932628"><ele>432.93666666666667</ele><time>2026-01-11T00:44:07Z</time></trkpt><trkpt lat="33.6656171" lon="132.6935042"><ele>426.03</ele><time>2026-01-11T00:44:25Z</time></trkpt><trkpt lat="33.6657489" lon="132.6936637"><ele>420.6833333333334</ele><time>2026-01-11T00:44:43Z</time></trkpt><trkpt lat="33.6658984" lon="132.6938157"><ele>416.54333333333335</ele><time>2026-01-11T00:45:01Z</time></trkpt><trkpt lat="33.6660376" lon="132.6939809"><ele>412.74</ele><time>2026-01-11T00:45:22Z</time></trkpt><trkpt lat="33.6660809" lon="132.694191"><ele>407.72</ele><time>2026-01-11T00:45:43Z</time></trkpt><trkpt lat="33.6661616" lon="132.694386"><ele>402.51000000000005</ele><time>2026-01-11T00:46:10Z</time></trkpt><trkpt lat="33.6663557" lon="132.6944685"><ele>396.47</ele><time>2026-01-11T00:46:42Z</time></trkpt><trkpt lat="33.6664149" lon="132.6947122"><ele>391.5566666666667</ele><time>2026-01-11T00:46:56Z</time></trkpt><trkpt lat="33.6665128" lon="132.6949028"><ele>386.6233333333333</ele><time>2026-01-11T00:47:11Z</time></trkpt><trkpt lat="33.6666535" lon="132.6950434"><ele>381.8333333333333</ele><time>2026-01-11T00:47:29Z</time></trkpt><trkpt lat="33.6665792" lon="132.6952415"><ele>377.1666666666667</ele><time>2026-01-11T00:48:00Z</time></trkpt><trkpt lat="33.6665976" lon="132.6954848"><ele>371.14000000000004</ele><time>2026-01-11T00:48:21Z</time></trkpt><trkpt lat="33.6666488" lon="132.6957069"><ele>364.58666666666664</ele><time>2026-01-11T00:48:36Z</time></trkpt><trkpt lat="33.6668393" lon="132.6958107"><ele>358.54</ele><time>2026-01-11T00:48:54Z</time></trkpt><trkpt lat="33.6669436" lon="132.6960027"><ele>354.37000000000006</ele><time>2026-01-11T00:49:21Z</time></trkpt><trkpt lat="33.6669357" lon="132.6962216"><ele>353.67333333333335</ele><time>2026-01-11T00:49:33Z</time></trkpt><trkpt lat="33.6670742" lon="132.6963744"><ele>353.08</ele><time>2026-01-11T00:49:48Z</time></trkpt><trkpt lat="33.667244" lon="132.6964688"><ele>352.92333333333335</ele><time>2026-01-11T00:50:05Z</time></trkpt><trkpt lat="33.6673081" lon="132.6967105"><ele>352.16</ele><time>2026-01-11T00:50:20Z</time></trkpt><trkpt lat="33.6674691" lon="132.6968873"><ele>351.31333333333333</ele><time>2026-01-11T00:50:38Z</time></trkpt><trkpt lat="33.6676334" lon="132.6970306"><ele>349.80333333333334</ele><time>2026-01-11T00:50:53Z</time></trkpt><trkpt lat="33.6678256" lon="132.6969677"><ele>347.27666666666664</ele><time>2026-01-11T00:51:14Z</time></trkpt><trkpt lat="33.6680048" lon="132.6970708"><ele>344.1966666666667</ele><time>2026-01-11T00:51:35Z</time></trkpt><trkpt lat="33.6681982" lon="132.6970629"><ele>341.4566666666667</ele><time>2026-01-11T00:52:02Z</time></trkpt><trkpt lat="33.6683975" lon="132.6971097"><ele>337.5033333333334</ele><time>2026-01-11T00:52:22Z</time></trkpt><trkpt lat="33.6686015" lon="132.6971811"><ele>331.85</ele><time>2026-01-11T00:52:40Z</time></trkpt><trkpt lat="33.6687528" lon="132.6973474"><ele>326.2133333333333</ele><time>2026-01-11T00:52:58Z</time></trkpt><trkpt lat="33.6688352" lon="132.6971285"><ele>319.3933333333334</ele><time>2026-01-11T00:53:39Z</time></trkpt><trkpt lat="33.6687669" lon="132.6969121"><ele>315.52666666666664</ele><time>2026-01-11T00:53:51Z</time></trkpt><trkpt lat="33.6686779" lon="132.6966856"><ele>312.5833333333333</ele><time>2026-01-11T00:54:02Z</time></trkpt><trkpt lat="33.6688683" lon="132.696677"><ele>309.04</ele><time>2026-01-11T00:54:28Z</time></trkpt><trkpt lat="33.6689577" lon="132.6968751"><ele>304.36333333333334</ele><time>2026-01-11T00:54:43Z</time></trkpt><trkpt lat="33.6690289" lon="132.6970951"><ele>300.03999999999996</ele><time>2026-01-11T00:54:55Z</time></trkpt><trkpt lat="33.6692102" lon="132.6972212"><ele>297.7833333333333</ele><time>2026-01-11T00:55:09Z</time></trkpt><trkpt lat="33.6694038" lon="132.6973093"><ele>294.84666666666664</ele><time>2026-01-11T00:55:24Z</time></trkpt><trkpt lat="33.6696082" lon="132.6973187"><ele>288.24333333333334</ele><time>2026-01-11T00:55:45Z</time></trkpt><trkpt lat="33.6693973" lon="132.6972335"><ele>285.05333333333334</ele><time>2026-01-11T00:56:06Z</time></trkpt><trkpt lat="33.6692886" lon="132.6970418"><ele>281.3966666666667</ele><time>2026-01-11T00:56:18Z</time></trkpt><trkpt lat="33.6692472" lon="132.6968248"><ele>282.49</ele><time>2026-01-11T00:56:30Z</time></trkpt><trkpt lat="33.6692695" lon="132.6965334"><ele>278.40333333333336</ele><time>2026-01-11T00:57:00Z</time></trkpt><trkpt lat="33.6691973" lon="132.6963202"><ele>274.0133333333333</ele><time>2026-01-11T00:57:27Z</time></trkpt><trkpt lat="33.6690272" lon="132.6961688"><ele>268.5566666666667</ele><time>2026-01-11T00:57:42Z</time></trkpt><trkpt lat="33.6688437" lon="132.6961035"><ele>269.7866666666667</ele><time>2026-01-11T00:57:55Z</time></trkpt><trkpt lat="33.6687634" lon="132.6959046"><ele>272.27</ele><time>2026-01-11T00:58:09Z</time></trkpt><trkpt lat="33.6687973" lon="132.6956789"><ele>274.6666666666667</ele><time>2026-01-11T00:58:24Z</time></trkpt><trkpt lat="33.6688173" lon="132.6954432"><ele>272.3666666666667</ele><time>2026-01-11T00:58:42Z</time></trkpt><trkpt lat="33.6689745" lon="132.6953284"><ele>269.87</ele><time>2026-01-11T00:58:57Z</time></trkpt><trkpt lat="33.6690708" lon="132.6951181"><ele>267.7266666666667</ele><time>2026-01-11T00:59:12Z</time></trkpt><trkpt lat="33.669156" lon="132.6948751"><ele>268.8933333333334</ele><time>2026-01-11T00:59:27Z</time></trkpt><trkpt lat="33.669232" lon="132.6946745"><ele>270.89000000000004</ele><time>2026-01-11T00:59:45Z</time></trkpt><trkpt lat="33.6694303" lon="132.6945825"><ele>270.83</ele><time>2026-01-11T01:00:03Z</time></trkpt><trkpt lat="33.6696002" lon="132.6947343"><ele>268.44</ele><time>2026-01-11T01:00:18Z</time></trkpt><trkpt lat="33.6697714" lon="132.6948941"><ele>264.7</ele><time>2026-01-11T01:00:34Z</time></trkpt><trkpt lat="33.669869" lon="132.6950934"><ele>261.9533333333333</ele><time>2026-01-11T01:00:48Z</time></trkpt><trkpt lat="33.670034" lon="132.6952584"><ele>259.3233333333333</ele><time>2026-01-11T01:01:03Z</time></trkpt><trkpt lat="33.670223" lon="132.6953466"><ele>257.93666666666667</ele><time>2026-01-11T01:01:18Z</time></trkpt><trkpt lat="33.6702951" lon="132.6955561"><ele>256.99333333333334</ele><time>2026-01-11T01:01:39Z</time></trkpt><trkpt lat="33.6701676" lon="132.6957345"><ele>256.02666666666664</ele><time>2026-01-11T01:01:51Z</time></trkpt><trkpt lat="33.6703052" lon="132.6958973"><ele>255.70000000000002</ele><time>2026-01-11T01:02:06Z</time></trkpt></trkseg></trk></gpx>