<?xml version='1.0' encoding='UTF-8'?><gpx creator="YAMAP - https://yamap.com" xsi:schemaLocation="http://www.topografix.com/GPX/1/1 http://www.topografix.com/GPX/1/1/gpx.xsd" version="1.1" xmlns="http://www.topografix.com/GPX/1/1" xmlns:xsi="http://www.w3.org/2001/XMLSchema-instance"><metadata><bounds maxlat="33.4913103" maxlon="132.333838" minlat="33.4902112" minlon="132.3302871"/></metadata><trk><name>大峰</name><number>1</number><trkseg><trkpt lat="33.4912706" lon="132.3337259"><ele>310.9453670877058</ele><time>2025-10-23T06:58:32Z</time></trkpt><trkpt lat="33.4910887" lon="132.333838"><ele>311.62938900178574</ele><time>2025-10-23T06:58:59Z</time></trkpt><trkpt lat="33.4909125" lon="132.3337311"><ele>312.6988222683189</ele><time>2025-10-23T06:59:17Z</time></trkpt><trkpt lat="33.4907614" lon="132.3335538"><ele>310.6782714483804</ele><time>2025-10-23T06:59:35Z</time></trkpt><trkpt lat="33.4906512" lon="132.33333"><ele>308.36171149492185</ele><time>2025-10-23T07:00:32Z</time></trkpt><trkpt lat="33.4904551" lon="132.3332486"><ele>305.22907699395455</ele><time>2025-10-23T07:00:47Z</time></trkpt><trkpt lat="33.4902947" lon="132.3330934"><ele>305.7810279893168</ele><time>2025-10-23T07:01:02Z</time></trkpt><trkpt lat="33.4902112" lon="132.3328578"><ele>307.04158841499424</ele><time>2025-10-23T07:01:17Z</time></trkpt><trkpt lat="33.4903717" lon="132.3326692"><ele>312.0906119299455</ele><time>2025-10-23T07:02:27Z</time></trkpt><trkpt lat="33.4905609" lon="132.3325541"><ele>317.5238611996904</ele><time>2025-10-23T07:02:57Z</time></trkpt><trkpt lat="33.490758" lon="132.3324684"><ele>324.1784492113298</ele><time>2025-10-23T07:03:30Z</time></trkpt><trkpt lat="33.4909289" lon="132.3323872"><ele>329.10659336764365</ele><time>2025-10-23T07:04:31Z</time></trkpt><trkpt lat="33.491013" lon="132.3321668"><ele>336.00657615106485</ele><time>2025-10-23T07:05:16Z</time></trkpt><trkpt lat="33.491153" lon="132.3319949"><ele>342.26523587069283</ele><time>2025-10-23T07:05:45Z</time></trkpt><trkpt lat="33.4911893" lon="132.3316898"><ele>346.0367299961131</ele><time>2025-10-23T07:06:15Z</time></trkpt><trkpt lat="33.4911074" lon="132.3314584"><ele>347.4993119641849</ele><time>2025-10-23T07:06:27Z</time></trkpt><trkpt lat="33.4909774" lon="132.3312681"><ele>348.1095203603157</ele><time>2025-10-23T07:06:42Z</time></trkpt><trkpt lat="33.4908785" lon="132.3310464"><ele>350.50972214178074</ele><time>2025-10-23T07:06:59Z</time></trkpt><trkpt lat="33.4908289" lon="132.3308231"><ele>353.6143869489902</ele><time>2025-10-23T07:07:13Z</time></trkpt><trkpt lat="33.4907959" lon="132.330595"><ele>357.242054188244</ele><time>2025-10-23T07:07:28Z</time></trkpt><trkpt lat="33.4909484" lon="132.3304472"><ele>360.12463284120673</ele><time>2025-10-23T07:07:59Z</time></trkpt><trkpt lat="33.4911124" lon="132.3302871"><ele>361.5141502244408</ele><time>2025-10-23T07:08:14Z</time></trkpt><trkpt lat="33.4909198" lon="132.330294"><ele>362.5859909540507</ele><time>2025-10-23T07:10:50Z</time></trkpt><trkpt lat="33.4908337" lon="132.3305458"><ele>362.2995556625856</ele><time>2025-10-23T07:11:18Z</time></trkpt><trkpt lat="33.4908535" lon="132.3307822"><ele>361.92995301114433</ele><time>2025-10-23T07:11:33Z</time></trkpt><trkpt lat="33.4909442" lon="132.3309801"><ele>359.5333561646575</ele><time>2025-10-23T07:11:48Z</time></trkpt><trkpt lat="33.4909864" lon="132.3311992"><ele>356.79904292563725</ele><time>2025-10-23T07:12:02Z</time></trkpt><trkpt lat="33.4910449" lon="132.3314401"><ele>354.12879492989015</ele><time>2025-10-23T07:12:17Z</time></trkpt><trkpt lat="33.4911248" lon="132.3316484"><ele>351.21449956196744</ele><time>2025-10-23T07:12:32Z</time></trkpt><trkpt lat="33.4911819" lon="132.3318929"><ele>348.62702616759947</ele><time>2025-10-23T07:13:19Z</time></trkpt><trkpt lat="33.4910278" lon="132.3320463"><ele>345.60891915399543</ele><time>2025-10-23T07:13:38Z</time></trkpt><trkpt lat="33.490956" lon="132.3322549"><ele>343.2834112008865</ele><time>2025-10-23T07:13:53Z</time></trkpt><trkpt lat="33.4908578" lon="132.3324692"><ele>338.0242386144461</ele><time>2025-10-23T07:14:49Z</time></trkpt><trkpt lat="33.490938" lon="132.3326731"><ele>332.00935792632436</ele><time>2025-10-23T07:15:07Z</time></trkpt><trkpt lat="33.4908836" lon="132.3328869"><ele>324.93752093159327</ele><time>2025-10-23T07:15:33Z</time></trkpt><trkpt lat="33.4909684" lon="132.3331117"><ele>320.3272285328399</ele><time>2025-10-23T07:15:54Z</time></trkpt><trkpt lat="33.4910474" lon="132.3333318"><ele>316.55730042455355</ele><time>2025-10-23T07:16:18Z</time></trkpt><trkpt lat="33.4908782" lon="132.3332378"><ele>313.52215637211765</ele><time>2025-10-23T07:16:58Z</time></trkpt><trkpt lat="33.4909555" lon="132.3334386"><ele>309.2046160193797</ele><time>2025-10-23T07:17:47Z</time></trkpt><trkpt lat="33.490959" lon="132.3336619"><ele>305.121666916607</ele><time>2025-10-23T07:17:59Z</time></trkpt><trkpt lat="33.4911193" lon="132.333807"><ele>301.51329278877023</ele><time>2025-10-23T07:18:17Z</time></trkpt><trkpt lat="33.4913103" lon="132.333798"><ele>299.1032297155834</ele><time>2025-10-23T07:18:33Z</time></trkpt></trkseg></trk></gpx>