<?xml version='1.0' encoding='UTF-8'?><gpx creator="YAMAP - https://yamap.com" xsi:schemaLocation="http://www.topografix.com/GPX/1/1 http://www.topografix.com/GPX/1/1/gpx.xsd" version="1.1" xmlns="http://www.topografix.com/GPX/1/1" xmlns:xsi="http://www.w3.org/2001/XMLSchema-instance"><metadata><bounds maxlat="33.9815162" maxlon="133.0523145" minlat="33.9799743" minlon="133.0506626"/></metadata><trk><name>医王山</name><number>1</number><trkseg><trkpt lat="33.9799769" lon="133.0521584"><ele>45.03</ele><time>2022-12-25T04:36:19Z</time></trkpt><trkpt lat="33.9801246" lon="133.0520241"><ele>46.715</ele><time>2022-12-25T04:37:05Z</time></trkpt><trkpt lat="33.9803099" lon="133.0520697"><ele>46.99333333333334</ele><time>2022-12-25T04:37:28Z</time></trkpt><trkpt lat="33.9804764" lon="133.0519795"><ele>48.17666666666667</ele><time>2022-12-25T04:37:40Z</time></trkpt><trkpt lat="33.9806637" lon="133.051982"><ele>48.093333333333334</ele><time>2022-12-25T04:37:55Z</time></trkpt><trkpt lat="33.9808423" lon="133.052023"><ele>47.31333333333333</ele><time>2022-12-25T04:38:10Z</time></trkpt><trkpt lat="33.981028" lon="133.0519986"><ele>44.23333333333333</ele><time>2022-12-25T04:38:26Z</time></trkpt><trkpt lat="33.9811998" lon="133.0520867"><ele>41.09</ele><time>2022-12-25T04:38:35Z</time></trkpt><trkpt lat="33.9813402" lon="133.0522325"><ele>39.07</ele><time>2022-12-25T04:38:46Z</time></trkpt><trkpt lat="33.9815162" lon="133.0523145"><ele>39.23</ele><time>2022-12-25T04:38:57Z</time></trkpt><trkpt lat="33.9813758" lon="133.0521744"><ele>39.61666666666667</ele><time>2022-12-25T04:39:55Z</time></trkpt><trkpt lat="33.9812993" lon="133.0519773"><ele>40.24666666666667</ele><time>2022-12-25T04:40:56Z</time></trkpt><trkpt lat="33.981133" lon="133.0518894"><ele>42.96333333333333</ele><time>2022-12-25T04:41:15Z</time></trkpt><trkpt lat="33.9809923" lon="133.0517528"><ele>48.13666666666666</ele><time>2022-12-25T04:41:33Z</time></trkpt><trkpt lat="33.9808564" lon="133.051609"><ele>55.403333333333336</ele><time>2022-12-25T04:42:20Z</time></trkpt><trkpt lat="33.980721" lon="133.0514569"><ele>61.830000000000005</ele><time>2022-12-25T04:42:43Z</time></trkpt><trkpt lat="33.9806256" lon="133.0512615"><ele>66.37333333333333</ele><time>2022-12-25T04:43:25Z</time></trkpt><trkpt lat="33.9804409" lon="133.051299"><ele>71.95666666666666</ele><time>2022-12-25T04:43:44Z</time></trkpt><trkpt lat="33.9802913" lon="133.0511733"><ele>78.57000000000001</ele><time>2022-12-25T04:44:40Z</time></trkpt><trkpt lat="33.9801407" lon="133.0510471"><ele>86.89</ele><time>2022-12-25T04:45:27Z</time></trkpt><trkpt lat="33.9800908" lon="133.0508296"><ele>93.53666666666668</ele><time>2022-12-25T04:47:05Z</time></trkpt><trkpt lat="33.9799743" lon="133.0506626"><ele>97.84333333333332</ele><time>2022-12-25T04:47:32Z</time></trkpt><trkpt lat="33.9801287" lon="133.0507842"><ele>98.37666666666667</ele><time>2022-12-25T04:52:48Z</time></trkpt><trkpt lat="33.980125" lon="133.051001"><ele>97.09000000000002</ele><time>2022-12-25T04:55:27Z</time></trkpt><trkpt lat="33.9802445" lon="133.0511675"><ele>92.78333333333335</ele><time>2022-12-25T04:55:51Z</time></trkpt><trkpt lat="33.9804079" lon="133.0512637"><ele>87.45</ele><time>2022-12-25T04:56:24Z</time></trkpt><trkpt lat="33.9805891" lon="133.0512992"><ele>79.75666666666667</ele><time>2022-12-25T04:56:47Z</time></trkpt><trkpt lat="33.9807545" lon="133.0513954"><ele>72.38666666666667</ele><time>2022-12-25T04:57:17Z</time></trkpt><trkpt lat="33.9808676" lon="133.0515697"><ele>66.80333333333333</ele><time>2022-12-25T04:57:36Z</time></trkpt><trkpt lat="33.9809745" lon="133.0517604"><ele>61.07333333333333</ele><time>2022-12-25T04:58:27Z</time></trkpt><trkpt lat="33.9811336" lon="133.0518649"><ele>55.403333333333336</ele><time>2022-12-25T04:58:46Z</time></trkpt><trkpt lat="33.9809684" lon="133.0519681"><ele>48.47666666666667</ele><time>2022-12-25T04:59:29Z</time></trkpt><trkpt lat="33.9807924" lon="133.0521021"><ele>44.67666666666667</ele><time>2022-12-25T04:59:37Z</time></trkpt><trkpt lat="33.980649" lon="133.0522364"><ele>42.68333333333334</ele><time>2022-12-25T04:59:46Z</time></trkpt><trkpt lat="33.9804665" lon="133.0522944"><ele>42.23666666666667</ele><time>2022-12-25T04:59:54Z</time></trkpt><trkpt lat="33.9802826" lon="133.0522727"><ele>42.17000000000001</ele><time>2022-12-25T05:00:07Z</time></trkpt><trkpt lat="33.9801098" lon="133.052193"><ele>43.376666666666665</ele><time>2022-12-25T05:00:21Z</time></trkpt></trkseg></trk></gpx>