<?xml version='1.0' encoding='UTF-8'?><gpx creator="YAMAP - https://yamap.com" xsi:schemaLocation="http://www.topografix.com/GPX/1/1 http://www.topografix.com/GPX/1/1/gpx.xsd" version="1.1" xmlns="http://www.topografix.com/GPX/1/1" xmlns:xsi="http://www.w3.org/2001/XMLSchema-instance"><metadata><bounds maxlat="33.1133131" maxlon="132.6371441" minlat="33.1037943" minlon="132.6234647"/></metadata><trk><name>音無山</name><number>1</number><trkseg><trkpt lat="33.1073297" lon="132.6362598"><ele>297.06</ele><time>2024-03-03T01:00:58Z</time></trkpt><trkpt lat="33.1071975" lon="132.6364063"><ele>296.59000000000003</ele><time>2024-03-03T01:01:44Z</time></trkpt><trkpt lat="33.1070468" lon="132.6365378"><ele>296.7633333333334</ele><time>2024-03-03T01:02:03Z</time></trkpt><trkpt lat="33.1069007" lon="132.6366655"><ele>296.68333333333334</ele><time>2024-03-03T01:02:19Z</time></trkpt><trkpt lat="33.1067265" lon="132.6367327"><ele>298.04333333333335</ele><time>2024-03-03T01:03:30Z</time></trkpt><trkpt lat="33.1065757" lon="132.6368565"><ele>298.9066666666667</ele><time>2024-03-03T01:03:55Z</time></trkpt><trkpt lat="33.1064411" lon="132.6370029"><ele>299.53</ele><time>2024-03-03T01:04:14Z</time></trkpt><trkpt lat="33.1062749" lon="132.6370968"><ele>300.25333333333333</ele><time>2024-03-03T01:04:31Z</time></trkpt><trkpt lat="33.1060965" lon="132.6371441"><ele>302.32666666666665</ele><time>2024-03-03T01:04:49Z</time></trkpt><trkpt lat="33.1059169" lon="132.6371159"><ele>304.5566666666667</ele><time>2024-03-03T01:05:10Z</time></trkpt><trkpt lat="33.1057997" lon="132.6369342"><ele>308.59</ele><time>2024-03-03T01:05:28Z</time></trkpt><trkpt lat="33.1056206" lon="132.6368806"><ele>311.2866666666667</ele><time>2024-03-03T01:05:43Z</time></trkpt><trkpt lat="33.1054409" lon="132.6368455"><ele>312.9433333333333</ele><time>2024-03-03T01:05:59Z</time></trkpt><trkpt lat="33.1052675" lon="132.6367699"><ele>313.2266666666667</ele><time>2024-03-03T01:06:13Z</time></trkpt><trkpt lat="33.1050827" lon="132.636728"><ele>316.92333333333335</ele><time>2024-03-03T01:06:26Z</time></trkpt><trkpt lat="33.1049415" lon="132.6368685"><ele>319.96333333333337</ele><time>2024-03-03T01:06:42Z</time></trkpt><trkpt lat="33.1047912" lon="132.6369899"><ele>320.93</ele><time>2024-03-03T01:06:59Z</time></trkpt><trkpt lat="33.1046199" lon="132.6369151"><ele>315.90000000000003</ele><time>2024-03-03T01:07:12Z</time></trkpt><trkpt lat="33.1045545" lon="132.6367088"><ele>313.08</ele><time>2024-03-03T01:07:27Z</time></trkpt><trkpt lat="33.1045865" lon="132.6364848"><ele>311.9766666666667</ele><time>2024-03-03T01:07:42Z</time></trkpt><trkpt lat="33.1046418" lon="132.6362638"><ele>313.7033333333334</ele><time>2024-03-03T01:07:57Z</time></trkpt><trkpt lat="33.104547" lon="132.6360747"><ele>312.90000000000003</ele><time>2024-03-03T01:08:11Z</time></trkpt><trkpt lat="33.1044441" lon="132.6358954"><ele>313.3733333333333</ele><time>2024-03-03T01:08:25Z</time></trkpt><trkpt lat="33.1042594" lon="132.6358703"><ele>314.57666666666665</ele><time>2024-03-03T01:08:40Z</time></trkpt><trkpt lat="33.1040808" lon="132.6358155"><ele>317.40000000000003</ele><time>2024-03-03T01:08:53Z</time></trkpt><trkpt lat="33.104004" lon="132.635617"><ele>318.74333333333334</ele><time>2024-03-03T01:09:09Z</time></trkpt><trkpt lat="33.1040928" lon="132.6354163"><ele>319.23</ele><time>2024-03-03T01:09:22Z</time></trkpt><trkpt lat="33.104084" lon="132.635194"><ele>319.31</ele><time>2024-03-03T01:09:37Z</time></trkpt><trkpt lat="33.1040567" lon="132.6349801"><ele>319.0566666666667</ele><time>2024-03-03T01:09:52Z</time></trkpt><trkpt lat="33.1039328" lon="132.6348149"><ele>319.2866666666667</ele><time>2024-03-03T01:10:09Z</time></trkpt><trkpt lat="33.1039157" lon="132.6345894"><ele>322.6766666666667</ele><time>2024-03-03T01:10:22Z</time></trkpt><trkpt lat="33.1037943" lon="132.6344269"><ele>326.5733333333333</ele><time>2024-03-03T01:10:40Z</time></trkpt><trkpt lat="33.1039773" lon="132.6344892"><ele>329.6933333333333</ele><time>2024-03-03T01:11:52Z</time></trkpt><trkpt lat="33.1041294" lon="132.6346044"><ele>331.11</ele><time>2024-03-03T01:12:06Z</time></trkpt><trkpt lat="33.1043111" lon="132.6345706"><ele>333.4166666666667</ele><time>2024-03-03T01:12:25Z</time></trkpt><trkpt lat="33.1044176" lon="132.6343953"><ele>337.7166666666667</ele><time>2024-03-03T01:12:38Z</time></trkpt><trkpt lat="33.1045367" lon="132.6342324"><ele>343.50666666666666</ele><time>2024-03-03T01:12:52Z</time></trkpt><trkpt lat="33.1046807" lon="132.6340861"><ele>347.08666666666664</ele><time>2024-03-03T01:13:08Z</time></trkpt><trkpt lat="33.1048314" lon="132.6342046"><ele>347.47333333333336</ele><time>2024-03-03T01:13:34Z</time></trkpt><trkpt lat="33.1048568" lon="132.6344172"><ele>346.99</ele><time>2024-03-03T01:13:50Z</time></trkpt><trkpt lat="33.1048759" lon="132.6346353"><ele>347.15333333333336</ele><time>2024-03-03T01:14:06Z</time></trkpt><trkpt lat="33.105049" lon="132.6345666"><ele>350.2866666666667</ele><time>2024-03-03T01:14:35Z</time></trkpt><trkpt lat="33.1051778" lon="132.6344088"><ele>353.84</ele><time>2024-03-03T01:14:57Z</time></trkpt><trkpt lat="33.1052665" lon="132.6342147"><ele>357.72333333333336</ele><time>2024-03-03T01:15:31Z</time></trkpt><trkpt lat="33.1053425" lon="132.6340117"><ele>361.5800000000001</ele><time>2024-03-03T01:15:49Z</time></trkpt><trkpt lat="33.1054866" lon="132.633882"><ele>366.41</ele><time>2024-03-03T01:16:08Z</time></trkpt><trkpt lat="33.1056647" lon="132.6339446"><ele>370.67333333333335</ele><time>2024-03-03T01:16:33Z</time></trkpt><trkpt lat="33.1056219" lon="132.6341531"><ele>372.07</ele><time>2024-03-03T01:16:52Z</time></trkpt><trkpt lat="33.1056369" lon="132.6343673"><ele>371.60666666666674</ele><time>2024-03-03T01:17:11Z</time></trkpt><trkpt lat="33.1057235" lon="132.6345628"><ele>371.7966666666667</ele><time>2024-03-03T01:17:29Z</time></trkpt><trkpt lat="33.1057926" lon="132.6347674"><ele>374.65333333333336</ele><time>2024-03-03T01:17:47Z</time></trkpt><trkpt lat="33.1059076" lon="132.6349336"><ele>377.61999999999995</ele><time>2024-03-03T01:18:03Z</time></trkpt><trkpt lat="33.1059261" lon="132.6347094"><ele>380.3</ele><time>2024-03-03T01:18:24Z</time></trkpt><trkpt lat="33.1060246" lon="132.6345236"><ele>382.1766666666667</ele><time>2024-03-03T01:18:38Z</time></trkpt><trkpt lat="33.1061474" lon="132.6343635"><ele>384.18333333333334</ele><time>2024-03-03T01:18:55Z</time></trkpt><trkpt lat="33.1062891" lon="132.6342238"><ele>386.3733333333333</ele><time>2024-03-03T01:19:10Z</time></trkpt><trkpt lat="33.1064528" lon="132.6341123"><ele>389.18333333333334</ele><time>2024-03-03T01:19:26Z</time></trkpt><trkpt lat="33.106617" lon="132.6340166"><ele>392.25333333333333</ele><time>2024-03-03T01:19:42Z</time></trkpt><trkpt lat="33.1067693" lon="132.6339001"><ele>395.19000000000005</ele><time>2024-03-03T01:19:56Z</time></trkpt><trkpt lat="33.1068614" lon="132.6337096"><ele>397.3</ele><time>2024-03-03T01:20:12Z</time></trkpt><trkpt lat="33.1069969" lon="132.6335634"><ele>398.5833333333333</ele><time>2024-03-03T01:20:27Z</time></trkpt><trkpt lat="33.1071006" lon="132.6333867"><ele>399.25</ele><time>2024-03-03T01:20:41Z</time></trkpt><trkpt lat="33.1072076" lon="132.6331979"><ele>400.0133333333333</ele><time>2024-03-03T01:20:57Z</time></trkpt><trkpt lat="33.1073202" lon="132.6330237"><ele>399.8433333333334</ele><time>2024-03-03T01:21:10Z</time></trkpt><trkpt lat="33.1073759" lon="132.6328135"><ele>400.16</ele><time>2024-03-03T01:21:25Z</time></trkpt><trkpt lat="33.1074926" lon="132.6326469"><ele>400.3833333333334</ele><time>2024-03-03T01:21:41Z</time></trkpt><trkpt lat="33.1076166" lon="132.6324781"><ele>398.57666666666665</ele><time>2024-03-03T01:21:57Z</time></trkpt><trkpt lat="33.1077421" lon="132.6323237"><ele>395.57</ele><time>2024-03-03T01:22:14Z</time></trkpt><trkpt lat="33.1078692" lon="132.6324868"><ele>393.02</ele><time>2024-03-03T01:22:35Z</time></trkpt><trkpt lat="33.1080057" lon="132.6326272"><ele>392.59</ele><time>2024-03-03T01:23:00Z</time></trkpt><trkpt lat="33.1081569" lon="132.6327468"><ele>395.2966666666667</ele><time>2024-03-03T01:23:16Z</time></trkpt><trkpt lat="33.1083261" lon="132.6328274"><ele>399.94000000000005</ele><time>2024-03-03T01:23:32Z</time></trkpt><trkpt lat="33.1083587" lon="132.6330405"><ele>406.34666666666664</ele><time>2024-03-03T01:23:53Z</time></trkpt><trkpt lat="33.1083033" lon="132.6332523"><ele>410.65000000000003</ele><time>2024-03-03T01:24:12Z</time></trkpt><trkpt lat="33.1084313" lon="132.6334099"><ele>412.5333333333333</ele><time>2024-03-03T01:24:31Z</time></trkpt><trkpt lat="33.1086026" lon="132.6333398"><ele>413.7033333333334</ele><time>2024-03-03T01:24:52Z</time></trkpt><trkpt lat="33.1087728" lon="132.6332573"><ele>415.28999999999996</ele><time>2024-03-03T01:25:09Z</time></trkpt><trkpt lat="33.1088871" lon="132.6330861"><ele>418.40333333333336</ele><time>2024-03-03T01:25:32Z</time></trkpt><trkpt lat="33.1089632" lon="132.632885"><ele>422.56</ele><time>2024-03-03T01:26:01Z</time></trkpt><trkpt lat="33.1090799" lon="132.6327197"><ele>428.04333333333335</ele><time>2024-03-03T01:26:22Z</time></trkpt><trkpt lat="33.1092378" lon="132.6326077"><ele>433.21333333333337</ele><time>2024-03-03T01:26:50Z</time></trkpt><trkpt lat="33.1094258" lon="132.6325945"><ele>435.5233333333333</ele><time>2024-03-03T01:27:13Z</time></trkpt><trkpt lat="33.1096111" lon="132.6326383"><ele>434.6233333333333</ele><time>2024-03-03T01:27:43Z</time></trkpt><trkpt lat="33.1097906" lon="132.6326137"><ele>433.98</ele><time>2024-03-03T01:28:01Z</time></trkpt><trkpt lat="33.1098535" lon="132.6324081"><ele>436.15333333333336</ele><time>2024-03-03T01:28:20Z</time></trkpt><trkpt lat="33.1096723" lon="132.6323912"><ele>440.5566666666667</ele><time>2024-03-03T01:29:33Z</time></trkpt><trkpt lat="33.1094912" lon="132.6324381"><ele>443.77666666666664</ele><time>2024-03-03T01:30:00Z</time></trkpt><trkpt lat="33.109315" lon="132.6323828"><ele>446.58666666666664</ele><time>2024-03-03T01:30:15Z</time></trkpt><trkpt lat="33.1091349" lon="132.6323327"><ele>450.1166666666666</ele><time>2024-03-03T01:30:42Z</time></trkpt><trkpt lat="33.1089923" lon="132.6321956"><ele>452.31</ele><time>2024-03-03T01:31:00Z</time></trkpt><trkpt lat="33.1088183" lon="132.6321215"><ele>452.3066666666667</ele><time>2024-03-03T01:31:19Z</time></trkpt><trkpt lat="33.1086309" lon="132.6321206"><ele>449.4666666666667</ele><time>2024-03-03T01:31:39Z</time></trkpt><trkpt lat="33.1084723" lon="132.6320038"><ele>449.03000000000003</ele><time>2024-03-03T01:31:55Z</time></trkpt><trkpt lat="33.1084331" lon="132.6317923"><ele>450.99333333333334</ele><time>2024-03-03T01:32:12Z</time></trkpt><trkpt lat="33.1084021" lon="132.6315738"><ele>456.24</ele><time>2024-03-03T01:32:29Z</time></trkpt><trkpt lat="33.1084985" lon="132.6313859"><ele>462.20666666666665</ele><time>2024-03-03T01:32:50Z</time></trkpt><trkpt lat="33.1085086" lon="132.6311689"><ele>467.05</ele><time>2024-03-03T01:33:09Z</time></trkpt><trkpt lat="33.1086451" lon="132.6313122"><ele>472.31333333333333</ele><time>2024-03-03T01:35:46Z</time></trkpt><trkpt lat="33.1088144" lon="132.6313869"><ele>478.77333333333337</ele><time>2024-03-03T01:36:27Z</time></trkpt><trkpt lat="33.1089803" lon="132.6313008"><ele>487.4566666666667</ele><time>2024-03-03T01:37:45Z</time></trkpt><trkpt lat="33.1091017" lon="132.6311395"><ele>496.44000000000005</ele><time>2024-03-03T01:38:13Z</time></trkpt><trkpt lat="33.1091958" lon="132.6309477"><ele>504.3333333333333</ele><time>2024-03-03T01:40:03Z</time></trkpt><trkpt lat="33.1093067" lon="132.630776"><ele>512.4566666666667</ele><time>2024-03-03T01:41:01Z</time></trkpt><trkpt lat="33.1094403" lon="132.6306306"><ele>521.1966666666667</ele><time>2024-03-03T01:42:29Z</time></trkpt><trkpt lat="33.1094261" lon="132.6304119"><ele>530.4733333333334</ele><time>2024-03-03T01:43:20Z</time></trkpt><trkpt lat="33.1093946" lon="132.6301994"><ele>540.64</ele><time>2024-03-03T01:49:40Z</time></trkpt><trkpt lat="33.1093041" lon="132.630004"><ele>549.4599999999999</ele><time>2024-03-03T01:50:21Z</time></trkpt><trkpt lat="33.1093113" lon="132.6297882"><ele>556.5033333333334</ele><time>2024-03-03T01:50:47Z</time></trkpt><trkpt lat="33.1092543" lon="132.629583"><ele>561.2366666666666</ele><time>2024-03-03T01:51:19Z</time></trkpt><trkpt lat="33.1091754" lon="132.6293896"><ele>563.93</ele><time>2024-03-03T01:51:57Z</time></trkpt><trkpt lat="33.1091191" lon="132.6291814"><ele>568.5866666666666</ele><time>2024-03-03T01:52:57Z</time></trkpt><trkpt lat="33.1090853" lon="132.6289668"><ele>574.8333333333334</ele><time>2024-03-03T01:53:49Z</time></trkpt><trkpt lat="33.1090448" lon="132.628754"><ele>584.63</ele><time>2024-03-03T01:54:54Z</time></trkpt><trkpt lat="33.1089902" lon="132.6285486"><ele>593.8433333333334</ele><time>2024-03-03T01:56:30Z</time></trkpt><trkpt lat="33.1089184" lon="132.6283468"><ele>602.6366666666667</ele><time>2024-03-03T01:57:36Z</time></trkpt><trkpt lat="33.1088612" lon="132.628143"><ele>610.9433333333333</ele><time>2024-03-03T01:58:20Z</time></trkpt><trkpt lat="33.1087879" lon="132.6279462"><ele>619.9233333333333</ele><time>2024-03-03T01:59:43Z</time></trkpt><trkpt lat="33.1087597" lon="132.6277221"><ele>630.6366666666667</ele><time>2024-03-03T02:01:27Z</time></trkpt><trkpt lat="33.1088035" lon="132.6275141"><ele>639.0533333333333</ele><time>2024-03-03T02:01:46Z</time></trkpt><trkpt lat="33.1089175" lon="132.6273456"><ele>645.32</ele><time>2024-03-03T02:02:12Z</time></trkpt><trkpt lat="33.1090583" lon="132.6271983"><ele>648.35</ele><time>2024-03-03T02:02:32Z</time></trkpt><trkpt lat="33.1091759" lon="132.6270291"><ele>652.3766666666667</ele><time>2024-03-03T02:03:15Z</time></trkpt><trkpt lat="33.1093211" lon="132.6269008"><ele>656.4433333333334</ele><time>2024-03-03T02:03:56Z</time></trkpt><trkpt lat="33.1095022" lon="132.6268951"><ele>659.7733333333334</ele><time>2024-03-03T02:05:35Z</time></trkpt><trkpt lat="33.1096677" lon="132.6267976"><ele>661.3533333333334</ele><time>2024-03-03T02:06:32Z</time></trkpt><trkpt lat="33.1098353" lon="132.6267078"><ele>662.46</ele><time>2024-03-03T02:07:44Z</time></trkpt><trkpt lat="33.1099856" lon="132.6265834"><ele>665.67</ele><time>2024-03-03T02:08:35Z</time></trkpt><trkpt lat="33.1101128" lon="132.6264301"><ele>670.8000000000001</ele><time>2024-03-03T02:09:20Z</time></trkpt><trkpt lat="33.1102197" lon="132.6262515"><ele>676.8466666666667</ele><time>2024-03-03T02:10:20Z</time></trkpt><trkpt lat="33.1103853" lon="132.6261574"><ele>683.0666666666666</ele><time>2024-03-03T02:10:59Z</time></trkpt><trkpt lat="33.1105591" lon="132.6260808"><ele>688.5866666666667</ele><time>2024-03-03T02:11:19Z</time></trkpt><trkpt lat="33.1107355" lon="132.6260346"><ele>694.0033333333332</ele><time>2024-03-03T02:12:15Z</time></trkpt><trkpt lat="33.1109175" lon="132.6260334"><ele>699.5233333333332</ele><time>2024-03-03T02:13:14Z</time></trkpt><trkpt lat="33.1110865" lon="132.6259547"><ele>705.1766666666667</ele><time>2024-03-03T02:14:02Z</time></trkpt><trkpt lat="33.1112497" lon="132.6258625"><ele>711.7633333333333</ele><time>2024-03-03T02:15:40Z</time></trkpt><trkpt lat="33.1113782" lon="132.6257105"><ele>717.16</ele><time>2024-03-03T02:16:21Z</time></trkpt><trkpt lat="33.1115414" lon="132.6256103"><ele>723.6899999999999</ele><time>2024-03-03T02:17:10Z</time></trkpt><trkpt lat="33.1116748" lon="132.6254651"><ele>730.6533333333333</ele><time>2024-03-03T02:17:53Z</time></trkpt><trkpt lat="33.111852" lon="132.625414"><ele>737.6366666666668</ele><time>2024-03-03T02:18:43Z</time></trkpt><trkpt lat="33.1120311" lon="132.6254436"><ele>742.4566666666666</ele><time>2024-03-03T02:19:29Z</time></trkpt><trkpt lat="33.1120607" lon="132.6252275"><ele>748.61</ele><time>2024-03-03T02:21:21Z</time></trkpt><trkpt lat="33.1119956" lon="132.625022"><ele>753.8833333333333</ele><time>2024-03-03T02:21:47Z</time></trkpt><trkpt lat="33.1120012" lon="132.6248073"><ele>759.7333333333332</ele><time>2024-03-03T02:22:16Z</time></trkpt><trkpt lat="33.1121717" lon="132.6247279"><ele>765.0966666666667</ele><time>2024-03-03T02:23:55Z</time></trkpt><trkpt lat="33.1123523" lon="132.6247654"><ele>775.0500000000001</ele><time>2024-03-03T02:25:42Z</time></trkpt><trkpt lat="33.1125339" lon="132.6247481"><ele>787.3433333333334</ele><time>2024-03-03T02:27:40Z</time></trkpt><trkpt lat="33.1127105" lon="132.6246751"><ele>800.0333333333334</ele><time>2024-03-03T02:29:16Z</time></trkpt><trkpt lat="33.1128039" lon="132.6244881"><ele>808.9333333333334</ele><time>2024-03-03T02:30:49Z</time></trkpt><trkpt lat="33.1128163" lon="132.6242709"><ele>815.91</ele><time>2024-03-03T02:31:27Z</time></trkpt><trkpt lat="33.1128887" lon="132.6240726"><ele>819.8766666666667</ele><time>2024-03-03T02:32:13Z</time></trkpt><trkpt lat="33.1128931" lon="132.623858"><ele>823.2266666666668</ele><time>2024-03-03T02:33:07Z</time></trkpt><trkpt lat="33.1130104" lon="132.6236952"><ele>827.7166666666666</ele><time>2024-03-03T02:34:03Z</time></trkpt><trkpt lat="33.1131518" lon="132.6235613"><ele>834.41</ele><time>2024-03-03T02:35:41Z</time></trkpt><trkpt lat="33.1133131" lon="132.6234647"><ele>842.36</ele><time>2024-03-03T02:37:04Z</time></trkpt><trkpt lat="33.1131437" lon="132.6235455"><ele>845.57</ele><time>2024-03-03T02:54:39Z</time></trkpt><trkpt lat="33.1130255" lon="132.6237107"><ele>842.36</ele><time>2024-03-03T02:55:28Z</time></trkpt><trkpt lat="33.1129783" lon="132.6239198"><ele>835.3066666666667</ele><time>2024-03-03T02:56:17Z</time></trkpt><trkpt lat="33.1129267" lon="132.6241294"><ele>828.0333333333333</ele><time>2024-03-03T02:56:42Z</time></trkpt><trkpt lat="33.1128515" lon="132.6243258"><ele>823.4066666666668</ele><time>2024-03-03T02:57:08Z</time></trkpt><trkpt lat="33.1128335" lon="132.6245408"><ele>818.8333333333334</ele><time>2024-03-03T02:57:37Z</time></trkpt><trkpt lat="33.1127223" lon="132.6247136"><ele>815.4466666666667</ele><time>2024-03-03T02:58:13Z</time></trkpt><trkpt lat="33.112549" lon="132.6247837"><ele>810.1866666666666</ele><time>2024-03-03T02:59:04Z</time></trkpt><trkpt lat="33.112369" lon="132.6247694"><ele>801.6133333333333</ele><time>2024-03-03T03:00:10Z</time></trkpt><trkpt lat="33.1121896" lon="132.6248139"><ele>790.09</ele><time>2024-03-03T03:01:55Z</time></trkpt><trkpt lat="33.112029" lon="132.6249192"><ele>775.5066666666667</ele><time>2024-03-03T03:02:29Z</time></trkpt><trkpt lat="33.1120828" lon="132.6251352"><ele>766.1166666666667</ele><time>2024-03-03T03:02:52Z</time></trkpt><trkpt lat="33.111904" lon="132.6250907"><ele>758.0633333333334</ele><time>2024-03-03T03:03:22Z</time></trkpt><trkpt lat="33.1118053" lon="132.62528"><ele>752.5</ele><time>2024-03-03T03:04:03Z</time></trkpt><trkpt lat="33.1116235" lon="132.6252583"><ele>744.9200000000001</ele><time>2024-03-03T03:04:17Z</time></trkpt><trkpt lat="33.1115669" lon="132.6254651"><ele>738.4433333333333</ele><time>2024-03-03T03:04:51Z</time></trkpt><trkpt lat="33.1115142" lon="132.6256842"><ele>732.7933333333334</ele><time>2024-03-03T03:05:03Z</time></trkpt><trkpt lat="33.1114393" lon="132.6258867"><ele>726.9766666666668</ele><time>2024-03-03T03:05:12Z</time></trkpt><trkpt lat="33.1113631" lon="132.6260914"><ele>719.9833333333332</ele><time>2024-03-03T03:05:53Z</time></trkpt><trkpt lat="33.1111851" lon="132.6261355"><ele>714.5233333333334</ele><time>2024-03-03T03:06:28Z</time></trkpt><trkpt lat="33.1110335" lon="132.626256"><ele>709.7566666666667</ele><time>2024-03-03T03:06:52Z</time></trkpt><trkpt lat="33.1108661" lon="132.6261755"><ele>706.5100000000001</ele><time>2024-03-03T03:07:23Z</time></trkpt><trkpt lat="33.1106765" lon="132.6261477"><ele>702.0966666666667</ele><time>2024-03-03T03:07:58Z</time></trkpt><trkpt lat="33.110492" lon="132.6261941"><ele>695.9166666666666</ele><time>2024-03-03T03:08:12Z</time></trkpt><trkpt lat="33.1103108" lon="132.6262469"><ele>689.9499999999999</ele><time>2024-03-03T03:08:25Z</time></trkpt><trkpt lat="33.1101675" lon="132.6263775"><ele>683.62</ele><time>2024-03-03T03:08:52Z</time></trkpt><trkpt lat="33.1100175" lon="132.6265044"><ele>678.4266666666666</ele><time>2024-03-03T03:09:16Z</time></trkpt><trkpt lat="33.1099117" lon="132.6266855"><ele>672.43</ele><time>2024-03-03T03:09:46Z</time></trkpt><trkpt lat="33.1098104" lon="132.6268697"><ele>664.7033333333334</ele><time>2024-03-03T03:11:24Z</time></trkpt><trkpt lat="33.1097807" lon="132.6270819"><ele>656.73</ele><time>2024-03-03T03:12:03Z</time></trkpt><trkpt lat="33.1098062" lon="132.6272966"><ele>643.8800000000001</ele><time>2024-03-03T03:13:11Z</time></trkpt><trkpt lat="33.1096996" lon="132.6274878"><ele>633.4666666666667</ele><time>2024-03-03T03:13:44Z</time></trkpt><trkpt lat="33.1096451" lon="132.6276989"><ele>623.4866666666667</ele><time>2024-03-03T03:14:02Z</time></trkpt><trkpt lat="33.1094702" lon="132.6277667"><ele>618.9933333333333</ele><time>2024-03-03T03:16:03Z</time></trkpt><trkpt lat="33.1093006" lon="132.627846"><ele>615.5633333333334</ele><time>2024-03-03T03:16:21Z</time></trkpt><trkpt lat="33.1091826" lon="132.6280155"><ele>612.7466666666667</ele><time>2024-03-03T03:17:06Z</time></trkpt><trkpt lat="33.1091635" lon="132.6282316"><ele>608.96</ele><time>2024-03-03T03:18:28Z</time></trkpt><trkpt lat="33.1091035" lon="132.6284346"><ele>605.0633333333334</ele><time>2024-03-03T03:21:19Z</time></trkpt><trkpt lat="33.109116" lon="132.628653"><ele>600.8866666666667</ele><time>2024-03-03T03:22:25Z</time></trkpt><trkpt lat="33.1091042" lon="132.6288672"><ele>595.5799999999999</ele><time>2024-03-03T03:23:00Z</time></trkpt><trkpt lat="33.1091389" lon="132.629091"><ele>588.0733333333334</ele><time>2024-03-03T03:23:42Z</time></trkpt><trkpt lat="33.1091771" lon="132.6293014"><ele>578.36</ele><time>2024-03-03T03:24:16Z</time></trkpt><trkpt lat="33.1092329" lon="132.6295055"><ele>570.9566666666666</ele><time>2024-03-03T03:28:30Z</time></trkpt><trkpt lat="33.1092995" lon="132.6297066"><ele>565.2933333333334</ele><time>2024-03-03T03:28:52Z</time></trkpt><trkpt lat="33.1093371" lon="132.6299178"><ele>562.7166666666667</ele><time>2024-03-03T03:29:08Z</time></trkpt><trkpt lat="33.1093543" lon="132.6301311"><ele>557.7933333333334</ele><time>2024-03-03T03:29:41Z</time></trkpt><trkpt lat="33.1092291" lon="132.6302855"><ele>551.63</ele><time>2024-03-03T03:30:13Z</time></trkpt><trkpt lat="33.1092978" lon="132.6304895"><ele>542.7266666666668</ele><time>2024-03-03T03:31:47Z</time></trkpt><trkpt lat="33.109343" lon="132.630699"><ele>534.1033333333334</ele><time>2024-03-03T03:32:14Z</time></trkpt><trkpt lat="33.1092778" lon="132.6309012"><ele>524.75</ele><time>2024-03-03T03:32:47Z</time></trkpt><trkpt lat="33.1092152" lon="132.6311064"><ele>515.6633333333333</ele><time>2024-03-03T03:33:28Z</time></trkpt><trkpt lat="33.109086" lon="132.6312579"><ele>507.1433333333334</ele><time>2024-03-03T03:34:00Z</time></trkpt><trkpt lat="33.108965" lon="132.6314189"><ele>498.5366666666667</ele><time>2024-03-03T03:34:36Z</time></trkpt><trkpt lat="33.1088084" lon="132.6315278"><ele>491.0733333333333</ele><time>2024-03-03T03:35:01Z</time></trkpt><trkpt lat="33.1086708" lon="132.6316963"><ele>482.95</ele><time>2024-03-03T03:35:29Z</time></trkpt><trkpt lat="33.1085499" lon="132.6318586"><ele>472.90333333333336</ele><time>2024-03-03T03:36:08Z</time></trkpt><trkpt lat="33.1087174" lon="132.6319414"><ele>464.79333333333335</ele><time>2024-03-03T03:37:28Z</time></trkpt><trkpt lat="33.1088521" lon="132.6320847"><ele>458.2166666666667</ele><time>2024-03-03T03:38:58Z</time></trkpt><trkpt lat="33.1090256" lon="132.632169"><ele>458.1133333333334</ele><time>2024-03-03T03:39:14Z</time></trkpt><trkpt lat="33.1091538" lon="132.6323205"><ele>456.6233333333333</ele><time>2024-03-03T03:39:28Z</time></trkpt><trkpt lat="33.1093329" lon="132.6323626"><ele>454.6766666666667</ele><time>2024-03-03T03:39:46Z</time></trkpt><trkpt lat="33.1095103" lon="132.6324154"><ele>450.1166666666666</ele><time>2024-03-03T03:40:08Z</time></trkpt><trkpt lat="33.1096929" lon="132.632345"><ele>448.10666666666674</ele><time>2024-03-03T03:40:21Z</time></trkpt><trkpt lat="33.1098748" lon="132.6323662"><ele>445.2966666666667</ele><time>2024-03-03T03:40:30Z</time></trkpt><trkpt lat="33.1098775" lon="132.6325868"><ele>441.37000000000006</ele><time>2024-03-03T03:40:42Z</time></trkpt><trkpt lat="33.1097051" lon="132.6326504"><ele>435.9266666666667</ele><time>2024-03-03T03:40:57Z</time></trkpt><trkpt lat="33.109526" lon="132.6326054"><ele>433.53000000000003</ele><time>2024-03-03T03:41:12Z</time></trkpt><trkpt lat="33.1093452" lon="132.6326441"><ele>432.25</ele><time>2024-03-03T03:41:26Z</time></trkpt><trkpt lat="33.1091935" lon="132.6327646"><ele>431.04</ele><time>2024-03-03T03:41:38Z</time></trkpt><trkpt lat="33.1090687" lon="132.6329219"><ele>428.18</ele><time>2024-03-03T03:41:52Z</time></trkpt><trkpt lat="33.1089237" lon="132.6330497"><ele>425.64000000000004</ele><time>2024-03-03T03:42:09Z</time></trkpt><trkpt lat="33.1088315" lon="132.6332404"><ele>421.59999999999997</ele><time>2024-03-03T03:42:24Z</time></trkpt><trkpt lat="33.1086855" lon="132.6333741"><ele>417.95666666666665</ele><time>2024-03-03T03:42:38Z</time></trkpt><trkpt lat="33.1085081" lon="132.6334548"><ele>414.8</ele><time>2024-03-03T03:42:51Z</time></trkpt><trkpt lat="33.108345" lon="132.633343"><ele>413.00666666666666</ele><time>2024-03-03T03:43:03Z</time></trkpt><trkpt lat="33.1083099" lon="132.6331275"><ele>412.4866666666667</ele><time>2024-03-03T03:43:17Z</time></trkpt><trkpt lat="33.1083857" lon="132.6329309"><ele>412.81</ele><time>2024-03-03T03:43:31Z</time></trkpt><trkpt lat="33.1083429" lon="132.6327172"><ele>411.4433333333333</ele><time>2024-03-03T03:43:47Z</time></trkpt><trkpt lat="33.108181" lon="132.6326159"><ele>409.75</ele><time>2024-03-03T03:43:57Z</time></trkpt><trkpt lat="33.1079939" lon="132.6325927"><ele>403.4266666666667</ele><time>2024-03-03T03:44:10Z</time></trkpt><trkpt lat="33.1078291" lon="132.6324938"><ele>397.41</ele><time>2024-03-03T03:44:25Z</time></trkpt><trkpt lat="33.1076453" lon="132.6325329"><ele>391.90333333333336</ele><time>2024-03-03T03:44:52Z</time></trkpt><trkpt lat="33.1075053" lon="132.6326709"><ele>391.7366666666667</ele><time>2024-03-03T03:45:04Z</time></trkpt><trkpt lat="33.1073762" lon="132.6328302"><ele>395.51</ele><time>2024-03-03T03:45:19Z</time></trkpt><trkpt lat="33.107316" lon="132.6330447"><ele>398.1499999999999</ele><time>2024-03-03T03:45:34Z</time></trkpt><trkpt lat="33.1072598" lon="132.6332522"><ele>397.39000000000004</ele><time>2024-03-03T03:45:48Z</time></trkpt><trkpt lat="33.1071344" lon="132.6334071"><ele>396.09666666666664</ele><time>2024-03-03T03:46:01Z</time></trkpt><trkpt lat="33.107052" lon="132.6336044"><ele>394.9433333333334</ele><time>2024-03-03T03:46:16Z</time></trkpt><trkpt lat="33.1069511" lon="132.6337955"><ele>395.27333333333337</ele><time>2024-03-03T03:46:34Z</time></trkpt><trkpt lat="33.1068293" lon="132.6339595"><ele>394.7466666666667</ele><time>2024-03-03T03:46:47Z</time></trkpt><trkpt lat="33.1066879" lon="132.6340957"><ele>394.88000000000005</ele><time>2024-03-03T03:47:01Z</time></trkpt><trkpt lat="33.1065403" lon="132.6342255"><ele>394.99666666666667</ele><time>2024-03-03T03:47:15Z</time></trkpt><trkpt lat="33.106368" lon="132.634317"><ele>393.52</ele><time>2024-03-03T03:47:29Z</time></trkpt><trkpt lat="33.1062316" lon="132.6344578"><ele>391.03999999999996</ele><time>2024-03-03T03:47:44Z</time></trkpt><trkpt lat="33.106107" lon="132.6346203"><ele>388.3566666666666</ele><time>2024-03-03T03:47:59Z</time></trkpt><trkpt lat="33.1060133" lon="132.6348057"><ele>386.1133333333333</ele><time>2024-03-03T03:48:13Z</time></trkpt><trkpt lat="33.1058466" lon="132.6347141"><ele>382.7</ele><time>2024-03-03T03:48:36Z</time></trkpt><trkpt lat="33.1057527" lon="132.6345223"><ele>378.93</ele><time>2024-03-03T03:48:51Z</time></trkpt><trkpt lat="33.1056496" lon="132.6343426"><ele>374.6666666666667</ele><time>2024-03-03T03:49:03Z</time></trkpt><trkpt lat="33.1056513" lon="132.6341113"><ele>372.42</ele><time>2024-03-03T03:49:17Z</time></trkpt><trkpt lat="33.1056165" lon="132.6338993"><ele>372.79333333333335</ele><time>2024-03-03T03:49:37Z</time></trkpt><trkpt lat="33.1054362" lon="132.6339626"><ele>372.52666666666664</ele><time>2024-03-03T03:49:54Z</time></trkpt><trkpt lat="33.1053504" lon="132.6341648"><ele>370.31</ele><time>2024-03-03T03:50:08Z</time></trkpt><trkpt lat="33.1052779" lon="132.6343689"><ele>365.79333333333335</ele><time>2024-03-03T03:50:21Z</time></trkpt><trkpt lat="33.1051786" lon="132.6345486"><ele>361.5233333333333</ele><time>2024-03-03T03:50:34Z</time></trkpt><trkpt lat="33.1050686" lon="132.634728"><ele>358.44666666666666</ele><time>2024-03-03T03:50:51Z</time></trkpt><trkpt lat="33.104946" lon="132.6345667"><ele>355.01</ele><time>2024-03-03T03:51:10Z</time></trkpt><trkpt lat="33.1048856" lon="132.6343621"><ele>351.6266666666667</ele><time>2024-03-03T03:51:25Z</time></trkpt><trkpt lat="33.1047851" lon="132.6341799"><ele>347.91</ele><time>2024-03-03T03:51:40Z</time></trkpt><trkpt lat="33.104657" lon="132.6343388"><ele>344.1033333333333</ele><time>2024-03-03T03:51:59Z</time></trkpt><trkpt lat="33.1045395" lon="132.6345084"><ele>340.90333333333336</ele><time>2024-03-03T03:52:12Z</time></trkpt><trkpt lat="33.1044089" lon="132.634659"><ele>338.1766666666667</ele><time>2024-03-03T03:52:28Z</time></trkpt><trkpt lat="33.1042245" lon="132.6346543"><ele>336.07666666666665</ele><time>2024-03-03T03:52:45Z</time></trkpt><trkpt lat="33.1041215" lon="132.6348375"><ele>331.6566666666667</ele><time>2024-03-03T03:53:07Z</time></trkpt><trkpt lat="33.1040924" lon="132.6350517"><ele>325.6166666666666</ele><time>2024-03-03T03:53:28Z</time></trkpt><trkpt lat="33.1041218" lon="132.6352631"><ele>320.0566666666667</ele><time>2024-03-03T03:53:44Z</time></trkpt><trkpt lat="33.104101" lon="132.635476"><ele>318.98</ele><time>2024-03-03T03:54:01Z</time></trkpt><trkpt lat="33.1040796" lon="132.63569"><ele>320.30333333333334</ele><time>2024-03-03T03:54:14Z</time></trkpt><trkpt lat="33.1042187" lon="132.6358338"><ele>320.8</ele><time>2024-03-03T03:54:29Z</time></trkpt><trkpt lat="33.1044003" lon="132.6358514"><ele>320.2166666666667</ele><time>2024-03-03T03:54:47Z</time></trkpt><trkpt lat="33.1044965" lon="132.6360345"><ele>317.0933333333333</ele><time>2024-03-03T03:55:05Z</time></trkpt><trkpt lat="33.1045788" lon="132.6362344"><ele>314.3066666666667</ele><time>2024-03-03T03:55:17Z</time></trkpt><trkpt lat="33.1045852" lon="132.6364512"><ele>312.2366666666667</ele><time>2024-03-03T03:55:32Z</time></trkpt><trkpt lat="33.1045906" lon="132.6366777"><ele>313.34666666666664</ele><time>2024-03-03T03:55:48Z</time></trkpt><trkpt lat="33.1046068" lon="132.6368914"><ele>314.25666666666666</ele><time>2024-03-03T03:56:02Z</time></trkpt><trkpt lat="33.1047847" lon="132.6369443"><ele>315.7966666666667</ele><time>2024-03-03T03:56:21Z</time></trkpt><trkpt lat="33.1049325" lon="132.6368031"><ele>318.21000000000004</ele><time>2024-03-03T03:56:35Z</time></trkpt><trkpt lat="33.1050957" lon="132.6367003"><ele>322.18666666666667</ele><time>2024-03-03T03:56:53Z</time></trkpt><trkpt lat="33.1052601" lon="132.6367894"><ele>321.22</ele><time>2024-03-03T03:57:10Z</time></trkpt><trkpt lat="33.1054372" lon="132.6368384"><ele>316.92333333333335</ele><time>2024-03-03T03:57:27Z</time></trkpt><trkpt lat="33.1055991" lon="132.6369357"><ele>311.7266666666667</ele><time>2024-03-03T03:57:42Z</time></trkpt><trkpt lat="33.1057332" lon="132.6370848"><ele>307.16333333333336</ele><time>2024-03-03T03:58:00Z</time></trkpt><trkpt lat="33.1059232" lon="132.6370651"><ele>307.84</ele><time>2024-03-03T03:58:20Z</time></trkpt><trkpt lat="33.1061132" lon="132.6370694"><ele>308.57666666666665</ele><time>2024-03-03T03:58:31Z</time></trkpt><trkpt lat="33.106292" lon="132.6370104"><ele>309.7633333333333</ele><time>2024-03-03T03:58:40Z</time></trkpt><trkpt lat="33.1064515" lon="132.6369045"><ele>307.9666666666667</ele><time>2024-03-03T03:58:49Z</time></trkpt><trkpt lat="33.1066168" lon="132.6367983"><ele>305.20000000000005</ele><time>2024-03-03T03:59:02Z</time></trkpt><trkpt lat="33.1067927" lon="132.6367426"><ele>301.99</ele><time>2024-03-03T03:59:17Z</time></trkpt><trkpt lat="33.1069512" lon="132.6366376"><ele>298.66</ele><time>2024-03-03T03:59:30Z</time></trkpt><trkpt lat="33.1071022" lon="132.6365194"><ele>296.1233333333333</ele><time>2024-03-03T03:59:43Z</time></trkpt><trkpt lat="33.1072354" lon="132.6363658"><ele>296.45</ele><time>2024-03-03T03:59:56Z</time></trkpt></trkseg></trk></gpx>