<?xml version='1.0' encoding='UTF-8'?><gpx creator="YAMAP - https://yamap.com" xsi:schemaLocation="http://www.topografix.com/GPX/1/1 http://www.topografix.com/GPX/1/1/gpx.xsd" version="1.1" xmlns="http://www.topografix.com/GPX/1/1" xmlns:xsi="http://www.w3.org/2001/XMLSchema-instance"><metadata><bounds maxlat="33.9005836" maxlon="132.7527945" minlat="33.9000463" minlon="132.7520321"/></metadata><trk><name>花見山</name><number>1</number><trkseg><trkpt lat="33.9001795" lon="132.7520321"><ele>9.53</ele><time>2026-02-23T05:06:15Z</time></trkpt><trkpt lat="33.9000463" lon="132.7521958"><ele>10.274999999999999</ele><time>2026-02-23T05:06:39Z</time></trkpt><trkpt lat="33.9002101" lon="132.7523229"><ele>11.013333333333334</ele><time>2026-02-23T05:07:12Z</time></trkpt><trkpt lat="33.9000927" lon="132.7524888"><ele>14.436666666666667</ele><time>2026-02-23T05:08:48Z</time></trkpt><trkpt lat="33.900289" lon="132.7524843"><ele>15.836666666666666</ele><time>2026-02-23T05:18:16Z</time></trkpt><trkpt lat="33.9004274" lon="132.7526414"><ele>15.360000000000001</ele><time>2026-02-23T05:19:27Z</time></trkpt><trkpt lat="33.9005836" lon="132.7527945"><ele>11.046666666666667</ele><time>2026-02-23T05:19:42Z</time></trkpt><trkpt lat="33.9005716" lon="132.7525408"><ele>8.323333333333334</ele><time>2026-02-23T05:22:44Z</time></trkpt><trkpt lat="33.9004239" lon="132.7524141"><ele>7.6066666666666665</ele><time>2026-02-23T05:22:56Z</time></trkpt><trkpt lat="33.9003131" lon="132.7522218"><ele>8.63</ele><time>2026-02-23T05:23:06Z</time></trkpt><trkpt lat="33.9001679" lon="132.7520797"><ele>9.456666666666665</ele><time>2026-02-23T05:23:31Z</time></trkpt></trkseg></trk></gpx>