<?xml version='1.0' encoding='UTF-8'?><gpx creator="YAMAP - https://yamap.com" xsi:schemaLocation="http://www.topografix.com/GPX/1/1 http://www.topografix.com/GPX/1/1/gpx.xsd" version="1.1" xmlns="http://www.topografix.com/GPX/1/1" xmlns:xsi="http://www.w3.org/2001/XMLSchema-instance"><metadata><bounds maxlat="33.1410386" maxlon="132.453818" minlat="33.1369023" minlon="132.4475499"/></metadata><trk><name>峠ヶ森</name><number>1</number><trkseg><trkpt lat="33.1410232" lon="132.4532394"><ele>7.094587900624944</ele><time>2026-01-04T02:16:46Z</time></trkpt><trkpt lat="33.1410197" lon="132.4530005"><ele>6.125492207351828</ele><time>2026-01-04T02:18:12Z</time></trkpt><trkpt lat="33.1408367" lon="132.452886"><ele>5.802451940416977</ele><time>2026-01-04T02:18:27Z</time></trkpt><trkpt lat="33.140646" lon="132.4529505"><ele>5.156455071651773</ele><time>2026-01-04T02:18:42Z</time></trkpt><trkpt lat="33.1404647" lon="132.4528488"><ele>5.156518849093055</ele><time>2026-01-04T02:19:12Z</time></trkpt><trkpt lat="33.1402803" lon="132.452739"><ele>5.52325084301102</ele><time>2026-01-04T02:19:27Z</time></trkpt><trkpt lat="33.1400649" lon="132.4526974"><ele>5.889939874801079</ele><time>2026-01-04T02:19:42Z</time></trkpt><trkpt lat="33.1398886" lon="132.4528384"><ele>6.256739305743349</ele><time>2026-01-04T02:19:57Z</time></trkpt><trkpt lat="33.139721" lon="132.4530056"><ele>5.956997172209152</ele><time>2026-01-04T02:20:12Z</time></trkpt><trkpt lat="33.1395724" lon="132.4531501"><ele>5.657325391559893</ele><time>2026-01-04T02:20:27Z</time></trkpt><trkpt lat="33.1394959" lon="132.4533451"><ele>5.357655238621672</ele><time>2026-01-04T02:20:39Z</time></trkpt><trkpt lat="33.1394917" lon="132.4536011"><ele>5.657985782490511</ele><time>2026-01-04T02:20:54Z</time></trkpt><trkpt lat="33.1394066" lon="132.453818"><ele>5.591668866212548</ele><time>2026-01-04T02:21:09Z</time></trkpt><trkpt lat="33.1394591" lon="132.4535763"><ele>5.691784780113714</ele><time>2026-01-04T02:21:42Z</time></trkpt><trkpt lat="33.139501" lon="132.4533517"><ele>5.725000959937194</ele><time>2026-01-04T02:21:57Z</time></trkpt><trkpt lat="33.1395478" lon="132.4531071"><ele>6.124637210444895</ele><time>2026-01-04T02:22:14Z</time></trkpt><trkpt lat="33.1397266" lon="132.452984"><ele>6.024298392768366</ele><time>2026-01-04T02:22:35Z</time></trkpt><trkpt lat="33.1398916" lon="132.4528493"><ele>5.690638464524297</ele><time>2026-01-04T02:22:50Z</time></trkpt><trkpt lat="33.1399366" lon="132.4526358"><ele>5.656993131031185</ele><time>2026-01-04T02:23:08Z</time></trkpt><trkpt lat="33.1397764" lon="132.4525283"><ele>5.690103268949169</ele><time>2026-01-04T02:23:28Z</time></trkpt><trkpt lat="33.1395948" lon="132.4526179"><ele>5.990066439439398</ele><time>2026-01-04T02:23:52Z</time></trkpt><trkpt lat="33.1394522" lon="132.4527937"><ele>5.990255302112604</ele><time>2026-01-04T02:24:10Z</time></trkpt><trkpt lat="33.1393391" lon="132.4529756"><ele>6.290567720920472</ele><time>2026-01-04T02:24:25Z</time></trkpt><trkpt lat="33.1391599" lon="132.4530871"><ele>6.157557252484813</ele><time>2026-01-04T02:25:51Z</time></trkpt><trkpt lat="33.1390783" lon="132.4533041"><ele>6.79505317416566</ele><time>2026-01-04T02:26:47Z</time></trkpt><trkpt lat="33.1390604" lon="132.4535246"><ele>9.228761721427405</ele><time>2026-01-04T02:27:08Z</time></trkpt><trkpt lat="33.1389148" lon="132.4533667"><ele>13.26228401587106</ele><time>2026-01-04T02:28:29Z</time></trkpt><trkpt lat="33.1388531" lon="132.4535928"><ele>18.617437534893128</ele><time>2026-01-04T02:29:02Z</time></trkpt><trkpt lat="33.1386578" lon="132.4536171"><ele>24.746810742285096</ele><time>2026-01-04T02:30:26Z</time></trkpt><trkpt lat="33.1384795" lon="132.4535201"><ele>33.00274362442565</ele><time>2026-01-04T02:31:25Z</time></trkpt><trkpt lat="33.1383005" lon="132.453486"><ele>42.88438982895287</ele><time>2026-01-04T02:32:58Z</time></trkpt><trkpt lat="33.1381616" lon="132.4533347"><ele>52.83126825952667</ele><time>2026-01-04T02:33:55Z</time></trkpt><trkpt lat="33.1381063" lon="132.453124"><ele>61.16848155107173</ele><time>2026-01-04T02:34:40Z</time></trkpt><trkpt lat="33.1380072" lon="132.4529094"><ele>67.1734276975812</ele><time>2026-01-04T02:35:40Z</time></trkpt><trkpt lat="33.1378614" lon="132.4527639"><ele>72.12074566321652</ele><time>2026-01-04T02:37:04Z</time></trkpt><trkpt lat="33.1377402" lon="132.4526024"><ele>77.02105093713742</ele><time>2026-01-04T02:37:49Z</time></trkpt><trkpt lat="33.1376072" lon="132.452424"><ele>83.60788655042494</ele><time>2026-01-04T02:38:37Z</time></trkpt><trkpt lat="33.1375022" lon="132.4522453"><ele>91.24828784230313</ele><time>2026-01-04T02:39:24Z</time></trkpt><trkpt lat="33.1373558" lon="132.4521066"><ele>99.45290180744117</ele><time>2026-01-04T02:40:39Z</time></trkpt><trkpt lat="33.1372086" lon="132.4519787"><ele>106.6977123800986</ele><time>2026-01-04T02:43:06Z</time></trkpt><trkpt lat="33.1371268" lon="132.4517678"><ele>111.42823927386387</ele><time>2026-01-04T02:43:57Z</time></trkpt><trkpt lat="33.1370972" lon="132.4515403"><ele>115.08643205683921</ele><time>2026-01-04T02:44:36Z</time></trkpt><trkpt lat="33.1370062" lon="132.4513536"><ele>117.37169926564582</ele><time>2026-01-04T02:45:03Z</time></trkpt><trkpt lat="33.1369309" lon="132.4511492"><ele>121.58288753813538</ele><time>2026-01-04T02:45:33Z</time></trkpt><trkpt lat="33.1369023" lon="132.4509316"><ele>124.87575973112929</ele><time>2026-01-04T02:46:06Z</time></trkpt><trkpt lat="33.1369035" lon="132.4506924"><ele>127.03761841909325</ele><time>2026-01-04T02:47:12Z</time></trkpt><trkpt lat="33.1370023" lon="132.4505019"><ele>128.80592570017825</ele><time>2026-01-04T02:47:45Z</time></trkpt><trkpt lat="33.137075" lon="132.450299"><ele>132.32079941401173</ele><time>2026-01-04T02:48:21Z</time></trkpt><trkpt lat="33.137139" lon="132.4500831"><ele>138.48418182956098</ele><time>2026-01-04T02:48:59Z</time></trkpt><trkpt lat="33.1371713" lon="132.449845"><ele>144.1752842904758</ele><time>2026-01-04T02:49:38Z</time></trkpt><trkpt lat="33.137296" lon="132.4496652"><ele>148.32888957242048</ele><time>2026-01-04T02:50:02Z</time></trkpt><trkpt lat="33.1373666" lon="132.4494616"><ele>150.92137736092533</ele><time>2026-01-04T02:50:41Z</time></trkpt><trkpt lat="33.1375004" lon="132.4492923"><ele>152.44316311691387</ele><time>2026-01-04T02:51:22Z</time></trkpt><trkpt lat="33.1375773" lon="132.449073"><ele>153.33789577194207</ele><time>2026-01-04T02:51:48Z</time></trkpt><trkpt lat="33.1377459" lon="132.448994"><ele>154.7172192714538</ele><time>2026-01-04T02:52:48Z</time></trkpt><trkpt lat="33.1378451" lon="132.4488012"><ele>158.87605921211716</ele><time>2026-01-04T02:53:56Z</time></trkpt><trkpt lat="33.1380081" lon="132.4486778"><ele>164.36422188071035</ele><time>2026-01-04T02:55:47Z</time></trkpt><trkpt lat="33.1381185" lon="132.448498"><ele>170.5759047427853</ele><time>2026-01-04T02:56:35Z</time></trkpt><trkpt lat="33.1382088" lon="132.448307"><ele>179.55321291171444</ele><time>2026-01-04T02:58:59Z</time></trkpt><trkpt lat="33.1382192" lon="132.4480874"><ele>190.97075694669388</ele><time>2026-01-04T03:00:17Z</time></trkpt><trkpt lat="33.1382861" lon="132.4478878"><ele>202.1436378846746</ele><time>2026-01-04T03:01:26Z</time></trkpt><trkpt lat="33.1384375" lon="132.4477596"><ele>209.44816860032964</ele><time>2026-01-04T03:03:08Z</time></trkpt><trkpt lat="33.1383816" lon="132.4475499"><ele>214.62535368920427</ele><time>2026-01-04T03:04:05Z</time></trkpt><trkpt lat="33.1384517" lon="132.4477537"><ele>217.52368147012137</ele><time>2026-01-04T03:20:26Z</time></trkpt><trkpt lat="33.1383645" lon="132.4479425"><ele>216.99881520974122</ele><time>2026-01-04T03:21:44Z</time></trkpt><trkpt lat="33.1382454" lon="132.4481048"><ele>212.7823188611404</ele><time>2026-01-04T03:22:44Z</time></trkpt><trkpt lat="33.1381774" lon="132.4483121"><ele>205.25256861514626</ele><time>2026-01-04T03:24:38Z</time></trkpt><trkpt lat="33.1381072" lon="132.4485244"><ele>194.25951043383654</ele><time>2026-01-04T03:26:35Z</time></trkpt><trkpt lat="33.1380042" lon="132.4487017"><ele>182.4841605230788</ele><time>2026-01-04T03:27:59Z</time></trkpt><trkpt lat="33.1379261" lon="132.4488961"><ele>172.85126108010925</ele><time>2026-01-04T03:28:56Z</time></trkpt><trkpt lat="33.1377558" lon="132.4490053"><ele>166.2091542528953</ele><time>2026-01-04T03:29:29Z</time></trkpt><trkpt lat="33.1376194" lon="132.4491793"><ele>161.48559420146734</ele><time>2026-01-04T03:29:50Z</time></trkpt><trkpt lat="33.1375137" lon="132.4493845"><ele>158.06864675450348</ele><time>2026-01-04T03:30:11Z</time></trkpt><trkpt lat="33.1374341" lon="132.4495867"><ele>156.9460595897223</ele><time>2026-01-04T03:30:29Z</time></trkpt><trkpt lat="33.137381" lon="132.44981"><ele>155.97018187804903</ele><time>2026-01-04T03:30:59Z</time></trkpt><trkpt lat="33.1372468" lon="132.4499617"><ele>154.66776994268864</ele><time>2026-01-04T03:31:38Z</time></trkpt><trkpt lat="33.1371437" lon="132.4501569"><ele>151.88231758837142</ele><time>2026-01-04T03:32:05Z</time></trkpt><trkpt lat="33.137084" lon="132.4503702"><ele>148.44618134610252</ele><time>2026-01-04T03:32:31Z</time></trkpt><trkpt lat="33.1370308" lon="132.4505954"><ele>143.12532885238946</ele><time>2026-01-04T03:33:04Z</time></trkpt><trkpt lat="33.136977" lon="132.450828"><ele>138.4160468539575</ele><time>2026-01-04T03:33:28Z</time></trkpt><trkpt lat="33.1369446" lon="132.4510499"><ele>134.40042435695048</ele><time>2026-01-04T03:33:58Z</time></trkpt><trkpt lat="33.1370719" lon="132.4512153"><ele>131.80406493625256</ele><time>2026-01-04T03:34:25Z</time></trkpt><trkpt lat="33.137112" lon="132.4514274"><ele>128.29129281688014</ele><time>2026-01-04T03:34:45Z</time></trkpt><trkpt lat="33.1371054" lon="132.4516496"><ele>125.0138755645681</ele><time>2026-01-04T03:35:32Z</time></trkpt><trkpt lat="33.1371807" lon="132.4518464"><ele>122.3912296595089</ele><time>2026-01-04T03:35:59Z</time></trkpt><trkpt lat="33.1373047" lon="132.4520248"><ele>120.22538837552072</ele><time>2026-01-04T03:36:29Z</time></trkpt><trkpt lat="33.1374203" lon="132.4522219"><ele>116.24571882627374</ele><time>2026-01-04T03:36:53Z</time></trkpt><trkpt lat="33.1375305" lon="132.4523994"><ele>111.1530926943014</ele><time>2026-01-04T03:37:14Z</time></trkpt><trkpt lat="33.1376484" lon="132.4525865"><ele>104.20707870550616</ele><time>2026-01-04T03:37:53Z</time></trkpt><trkpt lat="33.1377879" lon="132.4527277"><ele>97.67816158485414</ele><time>2026-01-04T03:38:25Z</time></trkpt><trkpt lat="33.1379331" lon="132.4528688"><ele>91.01306764193731</ele><time>2026-01-04T03:38:52Z</time></trkpt><trkpt lat="33.1381195" lon="132.4528609"><ele>86.09820063980304</ele><time>2026-01-04T03:39:43Z</time></trkpt><trkpt lat="33.1381813" lon="132.4530796"><ele>80.91717122116103</ele><time>2026-01-04T03:40:49Z</time></trkpt><trkpt lat="33.1382315" lon="132.4532881"><ele>76.86477817899662</ele><time>2026-01-04T03:41:09Z</time></trkpt><trkpt lat="33.1383486" lon="132.4534574"><ele>70.41078474008437</ele><time>2026-01-04T03:42:14Z</time></trkpt><trkpt lat="33.1385187" lon="132.4535716"><ele>62.07522457128814</ele><time>2026-01-04T03:42:55Z</time></trkpt><trkpt lat="33.1387026" lon="132.4536715"><ele>52.366765864400804</ele><time>2026-01-04T03:43:25Z</time></trkpt><trkpt lat="33.1388896" lon="132.4536257"><ele>44.57470628839574</ele><time>2026-01-04T03:43:52Z</time></trkpt><trkpt lat="33.1390592" lon="132.4535154"><ele>36.34360653237467</ele><time>2026-01-04T03:44:43Z</time></trkpt><trkpt lat="33.1390791" lon="132.4532809"><ele>27.770265823847968</ele><time>2026-01-04T03:45:15Z</time></trkpt><trkpt lat="33.1392599" lon="132.4533324"><ele>17.945478597592583</ele><time>2026-01-04T03:46:15Z</time></trkpt><trkpt lat="33.1394549" lon="132.4533568"><ele>12.192090343438958</ele><time>2026-01-04T03:46:35Z</time></trkpt><trkpt lat="33.1395973" lon="132.4531992"><ele>7.996591153402868</ele><time>2026-01-04T03:47:02Z</time></trkpt><trkpt lat="33.139727" lon="132.4530427"><ele>6.922947480733366</ele><time>2026-01-04T03:47:17Z</time></trkpt><trkpt lat="33.1398776" lon="132.4529035"><ele>5.857391325410696</ele><time>2026-01-04T03:47:32Z</time></trkpt><trkpt lat="33.1400442" lon="132.4527565"><ele>5.690412658332687</ele><time>2026-01-04T03:47:47Z</time></trkpt><trkpt lat="33.1402391" lon="132.4527715"><ele>5.3568313088501585</ele><time>2026-01-04T03:48:02Z</time></trkpt><trkpt lat="33.1404244" lon="132.4528617"><ele>5.356680912826204</ele><time>2026-01-04T03:48:17Z</time></trkpt><trkpt lat="33.1405969" lon="132.4529438"><ele>5.356634560838331</ele><time>2026-01-04T03:48:32Z</time></trkpt><trkpt lat="33.1407724" lon="132.4530086"><ele>5.456615189208957</ele><time>2026-01-04T03:48:50Z</time></trkpt><trkpt lat="33.1409592" lon="132.4530404"><ele>5.389901674834044</ele><time>2026-01-04T03:49:07Z</time></trkpt><trkpt lat="33.1410386" lon="132.4532645"><ele>5.32327503914791</ele><time>2026-01-04T03:49:24Z</time></trkpt></trkseg></trk></gpx>