<?xml version='1.0' encoding='UTF-8'?><gpx creator="YAMAP - https://yamap.com" xsi:schemaLocation="http://www.topografix.com/GPX/1/1 http://www.topografix.com/GPX/1/1/gpx.xsd" version="1.1" xmlns="http://www.topografix.com/GPX/1/1" xmlns:xsi="http://www.w3.org/2001/XMLSchema-instance"><metadata><bounds maxlat="33.7271991" maxlon="132.8577338" minlat="33.720707" minlon="132.8470566"/></metadata><trk><name>真城ヶ台</name><number>1</number><trkseg><trkpt lat="33.7210077" lon="132.847367"><ele>297.55</ele><time>2023-03-15T00:53:44Z</time></trkpt><trkpt lat="33.7211486" lon="132.8472101"><ele>296.74</ele><time>2023-03-15T00:53:53Z</time></trkpt><trkpt lat="33.7212816" lon="132.8470566"><ele>296.3333333333333</ele><time>2023-03-15T00:54:05Z</time></trkpt><trkpt lat="33.7214288" lon="132.8471943"><ele>296.2366666666667</ele><time>2023-03-15T00:54:16Z</time></trkpt><trkpt lat="33.7215147" lon="132.8473856"><ele>298.66</ele><time>2023-03-15T00:54:39Z</time></trkpt><trkpt lat="33.721565" lon="132.847593"><ele>301.43666666666667</ele><time>2023-03-15T00:54:58Z</time></trkpt><trkpt lat="33.7215694" lon="132.8478125"><ele>304.75</ele><time>2023-03-15T00:55:19Z</time></trkpt><trkpt lat="33.7215348" lon="132.8480401"><ele>307.18666666666667</ele><time>2023-03-15T00:55:33Z</time></trkpt><trkpt lat="33.7214406" lon="132.8482249"><ele>311.11</ele><time>2023-03-15T00:55:44Z</time></trkpt><trkpt lat="33.7214116" lon="132.848443"><ele>315.06333333333333</ele><time>2023-03-15T00:56:15Z</time></trkpt><trkpt lat="33.7213869" lon="132.8486641"><ele>318.27000000000004</ele><time>2023-03-15T00:56:27Z</time></trkpt><trkpt lat="33.7213822" lon="132.8488996"><ele>320.23333333333335</ele><time>2023-03-15T00:56:44Z</time></trkpt><trkpt lat="33.7215075" lon="132.8490557"><ele>322.06</ele><time>2023-03-15T00:57:03Z</time></trkpt><trkpt lat="33.7215039" lon="132.8492745"><ele>325.1033333333333</ele><time>2023-03-15T00:57:18Z</time></trkpt><trkpt lat="33.7216311" lon="132.8494279"><ele>329.56333333333333</ele><time>2023-03-15T00:57:41Z</time></trkpt><trkpt lat="33.7216" lon="132.8496479"><ele>334.05</ele><time>2023-03-15T00:57:58Z</time></trkpt><trkpt lat="33.7216263" lon="132.8498658"><ele>338.09666666666664</ele><time>2023-03-15T00:58:12Z</time></trkpt><trkpt lat="33.7215182" lon="132.8500443"><ele>341.7866666666667</ele><time>2023-03-15T00:58:36Z</time></trkpt><trkpt lat="33.7214057" lon="132.8502193"><ele>345.09</ele><time>2023-03-15T00:59:00Z</time></trkpt><trkpt lat="33.7214906" lon="132.8504199"><ele>349.59999999999997</ele><time>2023-03-15T00:59:44Z</time></trkpt><trkpt lat="33.7214889" lon="132.8506522"><ele>355.39000000000004</ele><time>2023-03-15T01:00:11Z</time></trkpt><trkpt lat="33.7215465" lon="132.8508613"><ele>361.4066666666667</ele><time>2023-03-15T01:00:55Z</time></trkpt><trkpt lat="33.7216723" lon="132.8510308"><ele>366.24333333333334</ele><time>2023-03-15T01:01:10Z</time></trkpt><trkpt lat="33.7216758" lon="132.8512614"><ele>369.5933333333333</ele><time>2023-03-15T01:01:37Z</time></trkpt><trkpt lat="33.7216746" lon="132.8514774"><ele>373.4633333333333</ele><time>2023-03-15T01:01:50Z</time></trkpt><trkpt lat="33.7215436" lon="132.8516349"><ele>377.10666666666674</ele><time>2023-03-15T01:02:04Z</time></trkpt><trkpt lat="33.7215991" lon="132.851851"><ele>381.98</ele><time>2023-03-15T01:02:32Z</time></trkpt><trkpt lat="33.721652" lon="132.8520575"><ele>387.82</ele><time>2023-03-15T01:02:52Z</time></trkpt><trkpt lat="33.7218142" lon="132.8521589"><ele>394.78000000000003</ele><time>2023-03-15T01:03:07Z</time></trkpt><trkpt lat="33.7219299" lon="132.8523304"><ele>400.8866666666667</ele><time>2023-03-15T01:03:41Z</time></trkpt><trkpt lat="33.7220677" lon="132.8524787"><ele>407.2633333333333</ele><time>2023-03-15T01:04:16Z</time></trkpt><trkpt lat="33.7221298" lon="132.8526839"><ele>414.80999999999995</ele><time>2023-03-15T01:06:40Z</time></trkpt><trkpt lat="33.7220756" lon="132.852895"><ele>424.4466666666667</ele><time>2023-03-15T01:07:13Z</time></trkpt><trkpt lat="33.7222231" lon="132.8530285"><ele>433.23</ele><time>2023-03-15T01:07:54Z</time></trkpt><trkpt lat="33.7222302" lon="132.8532456"><ele>442.05999999999995</ele><time>2023-03-15T01:08:11Z</time></trkpt><trkpt lat="33.7222565" lon="132.8530274"><ele>443.84</ele><time>2023-03-15T01:08:54Z</time></trkpt><trkpt lat="33.7223974" lon="132.8531651"><ele>444.7166666666667</ele><time>2023-03-15T01:09:06Z</time></trkpt><trkpt lat="33.722399" lon="132.8533831"><ele>445.3733333333333</ele><time>2023-03-15T01:09:32Z</time></trkpt><trkpt lat="33.7224489" lon="132.8535964"><ele>451.06666666666666</ele><time>2023-03-15T01:10:35Z</time></trkpt><trkpt lat="33.7225952" lon="132.8537295"><ele>458.4766666666667</ele><time>2023-03-15T01:10:51Z</time></trkpt><trkpt lat="33.7225479" lon="132.8539506"><ele>468.0733333333333</ele><time>2023-03-15T01:11:57Z</time></trkpt><trkpt lat="33.7224477" lon="132.8541427"><ele>477.44666666666666</ele><time>2023-03-15T01:12:03Z</time></trkpt><trkpt lat="33.7222969" lon="132.8542665"><ele>484.5466666666666</ele><time>2023-03-15T01:12:20Z</time></trkpt><trkpt lat="33.7224865" lon="132.854189"><ele>487.8066666666667</ele><time>2023-03-15T01:14:07Z</time></trkpt><trkpt lat="33.7226287" lon="132.8543297"><ele>494.21000000000004</ele><time>2023-03-15T01:14:55Z</time></trkpt><trkpt lat="33.7227759" lon="132.8542025"><ele>495.9966666666667</ele><time>2023-03-15T01:15:27Z</time></trkpt><trkpt lat="33.7228044" lon="132.8544192"><ele>501.9433333333333</ele><time>2023-03-15T01:16:05Z</time></trkpt><trkpt lat="33.7227592" lon="132.8546519"><ele>506.4333333333334</ele><time>2023-03-15T01:16:30Z</time></trkpt><trkpt lat="33.722812" lon="132.8548626"><ele>518.0366666666667</ele><time>2023-03-15T01:17:09Z</time></trkpt><trkpt lat="33.7228542" lon="132.855088"><ele>525.7733333333333</ele><time>2023-03-15T01:17:35Z</time></trkpt><trkpt lat="33.7230026" lon="132.8552193"><ele>531.0766666666667</ele><time>2023-03-15T01:17:59Z</time></trkpt><trkpt lat="33.7230578" lon="132.8554467"><ele>535.6333333333333</ele><time>2023-03-15T01:18:16Z</time></trkpt><trkpt lat="33.7231972" lon="132.8555895"><ele>538.8433333333334</ele><time>2023-03-15T01:18:34Z</time></trkpt><trkpt lat="33.7233246" lon="132.8557426"><ele>541.85</ele><time>2023-03-15T01:18:49Z</time></trkpt><trkpt lat="33.72349" lon="132.8556254"><ele>542.4533333333334</ele><time>2023-03-15T01:19:08Z</time></trkpt><trkpt lat="33.7236668" lon="132.8556796"><ele>543.31</ele><time>2023-03-15T01:19:43Z</time></trkpt><trkpt lat="33.7238277" lon="132.8557798"><ele>544.9833333333332</ele><time>2023-03-15T01:19:54Z</time></trkpt><trkpt lat="33.7239979" lon="132.8558697"><ele>548.16</ele><time>2023-03-15T01:20:24Z</time></trkpt><trkpt lat="33.7241239" lon="132.8560275"><ele>551.6533333333333</ele><time>2023-03-15T01:20:51Z</time></trkpt><trkpt lat="33.7242221" lon="132.8562128"><ele>555.26</ele><time>2023-03-15T01:21:08Z</time></trkpt><trkpt lat="33.7242926" lon="132.8564152"><ele>558.6866666666666</ele><time>2023-03-15T01:21:40Z</time></trkpt><trkpt lat="33.7243456" lon="132.8566219"><ele>562.9366666666666</ele><time>2023-03-15T01:21:51Z</time></trkpt><trkpt lat="33.7244082" lon="132.856831"><ele>566.7833333333334</ele><time>2023-03-15T01:22:06Z</time></trkpt><trkpt lat="33.7245411" lon="132.8566837"><ele>571.7266666666666</ele><time>2023-03-15T01:22:45Z</time></trkpt><trkpt lat="33.7246313" lon="132.8568732"><ele>576.5533333333333</ele><time>2023-03-15T01:23:55Z</time></trkpt><trkpt lat="33.7246087" lon="132.857096"><ele>580.8266666666667</ele><time>2023-03-15T01:24:24Z</time></trkpt><trkpt lat="33.724553" lon="132.8573014"><ele>583.2866666666667</ele><time>2023-03-15T01:25:39Z</time></trkpt><trkpt lat="33.7245301" lon="132.8575241"><ele>583.14</ele><time>2023-03-15T01:25:54Z</time></trkpt><trkpt lat="33.7246019" lon="132.8577338"><ele>579.5100000000001</ele><time>2023-03-15T01:26:12Z</time></trkpt><trkpt lat="33.7244988" lon="132.8575538"><ele>578.5233333333334</ele><time>2023-03-15T01:27:02Z</time></trkpt><trkpt lat="33.7245345" lon="132.8573328"><ele>579.6700000000001</ele><time>2023-03-15T01:27:29Z</time></trkpt><trkpt lat="33.7245746" lon="132.8571146"><ele>583.3000000000001</ele><time>2023-03-15T01:27:45Z</time></trkpt><trkpt lat="33.7246538" lon="132.8569052"><ele>583.6133333333333</ele><time>2023-03-15T01:28:01Z</time></trkpt><trkpt lat="33.7246944" lon="132.8566887"><ele>582.27</ele><time>2023-03-15T01:28:23Z</time></trkpt><trkpt lat="33.7247189" lon="132.8564671"><ele>580.9733333333334</ele><time>2023-03-15T01:28:46Z</time></trkpt><trkpt lat="33.7248062" lon="132.8562754"><ele>578.12</ele><time>2023-03-15T01:30:12Z</time></trkpt><trkpt lat="33.7248879" lon="132.8560556"><ele>575.1300000000001</ele><time>2023-03-15T01:30:36Z</time></trkpt><trkpt lat="33.7249241" lon="132.8558368"><ele>572.0566666666667</ele><time>2023-03-15T01:30:48Z</time></trkpt><trkpt lat="33.7251061" lon="132.855846"><ele>570.7166666666667</ele><time>2023-03-15T01:31:19Z</time></trkpt><trkpt lat="33.725293" lon="132.8558443"><ele>568.2566666666667</ele><time>2023-03-15T01:31:55Z</time></trkpt><trkpt lat="33.725477" lon="132.8558094"><ele>564.9366666666667</ele><time>2023-03-15T01:32:10Z</time></trkpt><trkpt lat="33.7256603" lon="132.8558033"><ele>560.2433333333333</ele><time>2023-03-15T01:32:27Z</time></trkpt><trkpt lat="33.7257904" lon="132.8556472"><ele>555.5466666666666</ele><time>2023-03-15T01:32:57Z</time></trkpt><trkpt lat="33.7259733" lon="132.8556614"><ele>551.9266666666667</ele><time>2023-03-15T01:33:48Z</time></trkpt><trkpt lat="33.7261364" lon="132.8557598"><ele>548.1666666666666</ele><time>2023-03-15T01:34:05Z</time></trkpt><trkpt lat="33.7263112" lon="132.8556924"><ele>545.83</ele><time>2023-03-15T01:34:41Z</time></trkpt><trkpt lat="33.7264801" lon="132.8557947"><ele>544.83</ele><time>2023-03-15T01:35:07Z</time></trkpt><trkpt lat="33.7265863" lon="132.8556148"><ele>547.3166666666666</ele><time>2023-03-15T01:35:38Z</time></trkpt><trkpt lat="33.7267698" lon="132.8555884"><ele>551.1733333333333</ele><time>2023-03-15T01:36:06Z</time></trkpt><trkpt lat="33.7269553" lon="132.8556027"><ele>556.8033333333333</ele><time>2023-03-15T01:36:44Z</time></trkpt><trkpt lat="33.7271368" lon="132.8555655"><ele>565.43</ele><time>2023-03-15T01:39:14Z</time></trkpt><trkpt lat="33.7271991" lon="132.8557697"><ele>574.3133333333334</ele><time>2023-03-15T01:40:31Z</time></trkpt><trkpt lat="33.7271482" lon="132.8555597"><ele>579.0600000000001</ele><time>2023-03-15T01:45:21Z</time></trkpt><trkpt lat="33.7269729" lon="132.8556245"><ele>575.0400000000001</ele><time>2023-03-15T01:51:05Z</time></trkpt><trkpt lat="33.7267921" lon="132.8556422"><ele>566.87</ele><time>2023-03-15T01:51:21Z</time></trkpt><trkpt lat="33.7266189" lon="132.8557067"><ele>558.3733333333333</ele><time>2023-03-15T01:51:56Z</time></trkpt><trkpt lat="33.7264886" lon="132.8558565"><ele>552.7600000000001</ele><time>2023-03-15T01:52:09Z</time></trkpt><trkpt lat="33.7263057" lon="132.8558658"><ele>547.19</ele><time>2023-03-15T01:52:39Z</time></trkpt><trkpt lat="33.726124" lon="132.8558325"><ele>544.93</ele><time>2023-03-15T01:52:54Z</time></trkpt><trkpt lat="33.7259403" lon="132.8557751"><ele>545.5333333333333</ele><time>2023-03-15T01:53:10Z</time></trkpt><trkpt lat="33.7257834" lon="132.8556686"><ele>548.87</ele><time>2023-03-15T01:53:30Z</time></trkpt><trkpt lat="33.725647" lon="132.8558268"><ele>552.2733333333333</ele><time>2023-03-15T01:54:10Z</time></trkpt><trkpt lat="33.7254793" lon="132.8559287"><ele>555.96</ele><time>2023-03-15T01:54:45Z</time></trkpt><trkpt lat="33.7252944" lon="132.8559668"><ele>561.0166666666668</ele><time>2023-03-15T01:55:26Z</time></trkpt><trkpt lat="33.7251387" lon="132.8560764"><ele>565.6533333333333</ele><time>2023-03-15T01:56:03Z</time></trkpt><trkpt lat="33.7249608" lon="132.8561209"><ele>569.22</ele><time>2023-03-15T01:56:32Z</time></trkpt><trkpt lat="33.7248004" lon="132.8562305"><ele>571.9666666666667</ele><time>2023-03-15T01:56:53Z</time></trkpt><trkpt lat="33.7246776" lon="132.8563992"><ele>574.06</ele><time>2023-03-15T01:57:12Z</time></trkpt><trkpt lat="33.724591" lon="132.8565887"><ele>576.1133333333333</ele><time>2023-03-15T01:57:35Z</time></trkpt><trkpt lat="33.7244846" lon="132.8567817"><ele>577.6666666666666</ele><time>2023-03-15T01:57:49Z</time></trkpt><trkpt lat="33.7244324" lon="132.8569951"><ele>578.2066666666667</ele><time>2023-03-15T01:58:03Z</time></trkpt><trkpt lat="33.7242837" lon="132.8568589"><ele>574.14</ele><time>2023-03-15T01:58:16Z</time></trkpt><trkpt lat="33.7242851" lon="132.8566402"><ele>569.3166666666667</ele><time>2023-03-15T01:58:28Z</time></trkpt><trkpt lat="33.7243458" lon="132.856434"><ele>565.2233333333334</ele><time>2023-03-15T01:58:39Z</time></trkpt><trkpt lat="33.7243033" lon="132.8562086"><ele>563.5533333333333</ele><time>2023-03-15T01:58:52Z</time></trkpt><trkpt lat="33.7241764" lon="132.8560365"><ele>561.3066666666667</ele><time>2023-03-15T01:59:07Z</time></trkpt><trkpt lat="33.7239904" lon="132.8560351"><ele>557.32</ele><time>2023-03-15T01:59:24Z</time></trkpt><trkpt lat="33.7238122" lon="132.8559898"><ele>552.93</ele><time>2023-03-15T01:59:36Z</time></trkpt><trkpt lat="33.7236935" lon="132.8558097"><ele>549.5033333333333</ele><time>2023-03-15T01:59:47Z</time></trkpt><trkpt lat="33.7235325" lon="132.8556865"><ele>545.8666666666667</ele><time>2023-03-15T01:59:58Z</time></trkpt><trkpt lat="33.7233589" lon="132.8556237"><ele>543.4666666666666</ele><time>2023-03-15T02:00:09Z</time></trkpt><trkpt lat="33.7232207" lon="132.8554598"><ele>541.0</ele><time>2023-03-15T02:00:22Z</time></trkpt><trkpt lat="33.723063" lon="132.8553545"><ele>539.9233333333333</ele><time>2023-03-15T02:00:39Z</time></trkpt><trkpt lat="33.722926" lon="132.8552036"><ele>538.1966666666667</ele><time>2023-03-15T02:01:20Z</time></trkpt><trkpt lat="33.7228605" lon="132.854996"><ele>534.6266666666667</ele><time>2023-03-15T02:01:32Z</time></trkpt><trkpt lat="33.7226998" lon="132.8548876"><ele>530.6666666666666</ele><time>2023-03-15T02:01:44Z</time></trkpt><trkpt lat="33.7226418" lon="132.8546756"><ele>525.9900000000001</ele><time>2023-03-15T02:01:59Z</time></trkpt><trkpt lat="33.7226343" lon="132.8544537"><ele>519.2966666666667</ele><time>2023-03-15T02:02:10Z</time></trkpt><trkpt lat="33.7225481" lon="132.8542621"><ele>509.3766666666667</ele><time>2023-03-15T02:02:51Z</time></trkpt><trkpt lat="33.7223957" lon="132.8543799"><ele>500.07</ele><time>2023-03-15T02:03:17Z</time></trkpt><trkpt lat="33.7224919" lon="132.8541911"><ele>494.11000000000007</ele><time>2023-03-15T02:03:36Z</time></trkpt><trkpt lat="33.7225023" lon="132.8539719"><ele>488.65333333333336</ele><time>2023-03-15T02:03:47Z</time></trkpt><trkpt lat="33.7223762" lon="132.8541326"><ele>485.3333333333333</ele><time>2023-03-15T02:04:04Z</time></trkpt><trkpt lat="33.7223378" lon="132.853917"><ele>480.23999999999995</ele><time>2023-03-15T02:04:30Z</time></trkpt><trkpt lat="33.7225192" lon="132.8539476"><ele>480.23999999999995</ele><time>2023-03-15T02:06:52Z</time></trkpt><trkpt lat="33.7223978" lon="132.8537832"><ele>475.4866666666667</ele><time>2023-03-15T02:07:14Z</time></trkpt><trkpt lat="33.7223881" lon="132.8535673"><ele>469.91</ele><time>2023-03-15T02:07:26Z</time></trkpt><trkpt lat="33.7222237" lon="132.8536662"><ele>462.78000000000003</ele><time>2023-03-15T02:07:37Z</time></trkpt><trkpt lat="33.7222045" lon="132.8534366"><ele>457.53000000000003</ele><time>2023-03-15T02:07:51Z</time></trkpt><trkpt lat="33.722235" lon="132.8532169"><ele>454.68666666666667</ele><time>2023-03-15T02:08:03Z</time></trkpt><trkpt lat="33.7221878" lon="132.853431"><ele>452.0333333333333</ele><time>2023-03-15T02:08:27Z</time></trkpt><trkpt lat="33.722037" lon="132.8532968"><ele>448.07</ele><time>2023-03-15T02:08:43Z</time></trkpt><trkpt lat="33.7219685" lon="132.8530857"><ele>442.27333333333337</ele><time>2023-03-15T02:08:59Z</time></trkpt><trkpt lat="33.7218193" lon="132.8529434"><ele>432.8233333333333</ele><time>2023-03-15T02:09:14Z</time></trkpt><trkpt lat="33.7220037" lon="132.8528985"><ele>430.0166666666667</ele><time>2023-03-15T02:09:39Z</time></trkpt><trkpt lat="33.7219496" lon="132.8526237"><ele>426.84666666666664</ele><time>2023-03-15T02:10:56Z</time></trkpt><trkpt lat="33.7219237" lon="132.8523954"><ele>422.30333333333334</ele><time>2023-03-15T02:10:58Z</time></trkpt><trkpt lat="33.7217929" lon="132.8522443"><ele>412.2733333333333</ele><time>2023-03-15T02:11:09Z</time></trkpt><trkpt lat="33.7215967" lon="132.8522114"><ele>405.74333333333334</ele><time>2023-03-15T02:11:22Z</time></trkpt><trkpt lat="33.7214299" lon="132.8521097"><ele>403.33</ele><time>2023-03-15T02:11:36Z</time></trkpt><trkpt lat="33.7215247" lon="132.8519087"><ele>398.8666666666666</ele><time>2023-03-15T02:11:56Z</time></trkpt><trkpt lat="33.7215024" lon="132.8516777"><ele>392.0566666666667</ele><time>2023-03-15T02:12:01Z</time></trkpt><trkpt lat="33.7215122" lon="132.8514622"><ele>383.47333333333336</ele><time>2023-03-15T02:12:07Z</time></trkpt><trkpt lat="33.7216052" lon="132.8512744"><ele>377.8533333333333</ele><time>2023-03-15T02:12:20Z</time></trkpt><trkpt lat="33.7215692" lon="132.8510237"><ele>373.7</ele><time>2023-03-15T02:12:31Z</time></trkpt><trkpt lat="33.721458" lon="132.8508427"><ele>369.35999999999996</ele><time>2023-03-15T02:12:53Z</time></trkpt><trkpt lat="33.7214268" lon="132.8506217"><ele>364.93333333333334</ele><time>2023-03-15T02:13:06Z</time></trkpt><trkpt lat="33.7213288" lon="132.8504285"><ele>357.71999999999997</ele><time>2023-03-15T02:13:15Z</time></trkpt><trkpt lat="33.7211889" lon="132.8502771"><ele>350.81333333333333</ele><time>2023-03-15T02:13:21Z</time></trkpt><trkpt lat="33.7209997" lon="132.8502154"><ele>345.32666666666665</ele><time>2023-03-15T02:13:52Z</time></trkpt><trkpt lat="33.7209669" lon="132.8499973"><ele>343.82666666666665</ele><time>2023-03-15T02:14:18Z</time></trkpt><trkpt lat="33.7211632" lon="132.8499978"><ele>342.36666666666673</ele><time>2023-03-15T02:14:22Z</time></trkpt><trkpt lat="33.7213539" lon="132.8499978"><ele>342.6333333333334</ele><time>2023-03-15T02:14:25Z</time></trkpt><trkpt lat="33.721485" lon="132.849839"><ele>341.59999999999997</ele><time>2023-03-15T02:14:36Z</time></trkpt><trkpt lat="33.7216199" lon="132.8496848"><ele>341.67</ele><time>2023-03-15T02:14:50Z</time></trkpt><trkpt lat="33.7216324" lon="132.8494561"><ele>338.52000000000004</ele><time>2023-03-15T02:15:12Z</time></trkpt><trkpt lat="33.7216482" lon="132.8492399"><ele>335.00666666666666</ele><time>2023-03-15T02:15:31Z</time></trkpt><trkpt lat="33.7214805" lon="132.8491457"><ele>330.31</ele><time>2023-03-15T02:15:49Z</time></trkpt><trkpt lat="33.7214505" lon="132.8489126"><ele>326.1133333333333</ele><time>2023-03-15T02:16:19Z</time></trkpt><trkpt lat="33.7213703" lon="132.8487169"><ele>322.4166666666667</ele><time>2023-03-15T02:16:32Z</time></trkpt><trkpt lat="33.7214588" lon="132.8485191"><ele>319.99333333333334</ele><time>2023-03-15T02:16:53Z</time></trkpt><trkpt lat="33.7215511" lon="132.848319"><ele>317.5166666666667</ele><time>2023-03-15T02:17:06Z</time></trkpt><trkpt lat="33.7216874" lon="132.8481637"><ele>315.75</ele><time>2023-03-15T02:17:22Z</time></trkpt><trkpt lat="33.7217133" lon="132.8479458"><ele>313.1066666666667</ele><time>2023-03-15T02:17:34Z</time></trkpt><trkpt lat="33.7216745" lon="132.8477296"><ele>310.1</ele><time>2023-03-15T02:17:50Z</time></trkpt><trkpt lat="33.7217476" lon="132.8475058"><ele>305.87</ele><time>2023-03-15T02:18:06Z</time></trkpt><trkpt lat="33.7216958" lon="132.8472854"><ele>302.08</ele><time>2023-03-15T02:18:17Z</time></trkpt><trkpt lat="33.7215437" lon="132.8471689"><ele>298.9266666666667</ele><time>2023-03-15T02:18:24Z</time></trkpt><trkpt lat="33.7213779" lon="132.8470817"><ele>297.06666666666666</ele><time>2023-03-15T02:18:36Z</time></trkpt><trkpt lat="33.7211953" lon="132.8471588"><ele>295.78000000000003</ele><time>2023-03-15T02:18:46Z</time></trkpt><trkpt lat="33.7210743" lon="132.8473295"><ele>295.88000000000005</ele><time>2023-03-15T02:18:59Z</time></trkpt><trkpt lat="33.7209634" lon="132.8475087"><ele>296.6366666666666</ele><time>2023-03-15T02:19:10Z</time></trkpt><trkpt lat="33.7208341" lon="132.8476612"><ele>300.0733333333333</ele><time>2023-03-15T02:19:23Z</time></trkpt><trkpt lat="33.720707" lon="132.847818"><ele>303.1166666666666</ele><time>2023-03-15T02:19:36Z</time></trkpt><trkpt lat="33.7208489" lon="132.8479725"><ele>310.12333333333333</ele><time>2023-03-15T02:20:21Z</time></trkpt></trkseg></trk></gpx>