<?xml version='1.0' encoding='UTF-8'?><gpx creator="YAMAP - https://yamap.com" xsi:schemaLocation="http://www.topografix.com/GPX/1/1 http://www.topografix.com/GPX/1/1/gpx.xsd" version="1.1" xmlns="http://www.topografix.com/GPX/1/1" xmlns:xsi="http://www.w3.org/2001/XMLSchema-instance"><metadata><bounds maxlat="33.8759311" maxlon="133.1047411" minlat="33.8729569" minlon="133.1030424"/></metadata><trk><name>幻城下城</name><number>1</number><trkseg><trkpt lat="33.8729608" lon="133.1046319"><ele>208.33</ele><time>2025-02-28T01:24:55Z</time></trkpt><trkpt lat="33.8731809" lon="133.1047086"><ele>207.85500000000002</ele><time>2025-02-28T01:25:32Z</time></trkpt><trkpt lat="33.8733912" lon="133.1046618"><ele>203.92333333333332</ele><time>2025-02-28T01:25:47Z</time></trkpt><trkpt lat="33.8735973" lon="133.1047392"><ele>201.72333333333336</ele><time>2025-02-28T01:26:07Z</time></trkpt><trkpt lat="33.8737698" lon="133.1046567"><ele>199.34666666666666</ele><time>2025-02-28T01:26:19Z</time></trkpt><trkpt lat="33.8739571" lon="133.1047013"><ele>204.17</ele><time>2025-02-28T01:26:37Z</time></trkpt><trkpt lat="33.8741557" lon="133.1047112"><ele>209.82666666666668</ele><time>2025-02-28T01:27:01Z</time></trkpt><trkpt lat="33.8742622" lon="133.1045208"><ele>214.54666666666665</ele><time>2025-02-28T01:27:18Z</time></trkpt><trkpt lat="33.8743755" lon="133.1043358"><ele>215.67333333333332</ele><time>2025-02-28T01:27:32Z</time></trkpt><trkpt lat="33.8745658" lon="133.1042469"><ele>216.82333333333335</ele><time>2025-02-28T01:28:14Z</time></trkpt><trkpt lat="33.8747304" lon="133.1040996"><ele>220.23000000000002</ele><time>2025-02-28T01:28:31Z</time></trkpt><trkpt lat="33.8748798" lon="133.103955"><ele>223.48</ele><time>2025-02-28T01:28:48Z</time></trkpt><trkpt lat="33.8750666" lon="133.1038888"><ele>226.75333333333333</ele><time>2025-02-28T01:29:08Z</time></trkpt><trkpt lat="33.8751998" lon="133.1037342"><ele>228.72</ele><time>2025-02-28T01:31:40Z</time></trkpt><trkpt lat="33.8753557" lon="133.1035574"><ele>230.7266666666667</ele><time>2025-02-28T01:31:58Z</time></trkpt><trkpt lat="33.8754905" lon="133.1033841"><ele>230.39333333333335</ele><time>2025-02-28T01:32:13Z</time></trkpt><trkpt lat="33.8755641" lon="133.1031764"><ele>229.67333333333332</ele><time>2025-02-28T01:32:29Z</time></trkpt><trkpt lat="33.8757451" lon="133.103103"><ele>229.21333333333337</ele><time>2025-02-28T01:32:43Z</time></trkpt><trkpt lat="33.8759311" lon="133.1030424"><ele>227.03666666666666</ele><time>2025-02-28T01:32:58Z</time></trkpt><trkpt lat="33.875752" lon="133.1030716"><ele>227.01333333333332</ele><time>2025-02-28T01:33:37Z</time></trkpt><trkpt lat="33.8755613" lon="133.1031727"><ele>227.03666666666666</ele><time>2025-02-28T01:33:55Z</time></trkpt><trkpt lat="33.8755012" lon="133.1033911"><ele>229.21333333333334</ele><time>2025-02-28T01:34:12Z</time></trkpt><trkpt lat="33.8753569" lon="133.1035249"><ele>229.67333333333332</ele><time>2025-02-28T01:34:27Z</time></trkpt><trkpt lat="33.8752094" lon="133.1036582"><ele>230.39333333333332</ele><time>2025-02-28T01:34:42Z</time></trkpt><trkpt lat="33.8751536" lon="133.1038829"><ele>231.39000000000001</ele><time>2025-02-28T01:35:18Z</time></trkpt><trkpt lat="33.8753393" lon="133.1038761"><ele>234.79999999999998</ele><time>2025-02-28T01:35:55Z</time></trkpt><trkpt lat="33.8755249" lon="133.1038289"><ele>238.63666666666666</ele><time>2025-02-28T01:36:39Z</time></trkpt><trkpt lat="33.8757016" lon="133.1037557"><ele>241.60999999999999</ele><time>2025-02-28T01:37:48Z</time></trkpt><trkpt lat="33.8758012" lon="133.1035727"><ele>243.36333333333332</ele><time>2025-02-28T01:39:21Z</time></trkpt><trkpt lat="33.8756903" lon="133.1037524"><ele>243.64333333333335</ele><time>2025-02-28T01:40:20Z</time></trkpt><trkpt lat="33.8755104" lon="133.1037821"><ele>243.09</ele><time>2025-02-28T01:42:14Z</time></trkpt><trkpt lat="33.8753314" lon="133.1038398"><ele>240.6866666666667</ele><time>2025-02-28T01:42:44Z</time></trkpt><trkpt lat="33.8751468" lon="133.1038926"><ele>237.71333333333334</ele><time>2025-02-28T01:43:17Z</time></trkpt><trkpt lat="33.8749554" lon="133.1039488"><ele>233.35</ele><time>2025-02-28T01:47:46Z</time></trkpt><trkpt lat="33.8747843" lon="133.104026"><ele>228.65</ele><time>2025-02-28T01:48:04Z</time></trkpt><trkpt lat="33.8746503" lon="133.1041909"><ele>225.81333333333336</ele><time>2025-02-28T01:48:19Z</time></trkpt><trkpt lat="33.8744585" lon="133.1042182"><ele>221.24666666666667</ele><time>2025-02-28T01:48:34Z</time></trkpt><trkpt lat="33.8743157" lon="133.1043826"><ele>217.31000000000003</ele><time>2025-02-28T01:48:49Z</time></trkpt><trkpt lat="33.8742514" lon="133.1045981"><ele>213.63</ele><time>2025-02-28T01:49:03Z</time></trkpt><trkpt lat="33.8741139" lon="133.1047411"><ele>214.14000000000001</ele><time>2025-02-28T01:49:18Z</time></trkpt><trkpt lat="33.8739402" lon="133.104645"><ele>211.65</ele><time>2025-02-28T01:49:33Z</time></trkpt><trkpt lat="33.8737526" lon="133.1046831"><ele>206.40333333333334</ele><time>2025-02-28T01:49:51Z</time></trkpt><trkpt lat="33.8735431" lon="133.104679"><ele>199.70333333333335</ele><time>2025-02-28T01:50:18Z</time></trkpt><trkpt lat="33.8733586" lon="133.1046502"><ele>196.86333333333334</ele><time>2025-02-28T01:50:33Z</time></trkpt><trkpt lat="33.8731494" lon="133.1047028"><ele>199.76666666666665</ele><time>2025-02-28T01:50:50Z</time></trkpt><trkpt lat="33.8729569" lon="133.1046543"><ele>203.92333333333332</ele><time>2025-02-28T01:51:09Z</time></trkpt></trkseg></trk></gpx>