<?xml version='1.0' encoding='UTF-8'?><gpx creator="YAMAP - https://yamap.com" xsi:schemaLocation="http://www.topografix.com/GPX/1/1 http://www.topografix.com/GPX/1/1/gpx.xsd" version="1.1" xmlns="http://www.topografix.com/GPX/1/1" xmlns:xsi="http://www.w3.org/2001/XMLSchema-instance"><metadata><bounds maxlat="33.8009842" maxlon="133.2814471" minlat="33.7824047" minlon="133.2401659"/></metadata><trk><name>伊予富士</name><number>1</number><trkseg><trkpt lat="33.8002404" lon="133.2667961"><ele>1115.01</ele><time>2024-09-13T22:46:34Z</time></trkpt><trkpt lat="33.8000533" lon="133.2667158"><ele>1113.5900000000001</ele><time>2024-09-13T22:47:43Z</time></trkpt><trkpt lat="33.7999555" lon="133.2665202"><ele>1113.7233333333334</ele><time>2024-09-13T22:48:00Z</time></trkpt><trkpt lat="33.7999004" lon="133.2663003"><ele>1114.5333333333333</ele><time>2024-09-13T22:48:20Z</time></trkpt><trkpt lat="33.799705" lon="133.2663585"><ele>1116.1633333333334</ele><time>2024-09-13T22:48:37Z</time></trkpt><trkpt lat="33.7995077" lon="133.2663141"><ele>1119.4033333333334</ele><time>2024-09-13T22:50:12Z</time></trkpt><trkpt lat="33.7993258" lon="133.2663632"><ele>1129.1066666666666</ele><time>2024-09-13T22:51:28Z</time></trkpt><trkpt lat="33.7991485" lon="133.2664314"><ele>1138.3533333333335</ele><time>2024-09-13T22:52:31Z</time></trkpt><trkpt lat="33.7991551" lon="133.2661992"><ele>1148.36</ele><time>2024-09-13T22:54:12Z</time></trkpt><trkpt lat="33.7991027" lon="133.2659865"><ele>1153.3666666666666</ele><time>2024-09-13T22:55:14Z</time></trkpt><trkpt lat="33.799022" lon="133.265781"><ele>1164.3466666666666</ele><time>2024-09-13T22:55:59Z</time></trkpt><trkpt lat="33.7990331" lon="133.2655481"><ele>1176.9866666666667</ele><time>2024-09-13T22:57:47Z</time></trkpt><trkpt lat="33.7990402" lon="133.2652845"><ele>1191.28</ele><time>2024-09-13T22:59:38Z</time></trkpt><trkpt lat="33.7990631" lon="133.2650667"><ele>1204.1000000000001</ele><time>2024-09-13T23:00:02Z</time></trkpt><trkpt lat="33.7991328" lon="133.2648532"><ele>1214.6933333333334</ele><time>2024-09-13T23:00:26Z</time></trkpt><trkpt lat="33.7990421" lon="133.2646587"><ele>1222.1866666666667</ele><time>2024-09-13T23:01:14Z</time></trkpt><trkpt lat="33.7991475" lon="133.2644776"><ele>1229.6866666666667</ele><time>2024-09-13T23:01:53Z</time></trkpt><trkpt lat="33.7992704" lon="133.2642864"><ele>1237.2433333333336</ele><time>2024-09-13T23:03:35Z</time></trkpt><trkpt lat="33.7992959" lon="133.2640572"><ele>1247.2</ele><time>2024-09-13T23:04:08Z</time></trkpt><trkpt lat="33.799181" lon="133.2638695"><ele>1253.4266666666667</ele><time>2024-09-13T23:04:35Z</time></trkpt><trkpt lat="33.7991279" lon="133.2636496"><ele>1259.82</ele><time>2024-09-13T23:05:02Z</time></trkpt><trkpt lat="33.7991196" lon="133.2634282"><ele>1265.31</ele><time>2024-09-13T23:05:53Z</time></trkpt><trkpt lat="33.7991569" lon="133.2632107"><ele>1275.6933333333334</ele><time>2024-09-13T23:07:17Z</time></trkpt><trkpt lat="33.7991216" lon="133.2629916"><ele>1286.5966666666666</ele><time>2024-09-13T23:08:17Z</time></trkpt><trkpt lat="33.7990192" lon="133.2628035"><ele>1295.6166666666666</ele><time>2024-09-13T23:09:59Z</time></trkpt><trkpt lat="33.7989682" lon="133.2625931"><ele>1300.6666666666667</ele><time>2024-09-13T23:10:34Z</time></trkpt><trkpt lat="33.7990627" lon="133.2623859"><ele>1307.1333333333334</ele><time>2024-09-13T23:13:43Z</time></trkpt><trkpt lat="33.799072" lon="133.2621631"><ele>1316.0766666666668</ele><time>2024-09-13T23:14:16Z</time></trkpt><trkpt lat="33.7991208" lon="133.2619544"><ele>1327.41</ele><time>2024-09-13T23:15:28Z</time></trkpt><trkpt lat="33.7990603" lon="133.2617386"><ele>1337.5666666666668</ele><time>2024-09-13T23:16:43Z</time></trkpt><trkpt lat="33.7990169" lon="133.2615227"><ele>1345.9399999999998</ele><time>2024-09-13T23:17:13Z</time></trkpt><trkpt lat="33.799013" lon="133.2613003"><ele>1354.5966666666668</ele><time>2024-09-13T23:18:07Z</time></trkpt><trkpt lat="33.7988458" lon="133.2612088"><ele>1359.3933333333334</ele><time>2024-09-13T23:18:46Z</time></trkpt><trkpt lat="33.7987642" lon="133.2610154"><ele>1364.7433333333333</ele><time>2024-09-13T23:20:34Z</time></trkpt><trkpt lat="33.7988829" lon="133.2608431"><ele>1370.11</ele><time>2024-09-13T23:23:06Z</time></trkpt><trkpt lat="33.7989977" lon="133.2606674"><ele>1381.3966666666668</ele><time>2024-09-13T23:24:51Z</time></trkpt><trkpt lat="33.798863" lon="133.260504"><ele>1392.75</ele><time>2024-09-13T23:25:30Z</time></trkpt><trkpt lat="33.7990052" lon="133.2603683"><ele>1405.6166666666668</ele><time>2024-09-13T23:31:30Z</time></trkpt><trkpt lat="33.7991894" lon="133.2603718"><ele>1415.0100000000002</ele><time>2024-09-13T23:32:09Z</time></trkpt><trkpt lat="33.7993734" lon="133.2603947"><ele>1424.1666666666667</ele><time>2024-09-13T23:32:36Z</time></trkpt><trkpt lat="33.799532" lon="133.2605238"><ele>1429.21</ele><time>2024-09-13T23:33:04Z</time></trkpt><trkpt lat="33.7996581" lon="133.260695"><ele>1432.3566666666666</ele><time>2024-09-13T23:33:30Z</time></trkpt><trkpt lat="33.7997772" lon="133.2608828"><ele>1434.0266666666666</ele><time>2024-09-13T23:33:56Z</time></trkpt><trkpt lat="33.7998961" lon="133.2610468"><ele>1433.14</ele><time>2024-09-13T23:34:26Z</time></trkpt><trkpt lat="33.8000549" lon="133.2611853"><ele>1433.1666666666667</ele><time>2024-09-13T23:35:02Z</time></trkpt><trkpt lat="33.800213" lon="133.2613272"><ele>1433.4866666666667</ele><time>2024-09-13T23:35:35Z</time></trkpt><trkpt lat="33.8003995" lon="133.2613358"><ele>1434.8166666666666</ele><time>2024-09-13T23:36:05Z</time></trkpt><trkpt lat="33.8005853" lon="133.2612982"><ele>1437.5033333333333</ele><time>2024-09-13T23:36:34Z</time></trkpt><trkpt lat="33.8007751" lon="133.2612642"><ele>1439.4133333333332</ele><time>2024-09-13T23:36:58Z</time></trkpt><trkpt lat="33.8009549" lon="133.2612331"><ele>1443.1866666666667</ele><time>2024-09-13T23:37:25Z</time></trkpt><trkpt lat="33.8009842" lon="133.2610038"><ele>1446.1566666666668</ele><time>2024-09-13T23:37:49Z</time></trkpt><trkpt lat="33.8008146" lon="133.2610942"><ele>1449.1566666666665</ele><time>2024-09-13T23:38:49Z</time></trkpt><trkpt lat="33.800675" lon="133.2609398"><ele>1453.7133333333334</ele><time>2024-09-13T23:39:24Z</time></trkpt><trkpt lat="33.8005209" lon="133.2608147"><ele>1457.3366666666668</ele><time>2024-09-13T23:39:48Z</time></trkpt><trkpt lat="33.8003593" lon="133.2607069"><ele>1461.6566666666665</ele><time>2024-09-13T23:40:06Z</time></trkpt><trkpt lat="33.8002628" lon="133.2604953"><ele>1462.78</ele><time>2024-09-13T23:40:27Z</time></trkpt><trkpt lat="33.8001393" lon="133.2603322"><ele>1463.6133333333335</ele><time>2024-09-13T23:40:45Z</time></trkpt><trkpt lat="33.8000181" lon="133.2601644"><ele>1465.1866666666667</ele><time>2024-09-13T23:41:06Z</time></trkpt><trkpt lat="33.7998658" lon="133.2600147"><ele>1467.6666666666667</ele><time>2024-09-13T23:43:33Z</time></trkpt><trkpt lat="33.799758" lon="133.2598205"><ele>1470.36</ele><time>2024-09-13T23:43:50Z</time></trkpt><trkpt lat="33.799595" lon="133.2597186"><ele>1471.9766666666667</ele><time>2024-09-13T23:44:07Z</time></trkpt><trkpt lat="33.7994215" lon="133.2596182"><ele>1472.97</ele><time>2024-09-13T23:44:25Z</time></trkpt><trkpt lat="33.7992459" lon="133.2594982"><ele>1474.0433333333333</ele><time>2024-09-13T23:44:46Z</time></trkpt><trkpt lat="33.7990754" lon="133.2593741"><ele>1475.2666666666667</ele><time>2024-09-13T23:45:07Z</time></trkpt><trkpt lat="33.7989008" lon="133.2592783"><ele>1477.1666666666667</ele><time>2024-09-13T23:45:31Z</time></trkpt><trkpt lat="33.7987529" lon="133.2591398"><ele>1479.86</ele><time>2024-09-13T23:50:48Z</time></trkpt><trkpt lat="33.7986346" lon="133.2589722"><ele>1483.033333333333</ele><time>2024-09-13T23:51:21Z</time></trkpt><trkpt lat="33.7985074" lon="133.2588166"><ele>1486.8766666666668</ele><time>2024-09-13T23:51:45Z</time></trkpt><trkpt lat="33.7983622" lon="133.2586702"><ele>1491.0433333333333</ele><time>2024-09-13T23:52:20Z</time></trkpt><trkpt lat="33.7982129" lon="133.2585481"><ele>1495.7833333333335</ele><time>2024-09-13T23:52:50Z</time></trkpt><trkpt lat="33.7980088" lon="133.2585128"><ele>1501.0999999999997</ele><time>2024-09-13T23:53:20Z</time></trkpt><trkpt lat="33.7978173" lon="133.2584615"><ele>1505.92</ele><time>2024-09-13T23:53:56Z</time></trkpt><trkpt lat="33.7976375" lon="133.258424"><ele>1509.0</ele><time>2024-09-13T23:54:26Z</time></trkpt><trkpt lat="33.7974479" lon="133.2583894"><ele>1510.9833333333333</ele><time>2024-09-13T23:54:53Z</time></trkpt><trkpt lat="33.7972634" lon="133.2584551"><ele>1509.6499999999999</ele><time>2024-09-13T23:55:20Z</time></trkpt><trkpt lat="33.7970787" lon="133.2584063"><ele>1511.76</ele><time>2024-09-13T23:55:56Z</time></trkpt><trkpt lat="33.7969229" lon="133.2582961"><ele>1516.4800000000002</ele><time>2024-09-13T23:57:20Z</time></trkpt><trkpt lat="33.7967507" lon="133.2582289"><ele>1527.8833333333332</ele><time>2024-09-13T23:58:11Z</time></trkpt><trkpt lat="33.7965758" lon="133.2581716"><ele>1538.57</ele><time>2024-09-13T23:58:53Z</time></trkpt><trkpt lat="33.796393" lon="133.2581491"><ele>1547.3233333333335</ele><time>2024-09-13T23:59:44Z</time></trkpt><trkpt lat="33.7962133" lon="133.2581223"><ele>1552.5400000000002</ele><time>2024-09-14T00:02:11Z</time></trkpt><trkpt lat="33.7960294" lon="133.2582101"><ele>1554.456666666667</ele><time>2024-09-14T00:02:38Z</time></trkpt><trkpt lat="33.7958531" lon="133.2581513"><ele>1555.9366666666667</ele><time>2024-09-14T00:03:11Z</time></trkpt><trkpt lat="33.7956859" lon="133.2580697"><ele>1555.8999999999999</ele><time>2024-09-14T00:03:41Z</time></trkpt><trkpt lat="33.7955056" lon="133.2580084"><ele>1558.993333333333</ele><time>2024-09-14T00:04:34Z</time></trkpt><trkpt lat="33.7953123" lon="133.2579795"><ele>1563.2766666666666</ele><time>2024-09-14T00:05:13Z</time></trkpt><trkpt lat="33.7951466" lon="133.2578619"><ele>1571.08</ele><time>2024-09-14T00:06:37Z</time></trkpt><trkpt lat="33.7949672" lon="133.2578372"><ele>1578.4966666666667</ele><time>2024-09-14T00:07:46Z</time></trkpt><trkpt lat="33.7947879" lon="133.257804"><ele>1586.9533333333336</ele><time>2024-09-14T00:08:31Z</time></trkpt><trkpt lat="33.7946011" lon="133.2578234"><ele>1594.1200000000001</ele><time>2024-09-14T00:09:46Z</time></trkpt><trkpt lat="33.7944679" lon="133.2579976"><ele>1600.1633333333332</ele><time>2024-09-14T00:10:55Z</time></trkpt><trkpt lat="33.7942899" lon="133.2580894"><ele>1605.5566666666666</ele><time>2024-09-14T00:11:30Z</time></trkpt><trkpt lat="33.7941133" lon="133.258177"><ele>1611.49</ele><time>2024-09-14T00:12:00Z</time></trkpt><trkpt lat="33.7939628" lon="133.258047"><ele>1618.1566666666668</ele><time>2024-09-14T00:12:44Z</time></trkpt><trkpt lat="33.7938738" lon="133.2578407"><ele>1621.22</ele><time>2024-09-14T00:13:28Z</time></trkpt><trkpt lat="33.7937819" lon="133.257621"><ele>1620.5266666666666</ele><time>2024-09-14T00:14:06Z</time></trkpt><trkpt lat="33.7936732" lon="133.2574485"><ele>1616.4733333333334</ele><time>2024-09-14T00:14:23Z</time></trkpt><trkpt lat="33.7935397" lon="133.2572625"><ele>1612.0866666666668</ele><time>2024-09-14T00:14:44Z</time></trkpt><trkpt lat="33.7934033" lon="133.2570909"><ele>1608.1166666666668</ele><time>2024-09-14T00:15:04Z</time></trkpt><trkpt lat="33.7932858" lon="133.2569061"><ele>1605.41</ele><time>2024-09-14T00:15:24Z</time></trkpt><trkpt lat="33.7931304" lon="133.2567441"><ele>1602.9933333333336</ele><time>2024-09-14T00:15:44Z</time></trkpt><trkpt lat="33.7929545" lon="133.2566145"><ele>1599.3633333333335</ele><time>2024-09-14T00:16:04Z</time></trkpt><trkpt lat="33.7927863" lon="133.2564708"><ele>1595.6366666666665</ele><time>2024-09-14T00:16:24Z</time></trkpt><trkpt lat="33.7926418" lon="133.2563363"><ele>1593.8966666666665</ele><time>2024-09-14T00:16:42Z</time></trkpt><trkpt lat="33.7925155" lon="133.2561618"><ele>1596.71</ele><time>2024-09-14T00:17:08Z</time></trkpt><trkpt lat="33.7923588" lon="133.2560419"><ele>1600.966666666667</ele><time>2024-09-14T00:17:35Z</time></trkpt><trkpt lat="33.7922315" lon="133.2558619"><ele>1605.4666666666665</ele><time>2024-09-14T00:18:02Z</time></trkpt><trkpt lat="33.7921358" lon="133.2556669"><ele>1608.6800000000003</ele><time>2024-09-14T00:18:37Z</time></trkpt><trkpt lat="33.7920047" lon="133.2555088"><ele>1611.3466666666666</ele><time>2024-09-14T00:18:58Z</time></trkpt><trkpt lat="33.7918734" lon="133.2553064"><ele>1612.7133333333334</ele><time>2024-09-14T00:19:28Z</time></trkpt><trkpt lat="33.7917072" lon="133.2552151"><ele>1613.93</ele><time>2024-09-14T00:19:46Z</time></trkpt><trkpt lat="33.7915888" lon="133.2550438"><ele>1615.64</ele><time>2024-09-14T00:20:10Z</time></trkpt><trkpt lat="33.7914368" lon="133.254896"><ele>1616.9466666666667</ele><time>2024-09-14T00:20:42Z</time></trkpt><trkpt lat="33.7913754" lon="133.2546855"><ele>1619.0433333333333</ele><time>2024-09-14T00:21:18Z</time></trkpt><trkpt lat="33.7913614" lon="133.25445"><ele>1622.04</ele><time>2024-09-14T00:21:39Z</time></trkpt><trkpt lat="33.7913048" lon="133.2542287"><ele>1625.7933333333333</ele><time>2024-09-14T00:22:00Z</time></trkpt><trkpt lat="33.7912941" lon="133.2539854"><ele>1628.3566666666666</ele><time>2024-09-14T00:22:21Z</time></trkpt><trkpt lat="33.7911977" lon="133.2537788"><ele>1628.4566666666667</ele><time>2024-09-14T00:22:38Z</time></trkpt><trkpt lat="33.7911493" lon="133.2535491"><ele>1628.8866666666665</ele><time>2024-09-14T00:22:56Z</time></trkpt><trkpt lat="33.7910786" lon="133.2533442"><ele>1628.8633333333335</ele><time>2024-09-14T00:23:13Z</time></trkpt><trkpt lat="33.7910163" lon="133.2531217"><ele>1629.7466666666667</ele><time>2024-09-14T00:23:31Z</time></trkpt><trkpt lat="33.7909037" lon="133.2529464"><ele>1628.9133333333332</ele><time>2024-09-14T00:23:52Z</time></trkpt><trkpt lat="33.7907898" lon="133.2527713"><ele>1626.3000000000002</ele><time>2024-09-14T00:24:49Z</time></trkpt><trkpt lat="33.7906178" lon="133.2526269"><ele>1621.0466666666669</ele><time>2024-09-14T00:25:16Z</time></trkpt><trkpt lat="33.7904504" lon="133.2524961"><ele>1615.1433333333334</ele><time>2024-09-14T00:25:39Z</time></trkpt><trkpt lat="33.7902948" lon="133.2523281"><ele>1609.5466666666669</ele><time>2024-09-14T00:26:00Z</time></trkpt><trkpt lat="33.7901823" lon="133.2521447"><ele>1605.3466666666666</ele><time>2024-09-14T00:26:21Z</time></trkpt><trkpt lat="33.7900646" lon="133.2519447"><ele>1602.2266666666667</ele><time>2024-09-14T00:26:42Z</time></trkpt><trkpt lat="33.7899118" lon="133.2517933"><ele>1598.4566666666667</ele><time>2024-09-14T00:27:08Z</time></trkpt><trkpt lat="33.7898114" lon="133.251598"><ele>1594.3233333333335</ele><time>2024-09-14T00:27:25Z</time></trkpt><trkpt lat="33.7896339" lon="133.2515095"><ele>1589.97</ele><time>2024-09-14T00:27:43Z</time></trkpt><trkpt lat="33.7894273" lon="133.251514"><ele>1588.3700000000001</ele><time>2024-09-14T00:28:03Z</time></trkpt><trkpt lat="33.7892883" lon="133.2513459"><ele>1590.1966666666667</ele><time>2024-09-14T00:28:33Z</time></trkpt><trkpt lat="33.7891753" lon="133.2511569"><ele>1594.0200000000002</ele><time>2024-09-14T00:28:53Z</time></trkpt><trkpt lat="33.7891127" lon="133.2509378"><ele>1596.5633333333335</ele><time>2024-09-14T00:31:41Z</time></trkpt><trkpt lat="33.7890415" lon="133.2507228"><ele>1597.0833333333333</ele><time>2024-09-14T00:32:05Z</time></trkpt><trkpt lat="33.7889273" lon="133.2505464"><ele>1598.0</ele><time>2024-09-14T00:32:47Z</time></trkpt><trkpt lat="33.788948" lon="133.2503279"><ele>1601.8366666666668</ele><time>2024-09-14T00:33:35Z</time></trkpt><trkpt lat="33.7888891" lon="133.250118"><ele>1608.3100000000002</ele><time>2024-09-14T00:34:56Z</time></trkpt><trkpt lat="33.7889108" lon="133.2498964"><ele>1615.876666666667</ele><time>2024-09-14T00:36:01Z</time></trkpt><trkpt lat="33.7887942" lon="133.2497279"><ele>1623.9166666666667</ele><time>2024-09-14T00:36:37Z</time></trkpt><trkpt lat="33.7886874" lon="133.2495498"><ele>1634.45</ele><time>2024-09-14T00:37:55Z</time></trkpt><trkpt lat="33.7885119" lon="133.2494993"><ele>1644.0</ele><time>2024-09-14T00:40:37Z</time></trkpt><trkpt lat="33.7883566" lon="133.2493709"><ele>1653.93</ele><time>2024-09-14T00:42:07Z</time></trkpt><trkpt lat="33.7882541" lon="133.2491839"><ele>1662.0199999999998</ele><time>2024-09-14T00:43:04Z</time></trkpt><trkpt lat="33.788335" lon="133.2489772"><ele>1669.9000000000003</ele><time>2024-09-14T00:44:04Z</time></trkpt><trkpt lat="33.7882705" lon="133.2487742"><ele>1680.14</ele><time>2024-09-14T00:45:37Z</time></trkpt><trkpt lat="33.788198" lon="133.2485724"><ele>1690.5366666666669</ele><time>2024-09-14T00:47:01Z</time></trkpt><trkpt lat="33.7881947" lon="133.2483508"><ele>1704.6066666666666</ele><time>2024-09-14T00:48:58Z</time></trkpt><trkpt lat="33.7881195" lon="133.2481441"><ele>1719.32</ele><time>2024-09-14T00:50:10Z</time></trkpt><trkpt lat="33.7880278" lon="133.2479449"><ele>1735.5733333333335</ele><time>2024-09-14T01:01:37Z</time></trkpt><trkpt lat="33.7881395" lon="133.2477649"><ele>1745.07</ele><time>2024-09-14T01:01:58Z</time></trkpt><trkpt lat="33.7882403" lon="133.2475791"><ele>1746.743333333333</ele><time>2024-09-14T01:02:18Z</time></trkpt><trkpt lat="33.7883625" lon="133.2474177"><ele>1741.1566666666668</ele><time>2024-09-14T01:02:36Z</time></trkpt><trkpt lat="33.7885108" lon="133.2472243"><ele>1736.3566666666666</ele><time>2024-09-14T01:02:57Z</time></trkpt><trkpt lat="33.7886317" lon="133.2470612"><ele>1733.0466666666669</ele><time>2024-09-14T01:03:15Z</time></trkpt><trkpt lat="33.7887764" lon="133.2468971"><ele>1734.0200000000002</ele><time>2024-09-14T01:03:32Z</time></trkpt><trkpt lat="33.7887859" lon="133.2466689"><ele>1734.5033333333333</ele><time>2024-09-14T01:03:56Z</time></trkpt><trkpt lat="33.7888699" lon="133.246437"><ele>1734.4533333333331</ele><time>2024-09-14T01:04:32Z</time></trkpt><trkpt lat="33.7889079" lon="133.2462211"><ele>1735.3066666666666</ele><time>2024-09-14T01:05:02Z</time></trkpt><trkpt lat="33.7888481" lon="133.2460101"><ele>1734.9166666666667</ele><time>2024-09-14T01:05:34Z</time></trkpt><trkpt lat="33.7887639" lon="133.245799"><ele>1731.9966666666667</ele><time>2024-09-14T01:06:19Z</time></trkpt><trkpt lat="33.7886689" lon="133.2455951"><ele>1722.5966666666666</ele><time>2024-09-14T01:06:49Z</time></trkpt><trkpt lat="33.7885958" lon="133.2453855"><ele>1713.4466666666667</ele><time>2024-09-14T01:07:16Z</time></trkpt><trkpt lat="33.7885072" lon="133.2451964"><ele>1705.6766666666665</ele><time>2024-09-14T01:08:43Z</time></trkpt><trkpt lat="33.7883801" lon="133.2450354"><ele>1702.0666666666666</ele><time>2024-09-14T01:08:58Z</time></trkpt><trkpt lat="33.7882879" lon="133.2448297"><ele>1698.9866666666667</ele><time>2024-09-14T01:09:22Z</time></trkpt><trkpt lat="33.7882012" lon="133.2446011"><ele>1696.53</ele><time>2024-09-14T01:09:46Z</time></trkpt><trkpt lat="33.7881115" lon="133.2443856"><ele>1693.1866666666667</ele><time>2024-09-14T01:10:10Z</time></trkpt><trkpt lat="33.7880323" lon="133.2441553"><ele>1692.1133333333335</ele><time>2024-09-14T01:10:37Z</time></trkpt><trkpt lat="33.7879206" lon="133.2439465"><ele>1693.63</ele><time>2024-09-14T01:11:21Z</time></trkpt><trkpt lat="33.7878097" lon="133.243753"><ele>1694.4533333333331</ele><time>2024-09-14T01:11:39Z</time></trkpt><trkpt lat="33.7876383" lon="133.2436045"><ele>1693.3066666666666</ele><time>2024-09-14T01:12:09Z</time></trkpt><trkpt lat="33.787516" lon="133.2434112"><ele>1689.37</ele><time>2024-09-14T01:12:27Z</time></trkpt><trkpt lat="33.7873981" lon="133.2432432"><ele>1686.75</ele><time>2024-09-14T01:12:45Z</time></trkpt><trkpt lat="33.7872959" lon="133.2430484"><ele>1685.07</ele><time>2024-09-14T01:13:06Z</time></trkpt><trkpt lat="33.7871157" lon="133.2429271"><ele>1684.4633333333334</ele><time>2024-09-14T01:13:26Z</time></trkpt><trkpt lat="33.7869833" lon="133.2427324"><ele>1683.3733333333337</ele><time>2024-09-14T01:14:41Z</time></trkpt><trkpt lat="33.7868497" lon="133.2425639"><ele>1682.4366666666665</ele><time>2024-09-14T01:15:25Z</time></trkpt><trkpt lat="33.7867068" lon="133.2424035"><ele>1681.6533333333334</ele><time>2024-09-14T01:15:43Z</time></trkpt><trkpt lat="33.7865798" lon="133.2422312"><ele>1681.0766666666666</ele><time>2024-09-14T01:16:01Z</time></trkpt><trkpt lat="33.7864425" lon="133.2420839"><ele>1680.073333333333</ele><time>2024-09-14T01:16:19Z</time></trkpt><trkpt lat="33.7863104" lon="133.2419233"><ele>1677.68</ele><time>2024-09-14T01:16:34Z</time></trkpt><trkpt lat="33.7862168" lon="133.2417102"><ele>1674.9033333333334</ele><time>2024-09-14T01:16:58Z</time></trkpt><trkpt lat="33.7861182" lon="133.2415121"><ele>1671.8333333333333</ele><time>2024-09-14T01:17:13Z</time></trkpt><trkpt lat="33.7859799" lon="133.2413384"><ele>1669.716666666667</ele><time>2024-09-14T01:18:55Z</time></trkpt><trkpt lat="33.7858495" lon="133.2411454"><ele>1666.8200000000004</ele><time>2024-09-14T01:19:13Z</time></trkpt><trkpt lat="33.7856964" lon="133.2409736"><ele>1664.7533333333333</ele><time>2024-09-14T01:19:31Z</time></trkpt><trkpt lat="33.7855683" lon="133.2408166"><ele>1663.3966666666668</ele><time>2024-09-14T01:19:46Z</time></trkpt><trkpt lat="33.7854412" lon="133.2406535"><ele>1662.8266666666666</ele><time>2024-09-14T01:20:04Z</time></trkpt><trkpt lat="33.7852754" lon="133.2404899"><ele>1661.5466666666664</ele><time>2024-09-14T01:20:22Z</time></trkpt><trkpt lat="33.7851178" lon="133.2403642"><ele>1658.79</ele><time>2024-09-14T01:20:40Z</time></trkpt><trkpt lat="33.7849969" lon="133.2401659"><ele>1653.89</ele><time>2024-09-14T01:21:00Z</time></trkpt><trkpt lat="33.7849721" lon="133.2404018"><ele>1649.7399999999998</ele><time>2024-09-14T01:23:06Z</time></trkpt><trkpt lat="33.7850237" lon="133.2406132"><ele>1645.966666666667</ele><time>2024-09-14T01:23:45Z</time></trkpt><trkpt lat="33.7851304" lon="133.2408236"><ele>1641.74</ele><time>2024-09-14T01:24:12Z</time></trkpt><trkpt lat="33.7851553" lon="133.241053"><ele>1636.5533333333333</ele><time>2024-09-14T01:25:30Z</time></trkpt><trkpt lat="33.7852415" lon="133.241246"><ele>1630.8133333333335</ele><time>2024-09-14T01:25:54Z</time></trkpt><trkpt lat="33.7853017" lon="133.2414499"><ele>1628.1166666666668</ele><time>2024-09-14T01:26:21Z</time></trkpt><trkpt lat="33.7854296" lon="133.2416209"><ele>1628.29</ele><time>2024-09-14T01:26:45Z</time></trkpt><trkpt lat="33.7854711" lon="133.2418673"><ele>1625.2333333333333</ele><time>2024-09-14T01:27:09Z</time></trkpt><trkpt lat="33.7855634" lon="133.2420532"><ele>1621.2833333333335</ele><time>2024-09-14T01:27:30Z</time></trkpt><trkpt lat="33.7855682" lon="133.2422722"><ele>1614.9000000000003</ele><time>2024-09-14T01:28:17Z</time></trkpt><trkpt lat="33.7855756" lon="133.2425023"><ele>1610.58</ele><time>2024-09-14T01:30:14Z</time></trkpt><trkpt lat="33.7856189" lon="133.2427395"><ele>1603.99</ele><time>2024-09-14T01:30:41Z</time></trkpt><trkpt lat="33.7856864" lon="133.2429564"><ele>1597.7666666666667</ele><time>2024-09-14T01:31:16Z</time></trkpt><trkpt lat="33.7857346" lon="133.2431789"><ele>1593.6800000000003</ele><time>2024-09-14T01:31:49Z</time></trkpt><trkpt lat="33.7858043" lon="133.2434053"><ele>1591.1633333333332</ele><time>2024-09-14T01:32:19Z</time></trkpt><trkpt lat="33.7859188" lon="133.2436074"><ele>1587.4166666666667</ele><time>2024-09-14T01:32:40Z</time></trkpt><trkpt lat="33.7860147" lon="133.2438106"><ele>1583.4466666666667</ele><time>2024-09-14T01:33:01Z</time></trkpt><trkpt lat="33.7860986" lon="133.2440332"><ele>1577.4366666666665</ele><time>2024-09-14T01:33:25Z</time></trkpt><trkpt lat="33.7861947" lon="133.244222"><ele>1572.1500000000003</ele><time>2024-09-14T01:34:01Z</time></trkpt><trkpt lat="33.7862466" lon="133.2444549"><ele>1565.8166666666666</ele><time>2024-09-14T01:34:24Z</time></trkpt><trkpt lat="33.7863434" lon="133.2446625"><ele>1562.0366666666669</ele><time>2024-09-14T01:35:18Z</time></trkpt><trkpt lat="33.7864811" lon="133.2448086"><ele>1559.1133333333335</ele><time>2024-09-14T01:35:42Z</time></trkpt><trkpt lat="33.7865879" lon="133.2450079"><ele>1558.5566666666666</ele><time>2024-09-14T01:36:32Z</time></trkpt><trkpt lat="33.7864506" lon="133.2451512"><ele>1555.5</ele><time>2024-09-14T01:38:23Z</time></trkpt><trkpt lat="33.7862813" lon="133.2452545"><ele>1550.76</ele><time>2024-09-14T01:41:08Z</time></trkpt><trkpt lat="33.7861203" lon="133.2453577"><ele>1542.5433333333333</ele><time>2024-09-14T01:41:29Z</time></trkpt><trkpt lat="33.7859118" lon="133.2454036"><ele>1536.0900000000001</ele><time>2024-09-14T01:41:47Z</time></trkpt><trkpt lat="33.7857551" lon="133.2455187"><ele>1530.4399999999998</ele><time>2024-09-14T01:42:05Z</time></trkpt><trkpt lat="33.7856315" lon="133.2457295"><ele>1528.2233333333334</ele><time>2024-09-14T01:42:29Z</time></trkpt><trkpt lat="33.7855631" lon="133.2459595"><ele>1526.8100000000002</ele><time>2024-09-14T01:42:44Z</time></trkpt><trkpt lat="33.7854616" lon="133.2461801"><ele>1526.3666666666668</ele><time>2024-09-14T01:42:59Z</time></trkpt><trkpt lat="33.7853609" lon="133.2463727"><ele>1525.4800000000002</ele><time>2024-09-14T01:43:14Z</time></trkpt><trkpt lat="33.7852394" lon="133.2465776"><ele>1525.4833333333336</ele><time>2024-09-14T01:43:56Z</time></trkpt><trkpt lat="33.7851662" lon="133.2467987"><ele>1525.25</ele><time>2024-09-14T01:44:11Z</time></trkpt><trkpt lat="33.7851407" lon="133.2470363"><ele>1526.1066666666668</ele><time>2024-09-14T01:44:26Z</time></trkpt><trkpt lat="33.7850912" lon="133.2472465"><ele>1527.1833333333334</ele><time>2024-09-14T01:44:41Z</time></trkpt><trkpt lat="33.784896" lon="133.2472669"><ele>1526.6666666666667</ele><time>2024-09-14T01:44:55Z</time></trkpt><trkpt lat="33.7847301" lon="133.2473943"><ele>1524.506666666667</ele><time>2024-09-14T01:46:07Z</time></trkpt><trkpt lat="33.7845543" lon="133.2474635"><ele>1520.43</ele><time>2024-09-14T01:46:55Z</time></trkpt><trkpt lat="33.7843907" lon="133.2475802"><ele>1516.7766666666666</ele><time>2024-09-14T01:47:09Z</time></trkpt><trkpt lat="33.7842186" lon="133.2477369"><ele>1513.6033333333335</ele><time>2024-09-14T01:47:27Z</time></trkpt><trkpt lat="33.7840653" lon="133.2478556"><ele>1513.1266666666668</ele><time>2024-09-14T01:48:00Z</time></trkpt><trkpt lat="33.7838637" lon="133.2478853"><ele>1513.8500000000001</ele><time>2024-09-14T01:48:15Z</time></trkpt><trkpt lat="33.7836717" lon="133.2478317"><ele>1512.0633333333333</ele><time>2024-09-14T01:48:30Z</time></trkpt><trkpt lat="33.7834749" lon="133.2478148"><ele>1507.43</ele><time>2024-09-14T01:48:45Z</time></trkpt><trkpt lat="33.7833006" lon="133.2479221"><ele>1501.4433333333334</ele><time>2024-09-14T01:49:00Z</time></trkpt><trkpt lat="33.7833204" lon="133.2481797"><ele>1498.7333333333336</ele><time>2024-09-14T01:49:15Z</time></trkpt><trkpt lat="33.7833419" lon="133.2484073"><ele>1499.54</ele><time>2024-09-14T01:49:30Z</time></trkpt><trkpt lat="33.7832119" lon="133.2485881"><ele>1498.79</ele><time>2024-09-14T01:49:44Z</time></trkpt><trkpt lat="33.7830403" lon="133.2486956"><ele>1496.3833333333334</ele><time>2024-09-14T01:49:59Z</time></trkpt><trkpt lat="33.7829189" lon="133.2488819"><ele>1491.4033333333336</ele><time>2024-09-14T01:50:14Z</time></trkpt><trkpt lat="33.7828778" lon="133.2491147"><ele>1490.64</ele><time>2024-09-14T01:50:32Z</time></trkpt><trkpt lat="33.782758" lon="133.2493084"><ele>1489.42</ele><time>2024-09-14T01:50:47Z</time></trkpt><trkpt lat="33.7826145" lon="133.249499"><ele>1488.5933333333332</ele><time>2024-09-14T01:51:04Z</time></trkpt><trkpt lat="33.7824865" lon="133.2496681"><ele>1487.07</ele><time>2024-09-14T01:51:19Z</time></trkpt><trkpt lat="33.7824047" lon="133.2498666"><ele>1488.08</ele><time>2024-09-14T01:51:34Z</time></trkpt><trkpt lat="33.7825354" lon="133.250035"><ele>1488.3</ele><time>2024-09-14T01:51:48Z</time></trkpt><trkpt lat="33.7826992" lon="133.25017"><ele>1486.4966666666667</ele><time>2024-09-14T01:52:03Z</time></trkpt><trkpt lat="33.7828717" lon="133.2503126"><ele>1483.1033333333335</ele><time>2024-09-14T01:52:18Z</time></trkpt><trkpt lat="33.7830553" lon="133.2504195"><ele>1480.3166666666668</ele><time>2024-09-14T01:52:33Z</time></trkpt><trkpt lat="33.7832486" lon="133.2504178"><ele>1479.3233333333335</ele><time>2024-09-14T01:52:48Z</time></trkpt><trkpt lat="33.7834573" lon="133.250364"><ele>1477.8166666666668</ele><time>2024-09-14T01:58:09Z</time></trkpt><trkpt lat="33.7836596" lon="133.2503051"><ele>1476.6033333333335</ele><time>2024-09-14T01:58:27Z</time></trkpt><trkpt lat="33.7838231" lon="133.2504088"><ele>1474.256666666667</ele><time>2024-09-14T01:58:42Z</time></trkpt><trkpt lat="33.7840198" lon="133.2505082"><ele>1472.9399999999998</ele><time>2024-09-14T01:59:00Z</time></trkpt><trkpt lat="33.7842039" lon="133.2505485"><ele>1471.9233333333332</ele><time>2024-09-14T01:59:14Z</time></trkpt><trkpt lat="33.7844015" lon="133.2506315"><ele>1471.7233333333334</ele><time>2024-09-14T01:59:29Z</time></trkpt><trkpt lat="33.7845206" lon="133.2507986"><ele>1471.3500000000001</ele><time>2024-09-14T01:59:44Z</time></trkpt><trkpt lat="33.7845462" lon="133.2510256"><ele>1470.0166666666667</ele><time>2024-09-14T01:59:58Z</time></trkpt><trkpt lat="33.7845901" lon="133.251249"><ele>1467.67</ele><time>2024-09-14T02:00:12Z</time></trkpt><trkpt lat="33.7847525" lon="133.2514087"><ele>1464.75</ele><time>2024-09-14T02:00:27Z</time></trkpt><trkpt lat="33.7849117" lon="133.2515227"><ele>1462.7766666666666</ele><time>2024-09-14T02:00:42Z</time></trkpt><trkpt lat="33.7851002" lon="133.2515197"><ele>1462.8266666666668</ele><time>2024-09-14T02:00:56Z</time></trkpt><trkpt lat="33.7852789" lon="133.2516175"><ele>1463.4033333333334</ele><time>2024-09-14T02:01:11Z</time></trkpt><trkpt lat="33.7853025" lon="133.2518583"><ele>1462.8066666666666</ele><time>2024-09-14T02:01:25Z</time></trkpt><trkpt lat="33.7853763" lon="133.2520722"><ele>1461.3433333333332</ele><time>2024-09-14T02:01:40Z</time></trkpt><trkpt lat="33.7855329" lon="133.2521919"><ele>1460.0933333333332</ele><time>2024-09-14T02:01:55Z</time></trkpt><trkpt lat="33.7857317" lon="133.252158"><ele>1460.72</ele><time>2024-09-14T02:02:10Z</time></trkpt><trkpt lat="33.7859203" lon="133.2520407"><ele>1464.6866666666665</ele><time>2024-09-14T02:02:25Z</time></trkpt><trkpt lat="33.7860921" lon="133.2519305"><ele>1471.9133333333336</ele><time>2024-09-14T02:02:40Z</time></trkpt><trkpt lat="33.7862773" lon="133.2518185"><ele>1479.55</ele><time>2024-09-14T02:02:55Z</time></trkpt><trkpt lat="33.78649" lon="133.2518317"><ele>1478.0633333333335</ele><time>2024-09-14T02:03:10Z</time></trkpt><trkpt lat="33.7867233" lon="133.2516996"><ele>1471.9166666666667</ele><time>2024-09-14T02:03:23Z</time></trkpt><trkpt lat="33.7868879" lon="133.2518273"><ele>1459.6866666666667</ele><time>2024-09-14T02:03:44Z</time></trkpt><trkpt lat="33.787054" lon="133.2517158"><ele>1453.7733333333333</ele><time>2024-09-14T02:04:02Z</time></trkpt><trkpt lat="33.7872493" lon="133.2516728"><ele>1450.3166666666666</ele><time>2024-09-14T02:04:17Z</time></trkpt><trkpt lat="33.7873992" lon="133.2518529"><ele>1452.1966666666667</ele><time>2024-09-14T02:04:35Z</time></trkpt><trkpt lat="33.7874312" lon="133.2520717"><ele>1451.39</ele><time>2024-09-14T02:04:50Z</time></trkpt><trkpt lat="33.7875219" lon="133.252282"><ele>1448.82</ele><time>2024-09-14T02:05:05Z</time></trkpt><trkpt lat="33.7876108" lon="133.2524813"><ele>1445.3533333333335</ele><time>2024-09-14T02:05:20Z</time></trkpt><trkpt lat="33.7877036" lon="133.2526717"><ele>1441.6333333333332</ele><time>2024-09-14T02:05:34Z</time></trkpt><trkpt lat="33.7878208" lon="133.2528827"><ele>1440.073333333333</ele><time>2024-09-14T02:05:51Z</time></trkpt><trkpt lat="33.7879687" lon="133.2530606"><ele>1441.4633333333331</ele><time>2024-09-14T02:06:08Z</time></trkpt><trkpt lat="33.7880341" lon="133.2532783"><ele>1447.01</ele><time>2024-09-14T02:06:25Z</time></trkpt><trkpt lat="33.7879705" lon="133.253486"><ele>1446.5933333333335</ele><time>2024-09-14T02:06:40Z</time></trkpt><trkpt lat="33.7880736" lon="133.2536687"><ele>1445.3533333333332</ele><time>2024-09-14T02:06:55Z</time></trkpt><trkpt lat="33.7882637" lon="133.2537399"><ele>1442.8766666666668</ele><time>2024-09-14T02:07:11Z</time></trkpt><trkpt lat="33.7884535" lon="133.2538127"><ele>1445.7666666666664</ele><time>2024-09-14T02:07:29Z</time></trkpt><trkpt lat="33.7886612" lon="133.2538672"><ele>1447.1166666666668</ele><time>2024-09-14T02:07:46Z</time></trkpt><trkpt lat="33.7888755" lon="133.2538531"><ele>1448.2033333333336</ele><time>2024-09-14T02:08:03Z</time></trkpt><trkpt lat="33.7890567" lon="133.2538523"><ele>1447.3233333333335</ele><time>2024-09-14T02:08:17Z</time></trkpt><trkpt lat="33.789221" lon="133.2540093"><ele>1447.2933333333333</ele><time>2024-09-14T02:08:35Z</time></trkpt><trkpt lat="33.7893372" lon="133.2542069"><ele>1447.6633333333332</ele><time>2024-09-14T02:08:52Z</time></trkpt><trkpt lat="33.7893532" lon="133.2544249"><ele>1450.1766666666665</ele><time>2024-09-14T02:09:06Z</time></trkpt><trkpt lat="33.7893744" lon="133.2546457"><ele>1452.0266666666666</ele><time>2024-09-14T02:09:21Z</time></trkpt><trkpt lat="33.7893204" lon="133.2548596"><ele>1451.82</ele><time>2024-09-14T02:09:36Z</time></trkpt><trkpt lat="33.7893719" lon="133.2551"><ele>1452.0600000000002</ele><time>2024-09-14T02:09:52Z</time></trkpt><trkpt lat="33.7892487" lon="133.25529"><ele>1451.0633333333333</ele><time>2024-09-14T02:10:09Z</time></trkpt><trkpt lat="33.7892954" lon="133.2555298"><ele>1452.653333333333</ele><time>2024-09-14T02:10:26Z</time></trkpt><trkpt lat="33.7892716" lon="133.2557535"><ele>1451.2299999999998</ele><time>2024-09-14T02:10:40Z</time></trkpt><trkpt lat="33.7892631" lon="133.2559868"><ele>1449.6899999999998</ele><time>2024-09-14T02:10:55Z</time></trkpt><trkpt lat="33.7893932" lon="133.25619"><ele>1448.4933333333336</ele><time>2024-09-14T02:11:10Z</time></trkpt><trkpt lat="33.7894035" lon="133.256413"><ele>1448.7233333333334</ele><time>2024-09-14T02:11:25Z</time></trkpt><trkpt lat="33.7893938" lon="133.2566635"><ele>1448.1766666666665</ele><time>2024-09-14T02:11:40Z</time></trkpt><trkpt lat="33.7895538" lon="133.2567871"><ele>1445.0</ele><time>2024-09-14T02:11:55Z</time></trkpt><trkpt lat="33.7897246" lon="133.2569088"><ele>1442.5166666666667</ele><time>2024-09-14T02:12:13Z</time></trkpt><trkpt lat="33.7898082" lon="133.257113"><ele>1440.9066666666668</ele><time>2024-09-14T02:12:28Z</time></trkpt><trkpt lat="33.789963" lon="133.2572731"><ele>1438.6166666666666</ele><time>2024-09-14T02:12:43Z</time></trkpt><trkpt lat="33.7901019" lon="133.2574562"><ele>1434.39</ele><time>2024-09-14T02:12:58Z</time></trkpt><trkpt lat="33.7902803" lon="133.257567"><ele>1430.74</ele><time>2024-09-14T02:13:13Z</time></trkpt><trkpt lat="33.7904761" lon="133.2576234"><ele>1429.67</ele><time>2024-09-14T02:14:34Z</time></trkpt><trkpt lat="33.7906279" lon="133.2577683"><ele>1428.3533333333332</ele><time>2024-09-14T02:15:01Z</time></trkpt><trkpt lat="33.7906954" lon="133.2579972"><ele>1426.3333333333333</ele><time>2024-09-14T02:15:16Z</time></trkpt><trkpt lat="33.7907744" lon="133.2582045"><ele>1424.3700000000001</ele><time>2024-09-14T02:15:31Z</time></trkpt><trkpt lat="33.7906538" lon="133.258409"><ele>1423.6200000000001</ele><time>2024-09-14T02:15:49Z</time></trkpt><trkpt lat="33.7904707" lon="133.2585291"><ele>1421.3833333333332</ele><time>2024-09-14T02:16:04Z</time></trkpt><trkpt lat="33.7903157" lon="133.2586952"><ele>1417.9466666666667</ele><time>2024-09-14T02:16:37Z</time></trkpt><trkpt lat="33.7903766" lon="133.2589481"><ele>1415.29</ele><time>2024-09-14T02:16:52Z</time></trkpt><trkpt lat="33.7904432" lon="133.2591719"><ele>1416.6266666666668</ele><time>2024-09-14T02:17:06Z</time></trkpt><trkpt lat="33.7903231" lon="133.2593615"><ele>1415.72</ele><time>2024-09-14T02:17:21Z</time></trkpt><trkpt lat="33.7903727" lon="133.2596038"><ele>1415.1066666666666</ele><time>2024-09-14T02:17:36Z</time></trkpt><trkpt lat="33.7904001" lon="133.2598435"><ele>1415.2866666666666</ele><time>2024-09-14T02:17:51Z</time></trkpt><trkpt lat="33.7902341" lon="133.2599378"><ele>1417.3400000000001</ele><time>2024-09-14T02:18:03Z</time></trkpt><trkpt lat="33.7900313" lon="133.2599755"><ele>1418.0500000000002</ele><time>2024-09-14T02:18:18Z</time></trkpt><trkpt lat="33.7898589" lon="133.2600819"><ele>1416.6233333333332</ele><time>2024-09-14T02:18:33Z</time></trkpt><trkpt lat="33.7896807" lon="133.260241"><ele>1416.2233333333334</ele><time>2024-09-14T02:18:48Z</time></trkpt><trkpt lat="33.7894985" lon="133.2603613"><ele>1416.4066666666665</ele><time>2024-09-14T02:19:03Z</time></trkpt><trkpt lat="33.7893078" lon="133.2604418"><ele>1416.0900000000001</ele><time>2024-09-14T02:19:18Z</time></trkpt><trkpt lat="33.7891158" lon="133.2604997"><ele>1413.3766666666668</ele><time>2024-09-14T02:19:33Z</time></trkpt><trkpt lat="33.7890535" lon="133.2607267"><ele>1410.68</ele><time>2024-09-14T02:19:48Z</time></trkpt><trkpt lat="33.7889501" lon="133.2609322"><ele>1411.0333333333335</ele><time>2024-09-14T02:20:03Z</time></trkpt><trkpt lat="33.7887464" lon="133.2609479"><ele>1412.5433333333333</ele><time>2024-09-14T02:20:18Z</time></trkpt><trkpt lat="33.7885668" lon="133.261014"><ele>1414.5266666666666</ele><time>2024-09-14T02:20:33Z</time></trkpt><trkpt lat="33.7883671" lon="133.2610366"><ele>1413.3</ele><time>2024-09-14T02:20:48Z</time></trkpt><trkpt lat="33.7881831" lon="133.2611282"><ele>1412.8100000000002</ele><time>2024-09-14T02:21:03Z</time></trkpt><trkpt lat="33.7880151" lon="133.2612493"><ele>1412.75</ele><time>2024-09-14T02:21:18Z</time></trkpt><trkpt lat="33.7878287" lon="133.2613184"><ele>1412.4399999999998</ele><time>2024-09-14T02:21:57Z</time></trkpt><trkpt lat="33.7876404" lon="133.2613424"><ele>1412.6599999999999</ele><time>2024-09-14T02:22:12Z</time></trkpt><trkpt lat="33.7874323" lon="133.2612866"><ele>1411.79</ele><time>2024-09-14T02:22:30Z</time></trkpt><trkpt lat="33.7872437" lon="133.2612152"><ele>1412.6866666666665</ele><time>2024-09-14T02:23:06Z</time></trkpt><trkpt lat="33.7870944" lon="133.2610686"><ele>1412.2166666666665</ele><time>2024-09-14T02:23:21Z</time></trkpt><trkpt lat="33.7869074" lon="133.2610465"><ele>1411.6433333333334</ele><time>2024-09-14T02:23:39Z</time></trkpt><trkpt lat="33.7867782" lon="133.2612233"><ele>1411.8166666666666</ele><time>2024-09-14T02:23:53Z</time></trkpt><trkpt lat="33.7866319" lon="133.2613846"><ele>1412.7600000000002</ele><time>2024-09-14T02:24:14Z</time></trkpt><trkpt lat="33.7865819" lon="133.2616189"><ele>1414.9066666666665</ele><time>2024-09-14T02:24:38Z</time></trkpt><trkpt lat="33.7865494" lon="133.2619329"><ele>1411.6833333333334</ele><time>2024-09-14T02:24:54Z</time></trkpt><trkpt lat="33.786454" lon="133.2621336"><ele>1406.6033333333332</ele><time>2024-09-14T02:25:12Z</time></trkpt><trkpt lat="33.7864349" lon="133.2623562"><ele>1401.45</ele><time>2024-09-14T02:25:27Z</time></trkpt><trkpt lat="33.7863775" lon="133.2626007"><ele>1401.466666666667</ele><time>2024-09-14T02:25:45Z</time></trkpt><trkpt lat="33.7862997" lon="133.2628064"><ele>1403.2533333333333</ele><time>2024-09-14T02:26:05Z</time></trkpt><trkpt lat="33.7862818" lon="133.2630251"><ele>1404.3933333333334</ele><time>2024-09-14T02:26:19Z</time></trkpt><trkpt lat="33.7862479" lon="133.2632387"><ele>1403.3866666666665</ele><time>2024-09-14T02:26:34Z</time></trkpt><trkpt lat="33.7862435" lon="133.2634898"><ele>1403.8633333333335</ele><time>2024-09-14T02:27:00Z</time></trkpt><trkpt lat="33.7861835" lon="133.2637005"><ele>1406.32</ele><time>2024-09-14T02:27:15Z</time></trkpt><trkpt lat="33.7860744" lon="133.2639119"><ele>1415.6566666666668</ele><time>2024-09-14T02:27:32Z</time></trkpt><trkpt lat="33.7848188" lon="133.266723"><ele>1423.3066666666666</ele><time>2024-09-14T02:32:51Z</time></trkpt><trkpt lat="33.7847097" lon="133.2669019"><ele>1426.7600000000002</ele><time>2024-09-14T02:33:14Z</time></trkpt><trkpt lat="33.7846789" lon="133.2671159"><ele>1430.2766666666666</ele><time>2024-09-14T02:33:31Z</time></trkpt><trkpt lat="33.7846157" lon="133.2673352"><ele>1434.346666666667</ele><time>2024-09-14T02:33:46Z</time></trkpt><trkpt lat="33.7844908" lon="133.267491"><ele>1432.64</ele><time>2024-09-14T02:34:00Z</time></trkpt><trkpt lat="33.7844366" lon="133.2677245"><ele>1424.67</ele><time>2024-09-14T02:34:17Z</time></trkpt><trkpt lat="33.7845168" lon="133.2679574"><ele>1416.4433333333334</ele><time>2024-09-14T02:34:34Z</time></trkpt><trkpt lat="33.7846904" lon="133.2680886"><ele>1419.5333333333335</ele><time>2024-09-14T02:34:52Z</time></trkpt><trkpt lat="33.7848358" lon="133.2682594"><ele>1427.4033333333334</ele><time>2024-09-14T02:35:08Z</time></trkpt><trkpt lat="33.7848485" lon="133.2685027"><ele>1430.88</ele><time>2024-09-14T02:35:25Z</time></trkpt><trkpt lat="33.7847769" lon="133.2687316"><ele>1427.6666666666667</ele><time>2024-09-14T02:35:40Z</time></trkpt><trkpt lat="33.7848154" lon="133.2689796"><ele>1420.7466666666667</ele><time>2024-09-14T02:35:57Z</time></trkpt><trkpt lat="33.7849332" lon="133.2691508"><ele>1426.1200000000001</ele><time>2024-09-14T02:36:11Z</time></trkpt><trkpt lat="33.7850201" lon="133.2693623"><ele>1436.6966666666667</ele><time>2024-09-14T02:36:28Z</time></trkpt><trkpt lat="33.7849417" lon="133.2695574"><ele>1445.5200000000002</ele><time>2024-09-14T02:36:42Z</time></trkpt><trkpt lat="33.7847541" lon="133.2695903"><ele>1446.86</ele><time>2024-09-14T02:37:00Z</time></trkpt><trkpt lat="33.7846066" lon="133.2697215"><ele>1447.9633333333334</ele><time>2024-09-14T02:38:09Z</time></trkpt><trkpt lat="33.7844425" lon="133.269845"><ele>1452.5600000000002</ele><time>2024-09-14T02:38:33Z</time></trkpt><trkpt lat="33.7842565" lon="133.2698673"><ele>1454.1366666666665</ele><time>2024-09-14T02:38:48Z</time></trkpt><trkpt lat="33.7840959" lon="133.2697597"><ele>1451.0233333333333</ele><time>2024-09-14T02:39:03Z</time></trkpt><trkpt lat="33.7838891" lon="133.2697433"><ele>1443.1599999999999</ele><time>2024-09-14T02:39:18Z</time></trkpt><trkpt lat="33.7836845" lon="133.2697862"><ele>1433.6066666666666</ele><time>2024-09-14T02:39:33Z</time></trkpt><trkpt lat="33.7836523" lon="133.2700249"><ele>1425.0566666666666</ele><time>2024-09-14T02:39:48Z</time></trkpt><trkpt lat="33.783771" lon="133.2702364"><ele>1418.8233333333335</ele><time>2024-09-14T02:40:03Z</time></trkpt><trkpt lat="33.783855" lon="133.2704389"><ele>1417.86</ele><time>2024-09-14T02:40:18Z</time></trkpt><trkpt lat="33.7838557" lon="133.2706903"><ele>1416.86</ele><time>2024-09-14T02:40:33Z</time></trkpt><trkpt lat="33.7838462" lon="133.270936"><ele>1416.6033333333332</ele><time>2024-09-14T02:40:48Z</time></trkpt><trkpt lat="33.783816" lon="133.2711844"><ele>1416.13</ele><time>2024-09-14T02:41:03Z</time></trkpt><trkpt lat="33.7837686" lon="133.271411"><ele>1413.9433333333334</ele><time>2024-09-14T02:41:17Z</time></trkpt><trkpt lat="33.7837734" lon="133.2716286"><ele>1409.8733333333337</ele><time>2024-09-14T02:41:32Z</time></trkpt><trkpt lat="33.7839527" lon="133.2717843"><ele>1404.75</ele><time>2024-09-14T02:41:47Z</time></trkpt><trkpt lat="33.784124" lon="133.2719177"><ele>1401.5333333333335</ele><time>2024-09-14T02:42:02Z</time></trkpt><trkpt lat="33.7842802" lon="133.272064"><ele>1399.03</ele><time>2024-09-14T02:42:17Z</time></trkpt><trkpt lat="33.7844042" lon="133.2722343"><ele>1396.5166666666667</ele><time>2024-09-14T02:42:32Z</time></trkpt><trkpt lat="33.7845719" lon="133.2723396"><ele>1395.6433333333334</ele><time>2024-09-14T02:42:47Z</time></trkpt><trkpt lat="33.7847562" lon="133.2724042"><ele>1394.0633333333335</ele><time>2024-09-14T02:43:02Z</time></trkpt><trkpt lat="33.7849616" lon="133.2723742"><ele>1393.6566666666668</ele><time>2024-09-14T02:43:20Z</time></trkpt><trkpt lat="33.7851533" lon="133.2724999"><ele>1394.1733333333334</ele><time>2024-09-14T02:43:35Z</time></trkpt><trkpt lat="33.7851468" lon="133.2727444"><ele>1393.82</ele><time>2024-09-14T02:43:53Z</time></trkpt><trkpt lat="33.7850563" lon="133.2729593"><ele>1389.7166666666665</ele><time>2024-09-14T02:44:08Z</time></trkpt><trkpt lat="33.7850341" lon="133.273196"><ele>1384.4633333333331</ele><time>2024-09-14T02:44:23Z</time></trkpt><trkpt lat="33.7850861" lon="133.2734586"><ele>1381.4666666666665</ele><time>2024-09-14T02:44:38Z</time></trkpt><trkpt lat="33.7852687" lon="133.2735769"><ele>1382.5333333333335</ele><time>2024-09-14T02:44:53Z</time></trkpt><trkpt lat="33.7854528" lon="133.2736338"><ele>1385.11</ele><time>2024-09-14T02:45:08Z</time></trkpt><trkpt lat="33.7855138" lon="133.2738429"><ele>1386.55</ele><time>2024-09-14T02:45:23Z</time></trkpt><trkpt lat="33.7856039" lon="133.2740758"><ele>1385.1333333333332</ele><time>2024-09-14T02:45:41Z</time></trkpt><trkpt lat="33.7857934" lon="133.2741701"><ele>1381.926666666667</ele><time>2024-09-14T02:45:59Z</time></trkpt><trkpt lat="33.7860004" lon="133.2741494"><ele>1378.1733333333334</ele><time>2024-09-14T02:46:17Z</time></trkpt><trkpt lat="33.7861047" lon="133.2743582"><ele>1375.1766666666665</ele><time>2024-09-14T02:46:35Z</time></trkpt><trkpt lat="33.7861068" lon="133.2745971"><ele>1372.1133333333335</ele><time>2024-09-14T02:46:53Z</time></trkpt><trkpt lat="33.786034" lon="133.2748277"><ele>1367.68</ele><time>2024-09-14T02:47:08Z</time></trkpt><trkpt lat="33.7861033" lon="133.2750782"><ele>1364.3333333333333</ele><time>2024-09-14T02:47:23Z</time></trkpt><trkpt lat="33.7861916" lon="133.2753161"><ele>1362.08</ele><time>2024-09-14T02:47:37Z</time></trkpt><trkpt lat="33.7862357" lon="133.2755355"><ele>1363.47</ele><time>2024-09-14T02:47:52Z</time></trkpt><trkpt lat="33.7860627" lon="133.2756833"><ele>1362.43</ele><time>2024-09-14T02:48:07Z</time></trkpt><trkpt lat="33.7859415" lon="133.2758592"><ele>1359.4766666666667</ele><time>2024-09-14T02:48:22Z</time></trkpt><trkpt lat="33.7858682" lon="133.2760743"><ele>1355.5733333333335</ele><time>2024-09-14T02:48:37Z</time></trkpt><trkpt lat="33.7857029" lon="133.2761975"><ele>1351.7233333333334</ele><time>2024-09-14T02:48:52Z</time></trkpt><trkpt lat="33.7856611" lon="133.2764175"><ele>1350.2299999999998</ele><time>2024-09-14T02:49:07Z</time></trkpt><trkpt lat="33.7856797" lon="133.2766795"><ele>1348.5166666666667</ele><time>2024-09-14T02:49:22Z</time></trkpt><trkpt lat="33.7856609" lon="133.2769011"><ele>1350.8066666666666</ele><time>2024-09-14T02:49:37Z</time></trkpt><trkpt lat="33.7855537" lon="133.2770753"><ele>1349.7266666666667</ele><time>2024-09-14T02:49:52Z</time></trkpt><trkpt lat="33.7854157" lon="133.2772423"><ele>1346.3366666666668</ele><time>2024-09-14T02:50:09Z</time></trkpt><trkpt lat="33.7852613" lon="133.2774077"><ele>1342.25</ele><time>2024-09-14T02:50:27Z</time></trkpt><trkpt lat="33.785212" lon="133.2776264"><ele>1344.2</ele><time>2024-09-14T02:55:41Z</time></trkpt><trkpt lat="33.7850356" lon="133.2777472"><ele>1348.4466666666667</ele><time>2024-09-14T02:55:59Z</time></trkpt><trkpt lat="33.7848376" lon="133.2778033"><ele>1348.7533333333333</ele><time>2024-09-14T02:56:17Z</time></trkpt><trkpt lat="33.7846582" lon="133.2779395"><ele>1346.5266666666669</ele><time>2024-09-14T02:56:41Z</time></trkpt><trkpt lat="33.7845098" lon="133.2780629"><ele>1344.3733333333332</ele><time>2024-09-14T02:56:53Z</time></trkpt><trkpt lat="33.7843308" lon="133.278126"><ele>1344.7633333333333</ele><time>2024-09-14T02:57:08Z</time></trkpt><trkpt lat="33.7841387" lon="133.2780689"><ele>1342.8166666666666</ele><time>2024-09-14T02:57:23Z</time></trkpt><trkpt lat="33.7839316" lon="133.278076"><ele>1338.9433333333334</ele><time>2024-09-14T02:57:41Z</time></trkpt><trkpt lat="33.7838003" lon="133.2782425"><ele>1334.1100000000001</ele><time>2024-09-14T02:57:56Z</time></trkpt><trkpt lat="33.7837371" lon="133.2784671"><ele>1330.4266666666667</ele><time>2024-09-14T02:58:11Z</time></trkpt><trkpt lat="33.7835562" lon="133.2785704"><ele>1323.49</ele><time>2024-09-14T02:58:26Z</time></trkpt><trkpt lat="33.7833932" lon="133.2786838"><ele>1319.8166666666666</ele><time>2024-09-14T02:58:41Z</time></trkpt><trkpt lat="33.7832544" lon="133.2788739"><ele>1313.0666666666666</ele><time>2024-09-14T02:58:56Z</time></trkpt><trkpt lat="33.7831772" lon="133.2790881"><ele>1311.1499999999999</ele><time>2024-09-14T02:59:08Z</time></trkpt><trkpt lat="33.7831776" lon="133.2793374"><ele>1306.9466666666667</ele><time>2024-09-14T02:59:23Z</time></trkpt><trkpt lat="33.7833114" lon="133.2794951"><ele>1305.9766666666667</ele><time>2024-09-14T03:00:26Z</time></trkpt><trkpt lat="33.7834866" lon="133.2796026"><ele>1303.8033333333333</ele><time>2024-09-14T03:00:41Z</time></trkpt><trkpt lat="33.783675" lon="133.2796771"><ele>1300.33</ele><time>2024-09-14T03:00:56Z</time></trkpt><trkpt lat="33.7838632" lon="133.2797262"><ele>1296.2266666666667</ele><time>2024-09-14T03:01:11Z</time></trkpt><trkpt lat="33.784062" lon="133.2797551"><ele>1293.6933333333334</ele><time>2024-09-14T03:01:26Z</time></trkpt><trkpt lat="33.7841667" lon="133.2795641"><ele>1293.9066666666668</ele><time>2024-09-14T03:01:41Z</time></trkpt><trkpt lat="33.784281" lon="133.2793649"><ele>1296.3300000000002</ele><time>2024-09-14T03:01:56Z</time></trkpt><trkpt lat="33.7844986" lon="133.2793816"><ele>1293.8066666666666</ele><time>2024-09-14T03:02:11Z</time></trkpt><trkpt lat="33.784684" lon="133.2792879"><ele>1290.1100000000001</ele><time>2024-09-14T03:02:26Z</time></trkpt><trkpt lat="33.7848146" lon="133.2790838"><ele>1286.9833333333333</ele><time>2024-09-14T03:02:41Z</time></trkpt><trkpt lat="33.7850088" lon="133.2790375"><ele>1287.0433333333333</ele><time>2024-09-14T03:02:56Z</time></trkpt><trkpt lat="33.7851845" lon="133.2790992"><ele>1287.5533333333333</ele><time>2024-09-14T03:03:08Z</time></trkpt><trkpt lat="33.7853187" lon="133.2792809"><ele>1285.9499999999998</ele><time>2024-09-14T03:03:23Z</time></trkpt><trkpt lat="33.7853558" lon="133.2795017"><ele>1284.53</ele><time>2024-09-14T03:03:37Z</time></trkpt><trkpt lat="33.7854011" lon="133.2797149"><ele>1280.3500000000001</ele><time>2024-09-14T03:03:52Z</time></trkpt><trkpt lat="33.7854603" lon="133.2799321"><ele>1275.86</ele><time>2024-09-14T03:04:37Z</time></trkpt><trkpt lat="33.7855142" lon="133.2801509"><ele>1271.72</ele><time>2024-09-14T03:04:52Z</time></trkpt><trkpt lat="33.7856901" lon="133.2802255"><ele>1269.1633333333332</ele><time>2024-09-14T03:05:07Z</time></trkpt><trkpt lat="33.7858238" lon="133.2800773"><ele>1267.506666666667</ele><time>2024-09-14T03:05:21Z</time></trkpt><trkpt lat="33.7859935" lon="133.2799438"><ele>1272.53</ele><time>2024-09-14T03:05:36Z</time></trkpt><trkpt lat="33.7861501" lon="133.2800874"><ele>1275.8066666666666</ele><time>2024-09-14T03:05:48Z</time></trkpt><trkpt lat="33.7862752" lon="133.2803004"><ele>1274.31</ele><time>2024-09-14T03:06:03Z</time></trkpt><trkpt lat="33.7864843" lon="133.2803733"><ele>1270.5966666666666</ele><time>2024-09-14T03:06:18Z</time></trkpt><trkpt lat="33.7866502" lon="133.280501"><ele>1268.5133333333333</ele><time>2024-09-14T03:06:33Z</time></trkpt><trkpt lat="33.7867741" lon="133.2807049"><ele>1267.75</ele><time>2024-09-14T03:06:48Z</time></trkpt><trkpt lat="33.7867339" lon="133.2809187"><ele>1262.0233333333333</ele><time>2024-09-14T03:07:03Z</time></trkpt><trkpt lat="33.7867965" lon="133.2811483"><ele>1257.3999999999999</ele><time>2024-09-14T03:07:18Z</time></trkpt><trkpt lat="33.7869982" lon="133.2812302"><ele>1255.0866666666668</ele><time>2024-09-14T03:07:33Z</time></trkpt><trkpt lat="33.7871812" lon="133.2811932"><ele>1254.47</ele><time>2024-09-14T03:07:48Z</time></trkpt><trkpt lat="33.7873809" lon="133.2812003"><ele>1253.533333333333</ele><time>2024-09-14T03:08:03Z</time></trkpt><trkpt lat="33.7875634" lon="133.281343"><ele>1251.4966666666667</ele><time>2024-09-14T03:08:18Z</time></trkpt><trkpt lat="33.7877477" lon="133.2814471"><ele>1248.8933333333334</ele><time>2024-09-14T03:08:33Z</time></trkpt><trkpt lat="33.7879378" lon="133.281335"><ele>1248.33</ele><time>2024-09-14T03:08:48Z</time></trkpt><trkpt lat="33.7880279" lon="133.2811422"><ele>1250.42</ele><time>2024-09-14T03:09:30Z</time></trkpt><trkpt lat="33.788062" lon="133.2809264"><ele>1253.7766666666666</ele><time>2024-09-14T03:09:45Z</time></trkpt><trkpt lat="33.788054" lon="133.2807074"><ele>1255.9333333333332</ele><time>2024-09-14T03:10:00Z</time></trkpt><trkpt lat="33.7882281" lon="133.2805523"><ele>1255.7633333333333</ele><time>2024-09-14T03:10:18Z</time></trkpt><trkpt lat="33.7883405" lon="133.2803643"><ele>1254.5833333333333</ele><time>2024-09-14T03:10:33Z</time></trkpt><trkpt lat="33.7883685" lon="133.2801132"><ele>1251.8266666666666</ele><time>2024-09-14T03:10:48Z</time></trkpt><trkpt lat="33.7882877" lon="133.2799004"><ele>1251.26</ele><time>2024-09-14T03:11:03Z</time></trkpt><trkpt lat="33.7881863" lon="133.2796942"><ele>1251.5933333333332</ele><time>2024-09-14T03:11:18Z</time></trkpt><trkpt lat="33.7880622" lon="133.2795028"><ele>1253.1933333333334</ele><time>2024-09-14T03:11:33Z</time></trkpt><trkpt lat="33.7880787" lon="133.2792625"><ele>1251.9433333333334</ele><time>2024-09-14T03:11:48Z</time></trkpt><trkpt lat="33.7881773" lon="133.2790735"><ele>1247.59</ele><time>2024-09-14T03:12:06Z</time></trkpt><trkpt lat="33.788388" lon="133.2790982"><ele>1239.0233333333335</ele><time>2024-09-14T03:12:21Z</time></trkpt><trkpt lat="33.7884868" lon="133.2788914"><ele>1231.3266666666666</ele><time>2024-09-14T03:12:39Z</time></trkpt><trkpt lat="33.7883717" lon="133.2786845"><ele>1228.39</ele><time>2024-09-14T03:12:54Z</time></trkpt><trkpt lat="33.7882652" lon="133.2785003"><ele>1232.3733333333332</ele><time>2024-09-14T03:13:09Z</time></trkpt><trkpt lat="33.788268" lon="133.278256"><ele>1236.2600000000002</ele><time>2024-09-14T03:13:24Z</time></trkpt><trkpt lat="33.7884189" lon="133.2781141"><ele>1236.43</ele><time>2024-09-14T03:13:42Z</time></trkpt><trkpt lat="33.7885818" lon="133.2779936"><ele>1232.6366666666668</ele><time>2024-09-14T03:14:00Z</time></trkpt><trkpt lat="33.7887429" lon="133.2778165"><ele>1230.5866666666668</ele><time>2024-09-14T03:14:40Z</time></trkpt><trkpt lat="33.7889261" lon="133.2777527"><ele>1228.0366666666666</ele><time>2024-09-14T03:14:55Z</time></trkpt><trkpt lat="33.7890856" lon="133.2778676"><ele>1226.3266666666666</ele><time>2024-09-14T03:15:07Z</time></trkpt><trkpt lat="33.7892481" lon="133.278053"><ele>1223.0766666666666</ele><time>2024-09-14T03:15:22Z</time></trkpt><trkpt lat="33.7894318" lon="133.2781373"><ele>1220.1866666666665</ele><time>2024-09-14T03:15:37Z</time></trkpt><trkpt lat="33.78958" lon="133.2782839"><ele>1217.5266666666666</ele><time>2024-09-14T03:15:52Z</time></trkpt><trkpt lat="33.789603" lon="133.2785247"><ele>1214.6766666666667</ele><time>2024-09-14T03:16:07Z</time></trkpt><trkpt lat="33.7896569" lon="133.2787546"><ele>1210.4766666666667</ele><time>2024-09-14T03:16:22Z</time></trkpt><trkpt lat="33.7898601" lon="133.2787194"><ele>1206.3466666666666</ele><time>2024-09-14T03:16:40Z</time></trkpt><trkpt lat="33.7900611" lon="133.2786255"><ele>1204.2033333333336</ele><time>2024-09-14T03:16:55Z</time></trkpt><trkpt lat="33.7902184" lon="133.278773"><ele>1205.1366666666668</ele><time>2024-09-14T03:17:13Z</time></trkpt><trkpt lat="33.7902446" lon="133.27901"><ele>1203.4266666666665</ele><time>2024-09-14T03:17:28Z</time></trkpt><trkpt lat="33.7904323" lon="133.2790933"><ele>1200.2466666666667</ele><time>2024-09-14T03:17:45Z</time></trkpt><trkpt lat="33.7905517" lon="133.2792568"><ele>1196.5133333333333</ele><time>2024-09-14T03:18:00Z</time></trkpt><trkpt lat="33.7905672" lon="133.2794877"><ele>1194.3</ele><time>2024-09-14T03:18:15Z</time></trkpt><trkpt lat="33.7907391" lon="133.2795683"><ele>1191.8166666666668</ele><time>2024-09-14T03:18:29Z</time></trkpt><trkpt lat="33.7909254" lon="133.2796575"><ele>1188.6833333333334</ele><time>2024-09-14T03:18:56Z</time></trkpt><trkpt lat="33.791057" lon="133.2794828"><ele>1187.5</ele><time>2024-09-14T03:19:10Z</time></trkpt><trkpt lat="33.7911049" lon="133.2792345"><ele>1188.4233333333334</ele><time>2024-09-14T03:19:25Z</time></trkpt><trkpt lat="33.79113" lon="133.2789989"><ele>1192.3933333333334</ele><time>2024-09-14T03:19:40Z</time></trkpt><trkpt lat="33.7911396" lon="133.2787473"><ele>1190.8500000000001</ele><time>2024-09-14T03:19:55Z</time></trkpt><trkpt lat="33.7911874" lon="133.2785117"><ele>1190.0866666666668</ele><time>2024-09-14T03:20:10Z</time></trkpt><trkpt lat="33.7912284" lon="133.2782639"><ele>1186.4433333333334</ele><time>2024-09-14T03:20:27Z</time></trkpt><trkpt lat="33.7913453" lon="133.2780603"><ele>1186.6066666666668</ele><time>2024-09-14T03:20:42Z</time></trkpt><trkpt lat="33.7914008" lon="133.2778376"><ele>1183.5600000000002</ele><time>2024-09-14T03:20:57Z</time></trkpt><trkpt lat="33.7913933" lon="133.2775829"><ele>1183.3066666666666</ele><time>2024-09-14T03:21:14Z</time></trkpt><trkpt lat="33.7914419" lon="133.2773701"><ele>1184.18</ele><time>2024-09-14T03:21:28Z</time></trkpt><trkpt lat="33.7915422" lon="133.2771685"><ele>1186.0</ele><time>2024-09-14T03:21:43Z</time></trkpt><trkpt lat="33.791745" lon="133.2772408"><ele>1183.2866666666666</ele><time>2024-09-14T03:21:58Z</time></trkpt><trkpt lat="33.7919229" lon="133.2773388"><ele>1179.1833333333332</ele><time>2024-09-14T03:22:13Z</time></trkpt><trkpt lat="33.792105" lon="133.2774286"><ele>1173.4266666666665</ele><time>2024-09-14T03:22:27Z</time></trkpt><trkpt lat="33.7923052" lon="133.2775068"><ele>1169.03</ele><time>2024-09-14T03:22:44Z</time></trkpt><trkpt lat="33.7925048" lon="133.2774764"><ele>1165.5966666666666</ele><time>2024-09-14T03:22:59Z</time></trkpt><trkpt lat="33.7927024" lon="133.2773724"><ele>1164.8033333333333</ele><time>2024-09-14T03:23:16Z</time></trkpt><trkpt lat="33.7928493" lon="133.277232"><ele>1165.4833333333336</ele><time>2024-09-14T03:23:31Z</time></trkpt><trkpt lat="33.7930214" lon="133.2770722"><ele>1166.456666666667</ele><time>2024-09-14T03:23:48Z</time></trkpt><trkpt lat="33.7931734" lon="133.2769016"><ele>1167.1766666666667</ele><time>2024-09-14T03:24:03Z</time></trkpt><trkpt lat="33.7933485" lon="133.276773"><ele>1167.6133333333335</ele><time>2024-09-14T03:24:18Z</time></trkpt><trkpt lat="33.7935174" lon="133.2766311"><ele>1165.6000000000001</ele><time>2024-09-14T03:24:36Z</time></trkpt><trkpt lat="33.7936876" lon="133.2765069"><ele>1162.7433333333336</ele><time>2024-09-14T03:24:51Z</time></trkpt><trkpt lat="33.7938404" lon="133.2763418"><ele>1160.5133333333333</ele><time>2024-09-14T03:25:06Z</time></trkpt><trkpt lat="33.7939336" lon="133.2761092"><ele>1160.0666666666666</ele><time>2024-09-14T03:25:23Z</time></trkpt><trkpt lat="33.7938778" lon="133.275899"><ele>1159.89</ele><time>2024-09-14T03:25:38Z</time></trkpt><trkpt lat="33.7937575" lon="133.2757333"><ele>1159.6033333333332</ele><time>2024-09-14T03:25:53Z</time></trkpt><trkpt lat="33.7936054" lon="133.2755673"><ele>1160.3133333333335</ele><time>2024-09-14T03:26:56Z</time></trkpt><trkpt lat="33.7935211" lon="133.2753546"><ele>1161.5600000000002</ele><time>2024-09-14T03:27:14Z</time></trkpt><trkpt lat="33.7936017" lon="133.2751462"><ele>1161.8400000000001</ele><time>2024-09-14T03:27:32Z</time></trkpt><trkpt lat="33.793687" lon="133.2749396"><ele>1161.1433333333334</ele><time>2024-09-14T03:27:47Z</time></trkpt><trkpt lat="33.7937964" lon="133.2747492"><ele>1158.97</ele><time>2024-09-14T03:28:02Z</time></trkpt><trkpt lat="33.7938625" lon="133.2745427"><ele>1157.1433333333334</ele><time>2024-09-14T03:28:17Z</time></trkpt><trkpt lat="33.7938368" lon="133.2742957"><ele>1156.8999999999999</ele><time>2024-09-14T03:28:32Z</time></trkpt><trkpt lat="33.7939342" lon="133.2741038"><ele>1157.28</ele><time>2024-09-14T03:28:47Z</time></trkpt><trkpt lat="33.794073" lon="133.2738915"><ele>1154.9166666666667</ele><time>2024-09-14T03:29:05Z</time></trkpt><trkpt lat="33.7941438" lon="133.2736456"><ele>1150.9966666666667</ele><time>2024-09-14T03:29:22Z</time></trkpt><trkpt lat="33.7941329" lon="133.2734243"><ele>1147.0600000000002</ele><time>2024-09-14T03:29:37Z</time></trkpt><trkpt lat="33.7940976" lon="133.2731947"><ele>1146.8266666666668</ele><time>2024-09-14T03:29:51Z</time></trkpt><trkpt lat="33.7940505" lon="133.272935"><ele>1148.2966666666669</ele><time>2024-09-14T03:30:08Z</time></trkpt><trkpt lat="33.7940201" lon="133.2727131"><ele>1148.8766666666668</ele><time>2024-09-14T03:30:23Z</time></trkpt><trkpt lat="33.7940381" lon="133.2724448"><ele>1148.21</ele><time>2024-09-14T03:30:38Z</time></trkpt><trkpt lat="33.7940287" lon="133.2722131"><ele>1145.57</ele><time>2024-09-14T03:30:53Z</time></trkpt><trkpt lat="33.7940542" lon="133.2719571"><ele>1143.53</ele><time>2024-09-14T03:31:11Z</time></trkpt><trkpt lat="33.7940492" lon="133.2717229"><ele>1140.5633333333333</ele><time>2024-09-14T03:31:26Z</time></trkpt><trkpt lat="33.7938986" lon="133.271574"><ele>1139.5900000000001</ele><time>2024-09-14T03:31:41Z</time></trkpt><trkpt lat="33.7937205" lon="133.2714184"><ele>1138.28</ele><time>2024-09-14T03:31:59Z</time></trkpt><trkpt lat="33.7935328" lon="133.2713297"><ele>1138.5533333333335</ele><time>2024-09-14T03:32:14Z</time></trkpt><trkpt lat="33.7933442" lon="133.2712791"><ele>1137.1133333333335</ele><time>2024-09-14T03:32:29Z</time></trkpt><trkpt lat="33.7933275" lon="133.2710605"><ele>1135.6599999999999</ele><time>2024-09-14T03:32:43Z</time></trkpt><trkpt lat="33.7934332" lon="133.2708574"><ele>1130.6433333333334</ele><time>2024-09-14T03:32:58Z</time></trkpt><trkpt lat="33.7934654" lon="133.270639"><ele>1125.0933333333332</ele><time>2024-09-14T03:33:13Z</time></trkpt><trkpt lat="33.7933037" lon="133.2704578"><ele>1123.5366666666666</ele><time>2024-09-14T03:33:28Z</time></trkpt><trkpt lat="33.7931591" lon="133.2702995"><ele>1127.2</ele><time>2024-09-14T03:33:43Z</time></trkpt><trkpt lat="33.7931796" lon="133.270053"><ele>1130.1266666666668</ele><time>2024-09-14T03:33:58Z</time></trkpt><trkpt lat="33.7932122" lon="133.2698133"><ele>1126.6966666666667</ele><time>2024-09-14T03:34:13Z</time></trkpt><trkpt lat="33.7930627" lon="133.269653"><ele>1123.1333333333334</ele><time>2024-09-14T03:34:27Z</time></trkpt><trkpt lat="33.7929308" lon="133.2694703"><ele>1122.43</ele><time>2024-09-14T03:34:42Z</time></trkpt><trkpt lat="33.7928328" lon="133.2692699"><ele>1126.3566666666668</ele><time>2024-09-14T03:34:57Z</time></trkpt><trkpt lat="33.792745" lon="133.2690634"><ele>1128.0900000000001</ele><time>2024-09-14T03:35:12Z</time></trkpt><trkpt lat="33.7926498" lon="133.2688642"><ele>1126.2633333333333</ele><time>2024-09-14T03:35:26Z</time></trkpt><trkpt lat="33.7924992" lon="133.2686788"><ele>1124.8999999999999</ele><time>2024-09-14T03:35:43Z</time></trkpt><trkpt lat="33.79256" lon="133.2684741"><ele>1120.53</ele><time>2024-09-14T03:35:55Z</time></trkpt><trkpt lat="33.792741" lon="133.2684367"><ele>1117.3133333333333</ele><time>2024-09-14T03:36:10Z</time></trkpt><trkpt lat="33.7929223" lon="133.2684917"><ele>1110.38</ele><time>2024-09-14T03:36:25Z</time></trkpt><trkpt lat="33.7931108" lon="133.268549"><ele>1105.743333333333</ele><time>2024-09-14T03:36:39Z</time></trkpt><trkpt lat="33.7933042" lon="133.2686075"><ele>1104.1833333333332</ele><time>2024-09-14T03:36:54Z</time></trkpt><trkpt lat="33.7934842" lon="133.2686526"><ele>1103.0533333333335</ele><time>2024-09-14T03:37:09Z</time></trkpt><trkpt lat="33.7936753" lon="133.2687446"><ele>1102.3266666666668</ele><time>2024-09-14T03:37:27Z</time></trkpt><trkpt lat="33.7938434" lon="133.2688969"><ele>1096.23</ele><time>2024-09-14T03:37:44Z</time></trkpt><trkpt lat="33.7940449" lon="133.2689581"><ele>1092.5933333333332</ele><time>2024-09-14T03:38:01Z</time></trkpt><trkpt lat="33.7942499" lon="133.268937"><ele>1091.18</ele><time>2024-09-14T03:38:18Z</time></trkpt><trkpt lat="33.794439" lon="133.2689046"><ele>1094.1966666666667</ele><time>2024-09-14T03:38:33Z</time></trkpt><trkpt lat="33.7946315" lon="133.2689063"><ele>1096.9866666666667</ele><time>2024-09-14T03:38:47Z</time></trkpt><trkpt lat="33.7948332" lon="133.2689331"><ele>1098.67</ele><time>2024-09-14T03:39:04Z</time></trkpt><trkpt lat="33.7950183" lon="133.2688905"><ele>1098.66</ele><time>2024-09-14T03:39:21Z</time></trkpt><trkpt lat="33.7951848" lon="133.2687662"><ele>1100.5366666666666</ele><time>2024-09-14T03:39:38Z</time></trkpt><trkpt lat="33.7952733" lon="133.2685621"><ele>1104.2266666666667</ele><time>2024-09-14T03:39:52Z</time></trkpt><trkpt lat="33.7954391" lon="133.2684501"><ele>1110.1200000000001</ele><time>2024-09-14T03:40:09Z</time></trkpt><trkpt lat="33.7956333" lon="133.2683361"><ele>1111.5133333333333</ele><time>2024-09-14T03:40:44Z</time></trkpt><trkpt lat="33.7957516" lon="133.2681715"><ele>1113.46</ele><time>2024-09-14T03:41:32Z</time></trkpt><trkpt lat="33.7959247" lon="133.2680901"><ele>1114.25</ele><time>2024-09-14T03:41:55Z</time></trkpt><trkpt lat="33.7961142" lon="133.2681467"><ele>1117.03</ele><time>2024-09-14T03:42:12Z</time></trkpt><trkpt lat="33.796272" lon="133.2683147"><ele>1118.3966666666668</ele><time>2024-09-14T03:42:32Z</time></trkpt><trkpt lat="33.7964539" lon="133.2682967"><ele>1120.1366666666668</ele><time>2024-09-14T03:42:52Z</time></trkpt><trkpt lat="33.7965628" lon="133.2680813"><ele>1119.7033333333334</ele><time>2024-09-14T03:43:15Z</time></trkpt><trkpt lat="33.7965361" lon="133.2678556"><ele>1120.0433333333333</ele><time>2024-09-14T03:43:30Z</time></trkpt><trkpt lat="33.7965844" lon="133.2676357"><ele>1118.63</ele><time>2024-09-14T03:43:44Z</time></trkpt><trkpt lat="33.7967901" lon="133.2675716"><ele>1116.9</ele><time>2024-09-14T03:44:01Z</time></trkpt><trkpt lat="33.7969948" lon="133.2675347"><ele>1109.3633333333335</ele><time>2024-09-14T03:44:36Z</time></trkpt><trkpt lat="33.7971" lon="133.2673525"><ele>1103.0733333333335</ele><time>2024-09-14T03:44:50Z</time></trkpt><trkpt lat="33.7971973" lon="133.2671227"><ele>1100.0766666666666</ele><time>2024-09-14T03:45:07Z</time></trkpt><trkpt lat="33.7972726" lon="133.2669011"><ele>1102.3933333333334</ele><time>2024-09-14T03:45:24Z</time></trkpt><trkpt lat="33.797352" lon="133.2666772"><ele>1105.01</ele><time>2024-09-14T03:45:41Z</time></trkpt><trkpt lat="33.7975" lon="133.2665411"><ele>1106.3066666666666</ele><time>2024-09-14T03:45:58Z</time></trkpt><trkpt lat="33.797644" lon="133.2664015"><ele>1105.14</ele><time>2024-09-14T03:47:45Z</time></trkpt><trkpt lat="33.7976842" lon="133.2661825"><ele>1104.8066666666666</ele><time>2024-09-14T03:48:02Z</time></trkpt><trkpt lat="33.7976493" lon="133.2659697"><ele>1105.8566666666666</ele><time>2024-09-14T03:48:16Z</time></trkpt><trkpt lat="33.7976212" lon="133.265755"><ele>1109.9466666666667</ele><time>2024-09-14T03:48:30Z</time></trkpt><trkpt lat="33.7978006" lon="133.2656585"><ele>1111.7033333333331</ele><time>2024-09-14T03:48:44Z</time></trkpt><trkpt lat="33.7979757" lon="133.2658013"><ele>1111.3566666666666</ele><time>2024-09-14T03:48:58Z</time></trkpt><trkpt lat="33.7981481" lon="133.2659198"><ele>1110.6466666666668</ele><time>2024-09-14T03:49:15Z</time></trkpt><trkpt lat="33.7982942" lon="133.2660725"><ele>1110.8933333333332</ele><time>2024-09-14T03:49:32Z</time></trkpt><trkpt lat="33.798435" lon="133.2662562"><ele>1112.3333333333333</ele><time>2024-09-14T03:49:49Z</time></trkpt><trkpt lat="33.7985921" lon="133.2664029"><ele>1112.1766666666665</ele><time>2024-09-14T03:50:06Z</time></trkpt><trkpt lat="33.7987584" lon="133.2665276"><ele>1113.0200000000002</ele><time>2024-09-14T03:50:23Z</time></trkpt><trkpt lat="33.7988769" lon="133.2667195"><ele>1115.1966666666667</ele><time>2024-09-14T03:50:39Z</time></trkpt><trkpt lat="33.7989196" lon="133.266938"><ele>1116.3633333333335</ele><time>2024-09-14T03:51:54Z</time></trkpt><trkpt lat="33.7990563" lon="133.2671099"><ele>1115.2833333333333</ele><time>2024-09-14T03:52:14Z</time></trkpt><trkpt lat="33.7992014" lon="133.2669386"><ele>1113.4033333333334</ele><time>2024-09-14T03:52:30Z</time></trkpt><trkpt lat="33.7993259" lon="133.2667504"><ele>1113.4133333333334</ele><time>2024-09-14T03:52:47Z</time></trkpt><trkpt lat="33.7994788" lon="133.2666087"><ele>1113.7866666666669</ele><time>2024-09-14T03:53:01Z</time></trkpt><trkpt lat="33.7996655" lon="133.2664894"><ele>1114.1499999999999</ele><time>2024-09-14T03:53:17Z</time></trkpt><trkpt lat="33.7998393" lon="133.2663892"><ele>1114.3733333333334</ele><time>2024-09-14T03:53:31Z</time></trkpt><trkpt lat="33.8000103" lon="133.2664676"><ele>1115.7</ele><time>2024-09-14T03:53:48Z</time></trkpt><trkpt lat="33.8000615" lon="133.2666755"><ele>1115.0766666666668</ele><time>2024-09-14T03:54:02Z</time></trkpt><trkpt lat="33.8001774" lon="133.2668728"><ele>1113.6233333333332</ele><time>2024-09-14T03:54:19Z</time></trkpt></trkseg></trk></gpx>