<?xml version='1.0' encoding='UTF-8'?><gpx creator="Yama Museum Summit Candidate Generator" xsi:schemaLocation="http://www.topografix.com/GPX/1/1 http://www.topografix.com/GPX/1/1/gpx.xsd" version="1.1" xmlns="http://www.topografix.com/GPX/1/1" xmlns:xsi="http://www.w3.org/2001/XMLSchema-instance" xmlns:yama="https://museum-yama-data.moukaeritai.work/ns/yama-data/0.1"><metadata><bounds maxlat="33.7352307" maxlon="133.1455794" minlat="33.7032359" minlon="133.1345913"/><name>椿山</name><extensions><yama:source_gpx_basename>yamap_2024-06-01_07_14.gpx</yama:source_gpx_basename><yama:source_gpx_relative_path>data/01_raw/gpx/2026-05-12/yamap_2024-06-01_07_14.gpx</yama:source_gpx_relative_path><yama:detection_parameters>window=5,radius=10,min_prominence=30,merge=100</yama:detection_parameters></extensions></metadata><wpt lat="33.7159431" lon="133.1399924"><ele>1600.17</ele><time>2024-06-01T00:22:06Z</time><name>summit-candidate:26848eb9192f4a1a</name><desc>Summit candidate detected at elevation 1600.17m with prominence 606.7206666666668m.</desc><sym>Summit Candidate</sym><extensions><yama:source_trackpoint_index>168</yama:source_trackpoint_index><yama:valid_elevation_index>168</yama:valid_elevation_index><yama:smoothed_ele>1598.9133333333334</yama:smoothed_ele><yama:prominence>606.7206666666668</yama:prominence><yama:detection_method>local_maxima_with_prominence</yama:detection_method><yama:detection_parameters>window=5,radius=10,min_prominence=30,merge=100</yama:detection_parameters><yama:candidate_status>unresolved</yama:candidate_status></extensions></wpt>
  <wpt lat="33.7033183" lon="133.1423731"><ele>1579.6733333333332</ele><time>2024-06-01T02:31:03Z</time><name>summit-candidate:1b665bc67a34756a</name><desc>Summit candidate detected at elevation 1579.6733333333332m with prominence 134.05533333333324m.</desc><sym>Summit Candidate</sym><extensions><yama:source_trackpoint_index>257</yama:source_trackpoint_index><yama:valid_elevation_index>257</yama:valid_elevation_index><yama:smoothed_ele>1574.5566666666666</yama:smoothed_ele><yama:prominence>134.05533333333324</yama:prominence><yama:detection_method>local_maxima_with_prominence</yama:detection_method><yama:detection_parameters>window=5,radius=10,min_prominence=30,merge=100</yama:detection_parameters><yama:candidate_status>unresolved</yama:candidate_status></extensions></wpt>
  <wpt lat="33.7195218" lon="133.1387616"><ele>1431.7833333333335</ele><time>2024-06-01T05:40:09Z</time><name>summit-candidate:6ff5d266707ae664</name><desc>Summit candidate detected at elevation 1431.7833333333335m with prominence 31.01133333333314m.</desc><sym>Summit Candidate</sym><extensions><yama:source_trackpoint_index>398</yama:source_trackpoint_index><yama:valid_elevation_index>398</yama:valid_elevation_index><yama:smoothed_ele>1430.158</yama:smoothed_ele><yama:prominence>31.01133333333314</yama:prominence><yama:detection_method>local_maxima_with_prominence</yama:detection_method><yama:detection_parameters>window=5,radius=10,min_prominence=30,merge=100</yama:detection_parameters><yama:candidate_status>unresolved</yama:candidate_status></extensions></wpt>
  <trk><name>椿山</name><number>1</number><trkseg><trkpt lat="33.7352307" lon="133.1356704"><ele>1025.18</ele><time>2024-05-31T22:14:11Z</time></trkpt><trkpt lat="33.7350539" lon="133.1357212"><ele>1023.1800000000001</ele><time>2024-05-31T22:14:41Z</time></trkpt><trkpt lat="33.7348976" lon="133.1356056"><ele>1015.8433333333334</ele><time>2024-05-31T22:15:02Z</time></trkpt><trkpt lat="33.7347882" lon="133.1354261"><ele>1001.6033333333335</ele><time>2024-05-31T22:15:20Z</time></trkpt><trkpt lat="33.7347029" lon="133.1352255"><ele>987.41</ele><time>2024-05-31T22:15:33Z</time></trkpt><trkpt lat="33.7346565" lon="133.1349939"><ele>983.8066666666667</ele><time>2024-05-31T22:15:48Z</time></trkpt><trkpt lat="33.7344812" lon="133.1348819"><ele>990.2333333333332</ele><time>2024-05-31T22:16:27Z</time></trkpt><trkpt lat="33.7342851" lon="133.1348282"><ele>997.91</ele><time>2024-05-31T22:16:48Z</time></trkpt><trkpt lat="33.7340984" lon="133.1347759"><ele>1003.14</ele><time>2024-05-31T22:17:06Z</time></trkpt><trkpt lat="33.7339143" lon="133.1348256"><ele>1003.6766666666667</ele><time>2024-05-31T22:17:30Z</time></trkpt><trkpt lat="33.7337436" lon="133.1349014"><ele>1004.7033333333334</ele><time>2024-05-31T22:17:47Z</time></trkpt><trkpt lat="33.7335765" lon="133.1350563"><ele>1004.11</ele><time>2024-05-31T22:18:03Z</time></trkpt><trkpt lat="33.7334012" lon="133.1351151"><ele>1003.8299999999999</ele><time>2024-05-31T22:18:18Z</time></trkpt><trkpt lat="33.7332269" lon="133.1350135"><ele>1004.27</ele><time>2024-05-31T22:18:39Z</time></trkpt><trkpt lat="33.7330284" lon="133.1349853"><ele>1003.9566666666666</ele><time>2024-05-31T22:19:00Z</time></trkpt><trkpt lat="33.7328414" lon="133.1348854"><ele>1008.69</ele><time>2024-05-31T22:19:18Z</time></trkpt><trkpt lat="33.7325846" lon="133.1349067"><ele>1010.0500000000001</ele><time>2024-05-31T22:19:42Z</time></trkpt><trkpt lat="33.7324143" lon="133.134756"><ele>1016.73</ele><time>2024-05-31T22:20:06Z</time></trkpt><trkpt lat="33.7323323" lon="133.1349755"><ele>1015.3266666666667</ele><time>2024-05-31T22:20:12Z</time></trkpt><trkpt lat="33.7321644" lon="133.1347954"><ele>1019.3766666666667</ele><time>2024-05-31T22:20:36Z</time></trkpt><trkpt lat="33.7320196" lon="133.1345913"><ele>1021.36</ele><time>2024-05-31T22:20:48Z</time></trkpt><trkpt lat="33.731812" lon="133.1346575"><ele>1027.5333333333333</ele><time>2024-05-31T22:21:08Z</time></trkpt><trkpt lat="33.7316489" lon="133.1347685"><ele>1031.3133333333333</ele><time>2024-05-31T22:21:29Z</time></trkpt><trkpt lat="33.7314808" lon="133.1349023"><ele>1032.21</ele><time>2024-05-31T22:21:45Z</time></trkpt><trkpt lat="33.731301" lon="133.1350196"><ele>1034.1633333333332</ele><time>2024-05-31T22:22:06Z</time></trkpt><trkpt lat="33.731158" lon="133.1351537"><ele>1035.7866666666669</ele><time>2024-05-31T22:22:21Z</time></trkpt><trkpt lat="33.7309752" lon="133.1351618"><ele>1039.7333333333333</ele><time>2024-05-31T22:22:39Z</time></trkpt><trkpt lat="33.7308204" lon="133.1353604"><ele>1041.35</ele><time>2024-05-31T22:23:05Z</time></trkpt><trkpt lat="33.7306222" lon="133.1354746"><ele>1043.0433333333333</ele><time>2024-05-31T22:23:24Z</time></trkpt><trkpt lat="33.7304366" lon="133.1353851"><ele>1046.3766666666666</ele><time>2024-05-31T22:23:42Z</time></trkpt><trkpt lat="33.7302217" lon="133.135402"><ele>1051.18</ele><time>2024-05-31T22:24:06Z</time></trkpt><trkpt lat="33.7300982" lon="133.1352394"><ele>1058.5666666666666</ele><time>2024-05-31T22:24:24Z</time></trkpt><trkpt lat="33.7300234" lon="133.1354835"><ele>1061.0766666666668</ele><time>2024-05-31T22:24:51Z</time></trkpt><trkpt lat="33.7302231" lon="133.1355687"><ele>1061.4933333333336</ele><time>2024-05-31T22:25:06Z</time></trkpt><trkpt lat="33.7303389" lon="133.1357498"><ele>1059.0433333333335</ele><time>2024-05-31T22:25:24Z</time></trkpt><trkpt lat="33.7303455" lon="133.1359863"><ele>1060.5066666666667</ele><time>2024-05-31T22:25:42Z</time></trkpt><trkpt lat="33.7302754" lon="133.1362155"><ele>1065.0566666666666</ele><time>2024-05-31T22:26:09Z</time></trkpt><trkpt lat="33.7301503" lon="133.1363726"><ele>1070.1533333333334</ele><time>2024-05-31T22:26:24Z</time></trkpt><trkpt lat="33.7300989" lon="133.1365804"><ele>1072.74</ele><time>2024-05-31T22:26:39Z</time></trkpt><trkpt lat="33.7299915" lon="133.1367714"><ele>1075.2933333333333</ele><time>2024-05-31T22:27:15Z</time></trkpt><trkpt lat="33.7299659" lon="133.1369933"><ele>1081.01</ele><time>2024-05-31T22:28:21Z</time></trkpt><trkpt lat="33.7299004" lon="133.1372173"><ele>1087.1766666666665</ele><time>2024-05-31T22:28:57Z</time></trkpt><trkpt lat="33.729696" lon="133.1372357"><ele>1093.3966666666668</ele><time>2024-05-31T22:29:57Z</time></trkpt><trkpt lat="33.7295072" lon="133.1372093"><ele>1098.96</ele><time>2024-05-31T22:31:12Z</time></trkpt><trkpt lat="33.7293249" lon="133.1372496"><ele>1106.5333333333335</ele><time>2024-05-31T22:31:48Z</time></trkpt><trkpt lat="33.7291199" lon="133.1371996"><ele>1115.5233333333333</ele><time>2024-05-31T22:32:21Z</time></trkpt><trkpt lat="33.7289378" lon="133.1372416"><ele>1121.87</ele><time>2024-05-31T22:33:00Z</time></trkpt><trkpt lat="33.7287452" lon="133.1373053"><ele>1128.54</ele><time>2024-05-31T22:33:30Z</time></trkpt><trkpt lat="33.7285663" lon="133.1373979"><ele>1134.9833333333333</ele><time>2024-05-31T22:34:05Z</time></trkpt><trkpt lat="33.7283847" lon="133.1373925"><ele>1143.79</ele><time>2024-05-31T22:34:57Z</time></trkpt><trkpt lat="33.7281854" lon="133.1374419"><ele>1152.03</ele><time>2024-05-31T22:35:33Z</time></trkpt><trkpt lat="33.727967" lon="133.1374608"><ele>1160.1200000000001</ele><time>2024-05-31T22:35:57Z</time></trkpt><trkpt lat="33.7277873" lon="133.13757"><ele>1167.8133333333333</ele><time>2024-05-31T22:36:48Z</time></trkpt><trkpt lat="33.7275713" lon="133.1376214"><ele>1176.0033333333333</ele><time>2024-05-31T22:37:30Z</time></trkpt><trkpt lat="33.7274109" lon="133.1377351"><ele>1182.3233333333335</ele><time>2024-05-31T22:38:24Z</time></trkpt><trkpt lat="33.7272221" lon="133.1377324"><ele>1188.0166666666667</ele><time>2024-05-31T22:39:05Z</time></trkpt><trkpt lat="33.7270386" lon="133.1378322"><ele>1192.4466666666667</ele><time>2024-05-31T22:39:27Z</time></trkpt><trkpt lat="33.7268467" lon="133.1378822"><ele>1197.1033333333332</ele><time>2024-05-31T22:40:24Z</time></trkpt><trkpt lat="33.726663" lon="133.1377956"><ele>1201.39</ele><time>2024-05-31T22:40:48Z</time></trkpt><trkpt lat="33.7265114" lon="133.137677"><ele>1205.6866666666667</ele><time>2024-05-31T22:41:45Z</time></trkpt><trkpt lat="33.7263505" lon="133.137546"><ele>1210.9233333333332</ele><time>2024-05-31T22:42:06Z</time></trkpt><trkpt lat="33.7262198" lon="133.1373944"><ele>1216.4933333333336</ele><time>2024-05-31T22:46:57Z</time></trkpt><trkpt lat="33.7260399" lon="133.1373386"><ele>1223.7966666666669</ele><time>2024-05-31T22:48:12Z</time></trkpt><trkpt lat="33.7258696" lon="133.1372668"><ele>1231.2366666666667</ele><time>2024-05-31T22:49:00Z</time></trkpt><trkpt lat="33.7256882" lon="133.1372509"><ele>1238.1233333333332</ele><time>2024-05-31T22:49:36Z</time></trkpt><trkpt lat="33.7255074" lon="133.1372333"><ele>1242.6333333333334</ele><time>2024-05-31T22:50:09Z</time></trkpt><trkpt lat="33.7253076" lon="133.1371739"><ele>1246.4266666666667</ele><time>2024-05-31T22:50:42Z</time></trkpt><trkpt lat="33.7251132" lon="133.1371612"><ele>1249.7066666666667</ele><time>2024-05-31T22:51:15Z</time></trkpt><trkpt lat="33.7249178" lon="133.137051"><ele>1254.1733333333332</ele><time>2024-05-31T22:52:14Z</time></trkpt><trkpt lat="33.7247228" lon="133.1371545"><ele>1257.51</ele><time>2024-05-31T22:53:14Z</time></trkpt><trkpt lat="33.7245288" lon="133.1372394"><ele>1261.9866666666667</ele><time>2024-05-31T22:53:48Z</time></trkpt><trkpt lat="33.7243475" lon="133.1371405"><ele>1266.7766666666669</ele><time>2024-05-31T22:54:12Z</time></trkpt><trkpt lat="33.7241371" lon="133.1372091"><ele>1273.7033333333334</ele><time>2024-05-31T22:54:54Z</time></trkpt><trkpt lat="33.7239846" lon="133.1370922"><ele>1279.5466666666669</ele><time>2024-05-31T22:55:36Z</time></trkpt><trkpt lat="33.7237847" lon="133.1369517"><ele>1284.7066666666667</ele><time>2024-05-31T22:56:15Z</time></trkpt><trkpt lat="33.7236397" lon="133.1367829"><ele>1289.6100000000001</ele><time>2024-05-31T22:56:39Z</time></trkpt><trkpt lat="33.7234502" lon="133.1367557"><ele>1294.5233333333333</ele><time>2024-05-31T22:57:15Z</time></trkpt><trkpt lat="33.7232859" lon="133.1366649"><ele>1299.2766666666666</ele><time>2024-05-31T22:57:35Z</time></trkpt><trkpt lat="33.7231165" lon="133.1365818"><ele>1303.5033333333333</ele><time>2024-05-31T22:59:03Z</time></trkpt><trkpt lat="33.7229333" lon="133.1366988"><ele>1307.8700000000001</ele><time>2024-05-31T22:59:18Z</time></trkpt><trkpt lat="33.7227651" lon="133.136621"><ele>1312.8500000000001</ele><time>2024-05-31T22:59:42Z</time></trkpt><trkpt lat="33.7226152" lon="133.1367438"><ele>1316.7933333333333</ele><time>2024-05-31T23:00:01Z</time></trkpt><trkpt lat="33.7224558" lon="133.1366274"><ele>1321.256666666667</ele><time>2024-05-31T23:00:43Z</time></trkpt><trkpt lat="33.7222697" lon="133.1365595"><ele>1325.5933333333335</ele><time>2024-05-31T23:02:37Z</time></trkpt><trkpt lat="33.7221345" lon="133.1367183"><ele>1331.2566666666667</ele><time>2024-05-31T23:03:19Z</time></trkpt><trkpt lat="33.7220065" lon="133.1368844"><ele>1337.5</ele><time>2024-05-31T23:03:46Z</time></trkpt><trkpt lat="33.7218167" lon="133.1369669"><ele>1345.1733333333334</ele><time>2024-05-31T23:04:45Z</time></trkpt><trkpt lat="33.7215916" lon="133.1369739"><ele>1353.0966666666666</ele><time>2024-05-31T23:05:31Z</time></trkpt><trkpt lat="33.7214098" lon="133.1369514"><ele>1359.9566666666667</ele><time>2024-05-31T23:06:10Z</time></trkpt><trkpt lat="33.7212295" lon="133.1369683"><ele>1364.2333333333333</ele><time>2024-05-31T23:07:51Z</time></trkpt><trkpt lat="33.7210509" lon="133.1370118"><ele>1368.4466666666667</ele><time>2024-05-31T23:08:27Z</time></trkpt><trkpt lat="33.7208593" lon="133.1369581"><ele>1373.8366666666668</ele><time>2024-05-31T23:10:28Z</time></trkpt><trkpt lat="33.7206714" lon="133.1368777"><ele>1380.7066666666667</ele><time>2024-05-31T23:12:10Z</time></trkpt><trkpt lat="33.7205122" lon="133.1367719"><ele>1386.4399999999998</ele><time>2024-05-31T23:12:42Z</time></trkpt><trkpt lat="33.7203564" lon="133.1366351"><ele>1390.75</ele><time>2024-05-31T23:13:07Z</time></trkpt><trkpt lat="33.7201507" lon="133.1365354"><ele>1394.1333333333332</ele><time>2024-05-31T23:15:40Z</time></trkpt><trkpt lat="33.7199601" lon="133.1365094"><ele>1397.3633333333335</ele><time>2024-05-31T23:15:58Z</time></trkpt><trkpt lat="33.719806" lon="133.1367051"><ele>1401.3133333333335</ele><time>2024-05-31T23:16:19Z</time></trkpt><trkpt lat="33.7196582" lon="133.1368413"><ele>1405.0633333333333</ele><time>2024-05-31T23:17:04Z</time></trkpt><trkpt lat="33.7195235" lon="133.1370075"><ele>1410.3666666666668</ele><time>2024-05-31T23:17:39Z</time></trkpt><trkpt lat="33.719424" lon="133.1372032"><ele>1415.7900000000002</ele><time>2024-05-31T23:18:07Z</time></trkpt><trkpt lat="33.7194125" lon="133.1374531"><ele>1421.64</ele><time>2024-05-31T23:18:31Z</time></trkpt><trkpt lat="33.7193548" lon="133.1377174"><ele>1424.82</ele><time>2024-05-31T23:19:25Z</time></trkpt><trkpt lat="33.7192117" lon="133.1378752"><ele>1426.82</ele><time>2024-05-31T23:19:43Z</time></trkpt><trkpt lat="33.7192335" lon="133.1381135"><ele>1427.4666666666665</ele><time>2024-05-31T23:20:07Z</time></trkpt><trkpt lat="33.7192976" lon="133.1383807"><ele>1428.05</ele><time>2024-05-31T23:20:21Z</time></trkpt><trkpt lat="33.7194213" lon="133.1385862"><ele>1427.2733333333333</ele><time>2024-05-31T23:20:36Z</time></trkpt><trkpt lat="33.7195619" lon="133.1387321"><ele>1427.0733333333335</ele><time>2024-05-31T23:21:10Z</time></trkpt><trkpt lat="33.7197213" lon="133.1389289"><ele>1427.9966666666667</ele><time>2024-05-31T23:21:28Z</time></trkpt><trkpt lat="33.7198753" lon="133.1390628"><ele>1430.1366666666665</ele><time>2024-05-31T23:21:46Z</time></trkpt><trkpt lat="33.7200644" lon="133.1390832"><ele>1429.6266666666668</ele><time>2024-05-31T23:22:01Z</time></trkpt><trkpt lat="33.7202566" lon="133.1391603"><ele>1427.3133333333335</ele><time>2024-05-31T23:22:34Z</time></trkpt><trkpt lat="33.7204691" lon="133.1393104"><ele>1423.5466666666669</ele><time>2024-05-31T23:22:46Z</time></trkpt><trkpt lat="33.7206294" lon="133.1394246"><ele>1420.03</ele><time>2024-05-31T23:23:00Z</time></trkpt><trkpt lat="33.7208101" lon="133.1393941"><ele>1415.9033333333334</ele><time>2024-05-31T23:23:18Z</time></trkpt><trkpt lat="33.7209941" lon="133.1394206"><ele>1410.57</ele><time>2024-05-31T23:23:36Z</time></trkpt><trkpt lat="33.7211817" lon="133.1392998"><ele>1405.3033333333333</ele><time>2024-05-31T23:23:49Z</time></trkpt><trkpt lat="33.7213637" lon="133.1393938"><ele>1400.9266666666665</ele><time>2024-05-31T23:24:07Z</time></trkpt><trkpt lat="33.7215238" lon="133.1395788"><ele>1398.4633333333334</ele><time>2024-05-31T23:24:28Z</time></trkpt><trkpt lat="33.7214625" lon="133.1397913"><ele>1398.073333333333</ele><time>2024-05-31T23:24:43Z</time></trkpt><trkpt lat="33.72135" lon="133.1399618"><ele>1398.42</ele><time>2024-05-31T23:25:07Z</time></trkpt><trkpt lat="33.7212661" lon="133.1401563"><ele>1399.0866666666668</ele><time>2024-05-31T23:25:34Z</time></trkpt><trkpt lat="33.721213" lon="133.1403864"><ele>1399.22</ele><time>2024-05-31T23:25:57Z</time></trkpt><trkpt lat="33.7211741" lon="133.1406657"><ele>1399.2533333333333</ele><time>2024-05-31T23:26:34Z</time></trkpt><trkpt lat="33.7211744" lon="133.1408815"><ele>1399.2066666666667</ele><time>2024-05-31T23:28:43Z</time></trkpt><trkpt lat="33.7212725" lon="133.1410672"><ele>1399.1366666666665</ele><time>2024-05-31T23:29:19Z</time></trkpt><trkpt lat="33.7213645" lon="133.1413037"><ele>1399.3433333333335</ele><time>2024-05-31T23:29:38Z</time></trkpt><trkpt lat="33.7215301" lon="133.1413939"><ele>1399.3433333333332</ele><time>2024-05-31T23:29:51Z</time></trkpt><trkpt lat="33.7214016" lon="133.1412028"><ele>1399.4833333333336</ele><time>2024-05-31T23:30:44Z</time></trkpt><trkpt lat="33.7211979" lon="133.1412668"><ele>1400.1233333333337</ele><time>2024-05-31T23:31:16Z</time></trkpt><trkpt lat="33.7210287" lon="133.1414157"><ele>1401.8700000000001</ele><time>2024-05-31T23:31:40Z</time></trkpt><trkpt lat="33.7208329" lon="133.1414382"><ele>1405.0466666666669</ele><time>2024-05-31T23:32:07Z</time></trkpt><trkpt lat="33.7207304" lon="133.1416454"><ele>1408.5033333333333</ele><time>2024-05-31T23:33:02Z</time></trkpt><trkpt lat="33.720551" lon="133.141714"><ele>1413.6366666666665</ele><time>2024-05-31T23:34:20Z</time></trkpt><trkpt lat="33.7203985" lon="133.141834"><ele>1419.5666666666666</ele><time>2024-05-31T23:34:38Z</time></trkpt><trkpt lat="33.720221" lon="133.1419113"><ele>1427.1866666666665</ele><time>2024-05-31T23:35:35Z</time></trkpt><trkpt lat="33.7200525" lon="133.1420194"><ele>1436.1666666666667</ele><time>2024-05-31T23:36:50Z</time></trkpt><trkpt lat="33.7198725" lon="133.1420482"><ele>1445.2299999999998</ele><time>2024-05-31T23:37:44Z</time></trkpt><trkpt lat="33.7196918" lon="133.1421496"><ele>1454.7633333333333</ele><time>2024-05-31T23:38:14Z</time></trkpt><trkpt lat="33.7195394" lon="133.1422813"><ele>1463.2266666666667</ele><time>2024-05-31T23:40:07Z</time></trkpt><trkpt lat="33.7194048" lon="133.1424313"><ele>1472.7200000000003</ele><time>2024-05-31T23:42:19Z</time></trkpt><trkpt lat="33.7192066" lon="133.1424924"><ele>1483.0366666666669</ele><time>2024-05-31T23:43:54Z</time></trkpt><trkpt lat="33.7190513" lon="133.1426034"><ele>1495.4466666666667</ele><time>2024-05-31T23:45:31Z</time></trkpt><trkpt lat="33.718867" lon="133.1426021"><ele>1506.4833333333333</ele><time>2024-05-31T23:46:58Z</time></trkpt><trkpt lat="33.7187018" lon="133.1426986"><ele>1516.7033333333336</ele><time>2024-05-31T23:48:01Z</time></trkpt><trkpt lat="33.7186068" lon="133.1428827"><ele>1526.1166666666668</ele><time>2024-05-31T23:49:16Z</time></trkpt><trkpt lat="33.7184519" lon="133.1430152"><ele>1535.6866666666667</ele><time>2024-05-31T23:50:34Z</time></trkpt><trkpt lat="33.7184506" lon="133.1432332"><ele>1544.46</ele><time>2024-05-31T23:51:52Z</time></trkpt><trkpt lat="33.718356" lon="133.1430172"><ele>1547.4766666666667</ele><time>2024-05-31T23:59:39Z</time></trkpt><trkpt lat="33.7181943" lon="133.1429054"><ele>1549.6666666666667</ele><time>2024-06-01T00:00:06Z</time></trkpt><trkpt lat="33.7180807" lon="133.142727"><ele>1549.2533333333333</ele><time>2024-06-01T00:00:39Z</time></trkpt><trkpt lat="33.717989" lon="133.1425303"><ele>1549.7733333333333</ele><time>2024-06-01T00:01:51Z</time></trkpt><trkpt lat="33.7178704" lon="133.1423586"><ele>1548.51</ele><time>2024-06-01T00:03:03Z</time></trkpt><trkpt lat="33.7177067" lon="133.1422481"><ele>1547.0633333333333</ele><time>2024-06-01T00:04:12Z</time></trkpt><trkpt lat="33.7175518" lon="133.1421374"><ele>1545.3999999999999</ele><time>2024-06-01T00:05:39Z</time></trkpt><trkpt lat="33.7174208" lon="133.1419744"><ele>1544.1033333333335</ele><time>2024-06-01T00:06:09Z</time></trkpt><trkpt lat="33.7172804" lon="133.1418247"><ele>1543.6966666666667</ele><time>2024-06-01T00:06:45Z</time></trkpt><trkpt lat="33.717161" lon="133.1416614"><ele>1546.4533333333331</ele><time>2024-06-01T00:08:03Z</time></trkpt><trkpt lat="33.717075" lon="133.1414623"><ele>1550.8766666666668</ele><time>2024-06-01T00:09:39Z</time></trkpt><trkpt lat="33.7169044" lon="133.1413877"><ele>1557.5266666666666</ele><time>2024-06-01T00:10:54Z</time></trkpt><trkpt lat="33.7167376" lon="133.1412778"><ele>1563.46</ele><time>2024-06-01T00:12:00Z</time></trkpt><trkpt lat="33.7165608" lon="133.1412081"><ele>1570.3266666666668</ele><time>2024-06-01T00:12:48Z</time></trkpt><trkpt lat="33.7163994" lon="133.1411008"><ele>1577.6933333333334</ele><time>2024-06-01T00:14:57Z</time></trkpt><trkpt lat="33.7162772" lon="133.1409399"><ele>1584.64</ele><time>2024-06-01T00:16:06Z</time></trkpt><trkpt lat="33.7161006" lon="133.1408555"><ele>1589.7366666666667</ele><time>2024-06-01T00:17:36Z</time></trkpt><trkpt lat="33.7160571" lon="133.1406399"><ele>1592.9400000000003</ele><time>2024-06-01T00:19:15Z</time></trkpt><trkpt lat="33.7160088" lon="133.1404159"><ele>1595.92</ele><time>2024-06-01T00:20:09Z</time></trkpt><trkpt lat="33.7160079" lon="133.1401968"><ele>1598.6066666666666</ele><time>2024-06-01T00:20:51Z</time></trkpt><trkpt lat="33.7159431" lon="133.1399924"><ele>1600.17</ele><time>2024-06-01T00:22:06Z</time></trkpt><trkpt lat="33.7157767" lon="133.139899"><ele>1600.9966666666667</ele><time>2024-06-01T00:24:09Z</time></trkpt><trkpt lat="33.7155872" lon="133.1399049"><ele>1598.8733333333332</ele><time>2024-06-01T00:26:15Z</time></trkpt><trkpt lat="33.7154112" lon="133.1399521"><ele>1591.7133333333334</ele><time>2024-06-01T00:27:27Z</time></trkpt><trkpt lat="33.7152326" lon="133.1400028"><ele>1580.9033333333334</ele><time>2024-06-01T00:28:33Z</time></trkpt><trkpt lat="33.7150476" lon="133.1400546"><ele>1567.8266666666668</ele><time>2024-06-01T00:30:18Z</time></trkpt><trkpt lat="33.7148735" lon="133.1401477"><ele>1556.13</ele><time>2024-06-01T00:32:21Z</time></trkpt><trkpt lat="33.7147072" lon="133.1402343"><ele>1545.03</ele><time>2024-06-01T00:33:18Z</time></trkpt><trkpt lat="33.7145324" lon="133.1403116"><ele>1536.8166666666666</ele><time>2024-06-01T00:33:51Z</time></trkpt><trkpt lat="33.7143391" lon="133.1403107"><ele>1531.5033333333333</ele><time>2024-06-01T00:35:30Z</time></trkpt><trkpt lat="33.7141666" lon="133.1403766"><ele>1527.1833333333334</ele><time>2024-06-01T00:36:15Z</time></trkpt><trkpt lat="33.7139731" lon="133.1404339"><ele>1521.6366666666665</ele><time>2024-06-01T00:37:09Z</time></trkpt><trkpt lat="33.7138024" lon="133.140519"><ele>1515.3500000000001</ele><time>2024-06-01T00:37:45Z</time></trkpt><trkpt lat="33.7136409" lon="133.1406158"><ele>1509.18</ele><time>2024-06-01T00:38:30Z</time></trkpt><trkpt lat="33.7134546" lon="133.1406694"><ele>1504.1500000000003</ele><time>2024-06-01T00:39:06Z</time></trkpt><trkpt lat="33.713284" lon="133.1407559"><ele>1497.9066666666668</ele><time>2024-06-01T00:39:45Z</time></trkpt><trkpt lat="33.7130991" lon="133.1407713"><ele>1493.6666666666667</ele><time>2024-06-01T00:41:27Z</time></trkpt><trkpt lat="33.712926" lon="133.1407016"><ele>1489.7466666666667</ele><time>2024-06-01T00:42:15Z</time></trkpt><trkpt lat="33.7127627" lon="133.1407989"><ele>1485.9233333333334</ele><time>2024-06-01T00:43:51Z</time></trkpt><trkpt lat="33.7126405" lon="133.1409619"><ele>1479.8833333333334</ele><time>2024-06-01T00:44:45Z</time></trkpt><trkpt lat="33.7124857" lon="133.1411023"><ele>1470.99</ele><time>2024-06-01T00:45:30Z</time></trkpt><trkpt lat="33.7123094" lon="133.1411896"><ele>1461.42</ele><time>2024-06-01T00:46:15Z</time></trkpt><trkpt lat="33.7121627" lon="133.1413237"><ele>1451.4166666666667</ele><time>2024-06-01T00:47:24Z</time></trkpt><trkpt lat="33.7120495" lon="133.1414947"><ele>1445.2633333333333</ele><time>2024-06-01T00:47:51Z</time></trkpt><trkpt lat="33.7119165" lon="133.1416604"><ele>1442.18</ele><time>2024-06-01T00:49:12Z</time></trkpt><trkpt lat="33.7117374" lon="133.1416239"><ele>1441.2233333333334</ele><time>2024-06-01T00:50:03Z</time></trkpt><trkpt lat="33.7115612" lon="133.1415433"><ele>1441.3933333333334</ele><time>2024-06-01T00:50:24Z</time></trkpt><trkpt lat="33.7113774" lon="133.1415556"><ele>1440.6533333333334</ele><time>2024-06-01T00:50:54Z</time></trkpt><trkpt lat="33.7111846" lon="133.1415448"><ele>1440.17</ele><time>2024-06-01T00:51:21Z</time></trkpt><trkpt lat="33.7109928" lon="133.1415104"><ele>1439.58</ele><time>2024-06-01T00:51:51Z</time></trkpt><trkpt lat="33.7108153" lon="133.1414481"><ele>1440.71</ele><time>2024-06-01T00:52:15Z</time></trkpt><trkpt lat="33.7106238" lon="133.1414289"><ele>1442.53</ele><time>2024-06-01T00:52:51Z</time></trkpt><trkpt lat="33.7104378" lon="133.1413838"><ele>1445.8033333333333</ele><time>2024-06-01T00:53:27Z</time></trkpt><trkpt lat="33.7102512" lon="133.1413723"><ele>1448.68</ele><time>2024-06-01T00:54:15Z</time></trkpt><trkpt lat="33.7101245" lon="133.1415264"><ele>1450.7466666666667</ele><time>2024-06-01T01:00:33Z</time></trkpt><trkpt lat="33.7100263" lon="133.1417206"><ele>1451.0433333333333</ele><time>2024-06-01T01:01:21Z</time></trkpt><trkpt lat="33.7099831" lon="133.1419637"><ele>1450.61</ele><time>2024-06-01T01:02:21Z</time></trkpt><trkpt lat="33.7099259" lon="133.1421849"><ele>1449.3866666666665</ele><time>2024-06-01T01:02:42Z</time></trkpt><trkpt lat="33.7098136" lon="133.1423691"><ele>1449.86</ele><time>2024-06-01T01:03:09Z</time></trkpt><trkpt lat="33.7096627" lon="133.142523"><ele>1452.6366666666665</ele><time>2024-06-01T01:03:45Z</time></trkpt><trkpt lat="33.7095652" lon="133.1427187"><ele>1457.3466666666666</ele><time>2024-06-01T01:04:27Z</time></trkpt><trkpt lat="33.7094475" lon="133.1428945"><ele>1461.3233333333335</ele><time>2024-06-01T01:05:18Z</time></trkpt><trkpt lat="33.709284" lon="133.1429864"><ele>1464.8700000000001</ele><time>2024-06-01T01:06:18Z</time></trkpt><trkpt lat="33.7091152" lon="133.1430651"><ele>1470.0033333333333</ele><time>2024-06-01T01:07:54Z</time></trkpt><trkpt lat="33.7089562" lon="133.1431734"><ele>1476.0233333333335</ele><time>2024-06-01T01:08:51Z</time></trkpt><trkpt lat="33.708809" lon="133.1433035"><ele>1482.9866666666667</ele><time>2024-06-01T01:10:06Z</time></trkpt><trkpt lat="33.7086527" lon="133.1434125"><ele>1489.926666666667</ele><time>2024-06-01T01:11:00Z</time></trkpt><trkpt lat="33.7084698" lon="133.1433818"><ele>1496.4933333333336</ele><time>2024-06-01T01:12:03Z</time></trkpt><trkpt lat="33.7085579" lon="133.1435774"><ele>1500.2166666666665</ele><time>2024-06-01T01:14:00Z</time></trkpt><trkpt lat="33.7084758" lon="133.1437937"><ele>1500.0533333333333</ele><time>2024-06-01T01:15:42Z</time></trkpt><trkpt lat="33.7083528" lon="133.1439545"><ele>1495.6033333333332</ele><time>2024-06-01T01:16:21Z</time></trkpt><trkpt lat="33.7082084" lon="133.1440845"><ele>1489.4966666666667</ele><time>2024-06-01T01:16:57Z</time></trkpt><trkpt lat="33.7080365" lon="133.1441549"><ele>1486.5</ele><time>2024-06-01T01:17:45Z</time></trkpt><trkpt lat="33.7079086" lon="133.1443102"><ele>1487.0266666666666</ele><time>2024-06-01T01:18:18Z</time></trkpt><trkpt lat="33.7077821" lon="133.1444782"><ele>1491.0766666666666</ele><time>2024-06-01T01:19:06Z</time></trkpt><trkpt lat="33.7076804" lon="133.1446658"><ele>1496.7833333333335</ele><time>2024-06-01T01:20:27Z</time></trkpt><trkpt lat="33.7076199" lon="133.1448762"><ele>1502.9033333333334</ele><time>2024-06-01T01:22:57Z</time></trkpt><trkpt lat="33.7074685" lon="133.1449934"><ele>1510.4800000000002</ele><time>2024-06-01T01:24:12Z</time></trkpt><trkpt lat="33.7072918" lon="133.1450411"><ele>1515.43</ele><time>2024-06-01T01:24:51Z</time></trkpt><trkpt lat="33.7071055" lon="133.1450339"><ele>1518.78</ele><time>2024-06-01T01:25:57Z</time></trkpt><trkpt lat="33.7069443" lon="133.1451401"><ele>1516.5466666666664</ele><time>2024-06-01T01:27:24Z</time></trkpt><trkpt lat="33.706773" lon="133.1452219"><ele>1511.4166666666667</ele><time>2024-06-01T01:28:15Z</time></trkpt><trkpt lat="33.7065974" lon="133.1452983"><ele>1505.49</ele><time>2024-06-01T01:28:54Z</time></trkpt><trkpt lat="33.7064547" lon="133.1454385"><ele>1502.7</ele><time>2024-06-01T01:29:42Z</time></trkpt><trkpt lat="33.7062765" lon="133.1455059"><ele>1503.1599999999999</ele><time>2024-06-01T01:30:24Z</time></trkpt><trkpt lat="33.7060939" lon="133.1455794"><ele>1505.39</ele><time>2024-06-01T01:31:27Z</time></trkpt><trkpt lat="33.7059401" lon="133.1454651"><ele>1508.0</ele><time>2024-06-01T01:31:57Z</time></trkpt><trkpt lat="33.7057814" lon="133.14534"><ele>1509.21</ele><time>2024-06-01T01:32:33Z</time></trkpt><trkpt lat="33.7056196" lon="133.1452186"><ele>1508.006666666667</ele><time>2024-06-01T01:33:18Z</time></trkpt><trkpt lat="33.7054732" lon="133.1450825"><ele>1507.0333333333335</ele><time>2024-06-01T01:38:15Z</time></trkpt><trkpt lat="33.7053104" lon="133.1449626"><ele>1507.0333333333335</ele><time>2024-06-01T01:39:06Z</time></trkpt><trkpt lat="33.7051542" lon="133.1448454"><ele>1510.2366666666667</ele><time>2024-06-01T01:40:03Z</time></trkpt><trkpt lat="33.7049946" lon="133.1447387"><ele>1512.966666666667</ele><time>2024-06-01T01:41:30Z</time></trkpt><trkpt lat="33.704833" lon="133.1446283"><ele>1517.2</ele><time>2024-06-01T01:42:48Z</time></trkpt><trkpt lat="33.7046571" lon="133.1445668"><ele>1522.3233333333335</ele><time>2024-06-01T01:45:00Z</time></trkpt><trkpt lat="33.7044916" lon="133.1444598"><ele>1528.0600000000002</ele><time>2024-06-01T01:46:18Z</time></trkpt><trkpt lat="33.7043626" lon="133.1443004"><ele>1532.6200000000001</ele><time>2024-06-01T01:47:15Z</time></trkpt><trkpt lat="33.7042421" lon="133.1441305"><ele>1536.216666666667</ele><time>2024-06-01T01:49:21Z</time></trkpt><trkpt lat="33.7041362" lon="133.1439451"><ele>1538.3166666666666</ele><time>2024-06-01T01:51:54Z</time></trkpt><trkpt lat="33.7042104" lon="133.143747"><ele>1535.4266666666665</ele><time>2024-06-01T01:54:48Z</time></trkpt><trkpt lat="33.7040559" lon="133.1436126"><ele>1533.7866666666669</ele><time>2024-06-01T01:55:33Z</time></trkpt><trkpt lat="33.7039429" lon="133.14344"><ele>1534.2466666666667</ele><time>2024-06-01T01:57:09Z</time></trkpt><trkpt lat="33.7038259" lon="133.1432561"><ele>1541.9066666666668</ele><time>2024-06-01T01:59:12Z</time></trkpt><trkpt lat="33.7037181" lon="133.1430787"><ele>1548.3999999999999</ele><time>2024-06-01T02:01:48Z</time></trkpt><trkpt lat="33.7036479" lon="133.1428778"><ele>1552.2533333333333</ele><time>2024-06-01T02:05:09Z</time></trkpt><trkpt lat="33.7035079" lon="133.1427284"><ele>1556.13</ele><time>2024-06-01T02:07:12Z</time></trkpt><trkpt lat="33.7034623" lon="133.1425187"><ele>1561.6566666666668</ele><time>2024-06-01T02:08:57Z</time></trkpt><trkpt lat="33.7033334" lon="133.1423672"><ele>1570.6966666666667</ele><time>2024-06-01T02:12:51Z</time></trkpt><trkpt lat="33.7032359" lon="133.1421777"><ele>1576.8933333333334</ele><time>2024-06-01T02:14:00Z</time></trkpt><trkpt lat="33.7033183" lon="133.1423731"><ele>1579.6733333333332</ele><time>2024-06-01T02:31:03Z</time></trkpt><trkpt lat="33.7034953" lon="133.1424376"><ele>1574.993333333333</ele><time>2024-06-01T02:38:57Z</time></trkpt><trkpt lat="33.70347" lon="133.1426584"><ele>1570.5266666666666</ele><time>2024-06-01T02:45:03Z</time></trkpt><trkpt lat="33.703541" lon="133.142859"><ele>1564.8533333333335</ele><time>2024-06-01T02:46:33Z</time></trkpt><trkpt lat="33.7036454" lon="133.1430476"><ele>1562.0100000000002</ele><time>2024-06-01T02:48:42Z</time></trkpt><trkpt lat="33.7037666" lon="133.1432086"><ele>1557.8000000000002</ele><time>2024-06-01T02:51:33Z</time></trkpt><trkpt lat="33.7039194" lon="133.1433525"><ele>1552.07</ele><time>2024-06-01T02:52:09Z</time></trkpt><trkpt lat="33.7039939" lon="133.1435659"><ele>1544.9800000000002</ele><time>2024-06-01T02:52:57Z</time></trkpt><trkpt lat="33.7041333" lon="133.1437084"><ele>1538.0533333333333</ele><time>2024-06-01T02:53:39Z</time></trkpt><trkpt lat="33.7042321" lon="133.143896"><ele>1533.4466666666667</ele><time>2024-06-01T02:54:18Z</time></trkpt><trkpt lat="33.7043123" lon="133.1440902"><ele>1534.1833333333334</ele><time>2024-06-01T02:55:12Z</time></trkpt><trkpt lat="33.7043752" lon="133.1442991"><ele>1534.9433333333334</ele><time>2024-06-01T02:56:03Z</time></trkpt><trkpt lat="33.7044904" lon="133.1444859"><ele>1535.5</ele><time>2024-06-01T02:57:18Z</time></trkpt><trkpt lat="33.7046228" lon="133.1446352"><ele>1532.6833333333334</ele><time>2024-06-01T02:58:12Z</time></trkpt><trkpt lat="33.7047947" lon="133.1447037"><ele>1527.38</ele><time>2024-06-01T02:59:00Z</time></trkpt><trkpt lat="33.7049636" lon="133.1447938"><ele>1520.7233333333334</ele><time>2024-06-01T02:59:42Z</time></trkpt><trkpt lat="33.7051426" lon="133.1448355"><ele>1515.5366666666669</ele><time>2024-06-01T03:00:18Z</time></trkpt><trkpt lat="33.7053253" lon="133.144906"><ele>1512.6366666666665</ele><time>2024-06-01T03:01:15Z</time></trkpt><trkpt lat="33.7054365" lon="133.1450928"><ele>1510.8266666666666</ele><time>2024-06-01T03:02:06Z</time></trkpt><trkpt lat="33.7056003" lon="133.1452008"><ele>1507.6233333333332</ele><time>2024-06-01T03:02:51Z</time></trkpt><trkpt lat="33.7057536" lon="133.1453345"><ele>1506.3100000000002</ele><time>2024-06-01T03:03:45Z</time></trkpt><trkpt lat="33.7059147" lon="133.1454511"><ele>1507.243333333333</ele><time>2024-06-01T03:04:36Z</time></trkpt><trkpt lat="33.7060878" lon="133.1455507"><ele>1508.4466666666667</ele><time>2024-06-01T03:05:33Z</time></trkpt><trkpt lat="33.7062807" lon="133.1455365"><ele>1507.1966666666667</ele><time>2024-06-01T03:06:39Z</time></trkpt><trkpt lat="33.7064617" lon="133.1454565"><ele>1503.9633333333334</ele><time>2024-06-01T03:07:30Z</time></trkpt><trkpt lat="33.7066162" lon="133.1453353"><ele>1501.7333333333333</ele><time>2024-06-01T03:08:15Z</time></trkpt><trkpt lat="33.7067853" lon="133.1452283"><ele>1501.9566666666667</ele><time>2024-06-01T03:09:21Z</time></trkpt><trkpt lat="33.7069576" lon="133.145158"><ele>1505.4099999999999</ele><time>2024-06-01T03:22:00Z</time></trkpt><trkpt lat="33.7071347" lon="133.1450918"><ele>1511.66</ele><time>2024-06-01T03:23:33Z</time></trkpt><trkpt lat="33.7073199" lon="133.1450529"><ele>1516.8700000000001</ele><time>2024-06-01T03:25:12Z</time></trkpt><trkpt lat="33.7074936" lon="133.1449799"><ele>1517.68</ele><time>2024-06-01T03:26:12Z</time></trkpt><trkpt lat="33.7076539" lon="133.1448738"><ele>1512.006666666667</ele><time>2024-06-01T03:27:42Z</time></trkpt><trkpt lat="33.7077318" lon="133.1446762"><ele>1505.1333333333334</ele><time>2024-06-01T03:29:06Z</time></trkpt><trkpt lat="33.7078218" lon="133.1444558"><ele>1498.9800000000002</ele><time>2024-06-01T03:29:57Z</time></trkpt><trkpt lat="33.7079511" lon="133.1442771"><ele>1493.4066666666668</ele><time>2024-06-01T03:30:36Z</time></trkpt><trkpt lat="33.7080896" lon="133.1441282"><ele>1489.0199999999998</ele><time>2024-06-01T03:31:03Z</time></trkpt><trkpt lat="33.7082694" lon="133.1440482"><ele>1486.6733333333334</ele><time>2024-06-01T03:31:51Z</time></trkpt><trkpt lat="33.7084378" lon="133.1439566"><ele>1487.3933333333334</ele><time>2024-06-01T03:32:45Z</time></trkpt><trkpt lat="33.7085529" lon="133.1437811"><ele>1490.76</ele><time>2024-06-01T03:33:27Z</time></trkpt><trkpt lat="33.7086043" lon="133.1435613"><ele>1495.04</ele><time>2024-06-01T03:34:51Z</time></trkpt><trkpt lat="33.7087264" lon="133.1433874"><ele>1496.9033333333334</ele><time>2024-06-01T03:36:39Z</time></trkpt><trkpt lat="33.7088848" lon="133.1432467"><ele>1493.3400000000001</ele><time>2024-06-01T03:37:18Z</time></trkpt><trkpt lat="33.7090358" lon="133.1431042"><ele>1486.3166666666668</ele><time>2024-06-01T03:37:48Z</time></trkpt><trkpt lat="33.709225" lon="133.1430265"><ele>1479.0633333333335</ele><time>2024-06-01T03:38:18Z</time></trkpt><trkpt lat="33.7093996" lon="133.1429446"><ele>1472.8666666666668</ele><time>2024-06-01T03:38:48Z</time></trkpt><trkpt lat="33.7095468" lon="133.1427955"><ele>1467.493333333333</ele><time>2024-06-01T03:39:15Z</time></trkpt><trkpt lat="33.7096617" lon="133.1426168"><ele>1463.1233333333332</ele><time>2024-06-01T03:39:39Z</time></trkpt><trkpt lat="33.7097873" lon="133.1424527"><ele>1458.0533333333333</ele><time>2024-06-01T03:40:06Z</time></trkpt><trkpt lat="33.7099171" lon="133.1423004"><ele>1453.1866666666665</ele><time>2024-06-01T03:40:45Z</time></trkpt><trkpt lat="33.710011" lon="133.1421068"><ele>1448.4633333333334</ele><time>2024-06-01T03:41:03Z</time></trkpt><trkpt lat="33.7100366" lon="133.1418807"><ele>1447.07</ele><time>2024-06-01T03:41:27Z</time></trkpt><trkpt lat="33.7101054" lon="133.1416699"><ele>1447.1533333333334</ele><time>2024-06-01T03:42:03Z</time></trkpt><trkpt lat="33.7102079" lon="133.141491"><ele>1449.1366666666665</ele><time>2024-06-01T03:42:51Z</time></trkpt><trkpt lat="33.7103799" lon="133.1414034"><ele>1450.08</ele><time>2024-06-01T03:51:12Z</time></trkpt><trkpt lat="33.7105692" lon="133.1414544"><ele>1448.57</ele><time>2024-06-01T03:51:42Z</time></trkpt><trkpt lat="33.7107504" lon="133.1414653"><ele>1446.0566666666666</ele><time>2024-06-01T03:52:09Z</time></trkpt><trkpt lat="33.7109323" lon="133.1415062"><ele>1443.4933333333336</ele><time>2024-06-01T03:52:30Z</time></trkpt><trkpt lat="33.7111196" lon="133.1415511"><ele>1441.8633333333335</ele><time>2024-06-01T03:52:57Z</time></trkpt><trkpt lat="33.7113063" lon="133.1415668"><ele>1440.5266666666666</ele><time>2024-06-01T03:53:27Z</time></trkpt><trkpt lat="33.7114926" lon="133.1415892"><ele>1440.0266666666666</ele><time>2024-06-01T03:53:54Z</time></trkpt><trkpt lat="33.711688" lon="133.1416091"><ele>1440.0900000000001</ele><time>2024-06-01T03:54:36Z</time></trkpt><trkpt lat="33.7118837" lon="133.1416696"><ele>1440.93</ele><time>2024-06-01T03:55:18Z</time></trkpt><trkpt lat="33.7120534" lon="133.1415797"><ele>1440.6766666666665</ele><time>2024-06-01T03:55:45Z</time></trkpt><trkpt lat="33.7121548" lon="133.1413978"><ele>1440.8666666666668</ele><time>2024-06-01T03:56:18Z</time></trkpt><trkpt lat="33.7123369" lon="133.1413175"><ele>1442.7033333333336</ele><time>2024-06-01T03:57:48Z</time></trkpt><trkpt lat="33.7125244" lon="133.1413306"><ele>1448.03</ele><time>2024-06-01T04:00:12Z</time></trkpt><trkpt lat="33.7126933" lon="133.1412507"><ele>1454.7066666666667</ele><time>2024-06-01T04:02:51Z</time></trkpt><trkpt lat="33.7128428" lon="133.1411247"><ele>1463.1966666666667</ele><time>2024-06-01T04:05:33Z</time></trkpt><trkpt lat="33.7130038" lon="133.1410249"><ele>1471.1633333333332</ele><time>2024-06-01T04:08:27Z</time></trkpt><trkpt lat="33.713139" lon="133.1408761"><ele>1480.3166666666666</ele><time>2024-06-01T04:10:51Z</time></trkpt><trkpt lat="33.7133055" lon="133.1407755"><ele>1486.4666666666665</ele><time>2024-06-01T04:12:39Z</time></trkpt><trkpt lat="33.7134773" lon="133.1406833"><ele>1492.4566666666667</ele><time>2024-06-01T04:13:48Z</time></trkpt><trkpt lat="33.7136617" lon="133.1406635"><ele>1496.5333333333335</ele><time>2024-06-01T04:14:36Z</time></trkpt><trkpt lat="33.7138326" lon="133.1405635"><ele>1502.7766666666666</ele><time>2024-06-01T04:15:33Z</time></trkpt><trkpt lat="33.7140058" lon="133.1404659"><ele>1507.9366666666667</ele><time>2024-06-01T04:16:24Z</time></trkpt><trkpt lat="33.7141849" lon="133.1404105"><ele>1513.7300000000002</ele><time>2024-06-01T04:17:09Z</time></trkpt><trkpt lat="33.7143606" lon="133.1403408"><ele>1520.5900000000001</ele><time>2024-06-01T04:18:57Z</time></trkpt><trkpt lat="33.7145442" lon="133.1403426"><ele>1526.006666666667</ele><time>2024-06-01T04:20:15Z</time></trkpt><trkpt lat="33.7147203" lon="133.1402622"><ele>1532.0766666666666</ele><time>2024-06-01T04:21:06Z</time></trkpt><trkpt lat="33.7148891" lon="133.140186"><ele>1536.8166666666666</ele><time>2024-06-01T04:31:24Z</time></trkpt><trkpt lat="33.7150611" lon="133.1401202"><ele>1546.243333333333</ele><time>2024-06-01T04:33:39Z</time></trkpt><trkpt lat="33.7152383" lon="133.1400735"><ele>1556.89</ele><time>2024-06-01T04:35:45Z</time></trkpt><trkpt lat="33.7154211" lon="133.1400342"><ele>1569.0600000000002</ele><time>2024-06-01T04:38:39Z</time></trkpt><trkpt lat="33.7155979" lon="133.1399753"><ele>1579.0566666666666</ele><time>2024-06-01T04:42:18Z</time></trkpt><trkpt lat="33.7157798" lon="133.1399379"><ele>1590.32</ele><time>2024-06-01T04:49:03Z</time></trkpt><trkpt lat="33.7159294" lon="133.1400599"><ele>1597.0</ele><time>2024-06-01T04:51:36Z</time></trkpt><trkpt lat="33.7160264" lon="133.1402573"><ele>1600.9333333333332</ele><time>2024-06-01T05:00:51Z</time></trkpt><trkpt lat="33.7160657" lon="133.1404712"><ele>1599.55</ele><time>2024-06-01T05:02:09Z</time></trkpt><trkpt lat="33.7161366" lon="133.1406798"><ele>1597.1666666666667</ele><time>2024-06-01T05:02:48Z</time></trkpt><trkpt lat="33.716196" lon="133.1408881"><ele>1594.8666666666668</ele><time>2024-06-01T05:03:42Z</time></trkpt><trkpt lat="33.7163084" lon="133.141069"><ele>1592.3833333333332</ele><time>2024-06-01T05:04:51Z</time></trkpt><trkpt lat="33.716442" lon="133.1412411"><ele>1588.61</ele><time>2024-06-01T05:05:42Z</time></trkpt><trkpt lat="33.7166182" lon="133.1413443"><ele>1581.9966666666667</ele><time>2024-06-01T05:06:27Z</time></trkpt><trkpt lat="33.7168" lon="133.1413469"><ele>1574.2066666666667</ele><time>2024-06-01T05:06:54Z</time></trkpt><trkpt lat="33.7169957" lon="133.1413886"><ele>1566.9333333333332</ele><time>2024-06-01T05:07:36Z</time></trkpt><trkpt lat="33.7171069" lon="133.1415696"><ele>1560.9633333333331</ele><time>2024-06-01T05:08:21Z</time></trkpt><trkpt lat="33.7172145" lon="133.1417623"><ele>1554.8</ele><time>2024-06-01T05:08:57Z</time></trkpt><trkpt lat="33.7173531" lon="133.141928"><ele>1548.9766666666667</ele><time>2024-06-01T05:09:30Z</time></trkpt><trkpt lat="33.7174851" lon="133.1420913"><ele>1544.8833333333334</ele><time>2024-06-01T05:10:00Z</time></trkpt><trkpt lat="33.7176436" lon="133.1422227"><ele>1543.7933333333333</ele><time>2024-06-01T05:10:48Z</time></trkpt><trkpt lat="33.7177947" lon="133.1423756"><ele>1546.04</ele><time>2024-06-01T05:11:15Z</time></trkpt><trkpt lat="33.7179507" lon="133.1425067"><ele>1548.17</ele><time>2024-06-01T05:11:54Z</time></trkpt><trkpt lat="33.7180888" lon="133.1426624"><ele>1549.7033333333336</ele><time>2024-06-01T05:12:36Z</time></trkpt><trkpt lat="33.7181318" lon="133.1428743"><ele>1549.7300000000002</ele><time>2024-06-01T05:13:30Z</time></trkpt><trkpt lat="33.7182473" lon="133.1430401"><ele>1550.0933333333332</ele><time>2024-06-01T05:14:36Z</time></trkpt><trkpt lat="33.7184053" lon="133.1431813"><ele>1550.5766666666668</ele><time>2024-06-01T05:15:21Z</time></trkpt><trkpt lat="33.7185445" lon="133.1430291"><ele>1547.8366666666668</ele><time>2024-06-01T05:16:36Z</time></trkpt><trkpt lat="33.7186705" lon="133.1428642"><ele>1541.9800000000002</ele><time>2024-06-01T05:17:27Z</time></trkpt><trkpt lat="33.7188003" lon="133.1426882"><ele>1532.2233333333334</ele><time>2024-06-01T05:18:00Z</time></trkpt><trkpt lat="33.7189818" lon="133.1426575"><ele>1523.2333333333336</ele><time>2024-06-01T05:18:30Z</time></trkpt><trkpt lat="33.7191555" lon="133.1425692"><ele>1512.88</ele><time>2024-06-01T05:19:21Z</time></trkpt><trkpt lat="33.7193312" lon="133.1425071"><ele>1502.0966666666666</ele><time>2024-06-01T05:20:21Z</time></trkpt><trkpt lat="33.7195129" lon="133.142468"><ele>1489.1499999999999</ele><time>2024-06-01T05:25:42Z</time></trkpt><trkpt lat="33.7196732" lon="133.1423474"><ele>1476.8633333333335</ele><time>2024-06-01T05:26:42Z</time></trkpt><trkpt lat="33.7197628" lon="133.1421591"><ele>1467.3666666666668</ele><time>2024-06-01T05:27:09Z</time></trkpt><trkpt lat="33.7199431" lon="133.1421329"><ele>1459.0766666666668</ele><time>2024-06-01T05:27:30Z</time></trkpt><trkpt lat="33.720101" lon="133.1420224"><ele>1451.76</ele><time>2024-06-01T05:27:51Z</time></trkpt><trkpt lat="33.7202883" lon="133.1419087"><ele>1441.7266666666667</ele><time>2024-06-01T05:28:12Z</time></trkpt><trkpt lat="33.7204697" lon="133.1418537"><ele>1432.2633333333333</ele><time>2024-06-01T05:28:33Z</time></trkpt><trkpt lat="33.7206582" lon="133.1418265"><ele>1422.8733333333332</ele><time>2024-06-01T05:29:00Z</time></trkpt><trkpt lat="33.7207759" lon="133.1416271"><ele>1416.0433333333333</ele><time>2024-06-01T05:29:21Z</time></trkpt><trkpt lat="33.7209304" lon="133.141474"><ele>1410.6433333333334</ele><time>2024-06-01T05:29:45Z</time></trkpt><trkpt lat="33.7211065" lon="133.1413563"><ele>1406.79</ele><time>2024-06-01T05:30:06Z</time></trkpt><trkpt lat="33.7212404" lon="133.1412026"><ele>1403.493333333333</ele><time>2024-06-01T05:30:30Z</time></trkpt><trkpt lat="33.7211323" lon="133.1410004"><ele>1401.1333333333332</ele><time>2024-06-01T05:30:57Z</time></trkpt><trkpt lat="33.7211355" lon="133.1407755"><ele>1399.6633333333332</ele><time>2024-06-01T05:31:24Z</time></trkpt><trkpt lat="33.721207" lon="133.140575"><ele>1399.2366666666667</ele><time>2024-06-01T05:31:51Z</time></trkpt><trkpt lat="33.7212234" lon="133.1403392"><ele>1399.1299999999999</ele><time>2024-06-01T05:33:57Z</time></trkpt><trkpt lat="33.7213373" lon="133.1401473"><ele>1399.0666666666666</ele><time>2024-06-01T05:34:18Z</time></trkpt><trkpt lat="33.7213605" lon="133.1399092"><ele>1399.11</ele><time>2024-06-01T05:34:39Z</time></trkpt><trkpt lat="33.7213993" lon="133.1396828"><ele>1399.1900000000003</ele><time>2024-06-01T05:35:15Z</time></trkpt><trkpt lat="33.7212446" lon="133.1395446"><ele>1400.236666666667</ele><time>2024-06-01T05:35:42Z</time></trkpt><trkpt lat="33.7210632" lon="133.1394776"><ele>1402.0166666666667</ele><time>2024-06-01T05:36:12Z</time></trkpt><trkpt lat="33.7208813" lon="133.1394486"><ele>1405.6566666666668</ele><time>2024-06-01T05:36:42Z</time></trkpt><trkpt lat="33.7206952" lon="133.1393887"><ele>1410.22</ele><time>2024-06-01T05:37:06Z</time></trkpt><trkpt lat="33.7205117" lon="133.1394231"><ele>1415.4766666666667</ele><time>2024-06-01T05:37:42Z</time></trkpt><trkpt lat="33.720361" lon="133.1392762"><ele>1419.05</ele><time>2024-06-01T05:38:06Z</time></trkpt><trkpt lat="33.720172" lon="133.1392041"><ele>1422.846666666667</ele><time>2024-06-01T05:38:36Z</time></trkpt><trkpt lat="33.7199865" lon="133.1391474"><ele>1426.1366666666665</ele><time>2024-06-01T05:39:03Z</time></trkpt><trkpt lat="33.7198176" lon="133.1390522"><ele>1430.18</ele><time>2024-06-01T05:39:24Z</time></trkpt><trkpt lat="33.7196734" lon="133.1389092"><ele>1431.6066666666668</ele><time>2024-06-01T05:39:45Z</time></trkpt><trkpt lat="33.7195218" lon="133.1387616"><ele>1431.7833333333335</ele><time>2024-06-01T05:40:09Z</time></trkpt><trkpt lat="33.7194578" lon="133.1385506"><ele>1429.2266666666667</ele><time>2024-06-01T05:40:42Z</time></trkpt><trkpt lat="33.7193236" lon="133.1383673"><ele>1427.993333333333</ele><time>2024-06-01T05:41:18Z</time></trkpt><trkpt lat="33.7192466" lon="133.1381707"><ele>1427.5266666666666</ele><time>2024-06-01T05:41:42Z</time></trkpt><trkpt lat="33.7192587" lon="133.1379334"><ele>1428.1633333333332</ele><time>2024-06-01T05:42:12Z</time></trkpt><trkpt lat="33.7193568" lon="133.1377461"><ele>1427.3766666666668</ele><time>2024-06-01T05:42:33Z</time></trkpt><trkpt lat="33.7193982" lon="133.1375267"><ele>1426.3933333333334</ele><time>2024-06-01T05:43:00Z</time></trkpt><trkpt lat="33.719421" lon="133.1373121"><ele>1425.2033333333331</ele><time>2024-06-01T05:43:33Z</time></trkpt><trkpt lat="33.7195171" lon="133.1371036"><ele>1422.62</ele><time>2024-06-01T05:44:12Z</time></trkpt><trkpt lat="33.7196438" lon="133.1369324"><ele>1417.1833333333334</ele><time>2024-06-01T05:44:51Z</time></trkpt><trkpt lat="33.7197289" lon="133.1367358"><ele>1411.4833333333336</ele><time>2024-06-01T05:46:03Z</time></trkpt><trkpt lat="33.7199006" lon="133.1366265"><ele>1406.8500000000001</ele><time>2024-06-01T05:46:33Z</time></trkpt><trkpt lat="33.7200863" lon="133.1365749"><ele>1403.25</ele><time>2024-06-01T05:46:57Z</time></trkpt><trkpt lat="33.720289" lon="133.1365774"><ele>1399.17</ele><time>2024-06-01T05:47:30Z</time></trkpt><trkpt lat="33.7204572" lon="133.1366917"><ele>1395.2466666666667</ele><time>2024-06-01T05:48:00Z</time></trkpt><trkpt lat="33.7205851" lon="133.1368546"><ele>1392.0433333333333</ele><time>2024-06-01T05:48:39Z</time></trkpt><trkpt lat="33.720756" lon="133.1369752"><ele>1389.0</ele><time>2024-06-01T05:49:30Z</time></trkpt><trkpt lat="33.7209385" lon="133.1370518"><ele>1384.7433333333336</ele><time>2024-06-01T05:50:09Z</time></trkpt><trkpt lat="33.7211467" lon="133.1370525"><ele>1378.2299999999998</ele><time>2024-06-01T05:50:53Z</time></trkpt><trkpt lat="33.7213465" lon="133.1370486"><ele>1371.08</ele><time>2024-06-01T05:51:23Z</time></trkpt><trkpt lat="33.721544" lon="133.1370671"><ele>1365.0166666666667</ele><time>2024-06-01T05:51:53Z</time></trkpt><trkpt lat="33.7217292" lon="133.1370281"><ele>1360.83</ele><time>2024-06-01T05:52:25Z</time></trkpt><trkpt lat="33.7219407" lon="133.1370011"><ele>1355.21</ele><time>2024-06-01T05:53:04Z</time></trkpt><trkpt lat="33.7220782" lon="133.1368413"><ele>1348.496666666667</ele><time>2024-06-01T05:53:25Z</time></trkpt><trkpt lat="33.7221836" lon="133.1366657"><ele>1341.8133333333335</ele><time>2024-06-01T05:53:48Z</time></trkpt><trkpt lat="33.7223689" lon="133.1366472"><ele>1335.2333333333336</ele><time>2024-06-01T05:54:15Z</time></trkpt><trkpt lat="33.7225564" lon="133.1367364"><ele>1328.3633333333335</ele><time>2024-06-01T05:54:45Z</time></trkpt><trkpt lat="33.7227514" lon="133.1367451"><ele>1321.4133333333332</ele><time>2024-06-01T05:55:08Z</time></trkpt><trkpt lat="33.7229409" lon="133.1366877"><ele>1316.2766666666666</ele><time>2024-06-01T05:55:32Z</time></trkpt><trkpt lat="33.7231289" lon="133.1366611"><ele>1311.6166666666668</ele><time>2024-06-01T05:55:55Z</time></trkpt><trkpt lat="33.7233094" lon="133.1366603"><ele>1307.1533333333334</ele><time>2024-06-01T05:56:23Z</time></trkpt><trkpt lat="33.7234846" lon="133.1367524"><ele>1302.1499999999999</ele><time>2024-06-01T05:56:47Z</time></trkpt><trkpt lat="33.7236472" lon="133.1368776"><ele>1296.6666666666667</ele><time>2024-06-01T05:57:05Z</time></trkpt><trkpt lat="33.7237842" lon="133.1370606"><ele>1291.39</ele><time>2024-06-01T05:57:25Z</time></trkpt><trkpt lat="33.7239596" lon="133.1371557"><ele>1287.5200000000002</ele><time>2024-06-01T05:57:49Z</time></trkpt><trkpt lat="33.7241465" lon="133.137247"><ele>1284.5600000000002</ele><time>2024-06-01T05:58:19Z</time></trkpt><trkpt lat="33.7243296" lon="133.1372406"><ele>1280.8466666666666</ele><time>2024-06-01T05:58:37Z</time></trkpt><trkpt lat="33.7245281" lon="133.1372619"><ele>1274.5966666666668</ele><time>2024-06-01T05:58:58Z</time></trkpt><trkpt lat="33.7247134" lon="133.1372322"><ele>1267.0933333333335</ele><time>2024-06-01T05:59:21Z</time></trkpt><trkpt lat="33.7248977" lon="133.13717"><ele>1260.8566666666668</ele><time>2024-06-01T05:59:50Z</time></trkpt><trkpt lat="33.7250991" lon="133.1371891"><ele>1256.38</ele><time>2024-06-01T06:00:29Z</time></trkpt><trkpt lat="33.7252863" lon="133.1372714"><ele>1253.07</ele><time>2024-06-01T06:00:50Z</time></trkpt><trkpt lat="33.7254677" lon="133.1373127"><ele>1249.04</ele><time>2024-06-01T06:01:11Z</time></trkpt><trkpt lat="33.7256549" lon="133.1372915"><ele>1245.76</ele><time>2024-06-01T06:01:38Z</time></trkpt><trkpt lat="33.7258435" lon="133.1373485"><ele>1241.5733333333335</ele><time>2024-06-01T06:02:14Z</time></trkpt><trkpt lat="33.7260315" lon="133.1374247"><ele>1235.9833333333333</ele><time>2024-06-01T06:02:47Z</time></trkpt><trkpt lat="33.7262107" lon="133.1374644"><ele>1229.0966666666666</ele><time>2024-06-01T06:03:41Z</time></trkpt><trkpt lat="33.726373" lon="133.1376093"><ele>1222.15</ele><time>2024-06-01T06:04:18Z</time></trkpt><trkpt lat="33.7265323" lon="133.1377399"><ele>1215.6533333333334</ele><time>2024-06-01T06:04:44Z</time></trkpt><trkpt lat="33.7267208" lon="133.1378205"><ele>1209.15</ele><time>2024-06-01T06:05:08Z</time></trkpt><trkpt lat="33.7268807" lon="133.1379352"><ele>1203.8566666666668</ele><time>2024-06-01T06:05:32Z</time></trkpt><trkpt lat="33.7270623" lon="133.1378747"><ele>1199.2766666666666</ele><time>2024-06-01T06:05:58Z</time></trkpt><trkpt lat="33.7272378" lon="133.1378062"><ele>1195.9233333333334</ele><time>2024-06-01T06:06:21Z</time></trkpt><trkpt lat="33.7274291" lon="133.1377556"><ele>1191.8033333333335</ele><time>2024-06-01T06:06:48Z</time></trkpt><trkpt lat="33.7275989" lon="133.1376747"><ele>1187.8266666666666</ele><time>2024-06-01T06:07:18Z</time></trkpt><trkpt lat="33.7277772" lon="133.1376105"><ele>1182.1333333333332</ele><time>2024-06-01T06:07:54Z</time></trkpt><trkpt lat="33.7279461" lon="133.137526"><ele>1176.1966666666667</ele><time>2024-06-01T06:08:33Z</time></trkpt><trkpt lat="33.7281435" lon="133.1374888"><ele>1167.9199999999998</ele><time>2024-06-01T06:09:30Z</time></trkpt><trkpt lat="33.7283232" lon="133.137422"><ele>1160.74</ele><time>2024-06-01T06:09:51Z</time></trkpt><trkpt lat="33.7285141" lon="133.137333"><ele>1153.8300000000002</ele><time>2024-06-01T06:10:12Z</time></trkpt><trkpt lat="33.7286954" lon="133.1373275"><ele>1145.8666666666668</ele><time>2024-06-01T06:10:26Z</time></trkpt><trkpt lat="33.7289021" lon="133.1372383"><ele>1137.5566666666666</ele><time>2024-06-01T06:10:47Z</time></trkpt><trkpt lat="33.7290878" lon="133.137191"><ele>1129.55</ele><time>2024-06-01T06:11:08Z</time></trkpt><trkpt lat="33.7292714" lon="133.1372117"><ele>1123.9666666666665</ele><time>2024-06-01T06:11:37Z</time></trkpt><trkpt lat="33.729462" lon="133.1372293"><ele>1116.9533333333334</ele><time>2024-06-01T06:12:16Z</time></trkpt><trkpt lat="33.7296731" lon="133.1372458"><ele>1108.9399999999998</ele><time>2024-06-01T06:13:03Z</time></trkpt><trkpt lat="33.7298563" lon="133.1372447"><ele>1100.28</ele><time>2024-06-01T06:13:30Z</time></trkpt><trkpt lat="33.7299597" lon="133.1370458"><ele>1094.9499999999998</ele><time>2024-06-01T06:14:06Z</time></trkpt><trkpt lat="33.7300204" lon="133.1368379"><ele>1088.9933333333333</ele><time>2024-06-01T06:15:03Z</time></trkpt><trkpt lat="33.7301281" lon="133.1366563"><ele>1082.6166666666666</ele><time>2024-06-01T06:15:32Z</time></trkpt><trkpt lat="33.7302256" lon="133.1364728"><ele>1075.41</ele><time>2024-06-01T06:15:49Z</time></trkpt><trkpt lat="33.7303636" lon="133.1362792"><ele>1070.2766666666669</ele><time>2024-06-01T06:16:09Z</time></trkpt><trkpt lat="33.73041" lon="133.1360325"><ele>1067.07</ele><time>2024-06-01T06:16:26Z</time></trkpt><trkpt lat="33.7303315" lon="133.1358203"><ele>1064.9366666666667</ele><time>2024-06-01T06:16:40Z</time></trkpt><trkpt lat="33.7302032" lon="133.1356586"><ele>1063.01</ele><time>2024-06-01T06:16:57Z</time></trkpt><trkpt lat="33.7300533" lon="133.1355296"><ele>1062.7766666666666</ele><time>2024-06-01T06:17:14Z</time></trkpt><trkpt lat="33.7301755" lon="133.1353497"><ele>1059.8433333333332</ele><time>2024-06-01T06:21:01Z</time></trkpt><trkpt lat="33.730371" lon="133.1354124"><ele>1057.9833333333333</ele><time>2024-06-01T06:21:25Z</time></trkpt><trkpt lat="33.7305667" lon="133.1354926"><ele>1052.4433333333334</ele><time>2024-06-01T06:21:48Z</time></trkpt><trkpt lat="33.7307308" lon="133.1354014"><ele>1048.8433333333332</ele><time>2024-06-01T06:22:08Z</time></trkpt><trkpt lat="33.7308536" lon="133.1352403"><ele>1046.2266666666667</ele><time>2024-06-01T06:22:25Z</time></trkpt><trkpt lat="33.7310613" lon="133.1352155"><ele>1043.2933333333333</ele><time>2024-06-01T06:22:43Z</time></trkpt><trkpt lat="33.731232" lon="133.1351145"><ele>1040.0666666666668</ele><time>2024-06-01T06:23:00Z</time></trkpt><trkpt lat="33.7313893" lon="133.1349839"><ele>1036.9</ele><time>2024-06-01T06:23:18Z</time></trkpt><trkpt lat="33.7315013" lon="133.1348074"><ele>1038.05</ele><time>2024-06-01T06:23:35Z</time></trkpt><trkpt lat="33.7316963" lon="133.1347077"><ele>1037.7</ele><time>2024-06-01T06:23:55Z</time></trkpt><trkpt lat="33.7319007" lon="133.1346408"><ele>1035.6633333333332</ele><time>2024-06-01T06:24:12Z</time></trkpt><trkpt lat="33.7320746" lon="133.1347219"><ele>1030.53</ele><time>2024-06-01T06:24:29Z</time></trkpt><trkpt lat="33.7322699" lon="133.1346667"><ele>1027.9399999999998</ele><time>2024-06-01T06:24:50Z</time></trkpt><trkpt lat="33.7324515" lon="133.1347174"><ele>1026.6899999999998</ele><time>2024-06-01T06:38:26Z</time></trkpt><trkpt lat="33.7326129" lon="133.1348139"><ele>1024.09</ele><time>2024-06-01T06:38:50Z</time></trkpt><trkpt lat="33.7328174" lon="133.1348255"><ele>1020.83</ele><time>2024-06-01T06:47:17Z</time></trkpt><trkpt lat="33.7330076" lon="133.1348466"><ele>1017.27</ele><time>2024-06-01T06:47:37Z</time></trkpt><trkpt lat="33.733206" lon="133.1349342"><ele>1015.41</ele><time>2024-06-01T06:47:58Z</time></trkpt><trkpt lat="33.7333736" lon="133.1350614"><ele>1012.4166666666666</ele><time>2024-06-01T06:48:19Z</time></trkpt><trkpt lat="33.7335607" lon="133.1350266"><ele>1007.9166666666666</ele><time>2024-06-01T06:48:43Z</time></trkpt><trkpt lat="33.7336804" lon="133.1348583"><ele>1007.73</ele><time>2024-06-01T06:49:07Z</time></trkpt><trkpt lat="33.7338559" lon="133.1348009"><ele>1008.2366666666667</ele><time>2024-06-01T06:49:24Z</time></trkpt><trkpt lat="33.7340453" lon="133.1347999"><ele>1009.0666666666666</ele><time>2024-06-01T06:49:45Z</time></trkpt><trkpt lat="33.7342728" lon="133.1347896"><ele>1006.7933333333334</ele><time>2024-06-01T06:50:54Z</time></trkpt><trkpt lat="33.7344649" lon="133.1348393"><ele>1004.3933333333334</ele><time>2024-06-01T06:51:11Z</time></trkpt><trkpt lat="33.7346255" lon="133.1349633"><ele>1000.1833333333334</ele><time>2024-06-01T06:51:35Z</time></trkpt><trkpt lat="33.734711" lon="133.1351683"><ele>991.5666666666666</ele><time>2024-06-01T06:51:50Z</time></trkpt><trkpt lat="33.7347825" lon="133.1353824"><ele>983.6933333333333</ele><time>2024-06-01T06:52:05Z</time></trkpt><trkpt lat="33.7349005" lon="133.1355755"><ele>984.1566666666668</ele><time>2024-06-01T06:52:23Z</time></trkpt><trkpt lat="33.7350998" lon="133.1356174"><ele>997.4366666666666</ele><time>2024-06-01T06:53:10Z</time></trkpt></trkseg></trk></gpx>