<?xml version='1.0' encoding='UTF-8'?><gpx creator="Yama Museum Summit Candidate Generator" xsi:schemaLocation="http://www.topografix.com/GPX/1/1 http://www.topografix.com/GPX/1/1/gpx.xsd" version="1.1" xmlns="http://www.topografix.com/GPX/1/1" xmlns:xsi="http://www.w3.org/2001/XMLSchema-instance" xmlns:yama="https://museum-yama-data.moukaeritai.work/ns/yama-data/0.1"><metadata><bounds maxlat="33.6283062" maxlon="132.6814852" minlat="33.6243651" minlon="132.6723308"/><name>陣が森岳</name><extensions><yama:source_gpx_basename>yamap_2026-01-11_10_38.gpx</yama:source_gpx_basename><yama:source_gpx_relative_path>data/01_raw/gpx/2026-05-12/yamap_2026-01-11_10_38.gpx</yama:source_gpx_relative_path><yama:detection_parameters>window=5,radius=10,min_prominence=30,merge=100</yama:detection_parameters></extensions></metadata><wpt lat="33.6266981" lon="132.6808191"><ele>620.0533333333333</ele><time>2026-01-11T02:32:53Z</time><name>summit-candidate:1fd59e0e67624706</name><desc>Summit candidate detected at elevation 620.0533333333333m with prominence 253.7448888888888m.</desc><sym>Summit Candidate</sym><extensions><yama:source_trackpoint_index>53</yama:source_trackpoint_index><yama:valid_elevation_index>53</yama:valid_elevation_index><yama:smoothed_ele>619.286</yama:smoothed_ele><yama:prominence>253.7448888888888</yama:prominence><yama:detection_method>local_maxima_with_prominence</yama:detection_method><yama:detection_parameters>window=5,radius=10,min_prominence=30,merge=100</yama:detection_parameters><yama:candidate_status>unresolved</yama:candidate_status></extensions></wpt>
  <trk><name>陣が森岳</name><number>1</number><trkseg><trkpt lat="33.6277465" lon="132.6723616"><ele>361.1</ele><time>2026-01-11T01:38:00Z</time></trkpt><trkpt lat="33.6278282" lon="132.672563"><ele>362.48</ele><time>2026-01-11T01:38:46Z</time></trkpt><trkpt lat="33.6280152" lon="132.6726597"><ele>362.8</ele><time>2026-01-11T01:39:04Z</time></trkpt><trkpt lat="33.6278624" lon="132.6727764"><ele>364.8766666666666</ele><time>2026-01-11T01:39:52Z</time></trkpt><trkpt lat="33.6278304" lon="132.6730184"><ele>368.58</ele><time>2026-01-11T01:40:22Z</time></trkpt><trkpt lat="33.6278422" lon="132.6732604"><ele>375.70666666666665</ele><time>2026-01-11T01:40:44Z</time></trkpt><trkpt lat="33.627773" lon="132.6734943"><ele>383.59</ele><time>2026-01-11T01:41:02Z</time></trkpt><trkpt lat="33.6279566" lon="132.6735038"><ele>391.05999999999995</ele><time>2026-01-11T01:42:45Z</time></trkpt><trkpt lat="33.6281122" lon="132.673619"><ele>396.6233333333333</ele><time>2026-01-11T01:43:55Z</time></trkpt><trkpt lat="33.6281974" lon="132.6738238"><ele>402.5833333333333</ele><time>2026-01-11T01:44:21Z</time></trkpt><trkpt lat="33.6282379" lon="132.6740355"><ele>407.2866666666667</ele><time>2026-01-11T01:45:14Z</time></trkpt><trkpt lat="33.6282559" lon="132.6742651"><ele>413.15000000000003</ele><time>2026-01-11T01:45:39Z</time></trkpt><trkpt lat="33.6282686" lon="132.6744838"><ele>418.05333333333334</ele><time>2026-01-11T01:46:20Z</time></trkpt><trkpt lat="33.6283024" lon="132.674708"><ele>424.49666666666667</ele><time>2026-01-11T01:47:04Z</time></trkpt><trkpt lat="33.6282549" lon="132.6749401"><ele>429.2966666666666</ele><time>2026-01-11T01:47:34Z</time></trkpt><trkpt lat="33.6283062" lon="132.6751524"><ele>433.03</ele><time>2026-01-11T01:48:15Z</time></trkpt><trkpt lat="33.6282674" lon="132.6753664"><ele>435.99</ele><time>2026-01-11T01:49:10Z</time></trkpt><trkpt lat="33.6281374" lon="132.6755277"><ele>439.07666666666665</ele><time>2026-01-11T01:49:58Z</time></trkpt><trkpt lat="33.6280415" lon="132.6757342"><ele>444.47333333333336</ele><time>2026-01-11T01:50:43Z</time></trkpt><trkpt lat="33.6280019" lon="132.6759614"><ele>450.4266666666667</ele><time>2026-01-11T01:51:43Z</time></trkpt><trkpt lat="33.6280723" lon="132.676191"><ele>456.2166666666667</ele><time>2026-01-11T01:52:08Z</time></trkpt><trkpt lat="33.6279389" lon="132.6763383"><ele>461.98333333333335</ele><time>2026-01-11T01:53:35Z</time></trkpt><trkpt lat="33.6278722" lon="132.6765458"><ele>466.52666666666664</ele><time>2026-01-11T01:53:53Z</time></trkpt><trkpt lat="33.6278517" lon="132.6767658"><ele>471.4566666666667</ele><time>2026-01-11T01:54:35Z</time></trkpt><trkpt lat="33.6279666" lon="132.6769519"><ele>475.3733333333333</ele><time>2026-01-11T01:55:14Z</time></trkpt><trkpt lat="33.6280562" lon="132.6771412"><ele>479.99666666666667</ele><time>2026-01-11T01:56:08Z</time></trkpt><trkpt lat="33.6281831" lon="132.6773176"><ele>484.59</ele><time>2026-01-11T01:56:44Z</time></trkpt><trkpt lat="33.6281432" lon="132.6775292"><ele>489.49</ele><time>2026-01-11T01:57:27Z</time></trkpt><trkpt lat="33.6281438" lon="132.6777554"><ele>494.1366666666667</ele><time>2026-01-11T01:58:10Z</time></trkpt><trkpt lat="33.6282023" lon="132.6779745"><ele>499.56</ele><time>2026-01-11T01:59:20Z</time></trkpt><trkpt lat="33.6281734" lon="132.6781905"><ele>505.1433333333334</ele><time>2026-01-11T02:00:53Z</time></trkpt><trkpt lat="33.6281343" lon="132.6784117"><ele>511.54</ele><time>2026-01-11T02:01:47Z</time></trkpt><trkpt lat="33.6281502" lon="132.6786304"><ele>517.8633333333333</ele><time>2026-01-11T02:02:08Z</time></trkpt><trkpt lat="33.6279884" lon="132.6787541"><ele>523.8266666666667</ele><time>2026-01-11T02:12:38Z</time></trkpt><trkpt lat="33.6279404" lon="132.6789856"><ele>529.5033333333333</ele><time>2026-01-11T02:12:59Z</time></trkpt><trkpt lat="33.627905" lon="132.6792084"><ele>534.1733333333334</ele><time>2026-01-11T02:13:35Z</time></trkpt><trkpt lat="33.6278969" lon="132.6794466"><ele>538.8366666666667</ele><time>2026-01-11T02:14:17Z</time></trkpt><trkpt lat="33.6278961" lon="132.6796984"><ele>543.5433333333334</ele><time>2026-01-11T02:15:02Z</time></trkpt><trkpt lat="33.6279525" lon="132.6799102"><ele>549.39</ele><time>2026-01-11T02:16:06Z</time></trkpt><trkpt lat="33.6279562" lon="132.6801349"><ele>556.0233333333333</ele><time>2026-01-11T02:17:03Z</time></trkpt><trkpt lat="33.6279481" lon="132.680353"><ele>563.6133333333333</ele><time>2026-01-11T02:18:03Z</time></trkpt><trkpt lat="33.6278891" lon="132.6805596"><ele>571.0966666666667</ele><time>2026-01-11T02:19:24Z</time></trkpt><trkpt lat="33.6277837" lon="132.6807546"><ele>577.7333333333335</ele><time>2026-01-11T02:19:51Z</time></trkpt><trkpt lat="33.6276436" lon="132.680946"><ele>583.7333333333335</ele><time>2026-01-11T02:21:33Z</time></trkpt><trkpt lat="33.6275148" lon="132.6811357"><ele>589.5833333333334</ele><time>2026-01-11T02:22:01Z</time></trkpt><trkpt lat="33.6273225" lon="132.6811515"><ele>598.03</ele><time>2026-01-11T02:25:39Z</time></trkpt><trkpt lat="33.6271601" lon="132.6812775"><ele>605.1666666666666</ele><time>2026-01-11T02:26:15Z</time></trkpt><trkpt lat="33.6271072" lon="132.6814852"><ele>610.4633333333333</ele><time>2026-01-11T02:27:12Z</time></trkpt><trkpt lat="33.6269923" lon="132.6812964"><ele>611.94</ele><time>2026-01-11T02:28:51Z</time></trkpt><trkpt lat="33.6268777" lon="132.6810992"><ele>613.5966666666667</ele><time>2026-01-11T02:30:09Z</time></trkpt><trkpt lat="33.6267677" lon="132.6809232"><ele>616.2566666666667</ele><time>2026-01-11T02:30:36Z</time></trkpt><trkpt lat="33.6267127" lon="132.6806964"><ele>618.5066666666667</ele><time>2026-01-11T02:30:52Z</time></trkpt><trkpt lat="33.6265463" lon="132.6806118"><ele>619.81</ele><time>2026-01-11T02:31:10Z</time></trkpt><trkpt lat="33.6266981" lon="132.6808191"><ele>620.0533333333333</ele><time>2026-01-11T02:32:53Z</time></trkpt><trkpt lat="33.6268349" lon="132.6810739"><ele>619.2033333333334</ele><time>2026-01-11T02:32:56Z</time></trkpt><trkpt lat="33.6266996" lon="132.6808653"><ele>618.8566666666667</ele><time>2026-01-11T02:33:02Z</time></trkpt><trkpt lat="33.6268264" lon="132.6810534"><ele>617.8666666666667</ele><time>2026-01-11T02:33:14Z</time></trkpt><trkpt lat="33.6269744" lon="132.6811793"><ele>617.13</ele><time>2026-01-11T02:33:32Z</time></trkpt><trkpt lat="33.6270047" lon="132.6814109"><ele>614.8466666666667</ele><time>2026-01-11T02:34:10Z</time></trkpt><trkpt lat="33.6272105" lon="132.6814184"><ele>611.9533333333334</ele><time>2026-01-11T02:39:29Z</time></trkpt><trkpt lat="33.62713" lon="132.6811918"><ele>610.97</ele><time>2026-01-11T02:40:00Z</time></trkpt><trkpt lat="33.6269831" lon="132.6810362"><ele>611.9533333333334</ele><time>2026-01-11T02:40:17Z</time></trkpt><trkpt lat="33.6268089" lon="132.6809458"><ele>615.1033333333334</ele><time>2026-01-11T02:41:00Z</time></trkpt><trkpt lat="33.6266741" lon="132.6807603"><ele>617.8366666666666</ele><time>2026-01-11T02:41:21Z</time></trkpt><trkpt lat="33.6265771" lon="132.680556"><ele>619.0</ele><time>2026-01-11T02:41:37Z</time></trkpt><trkpt lat="33.6264162" lon="132.680448"><ele>619.2066666666667</ele><time>2026-01-11T02:41:51Z</time></trkpt><trkpt lat="33.6262332" lon="132.6805602"><ele>617.66</ele><time>2026-01-11T02:42:08Z</time></trkpt><trkpt lat="33.6260478" lon="132.6806221"><ele>613.0</ele><time>2026-01-11T02:42:23Z</time></trkpt><trkpt lat="33.6258869" lon="132.6807966"><ele>608.63</ele><time>2026-01-11T02:42:41Z</time></trkpt><trkpt lat="33.6256708" lon="132.6808408"><ele>603.5799999999999</ele><time>2026-01-11T02:42:59Z</time></trkpt><trkpt lat="33.6254902" lon="132.6808427"><ele>601.49</ele><time>2026-01-11T02:43:17Z</time></trkpt><trkpt lat="33.6253304" lon="132.6807391"><ele>597.9333333333334</ele><time>2026-01-11T02:43:31Z</time></trkpt><trkpt lat="33.6251451" lon="132.6805954"><ele>595.0233333333334</ele><time>2026-01-11T02:43:47Z</time></trkpt><trkpt lat="33.6250211" lon="132.6803771"><ele>591.5733333333333</ele><time>2026-01-11T02:44:05Z</time></trkpt><trkpt lat="33.6249768" lon="132.680133"><ele>588.0866666666667</ele><time>2026-01-11T02:44:39Z</time></trkpt><trkpt lat="33.6248378" lon="132.6799933"><ele>585.2566666666667</ele><time>2026-01-11T02:44:54Z</time></trkpt><trkpt lat="33.6249928" lon="132.6798663"><ele>582.3933333333333</ele><time>2026-01-11T02:45:51Z</time></trkpt><trkpt lat="33.624992" lon="132.6796189"><ele>578.81</ele><time>2026-01-11T02:47:37Z</time></trkpt><trkpt lat="33.6250046" lon="132.6793884"><ele>573.0233333333333</ele><time>2026-01-11T02:47:55Z</time></trkpt><trkpt lat="33.6250149" lon="132.6791437"><ele>566.63</ele><time>2026-01-11T02:48:31Z</time></trkpt><trkpt lat="33.6251311" lon="132.6789609"><ele>557.7333333333332</ele><time>2026-01-11T02:48:49Z</time></trkpt><trkpt lat="33.6251175" lon="132.6787055"><ele>550.68</ele><time>2026-01-11T02:49:31Z</time></trkpt><trkpt lat="33.6249479" lon="132.6786234"><ele>544.7766666666666</ele><time>2026-01-11T02:49:43Z</time></trkpt><trkpt lat="33.6251693" lon="132.6783801"><ele>540.91</ele><time>2026-01-11T02:50:09Z</time></trkpt><trkpt lat="33.6251984" lon="132.6781672"><ele>534.5733333333333</ele><time>2026-01-11T02:50:18Z</time></trkpt><trkpt lat="33.6252065" lon="132.6779166"><ele>525.9399999999999</ele><time>2026-01-11T02:50:27Z</time></trkpt><trkpt lat="33.6251196" lon="132.6776753"><ele>518.4900000000001</ele><time>2026-01-11T02:50:39Z</time></trkpt><trkpt lat="33.6251131" lon="132.677431"><ele>512.7833333333333</ele><time>2026-01-11T02:50:56Z</time></trkpt><trkpt lat="33.6250799" lon="132.6772128"><ele>508.3733333333333</ele><time>2026-01-11T02:51:14Z</time></trkpt><trkpt lat="33.6252697" lon="132.6771493"><ele>502.50333333333333</ele><time>2026-01-11T02:52:08Z</time></trkpt><trkpt lat="33.625364" lon="132.6773594"><ele>497.59</ele><time>2026-01-11T02:52:25Z</time></trkpt><trkpt lat="33.625322" lon="132.6770439"><ele>494.45</ele><time>2026-01-11T02:52:33Z</time></trkpt><trkpt lat="33.6252818" lon="132.6768333"><ele>493.2</ele><time>2026-01-11T02:52:39Z</time></trkpt><trkpt lat="33.6251282" lon="132.676636"><ele>490.3999999999999</ele><time>2026-01-11T02:52:57Z</time></trkpt><trkpt lat="33.6249206" lon="132.6766863"><ele>487.49333333333334</ele><time>2026-01-11T02:53:51Z</time></trkpt><trkpt lat="33.6248138" lon="132.6768964"><ele>486.35666666666674</ele><time>2026-01-11T02:54:12Z</time></trkpt><trkpt lat="33.6246038" lon="132.6769881"><ele>484.26</ele><time>2026-01-11T02:54:39Z</time></trkpt><trkpt lat="33.6247355" lon="132.6768349"><ele>483.8966666666667</ele><time>2026-01-11T02:55:30Z</time></trkpt><trkpt lat="33.624832" lon="132.6766052"><ele>480.77</ele><time>2026-01-11T02:55:48Z</time></trkpt><trkpt lat="33.6247826" lon="132.6763806"><ele>477.3833333333334</ele><time>2026-01-11T02:56:19Z</time></trkpt><trkpt lat="33.6247288" lon="132.6761703"><ele>469.0800000000001</ele><time>2026-01-11T02:56:37Z</time></trkpt><trkpt lat="33.6246659" lon="132.6759577"><ele>458.76</ele><time>2026-01-11T02:56:58Z</time></trkpt><trkpt lat="33.6245612" lon="132.6757354"><ele>450.1033333333333</ele><time>2026-01-11T02:57:16Z</time></trkpt><trkpt lat="33.6244561" lon="132.6755535"><ele>442.6466666666667</ele><time>2026-01-11T02:57:36Z</time></trkpt><trkpt lat="33.6243651" lon="132.6753229"><ele>436.52</ele><time>2026-01-11T02:58:19Z</time></trkpt><trkpt lat="33.6245479" lon="132.6752598"><ele>431.05333333333334</ele><time>2026-01-11T02:58:37Z</time></trkpt><trkpt lat="33.6247242" lon="132.6754061"><ele>428.48333333333335</ele><time>2026-01-11T02:58:55Z</time></trkpt><trkpt lat="33.6248993" lon="132.6754785"><ele>429.09</ele><time>2026-01-11T02:59:19Z</time></trkpt><trkpt lat="33.6250711" lon="132.6753863"><ele>428.06666666666666</ele><time>2026-01-11T02:59:46Z</time></trkpt><trkpt lat="33.6252836" lon="132.675276"><ele>423.9766666666667</ele><time>2026-01-11T03:00:04Z</time></trkpt><trkpt lat="33.6254946" lon="132.6752173"><ele>416.28000000000003</ele><time>2026-01-11T03:00:16Z</time></trkpt><trkpt lat="33.6256982" lon="132.6752392"><ele>410.81</ele><time>2026-01-11T03:00:31Z</time></trkpt><trkpt lat="33.6258809" lon="132.6753423"><ele>408.49666666666667</ele><time>2026-01-11T03:00:52Z</time></trkpt><trkpt lat="33.6260747" lon="132.6754033"><ele>408.53999999999996</ele><time>2026-01-11T03:01:05Z</time></trkpt><trkpt lat="33.6262805" lon="132.6754877"><ele>407.72333333333336</ele><time>2026-01-11T03:01:17Z</time></trkpt><trkpt lat="33.6264254" lon="132.6756339"><ele>405.44000000000005</ele><time>2026-01-11T03:01:32Z</time></trkpt><trkpt lat="33.6263703" lon="132.6758438"><ele>405.35666666666674</ele><time>2026-01-11T03:02:08Z</time></trkpt><trkpt lat="33.6264255" lon="132.676089"><ele>406.8500000000001</ele><time>2026-01-11T03:02:26Z</time></trkpt><trkpt lat="33.6265761" lon="132.6762215"><ele>408.25666666666666</ele><time>2026-01-11T03:02:38Z</time></trkpt><trkpt lat="33.6267705" lon="132.6761619"><ele>405.3033333333333</ele><time>2026-01-11T03:02:53Z</time></trkpt><trkpt lat="33.626833" lon="132.675904"><ele>400.72666666666663</ele><time>2026-01-11T03:03:08Z</time></trkpt><trkpt lat="33.6269862" lon="132.6757392"><ele>397.6566666666667</ele><time>2026-01-11T03:03:23Z</time></trkpt><trkpt lat="33.627144" lon="132.675627"><ele>398.74333333333334</ele><time>2026-01-11T03:03:35Z</time></trkpt><trkpt lat="33.62727" lon="132.6754411"><ele>400.4666666666667</ele><time>2026-01-11T03:03:50Z</time></trkpt><trkpt lat="33.6273019" lon="132.6751775"><ele>399.48333333333335</ele><time>2026-01-11T03:04:05Z</time></trkpt><trkpt lat="33.6272917" lon="132.6749236"><ele>394.66</ele><time>2026-01-11T03:04:20Z</time></trkpt><trkpt lat="33.6272884" lon="132.6747015"><ele>390.0366666666667</ele><time>2026-01-11T03:04:35Z</time></trkpt><trkpt lat="33.6273201" lon="132.674477"><ele>386.46333333333337</ele><time>2026-01-11T03:04:50Z</time></trkpt><trkpt lat="33.6272493" lon="132.6742462"><ele>384.48333333333335</ele><time>2026-01-11T03:05:08Z</time></trkpt><trkpt lat="33.627295" lon="132.6740048"><ele>383.1466666666667</ele><time>2026-01-11T03:05:26Z</time></trkpt><trkpt lat="33.6274272" lon="132.6738119"><ele>380.69000000000005</ele><time>2026-01-11T03:05:41Z</time></trkpt><trkpt lat="33.6275537" lon="132.6736227"><ele>378.83</ele><time>2026-01-11T03:06:14Z</time></trkpt><trkpt lat="33.627638" lon="132.6733974"><ele>378.08666666666664</ele><time>2026-01-11T03:06:29Z</time></trkpt><trkpt lat="33.627637" lon="132.6731581"><ele>376.6766666666667</ele><time>2026-01-11T03:06:45Z</time></trkpt><trkpt lat="33.6276388" lon="132.6729162"><ele>374.07666666666665</ele><time>2026-01-11T03:07:00Z</time></trkpt><trkpt lat="33.6275685" lon="132.6727033"><ele>368.9166666666667</ele><time>2026-01-11T03:07:15Z</time></trkpt><trkpt lat="33.6276067" lon="132.6724829"><ele>365.41</ele><time>2026-01-11T03:07:33Z</time></trkpt><trkpt lat="33.6277699" lon="132.6723308"><ele>362.2966666666666</ele><time>2026-01-11T03:07:48Z</time></trkpt></trkseg></trk></gpx>