<?xml version='1.0' encoding='UTF-8'?><gpx creator="Yama Museum Summit Candidate Generator" xsi:schemaLocation="http://www.topografix.com/GPX/1/1 http://www.topografix.com/GPX/1/1/gpx.xsd" version="1.1" xmlns="http://www.topografix.com/GPX/1/1" xmlns:xsi="http://www.w3.org/2001/XMLSchema-instance" xmlns:yama="https://museum-yama-data.moukaeritai.work/ns/yama-data/0.1"><metadata><bounds maxlat="33.5220048" maxlon="132.3852896" minlat="33.5111096" minlon="132.3756876"/><name>雨乞山</name><extensions><yama:source_gpx_basename>yamap_2026-04-19_07_43.gpx</yama:source_gpx_basename><yama:source_gpx_relative_path>data/01_raw/gpx/2026-05-12/yamap_2026-04-19_07_43.gpx</yama:source_gpx_relative_path><yama:detection_parameters>window=5,radius=10,min_prominence=30,merge=100</yama:detection_parameters></extensions></metadata><wpt lat="33.5112211" lon="132.3821763"><ele>496.59999999999997</ele><time>2026-04-18T23:56:16Z</time><name>summit-candidate:d0d3096d540f375e</name><desc>Summit candidate detected at elevation 496.59999999999997m with prominence 322.19900000000007m.</desc><sym>Summit Candidate</sym><extensions><yama:source_trackpoint_index>163</yama:source_trackpoint_index><yama:valid_elevation_index>163</yama:valid_elevation_index><yama:smoothed_ele>495.17733333333337</yama:smoothed_ele><yama:prominence>322.19900000000007</yama:prominence><yama:detection_method>local_maxima_with_prominence</yama:detection_method><yama:detection_parameters>window=5,radius=10,min_prominence=30,merge=100</yama:detection_parameters><yama:candidate_status>unresolved</yama:candidate_status></extensions></wpt>
  <trk><name>雨乞山</name><number>1</number><trkseg><trkpt lat="33.5188299" lon="132.3756876"><ele>173.06</ele><time>2026-04-18T22:43:54Z</time></trkpt><trkpt lat="33.5189911" lon="132.3758313"><ele>173.26</ele><time>2026-04-18T22:45:44Z</time></trkpt><trkpt lat="33.519104" lon="132.3760092"><ele>173.11333333333332</ele><time>2026-04-18T22:45:59Z</time></trkpt><trkpt lat="33.5192237" lon="132.37618"><ele>172.48</ele><time>2026-04-18T22:46:16Z</time></trkpt><trkpt lat="33.5192099" lon="132.3763985"><ele>174.08333333333334</ele><time>2026-04-18T22:46:31Z</time></trkpt><trkpt lat="33.5193363" lon="132.3766049"><ele>176.49333333333334</ele><time>2026-04-18T22:46:46Z</time></trkpt><trkpt lat="33.5194269" lon="132.3768314"><ele>179.86666666666667</ele><time>2026-04-18T22:47:04Z</time></trkpt><trkpt lat="33.5194182" lon="132.3770584"><ele>181.86333333333334</ele><time>2026-04-18T22:47:22Z</time></trkpt><trkpt lat="33.5194052" lon="132.3772956"><ele>183.33333333333334</ele><time>2026-04-18T22:47:51Z</time></trkpt><trkpt lat="33.5195773" lon="132.3773938"><ele>181.11333333333334</ele><time>2026-04-18T22:48:06Z</time></trkpt><trkpt lat="33.5196525" lon="132.377617"><ele>180.86</ele><time>2026-04-18T22:48:21Z</time></trkpt><trkpt lat="33.5197931" lon="132.3778231"><ele>180.99333333333334</ele><time>2026-04-18T22:48:39Z</time></trkpt><trkpt lat="33.5199757" lon="132.3779696"><ele>185.91333333333333</ele><time>2026-04-18T22:48:54Z</time></trkpt><trkpt lat="33.5200913" lon="132.3781777"><ele>187.89000000000001</ele><time>2026-04-18T22:49:18Z</time></trkpt><trkpt lat="33.5201189" lon="132.3784021"><ele>190.46</ele><time>2026-04-18T22:49:33Z</time></trkpt><trkpt lat="33.5201702" lon="132.378632"><ele>191.0666666666667</ele><time>2026-04-18T22:49:54Z</time></trkpt><trkpt lat="33.5201442" lon="132.3788502"><ele>193.43999999999997</ele><time>2026-04-18T22:50:58Z</time></trkpt><trkpt lat="33.5203113" lon="132.3789314"><ele>193.16333333333333</ele><time>2026-04-18T22:51:31Z</time></trkpt><trkpt lat="33.5204809" lon="132.379113"><ele>193.73333333333335</ele><time>2026-04-18T22:51:40Z</time></trkpt><trkpt lat="33.5206321" lon="132.3792318"><ele>192.38333333333333</ele><time>2026-04-18T22:51:49Z</time></trkpt><trkpt lat="33.520763" lon="132.3793949"><ele>192.95333333333335</ele><time>2026-04-18T22:52:03Z</time></trkpt><trkpt lat="33.5208518" lon="132.3796026"><ele>194.24333333333334</ele><time>2026-04-18T22:52:19Z</time></trkpt><trkpt lat="33.5209951" lon="132.37978"><ele>195.11333333333334</ele><time>2026-04-18T22:52:36Z</time></trkpt><trkpt lat="33.5211458" lon="132.3799273"><ele>194.73666666666668</ele><time>2026-04-18T22:52:54Z</time></trkpt><trkpt lat="33.5212536" lon="132.3801336"><ele>194.76</ele><time>2026-04-18T22:53:13Z</time></trkpt><trkpt lat="33.5214228" lon="132.380228"><ele>196.09666666666666</ele><time>2026-04-18T22:53:27Z</time></trkpt><trkpt lat="33.5216121" lon="132.380336"><ele>200.21</ele><time>2026-04-18T22:53:48Z</time></trkpt><trkpt lat="33.5217882" lon="132.3804918"><ele>203.2833333333333</ele><time>2026-04-18T22:54:06Z</time></trkpt><trkpt lat="33.5218741" lon="132.3807007"><ele>205.54666666666665</ele><time>2026-04-18T22:54:23Z</time></trkpt><trkpt lat="33.5220048" lon="132.3808545"><ele>206.15</ele><time>2026-04-18T22:54:52Z</time></trkpt><trkpt lat="33.5219593" lon="132.3810988"><ele>205.5</ele><time>2026-04-18T22:55:13Z</time></trkpt><trkpt lat="33.5217243" lon="132.3811314"><ele>205.65666666666667</ele><time>2026-04-18T22:55:34Z</time></trkpt><trkpt lat="33.5217183" lon="132.3808926"><ele>207.68999999999997</ele><time>2026-04-18T22:56:50Z</time></trkpt><trkpt lat="33.5213486" lon="132.3811903"><ele>210.07333333333335</ele><time>2026-04-18T22:56:53Z</time></trkpt><trkpt lat="33.5213671" lon="132.3814607"><ele>210.00333333333333</ele><time>2026-04-18T22:57:05Z</time></trkpt><trkpt lat="33.5212351" lon="132.3816255"><ele>208.86333333333334</ele><time>2026-04-18T22:57:19Z</time></trkpt><trkpt lat="33.5210979" lon="132.3817729"><ele>209.65666666666667</ele><time>2026-04-18T22:57:34Z</time></trkpt><trkpt lat="33.5209935" lon="132.3819647"><ele>213.30333333333337</ele><time>2026-04-18T22:57:50Z</time></trkpt><trkpt lat="33.5208517" lon="132.3821564"><ele>216.43666666666664</ele><time>2026-04-18T22:58:09Z</time></trkpt><trkpt lat="33.5208028" lon="132.382412"><ele>216.59666666666666</ele><time>2026-04-18T22:58:23Z</time></trkpt><trkpt lat="33.5208079" lon="132.3826329"><ele>215.17999999999998</ele><time>2026-04-18T22:58:35Z</time></trkpt><trkpt lat="33.5208741" lon="132.3828538"><ele>214.86666666666667</ele><time>2026-04-18T22:59:35Z</time></trkpt><trkpt lat="33.5208307" lon="132.3830705"><ele>217.81000000000003</ele><time>2026-04-18T22:59:59Z</time></trkpt><trkpt lat="33.5207568" lon="132.3832868"><ele>221.52333333333334</ele><time>2026-04-18T23:00:29Z</time></trkpt><trkpt lat="33.5206604" lon="132.383536"><ele>223.61</ele><time>2026-04-18T23:00:44Z</time></trkpt><trkpt lat="33.5205903" lon="132.3837663"><ele>223.37666666666667</ele><time>2026-04-18T23:00:59Z</time></trkpt><trkpt lat="33.5205511" lon="132.3839843"><ele>222.26</ele><time>2026-04-18T23:01:14Z</time></trkpt><trkpt lat="33.5204533" lon="132.3841917"><ele>221.49</ele><time>2026-04-18T23:01:29Z</time></trkpt><trkpt lat="33.5203716" lon="132.3844252"><ele>221.16666666666666</ele><time>2026-04-18T23:01:46Z</time></trkpt><trkpt lat="33.5203555" lon="132.3846589"><ele>223.12333333333333</ele><time>2026-04-18T23:01:58Z</time></trkpt><trkpt lat="33.5202467" lon="132.3848327"><ele>227.14000000000001</ele><time>2026-04-18T23:02:12Z</time></trkpt><trkpt lat="33.5200999" lon="132.3849792"><ele>232.13333333333333</ele><time>2026-04-18T23:02:29Z</time></trkpt><trkpt lat="33.5199033" lon="132.384984"><ele>236.26333333333332</ele><time>2026-04-18T23:02:49Z</time></trkpt><trkpt lat="33.5196919" lon="132.3849835"><ele>238.72333333333336</ele><time>2026-04-18T23:03:09Z</time></trkpt><trkpt lat="33.5195186" lon="132.3851152"><ele>238.65</ele><time>2026-04-18T23:03:24Z</time></trkpt><trkpt lat="33.519323" lon="132.3850613"><ele>238.29333333333332</ele><time>2026-04-18T23:03:44Z</time></trkpt><trkpt lat="33.5191292" lon="132.3849733"><ele>237.93999999999997</ele><time>2026-04-18T23:03:58Z</time></trkpt><trkpt lat="33.5189239" lon="132.3850522"><ele>238.74666666666667</ele><time>2026-04-18T23:04:10Z</time></trkpt><trkpt lat="33.5187735" lon="132.3851852"><ele>238.26</ele><time>2026-04-18T23:04:24Z</time></trkpt><trkpt lat="33.5185869" lon="132.3852896"><ele>237.18333333333337</ele><time>2026-04-18T23:04:43Z</time></trkpt><trkpt lat="33.5187982" lon="132.3852636"><ele>235.64000000000001</ele><time>2026-04-18T23:05:16Z</time></trkpt><trkpt lat="33.5189506" lon="132.3851394"><ele>235.48333333333335</ele><time>2026-04-18T23:05:46Z</time></trkpt><trkpt lat="33.5190718" lon="132.3849214"><ele>236.56000000000003</ele><time>2026-04-18T23:05:58Z</time></trkpt><trkpt lat="33.5192548" lon="132.3849103"><ele>240.50333333333333</ele><time>2026-04-18T23:06:19Z</time></trkpt><trkpt lat="33.5194272" lon="132.3850036"><ele>241.19000000000003</ele><time>2026-04-18T23:06:35Z</time></trkpt><trkpt lat="33.5196192" lon="132.3848885"><ele>243.70333333333335</ele><time>2026-04-18T23:06:50Z</time></trkpt><trkpt lat="33.5197937" lon="132.3848091"><ele>244.95333333333335</ele><time>2026-04-18T23:07:02Z</time></trkpt><trkpt lat="33.519933" lon="132.384671"><ele>247.51999999999998</ele><time>2026-04-18T23:07:14Z</time></trkpt><trkpt lat="33.5199578" lon="132.3844239"><ele>247.65333333333334</ele><time>2026-04-18T23:07:29Z</time></trkpt><trkpt lat="33.5199561" lon="132.384186"><ele>247.83</ele><time>2026-04-18T23:07:44Z</time></trkpt><trkpt lat="33.5199263" lon="132.3839459"><ele>252.27666666666667</ele><time>2026-04-18T23:07:59Z</time></trkpt><trkpt lat="33.5198148" lon="132.3837466"><ele>257.4066666666667</ele><time>2026-04-18T23:08:14Z</time></trkpt><trkpt lat="33.5199177" lon="132.3835338"><ele>261.43</ele><time>2026-04-18T23:08:29Z</time></trkpt><trkpt lat="33.519883" lon="132.3832963"><ele>261.8</ele><time>2026-04-18T23:08:45Z</time></trkpt><trkpt lat="33.5197906" lon="132.3831003"><ele>259.1333333333333</ele><time>2026-04-18T23:09:03Z</time></trkpt><trkpt lat="33.5196534" lon="132.3829423"><ele>257.1666666666667</ele><time>2026-04-18T23:09:24Z</time></trkpt><trkpt lat="33.5195347" lon="132.3831161"><ele>258.48333333333335</ele><time>2026-04-18T23:09:33Z</time></trkpt><trkpt lat="33.5194044" lon="132.3832688"><ele>263.06</ele><time>2026-04-18T23:09:48Z</time></trkpt><trkpt lat="33.5194059" lon="132.383498"><ele>268.4833333333333</ele><time>2026-04-18T23:10:08Z</time></trkpt><trkpt lat="33.5192402" lon="132.3836582"><ele>272.9633333333333</ele><time>2026-04-18T23:10:42Z</time></trkpt><trkpt lat="33.5191086" lon="132.3838267"><ele>276.77</ele><time>2026-04-18T23:10:53Z</time></trkpt><trkpt lat="33.518957" lon="132.383962"><ele>280.22</ele><time>2026-04-18T23:11:07Z</time></trkpt><trkpt lat="33.5188082" lon="132.3841356"><ele>281.6366666666667</ele><time>2026-04-18T23:11:27Z</time></trkpt><trkpt lat="33.5187326" lon="132.3843417"><ele>280.23333333333335</ele><time>2026-04-18T23:11:45Z</time></trkpt><trkpt lat="33.5185542" lon="132.3843886"><ele>280.7266666666667</ele><time>2026-04-18T23:12:09Z</time></trkpt><trkpt lat="33.5183491" lon="132.3843396"><ele>284.3866666666667</ele><time>2026-04-18T23:12:26Z</time></trkpt><trkpt lat="33.5181668" lon="132.3843092"><ele>292.16</ele><time>2026-04-18T23:12:49Z</time></trkpt><trkpt lat="33.5179769" lon="132.3842542"><ele>297.17</ele><time>2026-04-18T23:13:07Z</time></trkpt><trkpt lat="33.5181392" lon="132.3841379"><ele>301.37333333333333</ele><time>2026-04-18T23:13:42Z</time></trkpt><trkpt lat="33.5183221" lon="132.3840966"><ele>302.24333333333334</ele><time>2026-04-18T23:14:04Z</time></trkpt><trkpt lat="33.5183365" lon="132.3838518"><ele>305.44666666666666</ele><time>2026-04-18T23:14:22Z</time></trkpt><trkpt lat="33.5184447" lon="132.3836486"><ele>305.58</ele><time>2026-04-18T23:14:51Z</time></trkpt><trkpt lat="33.5184601" lon="132.3833903"><ele>307.68333333333334</ele><time>2026-04-18T23:15:09Z</time></trkpt><trkpt lat="33.5184606" lon="132.3831689"><ele>308.3333333333333</ele><time>2026-04-18T23:15:26Z</time></trkpt><trkpt lat="33.5183979" lon="132.3829286"><ele>312.50333333333333</ele><time>2026-04-18T23:15:44Z</time></trkpt><trkpt lat="33.5184207" lon="132.3826944"><ele>316.6933333333333</ele><time>2026-04-18T23:16:01Z</time></trkpt><trkpt lat="33.5184129" lon="132.3824787"><ele>321.7133333333333</ele><time>2026-04-18T23:16:21Z</time></trkpt><trkpt lat="33.5184905" lon="132.38224"><ele>324.6433333333334</ele><time>2026-04-18T23:16:39Z</time></trkpt><trkpt lat="33.5185745" lon="132.3820401"><ele>325.41333333333336</ele><time>2026-04-18T23:17:08Z</time></trkpt><trkpt lat="33.518388" lon="132.3818721"><ele>326.09999999999997</ele><time>2026-04-18T23:17:23Z</time></trkpt><trkpt lat="33.5182728" lon="132.3816599"><ele>327.91</ele><time>2026-04-18T23:17:51Z</time></trkpt><trkpt lat="33.5182385" lon="132.3814433"><ele>330.73333333333335</ele><time>2026-04-18T23:18:08Z</time></trkpt><trkpt lat="33.5181647" lon="132.3812367"><ele>332.26</ele><time>2026-04-18T23:19:06Z</time></trkpt><trkpt lat="33.5180435" lon="132.3810441"><ele>331.92333333333335</ele><time>2026-04-18T23:19:24Z</time></trkpt><trkpt lat="33.5179968" lon="132.3808128"><ele>331.11333333333334</ele><time>2026-04-18T23:19:41Z</time></trkpt><trkpt lat="33.5178361" lon="132.3806881"><ele>331.03000000000003</ele><time>2026-04-18T23:19:59Z</time></trkpt><trkpt lat="33.5176608" lon="132.3806316"><ele>334.82</ele><time>2026-04-18T23:20:24Z</time></trkpt><trkpt lat="33.5175884" lon="132.3804281"><ele>339.0366666666667</ele><time>2026-04-18T23:21:06Z</time></trkpt><trkpt lat="33.5174589" lon="132.3802745"><ele>342.7266666666667</ele><time>2026-04-18T23:21:21Z</time></trkpt><trkpt lat="33.5172819" lon="132.3803427"><ele>346.07</ele><time>2026-04-18T23:21:35Z</time></trkpt><trkpt lat="33.5171859" lon="132.3805437"><ele>352.63000000000005</ele><time>2026-04-18T23:21:55Z</time></trkpt><trkpt lat="33.5170679" lon="132.3807469"><ele>358.32666666666665</ele><time>2026-04-18T23:22:15Z</time></trkpt><trkpt lat="33.5168843" lon="132.3807158"><ele>359.5733333333333</ele><time>2026-04-18T23:22:37Z</time></trkpt><trkpt lat="33.5166797" lon="132.3807682"><ele>356.3866666666666</ele><time>2026-04-18T23:22:57Z</time></trkpt><trkpt lat="33.516561" lon="132.381093"><ele>353.77666666666664</ele><time>2026-04-18T23:23:12Z</time></trkpt><trkpt lat="33.5165052" lon="132.3812997"><ele>353.33</ele><time>2026-04-18T23:23:29Z</time></trkpt><trkpt lat="33.5163451" lon="132.3814284"><ele>355.16333333333336</ele><time>2026-04-18T23:23:52Z</time></trkpt><trkpt lat="33.5161635" lon="132.3813758"><ele>356.1766666666667</ele><time>2026-04-18T23:24:06Z</time></trkpt><trkpt lat="33.5160041" lon="132.3814984"><ele>360.66</ele><time>2026-04-18T23:24:23Z</time></trkpt><trkpt lat="33.5158219" lon="132.3814871"><ele>366.8866666666667</ele><time>2026-04-18T23:24:43Z</time></trkpt><trkpt lat="33.515641" lon="132.381518"><ele>374.2133333333333</ele><time>2026-04-18T23:25:04Z</time></trkpt><trkpt lat="33.5158489" lon="132.3815928"><ele>378.3</ele><time>2026-04-18T23:25:21Z</time></trkpt><trkpt lat="33.5160316" lon="132.3816503"><ele>379.06666666666666</ele><time>2026-04-18T23:25:36Z</time></trkpt><trkpt lat="33.5162281" lon="132.3817694"><ele>379.24666666666667</ele><time>2026-04-18T23:25:57Z</time></trkpt><trkpt lat="33.5164208" lon="132.3818169"><ele>377.82666666666665</ele><time>2026-04-18T23:26:11Z</time></trkpt><trkpt lat="33.5163431" lon="132.3820222"><ele>379.86666666666673</ele><time>2026-04-18T23:26:50Z</time></trkpt><trkpt lat="33.5161656" lon="132.382086"><ele>382.70000000000005</ele><time>2026-04-18T23:27:07Z</time></trkpt><trkpt lat="33.5159593" lon="132.3821466"><ele>387.29</ele><time>2026-04-18T23:27:23Z</time></trkpt><trkpt lat="33.5158153" lon="132.3819536"><ele>389.3733333333334</ele><time>2026-04-18T23:27:39Z</time></trkpt><trkpt lat="33.5156205" lon="132.3819526"><ele>389.05333333333334</ele><time>2026-04-18T23:27:58Z</time></trkpt><trkpt lat="33.5154071" lon="132.3819993"><ele>386.5733333333333</ele><time>2026-04-18T23:28:19Z</time></trkpt><trkpt lat="33.5152258" lon="132.3819543"><ele>385.58</ele><time>2026-04-18T23:28:39Z</time></trkpt><trkpt lat="33.5150308" lon="132.3819054"><ele>387.59666666666664</ele><time>2026-04-18T23:28:56Z</time></trkpt><trkpt lat="33.5148665" lon="132.3820054"><ele>390.44</ele><time>2026-04-18T23:29:07Z</time></trkpt><trkpt lat="33.5147018" lon="132.3819106"><ele>392.59999999999997</ele><time>2026-04-18T23:29:21Z</time></trkpt><trkpt lat="33.5145082" lon="132.3818886"><ele>394.68</ele><time>2026-04-18T23:30:05Z</time></trkpt><trkpt lat="33.5143225" lon="132.3819832"><ele>397.88000000000005</ele><time>2026-04-18T23:30:20Z</time></trkpt><trkpt lat="33.5142712" lon="132.3822211"><ele>397.6033333333334</ele><time>2026-04-18T23:30:41Z</time></trkpt><trkpt lat="33.5142649" lon="132.3824674"><ele>394.68</ele><time>2026-04-18T23:31:04Z</time></trkpt><trkpt lat="33.514333" lon="132.3826766"><ele>390.1966666666667</ele><time>2026-04-18T23:31:53Z</time></trkpt><trkpt lat="33.5142668" lon="132.3828787"><ele>394.75666666666666</ele><time>2026-04-18T23:32:28Z</time></trkpt><trkpt lat="33.5140626" lon="132.3828868"><ele>402.57</ele><time>2026-04-18T23:33:37Z</time></trkpt><trkpt lat="33.5140456" lon="132.3826542"><ele>408.55</ele><time>2026-04-18T23:34:13Z</time></trkpt><trkpt lat="33.5138464" lon="132.3826651"><ele>412.8333333333333</ele><time>2026-04-18T23:34:31Z</time></trkpt><trkpt lat="33.5136795" lon="132.3827602"><ele>417.72</ele><time>2026-04-18T23:34:51Z</time></trkpt><trkpt lat="33.5135342" lon="132.3826319"><ele>427.17333333333335</ele><time>2026-04-18T23:35:12Z</time></trkpt><trkpt lat="33.5135378" lon="132.3824055"><ele>433.10999999999996</ele><time>2026-04-18T23:35:48Z</time></trkpt><trkpt lat="33.5136319" lon="132.3821923"><ele>435.28999999999996</ele><time>2026-04-18T23:36:08Z</time></trkpt><trkpt lat="33.513476" lon="132.3820723"><ele>435.4266666666667</ele><time>2026-04-18T23:36:40Z</time></trkpt><trkpt lat="33.5132893" lon="132.3819602"><ele>434.0466666666666</ele><time>2026-04-18T23:36:59Z</time></trkpt><trkpt lat="33.5131085" lon="132.3818769"><ele>435.71000000000004</ele><time>2026-04-18T23:37:18Z</time></trkpt><trkpt lat="33.5129226" lon="132.3818526"><ele>439.27666666666664</ele><time>2026-04-18T23:38:14Z</time></trkpt><trkpt lat="33.5127785" lon="132.3819993"><ele>445.19000000000005</ele><time>2026-04-18T23:39:18Z</time></trkpt><trkpt lat="33.512604" lon="132.3821053"><ele>452.6233333333333</ele><time>2026-04-18T23:40:01Z</time></trkpt><trkpt lat="33.5124332" lon="132.3820196"><ele>458.97333333333336</ele><time>2026-04-18T23:40:32Z</time></trkpt><trkpt lat="33.5122587" lon="132.3820856"><ele>464.6233333333333</ele><time>2026-04-18T23:41:09Z</time></trkpt><trkpt lat="33.5120747" lon="132.3820536"><ele>468.3633333333334</ele><time>2026-04-18T23:41:33Z</time></trkpt><trkpt lat="33.5119094" lon="132.382176"><ele>473.9666666666667</ele><time>2026-04-18T23:42:20Z</time></trkpt><trkpt lat="33.5117292" lon="132.3821669"><ele>479.54333333333335</ele><time>2026-04-18T23:43:20Z</time></trkpt><trkpt lat="33.5115522" lon="132.3822397"><ele>485.8766666666667</ele><time>2026-04-18T23:43:50Z</time></trkpt><trkpt lat="33.5113765" lon="132.3821895"><ele>490.1666666666667</ele><time>2026-04-18T23:44:26Z</time></trkpt><trkpt lat="33.5111899" lon="132.3822005"><ele>493.9266666666667</ele><time>2026-04-18T23:46:47Z</time></trkpt><trkpt lat="33.5111096" lon="132.3820066"><ele>495.8833333333334</ele><time>2026-04-18T23:55:22Z</time></trkpt><trkpt lat="33.5112211" lon="132.3821763"><ele>496.59999999999997</ele><time>2026-04-18T23:56:16Z</time></trkpt><trkpt lat="33.5113898" lon="132.3822745"><ele>495.77666666666664</ele><time>2026-04-18T23:56:42Z</time></trkpt><trkpt lat="33.5115765" lon="132.3823327"><ele>493.7</ele><time>2026-04-18T23:57:11Z</time></trkpt><trkpt lat="33.511765" lon="132.3823985"><ele>490.9266666666667</ele><time>2026-04-18T23:57:36Z</time></trkpt><trkpt lat="33.5119457" lon="132.3823146"><ele>486.31666666666666</ele><time>2026-04-18T23:58:03Z</time></trkpt><trkpt lat="33.5120101" lon="132.382096"><ele>481.08</ele><time>2026-04-18T23:58:28Z</time></trkpt><trkpt lat="33.512188" lon="132.38203"><ele>475.36999999999995</ele><time>2026-04-18T23:58:52Z</time></trkpt><trkpt lat="33.5123937" lon="132.3820337"><ele>470.52333333333337</ele><time>2026-04-18T23:59:10Z</time></trkpt><trkpt lat="33.5125667" lon="132.3819607"><ele>465.66</ele><time>2026-04-18T23:59:27Z</time></trkpt><trkpt lat="33.51269" lon="132.3821289"><ele>461.70000000000005</ele><time>2026-04-18T23:59:39Z</time></trkpt><trkpt lat="33.512893" lon="132.3821427"><ele>456.42333333333335</ele><time>2026-04-18T23:59:59Z</time></trkpt><trkpt lat="33.5130327" lon="132.3819703"><ele>450.37999999999994</ele><time>2026-04-19T00:00:36Z</time></trkpt><trkpt lat="33.5132204" lon="132.381933"><ele>442.6833333333334</ele><time>2026-04-19T00:01:06Z</time></trkpt><trkpt lat="33.5133992" lon="132.3820608"><ele>437.93</ele><time>2026-04-19T00:01:21Z</time></trkpt><trkpt lat="33.5135896" lon="132.3820652"><ele>434.19000000000005</ele><time>2026-04-19T00:01:51Z</time></trkpt><trkpt lat="33.513734" lon="132.3819092"><ele>431.16</ele><time>2026-04-19T00:02:08Z</time></trkpt><trkpt lat="33.5139037" lon="132.3817797"><ele>426.24666666666667</ele><time>2026-04-19T00:02:39Z</time></trkpt><trkpt lat="33.5141085" lon="132.3816817"><ele>419.92</ele><time>2026-04-19T00:02:56Z</time></trkpt><trkpt lat="33.5143071" lon="132.3816139"><ele>412.56</ele><time>2026-04-19T00:03:11Z</time></trkpt><trkpt lat="33.514486" lon="132.3816968"><ele>405.6566666666667</ele><time>2026-04-19T00:04:19Z</time></trkpt><trkpt lat="33.5146553" lon="132.3818232"><ele>400.16333333333336</ele><time>2026-04-19T00:04:33Z</time></trkpt><trkpt lat="33.5148666" lon="132.3818145"><ele>396.1366666666666</ele><time>2026-04-19T00:04:55Z</time></trkpt><trkpt lat="33.5150561" lon="132.3818397"><ele>393.32666666666665</ele><time>2026-04-19T00:05:13Z</time></trkpt><trkpt lat="33.5152529" lon="132.381923"><ele>390.6966666666667</ele><time>2026-04-19T00:05:49Z</time></trkpt><trkpt lat="33.5154407" lon="132.382043"><ele>387.25</ele><time>2026-04-19T00:06:04Z</time></trkpt><trkpt lat="33.5156321" lon="132.3820601"><ele>385.10999999999996</ele><time>2026-04-19T00:06:22Z</time></trkpt><trkpt lat="33.5157806" lon="132.3822011"><ele>384.39333333333326</ele><time>2026-04-19T00:06:41Z</time></trkpt><trkpt lat="33.5159622" lon="132.3822325"><ele>386.1666666666667</ele><time>2026-04-19T00:06:53Z</time></trkpt><trkpt lat="33.5161599" lon="132.3821542"><ele>386.61000000000007</ele><time>2026-04-19T00:07:05Z</time></trkpt><trkpt lat="33.5163674" lon="132.3820897"><ele>385.20666666666665</ele><time>2026-04-19T00:07:20Z</time></trkpt><trkpt lat="33.5164648" lon="132.3819076"><ele>383.2833333333333</ele><time>2026-04-19T00:07:32Z</time></trkpt><trkpt lat="33.5163398" lon="132.3817076"><ele>378.4066666666667</ele><time>2026-04-19T00:07:50Z</time></trkpt><trkpt lat="33.5161559" lon="132.38166"><ele>375.7733333333333</ele><time>2026-04-19T00:08:05Z</time></trkpt><trkpt lat="33.5159823" lon="132.3816002"><ele>374.2366666666667</ele><time>2026-04-19T00:08:19Z</time></trkpt><trkpt lat="33.5157822" lon="132.3815882"><ele>377.22333333333336</ele><time>2026-04-19T00:08:34Z</time></trkpt><trkpt lat="33.5159633" lon="132.3815666"><ele>378.29333333333335</ele><time>2026-04-19T00:09:05Z</time></trkpt><trkpt lat="33.5161547" lon="132.3815899"><ele>375.3333333333333</ele><time>2026-04-19T00:09:20Z</time></trkpt><trkpt lat="33.5163356" lon="132.3815517"><ele>368.6666666666667</ele><time>2026-04-19T00:09:32Z</time></trkpt><trkpt lat="33.516521" lon="132.381497"><ele>363.58</ele><time>2026-04-19T00:09:45Z</time></trkpt><trkpt lat="33.5167026" lon="132.3813671"><ele>360.57</ele><time>2026-04-19T00:10:00Z</time></trkpt><trkpt lat="33.5168444" lon="132.3812196"><ele>360.15000000000003</ele><time>2026-04-19T00:10:12Z</time></trkpt><trkpt lat="33.5169386" lon="132.3810213"><ele>360.40333333333336</ele><time>2026-04-19T00:10:23Z</time></trkpt><trkpt lat="33.5170557" lon="132.3808443"><ele>361.4866666666667</ele><time>2026-04-19T00:10:39Z</time></trkpt><trkpt lat="33.5172199" lon="132.3806502"><ele>363.16</ele><time>2026-04-19T00:10:57Z</time></trkpt><trkpt lat="33.5172251" lon="132.3804334"><ele>361.24666666666667</ele><time>2026-04-19T00:11:09Z</time></trkpt><trkpt lat="33.5173513" lon="132.3802629"><ele>356.3966666666667</ele><time>2026-04-19T00:11:26Z</time></trkpt><trkpt lat="33.517536" lon="132.3803158"><ele>349.3233333333333</ele><time>2026-04-19T00:11:39Z</time></trkpt><trkpt lat="33.5176342" lon="132.3805214"><ele>345.09</ele><time>2026-04-19T00:11:51Z</time></trkpt><trkpt lat="33.5177599" lon="132.3806953"><ele>341.67</ele><time>2026-04-19T00:12:06Z</time></trkpt><trkpt lat="33.5178764" lon="132.3808607"><ele>338.08666666666664</ele><time>2026-04-19T00:12:23Z</time></trkpt><trkpt lat="33.5180244" lon="132.3810522"><ele>334.8966666666667</ele><time>2026-04-19T00:13:09Z</time></trkpt><trkpt lat="33.5181297" lon="132.3812728"><ele>334.58</ele><time>2026-04-19T00:13:27Z</time></trkpt><trkpt lat="33.5182425" lon="132.3814594"><ele>334.25333333333333</ele><time>2026-04-19T00:13:45Z</time></trkpt><trkpt lat="33.5183248" lon="132.381658"><ele>332.5</ele><time>2026-04-19T00:14:03Z</time></trkpt><trkpt lat="33.51839" lon="132.3819139"><ele>329.91333333333336</ele><time>2026-04-19T00:14:18Z</time></trkpt><trkpt lat="33.5184702" lon="132.3821482"><ele>328.42</ele><time>2026-04-19T00:14:33Z</time></trkpt><trkpt lat="33.5185096" lon="132.3823857"><ele>326.31</ele><time>2026-04-19T00:14:51Z</time></trkpt><trkpt lat="33.5184886" lon="132.3826376"><ele>323.34333333333336</ele><time>2026-04-19T00:15:06Z</time></trkpt><trkpt lat="33.5183872" lon="132.3828654"><ele>320.32666666666665</ele><time>2026-04-19T00:15:18Z</time></trkpt><trkpt lat="33.5183867" lon="132.3831023"><ele>317.92</ele><time>2026-04-19T00:15:30Z</time></trkpt><trkpt lat="33.5183868" lon="132.3833495"><ele>315.4166666666667</ele><time>2026-04-19T00:15:45Z</time></trkpt><trkpt lat="33.5181929" lon="132.3834823"><ele>314.90333333333336</ele><time>2026-04-19T00:15:57Z</time></trkpt><trkpt lat="33.5181546" lon="132.3837225"><ele>313.90000000000003</ele><time>2026-04-19T00:16:12Z</time></trkpt><trkpt lat="33.5182455" lon="132.3839088"><ele>312.67333333333335</ele><time>2026-04-19T00:16:21Z</time></trkpt><trkpt lat="33.5182253" lon="132.3841542"><ele>307.58</ele><time>2026-04-19T00:16:39Z</time></trkpt><trkpt lat="33.5180371" lon="132.3841204"><ele>305.1366666666667</ele><time>2026-04-19T00:16:51Z</time></trkpt><trkpt lat="33.5178411" lon="132.3840671"><ele>303.18333333333334</ele><time>2026-04-19T00:17:06Z</time></trkpt><trkpt lat="33.5179527" lon="132.3843156"><ele>301.37666666666667</ele><time>2026-04-19T00:17:18Z</time></trkpt><trkpt lat="33.5181299" lon="132.3844321"><ele>297.0733333333333</ele><time>2026-04-19T00:17:30Z</time></trkpt><trkpt lat="33.5183301" lon="132.3844419"><ele>292.44666666666666</ele><time>2026-04-19T00:17:45Z</time></trkpt><trkpt lat="33.5185363" lon="132.3843697"><ele>288.5133333333333</ele><time>2026-04-19T00:18:00Z</time></trkpt><trkpt lat="33.5187187" lon="132.384288"><ele>283.93</ele><time>2026-04-19T00:18:15Z</time></trkpt><trkpt lat="33.5188529" lon="132.3841426"><ele>280.62</ele><time>2026-04-19T00:18:30Z</time></trkpt><trkpt lat="33.5189657" lon="132.3839626"><ele>280.12666666666667</ele><time>2026-04-19T00:18:45Z</time></trkpt><trkpt lat="33.519142" lon="132.3838267"><ele>280.72</ele><time>2026-04-19T00:19:02Z</time></trkpt><trkpt lat="33.5192727" lon="132.3836582"><ele>280.22</ele><time>2026-04-19T00:19:15Z</time></trkpt><trkpt lat="33.5193461" lon="132.383428"><ele>277.0466666666667</ele><time>2026-04-19T00:19:31Z</time></trkpt><trkpt lat="33.5193763" lon="132.3831853"><ele>272.87333333333333</ele><time>2026-04-19T00:19:51Z</time></trkpt><trkpt lat="33.5195321" lon="132.3830669"><ele>267.96</ele><time>2026-04-19T00:20:09Z</time></trkpt><trkpt lat="33.5196615" lon="132.3832332"><ele>264.44666666666666</ele><time>2026-04-19T00:20:21Z</time></trkpt><trkpt lat="33.5197377" lon="132.3834727"><ele>263.3733333333334</ele><time>2026-04-19T00:20:42Z</time></trkpt><trkpt lat="33.5197876" lon="132.3836985"><ele>263.68</ele><time>2026-04-19T00:20:55Z</time></trkpt><trkpt lat="33.5198551" lon="132.3839055"><ele>263.28333333333336</ele><time>2026-04-19T00:21:07Z</time></trkpt><trkpt lat="33.5198673" lon="132.3841252"><ele>260.1466666666667</ele><time>2026-04-19T00:21:19Z</time></trkpt><trkpt lat="33.5199331" lon="132.3843807"><ele>254.98000000000002</ele><time>2026-04-19T00:21:35Z</time></trkpt><trkpt lat="33.5199294" lon="132.3846426"><ele>251.27333333333334</ele><time>2026-04-19T00:21:49Z</time></trkpt><trkpt lat="33.5197186" lon="132.3847226"><ele>250.41666666666666</ele><time>2026-04-19T00:22:05Z</time></trkpt><trkpt lat="33.5195675" lon="132.3848845"><ele>250.14000000000001</ele><time>2026-04-19T00:22:23Z</time></trkpt><trkpt lat="33.5193854" lon="132.3849116"><ele>246.79333333333332</ele><time>2026-04-19T00:22:38Z</time></trkpt><trkpt lat="33.5192011" lon="132.3848882"><ele>244.4466666666667</ele><time>2026-04-19T00:22:53Z</time></trkpt><trkpt lat="33.518997" lon="132.3848944"><ele>244.10666666666668</ele><time>2026-04-19T00:23:05Z</time></trkpt><trkpt lat="33.5188094" lon="132.3850382"><ele>243.7266666666667</ele><time>2026-04-19T00:23:20Z</time></trkpt><trkpt lat="33.5186083" lon="132.3851465"><ele>242.88333333333333</ele><time>2026-04-19T00:23:36Z</time></trkpt><trkpt lat="33.5187817" lon="132.3852544"><ele>239.0233333333333</ele><time>2026-04-19T00:24:00Z</time></trkpt><trkpt lat="33.5189552" lon="132.3851693"><ele>237.29666666666665</ele><time>2026-04-19T00:24:16Z</time></trkpt><trkpt lat="33.5191354" lon="132.3851096"><ele>234.79666666666665</ele><time>2026-04-19T00:24:31Z</time></trkpt><trkpt lat="33.5193191" lon="132.3850995"><ele>235.20333333333335</ele><time>2026-04-19T00:24:43Z</time></trkpt><trkpt lat="33.5195223" lon="132.3851155"><ele>235.88333333333335</ele><time>2026-04-19T00:24:58Z</time></trkpt><trkpt lat="33.5197112" lon="132.3851433"><ele>235.93333333333337</ele><time>2026-04-19T00:25:11Z</time></trkpt><trkpt lat="33.5199027" lon="132.3851077"><ele>235.52333333333334</ele><time>2026-04-19T00:25:23Z</time></trkpt><trkpt lat="33.5201193" lon="132.3850884"><ele>234.45333333333335</ele><time>2026-04-19T00:25:38Z</time></trkpt><trkpt lat="33.5202209" lon="132.38485"><ele>233.73333333333335</ele><time>2026-04-19T00:26:02Z</time></trkpt><trkpt lat="33.5202998" lon="132.3846509"><ele>230.01000000000002</ele><time>2026-04-19T00:26:13Z</time></trkpt><trkpt lat="33.5203457" lon="132.3844296"><ele>227.02333333333334</ele><time>2026-04-19T00:26:28Z</time></trkpt><trkpt lat="33.5204719" lon="132.3842713"><ele>222.67333333333332</ele><time>2026-04-19T00:26:43Z</time></trkpt><trkpt lat="33.5205854" lon="132.3840852"><ele>219.62333333333333</ele><time>2026-04-19T00:26:58Z</time></trkpt><trkpt lat="33.520682" lon="132.3838819"><ele>216.3166666666667</ele><time>2026-04-19T00:27:11Z</time></trkpt><trkpt lat="33.520762" lon="132.3836494"><ele>215.18666666666664</ele><time>2026-04-19T00:27:26Z</time></trkpt><trkpt lat="33.5207682" lon="132.3834144"><ele>218.06000000000003</ele><time>2026-04-19T00:27:41Z</time></trkpt><trkpt lat="33.5208108" lon="132.3831686"><ele>221.05000000000004</ele><time>2026-04-19T00:27:55Z</time></trkpt><trkpt lat="33.5207274" lon="132.3829358"><ele>222.46</ele><time>2026-04-19T00:28:10Z</time></trkpt><trkpt lat="33.5207388" lon="132.3826602"><ele>219.49333333333334</ele><time>2026-04-19T00:28:25Z</time></trkpt><trkpt lat="33.5208363" lon="132.3824236"><ele>216.09666666666666</ele><time>2026-04-19T00:28:40Z</time></trkpt><trkpt lat="33.520981" lon="132.3822542"><ele>213.15333333333334</ele><time>2026-04-19T00:28:55Z</time></trkpt><trkpt lat="33.5211325" lon="132.3820734"><ele>212.32333333333335</ele><time>2026-04-19T00:29:13Z</time></trkpt><trkpt lat="33.5212223" lon="132.3818249"><ele>210.4666666666667</ele><time>2026-04-19T00:29:25Z</time></trkpt><trkpt lat="33.5213026" lon="132.3816017"><ele>208.46333333333337</ele><time>2026-04-19T00:29:37Z</time></trkpt><trkpt lat="33.5213031" lon="132.3813797"><ele>207.73333333333335</ele><time>2026-04-19T00:29:49Z</time></trkpt><trkpt lat="33.5213727" lon="132.3811409"><ele>208.30999999999997</ele><time>2026-04-19T00:30:05Z</time></trkpt><trkpt lat="33.5215783" lon="132.3810973"><ele>208.47333333333336</ele><time>2026-04-19T00:30:27Z</time></trkpt><trkpt lat="33.5217662" lon="132.3811326"><ele>207.44333333333336</ele><time>2026-04-19T00:30:39Z</time></trkpt><trkpt lat="33.5219293" lon="132.3809905"><ele>206.72333333333336</ele><time>2026-04-19T00:30:58Z</time></trkpt><trkpt lat="33.5219633" lon="132.3807711"><ele>206.17333333333332</ele><time>2026-04-19T00:31:10Z</time></trkpt><trkpt lat="33.5218032" lon="132.3806078"><ele>206.10666666666665</ele><time>2026-04-19T00:31:25Z</time></trkpt><trkpt lat="33.5217049" lon="132.3804028"><ele>205.82000000000002</ele><time>2026-04-19T00:31:40Z</time></trkpt><trkpt lat="33.5215957" lon="132.3801933"><ele>204.29333333333332</ele><time>2026-04-19T00:31:56Z</time></trkpt><trkpt lat="33.5213834" lon="132.3802362"><ele>201.93999999999997</ele><time>2026-04-19T00:32:08Z</time></trkpt><trkpt lat="33.5212013" lon="132.3801861"><ele>199.25</ele><time>2026-04-19T00:32:20Z</time></trkpt><trkpt lat="33.5210497" lon="132.3800054"><ele>197.66666666666666</ele><time>2026-04-19T00:32:35Z</time></trkpt><trkpt lat="33.5209489" lon="132.3797826"><ele>196.33</ele><time>2026-04-19T00:32:50Z</time></trkpt><trkpt lat="33.520802" lon="132.3796107"><ele>195.98666666666668</ele><time>2026-04-19T00:33:05Z</time></trkpt><trkpt lat="33.5207195" lon="132.3794012"><ele>195.11333333333334</ele><time>2026-04-19T00:33:17Z</time></trkpt><trkpt lat="33.5206235" lon="132.3791988"><ele>194.24333333333334</ele><time>2026-04-19T00:33:29Z</time></trkpt><trkpt lat="33.5204445" lon="132.3790513"><ele>192.0666666666667</ele><time>2026-04-19T00:33:44Z</time></trkpt><trkpt lat="33.5202307" lon="132.3789494"><ele>192.15</ele><time>2026-04-19T00:34:02Z</time></trkpt><trkpt lat="33.5201615" lon="132.3787242"><ele>192.08333333333334</ele><time>2026-04-19T00:34:17Z</time></trkpt><trkpt lat="33.520088" lon="132.3785098"><ele>193.08333333333334</ele><time>2026-04-19T00:35:33Z</time></trkpt><trkpt lat="33.5200402" lon="132.3782811"><ele>192.83</ele><time>2026-04-19T00:35:47Z</time></trkpt><trkpt lat="33.5199736" lon="132.3780769"><ele>192.72</ele><time>2026-04-19T00:35:56Z</time></trkpt><trkpt lat="33.5198448" lon="132.3778776"><ele>190.60333333333332</ele><time>2026-04-19T00:36:08Z</time></trkpt><trkpt lat="33.5197514" lon="132.3776825"><ele>186.99333333333334</ele><time>2026-04-19T00:36:20Z</time></trkpt><trkpt lat="33.5195978" lon="132.377542"><ele>183.79666666666665</ele><time>2026-04-19T00:36:32Z</time></trkpt><trkpt lat="33.519439" lon="132.3773805"><ele>182.34333333333333</ele><time>2026-04-19T00:36:47Z</time></trkpt><trkpt lat="33.5193932" lon="132.3771579"><ele>183.17666666666665</ele><time>2026-04-19T00:37:05Z</time></trkpt><trkpt lat="33.519395" lon="132.3769016"><ele>183.26</ele><time>2026-04-19T00:37:29Z</time></trkpt><trkpt lat="33.5193977" lon="132.3766361"><ele>181.18666666666664</ele><time>2026-04-19T00:37:44Z</time></trkpt><trkpt lat="33.519346" lon="132.3764087"><ele>176.84333333333333</ele><time>2026-04-19T00:37:59Z</time></trkpt><trkpt lat="33.5193072" lon="132.376147"><ele>171.52999999999997</ele><time>2026-04-19T00:38:14Z</time></trkpt><trkpt lat="33.5192102" lon="132.375954"><ele>168.74</ele><time>2026-04-19T00:38:24Z</time></trkpt><trkpt lat="33.5190518" lon="132.3758442"><ele>168.59666666666666</ele><time>2026-04-19T00:38:35Z</time></trkpt><trkpt lat="33.5188711" lon="132.3757976"><ele>170.78333333333333</ele><time>2026-04-19T00:38:47Z</time></trkpt></trkseg></trk></gpx>