<?xml version='1.0' encoding='UTF-8'?><gpx creator="Yama Museum Summit Candidate Generator" xsi:schemaLocation="http://www.topografix.com/GPX/1/1 http://www.topografix.com/GPX/1/1/gpx.xsd" version="1.1" xmlns="http://www.topografix.com/GPX/1/1" xmlns:xsi="http://www.w3.org/2001/XMLSchema-instance" xmlns:yama="https://museum-yama-data.moukaeritai.work/ns/yama-data/0.1"><metadata><bounds maxlat="33.7970128" maxlon="133.1335246" minlat="33.7753347" minlon="133.1204987"/><name>前社ヶ森・剣山・黒川山</name><extensions><yama:source_gpx_basename>yamap_2025-09-21_08_53.gpx</yama:source_gpx_basename><yama:source_gpx_relative_path>data/01_raw/gpx/2026-05-12/yamap_2025-09-21_08_53.gpx</yama:source_gpx_relative_path><yama:detection_parameters>window=5,radius=10,min_prominence=30,merge=100</yama:detection_parameters></extensions></metadata><wpt lat="33.7755639" lon="133.1209272"><ele>1627.0833333333333</ele><time>2025-09-21T00:58:38Z</time><name>summit-candidate:109bc31ba8b3aa15</name><desc>Summit candidate detected at elevation 1627.0833333333333m with prominence 322.5540000000001m.</desc><sym>Summit Candidate</sym><extensions><yama:source_trackpoint_index>93</yama:source_trackpoint_index><yama:valid_elevation_index>93</yama:valid_elevation_index><yama:smoothed_ele>1624.488</yama:smoothed_ele><yama:prominence>322.5540000000001</yama:prominence><yama:detection_method>local_maxima_with_prominence</yama:detection_method><yama:detection_parameters>window=5,radius=10,min_prominence=30,merge=100</yama:detection_parameters><yama:candidate_status>unresolved</yama:candidate_status></extensions></wpt>
  <wpt lat="33.7905443" lon="133.1279248"><ele>1416.9733333333334</ele><time>2025-09-21T02:08:10Z</time><name>summit-candidate:ee632dd427dbb1ff</name><desc>Summit candidate detected at elevation 1416.9733333333334m with prominence 113.16733333333309m.</desc><sym>Summit Candidate</sym><extensions><yama:source_trackpoint_index>201</yama:source_trackpoint_index><yama:valid_elevation_index>201</yama:valid_elevation_index><yama:smoothed_ele>1415.0466666666666</yama:smoothed_ele><yama:prominence>113.16733333333309</yama:prominence><yama:detection_method>local_maxima_with_prominence</yama:detection_method><yama:detection_parameters>window=5,radius=10,min_prominence=30,merge=100</yama:detection_parameters><yama:candidate_status>unresolved</yama:candidate_status></extensions></wpt>
  <wpt lat="33.7968869" lon="133.1208698"><ele>1354.6866666666667</ele><time>2025-09-21T03:13:33Z</time><name>summit-candidate:6b97922a3935a9a5</name><desc>Summit candidate detected at elevation 1354.6866666666667m with prominence 52.0300000000002m.</desc><sym>Summit Candidate</sym><extensions><yama:source_trackpoint_index>268</yama:source_trackpoint_index><yama:valid_elevation_index>268</yama:valid_elevation_index><yama:smoothed_ele>1349.06</yama:smoothed_ele><yama:prominence>52.0300000000002</yama:prominence><yama:detection_method>local_maxima_with_prominence</yama:detection_method><yama:detection_parameters>window=5,radius=10,min_prominence=30,merge=100</yama:detection_parameters><yama:candidate_status>unresolved</yama:candidate_status></extensions></wpt>
  <wpt lat="33.7904157" lon="133.1298398"><ele>1409.006666666667</ele><time>2025-09-21T03:46:30Z</time><name>summit-candidate:56e8244e578a141a</name><desc>Summit candidate detected at elevation 1409.006666666667m with prominence 111.57466666666664m.</desc><sym>Summit Candidate</sym><extensions><yama:source_trackpoint_index>336</yama:source_trackpoint_index><yama:valid_elevation_index>336</yama:valid_elevation_index><yama:smoothed_ele>1408.12</yama:smoothed_ele><yama:prominence>111.57466666666664</yama:prominence><yama:detection_method>local_maxima_with_prominence</yama:detection_method><yama:detection_parameters>window=5,radius=10,min_prominence=30,merge=100</yama:detection_parameters><yama:candidate_status>unresolved</yama:candidate_status></extensions></wpt>
  <trk><name>前社ヶ森・剣山・黒川山</name><number>1</number><trkseg><trkpt lat="33.7886826" lon="133.1281006"><ele>1382.81</ele><time>2025-09-20T23:53:07Z</time></trkpt><trkpt lat="33.7885274" lon="133.1279525"><ele>1384.5</ele><time>2025-09-20T23:53:29Z</time></trkpt><trkpt lat="33.7883554" lon="133.1278131"><ele>1385.8533333333332</ele><time>2025-09-20T23:53:47Z</time></trkpt><trkpt lat="33.78825" lon="133.1276206"><ele>1387.006666666667</ele><time>2025-09-20T23:54:04Z</time></trkpt><trkpt lat="33.7881594" lon="133.1273986"><ele>1386.0233333333333</ele><time>2025-09-20T23:54:22Z</time></trkpt><trkpt lat="33.7881127" lon="133.1271835"><ele>1383.4399999999998</ele><time>2025-09-20T23:54:42Z</time></trkpt><trkpt lat="33.78794" lon="133.1270459"><ele>1380.1366666666665</ele><time>2025-09-20T23:55:00Z</time></trkpt><trkpt lat="33.78778" lon="133.126914"><ele>1376.3333333333333</ele><time>2025-09-20T23:55:21Z</time></trkpt><trkpt lat="33.7876197" lon="133.1268046"><ele>1372.3766666666668</ele><time>2025-09-20T23:55:42Z</time></trkpt><trkpt lat="33.7874571" lon="133.1266839"><ele>1368.9533333333331</ele><time>2025-09-20T23:56:09Z</time></trkpt><trkpt lat="33.7872745" lon="133.1266124"><ele>1366.0233333333333</ele><time>2025-09-20T23:56:33Z</time></trkpt><trkpt lat="33.7870929" lon="133.1265244"><ele>1362.9766666666667</ele><time>2025-09-20T23:57:03Z</time></trkpt><trkpt lat="33.7870025" lon="133.126321"><ele>1359.7133333333334</ele><time>2025-09-20T23:57:29Z</time></trkpt><trkpt lat="33.7869362" lon="133.1260849"><ele>1355.4333333333334</ele><time>2025-09-20T23:58:01Z</time></trkpt><trkpt lat="33.7868045" lon="133.1259059"><ele>1349.3933333333334</ele><time>2025-09-20T23:58:22Z</time></trkpt><trkpt lat="33.7866567" lon="133.1257637"><ele>1341.3500000000001</ele><time>2025-09-20T23:58:49Z</time></trkpt><trkpt lat="33.7865102" lon="133.1256182"><ele>1334.3233333333335</ele><time>2025-09-20T23:59:21Z</time></trkpt><trkpt lat="33.7863626" lon="133.1254622"><ele>1331.6966666666667</ele><time>2025-09-20T23:59:38Z</time></trkpt><trkpt lat="33.7862993" lon="133.1252574"><ele>1334.1966666666667</ele><time>2025-09-21T00:00:08Z</time></trkpt><trkpt lat="33.7861673" lon="133.1250974"><ele>1338.5766666666668</ele><time>2025-09-21T00:00:32Z</time></trkpt><trkpt lat="33.7860708" lon="133.1249086"><ele>1340.0500000000002</ele><time>2025-09-21T00:00:53Z</time></trkpt><trkpt lat="33.7859808" lon="133.1246939"><ele>1338.4966666666667</ele><time>2025-09-21T00:01:14Z</time></trkpt><trkpt lat="33.785864" lon="133.1245219"><ele>1335.68</ele><time>2025-09-21T00:01:38Z</time></trkpt><trkpt lat="33.7857077" lon="133.124353"><ele>1333.6833333333332</ele><time>2025-09-21T00:02:58Z</time></trkpt><trkpt lat="33.7856063" lon="133.1241472"><ele>1332.4066666666668</ele><time>2025-09-21T00:03:16Z</time></trkpt><trkpt lat="33.7856135" lon="133.1239149"><ele>1330.5033333333333</ele><time>2025-09-21T00:03:34Z</time></trkpt><trkpt lat="33.7856158" lon="133.1236765"><ele>1326.5500000000002</ele><time>2025-09-21T00:03:57Z</time></trkpt><trkpt lat="33.7854763" lon="133.1235295"><ele>1322.1666666666667</ele><time>2025-09-21T00:04:15Z</time></trkpt><trkpt lat="33.7853582" lon="133.1233443"><ele>1318.03</ele><time>2025-09-21T00:04:35Z</time></trkpt><trkpt lat="33.7853678" lon="133.123118"><ele>1315.1266666666668</ele><time>2025-09-21T00:05:08Z</time></trkpt><trkpt lat="33.7852998" lon="133.1229174"><ele>1313.0800000000002</ele><time>2025-09-21T00:05:26Z</time></trkpt><trkpt lat="33.7851244" lon="133.1227964"><ele>1311.71</ele><time>2025-09-21T00:05:47Z</time></trkpt><trkpt lat="33.7849685" lon="133.1226506"><ele>1311.256666666667</ele><time>2025-09-21T00:06:08Z</time></trkpt><trkpt lat="33.7848017" lon="133.1225049"><ele>1309.6933333333334</ele><time>2025-09-21T00:06:29Z</time></trkpt><trkpt lat="33.7846391" lon="133.1224052"><ele>1306.7666666666667</ele><time>2025-09-21T00:06:50Z</time></trkpt><trkpt lat="33.7844713" lon="133.1223113"><ele>1303.8766666666668</ele><time>2025-09-21T00:07:17Z</time></trkpt><trkpt lat="33.7842751" lon="133.1222739"><ele>1301.9466666666667</ele><time>2025-09-21T00:07:58Z</time></trkpt><trkpt lat="33.7840952" lon="133.1221862"><ele>1301.2466666666667</ele><time>2025-09-21T00:08:31Z</time></trkpt><trkpt lat="33.7838961" lon="133.1221243"><ele>1301.5533333333333</ele><time>2025-09-21T00:08:51Z</time></trkpt><trkpt lat="33.7836994" lon="133.122067"><ele>1301.8933333333334</ele><time>2025-09-21T00:09:12Z</time></trkpt><trkpt lat="33.7835129" lon="133.1220264"><ele>1303.03</ele><time>2025-09-21T00:09:30Z</time></trkpt><trkpt lat="33.7833519" lon="133.1219086"><ele>1305.53</ele><time>2025-09-21T00:10:41Z</time></trkpt><trkpt lat="33.7831695" lon="133.1219009"><ele>1311.2866666666666</ele><time>2025-09-21T00:11:24Z</time></trkpt><trkpt lat="33.7829729" lon="133.121915"><ele>1320.4266666666665</ele><time>2025-09-21T00:13:11Z</time></trkpt><trkpt lat="33.7827991" lon="133.1218208"><ele>1329.82</ele><time>2025-09-21T00:13:53Z</time></trkpt><trkpt lat="33.7826169" lon="133.1217953"><ele>1339.96</ele><time>2025-09-21T00:15:31Z</time></trkpt><trkpt lat="33.7824273" lon="133.1217425"><ele>1347.93</ele><time>2025-09-21T00:16:07Z</time></trkpt><trkpt lat="33.7822578" lon="133.1216678"><ele>1354.986666666667</ele><time>2025-09-21T00:16:31Z</time></trkpt><trkpt lat="33.7821537" lon="133.1214866"><ele>1358.5533333333333</ele><time>2025-09-21T00:17:12Z</time></trkpt><trkpt lat="33.78195" lon="133.1214841"><ele>1360.74</ele><time>2025-09-21T00:17:48Z</time></trkpt><trkpt lat="33.781761" lon="133.1214257"><ele>1362.0</ele><time>2025-09-21T00:18:08Z</time></trkpt><trkpt lat="33.7815799" lon="133.1213371"><ele>1361.5366666666669</ele><time>2025-09-21T00:18:26Z</time></trkpt><trkpt lat="33.7813913" lon="133.121326"><ele>1362.5966666666666</ele><time>2025-09-21T00:18:47Z</time></trkpt><trkpt lat="33.7812076" lon="133.1213181"><ele>1364.51</ele><time>2025-09-21T00:19:11Z</time></trkpt><trkpt lat="33.7810274" lon="133.1213585"><ele>1368.6966666666667</ele><time>2025-09-21T00:19:28Z</time></trkpt><trkpt lat="33.7808437" lon="133.1214554"><ele>1369.1233333333332</ele><time>2025-09-21T00:19:52Z</time></trkpt><trkpt lat="33.7806503" lon="133.1214235"><ele>1367.0166666666667</ele><time>2025-09-21T00:20:15Z</time></trkpt><trkpt lat="33.7804559" lon="133.1214094"><ele>1364.1166666666668</ele><time>2025-09-21T00:20:39Z</time></trkpt><trkpt lat="33.7802461" lon="133.1213455"><ele>1364.0766666666668</ele><time>2025-09-21T00:21:18Z</time></trkpt><trkpt lat="33.7800541" lon="133.1213381"><ele>1367.6833333333334</ele><time>2025-09-21T00:21:44Z</time></trkpt><trkpt lat="33.7798644" lon="133.1212873"><ele>1372.9066666666668</ele><time>2025-09-21T00:22:21Z</time></trkpt><trkpt lat="33.7797037" lon="133.1211742"><ele>1380.03</ele><time>2025-09-21T00:22:48Z</time></trkpt><trkpt lat="33.7795222" lon="133.1211389"><ele>1387.8833333333332</ele><time>2025-09-21T00:23:39Z</time></trkpt><trkpt lat="33.779338" lon="133.121084"><ele>1400.8233333333335</ele><time>2025-09-21T00:25:12Z</time></trkpt><trkpt lat="33.7791794" lon="133.1211919"><ele>1414.1200000000001</ele><time>2025-09-21T00:25:54Z</time></trkpt><trkpt lat="33.7792285" lon="133.1209764"><ele>1425.4233333333334</ele><time>2025-09-21T00:26:52Z</time></trkpt><trkpt lat="33.7790745" lon="133.1208447"><ele>1436.216666666667</ele><time>2025-09-21T00:28:25Z</time></trkpt><trkpt lat="33.7790992" lon="133.1206253"><ele>1441.8266666666668</ele><time>2025-09-21T00:29:01Z</time></trkpt><trkpt lat="33.7789531" lon="133.1204987"><ele>1448.506666666667</ele><time>2025-09-21T00:30:24Z</time></trkpt><trkpt lat="33.7787783" lon="133.1205563"><ele>1452.5600000000002</ele><time>2025-09-21T00:31:18Z</time></trkpt><trkpt lat="33.778608" lon="133.1206332"><ele>1461.7466666666667</ele><time>2025-09-21T00:32:33Z</time></trkpt><trkpt lat="33.7786959" lon="133.1208383"><ele>1469.5933333333332</ele><time>2025-09-21T00:33:08Z</time></trkpt><trkpt lat="33.7785055" lon="133.1208016"><ele>1475.2633333333333</ele><time>2025-09-21T00:33:59Z</time></trkpt><trkpt lat="33.7783251" lon="133.1207351"><ele>1480.8266666666668</ele><time>2025-09-21T00:34:53Z</time></trkpt><trkpt lat="33.778133" lon="133.1207179"><ele>1490.1533333333334</ele><time>2025-09-21T00:35:41Z</time></trkpt><trkpt lat="33.7780142" lon="133.1208815"><ele>1500.93</ele><time>2025-09-21T00:36:29Z</time></trkpt><trkpt lat="33.7778389" lon="133.1209661"><ele>1512.6499999999999</ele><time>2025-09-21T00:38:02Z</time></trkpt><trkpt lat="33.777652" lon="133.1209504"><ele>1522.2366666666667</ele><time>2025-09-21T00:39:17Z</time></trkpt><trkpt lat="33.7774557" lon="133.1209463"><ele>1533.2266666666667</ele><time>2025-09-21T00:40:04Z</time></trkpt><trkpt lat="33.7772702" lon="133.1209631"><ele>1543.6133333333335</ele><time>2025-09-21T00:41:19Z</time></trkpt><trkpt lat="33.7771332" lon="133.1211299"><ele>1549.0200000000002</ele><time>2025-09-21T00:41:48Z</time></trkpt><trkpt lat="33.7769538" lon="133.1210456"><ele>1551.2533333333333</ele><time>2025-09-21T00:42:27Z</time></trkpt><trkpt lat="33.7768571" lon="133.1208548"><ele>1554.0633333333335</ele><time>2025-09-21T00:43:42Z</time></trkpt><trkpt lat="33.7767307" lon="133.1206891"><ele>1562.57</ele><time>2025-09-21T00:45:18Z</time></trkpt><trkpt lat="33.7765644" lon="133.1208066"><ele>1569.4633333333334</ele><time>2025-09-21T00:51:06Z</time></trkpt><trkpt lat="33.7763754" lon="133.1207929"><ele>1574.0166666666667</ele><time>2025-09-21T00:51:45Z</time></trkpt><trkpt lat="33.7761969" lon="133.1208711"><ele>1578.6500000000003</ele><time>2025-09-21T00:52:45Z</time></trkpt><trkpt lat="33.7760081" lon="133.1208818"><ele>1587.5233333333335</ele><time>2025-09-21T00:53:41Z</time></trkpt><trkpt lat="33.7758244" lon="133.1208565"><ele>1597.706666666667</ele><time>2025-09-21T00:54:35Z</time></trkpt><trkpt lat="33.775689" lon="133.1207"><ele>1607.3833333333334</ele><time>2025-09-21T00:55:11Z</time></trkpt><trkpt lat="33.7755171" lon="133.1206071"><ele>1614.8133333333335</ele><time>2025-09-21T00:55:59Z</time></trkpt><trkpt lat="33.7753347" lon="133.1205989"><ele>1621.676666666667</ele><time>2025-09-21T00:57:02Z</time></trkpt><trkpt lat="33.7754902" lon="133.120728"><ele>1625.25</ele><time>2025-09-21T00:57:47Z</time></trkpt><trkpt lat="33.7755639" lon="133.1209272"><ele>1627.0833333333333</ele><time>2025-09-21T00:58:38Z</time></trkpt><trkpt lat="33.7754898" lon="133.1207192"><ele>1626.5400000000002</ele><time>2025-09-21T01:05:26Z</time></trkpt><trkpt lat="33.7756738" lon="133.120626"><ele>1621.89</ele><time>2025-09-21T01:07:20Z</time></trkpt><trkpt lat="33.7758083" lon="133.120803"><ele>1615.6666666666667</ele><time>2025-09-21T01:07:49Z</time></trkpt><trkpt lat="33.7759927" lon="133.1209026"><ele>1606.3433333333335</ele><time>2025-09-21T01:08:19Z</time></trkpt><trkpt lat="33.7761834" lon="133.1209134"><ele>1596.5933333333335</ele><time>2025-09-21T01:09:00Z</time></trkpt><trkpt lat="33.7763279" lon="133.1207754"><ele>1587.5566666666666</ele><time>2025-09-21T01:09:32Z</time></trkpt><trkpt lat="33.7765164" lon="133.1208107"><ele>1578.6833333333334</ele><time>2025-09-21T01:10:04Z</time></trkpt><trkpt lat="33.7767026" lon="133.1207356"><ele>1574.8766666666668</ele><time>2025-09-21T01:10:31Z</time></trkpt><trkpt lat="33.7768209" lon="133.1209097"><ele>1566.2633333333333</ele><time>2025-09-21T01:11:31Z</time></trkpt><trkpt lat="33.776932" lon="133.1210929"><ele>1557.1899999999998</ele><time>2025-09-21T01:12:16Z</time></trkpt><trkpt lat="33.7771109" lon="133.121132"><ele>1549.006666666667</ele><time>2025-09-21T01:12:55Z</time></trkpt><trkpt lat="33.7772897" lon="133.1210175"><ele>1547.506666666667</ele><time>2025-09-21T01:14:10Z</time></trkpt><trkpt lat="33.777438" lon="133.1208823"><ele>1548.1033333333332</ele><time>2025-09-21T01:18:25Z</time></trkpt><trkpt lat="33.777615" lon="133.1209504"><ele>1544.2366666666667</ele><time>2025-09-21T01:19:00Z</time></trkpt><trkpt lat="33.7777955" lon="133.1210074"><ele>1535.1133333333335</ele><time>2025-09-21T01:19:33Z</time></trkpt><trkpt lat="33.7779777" lon="133.1210128"><ele>1524.4633333333334</ele><time>2025-09-21T01:20:24Z</time></trkpt><trkpt lat="33.7781453" lon="133.1209293"><ele>1514.5233333333335</ele><time>2025-09-21T01:20:56Z</time></trkpt><trkpt lat="33.7780589" lon="133.1207338"><ele>1509.2966666666669</ele><time>2025-09-21T01:21:23Z</time></trkpt><trkpt lat="33.7782368" lon="133.1207713"><ele>1502.6500000000003</ele><time>2025-09-21T01:22:02Z</time></trkpt><trkpt lat="33.7784387" lon="133.1208073"><ele>1494.7633333333333</ele><time>2025-09-21T01:22:26Z</time></trkpt><trkpt lat="33.7786208" lon="133.1208743"><ele>1484.6833333333334</ele><time>2025-09-21T01:23:14Z</time></trkpt><trkpt lat="33.7786921" lon="133.1206722"><ele>1477.3066666666666</ele><time>2025-09-21T01:24:01Z</time></trkpt><trkpt lat="33.7788561" lon="133.1205751"><ele>1470.8333333333333</ele><time>2025-09-21T01:24:48Z</time></trkpt><trkpt lat="33.7790378" lon="133.1205299"><ele>1460.8966666666665</ele><time>2025-09-21T01:25:21Z</time></trkpt><trkpt lat="33.7790923" lon="133.1207648"><ele>1451.61</ele><time>2025-09-21T01:26:08Z</time></trkpt><trkpt lat="33.7791979" lon="133.1209577"><ele>1442.8100000000002</ele><time>2025-09-21T01:26:58Z</time></trkpt><trkpt lat="33.7791331" lon="133.1211781"><ele>1438.33</ele><time>2025-09-21T01:27:22Z</time></trkpt><trkpt lat="33.7793265" lon="133.1211619"><ele>1429.3566666666666</ele><time>2025-09-21T01:28:19Z</time></trkpt><trkpt lat="33.7795113" lon="133.1212156"><ele>1415.6966666666667</ele><time>2025-09-21T01:29:16Z</time></trkpt><trkpt lat="33.7796972" lon="133.1212001"><ele>1400.3466666666666</ele><time>2025-09-21T01:30:16Z</time></trkpt><trkpt lat="33.7798844" lon="133.1212769"><ele>1387.4066666666668</ele><time>2025-09-21T01:30:49Z</time></trkpt><trkpt lat="33.7800926" lon="133.1213508"><ele>1379.2</ele><time>2025-09-21T01:31:10Z</time></trkpt><trkpt lat="33.7802696" lon="133.1214075"><ele>1372.0766666666668</ele><time>2025-09-21T01:31:34Z</time></trkpt><trkpt lat="33.7804599" lon="133.1214671"><ele>1366.493333333333</ele><time>2025-09-21T01:32:22Z</time></trkpt><trkpt lat="33.7806452" lon="133.1214238"><ele>1363.61</ele><time>2025-09-21T01:32:40Z</time></trkpt><trkpt lat="33.7808242" lon="133.1214561"><ele>1363.6499999999999</ele><time>2025-09-21T01:33:01Z</time></trkpt><trkpt lat="33.7810098" lon="133.1213719"><ele>1366.9099999999999</ele><time>2025-09-21T01:33:19Z</time></trkpt><trkpt lat="33.7811996" lon="133.1213364"><ele>1369.1233333333332</ele><time>2025-09-21T01:33:43Z</time></trkpt><trkpt lat="33.7813881" lon="133.121359"><ele>1369.1733333333334</ele><time>2025-09-21T01:34:07Z</time></trkpt><trkpt lat="33.7815755" lon="133.1213717"><ele>1366.2266666666667</ele><time>2025-09-21T01:34:27Z</time></trkpt><trkpt lat="33.7817504" lon="133.1214388"><ele>1364.3133333333335</ele><time>2025-09-21T01:34:48Z</time></trkpt><trkpt lat="33.7819387" lon="133.1214892"><ele>1362.7766666666666</ele><time>2025-09-21T01:35:09Z</time></trkpt><trkpt lat="33.7821267" lon="133.121467"><ele>1362.1900000000003</ele><time>2025-09-21T01:35:51Z</time></trkpt><trkpt lat="33.7821898" lon="133.1216934"><ele>1360.4166666666667</ele><time>2025-09-21T01:36:15Z</time></trkpt><trkpt lat="33.782397" lon="133.1217366"><ele>1358.23</ele><time>2025-09-21T01:36:39Z</time></trkpt><trkpt lat="33.7825782" lon="133.1218433"><ele>1354.4733333333334</ele><time>2025-09-21T01:37:11Z</time></trkpt><trkpt lat="33.7827519" lon="133.1217461"><ele>1348.67</ele><time>2025-09-21T01:37:31Z</time></trkpt><trkpt lat="33.7828455" lon="133.1219436"><ele>1342.0900000000001</ele><time>2025-09-21T01:38:22Z</time></trkpt><trkpt lat="33.7830408" lon="133.1219703"><ele>1334.49</ele><time>2025-09-21T01:38:52Z</time></trkpt><trkpt lat="33.7832368" lon="133.1219839"><ele>1325.9333333333334</ele><time>2025-09-21T01:39:28Z</time></trkpt><trkpt lat="33.7834331" lon="133.1219842"><ele>1315.92</ele><time>2025-09-21T01:40:13Z</time></trkpt><trkpt lat="33.7836393" lon="133.1220269"><ele>1307.8266666666666</ele><time>2025-09-21T01:40:43Z</time></trkpt><trkpt lat="33.7838075" lon="133.1221089"><ele>1303.3466666666666</ele><time>2025-09-21T01:41:00Z</time></trkpt><trkpt lat="33.7839866" lon="133.1221508"><ele>1302.1366666666665</ele><time>2025-09-21T01:41:21Z</time></trkpt><trkpt lat="33.7841616" lon="133.1222793"><ele>1301.6266666666668</ele><time>2025-09-21T01:41:42Z</time></trkpt><trkpt lat="33.7843135" lon="133.1224027"><ele>1301.4833333333333</ele><time>2025-09-21T01:44:14Z</time></trkpt><trkpt lat="33.7844993" lon="133.1224171"><ele>1301.6166666666668</ele><time>2025-09-21T01:44:41Z</time></trkpt><trkpt lat="33.7846812" lon="133.122462"><ele>1302.5333333333335</ele><time>2025-09-21T01:45:26Z</time></trkpt><trkpt lat="33.7848489" lon="133.1225962"><ele>1304.74</ele><time>2025-09-21T01:45:52Z</time></trkpt><trkpt lat="33.7850191" lon="133.1227166"><ele>1307.5533333333333</ele><time>2025-09-21T01:46:13Z</time></trkpt><trkpt lat="33.7851857" lon="133.1228377"><ele>1310.26</ele><time>2025-09-21T01:46:34Z</time></trkpt><trkpt lat="33.7853056" lon="133.1230331"><ele>1312.09</ele><time>2025-09-21T01:46:54Z</time></trkpt><trkpt lat="33.7853351" lon="133.1232822"><ele>1313.66</ele><time>2025-09-21T01:47:15Z</time></trkpt><trkpt lat="33.7854394" lon="133.1234946"><ele>1315.5433333333333</ele><time>2025-09-21T01:47:35Z</time></trkpt><trkpt lat="33.785578" lon="133.1236545"><ele>1317.24</ele><time>2025-09-21T01:47:56Z</time></trkpt><trkpt lat="33.7855861" lon="133.1238756"><ele>1320.6033333333335</ele><time>2025-09-21T01:48:25Z</time></trkpt><trkpt lat="33.785585" lon="133.1241036"><ele>1324.9866666666667</ele><time>2025-09-21T01:49:04Z</time></trkpt><trkpt lat="33.7856807" lon="133.1243041"><ele>1329.7700000000002</ele><time>2025-09-21T01:49:34Z</time></trkpt><trkpt lat="33.7857854" lon="133.1244866"><ele>1332.63</ele><time>2025-09-21T01:50:04Z</time></trkpt><trkpt lat="33.7859059" lon="133.12465"><ele>1333.7700000000002</ele><time>2025-09-21T01:50:18Z</time></trkpt><trkpt lat="33.7860133" lon="133.1248434"><ele>1334.88</ele><time>2025-09-21T01:50:38Z</time></trkpt><trkpt lat="33.7860911" lon="133.125064"><ele>1337.5733333333335</ele><time>2025-09-21T01:51:05Z</time></trkpt><trkpt lat="33.7862181" lon="133.1252491"><ele>1339.92</ele><time>2025-09-21T01:51:26Z</time></trkpt><trkpt lat="33.7862796" lon="133.1254643"><ele>1339.9400000000003</ele><time>2025-09-21T01:51:50Z</time></trkpt><trkpt lat="33.7864124" lon="133.1256327"><ele>1336.95</ele><time>2025-09-21T01:52:11Z</time></trkpt><trkpt lat="33.7865286" lon="133.1258222"><ele>1334.6033333333335</ele><time>2025-09-21T01:52:31Z</time></trkpt><trkpt lat="33.7866904" lon="133.1259411"><ele>1335.7133333333334</ele><time>2025-09-21T01:52:55Z</time></trkpt><trkpt lat="33.7868493" lon="133.1260646"><ele>1340.0266666666666</ele><time>2025-09-21T01:53:25Z</time></trkpt><trkpt lat="33.7869153" lon="133.1262806"><ele>1345.1066666666666</ele><time>2025-09-21T01:53:58Z</time></trkpt><trkpt lat="33.7870068" lon="133.1264738"><ele>1350.99</ele><time>2025-09-21T01:54:23Z</time></trkpt><trkpt lat="33.7871264" lon="133.1266366"><ele>1355.3333333333333</ele><time>2025-09-21T01:54:51Z</time></trkpt><trkpt lat="33.787274" lon="133.1267617"><ele>1359.26</ele><time>2025-09-21T01:55:24Z</time></trkpt><trkpt lat="33.7874502" lon="133.1268089"><ele>1362.6299999999999</ele><time>2025-09-21T01:56:00Z</time></trkpt><trkpt lat="33.7876118" lon="133.1269274"><ele>1366.5600000000002</ele><time>2025-09-21T01:56:33Z</time></trkpt><trkpt lat="33.7877905" lon="133.1270058"><ele>1371.13</ele><time>2025-09-21T01:57:15Z</time></trkpt><trkpt lat="33.7879617" lon="133.1271112"><ele>1375.0466666666664</ele><time>2025-09-21T01:57:45Z</time></trkpt><trkpt lat="33.7881063" lon="133.1272547"><ele>1378.2766666666666</ele><time>2025-09-21T01:58:12Z</time></trkpt><trkpt lat="33.7881699" lon="133.1274609"><ele>1381.3966666666668</ele><time>2025-09-21T01:58:35Z</time></trkpt><trkpt lat="33.788272" lon="133.1276427"><ele>1383.9233333333334</ele><time>2025-09-21T01:58:59Z</time></trkpt><trkpt lat="33.788415" lon="133.1278232"><ele>1386.506666666667</ele><time>2025-09-21T01:59:23Z</time></trkpt><trkpt lat="33.7885386" lon="133.1279929"><ele>1387.006666666667</ele><time>2025-09-21T01:59:44Z</time></trkpt><trkpt lat="33.788711" lon="133.1281206"><ele>1385.9433333333334</ele><time>2025-09-21T02:00:04Z</time></trkpt><trkpt lat="33.7888571" lon="133.128263"><ele>1385.05</ele><time>2025-09-21T02:00:22Z</time></trkpt><trkpt lat="33.7889964" lon="133.1284033"><ele>1386.6466666666668</ele><time>2025-09-21T02:00:39Z</time></trkpt><trkpt lat="33.7891073" lon="133.1285928"><ele>1390.2166666666665</ele><time>2025-09-21T02:01:03Z</time></trkpt><trkpt lat="33.7892353" lon="133.1287719"><ele>1394.0733333333335</ele><time>2025-09-21T02:01:39Z</time></trkpt><trkpt lat="33.7893874" lon="133.1289002"><ele>1397.3333333333333</ele><time>2025-09-21T02:02:05Z</time></trkpt><trkpt lat="33.7895629" lon="133.1290013"><ele>1400.3566666666666</ele><time>2025-09-21T02:02:50Z</time></trkpt><trkpt lat="33.7897479" lon="133.1290099"><ele>1402.3266666666666</ele><time>2025-09-21T02:03:16Z</time></trkpt><trkpt lat="33.7899248" lon="133.1289375"><ele>1402.7333333333336</ele><time>2025-09-21T02:03:31Z</time></trkpt><trkpt lat="33.7900812" lon="133.1288126"><ele>1402.1566666666668</ele><time>2025-09-21T02:03:49Z</time></trkpt><trkpt lat="33.7900509" lon="133.1285823"><ele>1403.2266666666667</ele><time>2025-09-21T02:04:40Z</time></trkpt><trkpt lat="33.7898883" lon="133.1284659"><ele>1404.7133333333331</ele><time>2025-09-21T02:05:22Z</time></trkpt><trkpt lat="33.7899575" lon="133.1282661"><ele>1408.5166666666667</ele><time>2025-09-21T02:06:09Z</time></trkpt><trkpt lat="33.7900328" lon="133.1280483"><ele>1410.4733333333334</ele><time>2025-09-21T02:06:36Z</time></trkpt><trkpt lat="33.7902136" lon="133.1280251"><ele>1413.7666666666667</ele><time>2025-09-21T02:07:06Z</time></trkpt><trkpt lat="33.7903627" lon="133.1279013"><ele>1415.39</ele><time>2025-09-21T02:07:37Z</time></trkpt><trkpt lat="33.7905443" lon="133.1279248"><ele>1416.9733333333334</ele><time>2025-09-21T02:08:10Z</time></trkpt><trkpt lat="33.7907112" lon="133.1278194"><ele>1415.49</ele><time>2025-09-21T02:09:04Z</time></trkpt><trkpt lat="33.7906148" lon="133.1276241"><ele>1413.6133333333335</ele><time>2025-09-21T02:10:07Z</time></trkpt><trkpt lat="33.7904372" lon="133.1275556"><ele>1411.4166666666667</ele><time>2025-09-21T02:10:24Z</time></trkpt><trkpt lat="33.7902603" lon="133.127455"><ele>1411.36</ele><time>2025-09-21T02:10:42Z</time></trkpt><trkpt lat="33.7901605" lon="133.1272406"><ele>1410.7933333333333</ele><time>2025-09-21T02:10:59Z</time></trkpt><trkpt lat="33.7899844" lon="133.1271941"><ele>1410.9466666666667</ele><time>2025-09-21T02:11:22Z</time></trkpt><trkpt lat="33.7901724" lon="133.1272846"><ele>1410.5166666666667</ele><time>2025-09-21T02:12:36Z</time></trkpt><trkpt lat="33.7903025" lon="133.1274831"><ele>1410.8366666666668</ele><time>2025-09-21T02:12:54Z</time></trkpt><trkpt lat="33.7905034" lon="133.1275588"><ele>1410.323333333333</ele><time>2025-09-21T02:13:12Z</time></trkpt><trkpt lat="33.7906709" lon="133.1276883"><ele>1410.7033333333331</ele><time>2025-09-21T02:13:29Z</time></trkpt><trkpt lat="33.790863" lon="133.1277056"><ele>1409.33</ele><time>2025-09-21T02:14:35Z</time></trkpt><trkpt lat="33.7910451" lon="133.1276566"><ele>1406.706666666667</ele><time>2025-09-21T02:14:56Z</time></trkpt><trkpt lat="33.7912175" lon="133.1275211"><ele>1401.25</ele><time>2025-09-21T02:16:01Z</time></trkpt><trkpt lat="33.7913815" lon="133.127388"><ele>1397.1833333333334</ele><time>2025-09-21T02:16:21Z</time></trkpt><trkpt lat="33.7915623" lon="133.1273381"><ele>1394.18</ele><time>2025-09-21T02:16:42Z</time></trkpt><trkpt lat="33.7917571" lon="133.1272352"><ele>1392.79</ele><time>2025-09-21T02:17:02Z</time></trkpt><trkpt lat="33.7919311" lon="133.1271738"><ele>1389.8</ele><time>2025-09-21T02:17:22Z</time></trkpt><trkpt lat="33.7921113" lon="133.1271176"><ele>1386.33</ele><time>2025-09-21T02:17:43Z</time></trkpt><trkpt lat="33.7922665" lon="133.1269311"><ele>1386.0866666666668</ele><time>2025-09-21T02:18:54Z</time></trkpt><trkpt lat="33.7923436" lon="133.1267336"><ele>1386.7433333333336</ele><time>2025-09-21T02:19:09Z</time></trkpt><trkpt lat="33.7924645" lon="133.1265482"><ele>1389.6333333333332</ele><time>2025-09-21T02:19:26Z</time></trkpt><trkpt lat="33.7925437" lon="133.1263495"><ele>1389.4466666666667</ele><time>2025-09-21T02:19:41Z</time></trkpt><trkpt lat="33.7926205" lon="133.1261509"><ele>1389.6733333333334</ele><time>2025-09-21T02:19:58Z</time></trkpt><trkpt lat="33.7926975" lon="133.1259426"><ele>1386.3766666666668</ele><time>2025-09-21T02:20:16Z</time></trkpt><trkpt lat="33.7927837" lon="133.1257237"><ele>1384.14</ele><time>2025-09-21T02:20:37Z</time></trkpt><trkpt lat="33.7928968" lon="133.125527"><ele>1379.9033333333334</ele><time>2025-09-21T02:20:58Z</time></trkpt><trkpt lat="33.7929609" lon="133.1253116"><ele>1377.43</ele><time>2025-09-21T02:21:31Z</time></trkpt><trkpt lat="33.7929907" lon="133.1250647"><ele>1374.4266666666665</ele><time>2025-09-21T02:21:51Z</time></trkpt><trkpt lat="33.7929756" lon="133.1248218"><ele>1372.6333333333332</ele><time>2025-09-21T02:22:12Z</time></trkpt><trkpt lat="33.7929797" lon="133.1245797"><ele>1370.11</ele><time>2025-09-21T02:22:32Z</time></trkpt><trkpt lat="33.7929615" lon="133.1243484"><ele>1366.1166666666668</ele><time>2025-09-21T02:22:53Z</time></trkpt><trkpt lat="33.7929284" lon="133.1241113"><ele>1361.3433333333332</ele><time>2025-09-21T02:24:34Z</time></trkpt><trkpt lat="33.7928727" lon="133.1238882"><ele>1355.3866666666668</ele><time>2025-09-21T02:27:42Z</time></trkpt><trkpt lat="33.792858" lon="133.1236506"><ele>1349.0466666666669</ele><time>2025-09-21T02:28:06Z</time></trkpt><trkpt lat="33.7928032" lon="133.1234369"><ele>1342.71</ele><time>2025-09-21T02:28:30Z</time></trkpt><trkpt lat="33.7928142" lon="133.1231873"><ele>1335.6933333333334</ele><time>2025-09-21T02:28:51Z</time></trkpt><trkpt lat="33.7928783" lon="133.1229747"><ele>1328.7233333333334</ele><time>2025-09-21T02:29:14Z</time></trkpt><trkpt lat="33.7929068" lon="133.1227423"><ele>1321.1766666666665</ele><time>2025-09-21T02:29:50Z</time></trkpt><trkpt lat="33.7929149" lon="133.1225183"><ele>1316.02</ele><time>2025-09-21T02:30:23Z</time></trkpt><trkpt lat="33.7930098" lon="133.1223041"><ele>1313.66</ele><time>2025-09-21T02:31:23Z</time></trkpt><trkpt lat="33.7931332" lon="133.122143"><ele>1315.2633333333335</ele><time>2025-09-21T02:31:53Z</time></trkpt><trkpt lat="33.7933248" lon="133.1221128"><ele>1318.493333333333</ele><time>2025-09-21T02:32:34Z</time></trkpt><trkpt lat="33.793525" lon="133.1221088"><ele>1320.6833333333334</ele><time>2025-09-21T02:33:04Z</time></trkpt><trkpt lat="33.7937037" lon="133.122054"><ele>1320.6766666666665</ele><time>2025-09-21T02:33:28Z</time></trkpt><trkpt lat="33.7938747" lon="133.1221938"><ele>1318.41</ele><time>2025-09-21T02:33:52Z</time></trkpt><trkpt lat="33.7940567" lon="133.1222699"><ele>1314.92</ele><time>2025-09-21T02:34:09Z</time></trkpt><trkpt lat="33.794256" lon="133.1222531"><ele>1311.8933333333334</ele><time>2025-09-21T02:34:30Z</time></trkpt><trkpt lat="33.7944326" lon="133.1223563"><ele>1309.8366666666668</ele><time>2025-09-21T02:34:48Z</time></trkpt><trkpt lat="33.7946072" lon="133.1224619"><ele>1308.3100000000002</ele><time>2025-09-21T02:35:06Z</time></trkpt><trkpt lat="33.7947915" lon="133.1224882"><ele>1305.9466666666667</ele><time>2025-09-21T02:35:24Z</time></trkpt><trkpt lat="33.7949975" lon="133.122474"><ele>1303.68</ele><time>2025-09-21T02:35:45Z</time></trkpt><trkpt lat="33.7951345" lon="133.1223316"><ele>1301.6966666666667</ele><time>2025-09-21T02:36:02Z</time></trkpt><trkpt lat="33.7952975" lon="133.122192"><ele>1299.8166666666666</ele><time>2025-09-21T02:36:25Z</time></trkpt><trkpt lat="33.7954444" lon="133.122049"><ele>1297.0966666666666</ele><time>2025-09-21T02:36:45Z</time></trkpt><trkpt lat="33.7956153" lon="133.1219121"><ele>1294.4733333333334</ele><time>2025-09-21T02:37:12Z</time></trkpt><trkpt lat="33.7957859" lon="133.1218171"><ele>1294.42</ele><time>2025-09-21T02:38:54Z</time></trkpt><trkpt lat="33.7959677" lon="133.1218675"><ele>1296.92</ele><time>2025-09-21T02:39:33Z</time></trkpt><trkpt lat="33.7961532" lon="133.1218102"><ele>1300.7466666666667</ele><time>2025-09-21T02:40:06Z</time></trkpt><trkpt lat="33.7962694" lon="133.1216247"><ele>1303.71</ele><time>2025-09-21T02:40:39Z</time></trkpt><trkpt lat="33.7963538" lon="133.1214187"><ele>1308.1433333333332</ele><time>2025-09-21T02:41:05Z</time></trkpt><trkpt lat="33.7963416" lon="133.1211716"><ele>1313.0033333333333</ele><time>2025-09-21T02:41:41Z</time></trkpt><trkpt lat="33.7963635" lon="133.1209435"><ele>1318.2966666666669</ele><time>2025-09-21T02:42:44Z</time></trkpt><trkpt lat="33.7965461" lon="133.1210229"><ele>1324.02</ele><time>2025-09-21T02:44:40Z</time></trkpt><trkpt lat="33.796711" lon="133.1209215"><ele>1332.8466666666666</ele><time>2025-09-21T02:46:25Z</time></trkpt><trkpt lat="33.7968754" lon="133.1208298"><ele>1342.91</ele><time>2025-09-21T02:47:58Z</time></trkpt><trkpt lat="33.7970128" lon="133.1206752"><ele>1352.3966666666665</ele><time>2025-09-21T02:48:48Z</time></trkpt><trkpt lat="33.7968869" lon="133.1208698"><ele>1354.6866666666667</ele><time>2025-09-21T03:13:33Z</time></trkpt><trkpt lat="33.7967127" lon="133.1209618"><ele>1352.3966666666668</ele><time>2025-09-21T03:14:24Z</time></trkpt><trkpt lat="33.7965253" lon="133.1210425"><ele>1342.91</ele><time>2025-09-21T03:15:06Z</time></trkpt><trkpt lat="33.7964086" lon="133.1212367"><ele>1331.7933333333333</ele><time>2025-09-21T03:15:54Z</time></trkpt><trkpt lat="33.796327" lon="133.1214628"><ele>1319.3033333333333</ele><time>2025-09-21T03:16:21Z</time></trkpt><trkpt lat="33.7962423" lon="133.1216707"><ele>1310.1200000000001</ele><time>2025-09-21T03:16:51Z</time></trkpt><trkpt lat="33.7960998" lon="133.1218516"><ele>1304.93</ele><time>2025-09-21T03:17:18Z</time></trkpt><trkpt lat="33.79591" lon="133.1218407"><ele>1302.01</ele><time>2025-09-21T03:17:45Z</time></trkpt><trkpt lat="33.7957022" lon="133.1218611"><ele>1299.2366666666667</ele><time>2025-09-21T03:18:12Z</time></trkpt><trkpt lat="33.7955291" lon="133.1219667"><ele>1295.7633333333333</ele><time>2025-09-21T03:18:30Z</time></trkpt><trkpt lat="33.7953921" lon="133.1221157"><ele>1294.8999999999999</ele><time>2025-09-21T03:18:48Z</time></trkpt><trkpt lat="33.7952376" lon="133.1222647"><ele>1296.2566666666667</ele><time>2025-09-21T03:19:12Z</time></trkpt><trkpt lat="33.7950931" lon="133.1224273"><ele>1298.993333333333</ele><time>2025-09-21T03:19:45Z</time></trkpt><trkpt lat="33.7949124" lon="133.1224761"><ele>1300.8633333333335</ele><time>2025-09-21T03:20:15Z</time></trkpt><trkpt lat="33.7947293" lon="133.1224873"><ele>1302.1933333333334</ele><time>2025-09-21T03:20:36Z</time></trkpt><trkpt lat="33.7945572" lon="133.1223963"><ele>1303.5533333333333</ele><time>2025-09-21T03:20:57Z</time></trkpt><trkpt lat="33.7943801" lon="133.1223125"><ele>1306.42</ele><time>2025-09-21T03:21:30Z</time></trkpt><trkpt lat="33.7942067" lon="133.1222395"><ele>1308.5866666666668</ele><time>2025-09-21T03:22:00Z</time></trkpt><trkpt lat="33.7940129" lon="133.1222383"><ele>1310.99</ele><time>2025-09-21T03:22:45Z</time></trkpt><trkpt lat="33.7938391" lon="133.1221542"><ele>1313.51</ele><time>2025-09-21T03:23:06Z</time></trkpt><trkpt lat="33.7936685" lon="133.1220792"><ele>1317.0733333333335</ele><time>2025-09-21T03:23:33Z</time></trkpt><trkpt lat="33.7934688" lon="133.1220933"><ele>1320.23</ele><time>2025-09-21T03:24:00Z</time></trkpt><trkpt lat="33.7932877" lon="133.1221022"><ele>1321.2866666666666</ele><time>2025-09-21T03:24:41Z</time></trkpt><trkpt lat="33.7931005" lon="133.1221051"><ele>1318.7633333333333</ele><time>2025-09-21T03:25:05Z</time></trkpt><trkpt lat="33.7930095" lon="133.122323"><ele>1316.5166666666667</ele><time>2025-09-21T03:25:29Z</time></trkpt><trkpt lat="33.7929581" lon="133.1225633"><ele>1313.42</ele><time>2025-09-21T03:25:49Z</time></trkpt><trkpt lat="33.7929536" lon="133.1227964"><ele>1314.0</ele><time>2025-09-21T03:26:09Z</time></trkpt><trkpt lat="33.7929378" lon="133.1230201"><ele>1316.46</ele><time>2025-09-21T03:26:57Z</time></trkpt><trkpt lat="33.7928772" lon="133.1232362"><ele>1322.8933333333334</ele><time>2025-09-21T03:27:47Z</time></trkpt><trkpt lat="33.7928989" lon="133.1234617"><ele>1330.7866666666669</ele><time>2025-09-21T03:28:28Z</time></trkpt><trkpt lat="33.7929265" lon="133.1236772"><ele>1338.76</ele><time>2025-09-21T03:29:04Z</time></trkpt><trkpt lat="33.7929397" lon="133.1239055"><ele>1345.073333333333</ele><time>2025-09-21T03:29:55Z</time></trkpt><trkpt lat="33.7929646" lon="133.1241279"><ele>1350.8733333333332</ele><time>2025-09-21T03:31:13Z</time></trkpt><trkpt lat="33.792995" lon="133.1243562"><ele>1356.8466666666666</ele><time>2025-09-21T03:31:39Z</time></trkpt><trkpt lat="33.7930011" lon="133.1245766"><ele>1362.8700000000001</ele><time>2025-09-21T03:32:08Z</time></trkpt><trkpt lat="33.7929763" lon="133.1247963"><ele>1367.6433333333334</ele><time>2025-09-21T03:32:38Z</time></trkpt><trkpt lat="33.7929817" lon="133.1250201"><ele>1370.1233333333332</ele><time>2025-09-21T03:33:05Z</time></trkpt><trkpt lat="33.7929897" lon="133.1252469"><ele>1372.3999999999999</ele><time>2025-09-21T03:33:29Z</time></trkpt><trkpt lat="33.7929686" lon="133.1254707"><ele>1374.7833333333335</ele><time>2025-09-21T03:33:59Z</time></trkpt><trkpt lat="33.7928292" lon="133.1256357"><ele>1377.38</ele><time>2025-09-21T03:34:41Z</time></trkpt><trkpt lat="33.7927666" lon="133.1258555"><ele>1379.96</ele><time>2025-09-21T03:35:06Z</time></trkpt><trkpt lat="33.7926573" lon="133.1260323"><ele>1382.5633333333335</ele><time>2025-09-21T03:35:27Z</time></trkpt><trkpt lat="33.7925826" lon="133.1262355"><ele>1386.4766666666667</ele><time>2025-09-21T03:35:51Z</time></trkpt><trkpt lat="33.7925053" lon="133.1264495"><ele>1389.6166666666668</ele><time>2025-09-21T03:36:18Z</time></trkpt><trkpt lat="33.7923979" lon="133.1266281"><ele>1391.1366666666665</ele><time>2025-09-21T03:36:41Z</time></trkpt><trkpt lat="33.7923001" lon="133.1268208"><ele>1391.2533333333333</ele><time>2025-09-21T03:37:05Z</time></trkpt><trkpt lat="33.7922063" lon="133.1270337"><ele>1390.16</ele><time>2025-09-21T03:37:29Z</time></trkpt><trkpt lat="33.7920443" lon="133.1271466"><ele>1387.7233333333334</ele><time>2025-09-21T03:37:52Z</time></trkpt><trkpt lat="33.7918721" lon="133.127228"><ele>1386.7933333333333</ele><time>2025-09-21T03:38:31Z</time></trkpt><trkpt lat="33.7916744" lon="133.1272967"><ele>1387.783333333333</ele><time>2025-09-21T03:39:03Z</time></trkpt><trkpt lat="33.7914955" lon="133.1273307"><ele>1391.2833333333335</ele><time>2025-09-21T03:39:27Z</time></trkpt><trkpt lat="33.7913075" lon="133.127418"><ele>1393.1833333333334</ele><time>2025-09-21T03:39:51Z</time></trkpt><trkpt lat="33.7911491" lon="133.1275563"><ele>1394.7166666666665</ele><time>2025-09-21T03:40:12Z</time></trkpt><trkpt lat="33.7909761" lon="133.1276447"><ele>1398.28</ele><time>2025-09-21T03:40:42Z</time></trkpt><trkpt lat="33.7907981" lon="133.1277279"><ele>1403.3966666666668</ele><time>2025-09-21T03:41:15Z</time></trkpt><trkpt lat="33.7907897" lon="133.1279449"><ele>1407.1366666666665</ele><time>2025-09-21T03:42:06Z</time></trkpt><trkpt lat="33.7908563" lon="133.1281804"><ele>1406.7866666666666</ele><time>2025-09-21T03:42:25Z</time></trkpt><trkpt lat="33.7908604" lon="133.1284211"><ele>1407.4866666666667</ele><time>2025-09-21T03:42:45Z</time></trkpt><trkpt lat="33.7908405" lon="133.1286584"><ele>1406.54</ele><time>2025-09-21T03:43:05Z</time></trkpt><trkpt lat="33.790664" lon="133.1287489"><ele>1406.8233333333335</ele><time>2025-09-21T03:44:02Z</time></trkpt><trkpt lat="33.7905358" lon="133.128949"><ele>1401.4633333333331</ele><time>2025-09-21T03:44:20Z</time></trkpt><trkpt lat="33.7903461" lon="133.1288976"><ele>1398.9800000000002</ele><time>2025-09-21T03:44:36Z</time></trkpt><trkpt lat="33.7901565" lon="133.1288248"><ele>1397.95</ele><time>2025-09-21T03:44:53Z</time></trkpt><trkpt lat="33.789981" lon="133.1289576"><ele>1400.0</ele><time>2025-09-21T03:45:11Z</time></trkpt><trkpt lat="33.7899473" lon="133.1291777"><ele>1402.3766666666668</ele><time>2025-09-21T03:45:25Z</time></trkpt><trkpt lat="33.7899761" lon="133.129402"><ele>1404.8233333333335</ele><time>2025-09-21T03:45:39Z</time></trkpt><trkpt lat="33.7901544" lon="133.1295018"><ele>1407.4666666666665</ele><time>2025-09-21T03:45:56Z</time></trkpt><trkpt lat="33.7903048" lon="133.1296677"><ele>1408.7666666666667</ele><time>2025-09-21T03:46:12Z</time></trkpt><trkpt lat="33.7904157" lon="133.1298398"><ele>1409.006666666667</ele><time>2025-09-21T03:46:30Z</time></trkpt><trkpt lat="33.7905068" lon="133.130029"><ele>1407.8066666666666</ele><time>2025-09-21T03:46:45Z</time></trkpt><trkpt lat="33.7905689" lon="133.1302408"><ele>1407.5533333333333</ele><time>2025-09-21T03:47:00Z</time></trkpt><trkpt lat="33.7907442" lon="133.1303031"><ele>1406.7366666666667</ele><time>2025-09-21T03:47:15Z</time></trkpt><trkpt lat="33.7909291" lon="133.1302891"><ele>1404.3166666666666</ele><time>2025-09-21T03:47:30Z</time></trkpt><trkpt lat="33.7910911" lon="133.1304082"><ele>1400.4466666666667</ele><time>2025-09-21T03:47:47Z</time></trkpt><trkpt lat="33.7911525" lon="133.1306484"><ele>1396.72</ele><time>2025-09-21T03:48:05Z</time></trkpt><trkpt lat="33.7910597" lon="133.1308446"><ele>1395.1899999999998</ele><time>2025-09-21T03:48:47Z</time></trkpt><trkpt lat="33.7908868" lon="133.1309656"><ele>1393.1566666666668</ele><time>2025-09-21T03:49:05Z</time></trkpt><trkpt lat="33.7909167" lon="133.1311893"><ele>1390.33</ele><time>2025-09-21T03:49:20Z</time></trkpt><trkpt lat="33.7910056" lon="133.1314035"><ele>1385.28</ele><time>2025-09-21T03:49:38Z</time></trkpt><trkpt lat="33.7911568" lon="133.1315312"><ele>1379.9033333333334</ele><time>2025-09-21T03:49:55Z</time></trkpt><trkpt lat="33.7911552" lon="133.1313121"><ele>1374.8633333333335</ele><time>2025-09-21T03:50:19Z</time></trkpt><trkpt lat="33.7912818" lon="133.1314674"><ele>1370.9399999999998</ele><time>2025-09-21T03:50:34Z</time></trkpt><trkpt lat="33.7914204" lon="133.1316359"><ele>1366.7300000000002</ele><time>2025-09-21T03:50:52Z</time></trkpt><trkpt lat="33.7915837" lon="133.1317484"><ele>1363.0600000000002</ele><time>2025-09-21T03:51:09Z</time></trkpt><trkpt lat="33.7917656" lon="133.1316923"><ele>1358.9333333333334</ele><time>2025-09-21T03:51:53Z</time></trkpt><trkpt lat="33.791954" lon="133.1317214"><ele>1355.3166666666666</ele><time>2025-09-21T03:52:08Z</time></trkpt><trkpt lat="33.7921283" lon="133.1316652"><ele>1349.9666666666667</ele><time>2025-09-21T03:52:53Z</time></trkpt><trkpt lat="33.7923363" lon="133.1316596"><ele>1343.4833333333333</ele><time>2025-09-21T03:53:11Z</time></trkpt><trkpt lat="33.7924861" lon="133.1318013"><ele>1337.7233333333334</ele><time>2025-09-21T03:53:29Z</time></trkpt><trkpt lat="33.7924042" lon="133.1320111"><ele>1333.6066666666666</ele><time>2025-09-21T03:53:53Z</time></trkpt><trkpt lat="33.7925856" lon="133.1319873"><ele>1330.9566666666667</ele><time>2025-09-21T03:54:07Z</time></trkpt><trkpt lat="33.792769" lon="133.132022"><ele>1327.9466666666667</ele><time>2025-09-21T03:54:26Z</time></trkpt><trkpt lat="33.7929234" lon="133.1318597"><ele>1324.53</ele><time>2025-09-21T03:54:41Z</time></trkpt><trkpt lat="33.7931195" lon="133.1318671"><ele>1321.52</ele><time>2025-09-21T03:54:59Z</time></trkpt><trkpt lat="33.7933221" lon="133.1318582"><ele>1318.1133333333332</ele><time>2025-09-21T03:55:17Z</time></trkpt><trkpt lat="33.793514" lon="133.1318452"><ele>1314.9866666666667</ele><time>2025-09-21T03:55:31Z</time></trkpt><trkpt lat="33.7937239" lon="133.1318633"><ele>1312.53</ele><time>2025-09-21T03:55:48Z</time></trkpt><trkpt lat="33.7939212" lon="133.1319381"><ele>1311.2666666666667</ele><time>2025-09-21T03:56:06Z</time></trkpt><trkpt lat="33.7940813" lon="133.132044"><ele>1310.1066666666668</ele><time>2025-09-21T03:56:21Z</time></trkpt><trkpt lat="33.7942477" lon="133.1321568"><ele>1308.0233333333333</ele><time>2025-09-21T03:56:36Z</time></trkpt><trkpt lat="33.7944314" lon="133.132311"><ele>1304.8233333333335</ele><time>2025-09-21T03:57:20Z</time></trkpt><trkpt lat="33.7945741" lon="133.1324678"><ele>1301.2</ele><time>2025-09-21T03:57:35Z</time></trkpt><trkpt lat="33.794706" lon="133.1326378"><ele>1296.3400000000001</ele><time>2025-09-21T03:57:50Z</time></trkpt><trkpt lat="33.7948704" lon="133.1327718"><ele>1291.8833333333334</ele><time>2025-09-21T03:58:05Z</time></trkpt><trkpt lat="33.7950704" lon="133.1328776"><ele>1287.2466666666667</ele><time>2025-09-21T03:58:20Z</time></trkpt><trkpt lat="33.7951215" lon="133.1331044"><ele>1284.8999999999999</ele><time>2025-09-21T03:58:34Z</time></trkpt><trkpt lat="33.7951572" lon="133.1333217"><ele>1283.1433333333334</ele><time>2025-09-21T03:59:12Z</time></trkpt><trkpt lat="33.7953583" lon="133.1333035"><ele>1280.34</ele><time>2025-09-21T03:59:26Z</time></trkpt><trkpt lat="33.795285" lon="133.1335246"><ele>1277.9166666666667</ele><time>2025-09-21T03:59:50Z</time></trkpt></trkseg></trk></gpx>