<?xml version='1.0' encoding='UTF-8'?><gpx creator="Yama Museum Summit Candidate Generator" xsi:schemaLocation="http://www.topografix.com/GPX/1/1 http://www.topografix.com/GPX/1/1/gpx.xsd" version="1.1" xmlns="http://www.topografix.com/GPX/1/1" xmlns:xsi="http://www.w3.org/2001/XMLSchema-instance" xmlns:yama="https://museum-yama-data.moukaeritai.work/ns/yama-data/0.1"><metadata><bounds maxlat="34.2803696" maxlon="133.2281911" minlat="34.2709922" minlon="133.2151241"/><name>三山</name><extensions><yama:source_gpx_basename>yamap_2022-09-15_09_20.gpx</yama:source_gpx_basename><yama:source_gpx_relative_path>data/01_raw/gpx/2026-05-12/yamap_2022-09-15_09_20.gpx</yama:source_gpx_relative_path><yama:detection_parameters>window=5,radius=10,min_prominence=30,merge=100</yama:detection_parameters></extensions></metadata><wpt lat="34.2803533" lon="133.2279632"><ele>323.2966666666667</ele><time>2022-09-15T01:10:44Z</time><name>summit-candidate:35b464661fa62df9</name><desc>Summit candidate detected at elevation 323.2966666666667m with prominence 269.99533333333335m.</desc><sym>Summit Candidate</sym><extensions><yama:source_trackpoint_index>156</yama:source_trackpoint_index><yama:valid_elevation_index>156</yama:valid_elevation_index><yama:smoothed_ele>322.302</yama:smoothed_ele><yama:prominence>269.99533333333335</yama:prominence><yama:detection_method>local_maxima_with_prominence</yama:detection_method><yama:detection_parameters>window=5,radius=10,min_prominence=30,merge=100</yama:detection_parameters><yama:candidate_status>unresolved</yama:candidate_status></extensions></wpt>
  <trk><name>三山</name><number>1</number><trkseg><trkpt lat="34.2722223" lon="133.2151839"><ele>48.68</ele><time>2022-09-15T00:20:55Z</time></trkpt><trkpt lat="34.272101" lon="133.2153462"><ele>50.42</ele><time>2022-09-15T00:21:24Z</time></trkpt><trkpt lat="34.271983" lon="133.2155223"><ele>52.89666666666667</ele><time>2022-09-15T00:21:36Z</time></trkpt><trkpt lat="34.2718589" lon="133.2156924"><ele>55.63666666666666</ele><time>2022-09-15T00:21:49Z</time></trkpt><trkpt lat="34.2718049" lon="133.2159182"><ele>57.660000000000004</ele><time>2022-09-15T00:22:05Z</time></trkpt><trkpt lat="34.2717595" lon="133.2161309"><ele>59.20333333333334</ele><time>2022-09-15T00:22:22Z</time></trkpt><trkpt lat="34.2717343" lon="133.2163463"><ele>61.410000000000004</ele><time>2022-09-15T00:22:35Z</time></trkpt><trkpt lat="34.2715419" lon="133.2163236"><ele>63.30666666666667</ele><time>2022-09-15T00:22:51Z</time></trkpt><trkpt lat="34.2714926" lon="133.2161097"><ele>63.07333333333333</ele><time>2022-09-15T00:23:12Z</time></trkpt><trkpt lat="34.271309" lon="133.2161163"><ele>64.82666666666667</ele><time>2022-09-15T00:23:34Z</time></trkpt><trkpt lat="34.2713861" lon="133.2163229"><ele>66.71666666666667</ele><time>2022-09-15T00:23:47Z</time></trkpt><trkpt lat="34.2714281" lon="133.2165343"><ele>69.43333333333334</ele><time>2022-09-15T00:24:03Z</time></trkpt><trkpt lat="34.2713664" lon="133.2167528"><ele>71.63666666666667</ele><time>2022-09-15T00:25:04Z</time></trkpt><trkpt lat="34.2713781" lon="133.2169795"><ele>75.93333333333334</ele><time>2022-09-15T00:25:25Z</time></trkpt><trkpt lat="34.2712187" lon="133.2168662"><ele>80.07666666666667</ele><time>2022-09-15T00:25:39Z</time></trkpt><trkpt lat="34.2711985" lon="133.2166463"><ele>81.62333333333333</ele><time>2022-09-15T00:26:06Z</time></trkpt><trkpt lat="34.271053" lon="133.2165017"><ele>82.45333333333333</ele><time>2022-09-15T00:26:20Z</time></trkpt><trkpt lat="34.271049" lon="133.2167228"><ele>84.62333333333333</ele><time>2022-09-15T00:26:38Z</time></trkpt><trkpt lat="34.2710398" lon="133.216947"><ele>89.82333333333334</ele><time>2022-09-15T00:26:53Z</time></trkpt><trkpt lat="34.2709922" lon="133.2171695"><ele>95.60666666666667</ele><time>2022-09-15T00:27:10Z</time></trkpt><trkpt lat="34.2711269" lon="133.2173348"><ele>99.33</ele><time>2022-09-15T00:27:20Z</time></trkpt><trkpt lat="34.2713163" lon="133.2173585"><ele>99.83666666666666</ele><time>2022-09-15T00:27:27Z</time></trkpt><trkpt lat="34.2714396" lon="133.21756"><ele>98.43666666666667</ele><time>2022-09-15T00:27:41Z</time></trkpt><trkpt lat="34.2714352" lon="133.2177792"><ele>98.93333333333334</ele><time>2022-09-15T00:27:54Z</time></trkpt><trkpt lat="34.2714215" lon="133.2180103"><ele>101.84666666666668</ele><time>2022-09-15T00:28:10Z</time></trkpt><trkpt lat="34.2716048" lon="133.2180244"><ele>104.53666666666668</ele><time>2022-09-15T00:28:23Z</time></trkpt><trkpt lat="34.2717908" lon="133.2180118"><ele>107.05333333333333</ele><time>2022-09-15T00:28:37Z</time></trkpt><trkpt lat="34.2719764" lon="133.218"><ele>108.25999999999999</ele><time>2022-09-15T00:28:52Z</time></trkpt><trkpt lat="34.272152" lon="133.217942"><ele>109.37666666666667</ele><time>2022-09-15T00:29:15Z</time></trkpt><trkpt lat="34.2722928" lon="133.2177962"><ele>110.24333333333334</ele><time>2022-09-15T00:29:23Z</time></trkpt><trkpt lat="34.2724492" lon="133.2176783"><ele>111.52000000000002</ele><time>2022-09-15T00:29:36Z</time></trkpt><trkpt lat="34.2726461" lon="133.2177031"><ele>115.23333333333335</ele><time>2022-09-15T00:29:48Z</time></trkpt><trkpt lat="34.2727707" lon="133.2175426"><ele>120.02</ele><time>2022-09-15T00:30:03Z</time></trkpt><trkpt lat="34.2727839" lon="133.2173215"><ele>123.51666666666667</ele><time>2022-09-15T00:30:15Z</time></trkpt><trkpt lat="34.2728103" lon="133.2170983"><ele>124.00999999999999</ele><time>2022-09-15T00:30:31Z</time></trkpt><trkpt lat="34.272997" lon="133.2170569"><ele>122.40333333333335</ele><time>2022-09-15T00:30:46Z</time></trkpt><trkpt lat="34.2731156" lon="133.217232"><ele>121.74666666666667</ele><time>2022-09-15T00:31:00Z</time></trkpt><trkpt lat="34.2731768" lon="133.2174613"><ele>121.73333333333333</ele><time>2022-09-15T00:31:14Z</time></trkpt><trkpt lat="34.273254" lon="133.2176598"><ele>123.91333333333334</ele><time>2022-09-15T00:31:45Z</time></trkpt><trkpt lat="34.273393" lon="133.2178064"><ele>126.14666666666666</ele><time>2022-09-15T00:32:00Z</time></trkpt><trkpt lat="34.2735353" lon="133.217947"><ele>128.65</ele><time>2022-09-15T00:32:17Z</time></trkpt><trkpt lat="34.2736468" lon="133.2181267"><ele>132.26333333333332</ele><time>2022-09-15T00:32:34Z</time></trkpt><trkpt lat="34.273781" lon="133.2183001"><ele>137.9466666666667</ele><time>2022-09-15T00:32:49Z</time></trkpt><trkpt lat="34.2739169" lon="133.2181462"><ele>143.33</ele><time>2022-09-15T00:33:04Z</time></trkpt><trkpt lat="34.2739988" lon="133.2179416"><ele>145.28666666666666</ele><time>2022-09-15T00:33:22Z</time></trkpt><trkpt lat="34.2740757" lon="133.2177449"><ele>144.96</ele><time>2022-09-15T00:33:38Z</time></trkpt><trkpt lat="34.274153" lon="133.2175444"><ele>143.98333333333335</ele><time>2022-09-15T00:33:52Z</time></trkpt><trkpt lat="34.2743336" lon="133.2174494"><ele>144.59666666666666</ele><time>2022-09-15T00:34:07Z</time></trkpt><trkpt lat="34.2745116" lon="133.2173624"><ele>145.33666666666667</ele><time>2022-09-15T00:34:22Z</time></trkpt><trkpt lat="34.274687" lon="133.2172723"><ele>146.94666666666666</ele><time>2022-09-15T00:34:40Z</time></trkpt><trkpt lat="34.2748649" lon="133.2172038"><ele>146.07333333333332</ele><time>2022-09-15T00:34:57Z</time></trkpt><trkpt lat="34.2750358" lon="133.2173145"><ele>148.67666666666665</ele><time>2022-09-15T00:35:12Z</time></trkpt><trkpt lat="34.2751783" lon="133.2174492"><ele>151.83333333333334</ele><time>2022-09-15T00:35:25Z</time></trkpt><trkpt lat="34.2753619" lon="133.217519"><ele>158.41666666666666</ele><time>2022-09-15T00:35:40Z</time></trkpt><trkpt lat="34.2755496" lon="133.217448"><ele>161.79666666666668</ele><time>2022-09-15T00:35:55Z</time></trkpt><trkpt lat="34.2756659" lon="133.2172663"><ele>164.61</ele><time>2022-09-15T00:36:08Z</time></trkpt><trkpt lat="34.2758332" lon="133.2171696"><ele>164.85999999999999</ele><time>2022-09-15T00:36:22Z</time></trkpt><trkpt lat="34.2760103" lon="133.2172376"><ele>165.42999999999998</ele><time>2022-09-15T00:36:37Z</time></trkpt><trkpt lat="34.2761918" lon="133.2172231"><ele>165.25333333333333</ele><time>2022-09-15T00:37:13Z</time></trkpt><trkpt lat="34.2763774" lon="133.2172012"><ele>165.67</ele><time>2022-09-15T00:37:27Z</time></trkpt><trkpt lat="34.2765316" lon="133.2170877"><ele>165.63666666666666</ele><time>2022-09-15T00:37:40Z</time></trkpt><trkpt lat="34.2767015" lon="133.2171627"><ele>165.94000000000003</ele><time>2022-09-15T00:37:58Z</time></trkpt><trkpt lat="34.2766731" lon="133.2173854"><ele>166.08666666666667</ele><time>2022-09-15T00:38:14Z</time></trkpt><trkpt lat="34.2766482" lon="133.2176118"><ele>167.97333333333333</ele><time>2022-09-15T00:38:26Z</time></trkpt><trkpt lat="34.2765893" lon="133.2178344"><ele>169.23333333333332</ele><time>2022-09-15T00:38:39Z</time></trkpt><trkpt lat="34.276519" lon="133.2180377"><ele>168.82666666666668</ele><time>2022-09-15T00:38:52Z</time></trkpt><trkpt lat="34.2763325" lon="133.2180646"><ele>168.60999999999999</ele><time>2022-09-15T00:39:06Z</time></trkpt><trkpt lat="34.2761465" lon="133.2180316"><ele>169.88666666666668</ele><time>2022-09-15T00:39:20Z</time></trkpt><trkpt lat="34.2759668" lon="133.218056"><ele>173.14333333333335</ele><time>2022-09-15T00:39:32Z</time></trkpt><trkpt lat="34.2757892" lon="133.2180016"><ele>175.34666666666666</ele><time>2022-09-15T00:39:45Z</time></trkpt><trkpt lat="34.2756152" lon="133.2180814"><ele>178.08666666666667</ele><time>2022-09-15T00:39:59Z</time></trkpt><trkpt lat="34.2754855" lon="133.2182457"><ele>182.78666666666666</ele><time>2022-09-15T00:40:11Z</time></trkpt><trkpt lat="34.2754653" lon="133.2184698"><ele>186.93000000000004</ele><time>2022-09-15T00:40:20Z</time></trkpt><trkpt lat="34.2755463" lon="133.2186643"><ele>190.35333333333332</ele><time>2022-09-15T00:40:32Z</time></trkpt><trkpt lat="34.275675" lon="133.2188306"><ele>187.62666666666667</ele><time>2022-09-15T00:40:43Z</time></trkpt><trkpt lat="34.2756759" lon="133.2190536"><ele>184.4033333333333</ele><time>2022-09-15T00:40:58Z</time></trkpt><trkpt lat="34.2755728" lon="133.2192384"><ele>182.34</ele><time>2022-09-15T00:41:13Z</time></trkpt><trkpt lat="34.2754703" lon="133.2194182"><ele>184.84666666666666</ele><time>2022-09-15T00:41:27Z</time></trkpt><trkpt lat="34.2756017" lon="133.2195772"><ele>186.58666666666667</ele><time>2022-09-15T00:41:42Z</time></trkpt><trkpt lat="34.2757762" lon="133.219639"><ele>186.28666666666666</ele><time>2022-09-15T00:41:54Z</time></trkpt><trkpt lat="34.2759541" lon="133.2196993"><ele>184.04</ele><time>2022-09-15T00:42:05Z</time></trkpt><trkpt lat="34.2758514" lon="133.2198833"><ele>184.16666666666666</ele><time>2022-09-15T00:42:54Z</time></trkpt><trkpt lat="34.2757218" lon="133.2200351"><ele>185.24666666666667</ele><time>2022-09-15T00:43:26Z</time></trkpt><trkpt lat="34.2755297" lon="133.220123"><ele>189.4333333333333</ele><time>2022-09-15T00:43:39Z</time></trkpt><trkpt lat="34.2753786" lon="133.2202536"><ele>192.34333333333333</ele><time>2022-09-15T00:43:50Z</time></trkpt><trkpt lat="34.2752681" lon="133.2204318"><ele>195.28666666666666</ele><time>2022-09-15T00:44:01Z</time></trkpt><trkpt lat="34.2752832" lon="133.2206554"><ele>198.44333333333336</ele><time>2022-09-15T00:44:13Z</time></trkpt><trkpt lat="34.275436" lon="133.220785"><ele>201.54333333333338</ele><time>2022-09-15T00:44:24Z</time></trkpt><trkpt lat="34.2756063" lon="133.2208767"><ele>202.33</ele><time>2022-09-15T00:44:34Z</time></trkpt><trkpt lat="34.2757865" lon="133.2209105"><ele>199.43000000000004</ele><time>2022-09-15T00:44:45Z</time></trkpt><trkpt lat="34.2758238" lon="133.221129"><ele>194.90333333333334</ele><time>2022-09-15T00:45:00Z</time></trkpt><trkpt lat="34.2756658" lon="133.2212374"><ele>193.34</ele><time>2022-09-15T00:45:13Z</time></trkpt><trkpt lat="34.2754765" lon="133.2212778"><ele>195.57666666666668</ele><time>2022-09-15T00:45:27Z</time></trkpt><trkpt lat="34.2753104" lon="133.2213815"><ele>199.6933333333333</ele><time>2022-09-15T00:45:42Z</time></trkpt><trkpt lat="34.275307" lon="133.221603"><ele>201.92666666666665</ele><time>2022-09-15T00:45:54Z</time></trkpt><trkpt lat="34.2753159" lon="133.2218258"><ele>203.53</ele><time>2022-09-15T00:46:08Z</time></trkpt><trkpt lat="34.2753788" lon="133.2220399"><ele>205.27</ele><time>2022-09-15T00:46:22Z</time></trkpt><trkpt lat="34.2754622" lon="133.2222457"><ele>207.32000000000002</ele><time>2022-09-15T00:46:37Z</time></trkpt><trkpt lat="34.2754992" lon="133.222471"><ele>207.90333333333334</ele><time>2022-09-15T00:46:51Z</time></trkpt><trkpt lat="34.275642" lon="133.2226068"><ele>207.47333333333336</ele><time>2022-09-15T00:47:05Z</time></trkpt><trkpt lat="34.2758233" lon="133.222585"><ele>207.28666666666666</ele><time>2022-09-15T00:47:17Z</time></trkpt><trkpt lat="34.2760048" lon="133.2225364"><ele>207.26999999999998</ele><time>2022-09-15T00:47:30Z</time></trkpt><trkpt lat="34.2761759" lon="133.2224608"><ele>208.57666666666668</ele><time>2022-09-15T00:47:45Z</time></trkpt><trkpt lat="34.2763515" lon="133.2225158"><ele>209.90333333333334</ele><time>2022-09-15T00:48:00Z</time></trkpt><trkpt lat="34.2763884" lon="133.2227325"><ele>208.51</ele><time>2022-09-15T00:48:13Z</time></trkpt><trkpt lat="34.2763715" lon="133.2229729"><ele>207.5</ele><time>2022-09-15T00:48:29Z</time></trkpt><trkpt lat="34.2765567" lon="133.2229727"><ele>206.08666666666667</ele><time>2022-09-15T00:49:31Z</time></trkpt><trkpt lat="34.276731" lon="133.2230512"><ele>209.59333333333333</ele><time>2022-09-15T00:49:41Z</time></trkpt><trkpt lat="34.2768352" lon="133.2232337"><ele>213.29999999999998</ele><time>2022-09-15T00:49:55Z</time></trkpt><trkpt lat="34.2767161" lon="133.2234155"><ele>218.67333333333332</ele><time>2022-09-15T00:50:36Z</time></trkpt><trkpt lat="34.2766376" lon="133.2236145"><ele>221.86666666666667</ele><time>2022-09-15T00:50:46Z</time></trkpt><trkpt lat="34.2765449" lon="133.223826"><ele>222.65</ele><time>2022-09-15T00:50:57Z</time></trkpt><trkpt lat="34.2764256" lon="133.2240005"><ele>223.61333333333334</ele><time>2022-09-15T00:51:08Z</time></trkpt><trkpt lat="34.2764418" lon="133.2242169"><ele>221.56333333333336</ele><time>2022-09-15T00:51:22Z</time></trkpt><trkpt lat="34.2763018" lon="133.224367"><ele>221.7966666666667</ele><time>2022-09-15T00:51:35Z</time></trkpt><trkpt lat="34.2761506" lon="133.2245029"><ele>221.51333333333332</ele><time>2022-09-15T00:51:47Z</time></trkpt><trkpt lat="34.2759698" lon="133.224518"><ele>223.46333333333337</ele><time>2022-09-15T00:52:00Z</time></trkpt><trkpt lat="34.2757779" lon="133.224497"><ele>226.39333333333335</ele><time>2022-09-15T00:52:13Z</time></trkpt><trkpt lat="34.2757167" lon="133.2247058"><ele>226.41</ele><time>2022-09-15T00:52:31Z</time></trkpt><trkpt lat="34.2758371" lon="133.2248694"><ele>227.20333333333335</ele><time>2022-09-15T00:52:42Z</time></trkpt><trkpt lat="34.2759726" lon="133.2250227"><ele>226.40333333333334</ele><time>2022-09-15T00:52:57Z</time></trkpt><trkpt lat="34.2761535" lon="133.2250672"><ele>227.33333333333334</ele><time>2022-09-15T00:53:12Z</time></trkpt><trkpt lat="34.2763121" lon="133.2249557"><ele>226.88666666666666</ele><time>2022-09-15T00:53:25Z</time></trkpt><trkpt lat="34.2764931" lon="133.2249776"><ele>226.57333333333335</ele><time>2022-09-15T00:53:41Z</time></trkpt><trkpt lat="34.2766771" lon="133.224989"><ele>228.10000000000002</ele><time>2022-09-15T00:53:56Z</time></trkpt><trkpt lat="34.2767738" lon="133.2251765"><ele>231.87333333333333</ele><time>2022-09-15T00:54:11Z</time></trkpt><trkpt lat="34.2767212" lon="133.2253876"><ele>235.40666666666667</ele><time>2022-09-15T00:54:22Z</time></trkpt><trkpt lat="34.2766464" lon="133.2255937"><ele>237.82000000000002</ele><time>2022-09-15T00:54:33Z</time></trkpt><trkpt lat="34.2765853" lon="133.2258017"><ele>236.10666666666668</ele><time>2022-09-15T00:54:44Z</time></trkpt><trkpt lat="34.2765771" lon="133.2260243"><ele>234.87</ele><time>2022-09-15T00:54:56Z</time></trkpt><trkpt lat="34.2765899" lon="133.2262506"><ele>235.81333333333336</ele><time>2022-09-15T00:55:10Z</time></trkpt><trkpt lat="34.276772" lon="133.2262834"><ele>240.32666666666668</ele><time>2022-09-15T00:55:26Z</time></trkpt><trkpt lat="34.276953" lon="133.2262445"><ele>243.02666666666667</ele><time>2022-09-15T00:55:42Z</time></trkpt><trkpt lat="34.2771311" lon="133.2262842"><ele>241.6966666666667</ele><time>2022-09-15T00:55:59Z</time></trkpt><trkpt lat="34.2773027" lon="133.2263719"><ele>241.04333333333332</ele><time>2022-09-15T00:56:16Z</time></trkpt><trkpt lat="34.2774946" lon="133.2263907"><ele>241.20666666666668</ele><time>2022-09-15T00:57:53Z</time></trkpt><trkpt lat="34.2776683" lon="133.2263157"><ele>244.13333333333335</ele><time>2022-09-15T00:58:07Z</time></trkpt><trkpt lat="34.2779362" lon="133.2262911"><ele>248.35333333333335</ele><time>2022-09-15T00:58:36Z</time></trkpt><trkpt lat="34.2781237" lon="133.2262804"><ele>253.72333333333336</ele><time>2022-09-15T00:59:19Z</time></trkpt><trkpt lat="34.2782935" lon="133.2261926"><ele>259.08</ele><time>2022-09-15T00:59:50Z</time></trkpt><trkpt lat="34.2784822" lon="133.2262066"><ele>263.25666666666666</ele><time>2022-09-15T01:00:01Z</time></trkpt><trkpt lat="34.2786628" lon="133.2262656"><ele>267.34666666666664</ele><time>2022-09-15T01:00:16Z</time></trkpt><trkpt lat="34.2788345" lon="133.226336"><ele>271.26666666666665</ele><time>2022-09-15T01:00:39Z</time></trkpt><trkpt lat="34.2790196" lon="133.2263636"><ele>275.56333333333333</ele><time>2022-09-15T01:01:12Z</time></trkpt><trkpt lat="34.2791682" lon="133.226497"><ele>283.0266666666667</ele><time>2022-09-15T01:01:44Z</time></trkpt><trkpt lat="34.2793527" lon="133.2265119"><ele>291.7</ele><time>2022-09-15T01:02:34Z</time></trkpt><trkpt lat="34.2795146" lon="133.2266241"><ele>298.93</ele><time>2022-09-15T01:02:52Z</time></trkpt><trkpt lat="34.2796469" lon="133.2267737"><ele>302.99333333333334</ele><time>2022-09-15T01:03:12Z</time></trkpt><trkpt lat="34.2798122" lon="133.2268648"><ele>304.5966666666667</ele><time>2022-09-15T01:03:30Z</time></trkpt><trkpt lat="34.2799024" lon="133.2270566"><ele>307.79</ele><time>2022-09-15T01:03:47Z</time></trkpt><trkpt lat="34.2800461" lon="133.2271989"><ele>310.22999999999996</ele><time>2022-09-15T01:04:07Z</time></trkpt><trkpt lat="34.2801559" lon="133.2273755"><ele>313.65999999999997</ele><time>2022-09-15T01:04:33Z</time></trkpt><trkpt lat="34.2802839" lon="133.2275413"><ele>316.21999999999997</ele><time>2022-09-15T01:05:16Z</time></trkpt><trkpt lat="34.2803096" lon="133.2277624"><ele>318.91333333333336</ele><time>2022-09-15T01:05:29Z</time></trkpt><trkpt lat="34.2803098" lon="133.2279797"><ele>320.98333333333335</ele><time>2022-09-15T01:05:45Z</time></trkpt><trkpt lat="34.2803696" lon="133.2281911"><ele>322.66</ele><time>2022-09-15T01:06:13Z</time></trkpt><trkpt lat="34.2803533" lon="133.2279632"><ele>323.2966666666667</ele><time>2022-09-15T01:10:44Z</time></trkpt><trkpt lat="34.2802955" lon="133.227744"><ele>323.00333333333333</ele><time>2022-09-15T01:10:57Z</time></trkpt><trkpt lat="34.2802229" lon="133.2275405"><ele>321.56666666666666</ele><time>2022-09-15T01:11:22Z</time></trkpt><trkpt lat="34.2801138" lon="133.2273636"><ele>319.0466666666667</ele><time>2022-09-15T01:11:43Z</time></trkpt><trkpt lat="34.2800018" lon="133.2271829"><ele>316.35333333333335</ele><time>2022-09-15T01:12:07Z</time></trkpt><trkpt lat="34.2798819" lon="133.2270137"><ele>313.55333333333334</ele><time>2022-09-15T01:12:31Z</time></trkpt><trkpt lat="34.279713" lon="133.2269294"><ele>311.90666666666664</ele><time>2022-09-15T01:12:49Z</time></trkpt><trkpt lat="34.2795613" lon="133.2268075"><ele>309.7366666666666</ele><time>2022-09-15T01:13:04Z</time></trkpt><trkpt lat="34.279416" lon="133.2266706"><ele>306.8333333333333</ele><time>2022-09-15T01:13:22Z</time></trkpt><trkpt lat="34.2792482" lon="133.2265884"><ele>302.57666666666665</ele><time>2022-09-15T01:13:46Z</time></trkpt><trkpt lat="34.2790528" lon="133.2265916"><ele>294.61333333333334</ele><time>2022-09-15T01:14:08Z</time></trkpt><trkpt lat="34.2788731" lon="133.2266225"><ele>284.5733333333333</ele><time>2022-09-15T01:14:34Z</time></trkpt><trkpt lat="34.2787253" lon="133.2264713"><ele>276.2866666666667</ele><time>2022-09-15T01:14:53Z</time></trkpt><trkpt lat="34.2785466" lon="133.2264136"><ele>271.19666666666666</ele><time>2022-09-15T01:15:13Z</time></trkpt><trkpt lat="34.2784095" lon="133.22656"><ele>266.63000000000005</ele><time>2022-09-15T01:15:34Z</time></trkpt><trkpt lat="34.2782295" lon="133.2265326"><ele>260.1366666666667</ele><time>2022-09-15T01:15:50Z</time></trkpt><trkpt lat="34.2781012" lon="133.2263745"><ele>256.6366666666667</ele><time>2022-09-15T01:16:24Z</time></trkpt><trkpt lat="34.2779164" lon="133.2263969"><ele>253.41</ele><time>2022-09-15T01:16:40Z</time></trkpt><trkpt lat="34.2777697" lon="133.2265355"><ele>249.5466666666667</ele><time>2022-09-15T01:16:58Z</time></trkpt><trkpt lat="34.2775791" lon="133.2265315"><ele>243.9666666666667</ele><time>2022-09-15T01:17:13Z</time></trkpt><trkpt lat="34.2774026" lon="133.2265998"><ele>240.79</ele><time>2022-09-15T01:17:33Z</time></trkpt><trkpt lat="34.2772221" lon="133.2265862"><ele>240.62000000000003</ele><time>2022-09-15T01:17:47Z</time></trkpt><trkpt lat="34.2770813" lon="133.2264457"><ele>242.63</ele><time>2022-09-15T01:18:03Z</time></trkpt><trkpt lat="34.2769057" lon="133.2263867"><ele>246.06000000000003</ele><time>2022-09-15T01:18:16Z</time></trkpt><trkpt lat="34.2767434" lon="133.2262909"><ele>246.85666666666665</ele><time>2022-09-15T01:18:29Z</time></trkpt><trkpt lat="34.2766021" lon="133.2261484"><ele>243.23000000000002</ele><time>2022-09-15T01:18:45Z</time></trkpt><trkpt lat="34.2765916" lon="133.2259098"><ele>236.40333333333334</ele><time>2022-09-15T01:18:59Z</time></trkpt><trkpt lat="34.2767473" lon="133.225786"><ele>229.47333333333333</ele><time>2022-09-15T01:19:13Z</time></trkpt><trkpt lat="34.276875" lon="133.225631"><ele>223.2166666666667</ele><time>2022-09-15T01:19:28Z</time></trkpt><trkpt lat="34.2769895" lon="133.2254561"><ele>218.80666666666664</ele><time>2022-09-15T01:19:43Z</time></trkpt><trkpt lat="34.2769453" lon="133.225234"><ele>218.91333333333333</ele><time>2022-09-15T01:19:57Z</time></trkpt><trkpt lat="34.2767557" lon="133.225196"><ele>225.29999999999998</ele><time>2022-09-15T01:20:05Z</time></trkpt><trkpt lat="34.2765628" lon="133.2251936"><ele>233.79</ele><time>2022-09-15T01:20:17Z</time></trkpt><trkpt lat="34.2763861" lon="133.2251396"><ele>237.95333333333335</ele><time>2022-09-15T01:20:27Z</time></trkpt><trkpt lat="34.2761967" lon="133.2251201"><ele>236.95666666666668</ele><time>2022-09-15T01:20:40Z</time></trkpt><trkpt lat="34.2760128" lon="133.2251464"><ele>233.77666666666667</ele><time>2022-09-15T01:20:53Z</time></trkpt><trkpt lat="34.2759028" lon="133.224964"><ele>230.66666666666666</ele><time>2022-09-15T01:21:06Z</time></trkpt><trkpt lat="34.2758398" lon="133.2247484"><ele>226.67999999999998</ele><time>2022-09-15T01:21:19Z</time></trkpt><trkpt lat="34.2756767" lon="133.2246393"><ele>224.50333333333333</ele><time>2022-09-15T01:21:33Z</time></trkpt><trkpt lat="34.2757138" lon="133.2244243"><ele>226.20666666666668</ele><time>2022-09-15T01:21:48Z</time></trkpt><trkpt lat="34.2758979" lon="133.2244506"><ele>228.84</ele><time>2022-09-15T01:21:59Z</time></trkpt><trkpt lat="34.2760792" lon="133.2244481"><ele>229.10000000000002</ele><time>2022-09-15T01:22:13Z</time></trkpt><trkpt lat="34.2762449" lon="133.2243618"><ele>226.95666666666668</ele><time>2022-09-15T01:22:29Z</time></trkpt><trkpt lat="34.2763361" lon="133.2241731"><ele>226.47333333333333</ele><time>2022-09-15T01:22:42Z</time></trkpt><trkpt lat="34.2764618" lon="133.2240164"><ele>224.8066666666667</ele><time>2022-09-15T01:22:58Z</time></trkpt><trkpt lat="34.2764826" lon="133.2237956"><ele>225.42999999999998</ele><time>2022-09-15T01:23:11Z</time></trkpt><trkpt lat="34.2765805" lon="133.2235984"><ele>225.32333333333335</ele><time>2022-09-15T01:23:25Z</time></trkpt><trkpt lat="34.2767091" lon="133.2234261"><ele>225.79</ele><time>2022-09-15T01:23:40Z</time></trkpt><trkpt lat="34.2768737" lon="133.2233281"><ele>221.1866666666667</ele><time>2022-09-15T01:23:56Z</time></trkpt><trkpt lat="34.2769" lon="133.2231064"><ele>217.23000000000002</ele><time>2022-09-15T01:24:11Z</time></trkpt><trkpt lat="34.2767157" lon="133.2231071"><ele>213.89333333333335</ele><time>2022-09-15T01:24:23Z</time></trkpt><trkpt lat="34.276538" lon="133.2232064"><ele>214.96333333333337</ele><time>2022-09-15T01:24:34Z</time></trkpt><trkpt lat="34.2763688" lon="133.2232897"><ele>215.82333333333335</ele><time>2022-09-15T01:24:49Z</time></trkpt><trkpt lat="34.2763327" lon="133.2230735"><ele>215.54</ele><time>2022-09-15T01:25:01Z</time></trkpt><trkpt lat="34.2763617" lon="133.2228512"><ele>212.13666666666666</ele><time>2022-09-15T01:25:13Z</time></trkpt><trkpt lat="34.2763125" lon="133.222631"><ele>208.96333333333334</ele><time>2022-09-15T01:25:26Z</time></trkpt><trkpt lat="34.2761967" lon="133.2224608"><ele>208.64</ele><time>2022-09-15T01:25:39Z</time></trkpt><trkpt lat="34.2760098" lon="133.2225006"><ele>208.16666666666666</ele><time>2022-09-15T01:25:53Z</time></trkpt><trkpt lat="34.2758837" lon="133.2226585"><ele>209.58</ele><time>2022-09-15T01:26:05Z</time></trkpt><trkpt lat="34.2757008" lon="133.2226247"><ele>209.38</ele><time>2022-09-15T01:26:19Z</time></trkpt><trkpt lat="34.2755275" lon="133.2225155"><ele>209.6966666666667</ele><time>2022-09-15T01:26:32Z</time></trkpt><trkpt lat="34.2754272" lon="133.2223304"><ele>207.98666666666668</ele><time>2022-09-15T01:26:46Z</time></trkpt><trkpt lat="34.2754193" lon="133.2221069"><ele>206.85666666666665</ele><time>2022-09-15T01:27:00Z</time></trkpt><trkpt lat="34.2753689" lon="133.2218961"><ele>207.37</ele><time>2022-09-15T01:27:12Z</time></trkpt><trkpt lat="34.2753039" lon="133.2216642"><ele>206.4466666666667</ele><time>2022-09-15T01:27:27Z</time></trkpt><trkpt lat="34.275247" lon="133.2214536"><ele>205.32666666666668</ele><time>2022-09-15T01:27:41Z</time></trkpt><trkpt lat="34.2753736" lon="133.2212963"><ele>204.69000000000003</ele><time>2022-09-15T01:27:54Z</time></trkpt><trkpt lat="34.2755551" lon="133.2212958"><ele>202.40333333333334</ele><time>2022-09-15T01:28:04Z</time></trkpt><trkpt lat="34.2756777" lon="133.221458"><ele>196.76</ele><time>2022-09-15T01:28:19Z</time></trkpt><trkpt lat="34.2755483" lon="133.2212798"><ele>194.16666666666666</ele><time>2022-09-15T01:28:33Z</time></trkpt><trkpt lat="34.2756731" lon="133.2211165"><ele>193.74</ele><time>2022-09-15T01:28:49Z</time></trkpt><trkpt lat="34.2757909" lon="133.2209498"><ele>196.3066666666667</ele><time>2022-09-15T01:29:06Z</time></trkpt><trkpt lat="34.2757184" lon="133.22073"><ele>195.1966666666667</ele><time>2022-09-15T01:29:21Z</time></trkpt><trkpt lat="34.275584" lon="133.220582"><ele>193.32333333333335</ele><time>2022-09-15T01:29:35Z</time></trkpt><trkpt lat="34.2754154" lon="133.2204976"><ele>192.49333333333334</ele><time>2022-09-15T01:29:47Z</time></trkpt><trkpt lat="34.275406" lon="133.2202802"><ele>192.68666666666664</ele><time>2022-09-15T01:30:13Z</time></trkpt><trkpt lat="34.2754948" lon="133.2200878"><ele>195.18000000000004</ele><time>2022-09-15T01:30:28Z</time></trkpt><trkpt lat="34.2756583" lon="133.2199567"><ele>196.94000000000003</ele><time>2022-09-15T01:30:42Z</time></trkpt><trkpt lat="34.2758169" lon="133.2198188"><ele>194.54000000000005</ele><time>2022-09-15T01:30:57Z</time></trkpt><trkpt lat="34.2756998" lon="133.2196528"><ele>190.86</ele><time>2022-09-15T01:31:09Z</time></trkpt><trkpt lat="34.2755292" lon="133.219576"><ele>187.9666666666667</ele><time>2022-09-15T01:31:22Z</time></trkpt><trkpt lat="34.275491" lon="133.219361"><ele>187.95000000000002</ele><time>2022-09-15T01:32:20Z</time></trkpt><trkpt lat="34.2755637" lon="133.219153"><ele>188.28666666666666</ele><time>2022-09-15T01:32:43Z</time></trkpt><trkpt lat="34.2756997" lon="133.218978"><ele>185.58</ele><time>2022-09-15T01:33:02Z</time></trkpt><trkpt lat="34.275738" lon="133.2187583"><ele>181.2266666666667</ele><time>2022-09-15T01:33:20Z</time></trkpt><trkpt lat="34.2757457" lon="133.2185354"><ele>174.99333333333334</ele><time>2022-09-15T01:33:35Z</time></trkpt><trkpt lat="34.2756713" lon="133.2183308"><ele>172.42999999999998</ele><time>2022-09-15T01:33:48Z</time></trkpt><trkpt lat="34.2757582" lon="133.2181298"><ele>172.23000000000002</ele><time>2022-09-15T01:34:01Z</time></trkpt><trkpt lat="34.2759248" lon="133.2180358"><ele>173.96</ele><time>2022-09-15T01:34:22Z</time></trkpt><trkpt lat="34.2760995" lon="133.2179489"><ele>176.16333333333333</ele><time>2022-09-15T01:34:41Z</time></trkpt><trkpt lat="34.2762519" lon="133.2177927"><ele>181.95666666666668</ele><time>2022-09-15T01:34:57Z</time></trkpt><trkpt lat="34.276389" lon="133.2176507"><ele>185.51666666666668</ele><time>2022-09-15T01:35:12Z</time></trkpt><trkpt lat="34.2764891" lon="133.2174633"><ele>185.76666666666665</ele><time>2022-09-15T01:35:36Z</time></trkpt><trkpt lat="34.2765655" lon="133.2172552"><ele>178.83666666666667</ele><time>2022-09-15T01:35:57Z</time></trkpt><trkpt lat="34.2765645" lon="133.2170378"><ele>172.66333333333333</ele><time>2022-09-15T01:36:15Z</time></trkpt><trkpt lat="34.2763859" lon="133.2170983"><ele>166.95666666666668</ele><time>2022-09-15T01:36:32Z</time></trkpt><trkpt lat="34.2764829" lon="133.2172823"><ele>166.50333333333333</ele><time>2022-09-15T01:37:23Z</time></trkpt><trkpt lat="34.2763473" lon="133.2174331"><ele>171.33333333333334</ele><time>2022-09-15T01:37:37Z</time></trkpt><trkpt lat="34.2761865" lon="133.2173305"><ele>173.85</ele><time>2022-09-15T01:37:50Z</time></trkpt><trkpt lat="34.2760102" lon="133.2172831"><ele>172.87333333333333</ele><time>2022-09-15T01:38:03Z</time></trkpt><trkpt lat="34.2758253" lon="133.2173074"><ele>171.0233333333333</ele><time>2022-09-15T01:38:17Z</time></trkpt><trkpt lat="34.2756592" lon="133.217403"><ele>172.54999999999998</ele><time>2022-09-15T01:38:32Z</time></trkpt><trkpt lat="34.2755237" lon="133.2175479"><ele>174.33333333333334</ele><time>2022-09-15T01:38:44Z</time></trkpt><trkpt lat="34.2753918" lon="133.2173989"><ele>168.72666666666666</ele><time>2022-09-15T01:39:06Z</time></trkpt><trkpt lat="34.2752575" lon="133.2172492"><ele>159.75333333333333</ele><time>2022-09-15T01:39:26Z</time></trkpt><trkpt lat="34.2750731" lon="133.2172501"><ele>152.32</ele><time>2022-09-15T01:39:38Z</time></trkpt><trkpt lat="34.2748776" lon="133.2172582"><ele>148.64333333333332</ele><time>2022-09-15T01:39:48Z</time></trkpt><trkpt lat="34.2746965" lon="133.2172914"><ele>148.46666666666667</ele><time>2022-09-15T01:40:00Z</time></trkpt><trkpt lat="34.2745113" lon="133.2173456"><ele>147.56333333333336</ele><time>2022-09-15T01:40:14Z</time></trkpt><trkpt lat="34.2743256" lon="133.2173697"><ele>145.82333333333332</ele><time>2022-09-15T01:40:28Z</time></trkpt><trkpt lat="34.2741606" lon="133.2174763"><ele>144.21333333333334</ele><time>2022-09-15T01:40:41Z</time></trkpt><trkpt lat="34.2741133" lon="133.2176953"><ele>144.00333333333333</ele><time>2022-09-15T01:40:54Z</time></trkpt><trkpt lat="34.2740688" lon="133.2179111"><ele>146.16</ele><time>2022-09-15T01:41:07Z</time></trkpt><trkpt lat="34.2739476" lon="133.2181012"><ele>147.13666666666666</ele><time>2022-09-15T01:41:20Z</time></trkpt><trkpt lat="34.273834" lon="133.2182805"><ele>147.5</ele><time>2022-09-15T01:41:35Z</time></trkpt><trkpt lat="34.2736899" lon="133.2181353"><ele>143.73000000000002</ele><time>2022-09-15T01:41:47Z</time></trkpt><trkpt lat="34.2736649" lon="133.2179154"><ele>137.6</ele><time>2022-09-15T01:41:58Z</time></trkpt><trkpt lat="34.2735079" lon="133.2178062"><ele>129.93333333333334</ele><time>2022-09-15T01:42:14Z</time></trkpt><trkpt lat="34.2734359" lon="133.2176031"><ele>123.25</ele><time>2022-09-15T01:42:30Z</time></trkpt><trkpt lat="34.2732896" lon="133.2174526"><ele>120.41333333333334</ele><time>2022-09-15T01:42:44Z</time></trkpt><trkpt lat="34.2731563" lon="133.2173019"><ele>120.03333333333335</ele><time>2022-09-15T01:42:57Z</time></trkpt><trkpt lat="34.2730671" lon="133.2170875"><ele>120.52666666666669</ele><time>2022-09-15T01:43:11Z</time></trkpt><trkpt lat="34.2729132" lon="133.2169558"><ele>120.89666666666666</ele><time>2022-09-15T01:43:28Z</time></trkpt><trkpt lat="34.2727809" lon="133.2171074"><ele>120.56</ele><time>2022-09-15T01:43:40Z</time></trkpt><trkpt lat="34.2727955" lon="133.2173401"><ele>121.99333333333334</ele><time>2022-09-15T01:43:51Z</time></trkpt><trkpt lat="34.2728013" lon="133.2175602"><ele>124.71666666666665</ele><time>2022-09-15T01:44:04Z</time></trkpt><trkpt lat="34.27271" lon="133.2177509"><ele>127.41333333333334</ele><time>2022-09-15T01:44:18Z</time></trkpt><trkpt lat="34.2725144" lon="133.2177429"><ele>125.36666666666666</ele><time>2022-09-15T01:44:25Z</time></trkpt><trkpt lat="34.2723236" lon="133.2177791"><ele>119.87333333333333</ele><time>2022-09-15T01:44:35Z</time></trkpt><trkpt lat="34.2722114" lon="133.2179494"><ele>113.83</ele><time>2022-09-15T01:44:49Z</time></trkpt><trkpt lat="34.2720955" lon="133.2181187"><ele>112.45333333333333</ele><time>2022-09-15T01:45:04Z</time></trkpt><trkpt lat="34.2719139" lon="133.2180831"><ele>112.67666666666668</ele><time>2022-09-15T01:45:15Z</time></trkpt><trkpt lat="34.2717349" lon="133.2180359"><ele>111.52333333333335</ele><time>2022-09-15T01:45:25Z</time></trkpt><trkpt lat="34.2715497" lon="133.2180096"><ele>109.06666666666666</ele><time>2022-09-15T01:45:36Z</time></trkpt><trkpt lat="34.2713938" lon="133.2178998"><ele>107.3</ele><time>2022-09-15T01:45:54Z</time></trkpt><trkpt lat="34.2714454" lon="133.2176815"><ele>104.32333333333334</ele><time>2022-09-15T01:46:07Z</time></trkpt><trkpt lat="34.2714382" lon="133.2174613"><ele>100.19333333333333</ele><time>2022-09-15T01:46:20Z</time></trkpt><trkpt lat="34.2713073" lon="133.2172928"><ele>95.75333333333333</ele><time>2022-09-15T01:46:34Z</time></trkpt><trkpt lat="34.2711668" lon="133.2171455"><ele>94.36666666666667</ele><time>2022-09-15T01:46:46Z</time></trkpt><trkpt lat="34.2710446" lon="133.2169842"><ele>95.46333333333332</ele><time>2022-09-15T01:46:57Z</time></trkpt><trkpt lat="34.2710753" lon="133.2167637"><ele>93.84333333333335</ele><time>2022-09-15T01:47:09Z</time></trkpt><trkpt lat="34.2710299" lon="133.2165513"><ele>91.44666666666667</ele><time>2022-09-15T01:47:19Z</time></trkpt><trkpt lat="34.2709934" lon="133.2163359"><ele>85.99333333333334</ele><time>2022-09-15T01:47:31Z</time></trkpt><trkpt lat="34.2711709" lon="133.2162913"><ele>82.90666666666668</ele><time>2022-09-15T01:47:45Z</time></trkpt><trkpt lat="34.2712198" lon="133.2165191"><ele>79.78</ele><time>2022-09-15T01:47:57Z</time></trkpt><trkpt lat="34.271237" lon="133.2167464"><ele>79.81333333333333</ele><time>2022-09-15T01:48:07Z</time></trkpt><trkpt lat="34.2713597" lon="133.2169112"><ele>80.07666666666667</ele><time>2022-09-15T01:48:19Z</time></trkpt><trkpt lat="34.2714623" lon="133.2167318"><ele>78.66333333333334</ele><time>2022-09-15T01:48:37Z</time></trkpt><trkpt lat="34.2714083" lon="133.2165203"><ele>74.52666666666669</ele><time>2022-09-15T01:48:47Z</time></trkpt><trkpt lat="34.2713503" lon="133.2163125"><ele>70.92333333333333</ele><time>2022-09-15T01:49:00Z</time></trkpt><trkpt lat="34.2712693" lon="133.2161017"><ele>68.92999999999999</ele><time>2022-09-15T01:49:12Z</time></trkpt><trkpt lat="34.2713071" lon="133.2158874"><ele>65.86</ele><time>2022-09-15T01:49:28Z</time></trkpt><trkpt lat="34.271439" lon="133.2160383"><ele>63.78666666666667</ele><time>2022-09-15T01:49:39Z</time></trkpt><trkpt lat="34.2715691" lon="133.2161992"><ele>60.973333333333336</ele><time>2022-09-15T01:49:51Z</time></trkpt><trkpt lat="34.2717349" lon="133.216097"><ele>61.18000000000001</ele><time>2022-09-15T01:50:03Z</time></trkpt><trkpt lat="34.2718135" lon="133.2158946"><ele>59.46666666666667</ele><time>2022-09-15T01:50:23Z</time></trkpt><trkpt lat="34.2717904" lon="133.2156741"><ele>57.46333333333333</ele><time>2022-09-15T01:50:36Z</time></trkpt><trkpt lat="34.2718886" lon="133.2154825"><ele>54.56</ele><time>2022-09-15T01:50:51Z</time></trkpt><trkpt lat="34.2720202" lon="133.2153231"><ele>52.46333333333333</ele><time>2022-09-15T01:51:07Z</time></trkpt><trkpt lat="34.272114" lon="133.2151241"><ele>49.89666666666667</ele><time>2022-09-15T01:51:21Z</time></trkpt></trkseg></trk></gpx>