<?xml version='1.0' encoding='UTF-8'?><gpx creator="Yama Museum Summit Candidate Generator" xsi:schemaLocation="http://www.topografix.com/GPX/1/1 http://www.topografix.com/GPX/1/1/gpx.xsd" version="1.1" xmlns="http://www.topografix.com/GPX/1/1" xmlns:xsi="http://www.w3.org/2001/XMLSchema-instance" xmlns:yama="https://museum-yama-data.moukaeritai.work/ns/yama-data/0.1"><metadata><bounds maxlat="33.9006137" maxlon="133.0518708" minlat="33.8992997" minlon="133.0507314"/><name>すくも山</name><extensions><yama:source_gpx_basename>yamap_2022-10-21_09_17.gpx</yama:source_gpx_basename><yama:source_gpx_relative_path>data/01_raw/gpx/2026-05-12/yamap_2022-10-21_09_17.gpx</yama:source_gpx_relative_path><yama:detection_parameters>window=5,radius=10,min_prominence=30,merge=100</yama:detection_parameters></extensions></metadata><trk><name>すくも山</name><number>1</number><trkseg><trkpt lat="33.8998608" lon="133.0507978"><ele>33.699933595672675</ele><time>2022-10-21T00:17:44Z</time></trkpt><trkpt lat="33.8999752" lon="133.050967"><ele>31.098763022036586</ele><time>2022-10-21T00:17:58Z</time></trkpt><trkpt lat="33.9001039" lon="133.051132"><ele>31.41619059943333</ele><time>2022-10-21T00:18:12Z</time></trkpt><trkpt lat="33.9002256" lon="133.0513022"><ele>31.548451566511215</ele><time>2022-10-21T00:18:26Z</time></trkpt><trkpt lat="33.9003407" lon="133.0514691"><ele>33.414689291997234</ele><time>2022-10-21T00:18:38Z</time></trkpt><trkpt lat="33.9004584" lon="133.0516395"><ele>33.25470427331788</ele><time>2022-10-21T00:18:55Z</time></trkpt><trkpt lat="33.9005878" lon="133.0517994"><ele>33.25428138547996</ele><time>2022-10-21T00:19:03Z</time></trkpt><trkpt lat="33.9004129" lon="133.051867"><ele>32.172698947315574</ele><time>2022-10-21T00:19:43Z</time></trkpt><trkpt lat="33.9003011" lon="133.0516963"><ele>31.74773362758245</ele><time>2022-10-21T00:19:51Z</time></trkpt><trkpt lat="33.9001654" lon="133.0515327"><ele>30.481467484160863</ele><time>2022-10-21T00:20:03Z</time></trkpt><trkpt lat="33.9000613" lon="133.0513484"><ele>30.496631169505225</ele><time>2022-10-21T00:20:16Z</time></trkpt><trkpt lat="33.8999385" lon="133.0511742"><ele>31.43940152754402</ele><time>2022-10-21T00:20:27Z</time></trkpt><trkpt lat="33.89981" lon="133.0510054"><ele>31.63984420353849</ele><time>2022-10-21T00:20:42Z</time></trkpt><trkpt lat="33.8996666" lon="133.0508613"><ele>31.640317669671987</ele><time>2022-10-21T00:20:55Z</time></trkpt><trkpt lat="33.8994852" lon="133.0508613"><ele>29.898458617355036</ele><time>2022-10-21T00:21:13Z</time></trkpt><trkpt lat="33.8992997" lon="133.0508527"><ele>34.92306729463449</ele><time>2022-10-21T00:22:37Z</time></trkpt><trkpt lat="33.8994831" lon="133.0508134"><ele>28.685511233534452</ele><time>2022-10-21T00:29:30Z</time></trkpt><trkpt lat="33.8996634" lon="133.0508375"><ele>28.685368096582035</ele><time>2022-10-21T00:29:59Z</time></trkpt><trkpt lat="33.8997927" lon="133.0510099"><ele>22.660772662292413</ele><time>2022-10-21T00:30:10Z</time></trkpt><trkpt lat="33.8998651" lon="133.0512088"><ele>23.47314270818032</ele><time>2022-10-21T00:30:22Z</time></trkpt><trkpt lat="33.8999868" lon="133.0513692"><ele>23.644973664293435</ele><time>2022-10-21T00:30:38Z</time></trkpt><trkpt lat="33.9001539" lon="133.0514541"><ele>23.03763327363914</ele><time>2022-10-21T00:30:52Z</time></trkpt><trkpt lat="33.9002661" lon="133.0516322"><ele>28.190853176138734</ele><time>2022-10-21T00:31:09Z</time></trkpt><trkpt lat="33.9003951" lon="133.0517836"><ele>27.98257268009932</ele><time>2022-10-21T00:31:22Z</time></trkpt><trkpt lat="33.9005705" lon="133.0518708"><ele>24.475531050366808</ele><time>2022-10-21T00:31:35Z</time></trkpt><trkpt lat="33.9006137" lon="133.0516564"><ele>24.546514965430074</ele><time>2022-10-21T00:31:53Z</time></trkpt><trkpt lat="33.9004745" lon="133.0515007"><ele>24.6377637388254</ele><time>2022-10-21T00:32:04Z</time></trkpt><trkpt lat="33.9003215" lon="133.051366"><ele>28.830318539940787</ele><time>2022-10-21T00:32:16Z</time></trkpt><trkpt lat="33.9002418" lon="133.0511636"><ele>27.90761812571952</ele><time>2022-10-21T00:32:31Z</time></trkpt><trkpt lat="33.9001101" lon="133.051011"><ele>27.906369183679654</ele><time>2022-10-21T00:32:45Z</time></trkpt><trkpt lat="33.8999471" lon="133.0509039"><ele>28.305810106820747</ele><time>2022-10-21T00:33:02Z</time></trkpt><trkpt lat="33.8998205" lon="133.0507314"><ele>28.629401371810587</ele><time>2022-10-21T00:33:18Z</time></trkpt></trkseg></trk></gpx>