<?xml version='1.0' encoding='UTF-8'?><gpx creator="Yama Museum Summit Candidate Generator" xsi:schemaLocation="http://www.topografix.com/GPX/1/1 http://www.topografix.com/GPX/1/1/gpx.xsd" version="1.1" xmlns="http://www.topografix.com/GPX/1/1" xmlns:xsi="http://www.w3.org/2001/XMLSchema-instance" xmlns:yama="https://museum-yama-data.moukaeritai.work/ns/yama-data/0.1"><metadata><bounds maxlat="33.4936309" maxlon="132.4796843" minlat="33.4837858" minlon="132.4614963"/><name>鞍掛山</name><extensions><yama:source_gpx_basename>yamap_2026-02-07_11_17.gpx</yama:source_gpx_basename><yama:source_gpx_relative_path>data/01_raw/gpx/2026-05-12/yamap_2026-02-07_11_17.gpx</yama:source_gpx_relative_path><yama:detection_parameters>window=5,radius=10,min_prominence=30,merge=100</yama:detection_parameters></extensions></metadata><wpt lat="33.4883211" lon="132.4618686"><ele>624.4499999999999</ele><time>2026-02-07T03:46:30Z</time><name>summit-candidate:6b19d2116121b615</name><desc>Summit candidate detected at elevation 624.4499999999999m with prominence 429.05166666666673m.</desc><sym>Summit Candidate</sym><extensions><yama:source_trackpoint_index>99</yama:source_trackpoint_index><yama:valid_elevation_index>99</yama:valid_elevation_index><yama:smoothed_ele>623.2033333333334</yama:smoothed_ele><yama:prominence>429.05166666666673</yama:prominence><yama:detection_method>local_maxima_with_prominence</yama:detection_method><yama:detection_parameters>window=5,radius=10,min_prominence=30,merge=100</yama:detection_parameters><yama:candidate_status>unresolved</yama:candidate_status></extensions></wpt>
  <trk><name>鞍掛山</name><number>1</number><trkseg><trkpt lat="33.4903254" lon="132.4740728"><ele>194.91</ele><time>2026-02-07T02:17:40Z</time></trkpt><trkpt lat="33.4901328" lon="132.4740176"><ele>194.245</ele><time>2026-02-07T02:18:53Z</time></trkpt><trkpt lat="33.4899556" lon="132.474075"><ele>193.96</ele><time>2026-02-07T02:19:14Z</time></trkpt><trkpt lat="33.490158" lon="132.4740079"><ele>193.60000000000002</ele><time>2026-02-07T02:20:55Z</time></trkpt><trkpt lat="33.4903477" lon="132.4740493"><ele>194.04333333333332</ele><time>2026-02-07T02:21:10Z</time></trkpt><trkpt lat="33.4905412" lon="132.4741301"><ele>195.36</ele><time>2026-02-07T02:21:25Z</time></trkpt><trkpt lat="33.4906953" lon="132.4742851"><ele>196.09333333333333</ele><time>2026-02-07T02:21:56Z</time></trkpt><trkpt lat="33.4908686" lon="132.474444"><ele>195.95000000000002</ele><time>2026-02-07T02:22:11Z</time></trkpt><trkpt lat="33.4910233" lon="132.474571"><ele>196.14666666666668</ele><time>2026-02-07T02:22:25Z</time></trkpt><trkpt lat="33.4911772" lon="132.4747404"><ele>197.03333333333333</ele><time>2026-02-07T02:22:41Z</time></trkpt><trkpt lat="33.4913224" lon="132.474927"><ele>197.97</ele><time>2026-02-07T02:22:55Z</time></trkpt><trkpt lat="33.4914738" lon="132.475048"><ele>196.84333333333333</ele><time>2026-02-07T02:23:10Z</time></trkpt><trkpt lat="33.491661" lon="132.4749604"><ele>196.12666666666667</ele><time>2026-02-07T02:24:29Z</time></trkpt><trkpt lat="33.4917204" lon="132.4747325"><ele>199.39333333333335</ele><time>2026-02-07T02:25:57Z</time></trkpt><trkpt lat="33.4915766" lon="132.4745934"><ele>208.89666666666668</ele><time>2026-02-07T02:26:46Z</time></trkpt><trkpt lat="33.4917648" lon="132.4746227"><ele>213.45666666666668</ele><time>2026-02-07T02:27:13Z</time></trkpt><trkpt lat="33.49172" lon="132.4744067"><ele>221.07333333333335</ele><time>2026-02-07T02:27:37Z</time></trkpt><trkpt lat="33.4917571" lon="132.4741917"><ele>224.54333333333332</ele><time>2026-02-07T02:28:04Z</time></trkpt><trkpt lat="33.4917204" lon="132.4739685"><ele>236.71333333333334</ele><time>2026-02-07T02:28:50Z</time></trkpt><trkpt lat="33.4915382" lon="132.4739449"><ele>244.87333333333336</ele><time>2026-02-07T02:29:47Z</time></trkpt><trkpt lat="33.4915571" lon="132.4737112"><ele>254.99333333333334</ele><time>2026-02-07T02:30:38Z</time></trkpt><trkpt lat="33.4914463" lon="132.473516"><ele>263.5233333333333</ele><time>2026-02-07T02:30:59Z</time></trkpt><trkpt lat="33.4914142" lon="132.4732975"><ele>273.0833333333333</ele><time>2026-02-07T02:32:15Z</time></trkpt><trkpt lat="33.49147" lon="132.4730681"><ele>281.4266666666667</ele><time>2026-02-07T02:32:51Z</time></trkpt><trkpt lat="33.4914308" lon="132.4728444"><ele>289.93</ele><time>2026-02-07T02:35:21Z</time></trkpt><trkpt lat="33.4914717" lon="132.4726248"><ele>296.1266666666667</ele><time>2026-02-07T02:36:13Z</time></trkpt><trkpt lat="33.4914824" lon="132.4723951"><ele>301.5733333333333</ele><time>2026-02-07T02:36:40Z</time></trkpt><trkpt lat="33.4913895" lon="132.4722054"><ele>306.59999999999997</ele><time>2026-02-07T02:40:45Z</time></trkpt><trkpt lat="33.4912103" lon="132.4721345"><ele>313.8666666666667</ele><time>2026-02-07T02:41:44Z</time></trkpt><trkpt lat="33.4913557" lon="132.4720053"><ele>320.32</ele><time>2026-02-07T02:43:44Z</time></trkpt><trkpt lat="33.4911809" lon="132.4719492"><ele>326.85999999999996</ele><time>2026-02-07T02:44:41Z</time></trkpt><trkpt lat="33.4913035" lon="132.4717876"><ele>330.4433333333333</ele><time>2026-02-07T02:45:23Z</time></trkpt><trkpt lat="33.4913471" lon="132.471574"><ele>337.34666666666664</ele><time>2026-02-07T02:46:55Z</time></trkpt><trkpt lat="33.4912922" lon="132.4713607"><ele>344.65333333333336</ele><time>2026-02-07T02:47:56Z</time></trkpt><trkpt lat="33.4913299" lon="132.4711473"><ele>354.9166666666667</ele><time>2026-02-07T02:49:07Z</time></trkpt><trkpt lat="33.4913353" lon="132.4709225"><ele>364.08666666666664</ele><time>2026-02-07T02:50:55Z</time></trkpt><trkpt lat="33.491417" lon="132.4707192"><ele>374.25</ele><time>2026-02-07T02:51:55Z</time></trkpt><trkpt lat="33.4914785" lon="132.4705063"><ele>382.7166666666667</ele><time>2026-02-07T02:53:04Z</time></trkpt><trkpt lat="33.4915341" lon="132.470297"><ele>390.8533333333333</ele><time>2026-02-07T02:54:13Z</time></trkpt><trkpt lat="33.4914633" lon="132.4700902"><ele>396.6666666666667</ele><time>2026-02-07T02:55:13Z</time></trkpt><trkpt lat="33.4914659" lon="132.4698595"><ele>401.53999999999996</ele><time>2026-02-07T02:56:24Z</time></trkpt><trkpt lat="33.491458" lon="132.4696444"><ele>405.1966666666667</ele><time>2026-02-07T02:57:12Z</time></trkpt><trkpt lat="33.49157" lon="132.4694438"><ele>408.1333333333334</ele><time>2026-02-07T02:57:57Z</time></trkpt><trkpt lat="33.4917102" lon="132.469302"><ele>409.9266666666667</ele><time>2026-02-07T02:58:14Z</time></trkpt><trkpt lat="33.4917742" lon="132.4690692"><ele>411.60999999999996</ele><time>2026-02-07T02:58:34Z</time></trkpt><trkpt lat="33.4918018" lon="132.4688427"><ele>413.00666666666666</ele><time>2026-02-07T02:58:51Z</time></trkpt><trkpt lat="33.491868" lon="132.4686214"><ele>415.6466666666667</ele><time>2026-02-07T02:59:11Z</time></trkpt><trkpt lat="33.4919024" lon="132.4684088"><ele>418.58</ele><time>2026-02-07T02:59:45Z</time></trkpt><trkpt lat="33.4919352" lon="132.4681894"><ele>421.8633333333334</ele><time>2026-02-07T03:01:02Z</time></trkpt><trkpt lat="33.4918931" lon="132.467969"><ele>427.26</ele><time>2026-02-07T03:02:26Z</time></trkpt><trkpt lat="33.492002" lon="132.4677881"><ele>433.3666666666666</ele><time>2026-02-07T03:03:59Z</time></trkpt><trkpt lat="33.4920895" lon="132.4675877"><ele>440.52</ele><time>2026-02-07T03:04:29Z</time></trkpt><trkpt lat="33.4921653" lon="132.46738"><ele>447.2266666666667</ele><time>2026-02-07T03:05:16Z</time></trkpt><trkpt lat="33.4923168" lon="132.467241"><ele>452.92</ele><time>2026-02-07T03:06:14Z</time></trkpt><trkpt lat="33.4924625" lon="132.467107"><ele>458.6433333333334</ele><time>2026-02-07T03:06:49Z</time></trkpt><trkpt lat="33.4925886" lon="132.4669445"><ele>463.9166666666667</ele><time>2026-02-07T03:07:22Z</time></trkpt><trkpt lat="33.4927013" lon="132.4667631"><ele>470.05</ele><time>2026-02-07T03:07:55Z</time></trkpt><trkpt lat="33.4928412" lon="132.4666031"><ele>476.40333333333336</ele><time>2026-02-07T03:08:58Z</time></trkpt><trkpt lat="33.4929149" lon="132.4664001"><ele>483.37000000000006</ele><time>2026-02-07T03:10:28Z</time></trkpt><trkpt lat="33.4930413" lon="132.4662444"><ele>491.97666666666663</ele><time>2026-02-07T03:13:34Z</time></trkpt><trkpt lat="33.4931506" lon="132.4660732"><ele>501.6233333333333</ele><time>2026-02-07T03:15:16Z</time></trkpt><trkpt lat="33.4932864" lon="132.4659106"><ele>512.7199999999999</ele><time>2026-02-07T03:17:25Z</time></trkpt><trkpt lat="33.4934155" lon="132.4657388"><ele>523.1366666666667</ele><time>2026-02-07T03:18:58Z</time></trkpt><trkpt lat="33.4934871" lon="132.4655324"><ele>532.6999999999999</ele><time>2026-02-07T03:20:25Z</time></trkpt><trkpt lat="33.4935908" lon="132.4653503"><ele>540.4833333333332</ele><time>2026-02-07T03:21:54Z</time></trkpt><trkpt lat="33.4936309" lon="132.465131"><ele>551.4633333333333</ele><time>2026-02-07T03:23:01Z</time></trkpt><trkpt lat="33.4935681" lon="132.4649105"><ele>561.5400000000001</ele><time>2026-02-07T03:24:28Z</time></trkpt><trkpt lat="33.4934582" lon="132.4647193"><ele>569.48</ele><time>2026-02-07T03:24:49Z</time></trkpt><trkpt lat="33.4933033" lon="132.4645622"><ele>571.4499999999999</ele><time>2026-02-07T03:25:07Z</time></trkpt><trkpt lat="33.4931156" lon="132.4644561"><ele>571.7600000000001</ele><time>2026-02-07T03:25:28Z</time></trkpt><trkpt lat="33.4929447" lon="132.4643454"><ele>571.7366666666667</ele><time>2026-02-07T03:25:48Z</time></trkpt><trkpt lat="33.4927849" lon="132.4642231"><ele>571.94</ele><time>2026-02-07T03:26:09Z</time></trkpt><trkpt lat="33.4926192" lon="132.4640984"><ele>573.6700000000001</ele><time>2026-02-07T03:26:31Z</time></trkpt><trkpt lat="33.4924942" lon="132.4639313"><ele>577.0500000000001</ele><time>2026-02-07T03:30:34Z</time></trkpt><trkpt lat="33.4923564" lon="132.4637792"><ele>581.5500000000001</ele><time>2026-02-07T03:31:00Z</time></trkpt><trkpt lat="33.4921931" lon="132.4636745"><ele>585.6933333333333</ele><time>2026-02-07T03:31:28Z</time></trkpt><trkpt lat="33.4920579" lon="132.46352"><ele>590.65</ele><time>2026-02-07T03:32:25Z</time></trkpt><trkpt lat="33.491933" lon="132.4633478"><ele>595.4066666666668</ele><time>2026-02-07T03:33:10Z</time></trkpt><trkpt lat="33.4917494" lon="132.4632846"><ele>599.38</ele><time>2026-02-07T03:34:07Z</time></trkpt><trkpt lat="33.4916088" lon="132.4631348"><ele>601.1233333333333</ele><time>2026-02-07T03:34:39Z</time></trkpt><trkpt lat="33.4914771" lon="132.4629779"><ele>602.3533333333334</ele><time>2026-02-07T03:35:12Z</time></trkpt><trkpt lat="33.4912846" lon="132.4629207"><ele>603.5866666666667</ele><time>2026-02-07T03:35:43Z</time></trkpt><trkpt lat="33.4911145" lon="132.4628327"><ele>605.0333333333333</ele><time>2026-02-07T03:36:15Z</time></trkpt><trkpt lat="33.4909527" lon="132.4627065"><ele>606.94</ele><time>2026-02-07T03:36:45Z</time></trkpt><trkpt lat="33.4907909" lon="132.4625918"><ele>608.9</ele><time>2026-02-07T03:37:19Z</time></trkpt><trkpt lat="33.4906391" lon="132.462466"><ele>610.7933333333333</ele><time>2026-02-07T03:37:46Z</time></trkpt><trkpt lat="33.4904841" lon="132.4623501"><ele>612.8966666666666</ele><time>2026-02-07T03:38:16Z</time></trkpt><trkpt lat="33.4903035" lon="132.4623112"><ele>615.4000000000001</ele><time>2026-02-07T03:38:48Z</time></trkpt><trkpt lat="33.4901506" lon="132.462196"><ele>617.0400000000001</ele><time>2026-02-07T03:39:15Z</time></trkpt><trkpt lat="33.490033" lon="132.4620165"><ele>618.7800000000001</ele><time>2026-02-07T03:40:06Z</time></trkpt><trkpt lat="33.4898777" lon="132.4618499"><ele>619.82</ele><time>2026-02-07T03:40:49Z</time></trkpt><trkpt lat="33.4896901" lon="132.4618337"><ele>621.2233333333334</ele><time>2026-02-07T03:41:19Z</time></trkpt><trkpt lat="33.4895473" lon="132.4616849"><ele>621.4433333333333</ele><time>2026-02-07T03:41:51Z</time></trkpt><trkpt lat="33.489355" lon="132.4615917"><ele>621.4733333333334</ele><time>2026-02-07T03:42:27Z</time></trkpt><trkpt lat="33.4891857" lon="132.4614963"><ele>621.4900000000001</ele><time>2026-02-07T03:42:48Z</time></trkpt><trkpt lat="33.4890291" lon="132.4616147"><ele>620.82</ele><time>2026-02-07T03:43:18Z</time></trkpt><trkpt lat="33.4888598" lon="132.4617001"><ele>620.4733333333334</ele><time>2026-02-07T03:43:57Z</time></trkpt><trkpt lat="33.4886783" lon="132.4618136"><ele>620.8100000000001</ele><time>2026-02-07T03:44:36Z</time></trkpt><trkpt lat="33.4885029" lon="132.4618767"><ele>622.2800000000001</ele><time>2026-02-07T03:44:59Z</time></trkpt><trkpt lat="33.4883211" lon="132.4618686"><ele>624.4499999999999</ele><time>2026-02-07T03:46:30Z</time></trkpt><trkpt lat="33.4881772" lon="132.4620245"><ele>624.72</ele><time>2026-02-07T03:51:30Z</time></trkpt><trkpt lat="33.4880276" lon="132.4621508"><ele>623.7566666666667</ele><time>2026-02-07T03:51:59Z</time></trkpt><trkpt lat="33.4878969" lon="132.4623024"><ele>619.5066666666667</ele><time>2026-02-07T03:52:20Z</time></trkpt><trkpt lat="33.4877109" lon="132.462334"><ele>615.7466666666667</ele><time>2026-02-07T03:53:35Z</time></trkpt><trkpt lat="33.4875326" lon="132.4622042"><ele>609.8466666666667</ele><time>2026-02-07T03:53:55Z</time></trkpt><trkpt lat="33.4873487" lon="132.4622493"><ele>603.9233333333333</ele><time>2026-02-07T03:54:15Z</time></trkpt><trkpt lat="33.4875315" lon="132.4622516"><ele>602.14</ele><time>2026-02-07T03:55:47Z</time></trkpt><trkpt lat="33.4876808" lon="132.4623938"><ele>604.8833333333333</ele><time>2026-02-07T03:56:26Z</time></trkpt><trkpt lat="33.487672" lon="132.4626245"><ele>606.84</ele><time>2026-02-07T03:57:32Z</time></trkpt><trkpt lat="33.4875721" lon="132.4628136"><ele>601.1933333333333</ele><time>2026-02-07T03:58:05Z</time></trkpt><trkpt lat="33.4876329" lon="132.463028"><ele>590.4133333333333</ele><time>2026-02-07T03:58:58Z</time></trkpt><trkpt lat="33.487661" lon="132.463269"><ele>579.9599999999999</ele><time>2026-02-07T03:59:34Z</time></trkpt><trkpt lat="33.4876819" lon="132.4634982"><ele>570.15</ele><time>2026-02-07T04:00:46Z</time></trkpt><trkpt lat="33.4876387" lon="132.4637276"><ele>560.71</ele><time>2026-02-07T04:01:09Z</time></trkpt><trkpt lat="33.4875325" lon="132.463913"><ele>552.3166666666666</ele><time>2026-02-07T04:01:33Z</time></trkpt><trkpt lat="33.4874219" lon="132.4641081"><ele>546.9266666666667</ele><time>2026-02-07T04:01:59Z</time></trkpt><trkpt lat="33.4873514" lon="132.4643183"><ele>542.7766666666666</ele><time>2026-02-07T04:02:25Z</time></trkpt><trkpt lat="33.4872103" lon="132.4644641"><ele>539.7733333333334</ele><time>2026-02-07T04:02:52Z</time></trkpt><trkpt lat="33.4871436" lon="132.4646744"><ele>536.3366666666667</ele><time>2026-02-07T04:03:10Z</time></trkpt><trkpt lat="33.4870394" lon="132.4648521"><ele>533.8466666666667</ele><time>2026-02-07T04:03:24Z</time></trkpt><trkpt lat="33.4868811" lon="132.4650244"><ele>530.9066666666666</ele><time>2026-02-07T04:03:38Z</time></trkpt><trkpt lat="33.4867377" lon="132.4651937"><ele>528.02</ele><time>2026-02-07T04:03:53Z</time></trkpt><trkpt lat="33.4865858" lon="132.4653243"><ele>525.52</ele><time>2026-02-07T04:04:08Z</time></trkpt><trkpt lat="33.4864502" lon="132.4654701"><ele>522.6833333333333</ele><time>2026-02-07T04:04:26Z</time></trkpt><trkpt lat="33.4862975" lon="132.4655846"><ele>521.1033333333334</ele><time>2026-02-07T04:04:43Z</time></trkpt><trkpt lat="33.4861373" lon="132.4657283"><ele>519.28</ele><time>2026-02-07T04:05:01Z</time></trkpt><trkpt lat="33.4859667" lon="132.4658097"><ele>519.1933333333333</ele><time>2026-02-07T04:05:18Z</time></trkpt><trkpt lat="33.4858263" lon="132.4659714"><ele>518.9166666666666</ele><time>2026-02-07T04:05:36Z</time></trkpt><trkpt lat="33.4857074" lon="132.4661778"><ele>518.82</ele><time>2026-02-07T04:05:57Z</time></trkpt><trkpt lat="33.4855803" lon="132.466354"><ele>517.3766666666667</ele><time>2026-02-07T04:06:27Z</time></trkpt><trkpt lat="33.485491" lon="132.4665757"><ele>514.4833333333332</ele><time>2026-02-07T04:07:50Z</time></trkpt><trkpt lat="33.4853276" lon="132.4667245"><ele>509.8066666666667</ele><time>2026-02-07T04:08:11Z</time></trkpt><trkpt lat="33.4851504" lon="132.4667894"><ele>504.9633333333333</ele><time>2026-02-07T04:08:41Z</time></trkpt><trkpt lat="33.4849978" lon="132.4669438"><ele>498.3733333333333</ele><time>2026-02-07T04:10:13Z</time></trkpt><trkpt lat="33.4848672" lon="132.4670967"><ele>491.7966666666667</ele><time>2026-02-07T04:10:40Z</time></trkpt><trkpt lat="33.4848146" lon="132.4673037"><ele>484.18666666666667</ele><time>2026-02-07T04:10:57Z</time></trkpt><trkpt lat="33.4846703" lon="132.4674683"><ele>477.31333333333333</ele><time>2026-02-07T04:11:18Z</time></trkpt><trkpt lat="33.4844924" lon="132.4676171"><ele>467.75333333333333</ele><time>2026-02-07T04:12:03Z</time></trkpt><trkpt lat="33.4843405" lon="132.4677751"><ele>456.54</ele><time>2026-02-07T04:12:26Z</time></trkpt><trkpt lat="33.4841441" lon="132.4678262"><ele>445.99000000000007</ele><time>2026-02-07T04:13:17Z</time></trkpt><trkpt lat="33.4839579" lon="132.4678373"><ele>440.17333333333335</ele><time>2026-02-07T04:14:31Z</time></trkpt><trkpt lat="33.4837858" lon="132.4679407"><ele>438.68666666666667</ele><time>2026-02-07T04:14:56Z</time></trkpt><trkpt lat="33.4839837" lon="132.4679387"><ele>436.76</ele><time>2026-02-07T04:15:22Z</time></trkpt><trkpt lat="33.4839336" lon="132.4681595"><ele>433.0933333333333</ele><time>2026-02-07T04:18:16Z</time></trkpt><trkpt lat="33.4839611" lon="132.4683852"><ele>428.78999999999996</ele><time>2026-02-07T04:18:48Z</time></trkpt><trkpt lat="33.4840003" lon="132.4686015"><ele>426.02666666666664</ele><time>2026-02-07T04:19:24Z</time></trkpt><trkpt lat="33.4840379" lon="132.4688282"><ele>422.65333333333336</ele><time>2026-02-07T04:19:51Z</time></trkpt><trkpt lat="33.4840965" lon="132.4690325"><ele>415.59</ele><time>2026-02-07T04:21:09Z</time></trkpt><trkpt lat="33.4842319" lon="132.4691782"><ele>405.27</ele><time>2026-02-07T04:22:30Z</time></trkpt><trkpt lat="33.4844295" lon="132.4691762"><ele>393.77333333333337</ele><time>2026-02-07T04:23:30Z</time></trkpt><trkpt lat="33.484609" lon="132.4691326"><ele>381.17</ele><time>2026-02-07T04:24:39Z</time></trkpt><trkpt lat="33.4846202" lon="132.4693497"><ele>372.79333333333335</ele><time>2026-02-07T04:26:54Z</time></trkpt><trkpt lat="33.4847898" lon="132.4694297"><ele>362.2966666666667</ele><time>2026-02-07T04:28:33Z</time></trkpt><trkpt lat="33.4848737" lon="132.469681"><ele>357.81666666666666</ele><time>2026-02-07T04:29:32Z</time></trkpt><trkpt lat="33.4850017" lon="132.4698836"><ele>353.25</ele><time>2026-02-07T04:29:47Z</time></trkpt><trkpt lat="33.4850973" lon="132.4700911"><ele>352.35666666666674</ele><time>2026-02-07T04:30:17Z</time></trkpt><trkpt lat="33.485" lon="132.4702848"><ele>348.6766666666667</ele><time>2026-02-07T04:30:38Z</time></trkpt><trkpt lat="33.4850533" lon="132.4705396"><ele>344.4866666666667</ele><time>2026-02-07T04:30:54Z</time></trkpt><trkpt lat="33.4850166" lon="132.4707544"><ele>342.34666666666664</ele><time>2026-02-07T04:31:08Z</time></trkpt><trkpt lat="33.4849587" lon="132.4709715"><ele>341.31666666666666</ele><time>2026-02-07T04:31:38Z</time></trkpt><trkpt lat="33.4850517" lon="132.4711899"><ele>339.10999999999996</ele><time>2026-02-07T04:31:54Z</time></trkpt><trkpt lat="33.4852315" lon="132.4713425"><ele>337.6566666666667</ele><time>2026-02-07T04:32:09Z</time></trkpt><trkpt lat="33.4853786" lon="132.4714738"><ele>335.9866666666667</ele><time>2026-02-07T04:32:21Z</time></trkpt><trkpt lat="33.4855258" lon="132.4716149"><ele>335.54333333333335</ele><time>2026-02-07T04:32:36Z</time></trkpt><trkpt lat="33.4856393" lon="132.4717986"><ele>334.2866666666667</ele><time>2026-02-07T04:32:50Z</time></trkpt><trkpt lat="33.4857239" lon="132.4719906"><ele>332.5033333333334</ele><time>2026-02-07T04:33:05Z</time></trkpt><trkpt lat="33.485821" lon="132.4721737"><ele>329.94666666666666</ele><time>2026-02-07T04:33:20Z</time></trkpt><trkpt lat="33.4858471" lon="132.4724006"><ele>326.53333333333336</ele><time>2026-02-07T04:33:32Z</time></trkpt><trkpt lat="33.4858002" lon="132.4726214"><ele>323.7133333333333</ele><time>2026-02-07T04:33:50Z</time></trkpt><trkpt lat="33.4859805" lon="132.4727686"><ele>322.27666666666664</ele><time>2026-02-07T04:34:07Z</time></trkpt><trkpt lat="33.4861591" lon="132.4728228"><ele>322.2733333333333</ele><time>2026-02-07T04:34:26Z</time></trkpt><trkpt lat="33.4863784" lon="132.4729162"><ele>322.5</ele><time>2026-02-07T04:34:44Z</time></trkpt><trkpt lat="33.4865554" lon="132.4730209"><ele>321.5466666666667</ele><time>2026-02-07T04:34:59Z</time></trkpt><trkpt lat="33.4866667" lon="132.4731969"><ele>319.9433333333333</ele><time>2026-02-07T04:35:14Z</time></trkpt><trkpt lat="33.4868055" lon="132.4733462"><ele>317.81</ele><time>2026-02-07T04:35:29Z</time></trkpt><trkpt lat="33.4868905" lon="132.4735678"><ele>314.6666666666667</ele><time>2026-02-07T04:35:46Z</time></trkpt><trkpt lat="33.4868513" lon="132.4738071"><ele>312.4066666666667</ele><time>2026-02-07T04:36:02Z</time></trkpt><trkpt lat="33.4868739" lon="132.4740281"><ele>309.93666666666667</ele><time>2026-02-07T04:36:16Z</time></trkpt><trkpt lat="33.4869857" lon="132.4742296"><ele>310.29333333333335</ele><time>2026-02-07T04:36:32Z</time></trkpt><trkpt lat="33.4871721" lon="132.4743528"><ele>311.2</ele><time>2026-02-07T04:36:46Z</time></trkpt><trkpt lat="33.4873732" lon="132.4743405"><ele>312.47999999999996</ele><time>2026-02-07T04:37:05Z</time></trkpt><trkpt lat="33.4875807" lon="132.474317"><ele>312.65333333333336</ele><time>2026-02-07T04:37:23Z</time></trkpt><trkpt lat="33.4877449" lon="132.4744087"><ele>310.1566666666667</ele><time>2026-02-07T04:37:40Z</time></trkpt><trkpt lat="33.4879391" lon="132.4743844"><ele>304.40000000000003</ele><time>2026-02-07T04:39:02Z</time></trkpt><trkpt lat="33.4881194" lon="132.4743697"><ele>296.03666666666663</ele><time>2026-02-07T04:39:52Z</time></trkpt><trkpt lat="33.4882961" lon="132.4743194"><ele>286.5466666666667</ele><time>2026-02-07T04:41:04Z</time></trkpt><trkpt lat="33.4884879" lon="132.4743062"><ele>277.24333333333334</ele><time>2026-02-07T04:41:40Z</time></trkpt><trkpt lat="33.4886617" lon="132.4742396"><ele>266.45666666666665</ele><time>2026-02-07T04:42:41Z</time></trkpt><trkpt lat="33.4887582" lon="132.4744348"><ele>256.19</ele><time>2026-02-07T04:45:32Z</time></trkpt><trkpt lat="33.4888593" lon="132.4746256"><ele>248.32333333333335</ele><time>2026-02-07T04:45:46Z</time></trkpt><trkpt lat="33.48897" lon="132.4748207"><ele>243.86</ele><time>2026-02-07T04:46:01Z</time></trkpt><trkpt lat="33.4890701" lon="132.4750502"><ele>241.46666666666667</ele><time>2026-02-07T04:46:22Z</time></trkpt><trkpt lat="33.4892577" lon="132.4751631"><ele>239.95666666666668</ele><time>2026-02-07T04:46:38Z</time></trkpt><trkpt lat="33.4894669" lon="132.4751254"><ele>238.35</ele><time>2026-02-07T04:46:55Z</time></trkpt><trkpt lat="33.4896738" lon="132.4751236"><ele>234.79333333333332</ele><time>2026-02-07T04:47:08Z</time></trkpt><trkpt lat="33.489803" lon="132.4752999"><ele>231.95333333333335</ele><time>2026-02-07T04:47:31Z</time></trkpt><trkpt lat="33.4899368" lon="132.4754548"><ele>229.34666666666666</ele><time>2026-02-07T04:47:49Z</time></trkpt><trkpt lat="33.4898946" lon="132.4757014"><ele>227.93000000000004</ele><time>2026-02-07T04:48:07Z</time></trkpt><trkpt lat="33.489905" lon="132.4759322"><ele>224.67</ele><time>2026-02-07T04:48:22Z</time></trkpt><trkpt lat="33.4900263" lon="132.4761451"><ele>221.11333333333334</ele><time>2026-02-07T04:48:36Z</time></trkpt><trkpt lat="33.4901972" lon="132.4762833"><ele>219.31000000000003</ele><time>2026-02-07T04:48:51Z</time></trkpt><trkpt lat="33.4902667" lon="132.4765128"><ele>219.89000000000001</ele><time>2026-02-07T04:49:06Z</time></trkpt><trkpt lat="33.4901499" lon="132.4767082"><ele>220.42666666666665</ele><time>2026-02-07T04:49:21Z</time></trkpt><trkpt lat="33.4902623" lon="132.4768765"><ele>216.58666666666667</ele><time>2026-02-07T04:49:50Z</time></trkpt><trkpt lat="33.4904366" lon="132.4768065"><ele>211.97666666666666</ele><time>2026-02-07T04:50:05Z</time></trkpt><trkpt lat="33.4905381" lon="132.476986"><ele>205.02333333333334</ele><time>2026-02-07T04:50:32Z</time></trkpt><trkpt lat="33.4907283" lon="132.4770931"><ele>201.22333333333336</ele><time>2026-02-07T04:51:07Z</time></trkpt><trkpt lat="33.4909047" lon="132.477207"><ele>195.81333333333336</ele><time>2026-02-07T04:51:22Z</time></trkpt><trkpt lat="33.4909854" lon="132.4774124"><ele>193.96</ele><time>2026-02-07T04:51:37Z</time></trkpt><trkpt lat="33.4909958" lon="132.477649"><ele>192.76666666666665</ele><time>2026-02-07T04:51:52Z</time></trkpt><trkpt lat="33.4909997" lon="132.477909"><ele>192.82333333333335</ele><time>2026-02-07T04:52:53Z</time></trkpt><trkpt lat="33.4909685" lon="132.4781656"><ele>194.61666666666667</ele><time>2026-02-07T04:53:08Z</time></trkpt><trkpt lat="33.4911412" lon="132.4783249"><ele>197.31333333333336</ele><time>2026-02-07T04:53:23Z</time></trkpt><trkpt lat="33.4913201" lon="132.4784302"><ele>198.71333333333334</ele><time>2026-02-07T04:53:37Z</time></trkpt><trkpt lat="33.4914969" lon="132.4784805"><ele>196.45666666666668</ele><time>2026-02-07T04:53:53Z</time></trkpt><trkpt lat="33.4916447" lon="132.4786291"><ele>192.1</ele><time>2026-02-07T04:54:37Z</time></trkpt><trkpt lat="33.491717" lon="132.4788323"><ele>190.39</ele><time>2026-02-07T04:55:46Z</time></trkpt><trkpt lat="33.4918685" lon="132.4789755"><ele>189.12</ele><time>2026-02-07T04:56:02Z</time></trkpt><trkpt lat="33.4918956" lon="132.479203"><ele>188.94999999999996</ele><time>2026-02-07T04:56:16Z</time></trkpt><trkpt lat="33.49198" lon="132.4794266"><ele>187.0233333333333</ele><time>2026-02-07T04:56:32Z</time></trkpt><trkpt lat="33.4920807" lon="132.479612"><ele>185.76999999999998</ele><time>2026-02-07T04:56:47Z</time></trkpt><trkpt lat="33.4922555" lon="132.4796843"><ele>184.68666666666664</ele><time>2026-02-07T04:57:04Z</time></trkpt><trkpt lat="33.4922882" lon="132.4794637"><ele>184.12666666666667</ele><time>2026-02-07T04:57:29Z</time></trkpt><trkpt lat="33.4921979" lon="132.4792272"><ele>183.80666666666664</ele><time>2026-02-07T04:57:44Z</time></trkpt><trkpt lat="33.4921725" lon="132.4790037"><ele>182.08333333333334</ele><time>2026-02-07T04:57:59Z</time></trkpt><trkpt lat="33.49211" lon="132.4787755"><ele>179.87</ele><time>2026-02-07T04:58:20Z</time></trkpt><trkpt lat="33.4920341" lon="132.4785681"><ele>177.53666666666666</ele><time>2026-02-07T04:58:35Z</time></trkpt><trkpt lat="33.4919079" lon="132.4783609"><ele>175.24666666666667</ele><time>2026-02-07T04:58:53Z</time></trkpt><trkpt lat="33.4917348" lon="132.4782222"><ele>174.09</ele><time>2026-02-07T04:59:08Z</time></trkpt><trkpt lat="33.4915391" lon="132.47813"><ele>173.88</ele><time>2026-02-07T04:59:23Z</time></trkpt><trkpt lat="33.49144" lon="132.477926"><ele>176.51999999999998</ele><time>2026-02-07T04:59:38Z</time></trkpt><trkpt lat="33.4914864" lon="132.4777063"><ele>179.25</ele><time>2026-02-07T04:59:53Z</time></trkpt><trkpt lat="33.4915112" lon="132.4774778"><ele>181.3166666666667</ele><time>2026-02-07T05:00:08Z</time></trkpt><trkpt lat="33.4914254" lon="132.4772497"><ele>180.99666666666667</ele><time>2026-02-07T05:00:26Z</time></trkpt><trkpt lat="33.4912745" lon="132.4771113"><ele>181.29333333333332</ele><time>2026-02-07T05:00:41Z</time></trkpt><trkpt lat="33.4911512" lon="132.4769474"><ele>181.92666666666665</ele><time>2026-02-07T05:00:55Z</time></trkpt><trkpt lat="33.4911717" lon="132.4767144"><ele>182.70000000000002</ele><time>2026-02-07T05:01:11Z</time></trkpt><trkpt lat="33.4911739" lon="132.4764908"><ele>182.4</ele><time>2026-02-07T05:01:26Z</time></trkpt><trkpt lat="33.4911335" lon="132.4762471"><ele>182.26333333333335</ele><time>2026-02-07T05:01:41Z</time></trkpt><trkpt lat="33.4910441" lon="132.4760536"><ele>181.99333333333334</ele><time>2026-02-07T05:01:55Z</time></trkpt><trkpt lat="33.490952" lon="132.47584"><ele>181.85000000000002</ele><time>2026-02-07T05:02:11Z</time></trkpt><trkpt lat="33.4908548" lon="132.4756362"><ele>181.83666666666667</ele><time>2026-02-07T05:02:26Z</time></trkpt><trkpt lat="33.4907677" lon="132.4754298"><ele>182.32000000000002</ele><time>2026-02-07T05:02:41Z</time></trkpt><trkpt lat="33.4906715" lon="132.4752207"><ele>182.77666666666667</ele><time>2026-02-07T05:02:56Z</time></trkpt><trkpt lat="33.4905738" lon="132.4750128"><ele>182.71</ele><time>2026-02-07T05:03:11Z</time></trkpt><trkpt lat="33.4904675" lon="132.4748135"><ele>182.39333333333335</ele><time>2026-02-07T05:03:26Z</time></trkpt><trkpt lat="33.4903288" lon="132.4746635"><ele>184.01333333333332</ele><time>2026-02-07T05:03:41Z</time></trkpt><trkpt lat="33.4901538" lon="132.4745972"><ele>187.31333333333336</ele><time>2026-02-07T05:03:56Z</time></trkpt><trkpt lat="33.4900111" lon="132.4744536"><ele>191.29999999999998</ele><time>2026-02-07T05:04:11Z</time></trkpt><trkpt lat="33.4899824" lon="132.4742146"><ele>192.89666666666668</ele><time>2026-02-07T05:04:28Z</time></trkpt><trkpt lat="33.4901654" lon="132.4740813"><ele>193.38000000000002</ele><time>2026-02-07T05:04:47Z</time></trkpt><trkpt lat="33.49035" lon="132.4740509"><ele>193.70000000000002</ele><time>2026-02-07T05:05:01Z</time></trkpt></trkseg></trk></gpx>