<?xml version='1.0' encoding='UTF-8'?><gpx creator="Yama Museum Summit Candidate Generator" xsi:schemaLocation="http://www.topografix.com/GPX/1/1 http://www.topografix.com/GPX/1/1/gpx.xsd" version="1.1" xmlns="http://www.topografix.com/GPX/1/1" xmlns:xsi="http://www.w3.org/2001/XMLSchema-instance" xmlns:yama="https://museum-yama-data.moukaeritai.work/ns/yama-data/0.1"><metadata><bounds maxlat="34.2667326" maxlon="133.2124734" minlat="34.2616352" minlon="133.2073209"/><name>石灰山・古法皇山</name><extensions><yama:source_gpx_basename>yamap_2022-09-15_12_35.gpx</yama:source_gpx_basename><yama:source_gpx_relative_path>data/01_raw/gpx/2026-05-12/yamap_2022-09-15_12_35.gpx</yama:source_gpx_relative_path><yama:detection_parameters>window=5,radius=10,min_prominence=30,merge=100</yama:detection_parameters></extensions></metadata><wpt lat="34.2665635" lon="133.2120741"><ele>269.75333333333333</ele><time>2022-09-15T05:09:55Z</time><name>summit-candidate:4d0f5f75da9165b8</name><desc>Summit candidate detected at elevation 269.75333333333333m with prominence 231.982m.</desc><sym>Summit Candidate</sym><extensions><yama:source_trackpoint_index>92</yama:source_trackpoint_index><yama:valid_elevation_index>92</yama:valid_elevation_index><yama:smoothed_ele>264.6286666666667</yama:smoothed_ele><yama:prominence>231.982</yama:prominence><yama:detection_method>local_maxima_with_prominence</yama:detection_method><yama:detection_parameters>window=5,radius=10,min_prominence=30,merge=100</yama:detection_parameters><yama:candidate_status>unresolved</yama:candidate_status></extensions></wpt>
  <trk><name>石灰山・古法皇山</name><number>1</number><trkseg><trkpt lat="34.2616352" lon="133.2114038"><ele>26.66</ele><time>2022-09-15T03:35:22Z</time></trkpt><trkpt lat="34.2617393" lon="133.2116011"><ele>27.535</ele><time>2022-09-15T03:35:35Z</time></trkpt><trkpt lat="34.2617674" lon="133.211832"><ele>29.686666666666667</ele><time>2022-09-15T03:35:50Z</time></trkpt><trkpt lat="34.261781" lon="133.2120589"><ele>32.28333333333334</ele><time>2022-09-15T03:36:06Z</time></trkpt><trkpt lat="34.2618887" lon="133.2122373"><ele>33.48</ele><time>2022-09-15T03:36:24Z</time></trkpt><trkpt lat="34.26207" lon="133.2121956"><ele>35.06666666666667</ele><time>2022-09-15T03:36:53Z</time></trkpt><trkpt lat="34.2622201" lon="133.2120705"><ele>37.653333333333336</ele><time>2022-09-15T03:37:13Z</time></trkpt><trkpt lat="34.2623513" lon="133.2119051"><ele>42.720000000000006</ele><time>2022-09-15T03:37:32Z</time></trkpt><trkpt lat="34.262513" lon="133.2117996"><ele>46.88666666666666</ele><time>2022-09-15T03:37:57Z</time></trkpt><trkpt lat="34.2626722" lon="133.2116961"><ele>50.86000000000001</ele><time>2022-09-15T03:38:23Z</time></trkpt><trkpt lat="34.262857" lon="133.2116706"><ele>54.093333333333334</ele><time>2022-09-15T03:39:07Z</time></trkpt><trkpt lat="34.2630431" lon="133.2116849"><ele>58.82333333333333</ele><time>2022-09-15T03:39:39Z</time></trkpt><trkpt lat="34.2632211" lon="133.2117246"><ele>65.56666666666666</ele><time>2022-09-15T03:41:16Z</time></trkpt><trkpt lat="34.2634047" lon="133.2116445"><ele>76.27</ele><time>2022-09-15T03:42:41Z</time></trkpt><trkpt lat="34.2635674" lon="133.2117389"><ele>86.78333333333335</ele><time>2022-09-15T03:43:10Z</time></trkpt><trkpt lat="34.2637478" lon="133.2117322"><ele>99.08666666666666</ele><time>2022-09-15T03:46:48Z</time></trkpt><trkpt lat="34.263923" lon="133.2117982"><ele>108.74666666666667</ele><time>2022-09-15T03:47:35Z</time></trkpt><trkpt lat="34.2639739" lon="133.2120084"><ele>117.02</ele><time>2022-09-15T03:48:27Z</time></trkpt><trkpt lat="34.2640544" lon="133.2122085"><ele>121.75</ele><time>2022-09-15T03:48:53Z</time></trkpt><trkpt lat="34.2642086" lon="133.212337"><ele>126.30666666666666</ele><time>2022-09-15T03:49:38Z</time></trkpt><trkpt lat="34.2643499" lon="133.2124734"><ele>127.74666666666667</ele><time>2022-09-15T03:50:04Z</time></trkpt><trkpt lat="34.2645172" lon="133.2123914"><ele>129.54333333333332</ele><time>2022-09-15T03:51:17Z</time></trkpt><trkpt lat="34.2646988" lon="133.2123591"><ele>130.18333333333337</ele><time>2022-09-15T03:53:21Z</time></trkpt><trkpt lat="34.2648795" lon="133.212305"><ele>137.79</ele><time>2022-09-15T03:53:59Z</time></trkpt><trkpt lat="34.2649992" lon="133.2121237"><ele>148.41333333333333</ele><time>2022-09-15T04:01:59Z</time></trkpt><trkpt lat="34.2651398" lon="133.2119137"><ele>164.2733333333333</ele><time>2022-09-15T04:02:18Z</time></trkpt><trkpt lat="34.2651513" lon="133.2116863"><ele>180.65666666666667</ele><time>2022-09-15T04:03:11Z</time></trkpt><trkpt lat="34.2652994" lon="133.2115485"><ele>194.81333333333336</ele><time>2022-09-15T04:04:36Z</time></trkpt><trkpt lat="34.2652451" lon="133.2113338"><ele>200.60999999999999</ele><time>2022-09-15T04:13:22Z</time></trkpt><trkpt lat="34.2651151" lon="133.2111624"><ele>198.25333333333333</ele><time>2022-09-15T04:14:12Z</time></trkpt><trkpt lat="34.2649989" lon="133.2109953"><ele>189.8166666666667</ele><time>2022-09-15T04:14:23Z</time></trkpt><trkpt lat="34.2649255" lon="133.2107952"><ele>183.35999999999999</ele><time>2022-09-15T04:14:44Z</time></trkpt><trkpt lat="34.2648274" lon="133.2106101"><ele>179.74</ele><time>2022-09-15T04:15:06Z</time></trkpt><trkpt lat="34.2648608" lon="133.2103952"><ele>181.89333333333335</ele><time>2022-09-15T04:15:24Z</time></trkpt><trkpt lat="34.2648674" lon="133.2101764"><ele>186.6966666666667</ele><time>2022-09-15T04:15:46Z</time></trkpt><trkpt lat="34.2648259" lon="133.2099604"><ele>193.50666666666666</ele><time>2022-09-15T04:16:09Z</time></trkpt><trkpt lat="34.2647872" lon="133.2097473"><ele>196.13333333333333</ele><time>2022-09-15T04:16:59Z</time></trkpt><trkpt lat="34.2646166" lon="133.2096594"><ele>194.50666666666666</ele><time>2022-09-15T04:17:15Z</time></trkpt><trkpt lat="34.2645656" lon="133.2094465"><ele>190.92999999999998</ele><time>2022-09-15T04:17:34Z</time></trkpt><trkpt lat="34.2644715" lon="133.209258"><ele>190.61666666666667</ele><time>2022-09-15T04:17:56Z</time></trkpt><trkpt lat="34.2644008" lon="133.2090575"><ele>193.11666666666667</ele><time>2022-09-15T04:18:18Z</time></trkpt><trkpt lat="34.2645711" lon="133.2089806"><ele>197.24333333333334</ele><time>2022-09-15T04:18:45Z</time></trkpt><trkpt lat="34.2647464" lon="133.2090438"><ele>194.60666666666668</ele><time>2022-09-15T04:19:09Z</time></trkpt><trkpt lat="34.2646989" lon="133.2088168"><ele>194.86333333333334</ele><time>2022-09-15T04:19:29Z</time></trkpt><trkpt lat="34.2645385" lon="133.2087144"><ele>196.92999999999998</ele><time>2022-09-15T04:19:55Z</time></trkpt><trkpt lat="34.2643509" lon="133.2087179"><ele>203.70000000000002</ele><time>2022-09-15T04:20:20Z</time></trkpt><trkpt lat="34.2641894" lon="133.2086016"><ele>205.88333333333333</ele><time>2022-09-15T04:20:45Z</time></trkpt><trkpt lat="34.2640282" lon="133.2084995"><ele>204.08333333333334</ele><time>2022-09-15T04:21:13Z</time></trkpt><trkpt lat="34.263877" lon="133.2083772"><ele>200.50333333333333</ele><time>2022-09-15T04:21:30Z</time></trkpt><trkpt lat="34.263718" lon="133.2082706"><ele>198.31000000000003</ele><time>2022-09-15T04:21:49Z</time></trkpt><trkpt lat="34.2636312" lon="133.2080733"><ele>197.72333333333333</ele><time>2022-09-15T04:23:04Z</time></trkpt><trkpt lat="34.2635202" lon="133.2078939"><ele>201.10333333333335</ele><time>2022-09-15T04:23:33Z</time></trkpt><trkpt lat="34.2634022" lon="133.2077262"><ele>204.79</ele><time>2022-09-15T04:24:15Z</time></trkpt><trkpt lat="34.2632851" lon="133.207558"><ele>209.68333333333337</ele><time>2022-09-15T04:24:41Z</time></trkpt><trkpt lat="34.2631036" lon="133.2075525"><ele>210.61</ele><time>2022-09-15T04:25:51Z</time></trkpt><trkpt lat="34.2629223" lon="133.2075409"><ele>209.67</ele><time>2022-09-15T04:26:11Z</time></trkpt><trkpt lat="34.2627481" lon="133.207475"><ele>206.14666666666668</ele><time>2022-09-15T04:26:41Z</time></trkpt><trkpt lat="34.2628832" lon="133.2073209"><ele>207.51000000000002</ele><time>2022-09-15T04:27:18Z</time></trkpt><trkpt lat="34.2630469" lon="133.207422"><ele>210.23666666666668</ele><time>2022-09-15T04:27:34Z</time></trkpt><trkpt lat="34.263199" lon="133.2075514"><ele>213.16333333333333</ele><time>2022-09-15T04:27:50Z</time></trkpt><trkpt lat="34.2633617" lon="133.2076569"><ele>213.28</ele><time>2022-09-15T04:28:38Z</time></trkpt><trkpt lat="34.2634739" lon="133.2078269"><ele>210.27333333333334</ele><time>2022-09-15T04:35:29Z</time></trkpt><trkpt lat="34.2636358" lon="133.2079317"><ele>204.41333333333333</ele><time>2022-09-15T04:35:55Z</time></trkpt><trkpt lat="34.2637863" lon="133.2080625"><ele>199.09</ele><time>2022-09-15T04:36:29Z</time></trkpt><trkpt lat="34.2639435" lon="133.2081696"><ele>195.33</ele><time>2022-09-15T04:36:52Z</time></trkpt><trkpt lat="34.2640024" lon="133.2083761"><ele>197.14</ele><time>2022-09-15T04:37:06Z</time></trkpt><trkpt lat="34.2641116" lon="133.2085505"><ele>199.20333333333335</ele><time>2022-09-15T04:37:30Z</time></trkpt><trkpt lat="34.264293" lon="133.208544"><ele>203.01</ele><time>2022-09-15T04:37:50Z</time></trkpt><trkpt lat="34.2644567" lon="133.2086421"><ele>205.84</ele><time>2022-09-15T04:38:21Z</time></trkpt><trkpt lat="34.2645056" lon="133.2088629"><ele>208.08333333333334</ele><time>2022-09-15T04:38:46Z</time></trkpt><trkpt lat="34.2645867" lon="133.2090589"><ele>206.61666666666667</ele><time>2022-09-15T04:39:06Z</time></trkpt><trkpt lat="34.2645791" lon="133.2092769"><ele>201.11</ele><time>2022-09-15T04:39:32Z</time></trkpt><trkpt lat="34.2646305" lon="133.2094909"><ele>195.14666666666668</ele><time>2022-09-15T04:39:55Z</time></trkpt><trkpt lat="34.2647379" lon="133.2096694"><ele>192.43333333333337</ele><time>2022-09-15T04:40:15Z</time></trkpt><trkpt lat="34.2648395" lon="133.2098512"><ele>193.50333333333336</ele><time>2022-09-15T04:40:34Z</time></trkpt><trkpt lat="34.2648724" lon="133.2100704"><ele>196.34333333333333</ele><time>2022-09-15T04:41:19Z</time></trkpt><trkpt lat="34.264961" lon="133.2102663"><ele>193.53666666666666</ele><time>2022-09-15T04:41:37Z</time></trkpt><trkpt lat="34.2649346" lon="133.2104814"><ele>189.24</ele><time>2022-09-15T04:41:58Z</time></trkpt><trkpt lat="34.2649549" lon="133.2107169"><ele>183.26333333333335</ele><time>2022-09-15T04:42:23Z</time></trkpt><trkpt lat="34.2650681" lon="133.2108891"><ele>182.92666666666665</ele><time>2022-09-15T04:42:50Z</time></trkpt><trkpt lat="34.2651736" lon="133.2110665"><ele>183.91</ele><time>2022-09-15T04:43:09Z</time></trkpt><trkpt lat="34.2652437" lon="133.2112672"><ele>187.95333333333335</ele><time>2022-09-15T04:43:40Z</time></trkpt><trkpt lat="34.2653123" lon="133.2114753"><ele>195.43333333333337</ele><time>2022-09-15T04:44:43Z</time></trkpt><trkpt lat="34.265471" lon="133.2115885"><ele>203.31333333333336</ele><time>2022-09-15T04:45:03Z</time></trkpt><trkpt lat="34.2656431" lon="133.2116544"><ele>210.69000000000003</ele><time>2022-09-15T04:46:12Z</time></trkpt><trkpt lat="34.2657981" lon="133.2117733"><ele>217.10666666666668</ele><time>2022-09-15T04:46:43Z</time></trkpt><trkpt lat="34.2659597" lon="133.2118721"><ele>226.32000000000002</ele><time>2022-09-15T04:47:31Z</time></trkpt><trkpt lat="34.2661304" lon="133.2118"><ele>235.63666666666666</ele><time>2022-09-15T04:49:06Z</time></trkpt><trkpt lat="34.2662802" lon="133.2119243"><ele>246.04666666666665</ele><time>2022-09-15T04:49:30Z</time></trkpt><trkpt lat="34.2664585" lon="133.2118741"><ele>253.0566666666667</ele><time>2022-09-15T04:50:23Z</time></trkpt><trkpt lat="34.2666227" lon="133.2119746"><ele>260.06333333333333</ele><time>2022-09-15T04:51:20Z</time></trkpt><trkpt lat="34.2667326" lon="133.2121567"><ele>266.78333333333336</ele><time>2022-09-15T04:52:27Z</time></trkpt><trkpt lat="34.2665635" lon="133.2120741"><ele>269.75333333333333</ele><time>2022-09-15T05:09:55Z</time></trkpt><trkpt lat="34.2663802" lon="133.2121066"><ele>267.90333333333336</ele><time>2022-09-15T05:10:29Z</time></trkpt><trkpt lat="34.266218" lon="133.2120044"><ele>258.64000000000004</ele><time>2022-09-15T05:10:47Z</time></trkpt><trkpt lat="34.2660332" lon="133.2119906"><ele>249.28333333333333</ele><time>2022-09-15T05:11:45Z</time></trkpt><trkpt lat="34.2658491" lon="133.2119849"><ele>238.63666666666668</ele><time>2022-09-15T05:12:09Z</time></trkpt><trkpt lat="34.2657147" lon="133.2118352"><ele>229.86</ele><time>2022-09-15T05:12:30Z</time></trkpt><trkpt lat="34.265566" lon="133.2117098"><ele>221.11333333333334</ele><time>2022-09-15T05:13:01Z</time></trkpt><trkpt lat="34.2653901" lon="133.2116447"><ele>214.9766666666667</ele><time>2022-09-15T05:13:18Z</time></trkpt><trkpt lat="34.2652108" lon="133.2116209"><ele>208.75</ele><time>2022-09-15T05:15:15Z</time></trkpt><trkpt lat="34.265136" lon="133.2118193"><ele>199.78</ele><time>2022-09-15T05:15:25Z</time></trkpt><trkpt lat="34.2650902" lon="133.2120306"><ele>187.14666666666668</ele><time>2022-09-15T05:15:40Z</time></trkpt><trkpt lat="34.2649122" lon="133.2119915"><ele>175.23000000000002</ele><time>2022-09-15T05:17:26Z</time></trkpt><trkpt lat="34.2648431" lon="133.2121958"><ele>163.55666666666667</ele><time>2022-09-15T05:18:36Z</time></trkpt><trkpt lat="34.264736" lon="133.2123764"><ele>151.86333333333334</ele><time>2022-09-15T05:19:06Z</time></trkpt><trkpt lat="34.2645555" lon="133.2123808"><ele>139.73000000000002</ele><time>2022-09-15T05:21:45Z</time></trkpt><trkpt lat="34.2643692" lon="133.2123395"><ele>133.17000000000002</ele><time>2022-09-15T05:22:34Z</time></trkpt><trkpt lat="34.2641664" lon="133.2124104"><ele>128.42000000000002</ele><time>2022-09-15T05:22:44Z</time></trkpt><trkpt lat="34.2640027" lon="133.212313"><ele>124.7</ele><time>2022-09-15T05:23:01Z</time></trkpt><trkpt lat="34.2640845" lon="133.2121114"><ele>122.50333333333333</ele><time>2022-09-15T05:23:19Z</time></trkpt><trkpt lat="34.2641157" lon="133.2118944"><ele>126.77333333333335</ele><time>2022-09-15T05:23:39Z</time></trkpt><trkpt lat="34.2639553" lon="133.2117915"><ele>126.27333333333335</ele><time>2022-09-15T05:23:54Z</time></trkpt><trkpt lat="34.2637707" lon="133.211794"><ele>121.37333333333333</ele><time>2022-09-15T05:25:40Z</time></trkpt><trkpt lat="34.2635968" lon="133.2118514"><ele>108.29666666666667</ele><time>2022-09-15T05:25:51Z</time></trkpt><trkpt lat="34.2634255" lon="133.2117803"><ele>98.58666666666666</ele><time>2022-09-15T05:26:28Z</time></trkpt><trkpt lat="34.2632503" lon="133.2118396"><ele>87.06333333333333</ele><time>2022-09-15T05:26:47Z</time></trkpt><trkpt lat="34.2630926" lon="133.211946"><ele>75.59</ele><time>2022-09-15T05:28:30Z</time></trkpt><trkpt lat="34.2630244" lon="133.2117372"><ele>66.42666666666666</ele><time>2022-09-15T05:29:00Z</time></trkpt><trkpt lat="34.2630017" lon="133.2115182"><ele>61.56</ele><time>2022-09-15T05:29:35Z</time></trkpt><trkpt lat="34.2628248" lon="133.2116017"><ele>60.54666666666666</ele><time>2022-09-15T05:30:09Z</time></trkpt><trkpt lat="34.2628521" lon="133.2118258"><ele>58.56333333333333</ele><time>2022-09-15T05:30:52Z</time></trkpt><trkpt lat="34.2626597" lon="133.2117608"><ele>55.4</ele><time>2022-09-15T05:31:59Z</time></trkpt><trkpt lat="34.2625057" lon="133.2118745"><ele>52.57333333333333</ele><time>2022-09-15T05:32:11Z</time></trkpt><trkpt lat="34.2623464" lon="133.2119779"><ele>49.11666666666667</ele><time>2022-09-15T05:32:39Z</time></trkpt><trkpt lat="34.2622653" lon="133.2121768"><ele>45.05666666666667</ele><time>2022-09-15T05:32:54Z</time></trkpt><trkpt lat="34.262104" lon="133.2122966"><ele>40.9</ele><time>2022-09-15T05:33:11Z</time></trkpt><trkpt lat="34.2619674" lon="133.212441"><ele>36.330000000000005</ele><time>2022-09-15T05:33:36Z</time></trkpt><trkpt lat="34.2618734" lon="133.2122442"><ele>33.52</ele><time>2022-09-15T05:33:47Z</time></trkpt><trkpt lat="34.2618217" lon="133.2120292"><ele>32.59666666666667</ele><time>2022-09-15T05:33:59Z</time></trkpt><trkpt lat="34.2618178" lon="133.2118015"><ele>32.92</ele><time>2022-09-15T05:34:15Z</time></trkpt><trkpt lat="34.2618138" lon="133.2115753"><ele>32.42333333333334</ele><time>2022-09-15T05:34:38Z</time></trkpt></trkseg></trk></gpx>