<?xml version='1.0' encoding='UTF-8'?><gpx creator="Yama Museum Summit Candidate Generator" xsi:schemaLocation="http://www.topografix.com/GPX/1/1 http://www.topografix.com/GPX/1/1/gpx.xsd" version="1.1" xmlns="http://www.topografix.com/GPX/1/1" xmlns:xsi="http://www.w3.org/2001/XMLSchema-instance" xmlns:yama="https://museum-yama-data.moukaeritai.work/ns/yama-data/0.1"><metadata><bounds maxlat="34.2470556" maxlon="132.994002" minlat="34.2453062" minlon="132.9888341"/><name>御串山</name><extensions><yama:source_gpx_basename>yamap_2024-01-27_10_11.gpx</yama:source_gpx_basename><yama:source_gpx_relative_path>data/01_raw/gpx/2026-05-12/yamap_2024-01-27_10_11.gpx</yama:source_gpx_relative_path><yama:detection_parameters>window=5,radius=10,min_prominence=30,merge=100</yama:detection_parameters></extensions></metadata><wpt lat="34.2470088" lon="132.9890515"><ele>62.803333333333335</ele><time>2024-01-27T01:29:37Z</time><name>summit-candidate:02d59cd1260af017</name><desc>Summit candidate detected at elevation 62.803333333333335m with prominence 42.20822222222222m.</desc><sym>Summit Candidate</sym><extensions><yama:source_trackpoint_index>29</yama:source_trackpoint_index><yama:valid_elevation_index>29</yama:valid_elevation_index><yama:smoothed_ele>60.40266666666666</yama:smoothed_ele><yama:prominence>42.20822222222222</yama:prominence><yama:detection_method>local_maxima_with_prominence</yama:detection_method><yama:detection_parameters>window=5,radius=10,min_prominence=30,merge=100</yama:detection_parameters><yama:candidate_status>unresolved</yama:candidate_status></extensions></wpt>
  <trk><name>御串山</name><number>1</number><trkseg><trkpt lat="34.2453247" lon="132.9937675"><ele>7.58</ele><time>2024-01-27T01:11:01Z</time></trkpt><trkpt lat="34.2453584" lon="132.994002"><ele>8.29</ele><time>2024-01-27T01:11:28Z</time></trkpt><trkpt lat="34.2454821" lon="132.9938426"><ele>9.979999999999999</ele><time>2024-01-27T01:12:48Z</time></trkpt><trkpt lat="34.2456045" lon="132.9936767"><ele>13.603333333333333</ele><time>2024-01-27T01:13:06Z</time></trkpt><trkpt lat="34.2456589" lon="132.9934604"><ele>16.716666666666665</ele><time>2024-01-27T01:13:23Z</time></trkpt><trkpt lat="34.2457903" lon="132.9933037"><ele>18.246666666666666</ele><time>2024-01-27T01:13:48Z</time></trkpt><trkpt lat="34.2457762" lon="132.9930861"><ele>16.75</ele><time>2024-01-27T01:14:00Z</time></trkpt><trkpt lat="34.2458631" lon="132.9928927"><ele>17.076666666666668</ele><time>2024-01-27T01:14:15Z</time></trkpt><trkpt lat="34.245973" lon="132.992716"><ele>18.67</ele><time>2024-01-27T01:14:34Z</time></trkpt><trkpt lat="34.2460001" lon="132.9924994"><ele>22.63</ele><time>2024-01-27T01:16:09Z</time></trkpt><trkpt lat="34.2460417" lon="132.9922859"><ele>26.03</ele><time>2024-01-27T01:16:30Z</time></trkpt><trkpt lat="34.2460416" lon="132.9920613"><ele>30.203333333333333</ele><time>2024-01-27T01:16:43Z</time></trkpt><trkpt lat="34.246015" lon="132.991844"><ele>34.31333333333333</ele><time>2024-01-27T01:17:02Z</time></trkpt><trkpt lat="34.2461779" lon="132.9917451"><ele>38.5</ele><time>2024-01-27T01:17:58Z</time></trkpt><trkpt lat="34.2462056" lon="132.9915281"><ele>40.86666666666667</ele><time>2024-01-27T01:18:29Z</time></trkpt><trkpt lat="34.2463393" lon="132.9913787"><ele>44.00666666666667</ele><time>2024-01-27T01:18:55Z</time></trkpt><trkpt lat="34.2464183" lon="132.9911793"><ele>46.27333333333333</ele><time>2024-01-27T01:19:20Z</time></trkpt><trkpt lat="34.2464561" lon="132.9909661"><ele>48.71</ele><time>2024-01-27T01:19:31Z</time></trkpt><trkpt lat="34.2465451" lon="132.990777"><ele>50.31</ele><time>2024-01-27T01:19:44Z</time></trkpt><trkpt lat="34.2467158" lon="132.9907045"><ele>51.43000000000001</ele><time>2024-01-27T01:20:02Z</time></trkpt><trkpt lat="34.2466704" lon="132.9904881"><ele>52.85</ele><time>2024-01-27T01:20:25Z</time></trkpt><trkpt lat="34.2468048" lon="132.9903408"><ele>53.63999999999999</ele><time>2024-01-27T01:20:43Z</time></trkpt><trkpt lat="34.2468719" lon="132.9901332"><ele>54.52666666666667</ele><time>2024-01-27T01:21:03Z</time></trkpt><trkpt lat="34.2469671" lon="132.9899417"><ele>55.25333333333333</ele><time>2024-01-27T01:21:29Z</time></trkpt><trkpt lat="34.2469982" lon="132.9897274"><ele>55.70666666666667</ele><time>2024-01-27T01:21:58Z</time></trkpt><trkpt lat="34.2470106" lon="132.9895067"><ele>55.48333333333333</ele><time>2024-01-27T01:22:44Z</time></trkpt><trkpt lat="34.2469947" lon="132.9892817"><ele>56.26</ele><time>2024-01-27T01:23:09Z</time></trkpt><trkpt lat="34.2470164" lon="132.9890607"><ele>58.24666666666667</ele><time>2024-01-27T01:23:20Z</time></trkpt><trkpt lat="34.2470056" lon="132.9888341"><ele>61.586666666666666</ele><time>2024-01-27T01:23:34Z</time></trkpt><trkpt lat="34.2470088" lon="132.9890515"><ele>62.803333333333335</ele><time>2024-01-27T01:29:37Z</time></trkpt><trkpt lat="34.247017" lon="132.9892711"><ele>61.25666666666666</ele><time>2024-01-27T01:29:47Z</time></trkpt><trkpt lat="34.2470396" lon="132.9894948"><ele>58.120000000000005</ele><time>2024-01-27T01:29:57Z</time></trkpt><trkpt lat="34.2470556" lon="132.9897145"><ele>55.330000000000005</ele><time>2024-01-27T01:30:10Z</time></trkpt><trkpt lat="34.2470233" lon="132.989934"><ele>54.083333333333336</ele><time>2024-01-27T01:30:23Z</time></trkpt><trkpt lat="34.2469754" lon="132.990145"><ele>54.23333333333333</ele><time>2024-01-27T01:30:44Z</time></trkpt><trkpt lat="34.246881" lon="132.9903316"><ele>54.46666666666667</ele><time>2024-01-27T01:31:00Z</time></trkpt><trkpt lat="34.2467201" lon="132.9904329"><ele>54.666666666666664</ele><time>2024-01-27T01:31:16Z</time></trkpt><trkpt lat="34.2466769" lon="132.9906566"><ele>53.88333333333333</ele><time>2024-01-27T01:31:30Z</time></trkpt><trkpt lat="34.2465929" lon="132.990857"><ele>53.25</ele><time>2024-01-27T01:31:54Z</time></trkpt><trkpt lat="34.246549" lon="132.9910738"><ele>52.23333333333333</ele><time>2024-01-27T01:32:10Z</time></trkpt><trkpt lat="34.2465767" lon="132.9912939"><ele>51.52</ele><time>2024-01-27T01:32:34Z</time></trkpt><trkpt lat="34.2464424" lon="132.9914434"><ele>50.943333333333335</ele><time>2024-01-27T01:33:03Z</time></trkpt><trkpt lat="34.2462636" lon="132.9914968"><ele>49.08666666666667</ele><time>2024-01-27T01:34:05Z</time></trkpt><trkpt lat="34.246183" lon="132.9917154"><ele>46.71</ele><time>2024-01-27T01:34:30Z</time></trkpt><trkpt lat="34.2461246" lon="132.991924"><ele>42.093333333333334</ele><time>2024-01-27T01:34:38Z</time></trkpt><trkpt lat="34.2460432" lon="132.9921187"><ele>38.016666666666666</ele><time>2024-01-27T01:34:51Z</time></trkpt><trkpt lat="34.2459962" lon="132.9923317"><ele>33.28333333333333</ele><time>2024-01-27T01:35:09Z</time></trkpt><trkpt lat="34.2461183" lon="132.9924919"><ele>28.330000000000002</ele><time>2024-01-27T01:35:24Z</time></trkpt><trkpt lat="34.2460871" lon="132.992707"><ele>22.786666666666665</ele><time>2024-01-27T01:35:37Z</time></trkpt><trkpt lat="34.2460144" lon="132.9929196"><ele>19.373333333333335</ele><time>2024-01-27T01:35:49Z</time></trkpt><trkpt lat="34.2459195" lon="132.9931092"><ele>19.376666666666665</ele><time>2024-01-27T01:36:00Z</time></trkpt><trkpt lat="34.2458076" lon="132.9932862"><ele>21.343333333333334</ele><time>2024-01-27T01:36:11Z</time></trkpt><trkpt lat="34.2456881" lon="132.9934563"><ele>21.046666666666667</ele><time>2024-01-27T01:36:25Z</time></trkpt><trkpt lat="34.2456296" lon="132.9936669"><ele>19.83666666666667</ele><time>2024-01-27T01:36:39Z</time></trkpt><trkpt lat="34.2456013" lon="132.9938834"><ele>20.906666666666666</ele><time>2024-01-27T01:36:51Z</time></trkpt><trkpt lat="34.2454314" lon="132.9939672"><ele>18.52</ele><time>2024-01-27T01:37:05Z</time></trkpt><trkpt lat="34.2453062" lon="132.9938037"><ele>15.156666666666666</ele><time>2024-01-27T01:37:40Z</time></trkpt></trkseg></trk></gpx>