<?xml version='1.0' encoding='UTF-8'?><gpx creator="Yama Museum Summit Candidate Generator" xsi:schemaLocation="http://www.topografix.com/GPX/1/1 http://www.topografix.com/GPX/1/1/gpx.xsd" version="1.1" xmlns="http://www.topografix.com/GPX/1/1" xmlns:xsi="http://www.w3.org/2001/XMLSchema-instance" xmlns:yama="https://museum-yama-data.moukaeritai.work/ns/yama-data/0.1"><metadata><bounds maxlat="33.8794759" maxlon="133.3253158" minlat="33.8591823" minlon="133.3088538"/><name>銅山峰・西山・三の森・二の森・一の森</name><extensions><yama:source_gpx_basename>yamap_2024-10-05_06_40.gpx</yama:source_gpx_basename><yama:source_gpx_relative_path>data/01_raw/gpx/2026-05-12/yamap_2024-10-05_06_40.gpx</yama:source_gpx_relative_path><yama:detection_parameters>window=5,radius=10,min_prominence=30,merge=100</yama:detection_parameters></extensions></metadata><wpt lat="33.8596586" lon="133.3188738"><ele>1425.3166666666668</ele><time>2024-10-05T00:05:39Z</time><name>summit-candidate:057580d1c60049b6</name><desc>Summit candidate detected at elevation 1425.3166666666668m with prominence 681.566m.</desc><sym>Summit Candidate</sym><extensions><yama:source_trackpoint_index>163</yama:source_trackpoint_index><yama:valid_elevation_index>163</yama:valid_elevation_index><yama:smoothed_ele>1423.6286666666667</yama:smoothed_ele><yama:prominence>681.566</yama:prominence><yama:detection_method>local_maxima_with_prominence</yama:detection_method><yama:detection_parameters>window=5,radius=10,min_prominence=30,merge=100</yama:detection_parameters><yama:candidate_status>unresolved</yama:candidate_status></extensions></wpt>
  <wpt lat="33.8793776" lon="133.3116827"><ele>831.0900000000001</ele><time>2024-10-05T02:16:12Z</time><name>summit-candidate:0dea5d073885dc9d</name><desc>Summit candidate detected at elevation 831.0900000000001m with prominence 46.411333333333346m.</desc><sym>Summit Candidate</sym><extensions><yama:source_trackpoint_index>309</yama:source_trackpoint_index><yama:valid_elevation_index>309</yama:valid_elevation_index><yama:smoothed_ele>829.488</yama:smoothed_ele><yama:prominence>46.411333333333346</yama:prominence><yama:detection_method>local_maxima_with_prominence</yama:detection_method><yama:detection_parameters>window=5,radius=10,min_prominence=30,merge=100</yama:detection_parameters><yama:candidate_status>unresolved</yama:candidate_status></extensions></wpt>
  <trk><name>銅山峰・西山・三の森・二の森・一の森</name><number>1</number><trkseg><trkpt lat="33.875227" lon="133.3157338"><ele>743.9300000000001</ele><time>2024-10-04T21:40:36Z</time></trkpt><trkpt lat="33.8753046" lon="133.3159659"><ele>745.475</ele><time>2024-10-04T21:41:23Z</time></trkpt><trkpt lat="33.8754585" lon="133.3161494"><ele>746.7566666666667</ele><time>2024-10-04T21:41:44Z</time></trkpt><trkpt lat="33.8756378" lon="133.3161958"><ele>749.0133333333333</ele><time>2024-10-04T21:42:28Z</time></trkpt><trkpt lat="33.8758369" lon="133.3163264"><ele>751.4866666666667</ele><time>2024-10-04T21:42:43Z</time></trkpt><trkpt lat="33.8757795" lon="133.3165442"><ele>751.2666666666668</ele><time>2024-10-04T21:44:20Z</time></trkpt><trkpt lat="33.8756701" lon="133.316742"><ele>750.0</ele><time>2024-10-04T21:44:56Z</time></trkpt><trkpt lat="33.8756033" lon="133.3169516"><ele>745.7633333333333</ele><time>2024-10-04T21:45:17Z</time></trkpt><trkpt lat="33.8755255" lon="133.3171788"><ele>742.94</ele><time>2024-10-04T21:45:29Z</time></trkpt><trkpt lat="33.8754371" lon="133.3173673"><ele>740.0233333333334</ele><time>2024-10-04T21:45:41Z</time></trkpt><trkpt lat="33.875288" lon="133.3175589"><ele>738.5666666666667</ele><time>2024-10-04T21:45:56Z</time></trkpt><trkpt lat="33.8751065" lon="133.3176763"><ele>740.3733333333333</ele><time>2024-10-04T21:46:17Z</time></trkpt><trkpt lat="33.8750229" lon="133.3178877"><ele>741.9900000000001</ele><time>2024-10-04T21:46:29Z</time></trkpt><trkpt lat="33.8750078" lon="133.3181066"><ele>742.54</ele><time>2024-10-04T21:46:53Z</time></trkpt><trkpt lat="33.8748751" lon="133.3182709"><ele>741.0966666666667</ele><time>2024-10-04T21:47:11Z</time></trkpt><trkpt lat="33.8747312" lon="133.3184057"><ele>740.5099999999999</ele><time>2024-10-04T21:47:29Z</time></trkpt><trkpt lat="33.8745075" lon="133.3184932"><ele>742.4166666666666</ele><time>2024-10-04T21:47:41Z</time></trkpt><trkpt lat="33.8744151" lon="133.3186987"><ele>743.1566666666668</ele><time>2024-10-04T21:47:53Z</time></trkpt><trkpt lat="33.8742621" lon="133.3188777"><ele>744.7166666666667</ele><time>2024-10-04T21:48:11Z</time></trkpt><trkpt lat="33.8743615" lon="133.319062"><ele>744.3866666666667</ele><time>2024-10-04T21:48:50Z</time></trkpt><trkpt lat="33.8741787" lon="133.3190664"><ele>745.3766666666667</ele><time>2024-10-04T21:50:41Z</time></trkpt><trkpt lat="33.8740292" lon="133.3192331"><ele>745.8533333333334</ele><time>2024-10-04T21:50:59Z</time></trkpt><trkpt lat="33.8739502" lon="133.3194278"><ele>747.0666666666667</ele><time>2024-10-04T21:52:26Z</time></trkpt><trkpt lat="33.8739707" lon="133.3196583"><ele>747.5633333333334</ele><time>2024-10-04T21:53:05Z</time></trkpt><trkpt lat="33.8740039" lon="133.3198739"><ele>749.7133333333335</ele><time>2024-10-04T21:53:35Z</time></trkpt><trkpt lat="33.8740134" lon="133.3201034"><ele>752.44</ele><time>2024-10-04T21:53:56Z</time></trkpt><trkpt lat="33.8738334" lon="133.3200012"><ele>755.8466666666667</ele><time>2024-10-04T21:54:38Z</time></trkpt><trkpt lat="33.8736446" lon="133.320002"><ele>762.71</ele><time>2024-10-04T21:56:29Z</time></trkpt><trkpt lat="33.8736734" lon="133.3202225"><ele>772.23</ele><time>2024-10-04T21:57:29Z</time></trkpt><trkpt lat="33.8735078" lon="133.3201168"><ele>783.4466666666667</ele><time>2024-10-04T21:58:14Z</time></trkpt><trkpt lat="33.8733705" lon="133.3198784"><ele>790.0166666666668</ele><time>2024-10-04T21:58:38Z</time></trkpt><trkpt lat="33.8733639" lon="133.3196557"><ele>790.7333333333332</ele><time>2024-10-04T21:58:56Z</time></trkpt><trkpt lat="33.8731711" lon="133.3195544"><ele>796.4866666666667</ele><time>2024-10-04T22:00:17Z</time></trkpt><trkpt lat="33.8729983" lon="133.3194312"><ele>801.3000000000001</ele><time>2024-10-04T22:01:02Z</time></trkpt><trkpt lat="33.8731044" lon="133.3196372"><ele>811.7766666666666</ele><time>2024-10-04T22:01:44Z</time></trkpt><trkpt lat="33.8730926" lon="133.3198576"><ele>815.04</ele><time>2024-10-04T22:02:17Z</time></trkpt><trkpt lat="33.8731719" lon="133.3200592"><ele>818.6866666666666</ele><time>2024-10-04T22:03:08Z</time></trkpt><trkpt lat="33.8732198" lon="133.3202696"><ele>818.5366666666667</ele><time>2024-10-04T22:03:50Z</time></trkpt><trkpt lat="33.8732905" lon="133.320482"><ele>819.1366666666667</ele><time>2024-10-04T22:04:32Z</time></trkpt><trkpt lat="33.873368" lon="133.320695"><ele>820.4733333333334</ele><time>2024-10-04T22:04:56Z</time></trkpt><trkpt lat="33.8734045" lon="133.3209199"><ele>830.4266666666667</ele><time>2024-10-04T22:05:32Z</time></trkpt><trkpt lat="33.8735148" lon="133.3210975"><ele>839.7966666666666</ele><time>2024-10-04T22:06:02Z</time></trkpt><trkpt lat="33.8736808" lon="133.3212324"><ele>845.33</ele><time>2024-10-04T22:06:32Z</time></trkpt><trkpt lat="33.8737479" lon="133.3214351"><ele>843.9500000000002</ele><time>2024-10-04T22:10:41Z</time></trkpt><trkpt lat="33.8735679" lon="133.3215398"><ele>844.5833333333334</ele><time>2024-10-04T22:11:14Z</time></trkpt><trkpt lat="33.8733819" lon="133.3216307"><ele>850.61</ele><time>2024-10-04T22:11:32Z</time></trkpt><trkpt lat="33.873223" lon="133.3217359"><ele>856.8866666666668</ele><time>2024-10-04T22:11:50Z</time></trkpt><trkpt lat="33.8732276" lon="133.3215197"><ele>863.0133333333334</ele><time>2024-10-04T22:13:41Z</time></trkpt><trkpt lat="33.8730834" lon="133.3213858"><ele>869.8666666666668</ele><time>2024-10-04T22:15:59Z</time></trkpt><trkpt lat="33.8728912" lon="133.3213565"><ele>877.6166666666668</ele><time>2024-10-04T22:17:05Z</time></trkpt><trkpt lat="33.8727731" lon="133.3211746"><ele>883.5733333333334</ele><time>2024-10-04T22:18:08Z</time></trkpt><trkpt lat="33.8725688" lon="133.3212531"><ele>890.6700000000001</ele><time>2024-10-04T22:19:53Z</time></trkpt><trkpt lat="33.8724319" lon="133.3214035"><ele>900.0033333333334</ele><time>2024-10-04T22:20:17Z</time></trkpt><trkpt lat="33.8723127" lon="133.3215722"><ele>912.6133333333333</ele><time>2024-10-04T22:21:11Z</time></trkpt><trkpt lat="33.8722342" lon="133.3213675"><ele>924.5366666666667</ele><time>2024-10-04T22:21:53Z</time></trkpt><trkpt lat="33.872222" lon="133.3211467"><ele>932.4499999999999</ele><time>2024-10-04T22:22:14Z</time></trkpt><trkpt lat="33.8720537" lon="133.3210405"><ele>942.0033333333334</ele><time>2024-10-04T22:24:47Z</time></trkpt><trkpt lat="33.8718645" lon="133.3209505"><ele>950.7866666666667</ele><time>2024-10-04T22:25:29Z</time></trkpt><trkpt lat="33.871705" lon="133.3208291"><ele>961.0166666666668</ele><time>2024-10-04T22:26:02Z</time></trkpt><trkpt lat="33.8715154" lon="133.3208788"><ele>967.5499999999998</ele><time>2024-10-04T22:26:41Z</time></trkpt><trkpt lat="33.8713349" lon="133.3207962"><ele>972.02</ele><time>2024-10-04T22:28:11Z</time></trkpt><trkpt lat="33.8711543" lon="133.320842"><ele>975.7533333333334</ele><time>2024-10-04T22:29:26Z</time></trkpt><trkpt lat="33.8709548" lon="133.3208763"><ele>978.0100000000001</ele><time>2024-10-04T22:30:05Z</time></trkpt><trkpt lat="33.8707751" lon="133.3209593"><ele>979.4166666666666</ele><time>2024-10-04T22:30:44Z</time></trkpt><trkpt lat="33.8706087" lon="133.3210583"><ele>983.4700000000001</ele><time>2024-10-04T22:31:17Z</time></trkpt><trkpt lat="33.8704175" lon="133.3211016"><ele>989.4466666666667</ele><time>2024-10-04T22:31:44Z</time></trkpt><trkpt lat="33.8702241" lon="133.3211034"><ele>1000.1300000000001</ele><time>2024-10-04T22:32:02Z</time></trkpt><trkpt lat="33.8700728" lon="133.3212359"><ele>1008.8966666666666</ele><time>2024-10-04T22:33:38Z</time></trkpt><trkpt lat="33.8699487" lon="133.3214026"><ele>1016.29</ele><time>2024-10-04T22:34:38Z</time></trkpt><trkpt lat="33.8698388" lon="133.3215786"><ele>1019.6033333333334</ele><time>2024-10-04T22:35:05Z</time></trkpt><trkpt lat="33.8697101" lon="133.3217305"><ele>1020.75</ele><time>2024-10-04T22:35:38Z</time></trkpt><trkpt lat="33.8695845" lon="133.3218953"><ele>1020.6133333333333</ele><time>2024-10-04T22:36:17Z</time></trkpt><trkpt lat="33.8694219" lon="133.3219931"><ele>1020.4766666666666</ele><time>2024-10-04T22:36:41Z</time></trkpt><trkpt lat="33.8692443" lon="133.3220866"><ele>1021.6366666666667</ele><time>2024-10-04T22:37:11Z</time></trkpt><trkpt lat="33.8690702" lon="133.3221479"><ele>1023.9133333333333</ele><time>2024-10-04T22:39:46Z</time></trkpt><trkpt lat="33.8688815" lon="133.3221755"><ele>1029.4799999999998</ele><time>2024-10-04T22:42:01Z</time></trkpt><trkpt lat="33.8686832" lon="133.3221729"><ele>1036.6633333333334</ele><time>2024-10-04T22:42:28Z</time></trkpt><trkpt lat="33.8684949" lon="133.3221404"><ele>1045.08</ele><time>2024-10-04T22:43:37Z</time></trkpt><trkpt lat="33.8683216" lon="133.3220581"><ele>1051.86</ele><time>2024-10-04T22:44:07Z</time></trkpt><trkpt lat="33.8681673" lon="133.322187"><ele>1058.5766666666668</ele><time>2024-10-04T22:45:16Z</time></trkpt><trkpt lat="33.8679887" lon="133.3222501"><ele>1066.93</ele><time>2024-10-04T22:46:28Z</time></trkpt><trkpt lat="33.867805" lon="133.3223404"><ele>1074.2266666666667</ele><time>2024-10-04T22:47:04Z</time></trkpt><trkpt lat="33.8676252" lon="133.3223942"><ele>1081.3700000000001</ele><time>2024-10-04T22:47:43Z</time></trkpt><trkpt lat="33.8674302" lon="133.32239"><ele>1087.01</ele><time>2024-10-04T22:48:46Z</time></trkpt><trkpt lat="33.8672437" lon="133.3224971"><ele>1094.13</ele><time>2024-10-04T22:49:04Z</time></trkpt><trkpt lat="33.8670675" lon="133.322645"><ele>1098.7366666666667</ele><time>2024-10-04T22:49:22Z</time></trkpt><trkpt lat="33.8669437" lon="133.322833"><ele>1101.05</ele><time>2024-10-04T22:50:01Z</time></trkpt><trkpt lat="33.8668077" lon="133.3230137"><ele>1101.3166666666668</ele><time>2024-10-04T22:50:21Z</time></trkpt><trkpt lat="33.866731" lon="133.3232129"><ele>1101.1066666666668</ele><time>2024-10-04T22:50:51Z</time></trkpt><trkpt lat="33.866679" lon="133.3229812"><ele>1103.5900000000001</ele><time>2024-10-04T22:51:48Z</time></trkpt><trkpt lat="33.8664924" lon="133.3229759"><ele>1109.5933333333332</ele><time>2024-10-04T22:54:59Z</time></trkpt><trkpt lat="33.8664354" lon="133.3227585"><ele>1117.7133333333334</ele><time>2024-10-04T22:55:44Z</time></trkpt><trkpt lat="33.8664581" lon="133.3225232"><ele>1127.2133333333334</ele><time>2024-10-04T22:55:59Z</time></trkpt><trkpt lat="33.8666186" lon="133.322382"><ele>1130.5966666666666</ele><time>2024-10-04T22:56:41Z</time></trkpt><trkpt lat="33.86673" lon="133.3221514"><ele>1133.1966666666667</ele><time>2024-10-04T22:57:02Z</time></trkpt><trkpt lat="33.8668115" lon="133.3219491"><ele>1131.5933333333335</ele><time>2024-10-04T22:57:23Z</time></trkpt><trkpt lat="33.8666297" lon="133.3219343"><ele>1136.8033333333335</ele><time>2024-10-04T22:58:05Z</time></trkpt><trkpt lat="33.8664506" lon="133.3219015"><ele>1143.8266666666666</ele><time>2024-10-04T22:58:23Z</time></trkpt><trkpt lat="33.8662988" lon="133.3220246"><ele>1152.4766666666667</ele><time>2024-10-04T22:59:23Z</time></trkpt><trkpt lat="33.8661847" lon="133.3221993"><ele>1156.8533333333332</ele><time>2024-10-04T23:00:14Z</time></trkpt><trkpt lat="33.8659977" lon="133.3221661"><ele>1161.76</ele><time>2024-10-04T23:01:20Z</time></trkpt><trkpt lat="33.8658171" lon="133.3221475"><ele>1169.3366666666668</ele><time>2024-10-04T23:02:46Z</time></trkpt><trkpt lat="33.8656396" lon="133.3221081"><ele>1179.5833333333333</ele><time>2024-10-04T23:03:55Z</time></trkpt><trkpt lat="33.8654907" lon="133.3222488"><ele>1188.6866666666667</ele><time>2024-10-04T23:04:22Z</time></trkpt><trkpt lat="33.8653263" lon="133.322385"><ele>1196.4066666666668</ele><time>2024-10-04T23:05:01Z</time></trkpt><trkpt lat="33.8651485" lon="133.3223173"><ele>1202.3533333333332</ele><time>2024-10-04T23:06:10Z</time></trkpt><trkpt lat="33.8649908" lon="133.3224279"><ele>1210.5033333333333</ele><time>2024-10-04T23:07:10Z</time></trkpt><trkpt lat="33.8648792" lon="133.3226062"><ele>1217.1366666666665</ele><time>2024-10-04T23:08:10Z</time></trkpt><trkpt lat="33.8647523" lon="133.3227832"><ele>1224.1466666666668</ele><time>2024-10-04T23:10:31Z</time></trkpt><trkpt lat="33.864648" lon="133.3229609"><ele>1227.986666666667</ele><time>2024-10-04T23:11:04Z</time></trkpt><trkpt lat="33.8645088" lon="133.3231168"><ele>1233.3833333333332</ele><time>2024-10-04T23:11:28Z</time></trkpt><trkpt lat="33.8644035" lon="133.323293"><ele>1237.7300000000002</ele><time>2024-10-04T23:11:54Z</time></trkpt><trkpt lat="33.8642746" lon="133.3234773"><ele>1241.6533333333334</ele><time>2024-10-04T23:12:18Z</time></trkpt><trkpt lat="33.8641234" lon="133.3236204"><ele>1244.2700000000002</ele><time>2024-10-04T23:12:45Z</time></trkpt><trkpt lat="33.8639933" lon="133.3237849"><ele>1246.3666666666668</ele><time>2024-10-04T23:13:27Z</time></trkpt><trkpt lat="33.8639123" lon="133.3239861"><ele>1247.5500000000002</ele><time>2024-10-04T23:13:51Z</time></trkpt><trkpt lat="33.8638047" lon="133.3241835"><ele>1248.2966666666669</ele><time>2024-10-04T23:14:17Z</time></trkpt><trkpt lat="33.8636799" lon="133.3243488"><ele>1250.0133333333333</ele><time>2024-10-04T23:14:47Z</time></trkpt><trkpt lat="33.8635347" lon="133.3245123"><ele>1253.8033333333333</ele><time>2024-10-04T23:15:26Z</time></trkpt><trkpt lat="33.8633799" lon="133.3246528"><ele>1259.0333333333335</ele><time>2024-10-04T23:16:20Z</time></trkpt><trkpt lat="33.8632215" lon="133.3247626"><ele>1263.5966666666666</ele><time>2024-10-04T23:16:53Z</time></trkpt><trkpt lat="33.8630359" lon="133.3248656"><ele>1268.7366666666667</ele><time>2024-10-04T23:17:41Z</time></trkpt><trkpt lat="33.8628893" lon="133.3250127"><ele>1273.0866666666668</ele><time>2024-10-04T23:18:17Z</time></trkpt><trkpt lat="33.862762" lon="133.3251725"><ele>1279.1433333333332</ele><time>2024-10-04T23:18:50Z</time></trkpt><trkpt lat="33.8626148" lon="133.3253158"><ele>1284.6866666666667</ele><time>2024-10-04T23:19:37Z</time></trkpt><trkpt lat="33.8624545" lon="133.3251941"><ele>1290.12</ele><time>2024-10-04T23:20:25Z</time></trkpt><trkpt lat="33.862411" lon="133.3249513"><ele>1295.19</ele><time>2024-10-04T23:21:18Z</time></trkpt><trkpt lat="33.8623536" lon="133.3247319"><ele>1299.4966666666667</ele><time>2024-10-04T23:21:42Z</time></trkpt><trkpt lat="33.8623883" lon="133.3245088"><ele>1302.4966666666667</ele><time>2024-10-04T23:22:00Z</time></trkpt><trkpt lat="33.8624594" lon="133.324292"><ele>1303.8233333333335</ele><time>2024-10-04T23:23:06Z</time></trkpt><trkpt lat="33.8624861" lon="133.3240598"><ele>1305.7866666666666</ele><time>2024-10-04T23:23:27Z</time></trkpt><trkpt lat="33.8624532" lon="133.3238431"><ele>1308.1666666666667</ele><time>2024-10-04T23:23:45Z</time></trkpt><trkpt lat="33.8623875" lon="133.3236345"><ele>1310.9066666666668</ele><time>2024-10-04T23:24:02Z</time></trkpt><trkpt lat="33.862353" lon="133.3234167"><ele>1312.2066666666667</ele><time>2024-10-04T23:24:20Z</time></trkpt><trkpt lat="33.86236" lon="133.3231978"><ele>1312.9866666666667</ele><time>2024-10-04T23:24:38Z</time></trkpt><trkpt lat="33.862412" lon="133.3229622"><ele>1313.5766666666666</ele><time>2024-10-04T23:24:55Z</time></trkpt><trkpt lat="33.8624529" lon="133.3227503"><ele>1315.0</ele><time>2024-10-04T23:25:10Z</time></trkpt><trkpt lat="33.8623749" lon="133.3225418"><ele>1316.85</ele><time>2024-10-04T23:25:31Z</time></trkpt><trkpt lat="33.8622838" lon="133.322343"><ele>1319.8566666666666</ele><time>2024-10-04T23:25:54Z</time></trkpt><trkpt lat="33.86216" lon="133.3221624"><ele>1322.8466666666666</ele><time>2024-10-04T23:26:30Z</time></trkpt><trkpt lat="33.8620412" lon="133.3219906"><ele>1326.79</ele><time>2024-10-04T23:27:02Z</time></trkpt><trkpt lat="33.8619476" lon="133.3217829"><ele>1328.7933333333333</ele><time>2024-10-04T23:32:47Z</time></trkpt><trkpt lat="33.8618846" lon="133.3215736"><ele>1328.4866666666667</ele><time>2024-10-04T23:33:50Z</time></trkpt><trkpt lat="33.8618031" lon="133.3213514"><ele>1327.0933333333335</ele><time>2024-10-04T23:34:17Z</time></trkpt><trkpt lat="33.86169" lon="133.3211461"><ele>1327.6933333333334</ele><time>2024-10-04T23:34:41Z</time></trkpt><trkpt lat="33.8616601" lon="133.3209097"><ele>1329.29</ele><time>2024-10-04T23:35:05Z</time></trkpt><trkpt lat="33.8615989" lon="133.3206862"><ele>1330.7</ele><time>2024-10-04T23:35:44Z</time></trkpt><trkpt lat="33.8614586" lon="133.3205432"><ele>1332.4</ele><time>2024-10-04T23:36:08Z</time></trkpt><trkpt lat="33.86131" lon="133.3204009"><ele>1336.0966666666666</ele><time>2024-10-04T23:36:47Z</time></trkpt><trkpt lat="33.8612102" lon="133.3202158"><ele>1340.2</ele><time>2024-10-04T23:37:38Z</time></trkpt><trkpt lat="33.8610156" lon="133.3202036"><ele>1343.18</ele><time>2024-10-04T23:37:56Z</time></trkpt><trkpt lat="33.8608702" lon="133.3200754"><ele>1345.5566666666666</ele><time>2024-10-04T23:38:47Z</time></trkpt><trkpt lat="33.8606953" lon="133.3200184"><ele>1350.3233333333335</ele><time>2024-10-04T23:39:20Z</time></trkpt><trkpt lat="33.8605036" lon="133.3199976"><ele>1356.86</ele><time>2024-10-04T23:40:52Z</time></trkpt><trkpt lat="33.8603184" lon="133.3199918"><ele>1363.7366666666667</ele><time>2024-10-04T23:41:46Z</time></trkpt><trkpt lat="33.8601248" lon="133.3199334"><ele>1371.05</ele><time>2024-10-04T23:50:10Z</time></trkpt><trkpt lat="33.8599747" lon="133.3198016"><ele>1378.0433333333333</ele><time>2024-10-04T23:51:25Z</time></trkpt><trkpt lat="33.8597938" lon="133.3197564"><ele>1386.14</ele><time>2024-10-04T23:52:34Z</time></trkpt><trkpt lat="33.8596912" lon="133.3195703"><ele>1393.7133333333334</ele><time>2024-10-04T23:53:34Z</time></trkpt><trkpt lat="33.8596996" lon="133.3193329"><ele>1404.1899999999998</ele><time>2024-10-04T23:54:34Z</time></trkpt><trkpt lat="33.85966" lon="133.3191178"><ele>1413.9133333333332</ele><time>2024-10-04T23:55:09Z</time></trkpt><trkpt lat="33.8596626" lon="133.3188979"><ele>1422.0433333333333</ele><time>2024-10-04T23:55:51Z</time></trkpt><trkpt lat="33.8594809" lon="133.3189326"><ele>1424.0533333333333</ele><time>2024-10-05T00:02:30Z</time></trkpt><trkpt lat="33.8596586" lon="133.3188738"><ele>1425.3166666666668</ele><time>2024-10-05T00:05:39Z</time></trkpt><trkpt lat="33.8596934" lon="133.3186574"><ele>1424.3000000000002</ele><time>2024-10-05T00:08:56Z</time></trkpt><trkpt lat="33.8596245" lon="133.3184425"><ele>1422.43</ele><time>2024-10-05T00:11:50Z</time></trkpt><trkpt lat="33.8595352" lon="133.3182334"><ele>1414.8233333333335</ele><time>2024-10-05T00:14:14Z</time></trkpt><trkpt lat="33.8594905" lon="133.318015"><ele>1405.6499999999999</ele><time>2024-10-05T00:14:38Z</time></trkpt><trkpt lat="33.8593628" lon="133.3178355"><ele>1397.29</ele><time>2024-10-05T00:15:11Z</time></trkpt><trkpt lat="33.8593339" lon="133.3176209"><ele>1392.8466666666666</ele><time>2024-10-05T00:15:44Z</time></trkpt><trkpt lat="33.8592562" lon="133.317407"><ele>1388.3266666666668</ele><time>2024-10-05T00:16:11Z</time></trkpt><trkpt lat="33.8592399" lon="133.3171871"><ele>1382.1133333333335</ele><time>2024-10-05T00:17:47Z</time></trkpt><trkpt lat="33.8591823" lon="133.3169779"><ele>1374.2933333333333</ele><time>2024-10-05T00:19:47Z</time></trkpt><trkpt lat="33.8592204" lon="133.316753"><ele>1364.34</ele><time>2024-10-05T00:21:14Z</time></trkpt><trkpt lat="33.8593516" lon="133.3165889"><ele>1354.4966666666667</ele><time>2024-10-05T00:22:03Z</time></trkpt><trkpt lat="33.8594714" lon="133.3164162"><ele>1342.8033333333333</ele><time>2024-10-05T00:22:57Z</time></trkpt><trkpt lat="33.8596244" lon="133.3162822"><ele>1334.0766666666668</ele><time>2024-10-05T00:23:29Z</time></trkpt><trkpt lat="33.8597296" lon="133.3161005"><ele>1326.5133333333335</ele><time>2024-10-05T00:23:53Z</time></trkpt><trkpt lat="33.8598087" lon="133.3158917"><ele>1323.3466666666666</ele><time>2024-10-05T00:24:19Z</time></trkpt><trkpt lat="33.8599075" lon="133.3156587"><ele>1322.4466666666667</ele><time>2024-10-05T00:24:49Z</time></trkpt><trkpt lat="33.8599167" lon="133.3154247"><ele>1323.67</ele><time>2024-10-05T00:25:52Z</time></trkpt><trkpt lat="33.8599149" lon="133.3151865"><ele>1321.756666666667</ele><time>2024-10-05T00:26:40Z</time></trkpt><trkpt lat="33.8599393" lon="133.3149653"><ele>1315.2766666666666</ele><time>2024-10-05T00:26:57Z</time></trkpt><trkpt lat="33.8599936" lon="133.3147555"><ele>1306.1533333333334</ele><time>2024-10-05T00:27:41Z</time></trkpt><trkpt lat="33.8599866" lon="133.3145228"><ele>1297.87</ele><time>2024-10-05T00:28:38Z</time></trkpt><trkpt lat="33.8599413" lon="133.3143008"><ele>1291.8999999999999</ele><time>2024-10-05T00:29:04Z</time></trkpt><trkpt lat="33.8599392" lon="133.3140245"><ele>1286.02</ele><time>2024-10-05T00:29:31Z</time></trkpt><trkpt lat="33.8599763" lon="133.3137856"><ele>1281.2966666666664</ele><time>2024-10-05T00:29:48Z</time></trkpt><trkpt lat="33.8600536" lon="133.3135591"><ele>1277.1133333333335</ele><time>2024-10-05T00:30:09Z</time></trkpt><trkpt lat="33.8602246" lon="133.3134475"><ele>1273.6499999999999</ele><time>2024-10-05T00:31:21Z</time></trkpt><trkpt lat="33.8603816" lon="133.3133231"><ele>1269.2633333333333</ele><time>2024-10-05T00:31:51Z</time></trkpt><trkpt lat="33.8605954" lon="133.3133264"><ele>1262.3133333333333</ele><time>2024-10-05T00:32:27Z</time></trkpt><trkpt lat="33.8607349" lon="133.3131813"><ele>1253.5433333333333</ele><time>2024-10-05T00:32:44Z</time></trkpt><trkpt lat="33.8609069" lon="133.3132475"><ele>1243.96</ele><time>2024-10-05T00:33:14Z</time></trkpt><trkpt lat="33.861092" lon="133.3131923"><ele>1234.0766666666666</ele><time>2024-10-05T00:34:32Z</time></trkpt><trkpt lat="33.8612636" lon="133.3130492"><ele>1227.3566666666666</ele><time>2024-10-05T00:35:32Z</time></trkpt><trkpt lat="33.8614139" lon="133.3129002"><ele>1223.1466666666665</ele><time>2024-10-05T00:35:53Z</time></trkpt><trkpt lat="33.8615728" lon="133.3127789"><ele>1222.6133333333335</ele><time>2024-10-05T00:36:17Z</time></trkpt><trkpt lat="33.861713" lon="133.312596"><ele>1220.8166666666668</ele><time>2024-10-05T00:36:40Z</time></trkpt><trkpt lat="33.8617795" lon="133.3123933"><ele>1217.3866666666665</ele><time>2024-10-05T00:37:00Z</time></trkpt><trkpt lat="33.8618635" lon="133.3121777"><ele>1213.28</ele><time>2024-10-05T00:37:24Z</time></trkpt><trkpt lat="33.8619635" lon="133.3119912"><ele>1209.783333333333</ele><time>2024-10-05T00:37:50Z</time></trkpt><trkpt lat="33.8621095" lon="133.3118119"><ele>1207.6533333333334</ele><time>2024-10-05T00:38:14Z</time></trkpt><trkpt lat="33.8622842" lon="133.3117224"><ele>1206.3166666666666</ele><time>2024-10-05T00:39:19Z</time></trkpt><trkpt lat="33.8624407" lon="133.3116016"><ele>1204.6566666666668</ele><time>2024-10-05T00:39:57Z</time></trkpt><trkpt lat="33.8625288" lon="133.3113906"><ele>1203.51</ele><time>2024-10-05T00:40:21Z</time></trkpt><trkpt lat="33.8626146" lon="133.3111909"><ele>1202.3533333333335</ele><time>2024-10-05T00:40:42Z</time></trkpt><trkpt lat="33.8627213" lon="133.3109987"><ele>1201.3933333333334</ele><time>2024-10-05T00:41:06Z</time></trkpt><trkpt lat="33.8628679" lon="133.3108288"><ele>1198.3733333333337</ele><time>2024-10-05T00:41:33Z</time></trkpt><trkpt lat="33.8630022" lon="133.3106354"><ele>1195.1066666666668</ele><time>2024-10-05T00:43:00Z</time></trkpt><trkpt lat="33.8630951" lon="133.3104461"><ele>1194.1133333333335</ele><time>2024-10-05T00:43:15Z</time></trkpt><trkpt lat="33.8632195" lon="133.3102884"><ele>1196.8466666666666</ele><time>2024-10-05T00:43:54Z</time></trkpt><trkpt lat="33.8633525" lon="133.3101177"><ele>1200.11</ele><time>2024-10-05T00:45:42Z</time></trkpt><trkpt lat="33.8634876" lon="133.3099499"><ele>1202.3233333333333</ele><time>2024-10-05T00:46:08Z</time></trkpt><trkpt lat="33.8635896" lon="133.3097296"><ele>1201.6766666666667</ele><time>2024-10-05T00:46:32Z</time></trkpt><trkpt lat="33.8637066" lon="133.3095609"><ele>1200.1933333333334</ele><time>2024-10-05T00:46:53Z</time></trkpt><trkpt lat="33.8638464" lon="133.3093703"><ele>1199.1933333333334</ele><time>2024-10-05T00:47:26Z</time></trkpt><trkpt lat="33.8639567" lon="133.3091726"><ele>1200.15</ele><time>2024-10-05T00:47:41Z</time></trkpt><trkpt lat="33.8640474" lon="133.3089714"><ele>1204.0666666666666</ele><time>2024-10-05T00:48:02Z</time></trkpt><trkpt lat="33.864209" lon="133.3088538"><ele>1206.7299999999998</ele><time>2024-10-05T00:48:47Z</time></trkpt><trkpt lat="33.8643894" lon="133.3089212"><ele>1205.7466666666667</ele><time>2024-10-05T00:49:32Z</time></trkpt><trkpt lat="33.8645412" lon="133.3090421"><ele>1199.92</ele><time>2024-10-05T00:50:47Z</time></trkpt><trkpt lat="33.864749" lon="133.309092"><ele>1190.1233333333332</ele><time>2024-10-05T00:51:32Z</time></trkpt><trkpt lat="33.8649316" lon="133.3091169"><ele>1178.8933333333334</ele><time>2024-10-05T00:51:53Z</time></trkpt><trkpt lat="33.8650253" lon="133.3093171"><ele>1170.3500000000001</ele><time>2024-10-05T00:52:17Z</time></trkpt><trkpt lat="33.8651654" lon="133.3094571"><ele>1164.6033333333332</ele><time>2024-10-05T00:53:31Z</time></trkpt><trkpt lat="33.8653363" lon="133.3095634"><ele>1161.6833333333334</ele><time>2024-10-05T00:53:49Z</time></trkpt><trkpt lat="33.865532" lon="133.3096271"><ele>1157.32</ele><time>2024-10-05T00:54:13Z</time></trkpt><trkpt lat="33.8656643" lon="133.3097878"><ele>1153.76</ele><time>2024-10-05T00:54:37Z</time></trkpt><trkpt lat="33.8658494" lon="133.3098398"><ele>1150.2233333333334</ele><time>2024-10-05T00:55:01Z</time></trkpt><trkpt lat="33.8660305" lon="133.3098457"><ele>1146.5866666666668</ele><time>2024-10-05T00:55:40Z</time></trkpt><trkpt lat="33.8662123" lon="133.309757"><ele>1145.26</ele><time>2024-10-05T00:56:43Z</time></trkpt><trkpt lat="33.8664045" lon="133.3097973"><ele>1145.6166666666666</ele><time>2024-10-05T00:57:10Z</time></trkpt><trkpt lat="33.8665646" lon="133.3099128"><ele>1148.54</ele><time>2024-10-05T00:57:37Z</time></trkpt><trkpt lat="33.8667457" lon="133.3099482"><ele>1148.8733333333332</ele><time>2024-10-05T00:58:58Z</time></trkpt><trkpt lat="33.8669308" lon="133.3099263"><ele>1145.2366666666667</ele><time>2024-10-05T00:59:46Z</time></trkpt><trkpt lat="33.8671103" lon="133.3098314"><ele>1137.9233333333334</ele><time>2024-10-05T01:00:52Z</time></trkpt><trkpt lat="33.867272" lon="133.3097265"><ele>1128.4766666666667</ele><time>2024-10-05T01:01:22Z</time></trkpt><trkpt lat="33.8674671" lon="133.3096427"><ele>1124.6200000000001</ele><time>2024-10-05T01:01:52Z</time></trkpt><trkpt lat="33.8676293" lon="133.3095206"><ele>1125.1433333333334</ele><time>2024-10-05T01:02:31Z</time></trkpt><trkpt lat="33.8678082" lon="133.3095589"><ele>1132.1599999999999</ele><time>2024-10-05T01:03:40Z</time></trkpt><trkpt lat="33.867981" lon="133.3094881"><ele>1140.0166666666667</ele><time>2024-10-05T01:05:40Z</time></trkpt><trkpt lat="33.8681356" lon="133.3096027"><ele>1147.3733333333332</ele><time>2024-10-05T01:12:10Z</time></trkpt><trkpt lat="33.8683226" lon="133.3096328"><ele>1151.43</ele><time>2024-10-05T01:14:46Z</time></trkpt><trkpt lat="33.8685126" lon="133.3097177"><ele>1152.8133333333333</ele><time>2024-10-05T01:15:12Z</time></trkpt><trkpt lat="33.8687113" lon="133.3097318"><ele>1151.6000000000001</ele><time>2024-10-05T01:15:33Z</time></trkpt><trkpt lat="33.8688918" lon="133.3096882"><ele>1148.96</ele><time>2024-10-05T01:15:57Z</time></trkpt><trkpt lat="33.8690623" lon="133.3097627"><ele>1144.6000000000001</ele><time>2024-10-05T01:16:18Z</time></trkpt><trkpt lat="33.8692015" lon="133.3099041"><ele>1140.3966666666668</ele><time>2024-10-05T01:16:56Z</time></trkpt><trkpt lat="33.8693829" lon="133.3099935"><ele>1132.08</ele><time>2024-10-05T01:18:26Z</time></trkpt><trkpt lat="33.869561" lon="133.3100748"><ele>1122.3966666666668</ele><time>2024-10-05T01:18:58Z</time></trkpt><trkpt lat="33.869722" lon="133.3102108"><ele>1111.4766666666667</ele><time>2024-10-05T01:19:25Z</time></trkpt><trkpt lat="33.8698981" lon="133.3102765"><ele>1103.0133333333335</ele><time>2024-10-05T01:19:58Z</time></trkpt><trkpt lat="33.870078" lon="133.3102959"><ele>1093.256666666667</ele><time>2024-10-05T01:20:42Z</time></trkpt><trkpt lat="33.8702591" lon="133.3103641"><ele>1083.0733333333335</ele><time>2024-10-05T01:21:27Z</time></trkpt><trkpt lat="33.8704449" lon="133.3104098"><ele>1072.45</ele><time>2024-10-05T01:23:03Z</time></trkpt><trkpt lat="33.8706454" lon="133.3104798"><ele>1065.39</ele><time>2024-10-05T01:24:57Z</time></trkpt><trkpt lat="33.87083" lon="133.3105316"><ele>1060.2466666666667</ele><time>2024-10-05T01:25:36Z</time></trkpt><trkpt lat="33.8710307" lon="133.3105623"><ele>1056.1833333333334</ele><time>2024-10-05T01:26:12Z</time></trkpt><trkpt lat="33.8712144" lon="133.3106734"><ele>1050.8833333333332</ele><time>2024-10-05T01:26:32Z</time></trkpt><trkpt lat="33.8713755" lon="133.310773"><ele>1045.72</ele><time>2024-10-05T01:27:01Z</time></trkpt><trkpt lat="33.8715453" lon="133.3108608"><ele>1041.243333333333</ele><time>2024-10-05T01:29:01Z</time></trkpt><trkpt lat="33.8717099" lon="133.3109973"><ele>1037.3666666666668</ele><time>2024-10-05T01:29:25Z</time></trkpt><trkpt lat="33.8718957" lon="133.3110049"><ele>1034.3033333333333</ele><time>2024-10-05T01:29:49Z</time></trkpt><trkpt lat="33.8720764" lon="133.3110785"><ele>1033.5266666666666</ele><time>2024-10-05T01:30:16Z</time></trkpt><trkpt lat="33.8722507" lon="133.3111389"><ele>1035.78</ele><time>2024-10-05T01:30:42Z</time></trkpt><trkpt lat="33.8724491" lon="133.3111898"><ele>1038.2033333333334</ele><time>2024-10-05T01:31:03Z</time></trkpt><trkpt lat="33.8726353" lon="133.3111855"><ele>1039.5533333333333</ele><time>2024-10-05T01:31:18Z</time></trkpt><trkpt lat="33.8728199" lon="133.3111332"><ele>1039.3233333333335</ele><time>2024-10-05T01:31:39Z</time></trkpt><trkpt lat="33.8730051" lon="133.3110944"><ele>1037.99</ele><time>2024-10-05T01:31:57Z</time></trkpt><trkpt lat="33.8731834" lon="133.3111788"><ele>1038.3766666666668</ele><time>2024-10-05T01:32:24Z</time></trkpt><trkpt lat="33.8733789" lon="133.3111895"><ele>1038.9399999999998</ele><time>2024-10-05T01:37:12Z</time></trkpt><trkpt lat="33.8735434" lon="133.3110878"><ele>1040.2233333333334</ele><time>2024-10-05T01:37:42Z</time></trkpt><trkpt lat="33.8737386" lon="133.3110033"><ele>1038.2233333333334</ele><time>2024-10-05T01:39:48Z</time></trkpt><trkpt lat="33.8739234" lon="133.3109112"><ele>1033.93</ele><time>2024-10-05T01:40:06Z</time></trkpt><trkpt lat="33.8740806" lon="133.3110395"><ele>1028.1866666666667</ele><time>2024-10-05T01:40:36Z</time></trkpt><trkpt lat="33.8742551" lon="133.3109664"><ele>1021.0366666666667</ele><time>2024-10-05T01:42:20Z</time></trkpt><trkpt lat="33.8744422" lon="133.3109897"><ele>1011.9766666666666</ele><time>2024-10-05T01:43:32Z</time></trkpt><trkpt lat="33.8746234" lon="133.3109507"><ele>1000.0866666666667</ele><time>2024-10-05T01:44:23Z</time></trkpt><trkpt lat="33.8748136" lon="133.310898"><ele>987.89</ele><time>2024-10-05T01:45:20Z</time></trkpt><trkpt lat="33.8750085" lon="133.31092"><ele>974.7000000000002</ele><time>2024-10-05T01:46:55Z</time></trkpt><trkpt lat="33.8752233" lon="133.3108784"><ele>962.7233333333334</ele><time>2024-10-05T01:47:39Z</time></trkpt><trkpt lat="33.8754042" lon="133.3108801"><ele>948.2333333333332</ele><time>2024-10-05T01:48:14Z</time></trkpt><trkpt lat="33.8755872" lon="133.3108701"><ele>934.62</ele><time>2024-10-05T01:48:47Z</time></trkpt><trkpt lat="33.8757707" lon="133.310949"><ele>919.6666666666666</ele><time>2024-10-05T01:49:14Z</time></trkpt><trkpt lat="33.8759612" lon="133.3109695"><ele>907.8833333333333</ele><time>2024-10-05T01:50:16Z</time></trkpt><trkpt lat="33.8761105" lon="133.3111027"><ele>896.2433333333333</ele><time>2024-10-05T01:53:04Z</time></trkpt><trkpt lat="33.8762842" lon="133.3111789"><ele>883.3833333333333</ele><time>2024-10-05T01:54:28Z</time></trkpt><trkpt lat="33.8764771" lon="133.3112113"><ele>869.48</ele><time>2024-10-05T01:55:01Z</time></trkpt><trkpt lat="33.8766621" lon="133.3112855"><ele>857.4000000000001</ele><time>2024-10-05T01:55:42Z</time></trkpt><trkpt lat="33.8768285" lon="133.3113727"><ele>846.2466666666666</ele><time>2024-10-05T01:56:24Z</time></trkpt><trkpt lat="33.8769597" lon="133.3115285"><ele>832.7133333333333</ele><time>2024-10-05T01:57:45Z</time></trkpt><trkpt lat="33.8771293" lon="133.3116152"><ele>814.7833333333334</ele><time>2024-10-05T01:59:00Z</time></trkpt><trkpt lat="33.8773088" lon="133.3116523"><ele>799.7866666666667</ele><time>2024-10-05T02:00:21Z</time></trkpt><trkpt lat="33.8774778" lon="133.3117551"><ele>789.66</ele><time>2024-10-05T02:01:42Z</time></trkpt><trkpt lat="33.8776588" lon="133.3118002"><ele>785.3366666666667</ele><time>2024-10-05T02:02:21Z</time></trkpt><trkpt lat="33.8778326" lon="133.3116521"><ele>783.3833333333333</ele><time>2024-10-05T02:02:39Z</time></trkpt><trkpt lat="33.8779925" lon="133.3114843"><ele>783.0133333333333</ele><time>2024-10-05T02:02:57Z</time></trkpt><trkpt lat="33.8781158" lon="133.3113245"><ele>782.84</ele><time>2024-10-05T02:03:33Z</time></trkpt><trkpt lat="33.8782102" lon="133.3115183"><ele>783.1233333333333</ele><time>2024-10-05T02:03:48Z</time></trkpt><trkpt lat="33.8783629" lon="133.3116512"><ele>783.0233333333334</ele><time>2024-10-05T02:06:30Z</time></trkpt><trkpt lat="33.8784957" lon="133.3118203"><ele>783.6533333333333</ele><time>2024-10-05T02:07:14Z</time></trkpt><trkpt lat="33.8786657" lon="133.3119376"><ele>784.3133333333334</ele><time>2024-10-05T02:08:11Z</time></trkpt><trkpt lat="33.8786626" lon="133.3117084"><ele>787.85</ele><time>2024-10-05T02:09:26Z</time></trkpt><trkpt lat="33.8787857" lon="133.3115231"><ele>796.16</ele><time>2024-10-05T02:11:05Z</time></trkpt><trkpt lat="33.8789676" lon="133.311579"><ele>808.4900000000001</ele><time>2024-10-05T02:12:34Z</time></trkpt><trkpt lat="33.8791439" lon="133.3115055"><ele>820.5233333333334</ele><time>2024-10-05T02:13:12Z</time></trkpt><trkpt lat="33.8793054" lon="133.3114054"><ele>827.9266666666667</ele><time>2024-10-05T02:13:33Z</time></trkpt><trkpt lat="33.8794759" lon="133.3114849"><ele>830.5100000000001</ele><time>2024-10-05T02:14:57Z</time></trkpt><trkpt lat="33.8793776" lon="133.3116827"><ele>831.0900000000001</ele><time>2024-10-05T02:16:12Z</time></trkpt><trkpt lat="33.879195" lon="133.3116463"><ele>830.9066666666668</ele><time>2024-10-05T02:24:47Z</time></trkpt><trkpt lat="33.8790145" lon="133.3116265"><ele>827.0066666666667</ele><time>2024-10-05T02:25:26Z</time></trkpt><trkpt lat="33.8788348" lon="133.3115661"><ele>820.8566666666667</ele><time>2024-10-05T02:26:29Z</time></trkpt><trkpt lat="33.8786463" lon="133.3115948"><ele>809.4366666666668</ele><time>2024-10-05T02:27:11Z</time></trkpt><trkpt lat="33.878698" lon="133.311805"><ele>799.9133333333334</ele><time>2024-10-05T02:27:41Z</time></trkpt><trkpt lat="33.8788074" lon="133.311999"><ele>791.7333333333332</ele><time>2024-10-05T02:28:08Z</time></trkpt><trkpt lat="33.8786353" lon="133.3119271"><ele>788.3866666666667</ele><time>2024-10-05T02:28:35Z</time></trkpt><trkpt lat="33.8784813" lon="133.3118065"><ele>786.1333333333333</ele><time>2024-10-05T02:28:55Z</time></trkpt><trkpt lat="33.8782976" lon="133.311709"><ele>783.89</ele><time>2024-10-05T02:29:19Z</time></trkpt><trkpt lat="33.8781101" lon="133.3115852"><ele>782.9266666666667</ele><time>2024-10-05T02:29:42Z</time></trkpt><trkpt lat="33.8779115" lon="133.3116266"><ele>782.5666666666667</ele><time>2024-10-05T02:30:08Z</time></trkpt><trkpt lat="33.8777669" lon="133.3117705"><ele>782.7033333333334</ele><time>2024-10-05T02:30:26Z</time></trkpt><trkpt lat="33.8776248" lon="133.3119414"><ele>782.0733333333334</ele><time>2024-10-05T02:30:44Z</time></trkpt><trkpt lat="33.8775027" lon="133.3121261"><ele>781.2166666666667</ele><time>2024-10-05T02:31:02Z</time></trkpt><trkpt lat="33.8773845" lon="133.312309"><ele>779.4200000000001</ele><time>2024-10-05T02:31:17Z</time></trkpt><trkpt lat="33.8772221" lon="133.3124828"><ele>776.3866666666668</ele><time>2024-10-05T02:31:35Z</time></trkpt><trkpt lat="33.8770654" lon="133.3126343"><ele>773.6333333333333</ele><time>2024-10-05T02:31:50Z</time></trkpt><trkpt lat="33.8770061" lon="133.3128626"><ele>770.1333333333333</ele><time>2024-10-05T02:32:08Z</time></trkpt><trkpt lat="33.8769049" lon="133.3130848"><ele>767.5133333333333</ele><time>2024-10-05T02:32:26Z</time></trkpt><trkpt lat="33.8768" lon="133.3132786"><ele>765.0866666666667</ele><time>2024-10-05T02:32:53Z</time></trkpt><trkpt lat="33.8769582" lon="133.3131228"><ele>764.2966666666667</ele><time>2024-10-05T02:34:17Z</time></trkpt><trkpt lat="33.8770796" lon="133.3129147"><ele>764.1633333333334</ele><time>2024-10-05T02:34:32Z</time></trkpt><trkpt lat="33.8771732" lon="133.3131102"><ele>762.93</ele><time>2024-10-05T02:35:29Z</time></trkpt><trkpt lat="33.8770606" lon="133.3132824"><ele>761.2333333333332</ele><time>2024-10-05T02:36:04Z</time></trkpt><trkpt lat="33.8769255" lon="133.3134381"><ele>758.8233333333333</ele><time>2024-10-05T02:37:01Z</time></trkpt><trkpt lat="33.8767577" lon="133.3135958"><ele>757.5366666666667</ele><time>2024-10-05T02:37:25Z</time></trkpt><trkpt lat="33.8769505" lon="133.3135395"><ele>755.2566666666667</ele><time>2024-10-05T02:37:49Z</time></trkpt><trkpt lat="33.8771536" lon="133.3135079"><ele>753.1066666666667</ele><time>2024-10-05T02:38:16Z</time></trkpt><trkpt lat="33.8769826" lon="133.3136033"><ele>750.43</ele><time>2024-10-05T02:38:58Z</time></trkpt><trkpt lat="33.8769291" lon="133.3138508"><ele>748.7833333333333</ele><time>2024-10-05T02:39:19Z</time></trkpt><trkpt lat="33.8769489" lon="133.3140847"><ele>746.8566666666667</ele><time>2024-10-05T02:39:37Z</time></trkpt><trkpt lat="33.8768432" lon="133.314301"><ele>744.1700000000001</ele><time>2024-10-05T02:39:55Z</time></trkpt><trkpt lat="33.87683" lon="133.3145508"><ele>740.2133333333335</ele><time>2024-10-05T02:40:13Z</time></trkpt><trkpt lat="33.87681" lon="133.3147768"><ele>739.04</ele><time>2024-10-05T02:40:43Z</time></trkpt><trkpt lat="33.8766127" lon="133.3148607"><ele>741.21</ele><time>2024-10-05T02:41:01Z</time></trkpt><trkpt lat="33.8764278" lon="133.3148489"><ele>745.68</ele><time>2024-10-05T02:41:16Z</time></trkpt><trkpt lat="33.8762226" lon="133.3148689"><ele>748.1566666666668</ele><time>2024-10-05T02:41:34Z</time></trkpt><trkpt lat="33.8760603" lon="133.3149653"><ele>747.7933333333334</ele><time>2024-10-05T02:41:49Z</time></trkpt><trkpt lat="33.8758832" lon="133.3150251"><ele>746.7566666666667</ele><time>2024-10-05T02:42:04Z</time></trkpt><trkpt lat="33.8757745" lon="133.3152313"><ele>745.3333333333334</ele><time>2024-10-05T02:42:19Z</time></trkpt><trkpt lat="33.8756735" lon="133.3154512"><ele>744.73</ele><time>2024-10-05T02:42:37Z</time></trkpt><trkpt lat="33.8755023" lon="133.31555"><ele>744.4966666666668</ele><time>2024-10-05T02:42:52Z</time></trkpt><trkpt lat="33.8753458" lon="133.3156639"><ele>744.2033333333334</ele><time>2024-10-05T02:43:13Z</time></trkpt><trkpt lat="33.8751903" lon="133.3158063"><ele>744.3066666666667</ele><time>2024-10-05T02:43:34Z</time></trkpt></trkseg></trk></gpx>