<?xml version='1.0' encoding='UTF-8'?><gpx creator="Yama Museum Summit Candidate Generator" xsi:schemaLocation="http://www.topografix.com/GPX/1/1 http://www.topografix.com/GPX/1/1/gpx.xsd" version="1.1" xmlns="http://www.topografix.com/GPX/1/1" xmlns:xsi="http://www.w3.org/2001/XMLSchema-instance" xmlns:yama="https://museum-yama-data.moukaeritai.work/ns/yama-data/0.1"><metadata><bounds maxlat="33.3365081" maxlon="132.5416726" minlat="33.3268543" minlon="132.5268015"/><name>高森山</name><extensions><yama:source_gpx_basename>yamap_2026-01-31_13_52.gpx</yama:source_gpx_basename><yama:source_gpx_relative_path>data/01_raw/gpx/2026-05-12/yamap_2026-01-31_13_52.gpx</yama:source_gpx_relative_path><yama:detection_parameters>window=5,radius=10,min_prominence=30,merge=100</yama:detection_parameters></extensions></metadata><wpt lat="33.3270345" lon="132.5414704"><ele>631.8566666666667</ele><time>2026-01-31T05:51:41Z</time><name>summit-candidate:a9b00b48e0c94eab</name><desc>Summit candidate detected at elevation 631.8566666666667m with prominence 243.94799999999998m.</desc><sym>Summit Candidate</sym><extensions><yama:source_trackpoint_index>101</yama:source_trackpoint_index><yama:valid_elevation_index>101</yama:valid_elevation_index><yama:smoothed_ele>631.0846666666666</yama:smoothed_ele><yama:prominence>243.94799999999998</yama:prominence><yama:detection_method>local_maxima_with_prominence</yama:detection_method><yama:detection_parameters>window=5,radius=10,min_prominence=30,merge=100</yama:detection_parameters><yama:candidate_status>unresolved</yama:candidate_status></extensions></wpt>
  <trk><name>高森山</name><number>1</number><trkseg><trkpt lat="33.3362949" lon="132.5270508"><ele>406.05</ele><time>2026-01-31T04:52:00Z</time></trkpt><trkpt lat="33.336114" lon="132.5270384"><ele>402.385</ele><time>2026-01-31T04:52:18Z</time></trkpt><trkpt lat="33.3359249" lon="132.5269713"><ele>400.3533333333333</ele><time>2026-01-31T04:52:45Z</time></trkpt><trkpt lat="33.3358438" lon="132.5271763"><ele>397.14000000000004</ele><time>2026-01-31T04:53:07Z</time></trkpt><trkpt lat="33.3359725" lon="132.527336"><ele>396.23333333333335</ele><time>2026-01-31T04:53:21Z</time></trkpt><trkpt lat="33.3358808" lon="132.5275601"><ele>395.6833333333334</ele><time>2026-01-31T04:53:39Z</time></trkpt><trkpt lat="33.3358203" lon="132.5277834"><ele>394.50666666666666</ele><time>2026-01-31T04:53:54Z</time></trkpt><trkpt lat="33.3358812" lon="132.5279909"><ele>395.2166666666667</ele><time>2026-01-31T04:54:09Z</time></trkpt><trkpt lat="33.3356933" lon="132.5279848"><ele>394.71000000000004</ele><time>2026-01-31T04:54:33Z</time></trkpt><trkpt lat="33.3354853" lon="132.5279456"><ele>393.53999999999996</ele><time>2026-01-31T04:54:48Z</time></trkpt><trkpt lat="33.3352715" lon="132.5278901"><ele>388.47</ele><time>2026-01-31T04:55:03Z</time></trkpt><trkpt lat="33.3351276" lon="132.5280744"><ele>385.85999999999996</ele><time>2026-01-31T04:55:18Z</time></trkpt><trkpt lat="33.3350501" lon="132.5282942"><ele>385.41</ele><time>2026-01-31T04:55:34Z</time></trkpt><trkpt lat="33.3349384" lon="132.5285216"><ele>387.5533333333333</ele><time>2026-01-31T04:55:49Z</time></trkpt><trkpt lat="33.3347625" lon="132.52863"><ele>388.39000000000004</ele><time>2026-01-31T04:57:12Z</time></trkpt><trkpt lat="33.3347311" lon="132.5288548"><ele>390.39000000000004</ele><time>2026-01-31T04:57:35Z</time></trkpt><trkpt lat="33.3347367" lon="132.5290914"><ele>394.47666666666663</ele><time>2026-01-31T04:58:09Z</time></trkpt><trkpt lat="33.3346672" lon="132.5293174"><ele>401.0</ele><time>2026-01-31T04:59:00Z</time></trkpt><trkpt lat="33.3345825" lon="132.5295388"><ele>408.04333333333335</ele><time>2026-01-31T04:59:33Z</time></trkpt><trkpt lat="33.3345348" lon="132.5297518"><ele>413.7366666666667</ele><time>2026-01-31T05:01:16Z</time></trkpt><trkpt lat="33.3344591" lon="132.529956"><ele>418.2166666666667</ele><time>2026-01-31T05:01:49Z</time></trkpt><trkpt lat="33.3344806" lon="132.5301746"><ele>422.2966666666666</ele><time>2026-01-31T05:02:25Z</time></trkpt><trkpt lat="33.334515" lon="132.5303897"><ele>425.2666666666667</ele><time>2026-01-31T05:02:55Z</time></trkpt><trkpt lat="33.3343036" lon="132.5304225"><ele>429.40000000000003</ele><time>2026-01-31T05:03:23Z</time></trkpt><trkpt lat="33.3341387" lon="132.5305198"><ele>432.62000000000006</ele><time>2026-01-31T05:03:41Z</time></trkpt><trkpt lat="33.3339861" lon="132.5306619"><ele>437.25666666666666</ele><time>2026-01-31T05:04:02Z</time></trkpt><trkpt lat="33.3337844" lon="132.5306829"><ele>442.5666666666666</ele><time>2026-01-31T05:05:11Z</time></trkpt><trkpt lat="33.3336105" lon="132.5308075"><ele>449.35999999999996</ele><time>2026-01-31T05:05:32Z</time></trkpt><trkpt lat="33.3335476" lon="132.5310107"><ele>452.58</ele><time>2026-01-31T05:06:05Z</time></trkpt><trkpt lat="33.3333681" lon="132.53099"><ele>455.6566666666667</ele><time>2026-01-31T05:06:33Z</time></trkpt><trkpt lat="33.3331891" lon="132.5308727"><ele>457.16</ele><time>2026-01-31T05:07:09Z</time></trkpt><trkpt lat="33.3330676" lon="132.5307076"><ele>463.52666666666664</ele><time>2026-01-31T05:07:41Z</time></trkpt><trkpt lat="33.3328907" lon="132.530633"><ele>470.1000000000001</ele><time>2026-01-31T05:08:00Z</time></trkpt><trkpt lat="33.3327117" lon="132.5305054"><ele>478.1033333333333</ele><time>2026-01-31T05:08:18Z</time></trkpt><trkpt lat="33.3326955" lon="132.530254"><ele>483.80999999999995</ele><time>2026-01-31T05:09:45Z</time></trkpt><trkpt lat="33.3325223" lon="132.5303261"><ele>489.12999999999994</ele><time>2026-01-31T05:10:12Z</time></trkpt><trkpt lat="33.3323498" lon="132.5304111"><ele>492.49333333333334</ele><time>2026-01-31T05:10:58Z</time></trkpt><trkpt lat="33.3321886" lon="132.5305497"><ele>496.90333333333336</ele><time>2026-01-31T05:11:21Z</time></trkpt><trkpt lat="33.3321377" lon="132.5307588"><ele>500.9766666666667</ele><time>2026-01-31T05:11:46Z</time></trkpt><trkpt lat="33.3319771" lon="132.5308693"><ele>505.8333333333333</ele><time>2026-01-31T05:12:19Z</time></trkpt><trkpt lat="33.3319143" lon="132.5310845"><ele>512.4833333333335</ele><time>2026-01-31T05:13:42Z</time></trkpt><trkpt lat="33.3318492" lon="132.5313148"><ele>518.27</ele><time>2026-01-31T05:14:15Z</time></trkpt><trkpt lat="33.3317843" lon="132.5315257"><ele>523.7833333333333</ele><time>2026-01-31T05:16:30Z</time></trkpt><trkpt lat="33.3317938" lon="132.5317511"><ele>525.7966666666666</ele><time>2026-01-31T05:17:01Z</time></trkpt><trkpt lat="33.3315985" lon="132.5317257"><ele>528.4466666666667</ele><time>2026-01-31T05:17:08Z</time></trkpt><trkpt lat="33.3315243" lon="132.5319335"><ele>531.0066666666667</ele><time>2026-01-31T05:17:45Z</time></trkpt><trkpt lat="33.3314621" lon="132.5321554"><ele>535.4533333333334</ele><time>2026-01-31T05:18:28Z</time></trkpt><trkpt lat="33.3313845" lon="132.5323652"><ele>538.8166666666667</ele><time>2026-01-31T05:18:48Z</time></trkpt><trkpt lat="33.331245" lon="132.5325236"><ele>541.3033333333333</ele><time>2026-01-31T05:19:15Z</time></trkpt><trkpt lat="33.3311422" lon="132.5327098"><ele>542.4866666666667</ele><time>2026-01-31T05:19:33Z</time></trkpt><trkpt lat="33.3311049" lon="132.5329328"><ele>542.77</ele><time>2026-01-31T05:19:54Z</time></trkpt><trkpt lat="33.3310244" lon="132.5331446"><ele>544.3466666666667</ele><time>2026-01-31T05:20:18Z</time></trkpt><trkpt lat="33.330976" lon="132.5333838"><ele>545.58</ele><time>2026-01-31T05:20:36Z</time></trkpt><trkpt lat="33.3309385" lon="132.5336106"><ele>546.1133333333333</ele><time>2026-01-31T05:21:02Z</time></trkpt><trkpt lat="33.3307368" lon="132.5335528"><ele>547.1366666666668</ele><time>2026-01-31T05:21:25Z</time></trkpt><trkpt lat="33.3305319" lon="132.5337237"><ele>545.8966666666666</ele><time>2026-01-31T05:21:43Z</time></trkpt><trkpt lat="33.3303972" lon="132.5339007"><ele>544.16</ele><time>2026-01-31T05:21:52Z</time></trkpt><trkpt lat="33.3302213" lon="132.5340907"><ele>535.8666666666667</ele><time>2026-01-31T05:22:09Z</time></trkpt><trkpt lat="33.3300373" lon="132.5341166"><ele>530.39</ele><time>2026-01-31T05:22:24Z</time></trkpt><trkpt lat="33.3298873" lon="132.5339572"><ele>528.7266666666666</ele><time>2026-01-31T05:22:43Z</time></trkpt><trkpt lat="33.329696" lon="132.5340426"><ele>530.79</ele><time>2026-01-31T05:22:58Z</time></trkpt><trkpt lat="33.3294982" lon="132.53407"><ele>531.7866666666666</ele><time>2026-01-31T05:23:15Z</time></trkpt><trkpt lat="33.3293072" lon="132.5340857"><ele>530.13</ele><time>2026-01-31T05:23:34Z</time></trkpt><trkpt lat="33.3291073" lon="132.5341738"><ele>529.6366666666667</ele><time>2026-01-31T05:23:51Z</time></trkpt><trkpt lat="33.3289365" lon="132.5342546"><ele>529.9733333333332</ele><time>2026-01-31T05:24:06Z</time></trkpt><trkpt lat="33.3288058" lon="132.5344517"><ele>531.1433333333333</ele><time>2026-01-31T05:24:23Z</time></trkpt><trkpt lat="33.3287232" lon="132.5346431"><ele>531.91</ele><time>2026-01-31T05:24:39Z</time></trkpt><trkpt lat="33.3286975" lon="132.5348609"><ele>533.3933333333333</ele><time>2026-01-31T05:24:57Z</time></trkpt><trkpt lat="33.3286345" lon="132.5351063"><ele>534.6233333333333</ele><time>2026-01-31T05:25:17Z</time></trkpt><trkpt lat="33.3285299" lon="132.5353074"><ele>537.3333333333334</ele><time>2026-01-31T05:25:38Z</time></trkpt><trkpt lat="33.3283841" lon="132.5354682"><ele>539.4566666666666</ele><time>2026-01-31T05:26:14Z</time></trkpt><trkpt lat="33.3281968" lon="132.535573"><ele>541.4733333333334</ele><time>2026-01-31T05:26:33Z</time></trkpt><trkpt lat="33.3281395" lon="132.5357903"><ele>542.2133333333335</ele><time>2026-01-31T05:27:05Z</time></trkpt><trkpt lat="33.3280693" lon="132.5359938"><ele>542.7266666666666</ele><time>2026-01-31T05:27:20Z</time></trkpt><trkpt lat="33.3280469" lon="132.5362194"><ele>543.96</ele><time>2026-01-31T05:27:35Z</time></trkpt><trkpt lat="33.3280212" lon="132.5364635"><ele>545.5033333333333</ele><time>2026-01-31T05:27:52Z</time></trkpt><trkpt lat="33.3279506" lon="132.5366844"><ele>547.6899999999999</ele><time>2026-01-31T05:28:31Z</time></trkpt><trkpt lat="33.3278681" lon="132.5368856"><ele>549.1733333333333</ele><time>2026-01-31T05:29:01Z</time></trkpt><trkpt lat="33.327772" lon="132.5371098"><ele>551.1133333333333</ele><time>2026-01-31T05:29:18Z</time></trkpt><trkpt lat="33.3277614" lon="132.5373243"><ele>553.13</ele><time>2026-01-31T05:29:56Z</time></trkpt><trkpt lat="33.3277076" lon="132.5375325"><ele>557.42</ele><time>2026-01-31T05:31:43Z</time></trkpt><trkpt lat="33.3276752" lon="132.5377525"><ele>562.7166666666667</ele><time>2026-01-31T05:32:13Z</time></trkpt><trkpt lat="33.3276872" lon="132.5380026"><ele>568.1500000000001</ele><time>2026-01-31T05:32:34Z</time></trkpt><trkpt lat="33.3276801" lon="132.5382294"><ele>572.4366666666666</ele><time>2026-01-31T05:33:21Z</time></trkpt><trkpt lat="33.3277563" lon="132.5384268"><ele>575.8366666666667</ele><time>2026-01-31T05:33:41Z</time></trkpt><trkpt lat="33.3277564" lon="132.5386535"><ele>580.0300000000001</ele><time>2026-01-31T05:33:59Z</time></trkpt><trkpt lat="33.3277106" lon="132.5389019"><ele>584.6833333333333</ele><time>2026-01-31T05:34:18Z</time></trkpt><trkpt lat="33.327695" lon="132.5391175"><ele>589.0866666666667</ele><time>2026-01-31T05:34:58Z</time></trkpt><trkpt lat="33.3277007" lon="132.5393414"><ele>592.61</ele><time>2026-01-31T05:35:28Z</time></trkpt><trkpt lat="33.3276536" lon="132.5395618"><ele>594.6133333333333</ele><time>2026-01-31T05:35:48Z</time></trkpt><trkpt lat="33.3275823" lon="132.5397669"><ele>597.12</ele><time>2026-01-31T05:36:05Z</time></trkpt><trkpt lat="33.3274935" lon="132.5399901"><ele>599.1366666666667</ele><time>2026-01-31T05:36:28Z</time></trkpt><trkpt lat="33.3273828" lon="132.5401817"><ele>600.4433333333334</ele><time>2026-01-31T05:36:49Z</time></trkpt><trkpt lat="33.3272939" lon="132.5403775"><ele>602.15</ele><time>2026-01-31T05:37:10Z</time></trkpt><trkpt lat="33.3272167" lon="132.5405747"><ele>604.2266666666667</ele><time>2026-01-31T05:37:34Z</time></trkpt><trkpt lat="33.3271924" lon="132.5408053"><ele>609.2066666666666</ele><time>2026-01-31T05:39:04Z</time></trkpt><trkpt lat="33.3271769" lon="132.5410209"><ele>614.4566666666666</ele><time>2026-01-31T05:40:17Z</time></trkpt><trkpt lat="33.3271324" lon="132.5412572"><ele>621.9233333333333</ele><time>2026-01-31T05:40:42Z</time></trkpt><trkpt lat="33.3270627" lon="132.5414561"><ele>627.6733333333333</ele><time>2026-01-31T05:41:22Z</time></trkpt><trkpt lat="33.3269885" lon="132.5416726"><ele>631.5833333333334</ele><time>2026-01-31T05:42:49Z</time></trkpt><trkpt lat="33.3268543" lon="132.5414805"><ele>631.52</ele><time>2026-01-31T05:49:13Z</time></trkpt><trkpt lat="33.3270345" lon="132.5414704"><ele>631.8566666666667</ele><time>2026-01-31T05:51:41Z</time></trkpt><trkpt lat="33.3271089" lon="132.5412672"><ele>631.0933333333334</ele><time>2026-01-31T05:51:59Z</time></trkpt><trkpt lat="33.3271472" lon="132.5410506"><ele>629.37</ele><time>2026-01-31T05:52:16Z</time></trkpt><trkpt lat="33.3272001" lon="132.5408427"><ele>623.2833333333333</ele><time>2026-01-31T05:52:30Z</time></trkpt><trkpt lat="33.3272631" lon="132.5406409"><ele>615.8</ele><time>2026-01-31T05:52:50Z</time></trkpt><trkpt lat="33.3272879" lon="132.5403992"><ele>609.19</ele><time>2026-01-31T05:53:08Z</time></trkpt><trkpt lat="33.3274018" lon="132.5402226"><ele>604.21</ele><time>2026-01-31T05:53:26Z</time></trkpt><trkpt lat="33.3275153" lon="132.5400457"><ele>601.7566666666667</ele><time>2026-01-31T05:53:41Z</time></trkpt><trkpt lat="33.3276625" lon="132.5398665"><ele>599.2933333333334</ele><time>2026-01-31T05:53:55Z</time></trkpt><trkpt lat="33.3277454" lon="132.5396563"><ele>598.1466666666666</ele><time>2026-01-31T05:54:13Z</time></trkpt><trkpt lat="33.3277704" lon="132.5394145"><ele>596.6033333333334</ele><time>2026-01-31T05:54:28Z</time></trkpt><trkpt lat="33.3277842" lon="132.5391705"><ele>595.1666666666666</ele><time>2026-01-31T05:54:42Z</time></trkpt><trkpt lat="33.3277673" lon="132.5389233"><ele>593.16</ele><time>2026-01-31T05:55:00Z</time></trkpt><trkpt lat="33.3278344" lon="132.5386966"><ele>588.7833333333333</ele><time>2026-01-31T05:55:21Z</time></trkpt><trkpt lat="33.3277959" lon="132.5384751"><ele>584.83</ele><time>2026-01-31T05:55:36Z</time></trkpt><trkpt lat="33.3277028" lon="132.5382512"><ele>580.02</ele><time>2026-01-31T05:55:55Z</time></trkpt><trkpt lat="33.3276674" lon="132.5380175"><ele>576.6</ele><time>2026-01-31T05:56:10Z</time></trkpt><trkpt lat="33.3276731" lon="132.5377692"><ele>572.4366666666666</ele><time>2026-01-31T05:56:28Z</time></trkpt><trkpt lat="33.3277832" lon="132.5375891"><ele>567.7933333333334</ele><time>2026-01-31T05:56:46Z</time></trkpt><trkpt lat="33.3277639" lon="132.537371"><ele>563.0266666666666</ele><time>2026-01-31T05:57:03Z</time></trkpt><trkpt lat="33.3278113" lon="132.5371397"><ele>558.3033333333334</ele><time>2026-01-31T05:57:20Z</time></trkpt><trkpt lat="33.3279314" lon="132.5369379"><ele>554.68</ele><time>2026-01-31T05:57:38Z</time></trkpt><trkpt lat="33.3280053" lon="132.5367017"><ele>551.9966666666667</ele><time>2026-01-31T05:57:55Z</time></trkpt><trkpt lat="33.3280469" lon="132.5364669"><ele>549.4833333333333</ele><time>2026-01-31T05:58:14Z</time></trkpt><trkpt lat="33.3280917" lon="132.536217"><ele>547.0</ele><time>2026-01-31T05:58:35Z</time></trkpt><trkpt lat="33.3280896" lon="132.5359707"><ele>544.3933333333334</ele><time>2026-01-31T05:58:50Z</time></trkpt><trkpt lat="33.3281686" lon="132.5357468"><ele>543.14</ele><time>2026-01-31T05:59:12Z</time></trkpt><trkpt lat="33.3282909" lon="132.5355702"><ele>542.8100000000001</ele><time>2026-01-31T05:59:30Z</time></trkpt><trkpt lat="33.3284808" lon="132.5354329"><ele>542.4433333333334</ele><time>2026-01-31T05:59:48Z</time></trkpt><trkpt lat="33.3285576" lon="132.5352372"><ele>541.0433333333333</ele><time>2026-01-31T06:00:03Z</time></trkpt><trkpt lat="33.3286859" lon="132.5350218"><ele>538.9033333333333</ele><time>2026-01-31T06:00:17Z</time></trkpt><trkpt lat="33.3287387" lon="132.5347958"><ele>536.7366666666666</ele><time>2026-01-31T06:00:32Z</time></trkpt><trkpt lat="33.3287597" lon="132.5345444"><ele>534.6633333333333</ele><time>2026-01-31T06:00:48Z</time></trkpt><trkpt lat="33.3288656" lon="132.5343251"><ele>533.0466666666666</ele><time>2026-01-31T06:01:02Z</time></trkpt><trkpt lat="33.3290242" lon="132.534165"><ele>531.5966666666667</ele><time>2026-01-31T06:01:17Z</time></trkpt><trkpt lat="33.3292024" lon="132.5340871"><ele>530.35</ele><time>2026-01-31T06:01:33Z</time></trkpt><trkpt lat="33.3294212" lon="132.5341244"><ele>529.2666666666668</ele><time>2026-01-31T06:01:50Z</time></trkpt><trkpt lat="33.3296149" lon="132.5340836"><ele>529.5233333333333</ele><time>2026-01-31T06:02:05Z</time></trkpt><trkpt lat="33.3298184" lon="132.5340236"><ele>530.5033333333333</ele><time>2026-01-31T06:02:25Z</time></trkpt><trkpt lat="33.330027" lon="132.5340385"><ele>531.85</ele><time>2026-01-31T06:02:40Z</time></trkpt><trkpt lat="33.3302431" lon="132.5340008"><ele>531.8533333333334</ele><time>2026-01-31T06:02:58Z</time></trkpt><trkpt lat="33.3304048" lon="132.5338503"><ele>534.0833333333334</ele><time>2026-01-31T06:03:16Z</time></trkpt><trkpt lat="33.330595" lon="132.5337895"><ele>536.5566666666666</ele><time>2026-01-31T06:03:43Z</time></trkpt><trkpt lat="33.3307964" lon="132.5336969"><ele>539.9200000000001</ele><time>2026-01-31T06:04:01Z</time></trkpt><trkpt lat="33.3309788" lon="132.5335584"><ele>541.7033333333333</ele><time>2026-01-31T06:04:19Z</time></trkpt><trkpt lat="33.3311141" lon="132.5333675"><ele>540.91</ele><time>2026-01-31T06:04:37Z</time></trkpt><trkpt lat="33.3311738" lon="132.5331258"><ele>538.0099999999999</ele><time>2026-01-31T06:04:57Z</time></trkpt><trkpt lat="33.3311859" lon="132.5328913"><ele>535.88</ele><time>2026-01-31T06:05:16Z</time></trkpt><trkpt lat="33.331204" lon="132.5326537"><ele>537.94</ele><time>2026-01-31T06:05:36Z</time></trkpt><trkpt lat="33.3313376" lon="132.5324981"><ele>541.1999999999999</ele><time>2026-01-31T06:05:50Z</time></trkpt><trkpt lat="33.3314483" lon="132.5322752"><ele>542.27</ele><time>2026-01-31T06:06:08Z</time></trkpt><trkpt lat="33.3315085" lon="132.5320317"><ele>540.83</ele><time>2026-01-31T06:06:26Z</time></trkpt><trkpt lat="33.3315608" lon="132.5318157"><ele>537.9900000000001</ele><time>2026-01-31T06:06:46Z</time></trkpt><trkpt lat="33.3316768" lon="132.5316039"><ele>534.4633333333333</ele><time>2026-01-31T06:07:07Z</time></trkpt><trkpt lat="33.3318174" lon="132.5314653"><ele>530.1566666666668</ele><time>2026-01-31T06:07:22Z</time></trkpt><trkpt lat="33.3318936" lon="132.5312662"><ele>526.3566666666667</ele><time>2026-01-31T06:07:37Z</time></trkpt><trkpt lat="33.331957" lon="132.5310648"><ele>522.0366666666667</ele><time>2026-01-31T06:07:51Z</time></trkpt><trkpt lat="33.3320132" lon="132.530857"><ele>516.7933333333334</ele><time>2026-01-31T06:08:10Z</time></trkpt><trkpt lat="33.3321132" lon="132.5306472"><ele>510.72333333333336</ele><time>2026-01-31T06:08:33Z</time></trkpt><trkpt lat="33.3322623" lon="132.5304709"><ele>504.42666666666673</ele><time>2026-01-31T06:08:52Z</time></trkpt><trkpt lat="33.3324252" lon="132.5303766"><ele>499.48</ele><time>2026-01-31T06:09:06Z</time></trkpt><trkpt lat="33.3326223" lon="132.5302543"><ele>494.96333333333337</ele><time>2026-01-31T06:09:27Z</time></trkpt><trkpt lat="33.3327719" lon="132.530388"><ele>490.08</ele><time>2026-01-31T06:09:48Z</time></trkpt><trkpt lat="33.3328581" lon="132.5305945"><ele>484.18666666666667</ele><time>2026-01-31T06:10:06Z</time></trkpt><trkpt lat="33.3330263" lon="132.5307448"><ele>476.71333333333337</ele><time>2026-01-31T06:10:27Z</time></trkpt><trkpt lat="33.3331971" lon="132.5308731"><ele>469.36000000000007</ele><time>2026-01-31T06:10:48Z</time></trkpt><trkpt lat="33.3333723" lon="132.5309576"><ele>462.7866666666667</ele><time>2026-01-31T06:11:06Z</time></trkpt><trkpt lat="33.3335517" lon="132.530982"><ele>458.1933333333333</ele><time>2026-01-31T06:11:22Z</time></trkpt><trkpt lat="33.333687" lon="132.5307971"><ele>454.83666666666664</ele><time>2026-01-31T06:11:59Z</time></trkpt><trkpt lat="33.3338608" lon="132.5307333"><ele>450.8733333333333</ele><time>2026-01-31T06:12:16Z</time></trkpt><trkpt lat="33.3340391" lon="132.5307753"><ele>446.3733333333333</ele><time>2026-01-31T06:12:37Z</time></trkpt><trkpt lat="33.3341271" lon="132.5305754"><ele>441.34666666666664</ele><time>2026-01-31T06:12:56Z</time></trkpt><trkpt lat="33.3343028" lon="132.5304347"><ele>436.92333333333335</ele><time>2026-01-31T06:13:15Z</time></trkpt><trkpt lat="33.3344971" lon="132.5304404"><ele>432.2833333333333</ele><time>2026-01-31T06:13:29Z</time></trkpt><trkpt lat="33.3344395" lon="132.5302321"><ele>429.61666666666673</ele><time>2026-01-31T06:14:05Z</time></trkpt><trkpt lat="33.3344945" lon="132.5299908"><ele>426.8966666666667</ele><time>2026-01-31T06:14:23Z</time></trkpt><trkpt lat="33.3345465" lon="132.52978"><ele>425.4066666666667</ele><time>2026-01-31T06:14:40Z</time></trkpt><trkpt lat="33.3345892" lon="132.5295321"><ele>419.7066666666667</ele><time>2026-01-31T06:14:59Z</time></trkpt><trkpt lat="33.3346837" lon="132.5293442"><ele>413.81333333333333</ele><time>2026-01-31T06:15:13Z</time></trkpt><trkpt lat="33.3347874" lon="132.5291574"><ele>408.82</ele><time>2026-01-31T06:15:28Z</time></trkpt><trkpt lat="33.3349113" lon="132.5289634"><ele>408.0466666666666</ele><time>2026-01-31T06:16:07Z</time></trkpt><trkpt lat="33.3350417" lon="132.5288005"><ele>407.51666666666665</ele><time>2026-01-31T06:16:19Z</time></trkpt><trkpt lat="33.3352259" lon="132.5287001"><ele>409.0933333333334</ele><time>2026-01-31T06:16:34Z</time></trkpt><trkpt lat="33.3352258" lon="132.5284802"><ele>408.1433333333334</ele><time>2026-01-31T06:16:49Z</time></trkpt><trkpt lat="33.3352525" lon="132.5282451"><ele>404.4866666666667</ele><time>2026-01-31T06:17:02Z</time></trkpt><trkpt lat="33.3352132" lon="132.5280218"><ele>396.0433333333333</ele><time>2026-01-31T06:17:14Z</time></trkpt><trkpt lat="33.3352409" lon="132.5278077"><ele>387.13000000000005</ele><time>2026-01-31T06:17:26Z</time></trkpt><trkpt lat="33.3354136" lon="132.527673"><ele>382.9266666666667</ele><time>2026-01-31T06:17:38Z</time></trkpt><trkpt lat="33.3355926" lon="132.5276441"><ele>383.7833333333333</ele><time>2026-01-31T06:17:53Z</time></trkpt><trkpt lat="33.3357243" lon="132.5278422"><ele>387.70666666666665</ele><time>2026-01-31T06:18:05Z</time></trkpt><trkpt lat="33.3358416" lon="132.5280404"><ele>393.0166666666667</ele><time>2026-01-31T06:18:17Z</time></trkpt><trkpt lat="33.335998" lon="132.5279172"><ele>396.02333333333337</ele><time>2026-01-31T06:18:32Z</time></trkpt><trkpt lat="33.3359527" lon="132.5276902"><ele>397.3</ele><time>2026-01-31T06:18:47Z</time></trkpt><trkpt lat="33.3360064" lon="132.5274678"><ele>396.7733333333333</ele><time>2026-01-31T06:19:02Z</time></trkpt><trkpt lat="33.3360511" lon="132.5272277"><ele>396.8633333333334</ele><time>2026-01-31T06:19:20Z</time></trkpt><trkpt lat="33.3358625" lon="132.5271349"><ele>397.2066666666667</ele><time>2026-01-31T06:19:36Z</time></trkpt><trkpt lat="33.3356736" lon="132.5271644"><ele>397.89000000000004</ele><time>2026-01-31T06:19:50Z</time></trkpt><trkpt lat="33.335489" lon="132.5270596"><ele>398.3866666666667</ele><time>2026-01-31T06:20:07Z</time></trkpt><trkpt lat="33.3353743" lon="132.5268536"><ele>399.79333333333335</ele><time>2026-01-31T06:20:34Z</time></trkpt><trkpt lat="33.3351914" lon="132.5268257"><ele>400.44666666666666</ele><time>2026-01-31T06:20:52Z</time></trkpt><trkpt lat="33.3353546" lon="132.5269681"><ele>400.8</ele><time>2026-01-31T06:21:47Z</time></trkpt><trkpt lat="33.3355584" lon="132.5269711"><ele>400.7166666666667</ele><time>2026-01-31T06:22:01Z</time></trkpt><trkpt lat="33.3357613" lon="132.5270523"><ele>400.1233333333334</ele><time>2026-01-31T06:22:22Z</time></trkpt><trkpt lat="33.3359459" lon="132.5270059"><ele>398.48333333333335</ele><time>2026-01-31T06:22:46Z</time></trkpt><trkpt lat="33.3361463" lon="132.5269834"><ele>398.42</ele><time>2026-01-31T06:23:01Z</time></trkpt><trkpt lat="33.336326" lon="132.5269362"><ele>399.99</ele><time>2026-01-31T06:23:16Z</time></trkpt><trkpt lat="33.3365081" lon="132.5268015"><ele>403.30333333333334</ele><time>2026-01-31T06:23:35Z</time></trkpt></trkseg></trk></gpx>