<?xml version='1.0' encoding='UTF-8'?><gpx creator="Yama Museum Summit Candidate Generator" xsi:schemaLocation="http://www.topografix.com/GPX/1/1 http://www.topografix.com/GPX/1/1/gpx.xsd" version="1.1" xmlns="http://www.topografix.com/GPX/1/1" xmlns:xsi="http://www.w3.org/2001/XMLSchema-instance" xmlns:yama="https://museum-yama-data.moukaeritai.work/ns/yama-data/0.1"><metadata><bounds maxlat="33.7181725" maxlon="132.8279125" minlat="33.712336" minlon="132.8222603"/><name>遠ヶ森</name><extensions><yama:source_gpx_basename>yamap_2022-12-12_08_41.gpx</yama:source_gpx_basename><yama:source_gpx_relative_path>data/01_raw/gpx/2026-05-12/yamap_2022-12-12_08_41.gpx</yama:source_gpx_relative_path><yama:detection_parameters>window=5,radius=10,min_prominence=30,merge=100</yama:detection_parameters></extensions></metadata><wpt lat="33.7134297" lon="132.824108"><ele>731.4733333333334</ele><time>2022-12-12T00:15:54Z</time><name>summit-candidate:02fa4cfab6fa90d3</name><desc>Summit candidate detected at elevation 731.4733333333334m with prominence 192.76088888888899m.</desc><sym>Summit Candidate</sym><extensions><yama:source_trackpoint_index>34</yama:source_trackpoint_index><yama:valid_elevation_index>34</yama:valid_elevation_index><yama:smoothed_ele>726.2120000000001</yama:smoothed_ele><yama:prominence>192.76088888888899</yama:prominence><yama:detection_method>local_maxima_with_prominence</yama:detection_method><yama:detection_parameters>window=5,radius=10,min_prominence=30,merge=100</yama:detection_parameters><yama:candidate_status>unresolved</yama:candidate_status></extensions></wpt>
  <trk><name>遠ヶ森</name><number>1</number><trkseg><trkpt lat="33.7181725" lon="132.8278001"><ele>527.45</ele><time>2022-12-11T23:41:42Z</time></trkpt><trkpt lat="33.7181117" lon="132.8275967"><ele>528.915</ele><time>2022-12-11T23:42:41Z</time></trkpt><trkpt lat="33.717958" lon="132.8274716"><ele>530.7933333333333</ele><time>2022-12-11T23:43:05Z</time></trkpt><trkpt lat="33.717776" lon="132.8274627"><ele>533.8533333333334</ele><time>2022-12-11T23:43:22Z</time></trkpt><trkpt lat="33.717597" lon="132.8275142"><ele>537.5333333333333</ele><time>2022-12-11T23:43:51Z</time></trkpt><trkpt lat="33.7174126" lon="132.8275433"><ele>540.4566666666666</ele><time>2022-12-11T23:44:14Z</time></trkpt><trkpt lat="33.7172349" lon="132.8276037"><ele>543.82</ele><time>2022-12-11T23:44:35Z</time></trkpt><trkpt lat="33.7172489" lon="132.8273706"><ele>547.71</ele><time>2022-12-11T23:46:11Z</time></trkpt><trkpt lat="33.7171327" lon="132.8271986"><ele>553.4433333333333</ele><time>2022-12-11T23:46:32Z</time></trkpt><trkpt lat="33.7170339" lon="132.8270031"><ele>563.0433333333334</ele><time>2022-12-11T23:47:52Z</time></trkpt><trkpt lat="33.7169034" lon="132.8268189"><ele>574.27</ele><time>2022-12-11T23:49:36Z</time></trkpt><trkpt lat="33.7168089" lon="132.8266337"><ele>585.7199999999999</ele><time>2022-12-11T23:50:15Z</time></trkpt><trkpt lat="33.7166884" lon="132.8264693"><ele>595.5066666666667</ele><time>2022-12-11T23:51:57Z</time></trkpt><trkpt lat="33.7165729" lon="132.8262958"><ele>605.4566666666666</ele><time>2022-12-11T23:52:08Z</time></trkpt><trkpt lat="33.7164709" lon="132.8261113"><ele>616.1933333333333</ele><time>2022-12-11T23:56:09Z</time></trkpt><trkpt lat="33.7163609" lon="132.8259006"><ele>629.0833333333334</ele><time>2022-12-11T23:58:33Z</time></trkpt><trkpt lat="33.7162218" lon="132.825754"><ele>642.0133333333333</ele><time>2022-12-12T00:00:03Z</time></trkpt><trkpt lat="33.7160948" lon="132.8255983"><ele>656.7366666666667</ele><time>2022-12-12T00:00:40Z</time></trkpt><trkpt lat="33.7159093" lon="132.8255462"><ele>666.8333333333334</ele><time>2022-12-12T00:01:05Z</time></trkpt><trkpt lat="33.7157264" lon="132.8256021"><ele>674.1433333333334</ele><time>2022-12-12T00:01:53Z</time></trkpt><trkpt lat="33.7155455" lon="132.8255903"><ele>677.2233333333334</ele><time>2022-12-12T00:02:06Z</time></trkpt><trkpt lat="33.7153625" lon="132.825595"><ele>679.7533333333333</ele><time>2022-12-12T00:02:50Z</time></trkpt><trkpt lat="33.7151834" lon="132.8255457"><ele>681.5366666666667</ele><time>2022-12-12T00:03:11Z</time></trkpt><trkpt lat="33.7150513" lon="132.825388"><ele>682.2600000000001</ele><time>2022-12-12T00:04:08Z</time></trkpt><trkpt lat="33.7149127" lon="132.8252274"><ele>683.0500000000001</ele><time>2022-12-12T00:04:29Z</time></trkpt><trkpt lat="33.7147286" lon="132.8251166"><ele>682.7666666666668</ele><time>2022-12-12T00:04:50Z</time></trkpt><trkpt lat="33.7145229" lon="132.8250343"><ele>683.4866666666667</ele><time>2022-12-12T00:05:03Z</time></trkpt><trkpt lat="33.7143513" lon="132.8249626"><ele>683.79</ele><time>2022-12-12T00:05:39Z</time></trkpt><trkpt lat="33.7141548" lon="132.8249749"><ele>687.33</ele><time>2022-12-12T00:06:12Z</time></trkpt><trkpt lat="33.7139636" lon="132.8249591"><ele>694.1633333333334</ele><time>2022-12-12T00:07:53Z</time></trkpt><trkpt lat="33.7138079" lon="132.8248117"><ele>704.0866666666667</ele><time>2022-12-12T00:09:29Z</time></trkpt><trkpt lat="33.7137" lon="132.8246234"><ele>715.5566666666667</ele><time>2022-12-12T00:10:08Z</time></trkpt><trkpt lat="33.713544" lon="132.8245132"><ele>726.5500000000001</ele><time>2022-12-12T00:11:38Z</time></trkpt><trkpt lat="33.71352" lon="132.8242978"><ele>732.3233333333334</ele><time>2022-12-12T00:14:12Z</time></trkpt><trkpt lat="33.7134297" lon="132.824108"><ele>731.4733333333334</ele><time>2022-12-12T00:15:54Z</time></trkpt><trkpt lat="33.7133339" lon="132.8239018"><ele>723.6433333333334</ele><time>2022-12-12T00:16:24Z</time></trkpt><trkpt lat="33.7132471" lon="132.8236798"><ele>717.07</ele><time>2022-12-12T00:16:45Z</time></trkpt><trkpt lat="33.7132166" lon="132.8234582"><ele>712.62</ele><time>2022-12-12T00:16:57Z</time></trkpt><trkpt lat="33.7131247" lon="132.8232681"><ele>713.0133333333333</ele><time>2022-12-12T00:17:18Z</time></trkpt><trkpt lat="33.7130075" lon="132.8230863"><ele>715.6466666666666</ele><time>2022-12-12T00:17:39Z</time></trkpt><trkpt lat="33.7128928" lon="132.8229088"><ele>718.9699999999999</ele><time>2022-12-12T00:18:08Z</time></trkpt><trkpt lat="33.7127596" lon="132.8227361"><ele>721.12</ele><time>2022-12-12T00:18:30Z</time></trkpt><trkpt lat="33.7125923" lon="132.8226035"><ele>722.3733333333333</ele><time>2022-12-12T00:18:42Z</time></trkpt><trkpt lat="33.7124866" lon="132.8224012"><ele>723.5966666666667</ele><time>2022-12-12T00:19:18Z</time></trkpt><trkpt lat="33.712336" lon="132.8222603"><ele>724.8533333333334</ele><time>2022-12-12T00:19:42Z</time></trkpt><trkpt lat="33.7125125" lon="132.8223998"><ele>724.9666666666667</ele><time>2022-12-12T00:26:28Z</time></trkpt><trkpt lat="33.7126125" lon="132.8225861"><ele>724.6766666666666</ele><time>2022-12-12T00:26:40Z</time></trkpt><trkpt lat="33.7127231" lon="132.8227927"><ele>723.4200000000001</ele><time>2022-12-12T00:26:58Z</time></trkpt><trkpt lat="33.7128765" lon="132.8229421"><ele>722.3733333333333</ele><time>2022-12-12T00:27:22Z</time></trkpt><trkpt lat="33.7129422" lon="132.8231571"><ele>720.8766666666667</ele><time>2022-12-12T00:27:49Z</time></trkpt><trkpt lat="33.7130444" lon="132.823381"><ele>717.6466666666666</ele><time>2022-12-12T00:28:24Z</time></trkpt><trkpt lat="33.713141" lon="132.8235888"><ele>714.8299999999999</ele><time>2022-12-12T00:28:39Z</time></trkpt><trkpt lat="33.7132378" lon="132.8237795"><ele>712.6866666666666</ele><time>2022-12-12T00:29:13Z</time></trkpt><trkpt lat="33.713368" lon="132.8239294"><ele>713.02</ele><time>2022-12-12T00:29:52Z</time></trkpt><trkpt lat="33.7134285" lon="132.8241375"><ele>716.9633333333335</ele><time>2022-12-12T00:31:00Z</time></trkpt><trkpt lat="33.7134796" lon="132.824389"><ele>725.4466666666667</ele><time>2022-12-12T00:31:45Z</time></trkpt><trkpt lat="33.713561" lon="132.8245857"><ele>731.9566666666666</ele><time>2022-12-12T00:32:45Z</time></trkpt><trkpt lat="33.7137592" lon="132.8246199"><ele>731.5166666666668</ele><time>2022-12-12T00:33:07Z</time></trkpt><trkpt lat="33.7138601" lon="132.8248516"><ele>722.5633333333334</ele><time>2022-12-12T00:34:19Z</time></trkpt><trkpt lat="33.7139961" lon="132.8250092"><ele>711.18</ele><time>2022-12-12T00:34:46Z</time></trkpt><trkpt lat="33.7141841" lon="132.8250066"><ele>701.0</ele><time>2022-12-12T00:35:04Z</time></trkpt><trkpt lat="33.7143715" lon="132.8250193"><ele>692.6433333333334</ele><time>2022-12-12T00:35:34Z</time></trkpt><trkpt lat="33.71452" lon="132.825153"><ele>687.0100000000001</ele><time>2022-12-12T00:35:58Z</time></trkpt><trkpt lat="33.7146785" lon="132.8253036"><ele>683.4500000000002</ele><time>2022-12-12T00:36:11Z</time></trkpt><trkpt lat="33.7148512" lon="132.8254152"><ele>681.84</ele><time>2022-12-12T00:36:40Z</time></trkpt><trkpt lat="33.7150358" lon="132.8254892"><ele>681.6233333333333</ele><time>2022-12-12T00:36:54Z</time></trkpt><trkpt lat="33.7151866" lon="132.8256613"><ele>680.9733333333334</ele><time>2022-12-12T00:37:06Z</time></trkpt><trkpt lat="33.715373" lon="132.8256626"><ele>680.7466666666668</ele><time>2022-12-12T00:37:37Z</time></trkpt><trkpt lat="33.7155324" lon="132.8257653"><ele>679.57</ele><time>2022-12-12T00:38:07Z</time></trkpt><trkpt lat="33.715705" lon="132.8256888"><ele>678.1433333333334</ele><time>2022-12-12T00:38:42Z</time></trkpt><trkpt lat="33.7158853" lon="132.8256257"><ele>676.1633333333334</ele><time>2022-12-12T00:39:04Z</time></trkpt><trkpt lat="33.7160661" lon="132.825622"><ele>673.8966666666666</ele><time>2022-12-12T00:39:19Z</time></trkpt><trkpt lat="33.7162331" lon="132.8257319"><ele>669.3266666666667</ele><time>2022-12-12T00:40:58Z</time></trkpt><trkpt lat="33.7163433" lon="132.8259116"><ele>658.1433333333334</ele><time>2022-12-12T00:41:52Z</time></trkpt><trkpt lat="33.7164982" lon="132.8260388"><ele>644.2266666666667</ele><time>2022-12-12T00:42:19Z</time></trkpt><trkpt lat="33.7166835" lon="132.8260819"><ele>631.3866666666668</ele><time>2022-12-12T00:42:49Z</time></trkpt><trkpt lat="33.7167674" lon="132.8262879"><ele>622.1433333333334</ele><time>2022-12-12T00:43:22Z</time></trkpt><trkpt lat="33.7169271" lon="132.8264103"><ele>613.9</ele><time>2022-12-12T00:43:58Z</time></trkpt><trkpt lat="33.7171178" lon="132.8264467"><ele>605.6333333333333</ele><time>2022-12-12T00:44:25Z</time></trkpt><trkpt lat="33.7172925" lon="132.8266241"><ele>597.26</ele><time>2022-12-12T00:46:46Z</time></trkpt><trkpt lat="33.7173555" lon="132.8268529"><ele>586.2766666666666</ele><time>2022-12-12T00:46:58Z</time></trkpt><trkpt lat="33.7174805" lon="132.82705"><ele>574.1166666666667</ele><time>2022-12-12T00:47:09Z</time></trkpt><trkpt lat="33.717585" lon="132.8272521"><ele>562.2033333333334</ele><time>2022-12-12T00:48:07Z</time></trkpt><trkpt lat="33.7174881" lon="132.8274472"><ele>553.9666666666667</ele><time>2022-12-12T00:48:34Z</time></trkpt><trkpt lat="33.717625" lon="132.8275964"><ele>545.98</ele><time>2022-12-12T00:49:01Z</time></trkpt><trkpt lat="33.7178417" lon="132.8276526"><ele>538.7533333333334</ele><time>2022-12-12T00:49:16Z</time></trkpt><trkpt lat="33.7180194" lon="132.8277047"><ele>532.5600000000001</ele><time>2022-12-12T00:49:33Z</time></trkpt><trkpt lat="33.718068" lon="132.8279125"><ele>529.04</ele><time>2022-12-12T00:50:15Z</time></trkpt></trkseg></trk></gpx>