<?xml version='1.0' encoding='UTF-8'?><gpx creator="Yama Museum Summit Candidate Generator" xsi:schemaLocation="http://www.topografix.com/GPX/1/1 http://www.topografix.com/GPX/1/1/gpx.xsd" version="1.1" xmlns="http://www.topografix.com/GPX/1/1" xmlns:xsi="http://www.w3.org/2001/XMLSchema-instance" xmlns:yama="https://museum-yama-data.moukaeritai.work/ns/yama-data/0.1"><metadata><bounds maxlat="33.8726277" maxlon="132.716094" minlat="33.8670786" minlon="132.71034"/><name>西港山・大丸山・港山</name><extensions><yama:source_gpx_basename>yamap_2022-10-19_16_00.gpx</yama:source_gpx_basename><yama:source_gpx_relative_path>data/01_raw/gpx/2026-05-12/yamap_2022-10-19_16_00.gpx</yama:source_gpx_relative_path><yama:detection_parameters>window=5,radius=10,min_prominence=30,merge=100</yama:detection_parameters></extensions></metadata><wpt lat="33.8685514" lon="132.7112215"><ele>47.879999999999995</ele><time>2022-10-19T07:07:18Z</time><name>summit-candidate:bf2b3499e08da2df</name><desc>Summit candidate detected at elevation 47.879999999999995m with prominence 37.32866666666666m.</desc><sym>Summit Candidate</sym><extensions><yama:source_trackpoint_index>16</yama:source_trackpoint_index><yama:valid_elevation_index>16</yama:valid_elevation_index><yama:smoothed_ele>45.224666666666664</yama:smoothed_ele><yama:prominence>37.32866666666666</yama:prominence><yama:detection_method>local_maxima_with_prominence</yama:detection_method><yama:detection_parameters>window=5,radius=10,min_prominence=30,merge=100</yama:detection_parameters><yama:candidate_status>unresolved</yama:candidate_status></extensions></wpt>
  <wpt lat="33.8724674" lon="132.7108146"><ele>63.77666666666667</ele><time>2022-10-19T07:27:41Z</time><name>summit-candidate:a9a2a270fb6273fe</name><desc>Summit candidate detected at elevation 63.77666666666667m with prominence 55.914m.</desc><sym>Summit Candidate</sym><extensions><yama:source_trackpoint_index>57</yama:source_trackpoint_index><yama:valid_elevation_index>57</yama:valid_elevation_index><yama:smoothed_ele>57.410000000000004</yama:smoothed_ele><yama:prominence>55.914</yama:prominence><yama:detection_method>local_maxima_with_prominence</yama:detection_method><yama:detection_parameters>window=5,radius=10,min_prominence=30,merge=100</yama:detection_parameters><yama:candidate_status>unresolved</yama:candidate_status></extensions></wpt>
  <wpt lat="33.8685926" lon="132.7153244"><ele>41.080000000000005</ele><time>2022-10-19T07:50:46Z</time><name>summit-candidate:5f001ac124f82ef6</name><desc>Summit candidate detected at elevation 41.080000000000005m with prominence 38.610666666666674m.</desc><sym>Summit Candidate</sym><extensions><yama:source_trackpoint_index>117</yama:source_trackpoint_index><yama:valid_elevation_index>117</yama:valid_elevation_index><yama:smoothed_ele>40.882000000000005</yama:smoothed_ele><yama:prominence>38.610666666666674</yama:prominence><yama:detection_method>local_maxima_with_prominence</yama:detection_method><yama:detection_parameters>window=5,radius=10,min_prominence=30,merge=100</yama:detection_parameters><yama:candidate_status>unresolved</yama:candidate_status></extensions></wpt>
  <trk><name>西港山・大丸山・港山</name><number>1</number><trkseg><trkpt lat="33.8678584" lon="132.7122916"><ele>0.1</ele><time>2022-10-19T07:00:46Z</time></trkpt><trkpt lat="33.8680176" lon="132.7124049"><ele>0.9550000000000001</ele><time>2022-10-19T07:01:02Z</time></trkpt><trkpt lat="33.8680984" lon="132.7125986"><ele>1.2733333333333334</ele><time>2022-10-19T07:01:22Z</time></trkpt><trkpt lat="33.8681583" lon="132.7128148"><ele>2.1633333333333336</ele><time>2022-10-19T07:01:51Z</time></trkpt><trkpt lat="33.8682982" lon="132.7129683"><ele>2.893333333333333</ele><time>2022-10-19T07:02:05Z</time></trkpt><trkpt lat="33.8684806" lon="132.7129757"><ele>4.2299999999999995</ele><time>2022-10-19T07:02:19Z</time></trkpt><trkpt lat="33.8685915" lon="132.7128048"><ele>6.34</ele><time>2022-10-19T07:02:53Z</time></trkpt><trkpt lat="33.8685396" lon="132.7125946"><ele>8.923333333333334</ele><time>2022-10-19T07:03:12Z</time></trkpt><trkpt lat="33.8685362" lon="132.7123765"><ele>12.280000000000001</ele><time>2022-10-19T07:03:47Z</time></trkpt><trkpt lat="33.8684791" lon="132.7121695"><ele>14.49</ele><time>2022-10-19T07:04:02Z</time></trkpt><trkpt lat="33.8683644" lon="132.7119955"><ele>15.5</ele><time>2022-10-19T07:04:21Z</time></trkpt><trkpt lat="33.868423" lon="132.7117854"><ele>18.276666666666667</ele><time>2022-10-19T07:04:57Z</time></trkpt><trkpt lat="33.8685542" lon="132.7116349"><ele>25.463333333333335</ele><time>2022-10-19T07:05:29Z</time></trkpt><trkpt lat="33.8684945" lon="132.7114291"><ele>34.54</ele><time>2022-10-19T07:05:52Z</time></trkpt><trkpt lat="33.8686023" lon="132.7112498"><ele>42.85</ele><time>2022-10-19T07:06:21Z</time></trkpt><trkpt lat="33.8686166" lon="132.711018"><ele>46.41</ele><time>2022-10-19T07:06:25Z</time></trkpt><trkpt lat="33.8685514" lon="132.7112215"><ele>47.879999999999995</ele><time>2022-10-19T07:07:18Z</time></trkpt><trkpt lat="33.8685908" lon="132.7114448"><ele>47.03</ele><time>2022-10-19T07:07:30Z</time></trkpt><trkpt lat="33.8684533" lon="132.7116036"><ele>41.95333333333334</ele><time>2022-10-19T07:08:06Z</time></trkpt><trkpt lat="33.8684458" lon="132.7118222"><ele>34.586666666666666</ele><time>2022-10-19T07:08:29Z</time></trkpt><trkpt lat="33.8685284" lon="132.7120152"><ele>26.313333333333333</ele><time>2022-10-19T07:08:46Z</time></trkpt><trkpt lat="33.8685952" lon="132.7122187"><ele>22.993333333333336</ele><time>2022-10-19T07:09:02Z</time></trkpt><trkpt lat="33.868569" lon="132.7124454"><ele>20.486666666666665</ele><time>2022-10-19T07:09:15Z</time></trkpt><trkpt lat="33.8685304" lon="132.7126605"><ele>16.543333333333333</ele><time>2022-10-19T07:09:25Z</time></trkpt><trkpt lat="33.8684763" lon="132.7128838"><ele>11.100000000000001</ele><time>2022-10-19T07:09:40Z</time></trkpt><trkpt lat="33.8686147" lon="132.7130227"><ele>8.049999999999999</ele><time>2022-10-19T07:09:59Z</time></trkpt><trkpt lat="33.8687946" lon="132.7130461"><ele>7.376666666666668</ele><time>2022-10-19T07:10:39Z</time></trkpt><trkpt lat="33.8689672" lon="132.7129583"><ele>8.193333333333333</ele><time>2022-10-19T07:11:03Z</time></trkpt><trkpt lat="33.8691472" lon="132.7129795"><ele>8.643333333333333</ele><time>2022-10-19T07:11:19Z</time></trkpt><trkpt lat="33.8692877" lon="132.7128391"><ele>8.976666666666667</ele><time>2022-10-19T07:11:28Z</time></trkpt><trkpt lat="33.8694593" lon="132.7127399"><ele>8.986666666666666</ele><time>2022-10-19T07:11:41Z</time></trkpt><trkpt lat="33.8696514" lon="132.7127274"><ele>8.82</ele><time>2022-10-19T07:11:54Z</time></trkpt><trkpt lat="33.8697611" lon="132.7125353"><ele>8.56</ele><time>2022-10-19T07:12:10Z</time></trkpt><trkpt lat="33.8697859" lon="132.7123196"><ele>8.209999999999999</ele><time>2022-10-19T07:12:22Z</time></trkpt><trkpt lat="33.8697725" lon="132.7120967"><ele>8.09</ele><time>2022-10-19T07:12:34Z</time></trkpt><trkpt lat="33.8698233" lon="132.7118788"><ele>7.966666666666666</ele><time>2022-10-19T07:12:48Z</time></trkpt><trkpt lat="33.8698521" lon="132.7116587"><ele>7.8500000000000005</ele><time>2022-10-19T07:13:00Z</time></trkpt><trkpt lat="33.8699037" lon="132.7114426"><ele>7.723333333333334</ele><time>2022-10-19T07:13:14Z</time></trkpt><trkpt lat="33.8699884" lon="132.7112449"><ele>7.849999999999999</ele><time>2022-10-19T07:13:34Z</time></trkpt><trkpt lat="33.8700636" lon="132.711048"><ele>8.16</ele><time>2022-10-19T07:13:47Z</time></trkpt><trkpt lat="33.8702437" lon="132.7110813"><ele>8.576666666666666</ele><time>2022-10-19T07:14:12Z</time></trkpt><trkpt lat="33.8704253" lon="132.7111579"><ele>9.033333333333333</ele><time>2022-10-19T07:14:26Z</time></trkpt><trkpt lat="33.8706054" lon="132.7111214"><ele>9.72</ele><time>2022-10-19T07:14:36Z</time></trkpt><trkpt lat="33.8707801" lon="132.7110643"><ele>12.263333333333334</ele><time>2022-10-19T07:14:57Z</time></trkpt><trkpt lat="33.8707994" lon="132.7108483"><ele>12.543333333333335</ele><time>2022-10-19T07:15:13Z</time></trkpt><trkpt lat="33.8709877" lon="132.710861"><ele>15.910000000000002</ele><time>2022-10-19T07:15:36Z</time></trkpt><trkpt lat="33.8711685" lon="132.7108099"><ele>18.33666666666667</ele><time>2022-10-19T07:15:53Z</time></trkpt><trkpt lat="33.8713365" lon="132.7107004"><ele>22.433333333333337</ele><time>2022-10-19T07:16:06Z</time></trkpt><trkpt lat="33.8713059" lon="132.7104868"><ele>20.263333333333335</ele><time>2022-10-19T07:16:39Z</time></trkpt><trkpt lat="33.8714725" lon="132.7104025"><ele>16.756666666666668</ele><time>2022-10-19T07:17:19Z</time></trkpt><trkpt lat="33.8716607" lon="132.7103888"><ele>15.406666666666666</ele><time>2022-10-19T07:19:01Z</time></trkpt><trkpt lat="33.8718232" lon="132.7104853"><ele>19.786666666666665</ele><time>2022-10-19T07:19:51Z</time></trkpt><trkpt lat="33.8718998" lon="132.7106826"><ele>27.75</ele><time>2022-10-19T07:20:39Z</time></trkpt><trkpt lat="33.8720755" lon="132.7107548"><ele>36.21</ele><time>2022-10-19T07:21:16Z</time></trkpt><trkpt lat="33.8722503" lon="132.7108131"><ele>43.69333333333333</ele><time>2022-10-19T07:22:22Z</time></trkpt><trkpt lat="33.8724624" lon="132.7108055"><ele>51.29333333333333</ele><time>2022-10-19T07:23:28Z</time></trkpt><trkpt lat="33.8726277" lon="132.7106984"><ele>60.24333333333334</ele><time>2022-10-19T07:24:35Z</time></trkpt><trkpt lat="33.8724674" lon="132.7108146"><ele>63.77666666666667</ele><time>2022-10-19T07:27:41Z</time></trkpt><trkpt lat="33.8723036" lon="132.7107236"><ele>60.56333333333333</ele><time>2022-10-19T07:29:29Z</time></trkpt><trkpt lat="33.8721218" lon="132.7107216"><ele>51.17333333333334</ele><time>2022-10-19T07:30:14Z</time></trkpt><trkpt lat="33.8719755" lon="132.7105891"><ele>42.99666666666667</ele><time>2022-10-19T07:30:35Z</time></trkpt><trkpt lat="33.8718099" lon="132.7104944"><ele>35.263333333333335</ele><time>2022-10-19T07:31:03Z</time></trkpt><trkpt lat="33.871681" lon="132.71034"><ele>25.643333333333334</ele><time>2022-10-19T07:32:32Z</time></trkpt><trkpt lat="33.8714881" lon="132.7103695"><ele>17.566666666666666</ele><time>2022-10-19T07:33:10Z</time></trkpt><trkpt lat="33.8714514" lon="132.7105849"><ele>16.073333333333334</ele><time>2022-10-19T07:33:34Z</time></trkpt><trkpt lat="33.8712922" lon="132.7106865"><ele>19.023333333333337</ele><time>2022-10-19T07:34:33Z</time></trkpt><trkpt lat="33.8711209" lon="132.7106062"><ele>18.933333333333334</ele><time>2022-10-19T07:34:43Z</time></trkpt><trkpt lat="33.8710825" lon="132.7108194"><ele>18.83666666666667</ele><time>2022-10-19T07:34:55Z</time></trkpt><trkpt lat="33.8709024" lon="132.7108016"><ele>14.87</ele><time>2022-10-19T07:35:05Z</time></trkpt><trkpt lat="33.8707292" lon="132.7109075"><ele>14.666666666666666</ele><time>2022-10-19T07:35:16Z</time></trkpt><trkpt lat="33.8707288" lon="132.7111315"><ele>12.076666666666668</ele><time>2022-10-19T07:35:25Z</time></trkpt><trkpt lat="33.8705358" lon="132.7111843"><ele>11.833333333333334</ele><time>2022-10-19T07:35:44Z</time></trkpt><trkpt lat="33.8704211" lon="132.711005"><ele>11.316666666666668</ele><time>2022-10-19T07:35:53Z</time></trkpt><trkpt lat="33.8702629" lon="132.7108857"><ele>8.963333333333333</ele><time>2022-10-19T07:36:03Z</time></trkpt><trkpt lat="33.8700813" lon="132.7108694"><ele>8.073333333333332</ele><time>2022-10-19T07:36:11Z</time></trkpt><trkpt lat="33.8700131" lon="132.711076"><ele>7.84</ele><time>2022-10-19T07:36:27Z</time></trkpt><trkpt lat="33.8699258" lon="132.7112743"><ele>7.973333333333334</ele><time>2022-10-19T07:36:37Z</time></trkpt><trkpt lat="33.869823" lon="132.7114573"><ele>8.123333333333333</ele><time>2022-10-19T07:36:51Z</time></trkpt><trkpt lat="33.8696401" lon="132.7114428"><ele>8.203333333333333</ele><time>2022-10-19T07:37:03Z</time></trkpt><trkpt lat="33.8695498" lon="132.7116371"><ele>8.600000000000001</ele><time>2022-10-19T07:37:15Z</time></trkpt><trkpt lat="33.8695062" lon="132.7118532"><ele>8.943333333333333</ele><time>2022-10-19T07:37:36Z</time></trkpt><trkpt lat="33.869397" lon="132.7120331"><ele>9.176666666666668</ele><time>2022-10-19T07:37:46Z</time></trkpt><trkpt lat="33.8693051" lon="132.7122284"><ele>9.286666666666667</ele><time>2022-10-19T07:37:56Z</time></trkpt><trkpt lat="33.8691914" lon="132.712404"><ele>9.503333333333334</ele><time>2022-10-19T07:38:06Z</time></trkpt><trkpt lat="33.8690857" lon="132.7125954"><ele>9.553333333333333</ele><time>2022-10-19T07:38:19Z</time></trkpt><trkpt lat="33.8690132" lon="132.7128004"><ele>9.506666666666666</ele><time>2022-10-19T07:38:32Z</time></trkpt><trkpt lat="33.8689564" lon="132.7130092"><ele>9.276666666666666</ele><time>2022-10-19T07:38:45Z</time></trkpt><trkpt lat="33.868776" lon="132.7130387"><ele>8.87</ele><time>2022-10-19T07:39:00Z</time></trkpt><trkpt lat="33.8685872" lon="132.7130273"><ele>8.276666666666666</ele><time>2022-10-19T07:39:11Z</time></trkpt><trkpt lat="33.8684065" lon="132.7129493"><ele>7.1000000000000005</ele><time>2022-10-19T07:39:26Z</time></trkpt><trkpt lat="33.8682245" lon="132.7129455"><ele>5.413333333333333</ele><time>2022-10-19T07:39:41Z</time></trkpt><trkpt lat="33.8681291" lon="132.713145"><ele>3.4333333333333336</ele><time>2022-10-19T07:39:49Z</time></trkpt><trkpt lat="33.8680628" lon="132.7133596"><ele>2.2666666666666666</ele><time>2022-10-19T07:40:01Z</time></trkpt><trkpt lat="33.8679804" lon="132.7135595"><ele>2.02</ele><time>2022-10-19T07:40:15Z</time></trkpt><trkpt lat="33.8679084" lon="132.7137867"><ele>2.143333333333333</ele><time>2022-10-19T07:40:27Z</time></trkpt><trkpt lat="33.8678741" lon="132.7139991"><ele>2.546666666666667</ele><time>2022-10-19T07:40:38Z</time></trkpt><trkpt lat="33.8678233" lon="132.7142091"><ele>2.3800000000000003</ele><time>2022-10-19T07:40:49Z</time></trkpt><trkpt lat="33.8679657" lon="132.714356"><ele>3.0833333333333335</ele><time>2022-10-19T07:41:05Z</time></trkpt><trkpt lat="33.8681119" lon="132.7144904"><ele>4.033333333333333</ele><time>2022-10-19T07:41:17Z</time></trkpt><trkpt lat="33.8680208" lon="132.7146848"><ele>5.936666666666667</ele><time>2022-10-19T07:41:35Z</time></trkpt><trkpt lat="33.8678347" lon="132.7146871"><ele>6.753333333333334</ele><time>2022-10-19T07:41:45Z</time></trkpt><trkpt lat="33.8676662" lon="132.714782"><ele>6.896666666666667</ele><time>2022-10-19T07:41:56Z</time></trkpt><trkpt lat="33.8674821" lon="132.7147854"><ele>5.506666666666667</ele><time>2022-10-19T07:42:07Z</time></trkpt><trkpt lat="33.8674187" lon="132.7149932"><ele>4.753333333333334</ele><time>2022-10-19T07:42:33Z</time></trkpt><trkpt lat="33.8672616" lon="132.7152228"><ele>3.3266666666666667</ele><time>2022-10-19T07:42:55Z</time></trkpt><trkpt lat="33.8672555" lon="132.7154543"><ele>2.966666666666667</ele><time>2022-10-19T07:43:02Z</time></trkpt><trkpt lat="33.8672372" lon="132.7157"><ele>2.27</ele><time>2022-10-19T07:43:10Z</time></trkpt><trkpt lat="33.8673799" lon="132.715835"><ele>2.5433333333333334</ele><time>2022-10-19T07:43:23Z</time></trkpt><trkpt lat="33.8675654" lon="132.7158026"><ele>3.853333333333333</ele><time>2022-10-19T07:43:40Z</time></trkpt><trkpt lat="33.8677483" lon="132.7158525"><ele>6.216666666666666</ele><time>2022-10-19T07:43:54Z</time></trkpt><trkpt lat="33.8679161" lon="132.7159346"><ele>8.113333333333333</ele><time>2022-10-19T07:44:56Z</time></trkpt><trkpt lat="33.8680294" lon="132.715765"><ele>13.903333333333334</ele><time>2022-10-19T07:45:24Z</time></trkpt><trkpt lat="33.8682109" lon="132.7157307"><ele>21.5</ele><time>2022-10-19T07:46:18Z</time></trkpt><trkpt lat="33.8682904" lon="132.715534"><ele>32.06</ele><time>2022-10-19T07:47:10Z</time></trkpt><trkpt lat="33.8684018" lon="132.7153603"><ele>37.73666666666667</ele><time>2022-10-19T07:47:50Z</time></trkpt><trkpt lat="33.8685847" lon="132.7153839"><ele>40.81</ele><time>2022-10-19T07:49:31Z</time></trkpt><trkpt lat="33.8687713" lon="132.7153639"><ele>41.03666666666667</ele><time>2022-10-19T07:49:45Z</time></trkpt><trkpt lat="33.8685926" lon="132.7153244"><ele>41.080000000000005</ele><time>2022-10-19T07:50:46Z</time></trkpt><trkpt lat="33.8684224" lon="132.7154085"><ele>41.02</ele><time>2022-10-19T07:50:57Z</time></trkpt><trkpt lat="33.8683771" lon="132.7156195"><ele>40.46333333333333</ele><time>2022-10-19T07:51:42Z</time></trkpt><trkpt lat="33.8683398" lon="132.7158375"><ele>37.11333333333334</ele><time>2022-10-19T07:51:49Z</time></trkpt><trkpt lat="33.8681603" lon="132.7158856"><ele>30.14333333333333</ele><time>2022-10-19T07:52:06Z</time></trkpt><trkpt lat="33.8682217" lon="132.716094"><ele>24.19333333333334</ele><time>2022-10-19T07:52:45Z</time></trkpt><trkpt lat="33.8680482" lon="132.7160228"><ele>17.19666666666667</ele><time>2022-10-19T07:53:07Z</time></trkpt><trkpt lat="33.8678751" lon="132.7159341"><ele>13.293333333333331</ele><time>2022-10-19T07:53:17Z</time></trkpt><trkpt lat="33.8676978" lon="132.7158637"><ele>8.776666666666666</ele><time>2022-10-19T07:53:26Z</time></trkpt><trkpt lat="33.8675073" lon="132.7158025"><ele>7.026666666666666</ele><time>2022-10-19T07:53:38Z</time></trkpt><trkpt lat="33.8673297" lon="132.715737"><ele>5.336666666666667</ele><time>2022-10-19T07:53:51Z</time></trkpt><trkpt lat="33.8671553" lon="132.7156499"><ele>2.86</ele><time>2022-10-19T07:54:05Z</time></trkpt><trkpt lat="33.8670786" lon="132.7154523"><ele>1.39</ele><time>2022-10-19T07:54:19Z</time></trkpt><trkpt lat="33.8671754" lon="132.7152689"><ele>0.33666666666666667</ele><time>2022-10-19T07:54:33Z</time></trkpt><trkpt lat="33.8672553" lon="132.7150657"><ele>0.8866666666666667</ele><time>2022-10-19T07:54:46Z</time></trkpt><trkpt lat="33.867353" lon="132.7148823"><ele>2.0066666666666664</ele><time>2022-10-19T07:54:57Z</time></trkpt><trkpt lat="33.8674979" lon="132.7147294"><ele>3.25</ele><time>2022-10-19T07:55:06Z</time></trkpt><trkpt lat="33.8676706" lon="132.7146537"><ele>4.283333333333334</ele><time>2022-10-19T07:55:17Z</time></trkpt><trkpt lat="33.8678467" lon="132.7147015"><ele>5.31</ele><time>2022-10-19T07:55:48Z</time></trkpt><trkpt lat="33.8680322" lon="132.7147541"><ele>6.510000000000001</ele><time>2022-10-19T07:55:57Z</time></trkpt><trkpt lat="33.8681244" lon="132.7145671"><ele>6.943333333333334</ele><time>2022-10-19T07:56:08Z</time></trkpt><trkpt lat="33.8679853" lon="132.7144139"><ele>6.126666666666668</ele><time>2022-10-19T07:56:20Z</time></trkpt><trkpt lat="33.8678878" lon="132.7142242"><ele>4.513333333333334</ele><time>2022-10-19T07:56:35Z</time></trkpt><trkpt lat="33.8678276" lon="132.7140159"><ele>2.983333333333334</ele><time>2022-10-19T07:56:46Z</time></trkpt><trkpt lat="33.8678282" lon="132.7137885"><ele>1.96</ele><time>2022-10-19T07:56:59Z</time></trkpt><trkpt lat="33.8679694" lon="132.7136434"><ele>2.006666666666667</ele><time>2022-10-19T07:57:11Z</time></trkpt><trkpt lat="33.8680379" lon="132.7134421"><ele>2.216666666666667</ele><time>2022-10-19T07:57:27Z</time></trkpt><trkpt lat="33.8681404" lon="132.7132497"><ele>2.9800000000000004</ele><time>2022-10-19T07:57:37Z</time></trkpt><trkpt lat="33.8681732" lon="132.7130351"><ele>2.69</ele><time>2022-10-19T07:57:49Z</time></trkpt><trkpt lat="33.8681229" lon="132.7128154"><ele>2.2866666666666666</ele><time>2022-10-19T07:58:06Z</time></trkpt><trkpt lat="33.8679975" lon="132.7126548"><ele>1.39</ele><time>2022-10-19T07:58:18Z</time></trkpt><trkpt lat="33.867961" lon="132.7124413"><ele>2.3765911883720165</ele><time>2022-10-19T07:58:30Z</time></trkpt><trkpt lat="33.8679068" lon="132.7122326"><ele>2.0599245217053497</ele><time>2022-10-19T07:58:42Z</time></trkpt></trkseg></trk></gpx>