<?xml version='1.0' encoding='UTF-8'?><gpx creator="Yama Museum Summit Candidate Generator" xsi:schemaLocation="http://www.topografix.com/GPX/1/1 http://www.topografix.com/GPX/1/1/gpx.xsd" version="1.1" xmlns="http://www.topografix.com/GPX/1/1" xmlns:xsi="http://www.w3.org/2001/XMLSchema-instance" xmlns:yama="https://museum-yama-data.moukaeritai.work/ns/yama-data/0.1"><metadata><bounds maxlat="33.7547351" maxlon="133.1786203" minlat="33.7283514" minlon="133.1468581"/><name>岩黒山・筒上山・手箱山</name><extensions><yama:source_gpx_basename>yamap_2022-04-30_08_30.gpx</yama:source_gpx_basename><yama:source_gpx_relative_path>data/01_raw/gpx/2026-05-12/yamap_2022-04-30_08_30.gpx</yama:source_gpx_relative_path><yama:detection_parameters>window=5,radius=10,min_prominence=30,merge=100</yama:detection_parameters></extensions></metadata><wpt lat="33.7507578" lon="133.1571706"><ele>1749.5652002309682</ele><time>2022-04-30T00:08:01Z</time><name>summit-candidate:591204fdc01b55b6</name><desc>Summit candidate detected at elevation 1749.5652002309682m with prominence 195.7486748826252m.</desc><sym>Summit Candidate</sym><extensions><yama:source_trackpoint_index>68</yama:source_trackpoint_index><yama:valid_elevation_index>68</yama:valid_elevation_index><yama:smoothed_ele>1746.5403748782949</yama:smoothed_ele><yama:prominence>195.7486748826252</yama:prominence><yama:detection_method>local_maxima_with_prominence</yama:detection_method><yama:detection_parameters>window=5,radius=10,min_prominence=30,merge=100</yama:detection_parameters><yama:candidate_status>unresolved</yama:candidate_status></extensions></wpt>
  <wpt lat="33.732243" lon="133.160912"><ele>1863.226432016608</ele><time>2022-04-30T01:43:24Z</time><name>summit-candidate:71b10e23075edf20</name><desc>Summit candidate detected at elevation 1863.226432016608m with prominence 357.9856034235868m.</desc><sym>Summit Candidate</sym><extensions><yama:source_trackpoint_index>198</yama:source_trackpoint_index><yama:valid_elevation_index>198</yama:valid_elevation_index><yama:smoothed_ele>1862.380433997942</yama:smoothed_ele><yama:prominence>357.9856034235868</yama:prominence><yama:detection_method>local_maxima_with_prominence</yama:detection_method><yama:detection_parameters>window=5,radius=10,min_prominence=30,merge=100</yama:detection_parameters><yama:candidate_status>unresolved</yama:candidate_status></extensions></wpt>
  <wpt lat="33.7288641" lon="133.1784766"><ele>1808.4700055808014</ele><time>2022-04-30T02:49:25Z</time><name>summit-candidate:43f9d4fa36aabb79</name><desc>Summit candidate detected at elevation 1808.4700055808014m with prominence 69.33627527367207m.</desc><sym>Summit Candidate</sym><extensions><yama:source_trackpoint_index>294</yama:source_trackpoint_index><yama:valid_elevation_index>294</yama:valid_elevation_index><yama:smoothed_ele>1806.6300660595139</yama:smoothed_ele><yama:prominence>69.33627527367207</yama:prominence><yama:detection_method>local_maxima_with_prominence</yama:detection_method><yama:detection_parameters>window=5,radius=10,min_prominence=30,merge=100</yama:detection_parameters><yama:candidate_status>unresolved</yama:candidate_status></extensions></wpt>
  <wpt lat="33.7457474" lon="133.1572601"><ele>1638.4079336000111</ele><time>2022-04-30T04:12:06Z</time><name>summit-candidate:d13554ef3debca9d</name><desc>Summit candidate detected at elevation 1638.4079336000111m with prominence 76.64448412568618m.</desc><sym>Summit Candidate</sym><extensions><yama:source_trackpoint_index>470</yama:source_trackpoint_index><yama:valid_elevation_index>470</yama:valid_elevation_index><yama:smoothed_ele>1637.047941537518</yama:smoothed_ele><yama:prominence>76.64448412568618</yama:prominence><yama:detection_method>local_maxima_with_prominence</yama:detection_method><yama:detection_parameters>window=5,radius=10,min_prominence=30,merge=100</yama:detection_parameters><yama:candidate_status>unresolved</yama:candidate_status></extensions></wpt>
  <trk><name>岩黒山・筒上山・手箱山</name><number>1</number><trkseg><trkpt lat="33.7538731" lon="133.146903"><ele>1511.3393301341455</ele><time>2022-04-29T23:30:18Z</time></trkpt><trkpt lat="33.754051" lon="133.1468581"><ele>1504.0580835391888</ele><time>2022-04-29T23:30:52Z</time></trkpt><trkpt lat="33.7542126" lon="133.146965"><ele>1502.2188254700968</ele><time>2022-04-29T23:31:05Z</time></trkpt><trkpt lat="33.7543737" lon="133.1470622"><ele>1498.555013371303</ele><time>2022-04-29T23:31:19Z</time></trkpt><trkpt lat="33.7545214" lon="133.147192"><ele>1498.6764821348072</ele><time>2022-04-29T23:31:32Z</time></trkpt><trkpt lat="33.7546603" lon="133.1473304"><ele>1500.1454795240807</ele><time>2022-04-29T23:31:44Z</time></trkpt><trkpt lat="33.7546559" lon="133.1475554"><ele>1498.4531543187688</ele><time>2022-04-29T23:32:03Z</time></trkpt><trkpt lat="33.7544661" lon="133.1475188"><ele>1501.5813779443317</ele><time>2022-04-29T23:32:18Z</time></trkpt><trkpt lat="33.7542856" lon="133.1475794"><ele>1507.6196249524876</ele><time>2022-04-29T23:33:45Z</time></trkpt><trkpt lat="33.7541637" lon="133.1477395"><ele>1515.1151543305525</ele><time>2022-04-29T23:33:54Z</time></trkpt><trkpt lat="33.7543058" lon="133.1478806"><ele>1521.026313754716</ele><time>2022-04-29T23:34:54Z</time></trkpt><trkpt lat="33.7544815" lon="133.1479493"><ele>1523.3330902888993</ele><time>2022-04-29T23:35:31Z</time></trkpt><trkpt lat="33.7544672" lon="133.1481665"><ele>1529.6231158663925</ele><time>2022-04-29T23:39:55Z</time></trkpt><trkpt lat="33.7545608" lon="133.1483559"><ele>1534.8538896612843</ele><time>2022-04-29T23:40:10Z</time></trkpt><trkpt lat="33.7546421" lon="133.1485571"><ele>1539.5709138183963</ele><time>2022-04-29T23:40:22Z</time></trkpt><trkpt lat="33.7546951" lon="133.1487662"><ele>1542.1423956478186</ele><time>2022-04-29T23:40:34Z</time></trkpt><trkpt lat="33.7547351" lon="133.1489807"><ele>1544.5640365702573</ele><time>2022-04-29T23:40:50Z</time></trkpt><trkpt lat="33.7545646" lon="133.1490542"><ele>1549.4675398414304</ele><time>2022-04-29T23:41:54Z</time></trkpt><trkpt lat="33.7544873" lon="133.1492506"><ele>1554.4254494579807</ele><time>2022-04-29T23:42:11Z</time></trkpt><trkpt lat="33.7545117" lon="133.1494691"><ele>1561.4833697887561</ele><time>2022-04-29T23:43:10Z</time></trkpt><trkpt lat="33.7543458" lon="133.1493809"><ele>1568.234857708486</ele><time>2022-04-29T23:43:52Z</time></trkpt><trkpt lat="33.7542109" lon="133.1495291"><ele>1576.0091770249367</ele><time>2022-04-29T23:44:12Z</time></trkpt><trkpt lat="33.7541161" lon="133.1497196"><ele>1582.272075456994</ele><time>2022-04-29T23:44:38Z</time></trkpt><trkpt lat="33.754" lon="133.1498872"><ele>1587.1368445165979</ele><time>2022-04-29T23:44:56Z</time></trkpt><trkpt lat="33.7538891" lon="133.1497126"><ele>1593.7298075782794</ele><time>2022-04-29T23:45:52Z</time></trkpt><trkpt lat="33.7538624" lon="133.1494982"><ele>1599.856508362781</ele><time>2022-04-29T23:46:10Z</time></trkpt><trkpt lat="33.7537222" lon="133.1493603"><ele>1606.6473818859802</ele><time>2022-04-29T23:46:46Z</time></trkpt><trkpt lat="33.7536964" lon="133.1495761"><ele>1611.1729699820505</ele><time>2022-04-29T23:47:15Z</time></trkpt><trkpt lat="33.7536242" lon="133.149776"><ele>1616.6968848627255</ele><time>2022-04-29T23:47:40Z</time></trkpt><trkpt lat="33.7536297" lon="133.1499953"><ele>1622.7970091745071</ele><time>2022-04-29T23:48:23Z</time></trkpt><trkpt lat="33.7534754" lon="133.1501085"><ele>1632.11664485459</ele><time>2022-04-29T23:49:24Z</time></trkpt><trkpt lat="33.7533483" lon="133.1502635"><ele>1641.4749572255957</ele><time>2022-04-29T23:50:07Z</time></trkpt><trkpt lat="33.7533188" lon="133.1504805"><ele>1647.4961495751538</ele><time>2022-04-29T23:50:21Z</time></trkpt><trkpt lat="33.7532119" lon="133.150655"><ele>1649.2182926491857</ele><time>2022-04-29T23:50:31Z</time></trkpt><trkpt lat="33.753183" lon="133.150878"><ele>1649.2482280004144</ele><time>2022-04-29T23:50:48Z</time></trkpt><trkpt lat="33.7532195" lon="133.1510952"><ele>1649.8058538397124</ele><time>2022-04-29T23:51:01Z</time></trkpt><trkpt lat="33.7532217" lon="133.151318"><ele>1649.1379291828882</ele><time>2022-04-29T23:51:15Z</time></trkpt><trkpt lat="33.7531629" lon="133.1515322"><ele>1649.0344734493874</ele><time>2022-04-29T23:51:29Z</time></trkpt><trkpt lat="33.7530425" lon="133.151713"><ele>1649.3847176177667</ele><time>2022-04-29T23:51:49Z</time></trkpt><trkpt lat="33.7528917" lon="133.1518323"><ele>1652.5863578762721</ele><time>2022-04-29T23:52:09Z</time></trkpt><trkpt lat="33.7527569" lon="133.1519787"><ele>1656.126778624702</ele><time>2022-04-29T23:52:30Z</time></trkpt><trkpt lat="33.7526507" lon="133.1521551"><ele>1660.5771755419448</ele><time>2022-04-29T23:52:51Z</time></trkpt><trkpt lat="33.7524933" lon="133.1522722"><ele>1663.9505753670974</ele><time>2022-04-29T23:53:10Z</time></trkpt><trkpt lat="33.7523689" lon="133.1524353"><ele>1667.7325015158915</ele><time>2022-04-29T23:53:30Z</time></trkpt><trkpt lat="33.7524714" lon="133.1526137"><ele>1667.255968494902</ele><time>2022-04-29T23:54:15Z</time></trkpt><trkpt lat="33.7524043" lon="133.1528192"><ele>1664.4006457659452</ele><time>2022-04-29T23:54:30Z</time></trkpt><trkpt lat="33.752353" lon="133.1530269"><ele>1657.905091544789</ele><time>2022-04-29T23:54:58Z</time></trkpt><trkpt lat="33.7523058" lon="133.1532363"><ele>1653.7282654398457</ele><time>2022-04-29T23:55:17Z</time></trkpt><trkpt lat="33.7523254" lon="133.1534533"><ele>1650.0396807094442</ele><time>2022-04-29T23:55:35Z</time></trkpt><trkpt lat="33.7522649" lon="133.1536624"><ele>1650.2745257554714</ele><time>2022-04-29T23:55:55Z</time></trkpt><trkpt lat="33.7522525" lon="133.1538794"><ele>1656.5933420934714</ele><time>2022-04-29T23:57:02Z</time></trkpt><trkpt lat="33.7520992" lon="133.1539967"><ele>1667.6716751553574</ele><time>2022-04-29T23:58:05Z</time></trkpt><trkpt lat="33.7521025" lon="133.1542293"><ele>1679.025177605741</ele><time>2022-04-29T23:58:52Z</time></trkpt><trkpt lat="33.752047" lon="133.1544385"><ele>1685.9513393611396</ele><time>2022-04-29T23:59:09Z</time></trkpt><trkpt lat="33.7519695" lon="133.15464"><ele>1689.9021728601408</ele><time>2022-04-29T23:59:24Z</time></trkpt><trkpt lat="33.7518012" lon="133.1547187"><ele>1692.201779201947</ele><time>2022-04-29T23:59:45Z</time></trkpt><trkpt lat="33.7516274" lon="133.1547887"><ele>1694.290361849268</ele><time>2022-04-30T00:00:10Z</time></trkpt><trkpt lat="33.7515441" lon="133.1549853"><ele>1698.145809148489</ele><time>2022-04-30T00:00:49Z</time></trkpt><trkpt lat="33.7515151" lon="133.1552023"><ele>1705.2074751783096</ele><time>2022-04-30T00:01:44Z</time></trkpt><trkpt lat="33.7514756" lon="133.1554172"><ele>1713.0998948027952</ele><time>2022-04-30T00:02:12Z</time></trkpt><trkpt lat="33.7513908" lon="133.1556104"><ele>1720.1236793655014</ele><time>2022-04-30T00:02:42Z</time></trkpt><trkpt lat="33.7513364" lon="133.1558171"><ele>1724.8741681555302</ele><time>2022-04-30T00:03:20Z</time></trkpt><trkpt lat="33.7512399" lon="133.1560042"><ele>1729.8450142540898</ele><time>2022-04-30T00:03:48Z</time></trkpt><trkpt lat="33.7511077" lon="133.1561576"><ele>1733.5894974148678</ele><time>2022-04-30T00:04:05Z</time></trkpt><trkpt lat="33.751023" lon="133.1563561"><ele>1736.7833911241094</ele><time>2022-04-30T00:04:44Z</time></trkpt><trkpt lat="33.7509751" lon="133.1565666"><ele>1739.3195703790127</ele><time>2022-04-30T00:05:10Z</time></trkpt><trkpt lat="33.7509081" lon="133.1567684"><ele>1743.612488419734</ele><time>2022-04-30T00:06:00Z</time></trkpt><trkpt lat="33.7508003" lon="133.1569552"><ele>1748.0641150920146</ele><time>2022-04-30T00:06:13Z</time></trkpt><trkpt lat="33.7507578" lon="133.1571706"><ele>1749.5652002309682</ele><time>2022-04-30T00:08:01Z</time></trkpt><trkpt lat="33.7506996" lon="133.1573812"><ele>1747.814757675986</ele><time>2022-04-30T00:08:13Z</time></trkpt><trkpt lat="33.7505825" lon="133.1575535"><ele>1743.6453129727718</ele><time>2022-04-30T00:08:28Z</time></trkpt><trkpt lat="33.7504181" lon="133.1576487"><ele>1741.0605291860877</ele><time>2022-04-30T00:08:45Z</time></trkpt><trkpt lat="33.7503129" lon="133.1578328"><ele>1736.9855448569879</ele><time>2022-04-30T00:09:01Z</time></trkpt><trkpt lat="33.7501863" lon="133.1579905"><ele>1732.2385255937027</ele><time>2022-04-30T00:09:26Z</time></trkpt><trkpt lat="33.7500432" lon="133.157855"><ele>1722.5833324317464</ele><time>2022-04-30T00:10:15Z</time></trkpt><trkpt lat="33.749895" lon="133.1579904"><ele>1713.7341298839199</ele><time>2022-04-30T00:10:33Z</time></trkpt><trkpt lat="33.7497163" lon="133.1579415"><ele>1701.2092960202417</ele><time>2022-04-30T00:11:49Z</time></trkpt><trkpt lat="33.7495642" lon="133.1580647"><ele>1690.5861995288687</ele><time>2022-04-30T00:12:34Z</time></trkpt><trkpt lat="33.7494494" lon="133.1582336"><ele>1679.6133020411125</ele><time>2022-04-30T00:12:54Z</time></trkpt><trkpt lat="33.7492678" lon="133.1582571"><ele>1671.6100281911247</ele><time>2022-04-30T00:13:28Z</time></trkpt><trkpt lat="33.7490869" lon="133.1582312"><ele>1664.7505486077519</ele><time>2022-04-30T00:13:48Z</time></trkpt><trkpt lat="33.7489051" lon="133.1582486"><ele>1659.0332700802182</ele><time>2022-04-30T00:14:12Z</time></trkpt><trkpt lat="33.7487268" lon="133.1583075"><ele>1653.5121258715842</ele><time>2022-04-30T00:14:35Z</time></trkpt><trkpt lat="33.7485399" lon="133.1582816"><ele>1650.0436438403601</ele><time>2022-04-30T00:14:55Z</time></trkpt><trkpt lat="33.7483613" lon="133.1583164"><ele>1648.9550821492414</ele><time>2022-04-30T00:15:12Z</time></trkpt><trkpt lat="33.7481787" lon="133.158306"><ele>1651.1414119767403</ele><time>2022-04-30T00:15:36Z</time></trkpt><trkpt lat="33.748027" lon="133.1584232"><ele>1653.7147969566902</ele><time>2022-04-30T00:16:12Z</time></trkpt><trkpt lat="33.7478641" lon="133.1583269"><ele>1656.443873511156</ele><time>2022-04-30T00:16:38Z</time></trkpt><trkpt lat="33.747678" lon="133.1583389"><ele>1660.6276222333338</ele><time>2022-04-30T00:17:15Z</time></trkpt><trkpt lat="33.7475224" lon="133.1584742"><ele>1664.2173692441763</ele><time>2022-04-30T00:17:31Z</time></trkpt><trkpt lat="33.7473409" lon="133.158475"><ele>1666.589401203905</ele><time>2022-04-30T00:17:46Z</time></trkpt><trkpt lat="33.7471637" lon="133.1584345"><ele>1666.897640258986</ele><time>2022-04-30T00:18:13Z</time></trkpt><trkpt lat="33.746983" lon="133.158458"><ele>1666.8735293304835</ele><time>2022-04-30T00:18:33Z</time></trkpt><trkpt lat="33.7468015" lon="133.1584129"><ele>1667.120041896028</ele><time>2022-04-30T00:18:47Z</time></trkpt><trkpt lat="33.7466201" lon="133.1583936"><ele>1668.643740179247</ele><time>2022-04-30T00:19:17Z</time></trkpt><trkpt lat="33.7464689" lon="133.1582686"><ele>1669.212026109815</ele><time>2022-04-30T00:19:46Z</time></trkpt><trkpt lat="33.7463731" lon="133.1580725"><ele>1669.1562621882124</ele><time>2022-04-30T00:20:07Z</time></trkpt><trkpt lat="33.7462446" lon="133.1579189"><ele>1667.5201968172676</ele><time>2022-04-30T00:20:28Z</time></trkpt><trkpt lat="33.7461147" lon="133.157766"><ele>1666.0243576439825</ele><time>2022-04-30T00:21:01Z</time></trkpt><trkpt lat="33.7459485" lon="133.1576718"><ele>1662.8707087504824</ele><time>2022-04-30T00:21:20Z</time></trkpt><trkpt lat="33.7457915" lon="133.1575643"><ele>1657.144409632648</ele><time>2022-04-30T00:21:34Z</time></trkpt><trkpt lat="33.7456766" lon="133.1573955"><ele>1650.361307830819</ele><time>2022-04-30T00:21:55Z</time></trkpt><trkpt lat="33.7455117" lon="133.1573038"><ele>1643.069432374303</ele><time>2022-04-30T00:22:19Z</time></trkpt><trkpt lat="33.7453371" lon="133.1572397"><ele>1638.693376858947</ele><time>2022-04-30T00:25:52Z</time></trkpt><trkpt lat="33.7452203" lon="133.1570135"><ele>1641.0145768854807</ele><time>2022-04-30T00:26:44Z</time></trkpt><trkpt lat="33.7450683" lon="133.1568955"><ele>1645.0402496109493</ele><time>2022-04-30T00:26:52Z</time></trkpt><trkpt lat="33.7451023" lon="133.1566436"><ele>1648.0883083215476</ele><time>2022-04-30T00:27:22Z</time></trkpt><trkpt lat="33.7450911" lon="133.1568646"><ele>1647.3584463965783</ele><time>2022-04-30T00:28:17Z</time></trkpt><trkpt lat="33.7451723" lon="133.1570715"><ele>1646.0857904101904</ele><time>2022-04-30T00:28:34Z</time></trkpt><trkpt lat="33.745354" lon="133.1571348"><ele>1643.7636756734728</ele><time>2022-04-30T00:28:54Z</time></trkpt><trkpt lat="33.7454718" lon="133.1573102"><ele>1638.55123838635</ele><time>2022-04-30T00:30:37Z</time></trkpt><trkpt lat="33.7455551" lon="133.1575084"><ele>1633.9514659308213</ele><time>2022-04-30T00:30:49Z</time></trkpt><trkpt lat="33.7454413" lon="133.1576766"><ele>1629.5507471356566</ele><time>2022-04-30T00:31:18Z</time></trkpt><trkpt lat="33.7453254" lon="133.1578533"><ele>1625.3006842136558</ele><time>2022-04-30T00:31:39Z</time></trkpt><trkpt lat="33.7451872" lon="133.1580172"><ele>1619.6312178049677</ele><time>2022-04-30T00:31:48Z</time></trkpt><trkpt lat="33.7449597" lon="133.1582417"><ele>1613.5835335626123</ele><time>2022-04-30T00:32:29Z</time></trkpt><trkpt lat="33.7447775" lon="133.1582581"><ele>1611.5433639024716</ele><time>2022-04-30T00:32:49Z</time></trkpt><trkpt lat="33.7445935" lon="133.1582997"><ele>1611.2872773484207</ele><time>2022-04-30T00:33:03Z</time></trkpt><trkpt lat="33.7444303" lon="133.1583975"><ele>1611.6983980023772</ele><time>2022-04-30T00:33:19Z</time></trkpt><trkpt lat="33.7443901" lon="133.1586118"><ele>1608.7983080221077</ele><time>2022-04-30T00:33:45Z</time></trkpt><trkpt lat="33.7442209" lon="133.1587074"><ele>1604.1792884105662</ele><time>2022-04-30T00:34:26Z</time></trkpt><trkpt lat="33.7441043" lon="133.1588746"><ele>1599.118432654739</ele><time>2022-04-30T00:34:50Z</time></trkpt><trkpt lat="33.7439299" lon="133.1589472"><ele>1592.8139331793961</ele><time>2022-04-30T00:35:31Z</time></trkpt><trkpt lat="33.7437619" lon="133.1590308"><ele>1584.2858388095472</ele><time>2022-04-30T00:36:13Z</time></trkpt><trkpt lat="33.7437271" lon="133.1592468"><ele>1576.7425867021163</ele><time>2022-04-30T00:37:46Z</time></trkpt><trkpt lat="33.7436644" lon="133.1594513"><ele>1571.9342717557508</ele><time>2022-04-30T00:39:36Z</time></trkpt><trkpt lat="33.7434774" lon="133.1594088"><ele>1570.2508411612077</ele><time>2022-04-30T00:40:54Z</time></trkpt><trkpt lat="33.7432936" lon="133.1594343"><ele>1567.080402543832</ele><time>2022-04-30T00:43:06Z</time></trkpt><trkpt lat="33.7431123" lon="133.1593745"><ele>1562.7199886170126</ele><time>2022-04-30T00:43:19Z</time></trkpt><trkpt lat="33.7429389" lon="133.1594397"><ele>1558.5055931218785</ele><time>2022-04-30T00:44:49Z</time></trkpt><trkpt lat="33.7427611" lon="133.1594931"><ele>1556.4624744281373</ele><time>2022-04-30T00:45:02Z</time></trkpt><trkpt lat="33.7425983" lon="133.1593765"><ele>1553.6924202347561</ele><time>2022-04-30T00:45:28Z</time></trkpt><trkpt lat="33.7424137" lon="133.1593452"><ele>1551.7540950068487</ele><time>2022-04-30T00:45:43Z</time></trkpt><trkpt lat="33.7422332" lon="133.1593776"><ele>1549.538967356433</ele><time>2022-04-30T00:46:03Z</time></trkpt><trkpt lat="33.7420739" lon="133.1594884"><ele>1549.5387100936703</ele><time>2022-04-30T00:46:18Z</time></trkpt><trkpt lat="33.7419168" lon="133.1596132"><ele>1550.6691214952723</ele><time>2022-04-30T00:46:39Z</time></trkpt><trkpt lat="33.7417407" lon="133.1595516"><ele>1552.4576060261234</ele><time>2022-04-30T00:46:51Z</time></trkpt><trkpt lat="33.7419014" lon="133.1594423"><ele>1554.0460757554708</ele><time>2022-04-30T00:47:53Z</time></trkpt><trkpt lat="33.7420825" lon="133.1594094"><ele>1554.7746520218643</ele><time>2022-04-30T00:48:09Z</time></trkpt><trkpt lat="33.7422264" lon="133.1592742"><ele>1553.5678594809515</ele><time>2022-04-30T00:48:29Z</time></trkpt><trkpt lat="33.7420096" lon="133.1593126"><ele>1554.3924708844818</ele><time>2022-04-30T00:53:38Z</time></trkpt><trkpt lat="33.7418285" lon="133.1593563"><ele>1556.7403332038105</ele><time>2022-04-30T00:54:06Z</time></trkpt><trkpt lat="33.7416823" lon="133.1592253"><ele>1561.98696244789</ele><time>2022-04-30T00:54:21Z</time></trkpt><trkpt lat="33.7414838" lon="133.1592468"><ele>1565.5717503096896</ele><time>2022-04-30T00:54:53Z</time></trkpt><trkpt lat="33.7413116" lon="133.1591801"><ele>1570.8668182564795</ele><time>2022-04-30T00:55:28Z</time></trkpt><trkpt lat="33.7411627" lon="133.1590571"><ele>1576.5842438902353</ele><time>2022-04-30T00:55:49Z</time></trkpt><trkpt lat="33.7409837" lon="133.1590091"><ele>1585.5267050106495</ele><time>2022-04-30T00:57:11Z</time></trkpt><trkpt lat="33.7408007" lon="133.1589808"><ele>1590.3225850837036</ele><time>2022-04-30T00:57:35Z</time></trkpt><trkpt lat="33.7406354" lon="133.1590742"><ele>1593.0613166249966</ele><time>2022-04-30T00:57:49Z</time></trkpt><trkpt lat="33.7404881" lon="133.159209"><ele>1592.055979310119</ele><time>2022-04-30T00:58:18Z</time></trkpt><trkpt lat="33.7403014" lon="133.1592139"><ele>1593.6591816448345</ele><time>2022-04-30T00:58:46Z</time></trkpt><trkpt lat="33.7401372" lon="133.1593089"><ele>1594.641607719048</ele><time>2022-04-30T00:59:03Z</time></trkpt><trkpt lat="33.7399943" lon="133.1594624"><ele>1596.7477868504827</ele><time>2022-04-30T00:59:40Z</time></trkpt><trkpt lat="33.7398412" lon="133.159584"><ele>1597.9693760569232</ele><time>2022-04-30T01:00:19Z</time></trkpt><trkpt lat="33.7396565" lon="133.1595709"><ele>1600.7298472040466</ele><time>2022-04-30T01:00:41Z</time></trkpt><trkpt lat="33.7394686" lon="133.1595236"><ele>1604.1941340735277</ele><time>2022-04-30T01:00:57Z</time></trkpt><trkpt lat="33.7392926" lon="133.1595909"><ele>1606.9795658361836</ele><time>2022-04-30T01:01:13Z</time></trkpt><trkpt lat="33.7391319" lon="133.1594914"><ele>1611.9829179275685</ele><time>2022-04-30T01:01:57Z</time></trkpt><trkpt lat="33.7389534" lon="133.1594589"><ele>1618.3161047699148</ele><time>2022-04-30T01:03:31Z</time></trkpt><trkpt lat="33.7387751" lon="133.1593996"><ele>1627.4666132052341</ele><time>2022-04-30T01:04:02Z</time></trkpt><trkpt lat="33.7386006" lon="133.1593395"><ele>1636.4170069097752</ele><time>2022-04-30T01:04:35Z</time></trkpt><trkpt lat="33.7384233" lon="133.1592697"><ele>1644.7120536130533</ele><time>2022-04-30T01:06:21Z</time></trkpt><trkpt lat="33.7382453" lon="133.1592248"><ele>1650.61282832661</ele><time>2022-04-30T01:06:40Z</time></trkpt><trkpt lat="33.7380571" lon="133.1591906"><ele>1655.8507134594163</ele><time>2022-04-30T01:07:00Z</time></trkpt><trkpt lat="33.7378758" lon="133.1592188"><ele>1663.8962913956611</ele><time>2022-04-30T01:08:28Z</time></trkpt><trkpt lat="33.7377025" lon="133.1591567"><ele>1676.29396785846</ele><time>2022-04-30T01:10:16Z</time></trkpt><trkpt lat="33.737521" lon="133.1591365"><ele>1690.9781504700832</ele><time>2022-04-30T01:11:19Z</time></trkpt><trkpt lat="33.7373411" lon="133.159209"><ele>1700.7812519136723</ele><time>2022-04-30T01:11:47Z</time></trkpt><trkpt lat="33.7371683" lon="133.1592823"><ele>1705.6460201801183</ele><time>2022-04-30T01:12:09Z</time></trkpt><trkpt lat="33.7369889" lon="133.1593135"><ele>1709.0781729592084</ele><time>2022-04-30T01:12:50Z</time></trkpt><trkpt lat="33.7368082" lon="133.1593357"><ele>1711.9997142155225</ele><time>2022-04-30T01:13:56Z</time></trkpt><trkpt lat="33.7366377" lon="133.1594115"><ele>1717.7108086269436</ele><time>2022-04-30T01:14:25Z</time></trkpt><trkpt lat="33.7364621" lon="133.1593518"><ele>1721.48111904493</ele><time>2022-04-30T01:15:07Z</time></trkpt><trkpt lat="33.7362883" lon="133.1594108"><ele>1726.2363623959343</ele><time>2022-04-30T01:15:41Z</time></trkpt><trkpt lat="33.7361116" lon="133.1593568"><ele>1728.705325085166</ele><time>2022-04-30T01:16:08Z</time></trkpt><trkpt lat="33.7359295" lon="133.1594178"><ele>1729.797424506806</ele><time>2022-04-30T01:16:27Z</time></trkpt><trkpt lat="33.7357504" lon="133.1593923"><ele>1737.0181863227806</ele><time>2022-04-30T01:18:54Z</time></trkpt><trkpt lat="33.7355689" lon="133.1593486"><ele>1743.5674482053103</ele><time>2022-04-30T01:19:08Z</time></trkpt><trkpt lat="33.7353875" lon="133.1593855"><ele>1750.576695993933</ele><time>2022-04-30T01:19:29Z</time></trkpt><trkpt lat="33.7352133" lon="133.1593097"><ele>1751.231981093985</ele><time>2022-04-30T01:19:53Z</time></trkpt><trkpt lat="33.7350331" lon="133.1593297"><ele>1754.8984602822522</ele><time>2022-04-30T01:21:21Z</time></trkpt><trkpt lat="33.7348718" lon="133.1594381"><ele>1760.4934048434607</ele><time>2022-04-30T01:21:41Z</time></trkpt><trkpt lat="33.7346898" lon="133.1594643"><ele>1766.132504520102</ele><time>2022-04-30T01:22:38Z</time></trkpt><trkpt lat="33.7345064" lon="133.1594738"><ele>1773.5416280662282</ele><time>2022-04-30T01:24:03Z</time></trkpt><trkpt lat="33.7343329" lon="133.1595373"><ele>1781.7743021111644</ele><time>2022-04-30T01:24:26Z</time></trkpt><trkpt lat="33.7341117" lon="133.159519"><ele>1790.7108563253016</ele><time>2022-04-30T01:25:21Z</time></trkpt><trkpt lat="33.7339366" lon="133.1594661"><ele>1800.8112889803945</ele><time>2022-04-30T01:27:23Z</time></trkpt><trkpt lat="33.7337559" lon="133.1594803"><ele>1812.162969423012</ele><time>2022-04-30T01:28:52Z</time></trkpt><trkpt lat="33.7336314" lon="133.1596471"><ele>1823.0022502356326</ele><time>2022-04-30T01:30:18Z</time></trkpt><trkpt lat="33.7335024" lon="133.1597998"><ele>1831.931854360563</ele><time>2022-04-30T01:31:24Z</time></trkpt><trkpt lat="33.7333859" lon="133.1599723"><ele>1839.6489540958955</ele><time>2022-04-30T01:32:14Z</time></trkpt><trkpt lat="33.7332799" lon="133.1601504"><ele>1847.5425421318832</ele><time>2022-04-30T01:32:56Z</time></trkpt><trkpt lat="33.7331404" lon="133.1602879"><ele>1851.5932076178435</ele><time>2022-04-30T01:33:51Z</time></trkpt><trkpt lat="33.7329788" lon="133.1604197"><ele>1853.4748558708707</ele><time>2022-04-30T01:34:07Z</time></trkpt><trkpt lat="33.732838" lon="133.1605559"><ele>1856.1053255643421</ele><time>2022-04-30T01:34:35Z</time></trkpt><trkpt lat="33.7327498" lon="133.1607499"><ele>1859.0170162809761</ele><time>2022-04-30T01:35:08Z</time></trkpt><trkpt lat="33.7325945" lon="133.1608635"><ele>1862.212915610817</ele><time>2022-04-30T01:42:55Z</time></trkpt><trkpt lat="33.7324273" lon="133.1609456"><ele>1863.0026729360618</ele><time>2022-04-30T01:43:07Z</time></trkpt><trkpt lat="33.732243" lon="133.160912"><ele>1863.226432016608</ele><time>2022-04-30T01:43:24Z</time></trkpt><trkpt lat="33.7320652" lon="133.1608702"><ele>1862.8103193724971</ele><time>2022-04-30T01:43:43Z</time></trkpt><trkpt lat="33.7319007" lon="133.1609808"><ele>1860.6498300537241</ele><time>2022-04-30T01:44:39Z</time></trkpt><trkpt lat="33.731718" lon="133.1610752"><ele>1858.2713269063418</ele><time>2022-04-30T01:44:50Z</time></trkpt><trkpt lat="33.7315441" lon="133.161135"><ele>1855.7801084954197</ele><time>2022-04-30T01:45:04Z</time></trkpt><trkpt lat="33.7315371" lon="133.1613573"><ele>1854.6510804048685</ele><time>2022-04-30T01:45:43Z</time></trkpt><trkpt lat="33.7314111" lon="133.1615262"><ele>1852.6478116725877</ele><time>2022-04-30T01:46:16Z</time></trkpt><trkpt lat="33.7313595" lon="133.1617359"><ele>1849.184928346361</ele><time>2022-04-30T01:46:32Z</time></trkpt><trkpt lat="33.731197" lon="133.1618683"><ele>1845.5945988632338</ele><time>2022-04-30T01:46:52Z</time></trkpt><trkpt lat="33.73114" lon="133.1620947"><ele>1839.6236428094846</ele><time>2022-04-30T01:47:52Z</time></trkpt><trkpt lat="33.7310774" lon="133.1623005"><ele>1833.8510789302309</ele><time>2022-04-30T01:48:06Z</time></trkpt><trkpt lat="33.7309686" lon="133.1624832"><ele>1828.337377284206</ele><time>2022-04-30T01:48:25Z</time></trkpt><trkpt lat="33.7309713" lon="133.1627018"><ele>1825.7468571292911</ele><time>2022-04-30T01:48:47Z</time></trkpt><trkpt lat="33.7309694" lon="133.1629187"><ele>1818.9906868002581</ele><time>2022-04-30T01:50:57Z</time></trkpt><trkpt lat="33.7310032" lon="133.1631321"><ele>1805.1990100378882</ele><time>2022-04-30T01:55:18Z</time></trkpt><trkpt lat="33.7308983" lon="133.1633083"><ele>1784.702650778837</ele><time>2022-04-30T01:57:52Z</time></trkpt><trkpt lat="33.7307995" lon="133.1634931"><ele>1764.8944762795534</ele><time>2022-04-30T01:58:39Z</time></trkpt><trkpt lat="33.7307111" lon="133.1636992"><ele>1751.177429860796</ele><time>2022-04-30T01:58:56Z</time></trkpt><trkpt lat="33.7305779" lon="133.1638754"><ele>1743.2580608341038</ele><time>2022-04-30T01:59:11Z</time></trkpt><trkpt lat="33.730465" lon="133.1640737"><ele>1737.4759585511783</ele><time>2022-04-30T01:59:56Z</time></trkpt><trkpt lat="33.7303571" lon="133.1642526"><ele>1733.0062504978143</ele><time>2022-04-30T02:00:54Z</time></trkpt><trkpt lat="33.7302908" lon="133.1644533"><ele>1734.513455927643</ele><time>2022-04-30T02:02:16Z</time></trkpt><trkpt lat="33.7301071" lon="133.1644859"><ele>1738.3120235981696</ele><time>2022-04-30T02:02:43Z</time></trkpt><trkpt lat="33.7300118" lon="133.164691"><ele>1743.1612653544032</ele><time>2022-04-30T02:02:57Z</time></trkpt><trkpt lat="33.7300027" lon="133.1649109"><ele>1744.5035332543976</ele><time>2022-04-30T02:03:15Z</time></trkpt><trkpt lat="33.7300583" lon="133.1651228"><ele>1746.918590067251</ele><time>2022-04-30T02:03:42Z</time></trkpt><trkpt lat="33.730086" lon="133.1653389"><ele>1749.0628616711604</ele><time>2022-04-30T02:04:26Z</time></trkpt><trkpt lat="33.7300643" lon="133.1655592"><ele>1751.3283662884514</ele><time>2022-04-30T02:04:43Z</time></trkpt><trkpt lat="33.729899" lon="133.1656563"><ele>1753.6953008617165</ele><time>2022-04-30T02:05:26Z</time></trkpt><trkpt lat="33.729727" lon="133.1657405"><ele>1755.6441910996261</ele><time>2022-04-30T02:05:39Z</time></trkpt><trkpt lat="33.7296918" lon="133.1659591"><ele>1757.3096859927518</ele><time>2022-04-30T02:06:08Z</time></trkpt><trkpt lat="33.7296075" lon="133.1661544"><ele>1758.5826340399324</ele><time>2022-04-30T02:06:29Z</time></trkpt><trkpt lat="33.7296421" lon="133.1663686"><ele>1756.8825735854618</ele><time>2022-04-30T02:06:49Z</time></trkpt><trkpt lat="33.729465" lon="133.1664468"><ele>1758.6264284367855</ele><time>2022-04-30T02:07:23Z</time></trkpt><trkpt lat="33.729282" lon="133.1664743"><ele>1760.243379784488</ele><time>2022-04-30T02:07:36Z</time></trkpt><trkpt lat="33.729157" lon="133.166636"><ele>1765.0027712841463</ele><time>2022-04-30T02:07:51Z</time></trkpt><trkpt lat="33.7290747" lon="133.1668298"><ele>1766.408840359487</ele><time>2022-04-30T02:08:21Z</time></trkpt><trkpt lat="33.7291304" lon="133.1670359"><ele>1768.195098967052</ele><time>2022-04-30T02:09:13Z</time></trkpt><trkpt lat="33.7292085" lon="133.1672307"><ele>1771.1029217402286</ele><time>2022-04-30T02:09:30Z</time></trkpt><trkpt lat="33.7293067" lon="133.1674141"><ele>1774.0904082668605</ele><time>2022-04-30T02:09:52Z</time></trkpt><trkpt lat="33.7292706" lon="133.1676261"><ele>1777.206343558978</ele><time>2022-04-30T02:10:09Z</time></trkpt><trkpt lat="33.7292913" lon="133.167848"><ele>1779.6716600624065</ele><time>2022-04-30T02:10:27Z</time></trkpt><trkpt lat="33.7291238" lon="133.1679294"><ele>1782.0503175646834</ele><time>2022-04-30T02:10:41Z</time></trkpt><trkpt lat="33.7290307" lon="133.1681388"><ele>1783.115701953561</ele><time>2022-04-30T02:10:58Z</time></trkpt><trkpt lat="33.7289386" lon="133.1683285"><ele>1783.2737897486213</ele><time>2022-04-30T02:11:33Z</time></trkpt><trkpt lat="33.7288648" lon="133.1685526"><ele>1783.7445719961095</ele><time>2022-04-30T02:11:46Z</time></trkpt><trkpt lat="33.7287451" lon="133.1687197"><ele>1785.4229646771691</ele><time>2022-04-30T02:12:11Z</time></trkpt><trkpt lat="33.728654" lon="133.168911"><ele>1787.845435015038</ele><time>2022-04-30T02:12:22Z</time></trkpt><trkpt lat="33.7286353" lon="133.1691363"><ele>1789.0423284470978</ele><time>2022-04-30T02:12:35Z</time></trkpt><trkpt lat="33.7286357" lon="133.1693603"><ele>1786.7009407017622</ele><time>2022-04-30T02:12:50Z</time></trkpt><trkpt lat="33.7287235" lon="133.1695527"><ele>1784.8180737360553</ele><time>2022-04-30T02:13:07Z</time></trkpt><trkpt lat="33.7287796" lon="133.16976"><ele>1782.645795663435</ele><time>2022-04-30T02:13:27Z</time></trkpt><trkpt lat="33.7287909" lon="133.1699755"><ele>1783.3497964567932</ele><time>2022-04-30T02:13:44Z</time></trkpt><trkpt lat="33.7287036" lon="133.1701645"><ele>1784.5749432197551</ele><time>2022-04-30T02:14:06Z</time></trkpt><trkpt lat="33.7287767" lon="133.1703639"><ele>1787.5332423943855</ele><time>2022-04-30T02:14:32Z</time></trkpt><trkpt lat="33.7287682" lon="133.1705965"><ele>1790.0468038853298</ele><time>2022-04-30T02:14:52Z</time></trkpt><trkpt lat="33.728758" lon="133.1708122"><ele>1791.4231343334886</ele><time>2022-04-30T02:15:07Z</time></trkpt><trkpt lat="33.7287279" lon="133.1710295"><ele>1791.358354797244</ele><time>2022-04-30T02:15:25Z</time></trkpt><trkpt lat="33.7287172" lon="133.171246"><ele>1790.937737962381</ele><time>2022-04-30T02:15:46Z</time></trkpt><trkpt lat="33.7286865" lon="133.1714622"><ele>1791.4724336098827</ele><time>2022-04-30T02:16:07Z</time></trkpt><trkpt lat="33.7286169" lon="133.1716696"><ele>1790.7871110405301</ele><time>2022-04-30T02:16:51Z</time></trkpt><trkpt lat="33.7286357" lon="133.1718844"><ele>1789.4450025662318</ele><time>2022-04-30T02:17:13Z</time></trkpt><trkpt lat="33.7286192" lon="133.1721082"><ele>1786.410467237083</ele><time>2022-04-30T02:17:37Z</time></trkpt><trkpt lat="33.7287051" lon="133.1723026"><ele>1783.8521643316735</ele><time>2022-04-30T02:17:58Z</time></trkpt><trkpt lat="33.7288042" lon="133.1724832"><ele>1781.6048685327632</ele><time>2022-04-30T02:18:43Z</time></trkpt><trkpt lat="33.7288498" lon="133.1726982"><ele>1779.3606488907897</ele><time>2022-04-30T02:19:00Z</time></trkpt><trkpt lat="33.7289004" lon="133.172914"><ele>1776.7299984431763</ele><time>2022-04-30T02:19:50Z</time></trkpt><trkpt lat="33.7289732" lon="133.1731255"><ele>1774.8208073464764</ele><time>2022-04-30T02:20:05Z</time></trkpt><trkpt lat="33.7290904" lon="133.1732927"><ele>1774.4196381351237</ele><time>2022-04-30T02:20:20Z</time></trkpt><trkpt lat="33.728982" lon="133.1734652"><ele>1775.128752405434</ele><time>2022-04-30T02:20:44Z</time></trkpt><trkpt lat="33.7288911" lon="133.1736567"><ele>1776.2215279894926</ele><time>2022-04-30T02:20:57Z</time></trkpt><trkpt lat="33.7287556" lon="133.1738025"><ele>1775.970553420556</ele><time>2022-04-30T02:21:11Z</time></trkpt><trkpt lat="33.7285924" lon="133.1739062"><ele>1775.1964979219656</ele><time>2022-04-30T02:21:25Z</time></trkpt><trkpt lat="33.7284704" lon="133.1740672"><ele>1773.9632158564261</ele><time>2022-04-30T02:21:50Z</time></trkpt><trkpt lat="33.7283514" lon="133.1742302"><ele>1773.2852867678941</ele><time>2022-04-30T02:22:05Z</time></trkpt><trkpt lat="33.7283821" lon="133.1744473"><ele>1773.193519889148</ele><time>2022-04-30T02:22:25Z</time></trkpt><trkpt lat="33.7284451" lon="133.1746523"><ele>1773.4345716249709</ele><time>2022-04-30T02:22:43Z</time></trkpt><trkpt lat="33.7284907" lon="133.1748688"><ele>1773.6216118011364</ele><time>2022-04-30T02:22:59Z</time></trkpt><trkpt lat="33.7284395" lon="133.1750863"><ele>1773.743734809079</ele><time>2022-04-30T02:23:15Z</time></trkpt><trkpt lat="33.7284269" lon="133.1753034"><ele>1773.6825649692255</ele><time>2022-04-30T02:23:31Z</time></trkpt><trkpt lat="33.7284908" lon="133.175509"><ele>1774.9131537919</ele><time>2022-04-30T02:23:53Z</time></trkpt><trkpt lat="33.7285942" lon="133.1756891"><ele>1776.4688268565915</ele><time>2022-04-30T02:24:12Z</time></trkpt><trkpt lat="33.728709" lon="133.1758642"><ele>1778.5897343137756</ele><time>2022-04-30T02:24:26Z</time></trkpt><trkpt lat="33.7288324" lon="133.1760261"><ele>1778.804883862439</ele><time>2022-04-30T02:24:46Z</time></trkpt><trkpt lat="33.7288064" lon="133.1762491"><ele>1781.3497196762182</ele><time>2022-04-30T02:25:35Z</time></trkpt><trkpt lat="33.7288493" lon="133.1764595"><ele>1783.6158548272817</ele><time>2022-04-30T02:26:06Z</time></trkpt><trkpt lat="33.7288365" lon="133.1766825"><ele>1788.1221766911015</ele><time>2022-04-30T02:26:41Z</time></trkpt><trkpt lat="33.7288267" lon="133.1769009"><ele>1790.088407459628</ele><time>2022-04-30T02:26:58Z</time></trkpt><trkpt lat="33.728841" lon="133.1771215"><ele>1793.071115233488</ele><time>2022-04-30T02:27:34Z</time></trkpt><trkpt lat="33.7288146" lon="133.1773374"><ele>1796.7926091469199</ele><time>2022-04-30T02:28:00Z</time></trkpt><trkpt lat="33.7288431" lon="133.1775529"><ele>1798.6823531667633</ele><time>2022-04-30T02:28:25Z</time></trkpt><trkpt lat="33.728845" lon="133.1777809"><ele>1800.9791921424328</ele><time>2022-04-30T02:28:42Z</time></trkpt><trkpt lat="33.7288668" lon="133.177998"><ele>1801.5722360306088</ele><time>2022-04-30T02:29:10Z</time></trkpt><trkpt lat="33.7288635" lon="133.1782167"><ele>1803.6999694700626</ele><time>2022-04-30T02:29:26Z</time></trkpt><trkpt lat="33.7288144" lon="133.1784311"><ele>1806.0821388917866</ele><time>2022-04-30T02:29:42Z</time></trkpt><trkpt lat="33.7287246" lon="133.1786203"><ele>1807.5439069900515</ele><time>2022-04-30T02:29:58Z</time></trkpt><trkpt lat="33.7288641" lon="133.1784766"><ele>1808.4700055808014</ele><time>2022-04-30T02:49:25Z</time></trkpt><trkpt lat="33.7289424" lon="133.1782811"><ele>1806.716444456804</ele><time>2022-04-30T02:49:36Z</time></trkpt><trkpt lat="33.7289136" lon="133.1780636"><ele>1804.337834378126</ele><time>2022-04-30T02:49:49Z</time></trkpt><trkpt lat="33.7288067" lon="133.1778808"><ele>1801.987487596907</ele><time>2022-04-30T02:50:00Z</time></trkpt><trkpt lat="33.7288324" lon="133.1776579"><ele>1800.6241931329805</ele><time>2022-04-30T02:50:15Z</time></trkpt><trkpt lat="33.7287928" lon="133.1774425"><ele>1799.852293216082</ele><time>2022-04-30T02:50:31Z</time></trkpt><trkpt lat="33.7287563" lon="133.1772045"><ele>1799.8970357070273</ele><time>2022-04-30T02:50:46Z</time></trkpt><trkpt lat="33.7288824" lon="133.1770478"><ele>1797.4493360354327</ele><time>2022-04-30T02:52:15Z</time></trkpt><trkpt lat="33.7288226" lon="133.1768402"><ele>1794.1237039786672</ele><time>2022-04-30T02:52:30Z</time></trkpt><trkpt lat="33.7287595" lon="133.1766313"><ele>1789.4375799000902</ele><time>2022-04-30T02:52:49Z</time></trkpt><trkpt lat="33.7288428" lon="133.1764323"><ele>1787.1858052778625</ele><time>2022-04-30T02:53:15Z</time></trkpt><trkpt lat="33.7287932" lon="133.1762241"><ele>1784.078318955557</ele><time>2022-04-30T02:53:46Z</time></trkpt><trkpt lat="33.7286399" lon="133.1761007"><ele>1782.1355130678596</ele><time>2022-04-30T02:54:02Z</time></trkpt><trkpt lat="33.7286315" lon="133.1758807"><ele>1779.462995777599</ele><time>2022-04-30T02:54:18Z</time></trkpt><trkpt lat="33.7286267" lon="133.1756628"><ele>1778.5652296333064</ele><time>2022-04-30T02:54:33Z</time></trkpt><trkpt lat="33.7284821" lon="133.1755291"><ele>1777.4979683492431</ele><time>2022-04-30T02:55:07Z</time></trkpt><trkpt lat="33.7284036" lon="133.1753271"><ele>1776.5417501078819</ele><time>2022-04-30T02:55:22Z</time></trkpt><trkpt lat="33.7283972" lon="133.1751076"><ele>1776.0845620872115</ele><time>2022-04-30T02:55:36Z</time></trkpt><trkpt lat="33.728394" lon="133.1748722"><ele>1775.8364248672963</ele><time>2022-04-30T02:55:55Z</time></trkpt><trkpt lat="33.728353" lon="133.1746617"><ele>1775.8006922509487</ele><time>2022-04-30T02:56:09Z</time></trkpt><trkpt lat="33.72836" lon="133.1744447"><ele>1775.526065344853</ele><time>2022-04-30T02:56:25Z</time></trkpt><trkpt lat="33.7284137" lon="133.1742076"><ele>1774.9937199777917</ele><time>2022-04-30T02:57:00Z</time></trkpt><trkpt lat="33.7284931" lon="133.1740091"><ele>1774.9305998559566</ele><time>2022-04-30T02:57:14Z</time></trkpt><trkpt lat="33.728643" lon="133.1738576"><ele>1775.2097143386409</ele><time>2022-04-30T02:57:25Z</time></trkpt><trkpt lat="33.728775" lon="133.173707"><ele>1775.8159073763138</ele><time>2022-04-30T02:57:39Z</time></trkpt><trkpt lat="33.7289014" lon="133.1735436"><ele>1776.6700706473548</ele><time>2022-04-30T02:57:54Z</time></trkpt><trkpt lat="33.7290532" lon="133.1734259"><ele>1777.349121568049</ele><time>2022-04-30T02:58:08Z</time></trkpt><trkpt lat="33.7290176" lon="133.1732125"><ele>1776.8091867720848</ele><time>2022-04-30T02:58:29Z</time></trkpt><trkpt lat="33.7288705" lon="133.1730835"><ele>1778.359564502883</ele><time>2022-04-30T02:58:47Z</time></trkpt><trkpt lat="33.7288497" lon="133.1728589"><ele>1778.863707790262</ele><time>2022-04-30T02:59:24Z</time></trkpt><trkpt lat="33.7289045" lon="133.1726458"><ele>1780.0127841447722</ele><time>2022-04-30T02:59:56Z</time></trkpt><trkpt lat="33.7287584" lon="133.1724982"><ele>1779.3157166629783</ele><time>2022-04-30T03:00:06Z</time></trkpt><trkpt lat="33.7286497" lon="133.1723208"><ele>1780.274018409844</ele><time>2022-04-30T03:00:25Z</time></trkpt><trkpt lat="33.7286111" lon="133.1721077"><ele>1782.3857229426442</ele><time>2022-04-30T03:00:46Z</time></trkpt><trkpt lat="33.728617" lon="133.1718918"><ele>1784.8859373269504</ele><time>2022-04-30T03:01:11Z</time></trkpt><trkpt lat="33.7285868" lon="133.171672"><ele>1787.3651406234812</ele><time>2022-04-30T03:01:34Z</time></trkpt><trkpt lat="33.7286114" lon="133.1714551"><ele>1789.3204845873981</ele><time>2022-04-30T03:02:03Z</time></trkpt><trkpt lat="33.7286951" lon="133.1712586"><ele>1789.7817011826326</ele><time>2022-04-30T03:02:33Z</time></trkpt><trkpt lat="33.7287911" lon="133.1710721"><ele>1789.7453962219004</ele><time>2022-04-30T03:02:57Z</time></trkpt><trkpt lat="33.7287931" lon="133.1708527"><ele>1789.9935966875466</ele><time>2022-04-30T03:03:17Z</time></trkpt><trkpt lat="33.7287926" lon="133.1706305"><ele>1791.2605723301915</ele><time>2022-04-30T03:03:40Z</time></trkpt><trkpt lat="33.7287528" lon="133.170417"><ele>1791.9514283521694</ele><time>2022-04-30T03:03:56Z</time></trkpt><trkpt lat="33.7286989" lon="133.1702109"><ele>1791.086479761873</ele><time>2022-04-30T03:04:16Z</time></trkpt><trkpt lat="33.7287798" lon="133.1700133"><ele>1788.295684877502</ele><time>2022-04-30T03:04:38Z</time></trkpt><trkpt lat="33.7287325" lon="133.169797"><ele>1785.500859194016</ele><time>2022-04-30T03:05:02Z</time></trkpt><trkpt lat="33.7287302" lon="133.1695804"><ele>1783.8011932373909</ele><time>2022-04-30T03:05:21Z</time></trkpt><trkpt lat="33.7286284" lon="133.1693961"><ele>1783.7773034336305</ele><time>2022-04-30T03:05:42Z</time></trkpt><trkpt lat="33.728632" lon="133.1691765"><ele>1784.510752234515</ele><time>2022-04-30T03:05:59Z</time></trkpt><trkpt lat="33.7286917" lon="133.16897"><ele>1786.4653552478967</ele><time>2022-04-30T03:06:14Z</time></trkpt><trkpt lat="33.7287518" lon="133.1687601"><ele>1787.725769611665</ele><time>2022-04-30T03:06:32Z</time></trkpt><trkpt lat="33.7288162" lon="133.1685583"><ele>1787.8633935628375</ele><time>2022-04-30T03:06:48Z</time></trkpt><trkpt lat="33.7289246" lon="133.1683821"><ele>1786.3103408699155</ele><time>2022-04-30T03:07:11Z</time></trkpt><trkpt lat="33.7290026" lon="133.1681845"><ele>1784.7463663969684</ele><time>2022-04-30T03:07:28Z</time></trkpt><trkpt lat="33.7290679" lon="133.1679666"><ele>1783.7520212539512</ele><time>2022-04-30T03:07:47Z</time></trkpt><trkpt lat="33.7291676" lon="133.1677842"><ele>1782.4326107566349</ele><time>2022-04-30T03:08:02Z</time></trkpt><trkpt lat="33.7292552" lon="133.1675847"><ele>1781.9267996762726</ele><time>2022-04-30T03:08:17Z</time></trkpt><trkpt lat="33.7292221" lon="133.1673705"><ele>1780.0412770475566</ele><time>2022-04-30T03:08:34Z</time></trkpt><trkpt lat="33.7291434" lon="133.1671695"><ele>1778.336750293304</ele><time>2022-04-30T03:08:50Z</time></trkpt><trkpt lat="33.7290997" lon="133.1669579"><ele>1775.710604352409</ele><time>2022-04-30T03:09:09Z</time></trkpt><trkpt lat="33.7291749" lon="133.1667592"><ele>1772.4625966513177</ele><time>2022-04-30T03:10:13Z</time></trkpt><trkpt lat="33.7293314" lon="133.1666472"><ele>1770.3557577383033</ele><time>2022-04-30T03:10:26Z</time></trkpt><trkpt lat="33.7295122" lon="133.1666171"><ele>1768.3902727830907</ele><time>2022-04-30T03:10:41Z</time></trkpt><trkpt lat="33.729655" lon="133.1664828"><ele>1766.5316209046812</ele><time>2022-04-30T03:10:57Z</time></trkpt><trkpt lat="33.7296566" lon="133.166263"><ele>1763.7405815104646</ele><time>2022-04-30T03:11:13Z</time></trkpt><trkpt lat="33.7296902" lon="133.1660453"><ele>1761.1989936090522</ele><time>2022-04-30T03:11:45Z</time></trkpt><trkpt lat="33.7297892" lon="133.1658538"><ele>1760.079790142283</ele><time>2022-04-30T03:12:01Z</time></trkpt><trkpt lat="33.7299712" lon="133.1658746"><ele>1758.8331599367236</ele><time>2022-04-30T03:12:48Z</time></trkpt><trkpt lat="33.7300814" lon="133.1657011"><ele>1757.5948503766676</ele><time>2022-04-30T03:13:07Z</time></trkpt><trkpt lat="33.7300617" lon="133.1654823"><ele>1756.084819148681</ele><time>2022-04-30T03:13:27Z</time></trkpt><trkpt lat="33.7299954" lon="133.1652806"><ele>1754.5473332480149</ele><time>2022-04-30T03:13:43Z</time></trkpt><trkpt lat="33.7300572" lon="133.1650766"><ele>1752.5656679343413</ele><time>2022-04-30T03:14:21Z</time></trkpt><trkpt lat="33.7300461" lon="133.1648548"><ele>1750.2035873462264</ele><time>2022-04-30T03:14:40Z</time></trkpt><trkpt lat="33.7300995" lon="133.1646439"><ele>1748.1362351792475</ele><time>2022-04-30T03:14:54Z</time></trkpt><trkpt lat="33.730195" lon="133.1644584"><ele>1745.3908960486476</ele><time>2022-04-30T03:15:17Z</time></trkpt><trkpt lat="33.7303573" lon="133.1643608"><ele>1740.1387124395003</ele><time>2022-04-30T03:17:38Z</time></trkpt><trkpt lat="33.7304912" lon="133.1645289"><ele>1733.694740482629</ele><time>2022-04-30T03:20:13Z</time></trkpt><trkpt lat="33.7306724" lon="133.1645318"><ele>1726.11194078134</ele><time>2022-04-30T03:20:32Z</time></trkpt><trkpt lat="33.7308195" lon="133.1644008"><ele>1721.1991842680382</ele><time>2022-04-30T03:20:49Z</time></trkpt><trkpt lat="33.7309714" lon="133.164283"><ele>1716.806710728928</ele><time>2022-04-30T03:21:05Z</time></trkpt><trkpt lat="33.731157" lon="133.1643247"><ele>1712.639277437305</ele><time>2022-04-30T03:21:24Z</time></trkpt><trkpt lat="33.7313267" lon="133.1642433"><ele>1709.208761320814</ele><time>2022-04-30T03:21:47Z</time></trkpt><trkpt lat="33.7315161" lon="133.1642587"><ele>1706.1523244367952</ele><time>2022-04-30T03:22:09Z</time></trkpt><trkpt lat="33.7317027" lon="133.1642669"><ele>1704.3635331643545</ele><time>2022-04-30T03:22:38Z</time></trkpt><trkpt lat="33.7318841" lon="133.164289"><ele>1702.2409098518185</ele><time>2022-04-30T03:22:53Z</time></trkpt><trkpt lat="33.7320687" lon="133.1643191"><ele>1700.612952794256</ele><time>2022-04-30T03:23:16Z</time></trkpt><trkpt lat="33.7322434" lon="133.1643727"><ele>1700.0551197263794</ele><time>2022-04-30T03:23:36Z</time></trkpt><trkpt lat="33.7324212" lon="133.1643349"><ele>1699.198372705862</ele><time>2022-04-30T03:24:09Z</time></trkpt><trkpt lat="33.732542" lon="133.1641745"><ele>1694.9926383156114</ele><time>2022-04-30T03:24:58Z</time></trkpt><trkpt lat="33.7326871" lon="133.1640396"><ele>1689.2109682835319</ele><time>2022-04-30T03:25:19Z</time></trkpt><trkpt lat="33.7328356" lon="133.1639165"><ele>1683.1358985476293</ele><time>2022-04-30T03:25:57Z</time></trkpt><trkpt lat="33.7330026" lon="133.1638319"><ele>1676.369430981098</ele><time>2022-04-30T03:29:58Z</time></trkpt><trkpt lat="33.7331406" lon="133.1636879"><ele>1668.7736713077081</ele><time>2022-04-30T03:30:51Z</time></trkpt><trkpt lat="33.7333018" lon="133.1635697"><ele>1660.7031856058038</ele><time>2022-04-30T03:31:18Z</time></trkpt><trkpt lat="33.7334794" lon="133.1634764"><ele>1655.2447989836255</ele><time>2022-04-30T03:31:36Z</time></trkpt><trkpt lat="33.7336573" lon="133.1634264"><ele>1649.8788701255662</ele><time>2022-04-30T03:32:09Z</time></trkpt><trkpt lat="33.7338395" lon="133.1634422"><ele>1641.318197729879</ele><time>2022-04-30T03:33:51Z</time></trkpt><trkpt lat="33.7340196" lon="133.1634006"><ele>1632.4141881079001</ele><time>2022-04-30T03:34:30Z</time></trkpt><trkpt lat="33.7341926" lon="133.1633024"><ele>1623.7934103596597</ele><time>2022-04-30T03:34:44Z</time></trkpt><trkpt lat="33.7343733" lon="133.1633306"><ele>1621.5657133922286</ele><time>2022-04-30T03:35:07Z</time></trkpt><trkpt lat="33.7345459" lon="133.1632547"><ele>1620.6513248111569</ele><time>2022-04-30T03:35:42Z</time></trkpt><trkpt lat="33.7347236" lon="133.1631967"><ele>1620.1551373923214</ele><time>2022-04-30T03:36:06Z</time></trkpt><trkpt lat="33.7349074" lon="133.1632304"><ele>1618.5794989312246</ele><time>2022-04-30T03:36:20Z</time></trkpt><trkpt lat="33.7350972" lon="133.1632193"><ele>1616.9062088765816</ele><time>2022-04-30T03:36:36Z</time></trkpt><trkpt lat="33.7352731" lon="133.1631316"><ele>1616.7965518698245</ele><time>2022-04-30T03:36:48Z</time></trkpt><trkpt lat="33.7354579" lon="133.1631005"><ele>1615.5427766855767</ele><time>2022-04-30T03:37:04Z</time></trkpt><trkpt lat="33.7356197" lon="133.1629916"><ele>1614.0097642398139</ele><time>2022-04-30T03:37:30Z</time></trkpt><trkpt lat="33.7358" lon="133.1629827"><ele>1612.7803514900754</ele><time>2022-04-30T03:38:11Z</time></trkpt><trkpt lat="33.7359845" lon="133.1629277"><ele>1612.2057878942123</ele><time>2022-04-30T03:38:23Z</time></trkpt><trkpt lat="33.7361689" lon="133.1628398"><ele>1614.3259273478404</ele><time>2022-04-30T03:38:34Z</time></trkpt><trkpt lat="33.7363526" lon="133.1628479"><ele>1613.7416918905485</ele><time>2022-04-30T03:38:44Z</time></trkpt><trkpt lat="33.7365376" lon="133.1628649"><ele>1612.2844322009585</ele><time>2022-04-30T03:39:03Z</time></trkpt><trkpt lat="33.7367103" lon="133.1627761"><ele>1608.3165963270783</ele><time>2022-04-30T03:39:23Z</time></trkpt><trkpt lat="33.7368689" lon="133.1626636"><ele>1605.9192483065526</ele><time>2022-04-30T03:39:40Z</time></trkpt><trkpt lat="33.7370586" lon="133.1626263"><ele>1603.9748272146105</ele><time>2022-04-30T03:39:58Z</time></trkpt><trkpt lat="33.7372364" lon="133.1625541"><ele>1603.2751846242643</ele><time>2022-04-30T03:40:16Z</time></trkpt><trkpt lat="33.73736" lon="133.1623936"><ele>1601.1018981323361</ele><time>2022-04-30T03:40:39Z</time></trkpt><trkpt lat="33.7375273" lon="133.1622918"><ele>1598.940971850965</ele><time>2022-04-30T03:40:56Z</time></trkpt><trkpt lat="33.7376741" lon="133.1621623"><ele>1595.565882802088</ele><time>2022-04-30T03:41:56Z</time></trkpt><trkpt lat="33.7377588" lon="133.1619637"><ele>1592.6738325020622</ele><time>2022-04-30T03:42:23Z</time></trkpt><trkpt lat="33.7379057" lon="133.1618272"><ele>1590.30299386403</ele><time>2022-04-30T03:42:38Z</time></trkpt><trkpt lat="33.7380667" lon="133.161729"><ele>1589.1903783309247</ele><time>2022-04-30T03:42:54Z</time></trkpt><trkpt lat="33.7382466" lon="133.1617053"><ele>1590.197449227276</ele><time>2022-04-30T03:43:20Z</time></trkpt><trkpt lat="33.7384121" lon="133.1616079"><ele>1590.4639550181012</ele><time>2022-04-30T03:43:35Z</time></trkpt><trkpt lat="33.7385964" lon="133.1616058"><ele>1589.4307775406899</ele><time>2022-04-30T03:44:09Z</time></trkpt><trkpt lat="33.7387869" lon="133.161636"><ele>1587.8423321845569</ele><time>2022-04-30T03:44:24Z</time></trkpt><trkpt lat="33.7389599" lon="133.1615609"><ele>1586.5965496681772</ele><time>2022-04-30T03:44:42Z</time></trkpt><trkpt lat="33.7391294" lon="133.1616349"><ele>1585.4234378248439</ele><time>2022-04-30T03:45:05Z</time></trkpt><trkpt lat="33.7393052" lon="133.1615746"><ele>1581.4035586830412</ele><time>2022-04-30T03:45:46Z</time></trkpt><trkpt lat="33.7394223" lon="133.1613974"><ele>1581.914474107136</ele><time>2022-04-30T03:45:58Z</time></trkpt><trkpt lat="33.7395755" lon="133.1612707"><ele>1581.3069277604682</ele><time>2022-04-30T03:46:20Z</time></trkpt><trkpt lat="33.7397236" lon="133.161138"><ele>1583.8146060481279</ele><time>2022-04-30T03:46:36Z</time></trkpt><trkpt lat="33.7397442" lon="133.1609197"><ele>1581.9291427590224</ele><time>2022-04-30T03:46:54Z</time></trkpt><trkpt lat="33.7397921" lon="133.1607053"><ele>1581.2378005130413</ele><time>2022-04-30T03:47:10Z</time></trkpt><trkpt lat="33.739707" lon="133.1605134"><ele>1579.652023853327</ele><time>2022-04-30T03:47:33Z</time></trkpt><trkpt lat="33.7395769" lon="133.1603589"><ele>1576.2186827175717</ele><time>2022-04-30T03:48:05Z</time></trkpt><trkpt lat="33.7396399" lon="133.1601543"><ele>1575.2447583961027</ele><time>2022-04-30T03:48:28Z</time></trkpt><trkpt lat="33.7398154" lon="133.1602051"><ele>1574.4741224620545</ele><time>2022-04-30T03:48:45Z</time></trkpt><trkpt lat="33.7399843" lon="133.1601183"><ele>1576.4562888722683</ele><time>2022-04-30T03:49:00Z</time></trkpt><trkpt lat="33.7401407" lon="133.1600033"><ele>1574.7258073731964</ele><time>2022-04-30T03:49:46Z</time></trkpt><trkpt lat="33.7403" lon="133.1598928"><ele>1572.5867630166865</ele><time>2022-04-30T03:50:00Z</time></trkpt><trkpt lat="33.7404809" lon="133.159849"><ele>1569.4648522762927</ele><time>2022-04-30T03:50:20Z</time></trkpt><trkpt lat="33.7406672" lon="133.1598292"><ele>1567.9107858360505</ele><time>2022-04-30T03:50:40Z</time></trkpt><trkpt lat="33.74083" lon="133.1597228"><ele>1567.9365592043766</ele><time>2022-04-30T03:51:01Z</time></trkpt><trkpt lat="33.7409467" lon="133.1595569"><ele>1567.3596459149348</ele><time>2022-04-30T03:51:20Z</time></trkpt><trkpt lat="33.7411308" lon="133.1595933"><ele>1566.5370302089607</ele><time>2022-04-30T03:51:46Z</time></trkpt><trkpt lat="33.7413217" lon="133.1595272"><ele>1564.7497624445623</ele><time>2022-04-30T03:52:01Z</time></trkpt><trkpt lat="33.7414647" lon="133.1593953"><ele>1563.2167696566046</ele><time>2022-04-30T03:52:13Z</time></trkpt><trkpt lat="33.7416465" lon="133.1593774"><ele>1562.3247865830563</ele><time>2022-04-30T03:52:30Z</time></trkpt><trkpt lat="33.7418085" lon="133.1594735"><ele>1561.672400663044</ele><time>2022-04-30T03:52:48Z</time></trkpt><trkpt lat="33.7419784" lon="133.1593911"><ele>1563.3636132119457</ele><time>2022-04-30T03:53:00Z</time></trkpt><trkpt lat="33.7421563" lon="133.1593301"><ele>1562.4037491855588</ele><time>2022-04-30T03:53:15Z</time></trkpt><trkpt lat="33.7423377" lon="133.1592807"><ele>1560.0303709708903</ele><time>2022-04-30T03:53:37Z</time></trkpt><trkpt lat="33.7425177" lon="133.159304"><ele>1558.1178231059557</ele><time>2022-04-30T03:55:46Z</time></trkpt><trkpt lat="33.7427023" lon="133.1593132"><ele>1559.1690140219373</ele><time>2022-04-30T03:56:11Z</time></trkpt><trkpt lat="33.7428851" lon="133.1593145"><ele>1562.2963297748163</ele><time>2022-04-30T03:56:46Z</time></trkpt><trkpt lat="33.7430411" lon="133.1594284"><ele>1564.5050858711295</ele><time>2022-04-30T03:57:29Z</time></trkpt><trkpt lat="33.7431863" lon="133.1592668"><ele>1568.5956918931715</ele><time>2022-04-30T03:58:18Z</time></trkpt><trkpt lat="33.7433524" lon="133.1593684"><ele>1572.8251502980893</ele><time>2022-04-30T03:59:30Z</time></trkpt><trkpt lat="33.7435229" lon="133.1594699"><ele>1575.3773877904102</ele><time>2022-04-30T03:59:55Z</time></trkpt><trkpt lat="33.7437046" lon="133.1594687"><ele>1576.7930537046084</ele><time>2022-04-30T04:01:40Z</time></trkpt><trkpt lat="33.74379" lon="133.1592759"><ele>1577.6433180449187</ele><time>2022-04-30T04:02:49Z</time></trkpt><trkpt lat="33.7438302" lon="133.1590605"><ele>1583.227115613862</ele><time>2022-04-30T04:03:46Z</time></trkpt><trkpt lat="33.7439602" lon="133.1589107"><ele>1592.0218869715684</ele><time>2022-04-30T04:04:50Z</time></trkpt><trkpt lat="33.7440898" lon="133.1587387"><ele>1601.0252900705227</ele><time>2022-04-30T04:05:05Z</time></trkpt><trkpt lat="33.7442311" lon="133.158601"><ele>1607.4020684031539</ele><time>2022-04-30T04:05:40Z</time></trkpt><trkpt lat="33.744387" lon="133.1584923"><ele>1610.593970713421</ele><time>2022-04-30T04:06:24Z</time></trkpt><trkpt lat="33.7445276" lon="133.158355"><ele>1614.1476904440397</ele><time>2022-04-30T04:08:47Z</time></trkpt><trkpt lat="33.7447132" lon="133.158346"><ele>1615.6459437694136</ele><time>2022-04-30T04:09:01Z</time></trkpt><trkpt lat="33.7448938" lon="133.158259"><ele>1615.614429138913</ele><time>2022-04-30T04:09:17Z</time></trkpt><trkpt lat="33.7450326" lon="133.1581175"><ele>1616.0725252169148</ele><time>2022-04-30T04:09:30Z</time></trkpt><trkpt lat="33.7452072" lon="133.1580579"><ele>1618.0654496636473</ele><time>2022-04-30T04:09:54Z</time></trkpt><trkpt lat="33.7453765" lon="133.1579461"><ele>1621.8936327514086</ele><time>2022-04-30T04:10:16Z</time></trkpt><trkpt lat="33.7454072" lon="133.1577266"><ele>1626.5017508712574</ele><time>2022-04-30T04:10:36Z</time></trkpt><trkpt lat="33.7455156" lon="133.1575436"><ele>1631.2802169079798</ele><time>2022-04-30T04:10:58Z</time></trkpt><trkpt lat="33.7453959" lon="133.1573791"><ele>1635.954518502829</ele><time>2022-04-30T04:11:28Z</time></trkpt><trkpt lat="33.7455815" lon="133.1573651"><ele>1638.2940793538146</ele><time>2022-04-30T04:11:51Z</time></trkpt><trkpt lat="33.7457474" lon="133.1572601"><ele>1638.4079336000111</ele><time>2022-04-30T04:12:06Z</time></trkpt><trkpt lat="33.7459156" lon="133.1571429"><ele>1636.9206958096836</ele><time>2022-04-30T04:12:19Z</time></trkpt><trkpt lat="33.7460953" lon="133.1570655"><ele>1635.6624804212504</ele><time>2022-04-30T04:12:32Z</time></trkpt><trkpt lat="33.7462731" lon="133.1569846"><ele>1634.4356130421704</ele><time>2022-04-30T04:12:47Z</time></trkpt><trkpt lat="33.7464559" lon="133.1569551"><ele>1631.9756802779254</ele><time>2022-04-30T04:13:33Z</time></trkpt><trkpt lat="33.7466214" lon="133.1570574"><ele>1628.8823622929594</ele><time>2022-04-30T04:13:54Z</time></trkpt><trkpt lat="33.7468069" lon="133.1571273"><ele>1624.4937885213876</ele><time>2022-04-30T04:14:16Z</time></trkpt><trkpt lat="33.7469731" lon="133.1572247"><ele>1620.4137888723233</ele><time>2022-04-30T04:14:30Z</time></trkpt><trkpt lat="33.7471512" lon="133.1572674"><ele>1616.5538753817661</ele><time>2022-04-30T04:14:44Z</time></trkpt><trkpt lat="33.7473312" lon="133.1573009"><ele>1614.7560241116034</ele><time>2022-04-30T04:15:16Z</time></trkpt><trkpt lat="33.7474437" lon="133.1571291"><ele>1612.8614071693319</ele><time>2022-04-30T04:15:51Z</time></trkpt><trkpt lat="33.7476316" lon="133.157097"><ele>1609.868529405882</ele><time>2022-04-30T04:16:02Z</time></trkpt><trkpt lat="33.7478136" lon="133.1570764"><ele>1605.3909405154027</ele><time>2022-04-30T04:16:48Z</time></trkpt><trkpt lat="33.7480006" lon="133.1571339"><ele>1600.6775047215424</ele><time>2022-04-30T04:17:16Z</time></trkpt><trkpt lat="33.7481816" lon="133.1570897"><ele>1596.7350710970757</ele><time>2022-04-30T04:17:31Z</time></trkpt><trkpt lat="33.7483635" lon="133.157039"><ele>1594.1904716169438</ele><time>2022-04-30T04:18:15Z</time></trkpt><trkpt lat="33.7484877" lon="133.1568733"><ele>1592.2701898879943</ele><time>2022-04-30T04:18:41Z</time></trkpt><trkpt lat="33.7484756" lon="133.1566515"><ele>1591.2819885246656</ele><time>2022-04-30T04:19:09Z</time></trkpt><trkpt lat="33.7485453" lon="133.1564517"><ele>1590.536528149606</ele><time>2022-04-30T04:19:26Z</time></trkpt><trkpt lat="33.7486056" lon="133.1562472"><ele>1590.6617635679247</ele><time>2022-04-30T04:19:43Z</time></trkpt><trkpt lat="33.7487255" lon="133.1560812"><ele>1590.816047077539</ele><time>2022-04-30T04:20:01Z</time></trkpt><trkpt lat="33.7488007" lon="133.1558807"><ele>1590.9210905805583</ele><time>2022-04-30T04:20:19Z</time></trkpt><trkpt lat="33.7489064" lon="133.1557007"><ele>1591.0897984144306</ele><time>2022-04-30T04:20:38Z</time></trkpt><trkpt lat="33.7490832" lon="133.1556547"><ele>1589.2619057917043</ele><time>2022-04-30T04:20:50Z</time></trkpt><trkpt lat="33.7492102" lon="133.1555"><ele>1585.8844708666393</ele><time>2022-04-30T04:21:22Z</time></trkpt><trkpt lat="33.749309" lon="133.1553141"><ele>1582.8271510646925</ele><time>2022-04-30T04:21:53Z</time></trkpt><trkpt lat="33.749446" lon="133.1551714"><ele>1581.9370788619606</ele><time>2022-04-30T04:22:47Z</time></trkpt><trkpt lat="33.7495904" lon="133.1550237"><ele>1582.4467685378488</ele><time>2022-04-30T04:23:08Z</time></trkpt><trkpt lat="33.7497426" lon="133.1549056"><ele>1581.9949313195937</ele><time>2022-04-30T04:23:38Z</time></trkpt><trkpt lat="33.7498433" lon="133.1547209"><ele>1579.5388735142215</ele><time>2022-04-30T04:24:02Z</time></trkpt><trkpt lat="33.7499394" lon="133.1545279"><ele>1576.3538103231585</ele><time>2022-04-30T04:24:15Z</time></trkpt><trkpt lat="33.750089" lon="133.1544021"><ele>1573.8834284870363</ele><time>2022-04-30T04:24:40Z</time></trkpt><trkpt lat="33.750217" lon="133.1542455"><ele>1572.5903022367118</ele><time>2022-04-30T04:25:00Z</time></trkpt><trkpt lat="33.7503277" lon="133.1540713"><ele>1569.881411324506</ele><time>2022-04-30T04:25:43Z</time></trkpt><trkpt lat="33.7503879" lon="133.1538649"><ele>1567.3228883672807</ele><time>2022-04-30T04:25:54Z</time></trkpt><trkpt lat="33.7504016" lon="133.1536493"><ele>1562.8005626471015</ele><time>2022-04-30T04:26:13Z</time></trkpt><trkpt lat="33.7505301" lon="133.1534958"><ele>1559.9870492295997</ele><time>2022-04-30T04:26:39Z</time></trkpt><trkpt lat="33.7506354" lon="133.1533078"><ele>1556.7808747999052</ele><time>2022-04-30T04:26:59Z</time></trkpt><trkpt lat="33.7507614" lon="133.1531478"><ele>1555.3552014799345</ele><time>2022-04-30T04:27:16Z</time></trkpt><trkpt lat="33.7508599" lon="133.1529651"><ele>1554.489157070441</ele><time>2022-04-30T04:30:21Z</time></trkpt><trkpt lat="33.7509178" lon="133.1527499"><ele>1552.8350751069759</ele><time>2022-04-30T04:30:33Z</time></trkpt><trkpt lat="33.7509426" lon="133.1525331"><ele>1551.1814727784156</ele><time>2022-04-30T04:30:51Z</time></trkpt><trkpt lat="33.7509035" lon="133.1523188"><ele>1549.0883091317864</ele><time>2022-04-30T04:31:14Z</time></trkpt><trkpt lat="33.7509958" lon="133.1521276"><ele>1547.55845529409</ele><time>2022-04-30T04:31:31Z</time></trkpt><trkpt lat="33.751122" lon="133.1519677"><ele>1547.1510588696383</ele><time>2022-04-30T04:31:47Z</time></trkpt><trkpt lat="33.7512054" lon="133.151775"><ele>1546.4507680734114</ele><time>2022-04-30T04:32:07Z</time></trkpt><trkpt lat="33.751249" lon="133.1515623"><ele>1545.4367918995779</ele><time>2022-04-30T04:32:45Z</time></trkpt><trkpt lat="33.7513562" lon="133.1513848"><ele>1544.2060758080072</ele><time>2022-04-30T04:33:13Z</time></trkpt><trkpt lat="33.751454" lon="133.1511734"><ele>1542.5522780124768</ele><time>2022-04-30T04:33:25Z</time></trkpt><trkpt lat="33.7515045" lon="133.1509646"><ele>1540.7487293128895</ele><time>2022-04-30T04:33:41Z</time></trkpt><trkpt lat="33.7516337" lon="133.1508127"><ele>1538.492101253137</ele><time>2022-04-30T04:34:00Z</time></trkpt><trkpt lat="33.7517308" lon="133.150628"><ele>1537.3450836969066</ele><time>2022-04-30T04:34:19Z</time></trkpt><trkpt lat="33.7518432" lon="133.150456"><ele>1537.7410261479533</ele><time>2022-04-30T04:34:32Z</time></trkpt><trkpt lat="33.7518711" lon="133.1502381"><ele>1537.3466354726745</ele><time>2022-04-30T04:34:48Z</time></trkpt><trkpt lat="33.75201" lon="133.1500847"><ele>1537.3323583217518</ele><time>2022-04-30T04:35:00Z</time></trkpt><trkpt lat="33.7520887" lon="133.1498824"><ele>1536.9567647884342</ele><time>2022-04-30T04:35:17Z</time></trkpt><trkpt lat="33.7520289" lon="133.1496758"><ele>1536.4484133583771</ele><time>2022-04-30T04:35:47Z</time></trkpt><trkpt lat="33.75212" lon="133.1494796"><ele>1534.192040001689</ele><time>2022-04-30T04:36:09Z</time></trkpt><trkpt lat="33.7521189" lon="133.1492533"><ele>1532.3702077440878</ele><time>2022-04-30T04:36:23Z</time></trkpt><trkpt lat="33.7522067" lon="133.1490523"><ele>1532.4937973340536</ele><time>2022-04-30T04:36:51Z</time></trkpt><trkpt lat="33.7523744" lon="133.148966"><ele>1535.217638682105</ele><time>2022-04-30T04:37:09Z</time></trkpt><trkpt lat="33.752543" lon="133.148876"><ele>1536.4588936831399</ele><time>2022-04-30T04:37:28Z</time></trkpt><trkpt lat="33.7526679" lon="133.1487154"><ele>1538.595175118222</ele><time>2022-04-30T04:37:43Z</time></trkpt><trkpt lat="33.7528049" lon="133.1485696"><ele>1537.1200150597724</ele><time>2022-04-30T04:38:17Z</time></trkpt><trkpt lat="33.752991" lon="133.1485162"><ele>1536.7222590668189</ele><time>2022-04-30T04:38:33Z</time></trkpt><trkpt lat="33.7531626" lon="133.1484477"><ele>1535.65901029665</ele><time>2022-04-30T04:38:48Z</time></trkpt><trkpt lat="33.7533443" lon="133.1484676"><ele>1535.149777421508</ele><time>2022-04-30T04:39:21Z</time></trkpt><trkpt lat="33.7534832" lon="133.1483216"><ele>1533.7057805801276</ele><time>2022-04-30T04:39:34Z</time></trkpt><trkpt lat="33.7536442" lon="133.1482171"><ele>1531.5317097632276</ele><time>2022-04-30T04:39:52Z</time></trkpt><trkpt lat="33.7536808" lon="133.1479934"><ele>1530.346729738488</ele><time>2022-04-30T04:40:04Z</time></trkpt><trkpt lat="33.7538066" lon="133.147812"><ele>1529.6715357427731</ele><time>2022-04-30T04:40:18Z</time></trkpt><trkpt lat="33.7539312" lon="133.1476491"><ele>1529.2011678573465</ele><time>2022-04-30T04:40:32Z</time></trkpt><trkpt lat="33.7541151" lon="133.1476355"><ele>1528.966005099448</ele><time>2022-04-30T04:40:54Z</time></trkpt><trkpt lat="33.7542781" lon="133.1475308"><ele>1527.334446485653</ele><time>2022-04-30T04:41:12Z</time></trkpt><trkpt lat="33.7544272" lon="133.1474053"><ele>1523.5822332597008</ele><time>2022-04-30T04:41:51Z</time></trkpt><trkpt lat="33.7546034" lon="133.1474887"><ele>1518.449068133263</ele><time>2022-04-30T04:42:25Z</time></trkpt><trkpt lat="33.7546898" lon="133.1472755"><ele>1514.394635989421</ele><time>2022-04-30T04:42:48Z</time></trkpt><trkpt lat="33.7545617" lon="133.1471069"><ele>1510.3507384095092</ele><time>2022-04-30T04:43:03Z</time></trkpt><trkpt lat="33.7543833" lon="133.1471384"><ele>1509.078446265784</ele><time>2022-04-30T04:43:14Z</time></trkpt><trkpt lat="33.7542146" lon="133.1470299"><ele>1507.1139931967773</ele><time>2022-04-30T04:43:31Z</time></trkpt><trkpt lat="33.7540269" lon="133.1470065"><ele>1507.3617665651157</ele><time>2022-04-30T04:43:46Z</time></trkpt><trkpt lat="33.7538437" lon="133.1470442"><ele>1505.6173989747003</ele><time>2022-04-30T04:44:06Z</time></trkpt><trkpt lat="33.7536725" lon="133.1471364"><ele>1504.6271823324678</ele><time>2022-04-30T04:44:19Z</time></trkpt><trkpt lat="33.7534916" lon="133.1471048"><ele>1502.9399104158977</ele><time>2022-04-30T04:44:32Z</time></trkpt></trkseg></trk></gpx>