<?xml version='1.0' encoding='UTF-8'?><gpx creator="Yama Museum Summit Candidate Generator" xsi:schemaLocation="http://www.topografix.com/GPX/1/1 http://www.topografix.com/GPX/1/1/gpx.xsd" version="1.1" xmlns="http://www.topografix.com/GPX/1/1" xmlns:xsi="http://www.w3.org/2001/XMLSchema-instance" xmlns:yama="https://museum-yama-data.moukaeritai.work/ns/yama-data/0.1"><metadata><bounds maxlat="34.2136129" maxlon="133.0870656" minlat="34.212287" minlon="133.0848322"/><name>宝股山</name><extensions><yama:source_gpx_basename>yamap_2024-01-27_13_31.gpx</yama:source_gpx_basename><yama:source_gpx_relative_path>data/01_raw/gpx/2026-05-12/yamap_2024-01-27_13_31.gpx</yama:source_gpx_relative_path><yama:detection_parameters>window=5,radius=10,min_prominence=30,merge=100</yama:detection_parameters></extensions></metadata><wpt lat="34.212287" lon="133.0867989"><ele>300.6033333333333</ele><time>2024-01-27T04:45:57Z</time><name>summit-candidate:468c5bbccd8aba53</name><desc>Summit candidate detected at elevation 300.6033333333333m with prominence 91.83377777777778m.</desc><sym>Summit Candidate</sym><extensions><yama:source_trackpoint_index>15</yama:source_trackpoint_index><yama:valid_elevation_index>15</yama:valid_elevation_index><yama:smoothed_ele>300.40933333333334</yama:smoothed_ele><yama:prominence>91.83377777777778</yama:prominence><yama:detection_method>local_maxima_with_prominence</yama:detection_method><yama:detection_parameters>window=5,radius=10,min_prominence=30,merge=100</yama:detection_parameters><yama:candidate_status>unresolved</yama:candidate_status></extensions></wpt>
  <trk><name>宝股山</name><number>1</number><trkseg><trkpt lat="34.2134443" lon="133.0848322"><ele>195.42000000000002</ele><time>2024-01-27T04:31:52Z</time></trkpt><trkpt lat="34.2134763" lon="133.0850482"><ele>198.34500000000003</ele><time>2024-01-27T04:33:57Z</time></trkpt><trkpt lat="34.2136129" lon="133.0851905"><ele>199.26666666666668</ele><time>2024-01-27T04:34:13Z</time></trkpt><trkpt lat="34.2134731" lon="133.0853334"><ele>203.63333333333333</ele><time>2024-01-27T04:35:01Z</time></trkpt><trkpt lat="34.2134015" lon="133.0855508"><ele>209.64333333333335</ele><time>2024-01-27T04:36:05Z</time></trkpt><trkpt lat="34.2132911" lon="133.0857356"><ele>219.16666666666666</ele><time>2024-01-27T04:36:53Z</time></trkpt><trkpt lat="34.2131637" lon="133.0858905"><ele>229.40666666666667</ele><time>2024-01-27T04:37:19Z</time></trkpt><trkpt lat="34.2131437" lon="133.0861068"><ele>238.12666666666667</ele><time>2024-01-27T04:38:24Z</time></trkpt><trkpt lat="34.2130147" lon="133.0862608"><ele>246.02666666666667</ele><time>2024-01-27T04:39:23Z</time></trkpt><trkpt lat="34.2128862" lon="133.0864431"><ele>254.39666666666668</ele><time>2024-01-27T04:39:48Z</time></trkpt><trkpt lat="34.2128805" lon="133.0866621"><ele>263.57666666666665</ele><time>2024-01-27T04:40:43Z</time></trkpt><trkpt lat="34.2127596" lon="133.0868475"><ele>277.26666666666665</ele><time>2024-01-27T04:42:14Z</time></trkpt><trkpt lat="34.2127741" lon="133.0870656"><ele>289.73</ele><time>2024-01-27T04:42:46Z</time></trkpt><trkpt lat="34.2126344" lon="133.0869268"><ele>299.16333333333336</ele><time>2024-01-27T04:44:51Z</time></trkpt><trkpt lat="34.2124631" lon="133.0868501"><ele>301.26</ele><time>2024-01-27T04:45:05Z</time></trkpt><trkpt lat="34.212287" lon="133.0867989"><ele>300.6033333333333</ele><time>2024-01-27T04:45:57Z</time></trkpt><trkpt lat="34.2124615" lon="133.0868571"><ele>300.4166666666667</ele><time>2024-01-27T04:52:36Z</time></trkpt><trkpt lat="34.2126335" lon="133.0869434"><ele>300.6033333333333</ele><time>2024-01-27T04:52:55Z</time></trkpt><trkpt lat="34.2127514" lon="133.0867775"><ele>296.8666666666666</ele><time>2024-01-27T04:53:16Z</time></trkpt><trkpt lat="34.2128799" lon="133.0866237"><ele>287.62</ele><time>2024-01-27T04:53:42Z</time></trkpt><trkpt lat="34.2127554" lon="133.086465"><ele>275.3566666666666</ele><time>2024-01-27T04:54:15Z</time></trkpt><trkpt lat="34.2129224" lon="133.0863818"><ele>265.84</ele><time>2024-01-27T04:54:39Z</time></trkpt><trkpt lat="34.2130558" lon="133.0862354"><ele>259.3</ele><time>2024-01-27T04:55:04Z</time></trkpt><trkpt lat="34.2131471" lon="133.0860435"><ele>252.14333333333332</ele><time>2024-01-27T04:55:30Z</time></trkpt><trkpt lat="34.2132162" lon="133.085843"><ele>243.84666666666666</ele><time>2024-01-27T04:55:53Z</time></trkpt><trkpt lat="34.2133271" lon="133.0856701"><ele>234.24666666666667</ele><time>2024-01-27T04:56:26Z</time></trkpt><trkpt lat="34.2133832" lon="133.0854628"><ele>225.43333333333337</ele><time>2024-01-27T04:57:01Z</time></trkpt><trkpt lat="34.2135268" lon="133.0853282"><ele>216.08333333333334</ele><time>2024-01-27T04:57:31Z</time></trkpt><trkpt lat="34.2134763" lon="133.085114"><ele>208.3133333333333</ele><time>2024-01-27T04:58:17Z</time></trkpt><trkpt lat="34.2135309" lon="133.084907"><ele>201.33</ele><time>2024-01-27T04:58:45Z</time></trkpt></trkseg></trk></gpx>