<?xml version='1.0' encoding='UTF-8'?><gpx creator="Yama Museum Summit Candidate Generator" xsi:schemaLocation="http://www.topografix.com/GPX/1/1 http://www.topografix.com/GPX/1/1/gpx.xsd" version="1.1" xmlns="http://www.topografix.com/GPX/1/1" xmlns:xsi="http://www.w3.org/2001/XMLSchema-instance" xmlns:yama="https://museum-yama-data.moukaeritai.work/ns/yama-data/0.1"><metadata><bounds maxlat="33.475382" maxlon="132.8713298" minlat="33.472027" minlon="132.8656859"/><name>源氏ヶ駄場（薊野峰）</name><extensions><yama:source_gpx_basename>yamap_2022-04-22_16_48.gpx</yama:source_gpx_basename><yama:source_gpx_relative_path>data/01_raw/gpx/2026-05-12/yamap_2022-04-22_16_48.gpx</yama:source_gpx_relative_path><yama:detection_parameters>window=5,radius=10,min_prominence=30,merge=100</yama:detection_parameters></extensions></metadata><wpt lat="33.4721185" lon="132.8658682"><ele>1415.7321709473536</ele><time>2022-04-22T08:04:32Z</time><name>summit-candidate:e85b9bd32eb5e6f1</name><desc>Summit candidate detected at elevation 1415.7321709473536m with prominence 79.8762122074545m.</desc><sym>Summit Candidate</sym><extensions><yama:source_trackpoint_index>37</yama:source_trackpoint_index><yama:valid_elevation_index>37</yama:valid_elevation_index><yama:smoothed_ele>1415.7341063856818</yama:smoothed_ele><yama:prominence>79.8762122074545</yama:prominence><yama:detection_method>local_maxima_with_prominence</yama:detection_method><yama:detection_parameters>window=5,radius=10,min_prominence=30,merge=100</yama:detection_parameters><yama:candidate_status>unresolved</yama:candidate_status></extensions></wpt>
  <trk><name>源氏ヶ駄場（薊野峰）</name><number>1</number><trkseg><trkpt lat="33.4753307" lon="132.8713224"><ele>1325.6201445854513</ele><time>2022-04-22T07:48:43Z</time></trkpt><trkpt lat="33.475382" lon="132.8711139"><ele>1325.6644514632528</ele><time>2022-04-22T07:49:50Z</time></trkpt><trkpt lat="33.4752207" lon="132.8710007"><ele>1328.2668493009032</ele><time>2022-04-22T07:50:23Z</time></trkpt><trkpt lat="33.4750538" lon="132.8709117"><ele>1328.7013097374668</ele><time>2022-04-22T07:50:37Z</time></trkpt><trkpt lat="33.4748906" lon="132.8708196"><ele>1332.4493557302162</ele><time>2022-04-22T07:50:51Z</time></trkpt><trkpt lat="33.4747468" lon="132.8706888"><ele>1334.6561813256433</ele><time>2022-04-22T07:51:06Z</time></trkpt><trkpt lat="33.4745773" lon="132.8706112"><ele>1338.811377169043</ele><time>2022-04-22T07:51:23Z</time></trkpt><trkpt lat="33.4744055" lon="132.8705143"><ele>1341.5826630053195</ele><time>2022-04-22T07:51:39Z</time></trkpt><trkpt lat="33.4742557" lon="132.8703892"><ele>1344.3295979987822</ele><time>2022-04-22T07:51:58Z</time></trkpt><trkpt lat="33.474099" lon="132.8702494"><ele>1350.7173915506162</ele><time>2022-04-22T07:52:18Z</time></trkpt><trkpt lat="33.4739529" lon="132.8701182"><ele>1354.250521953963</ele><time>2022-04-22T07:52:34Z</time></trkpt><trkpt lat="33.4737744" lon="132.8700834"><ele>1360.519495191876</ele><time>2022-04-22T07:52:50Z</time></trkpt><trkpt lat="33.4736248" lon="132.86996"><ele>1364.7333717035729</ele><time>2022-04-22T07:53:07Z</time></trkpt><trkpt lat="33.4734778" lon="132.8698242"><ele>1369.5785364100514</ele><time>2022-04-22T07:53:24Z</time></trkpt><trkpt lat="33.4733077" lon="132.8697465"><ele>1374.3020074165572</ele><time>2022-04-22T07:53:42Z</time></trkpt><trkpt lat="33.4731789" lon="132.869595"><ele>1375.7210085603992</ele><time>2022-04-22T07:53:57Z</time></trkpt><trkpt lat="33.4730067" lon="132.8695289"><ele>1380.775212252617</ele><time>2022-04-22T07:54:33Z</time></trkpt><trkpt lat="33.472901" lon="132.8693532"><ele>1383.9661995543686</ele><time>2022-04-22T07:54:46Z</time></trkpt><trkpt lat="33.4727642" lon="132.8692045"><ele>1390.002299444933</ele><time>2022-04-22T07:55:00Z</time></trkpt><trkpt lat="33.4726244" lon="132.8690593"><ele>1392.7217007488537</ele><time>2022-04-22T07:55:16Z</time></trkpt><trkpt lat="33.4724703" lon="132.8689378"><ele>1394.1673915236513</ele><time>2022-04-22T07:55:33Z</time></trkpt><trkpt lat="33.4723075" lon="132.8688447"><ele>1395.5014729655315</ele><time>2022-04-22T07:55:52Z</time></trkpt><trkpt lat="33.4722096" lon="132.8686576"><ele>1398.3583086373794</ele><time>2022-04-22T07:56:10Z</time></trkpt><trkpt lat="33.4721471" lon="132.8684539"><ele>1401.0777189550029</ele><time>2022-04-22T07:56:53Z</time></trkpt><trkpt lat="33.4721082" lon="132.868242"><ele>1403.636610194311</ele><time>2022-04-22T07:57:06Z</time></trkpt><trkpt lat="33.4720742" lon="132.8680145"><ele>1405.3942212519285</ele><time>2022-04-22T07:57:15Z</time></trkpt><trkpt lat="33.4720565" lon="132.8677958"><ele>1405.9345819836474</ele><time>2022-04-22T07:57:27Z</time></trkpt><trkpt lat="33.4721354" lon="132.8676017"><ele>1407.0650827431882</ele><time>2022-04-22T07:57:38Z</time></trkpt><trkpt lat="33.4721848" lon="132.8673866"><ele>1407.0160969218532</ele><time>2022-04-22T07:57:51Z</time></trkpt><trkpt lat="33.4721905" lon="132.8671653"><ele>1409.446511992722</ele><time>2022-04-22T07:58:10Z</time></trkpt><trkpt lat="33.472153" lon="132.8669532"><ele>1406.7868708394499</ele><time>2022-04-22T07:58:24Z</time></trkpt><trkpt lat="33.4721212" lon="132.8667413"><ele>1407.9292148641819</ele><time>2022-04-22T07:58:38Z</time></trkpt><trkpt lat="33.4720814" lon="132.8665275"><ele>1407.8478835111985</ele><time>2022-04-22T07:58:55Z</time></trkpt><trkpt lat="33.4720863" lon="132.8663079"><ele>1412.2416427978376</ele><time>2022-04-22T07:59:12Z</time></trkpt><trkpt lat="33.4720904" lon="132.8660838"><ele>1414.115316140915</ele><time>2022-04-22T07:59:30Z</time></trkpt><trkpt lat="33.4721879" lon="132.8658992"><ele>1415.5491492364927</ele><time>2022-04-22T08:00:36Z</time></trkpt><trkpt lat="33.4722172" lon="132.8656859"><ele>1416.3518302830025</ele><time>2022-04-22T08:00:51Z</time></trkpt><trkpt lat="33.4721185" lon="132.8658682"><ele>1415.7321709473536</ele><time>2022-04-22T08:04:32Z</time></trkpt><trkpt lat="33.4721179" lon="132.8660845"><ele>1415.8677897560203</ele><time>2022-04-22T08:04:52Z</time></trkpt><trkpt lat="33.4720612" lon="132.8662961"><ele>1415.1695917055404</ele><time>2022-04-22T08:05:20Z</time></trkpt><trkpt lat="33.4720514" lon="132.8665169"><ele>1414.4770162405105</ele><time>2022-04-22T08:05:37Z</time></trkpt><trkpt lat="33.4720915" lon="132.8667281"><ele>1411.6581290648085</ele><time>2022-04-22T08:05:53Z</time></trkpt><trkpt lat="33.4721336" lon="132.866938"><ele>1410.1704726716414</ele><time>2022-04-22T08:06:10Z</time></trkpt><trkpt lat="33.4721768" lon="132.8671495"><ele>1408.0832914542798</ele><time>2022-04-22T08:06:30Z</time></trkpt><trkpt lat="33.4721754" lon="132.867367"><ele>1407.0455005796123</ele><time>2022-04-22T08:06:46Z</time></trkpt><trkpt lat="33.4721869" lon="132.8675851"><ele>1405.9879949375306</ele><time>2022-04-22T08:07:43Z</time></trkpt><trkpt lat="33.4721545" lon="132.8678123"><ele>1405.4523722202414</ele><time>2022-04-22T08:07:57Z</time></trkpt><trkpt lat="33.4720982" lon="132.8680205"><ele>1402.3956800229491</ele><time>2022-04-22T08:08:11Z</time></trkpt><trkpt lat="33.4721547" lon="132.8682316"><ele>1401.0305947316385</ele><time>2022-04-22T08:08:23Z</time></trkpt><trkpt lat="33.4721674" lon="132.8684525"><ele>1401.455858426858</ele><time>2022-04-22T08:08:37Z</time></trkpt><trkpt lat="33.4720923" lon="132.868663"><ele>1403.0806941033663</ele><time>2022-04-22T08:08:54Z</time></trkpt><trkpt lat="33.4720422" lon="132.8688767"><ele>1402.5739266314197</ele><time>2022-04-22T08:09:10Z</time></trkpt><trkpt lat="33.4720282" lon="132.8691014"><ele>1399.9003224967291</ele><time>2022-04-22T08:09:28Z</time></trkpt><trkpt lat="33.472027" lon="132.8693234"><ele>1398.0539658827054</ele><time>2022-04-22T08:09:45Z</time></trkpt><trkpt lat="33.4720898" lon="132.8695283"><ele>1395.5337822688034</ele><time>2022-04-22T08:10:00Z</time></trkpt><trkpt lat="33.4722713" lon="132.8695682"><ele>1393.154806805255</ele><time>2022-04-22T08:10:28Z</time></trkpt><trkpt lat="33.472438" lon="132.8694592"><ele>1391.9455076105594</ele><time>2022-04-22T08:10:41Z</time></trkpt><trkpt lat="33.4726098" lon="132.8693558"><ele>1391.0041321252402</ele><time>2022-04-22T08:10:55Z</time></trkpt><trkpt lat="33.4727761" lon="132.8692675"><ele>1391.1967786083333</ele><time>2022-04-22T08:11:10Z</time></trkpt><trkpt lat="33.4729358" lon="132.8693821"><ele>1390.0132108873347</ele><time>2022-04-22T08:11:26Z</time></trkpt><trkpt lat="33.4730521" lon="132.8695518"><ele>1387.631533400681</ele><time>2022-04-22T08:11:41Z</time></trkpt><trkpt lat="33.4732215" lon="132.8696357"><ele>1384.1616897118683</ele><time>2022-04-22T08:11:56Z</time></trkpt><trkpt lat="33.4733798" lon="132.8697465"><ele>1379.7072973401043</ele><time>2022-04-22T08:12:11Z</time></trkpt><trkpt lat="33.4735461" lon="132.8698323"><ele>1376.0207010034458</ele><time>2022-04-22T08:12:24Z</time></trkpt><trkpt lat="33.4736925" lon="132.8699661"><ele>1371.1164127092889</ele><time>2022-04-22T08:12:39Z</time></trkpt><trkpt lat="33.4738563" lon="132.8700668"><ele>1367.7638464680813</ele><time>2022-04-22T08:12:52Z</time></trkpt><trkpt lat="33.4740305" lon="132.8701448"><ele>1364.0154363795748</ele><time>2022-04-22T08:13:08Z</time></trkpt><trkpt lat="33.4741916" lon="132.8702519"><ele>1361.3152248258687</ele><time>2022-04-22T08:13:22Z</time></trkpt><trkpt lat="33.4743392" lon="132.8703757"><ele>1358.4437960846863</ele><time>2022-04-22T08:13:35Z</time></trkpt><trkpt lat="33.4745011" lon="132.8704708"><ele>1354.6061606297842</ele><time>2022-04-22T08:13:53Z</time></trkpt><trkpt lat="33.4746439" lon="132.8706116"><ele>1349.8219970338516</ele><time>2022-04-22T08:14:11Z</time></trkpt><trkpt lat="33.4748232" lon="132.8707205"><ele>1345.1783709167476</ele><time>2022-04-22T08:14:27Z</time></trkpt><trkpt lat="33.4749874" lon="132.8708302"><ele>1341.6671907688885</ele><time>2022-04-22T08:14:39Z</time></trkpt><trkpt lat="33.4751236" lon="132.8709787"><ele>1339.3835450130525</ele><time>2022-04-22T08:15:04Z</time></trkpt><trkpt lat="33.4752841" lon="132.8711109"><ele>1335.8418590107958</ele><time>2022-04-22T08:15:22Z</time></trkpt><trkpt lat="33.4752775" lon="132.8713298"><ele>1332.3482785108333</ele><time>2022-04-22T08:15:41Z</time></trkpt></trkseg></trk></gpx>