<?xml version='1.0' encoding='UTF-8'?><gpx creator="Yama Museum Summit Candidate Generator" xsi:schemaLocation="http://www.topografix.com/GPX/1/1 http://www.topografix.com/GPX/1/1/gpx.xsd" version="1.1" xmlns="http://www.topografix.com/GPX/1/1" xmlns:xsi="http://www.w3.org/2001/XMLSchema-instance" xmlns:yama="https://museum-yama-data.moukaeritai.work/ns/yama-data/0.1"><metadata><bounds maxlat="33.8670931" maxlon="132.7769715" minlat="33.8527896" minlon="132.7689331"/><name>天神山・御幸寺山</name><extensions><yama:source_gpx_basename>yamap_2022-02-15_10_36.gpx</yama:source_gpx_basename><yama:source_gpx_relative_path>data/01_raw/gpx/2026-05-12/yamap_2022-02-15_10_36.gpx</yama:source_gpx_relative_path><yama:detection_parameters>window=5,radius=10,min_prominence=30,merge=100</yama:detection_parameters></extensions></metadata><wpt lat="33.8634835" lon="132.7695824"><ele>195.11333333333334</ele><time>2022-02-15T02:18:03Z</time><name>summit-candidate:543b4550a3ef3e87</name><desc>Summit candidate detected at elevation 195.11333333333334m with prominence 165.77577777777776m.</desc><sym>Summit Candidate</sym><extensions><yama:source_trackpoint_index>86</yama:source_trackpoint_index><yama:valid_elevation_index>86</yama:valid_elevation_index><yama:smoothed_ele>193.88799999999998</yama:smoothed_ele><yama:prominence>165.77577777777776</yama:prominence><yama:detection_method>local_maxima_with_prominence</yama:detection_method><yama:detection_parameters>window=5,radius=10,min_prominence=30,merge=100</yama:detection_parameters><yama:candidate_status>unresolved</yama:candidate_status></extensions></wpt>
  <wpt lat="33.85598" lon="132.7730493"><ele>158.70333333333335</ele><time>2022-02-15T03:04:09Z</time><name>summit-candidate:e4808690532bb46c</name><desc>Summit candidate detected at elevation 158.70333333333335m with prominence 118.49733333333332m.</desc><sym>Summit Candidate</sym><extensions><yama:source_trackpoint_index>239</yama:source_trackpoint_index><yama:valid_elevation_index>239</yama:valid_elevation_index><yama:smoothed_ele>155.05599999999998</yama:smoothed_ele><yama:prominence>118.49733333333332</yama:prominence><yama:detection_method>local_maxima_with_prominence</yama:detection_method><yama:detection_parameters>window=5,radius=10,min_prominence=30,merge=100</yama:detection_parameters><yama:candidate_status>unresolved</yama:candidate_status></extensions></wpt>
  <trk><name>天神山・御幸寺山</name><number>1</number><trkseg><trkpt lat="33.8528034" lon="132.7698936"><ele>27.560000000000002</ele><time>2022-02-15T01:36:41Z</time></trkpt><trkpt lat="33.8529846" lon="132.7699184"><ele>27.560000000000002</ele><time>2022-02-15T01:37:05Z</time></trkpt><trkpt lat="33.8531618" lon="132.7700065"><ele>27.560000000000002</ele><time>2022-02-15T01:37:16Z</time></trkpt><trkpt lat="33.8533394" lon="132.7699691"><ele>27.55333333333333</ele><time>2022-02-15T01:37:36Z</time></trkpt><trkpt lat="33.8533817" lon="132.7697539"><ele>27.55333333333333</ele><time>2022-02-15T01:37:49Z</time></trkpt><trkpt lat="33.8535634" lon="132.769721"><ele>27.80666666666667</ele><time>2022-02-15T01:38:02Z</time></trkpt><trkpt lat="33.8537453" lon="132.7697484"><ele>28.483333333333334</ele><time>2022-02-15T01:38:15Z</time></trkpt><trkpt lat="33.8539355" lon="132.7697529"><ele>29.873333333333335</ele><time>2022-02-15T01:38:29Z</time></trkpt><trkpt lat="33.853983" lon="132.7695412"><ele>31.49333333333333</ele><time>2022-02-15T01:38:44Z</time></trkpt><trkpt lat="33.8540315" lon="132.7693311"><ele>32.81666666666666</ele><time>2022-02-15T01:38:57Z</time></trkpt><trkpt lat="33.8542197" lon="132.7693082"><ele>34.36666666666667</ele><time>2022-02-15T01:39:18Z</time></trkpt><trkpt lat="33.8544089" lon="132.7693004"><ele>37.00333333333334</ele><time>2022-02-15T01:39:30Z</time></trkpt><trkpt lat="33.8545825" lon="132.7692276"><ele>40.54</ele><time>2022-02-15T01:39:48Z</time></trkpt><trkpt lat="33.8547447" lon="132.7693249"><ele>45.73333333333334</ele><time>2022-02-15T01:40:27Z</time></trkpt><trkpt lat="33.8548723" lon="132.7694777"><ele>50.776666666666664</ele><time>2022-02-15T01:41:06Z</time></trkpt><trkpt lat="33.8548731" lon="132.7696946"><ele>57.01666666666667</ele><time>2022-02-15T01:41:44Z</time></trkpt><trkpt lat="33.8550297" lon="132.7698059"><ele>62.47666666666667</ele><time>2022-02-15T01:42:12Z</time></trkpt><trkpt lat="33.8549476" lon="132.7700012"><ele>68.88333333333334</ele><time>2022-02-15T01:43:13Z</time></trkpt><trkpt lat="33.855087" lon="132.7701462"><ele>75.77</ele><time>2022-02-15T01:43:28Z</time></trkpt><trkpt lat="33.8550074" lon="132.7703404"><ele>82.79333333333334</ele><time>2022-02-15T01:43:54Z</time></trkpt><trkpt lat="33.8551667" lon="132.7704442"><ele>90.70333333333333</ele><time>2022-02-15T01:44:36Z</time></trkpt><trkpt lat="33.8553432" lon="132.7705016"><ele>98.54</ele><time>2022-02-15T01:45:04Z</time></trkpt><trkpt lat="33.8555104" lon="132.7705837"><ele>107.95333333333333</ele><time>2022-02-15T01:45:45Z</time></trkpt><trkpt lat="33.8556448" lon="132.7707297"><ele>117.75</ele><time>2022-02-15T01:46:17Z</time></trkpt><trkpt lat="33.8558306" lon="132.7707438"><ele>126.87333333333333</ele><time>2022-02-15T01:46:38Z</time></trkpt><trkpt lat="33.8557228" lon="132.7709182"><ele>132.28333333333333</ele><time>2022-02-15T01:47:23Z</time></trkpt><trkpt lat="33.8559046" lon="132.7709002"><ele>135.92</ele><time>2022-02-15T01:47:40Z</time></trkpt><trkpt lat="33.8560777" lon="132.7708313"><ele>138.92</ele><time>2022-02-15T01:47:58Z</time></trkpt><trkpt lat="33.8562569" lon="132.7707781"><ele>144.63666666666666</ele><time>2022-02-15T01:48:44Z</time></trkpt><trkpt lat="33.8564341" lon="132.7708409"><ele>148.88666666666666</ele><time>2022-02-15T01:49:06Z</time></trkpt><trkpt lat="33.8565738" lon="132.7706883"><ele>151.61333333333334</ele><time>2022-02-15T01:51:22Z</time></trkpt><trkpt lat="33.8567254" lon="132.770565"><ele>150.93666666666667</ele><time>2022-02-15T01:51:31Z</time></trkpt><trkpt lat="33.8569059" lon="132.7705364"><ele>149.15333333333334</ele><time>2022-02-15T01:51:47Z</time></trkpt><trkpt lat="33.857068" lon="132.7704222"><ele>146.31</ele><time>2022-02-15T01:52:11Z</time></trkpt><trkpt lat="33.8571568" lon="132.7702157"><ele>144.21666666666667</ele><time>2022-02-15T01:52:26Z</time></trkpt><trkpt lat="33.8573383" lon="132.7701606"><ele>142.90666666666667</ele><time>2022-02-15T01:52:37Z</time></trkpt><trkpt lat="33.8574965" lon="132.7700479"><ele>142.39666666666665</ele><time>2022-02-15T01:52:50Z</time></trkpt><trkpt lat="33.8576709" lon="132.7699721"><ele>142.07333333333335</ele><time>2022-02-15T01:53:09Z</time></trkpt><trkpt lat="33.857841" lon="132.7698926"><ele>141.75</ele><time>2022-02-15T01:53:25Z</time></trkpt><trkpt lat="33.8579133" lon="132.7696941"><ele>140.25</ele><time>2022-02-15T01:53:53Z</time></trkpt><trkpt lat="33.8580915" lon="132.7696313"><ele>140.54333333333332</ele><time>2022-02-15T01:54:06Z</time></trkpt><trkpt lat="33.8583005" lon="132.7695972"><ele>140.91666666666666</ele><time>2022-02-15T01:54:25Z</time></trkpt><trkpt lat="33.8584464" lon="132.7697246"><ele>145.14666666666668</ele><time>2022-02-15T01:54:51Z</time></trkpt><trkpt lat="33.8586262" lon="132.7697455"><ele>149.16666666666666</ele><time>2022-02-15T01:55:10Z</time></trkpt><trkpt lat="33.8588093" lon="132.7697808"><ele>154.59666666666666</ele><time>2022-02-15T01:55:19Z</time></trkpt><trkpt lat="33.8589947" lon="132.7697982"><ele>158.31333333333333</ele><time>2022-02-15T01:55:34Z</time></trkpt><trkpt lat="33.8591667" lon="132.7697089"><ele>162.00333333333333</ele><time>2022-02-15T01:56:27Z</time></trkpt><trkpt lat="33.8593401" lon="132.7697687"><ele>164.98</ele><time>2022-02-15T01:56:31Z</time></trkpt><trkpt lat="33.8595298" lon="132.7697539"><ele>168.51666666666665</ele><time>2022-02-15T01:58:13Z</time></trkpt><trkpt lat="33.8597141" lon="132.7698466"><ele>168.2433333333333</ele><time>2022-02-15T01:58:24Z</time></trkpt><trkpt lat="33.859879" lon="132.7699439"><ele>167.04333333333332</ele><time>2022-02-15T01:58:35Z</time></trkpt><trkpt lat="33.8600534" lon="132.7700326"><ele>166.39333333333332</ele><time>2022-02-15T01:58:49Z</time></trkpt><trkpt lat="33.860152" lon="132.7702137"><ele>166.93333333333334</ele><time>2022-02-15T01:59:26Z</time></trkpt><trkpt lat="33.8601845" lon="132.7704322"><ele>166.14666666666668</ele><time>2022-02-15T01:59:54Z</time></trkpt><trkpt lat="33.8602036" lon="132.7706546"><ele>162.40666666666667</ele><time>2022-02-15T02:00:09Z</time></trkpt><trkpt lat="33.860053" lon="132.7707752"><ele>158.0233333333333</ele><time>2022-02-15T02:00:32Z</time></trkpt><trkpt lat="33.859864" lon="132.7707763"><ele>153.10000000000002</ele><time>2022-02-15T02:00:55Z</time></trkpt><trkpt lat="33.8596832" lon="132.7707356"><ele>148.35666666666668</ele><time>2022-02-15T02:01:21Z</time></trkpt><trkpt lat="33.8595183" lon="132.7706308"><ele>143.70666666666668</ele><time>2022-02-15T02:01:34Z</time></trkpt><trkpt lat="33.8593569" lon="132.7705184"><ele>141.29333333333332</ele><time>2022-02-15T02:01:50Z</time></trkpt><trkpt lat="33.8595176" lon="132.7706175"><ele>139.75333333333333</ele><time>2022-02-15T02:03:22Z</time></trkpt><trkpt lat="33.8596979" lon="132.7706145"><ele>141.13333333333333</ele><time>2022-02-15T02:03:41Z</time></trkpt><trkpt lat="33.8598803" lon="132.7706104"><ele>144.35333333333332</ele><time>2022-02-15T02:04:10Z</time></trkpt><trkpt lat="33.8600612" lon="132.7706099"><ele>149.37333333333333</ele><time>2022-02-15T02:04:37Z</time></trkpt><trkpt lat="33.8602405" lon="132.7706538"><ele>155.10999999999999</ele><time>2022-02-15T02:05:39Z</time></trkpt><trkpt lat="33.8603267" lon="132.7704599"><ele>160.42333333333335</ele><time>2022-02-15T02:06:22Z</time></trkpt><trkpt lat="33.8605071" lon="132.7704823"><ele>166.06333333333333</ele><time>2022-02-15T02:06:43Z</time></trkpt><trkpt lat="33.8606687" lon="132.7705984"><ele>172.81333333333336</ele><time>2022-02-15T02:07:03Z</time></trkpt><trkpt lat="33.8608195" lon="132.7707195"><ele>178.31000000000003</ele><time>2022-02-15T02:07:51Z</time></trkpt><trkpt lat="33.8608976" lon="132.7705195"><ele>181.74666666666667</ele><time>2022-02-15T02:09:57Z</time></trkpt><trkpt lat="33.8609853" lon="132.7703172"><ele>181.4333333333333</ele><time>2022-02-15T02:10:10Z</time></trkpt><trkpt lat="33.8610594" lon="132.7701181"><ele>177.75</ele><time>2022-02-15T02:10:26Z</time></trkpt><trkpt lat="33.8611584" lon="132.7699359"><ele>171.5</ele><time>2022-02-15T02:10:41Z</time></trkpt><trkpt lat="33.8612943" lon="132.7697848"><ele>165.11333333333334</ele><time>2022-02-15T02:11:00Z</time></trkpt><trkpt lat="33.861474" lon="132.7698033"><ele>162.06000000000003</ele><time>2022-02-15T02:11:31Z</time></trkpt><trkpt lat="33.8615867" lon="132.769624"><ele>163.34</ele><time>2022-02-15T02:11:56Z</time></trkpt><trkpt lat="33.8617226" lon="132.7694774"><ele>166.19333333333336</ele><time>2022-02-15T02:12:12Z</time></trkpt><trkpt lat="33.8619082" lon="132.769449"><ele>167.84333333333333</ele><time>2022-02-15T02:13:59Z</time></trkpt><trkpt lat="33.8620991" lon="132.7694434"><ele>168.32000000000002</ele><time>2022-02-15T02:14:10Z</time></trkpt><trkpt lat="33.8622732" lon="132.7694998"><ele>169.34000000000003</ele><time>2022-02-15T02:14:25Z</time></trkpt><trkpt lat="33.8624438" lon="132.7694178"><ele>174.33666666666667</ele><time>2022-02-15T02:14:56Z</time></trkpt><trkpt lat="33.86262" lon="132.7694662"><ele>180.15333333333334</ele><time>2022-02-15T02:15:30Z</time></trkpt><trkpt lat="33.8628041" lon="132.7694779"><ele>186.51333333333332</ele><time>2022-02-15T02:16:02Z</time></trkpt><trkpt lat="33.8629861" lon="132.7694799"><ele>190.67333333333332</ele><time>2022-02-15T02:16:33Z</time></trkpt><trkpt lat="33.8631678" lon="132.7695105"><ele>194.30333333333337</ele><time>2022-02-15T02:17:30Z</time></trkpt><trkpt lat="33.8633406" lon="132.769439"><ele>195.59333333333333</ele><time>2022-02-15T02:17:47Z</time></trkpt><trkpt lat="33.8634835" lon="132.7695824"><ele>195.11333333333334</ele><time>2022-02-15T02:18:03Z</time></trkpt><trkpt lat="33.8636686" lon="132.7696266"><ele>193.03666666666666</ele><time>2022-02-15T02:18:18Z</time></trkpt><trkpt lat="33.8638413" lon="132.7695399"><ele>191.39333333333335</ele><time>2022-02-15T02:18:33Z</time></trkpt><trkpt lat="33.8639993" lon="132.7694249"><ele>189.65666666666667</ele><time>2022-02-15T02:18:49Z</time></trkpt><trkpt lat="33.8641597" lon="132.769536"><ele>187.79333333333332</ele><time>2022-02-15T02:19:11Z</time></trkpt><trkpt lat="33.8643329" lon="132.7696052"><ele>185.01</ele><time>2022-02-15T02:19:25Z</time></trkpt><trkpt lat="33.8645214" lon="132.7695548"><ele>182.37333333333333</ele><time>2022-02-15T02:19:42Z</time></trkpt><trkpt lat="33.8645219" lon="132.7693359"><ele>179.71000000000004</ele><time>2022-02-15T02:21:24Z</time></trkpt><trkpt lat="33.8645865" lon="132.7691332"><ele>175.72</ele><time>2022-02-15T02:22:48Z</time></trkpt><trkpt lat="33.8646698" lon="132.7689331"><ele>169.14000000000001</ele><time>2022-02-15T02:23:09Z</time></trkpt><trkpt lat="33.8648274" lon="132.7690404"><ele>162.89333333333335</ele><time>2022-02-15T02:23:30Z</time></trkpt><trkpt lat="33.8650103" lon="132.7690246"><ele>156.70666666666668</ele><time>2022-02-15T02:23:43Z</time></trkpt><trkpt lat="33.8650056" lon="132.7692411"><ele>157.14333333333332</ele><time>2022-02-15T02:23:58Z</time></trkpt><trkpt lat="33.8649514" lon="132.7694515"><ele>158.84</ele><time>2022-02-15T02:24:13Z</time></trkpt><trkpt lat="33.8649635" lon="132.7696681"><ele>160.42</ele><time>2022-02-15T02:24:37Z</time></trkpt><trkpt lat="33.8649455" lon="132.7698956"><ele>154.34</ele><time>2022-02-15T02:24:49Z</time></trkpt><trkpt lat="33.8649002" lon="132.7701187"><ele>147.83</ele><time>2022-02-15T02:25:03Z</time></trkpt><trkpt lat="33.8648252" lon="132.7703215"><ele>142.79666666666665</ele><time>2022-02-15T02:25:15Z</time></trkpt><trkpt lat="33.864728" lon="132.770507"><ele>142.02</ele><time>2022-02-15T02:25:27Z</time></trkpt><trkpt lat="33.8645938" lon="132.7706528"><ele>139.83333333333334</ele><time>2022-02-15T02:25:37Z</time></trkpt><trkpt lat="33.8647101" lon="132.77082"><ele>136.04666666666665</ele><time>2022-02-15T02:26:05Z</time></trkpt><trkpt lat="33.8648454" lon="132.770674"><ele>134.10333333333332</ele><time>2022-02-15T02:26:15Z</time></trkpt><trkpt lat="33.8649683" lon="132.7705057"><ele>133.27666666666667</ele><time>2022-02-15T02:26:28Z</time></trkpt><trkpt lat="33.8650232" lon="132.7702988"><ele>134.74666666666667</ele><time>2022-02-15T02:26:40Z</time></trkpt><trkpt lat="33.8650195" lon="132.7700825"><ele>135.36666666666667</ele><time>2022-02-15T02:26:54Z</time></trkpt><trkpt lat="33.8651235" lon="132.7699055"><ele>136.89333333333332</ele><time>2022-02-15T02:27:07Z</time></trkpt><trkpt lat="33.865297" lon="132.7699764"><ele>137.53333333333333</ele><time>2022-02-15T02:27:22Z</time></trkpt><trkpt lat="33.8654298" lon="132.770128"><ele>135.12333333333333</ele><time>2022-02-15T02:27:36Z</time></trkpt><trkpt lat="33.8655153" lon="132.7703248"><ele>129.89666666666668</ele><time>2022-02-15T02:27:50Z</time></trkpt><trkpt lat="33.8654724" lon="132.770535"><ele>123.75666666666666</ele><time>2022-02-15T02:28:04Z</time></trkpt><trkpt lat="33.8654474" lon="132.7707507"><ele>117.55666666666666</ele><time>2022-02-15T02:28:16Z</time></trkpt><trkpt lat="33.8653308" lon="132.7709199"><ele>114.18666666666667</ele><time>2022-02-15T02:28:26Z</time></trkpt><trkpt lat="33.8651478" lon="132.770934"><ele>114.21666666666665</ele><time>2022-02-15T02:28:43Z</time></trkpt><trkpt lat="33.8653331" lon="132.7708828"><ele>115.08999999999999</ele><time>2022-02-15T02:28:53Z</time></trkpt><trkpt lat="33.8655127" lon="132.7709098"><ele>112.05666666666667</ele><time>2022-02-15T02:29:00Z</time></trkpt><trkpt lat="33.8656982" lon="132.7709494"><ele>106.24000000000001</ele><time>2022-02-15T02:29:14Z</time></trkpt><trkpt lat="33.8658799" lon="132.7710214"><ele>101.19666666666666</ele><time>2022-02-15T02:29:30Z</time></trkpt><trkpt lat="33.8660621" lon="132.7709653"><ele>101.31</ele><time>2022-02-15T02:29:41Z</time></trkpt><trkpt lat="33.8662524" lon="132.7709712"><ele>101.91333333333334</ele><time>2022-02-15T02:29:54Z</time></trkpt><trkpt lat="33.8664289" lon="132.7710277"><ele>99.89999999999999</ele><time>2022-02-15T02:30:05Z</time></trkpt><trkpt lat="33.8666164" lon="132.7710462"><ele>94.62333333333333</ele><time>2022-02-15T02:30:19Z</time></trkpt><trkpt lat="33.8668049" lon="132.7711024"><ele>89.74333333333334</ele><time>2022-02-15T02:30:34Z</time></trkpt><trkpt lat="33.8669859" lon="132.7711147"><ele>88.02</ele><time>2022-02-15T02:30:47Z</time></trkpt><trkpt lat="33.8670078" lon="132.7713316"><ele>85.27666666666666</ele><time>2022-02-15T02:31:00Z</time></trkpt><trkpt lat="33.8669519" lon="132.7715487"><ele>83.52333333333334</ele><time>2022-02-15T02:31:12Z</time></trkpt><trkpt lat="33.8670457" lon="132.7717385"><ele>81.26666666666667</ele><time>2022-02-15T02:31:23Z</time></trkpt><trkpt lat="33.8670515" lon="132.7719548"><ele>80.73333333333333</ele><time>2022-02-15T02:31:36Z</time></trkpt><trkpt lat="33.867076" lon="132.7721721"><ele>78.84666666666668</ele><time>2022-02-15T02:32:05Z</time></trkpt><trkpt lat="33.8670931" lon="132.7723999"><ele>77.18666666666667</ele><time>2022-02-15T02:32:21Z</time></trkpt><trkpt lat="33.8670141" lon="132.7725986"><ele>74.77</ele><time>2022-02-15T02:32:38Z</time></trkpt><trkpt lat="33.8669121" lon="132.7727778"><ele>72.40333333333332</ele><time>2022-02-15T02:32:55Z</time></trkpt><trkpt lat="33.8667416" lon="132.7728542"><ele>70.28</ele><time>2022-02-15T02:33:08Z</time></trkpt><trkpt lat="33.8665581" lon="132.7728634"><ele>69.47333333333333</ele><time>2022-02-15T02:33:20Z</time></trkpt><trkpt lat="33.8663853" lon="132.7727983"><ele>69.22</ele><time>2022-02-15T02:33:31Z</time></trkpt><trkpt lat="33.8661991" lon="132.7727668"><ele>68.96333333333332</ele><time>2022-02-15T02:33:46Z</time></trkpt><trkpt lat="33.8660119" lon="132.7727822"><ele>68.55666666666667</ele><time>2022-02-15T02:33:58Z</time></trkpt><trkpt lat="33.865823" lon="132.7728175"><ele>68.46666666666668</ele><time>2022-02-15T02:34:11Z</time></trkpt><trkpt lat="33.865646" lon="132.7728593"><ele>68.59666666666668</ele><time>2022-02-15T02:34:23Z</time></trkpt><trkpt lat="33.8654642" lon="132.7729157"><ele>68.92666666666668</ele><time>2022-02-15T02:34:33Z</time></trkpt><trkpt lat="33.8653261" lon="132.7730598"><ele>69.10000000000001</ele><time>2022-02-15T02:34:45Z</time></trkpt><trkpt lat="33.865359" lon="132.7732749"><ele>68.75666666666667</ele><time>2022-02-15T02:35:01Z</time></trkpt><trkpt lat="33.8652791" lon="132.7734697"><ele>67.93333333333334</ele><time>2022-02-15T02:35:19Z</time></trkpt><trkpt lat="33.865098" lon="132.7735086"><ele>67.00333333333334</ele><time>2022-02-15T02:35:33Z</time></trkpt><trkpt lat="33.8649589" lon="132.7733553"><ele>66.93</ele><time>2022-02-15T02:35:44Z</time></trkpt><trkpt lat="33.8647808" lon="132.7733035"><ele>67.04333333333334</ele><time>2022-02-15T02:35:57Z</time></trkpt><trkpt lat="33.8645872" lon="132.7733235"><ele>67.24666666666667</ele><time>2022-02-15T02:36:13Z</time></trkpt><trkpt lat="33.864417" lon="132.7734134"><ele>66.98</ele><time>2022-02-15T02:36:26Z</time></trkpt><trkpt lat="33.8642356" lon="132.7734661"><ele>67.23</ele><time>2022-02-15T02:36:40Z</time></trkpt><trkpt lat="33.8640556" lon="132.7735381"><ele>67.30333333333334</ele><time>2022-02-15T02:36:52Z</time></trkpt><trkpt lat="33.8638781" lon="132.773611"><ele>67.05333333333334</ele><time>2022-02-15T02:37:04Z</time></trkpt><trkpt lat="33.8637147" lon="132.7737212"><ele>66.22666666666667</ele><time>2022-02-15T02:37:16Z</time></trkpt><trkpt lat="33.8635932" lon="132.773887"><ele>64.61</ele><time>2022-02-15T02:37:42Z</time></trkpt><trkpt lat="33.8634115" lon="132.7739454"><ele>63.423333333333325</ele><time>2022-02-15T02:37:55Z</time></trkpt><trkpt lat="33.8632337" lon="132.7739885"><ele>62.49000000000001</ele><time>2022-02-15T02:38:04Z</time></trkpt><trkpt lat="33.8630764" lon="132.7741121"><ele>62.330000000000005</ele><time>2022-02-15T02:38:16Z</time></trkpt><trkpt lat="33.8629199" lon="132.7742208"><ele>62.26</ele><time>2022-02-15T02:38:27Z</time></trkpt><trkpt lat="33.8627365" lon="132.7742466"><ele>61.93</ele><time>2022-02-15T02:38:50Z</time></trkpt><trkpt lat="33.8625987" lon="132.7743889"><ele>61.78333333333333</ele><time>2022-02-15T02:39:23Z</time></trkpt><trkpt lat="33.8624623" lon="132.7745401"><ele>61.449999999999996</ele><time>2022-02-15T02:39:34Z</time></trkpt><trkpt lat="33.8622982" lon="132.7746393"><ele>61.79</ele><time>2022-02-15T02:39:42Z</time></trkpt><trkpt lat="33.8621876" lon="132.7748199"><ele>62.18333333333334</ele><time>2022-02-15T02:39:58Z</time></trkpt><trkpt lat="33.8621309" lon="132.7750357"><ele>61.06666666666666</ele><time>2022-02-15T02:40:13Z</time></trkpt><trkpt lat="33.8620058" lon="132.7751982"><ele>58.71</ele><time>2022-02-15T02:40:21Z</time></trkpt><trkpt lat="33.8618509" lon="132.775329"><ele>55.76</ele><time>2022-02-15T02:40:32Z</time></trkpt><trkpt lat="33.8617144" lon="132.7754812"><ele>53.65</ele><time>2022-02-15T02:40:46Z</time></trkpt><trkpt lat="33.8615396" lon="132.7755435"><ele>52.15</ele><time>2022-02-15T02:40:55Z</time></trkpt><trkpt lat="33.8613603" lon="132.7756177"><ele>50.839999999999996</ele><time>2022-02-15T02:41:10Z</time></trkpt><trkpt lat="33.861201" lon="132.775732"><ele>50.03333333333334</ele><time>2022-02-15T02:41:22Z</time></trkpt><trkpt lat="33.8610208" lon="132.7758017"><ele>49.43</ele><time>2022-02-15T02:41:35Z</time></trkpt><trkpt lat="33.8608548" lon="132.7758923"><ele>49.00333333333333</ele><time>2022-02-15T02:41:48Z</time></trkpt><trkpt lat="33.8606841" lon="132.7759645"><ele>48.50333333333333</ele><time>2022-02-15T02:42:03Z</time></trkpt><trkpt lat="33.8605079" lon="132.7760242"><ele>48.07</ele><time>2022-02-15T02:42:16Z</time></trkpt><trkpt lat="33.8603401" lon="132.7761183"><ele>47.81333333333333</ele><time>2022-02-15T02:42:31Z</time></trkpt><trkpt lat="33.8601823" lon="132.7762481"><ele>47.696666666666665</ele><time>2022-02-15T02:42:46Z</time></trkpt><trkpt lat="33.8600321" lon="132.7763733"><ele>47.50333333333333</ele><time>2022-02-15T02:42:59Z</time></trkpt><trkpt lat="33.859871" lon="132.776479"><ele>46.70666666666667</ele><time>2022-02-15T02:43:13Z</time></trkpt><trkpt lat="33.8597021" lon="132.7765643"><ele>45.98666666666667</ele><time>2022-02-15T02:43:24Z</time></trkpt><trkpt lat="33.8595676" lon="132.7767102"><ele>45.34</ele><time>2022-02-15T02:43:37Z</time></trkpt><trkpt lat="33.8593744" lon="132.7767369"><ele>45.27333333333333</ele><time>2022-02-15T02:43:51Z</time></trkpt><trkpt lat="33.8591893" lon="132.7767148"><ele>46.20333333333334</ele><time>2022-02-15T02:44:02Z</time></trkpt><trkpt lat="33.8590308" lon="132.7768236"><ele>46.550000000000004</ele><time>2022-02-15T02:44:14Z</time></trkpt><trkpt lat="33.8588569" lon="132.7769024"><ele>46.73333333333334</ele><time>2022-02-15T02:44:26Z</time></trkpt><trkpt lat="33.8586797" lon="132.7769715"><ele>45.803333333333335</ele><time>2022-02-15T02:44:37Z</time></trkpt><trkpt lat="33.8584972" lon="132.7769472"><ele>45.18000000000001</ele><time>2022-02-15T02:44:50Z</time></trkpt><trkpt lat="33.8583179" lon="132.7769195"><ele>44.696666666666665</ele><time>2022-02-15T02:45:01Z</time></trkpt><trkpt lat="33.8581371" lon="132.7769268"><ele>44.473333333333336</ele><time>2022-02-15T02:45:15Z</time></trkpt><trkpt lat="33.8579465" lon="132.7769345"><ele>44.54666666666666</ele><time>2022-02-15T02:45:27Z</time></trkpt><trkpt lat="33.857776" lon="132.7768486"><ele>44.56333333333333</ele><time>2022-02-15T02:45:39Z</time></trkpt><trkpt lat="33.8576313" lon="132.7767005"><ele>44.42666666666667</ele><time>2022-02-15T02:45:51Z</time></trkpt><trkpt lat="33.8574717" lon="132.7765875"><ele>44.29</ele><time>2022-02-15T02:46:02Z</time></trkpt><trkpt lat="33.8572939" lon="132.7765419"><ele>44.42666666666667</ele><time>2022-02-15T02:46:13Z</time></trkpt><trkpt lat="33.8571138" lon="132.7765219"><ele>44.26</ele><time>2022-02-15T02:46:23Z</time></trkpt><trkpt lat="33.8569375" lon="132.7764654"><ele>43.910000000000004</ele><time>2022-02-15T02:46:36Z</time></trkpt><trkpt lat="33.8567806" lon="132.7763554"><ele>43.64666666666667</ele><time>2022-02-15T02:46:49Z</time></trkpt><trkpt lat="33.8566245" lon="132.7762286"><ele>44.01</ele><time>2022-02-15T02:47:02Z</time></trkpt><trkpt lat="33.8564684" lon="132.7761204"><ele>45.173333333333325</ele><time>2022-02-15T02:47:14Z</time></trkpt><trkpt lat="33.8562873" lon="132.7760964"><ele>45.86000000000001</ele><time>2022-02-15T02:47:27Z</time></trkpt><trkpt lat="33.8561039" lon="132.7760591"><ele>45.949999999999996</ele><time>2022-02-15T02:47:39Z</time></trkpt><trkpt lat="33.855924" lon="132.7760402"><ele>44.903333333333336</ele><time>2022-02-15T02:47:50Z</time></trkpt><trkpt lat="33.8557404" lon="132.7760051"><ele>42.85</ele><time>2022-02-15T02:48:03Z</time></trkpt><trkpt lat="33.8555578" lon="132.7760435"><ele>40.60666666666666</ele><time>2022-02-15T02:48:15Z</time></trkpt><trkpt lat="33.8553781" lon="132.7760675"><ele>38.809999999999995</ele><time>2022-02-15T02:48:26Z</time></trkpt><trkpt lat="33.8552001" lon="132.7761156"><ele>37.68</ele><time>2022-02-15T02:48:38Z</time></trkpt><trkpt lat="33.8550168" lon="132.7761004"><ele>36.403333333333336</ele><time>2022-02-15T02:48:50Z</time></trkpt><trkpt lat="33.8550197" lon="132.7758788"><ele>35.5</ele><time>2022-02-15T02:49:02Z</time></trkpt><trkpt lat="33.8549648" lon="132.7756687"><ele>35.82</ele><time>2022-02-15T02:49:13Z</time></trkpt><trkpt lat="33.8550221" lon="132.7754585"><ele>37.39</ele><time>2022-02-15T02:49:27Z</time></trkpt><trkpt lat="33.8550136" lon="132.7752414"><ele>39.42666666666667</ele><time>2022-02-15T02:49:41Z</time></trkpt><trkpt lat="33.8550145" lon="132.7750227"><ele>41.28666666666666</ele><time>2022-02-15T02:49:57Z</time></trkpt><trkpt lat="33.855069" lon="132.774815"><ele>44.370000000000005</ele><time>2022-02-15T02:50:09Z</time></trkpt><trkpt lat="33.8552467" lon="132.7747395"><ele>47.68333333333334</ele><time>2022-02-15T02:50:28Z</time></trkpt><trkpt lat="33.8554282" lon="132.7747849"><ele>50.34</ele><time>2022-02-15T02:50:42Z</time></trkpt><trkpt lat="33.855592" lon="132.7748839"><ele>51.04333333333333</ele><time>2022-02-15T02:50:54Z</time></trkpt><trkpt lat="33.8557486" lon="132.7747725"><ele>51.49666666666667</ele><time>2022-02-15T02:51:10Z</time></trkpt><trkpt lat="33.8559371" lon="132.7747799"><ele>52.52666666666667</ele><time>2022-02-15T02:51:39Z</time></trkpt><trkpt lat="33.8561217" lon="132.7747749"><ele>55.25</ele><time>2022-02-15T02:51:49Z</time></trkpt><trkpt lat="33.8562837" lon="132.7746604"><ele>58.32</ele><time>2022-02-15T02:52:00Z</time></trkpt><trkpt lat="33.8564539" lon="132.7745713"><ele>62.67000000000001</ele><time>2022-02-15T02:52:18Z</time></trkpt><trkpt lat="33.8566002" lon="132.7744445"><ele>66.31666666666668</ele><time>2022-02-15T02:52:38Z</time></trkpt><trkpt lat="33.8567786" lon="132.7743986"><ele>68.90333333333334</ele><time>2022-02-15T02:52:56Z</time></trkpt><trkpt lat="33.8569167" lon="132.7742573"><ele>70.04666666666667</ele><time>2022-02-15T02:53:19Z</time></trkpt><trkpt lat="33.8569865" lon="132.7740479"><ele>71.95333333333333</ele><time>2022-02-15T02:53:37Z</time></trkpt><trkpt lat="33.8570055" lon="132.7738219"><ele>76.44</ele><time>2022-02-15T02:54:01Z</time></trkpt><trkpt lat="33.8568278" lon="132.7737655"><ele>77.49000000000001</ele><time>2022-02-15T02:55:35Z</time></trkpt><trkpt lat="33.8566725" lon="132.7736531"><ele>80.98333333333333</ele><time>2022-02-15T02:56:04Z</time></trkpt><trkpt lat="33.8565323" lon="132.7738004"><ele>87.59666666666668</ele><time>2022-02-15T02:56:38Z</time></trkpt><trkpt lat="33.8563971" lon="132.773657"><ele>103.89666666666666</ele><time>2022-02-15T02:57:25Z</time></trkpt><trkpt lat="33.8562789" lon="132.7738245"><ele>117.63666666666666</ele><time>2022-02-15T02:58:01Z</time></trkpt><trkpt lat="33.856093" lon="132.7738491"><ele>128.22</ele><time>2022-02-15T02:58:34Z</time></trkpt><trkpt lat="33.8559966" lon="132.7736613"><ele>136.80333333333334</ele><time>2022-02-15T02:59:18Z</time></trkpt><trkpt lat="33.8558165" lon="132.7736263"><ele>145.4</ele><time>2022-02-15T02:59:58Z</time></trkpt><trkpt lat="33.8557832" lon="132.7734085"><ele>151.59</ele><time>2022-02-15T03:00:34Z</time></trkpt><trkpt lat="33.8559009" lon="132.7732436"><ele>156.15666666666667</ele><time>2022-02-15T03:00:57Z</time></trkpt><trkpt lat="33.85598" lon="132.7730493"><ele>158.70333333333335</ele><time>2022-02-15T03:04:09Z</time></trkpt><trkpt lat="33.8560152" lon="132.7728371"><ele>157.77666666666667</ele><time>2022-02-15T03:05:23Z</time></trkpt><trkpt lat="33.8560171" lon="132.7726208"><ele>151.0533333333333</ele><time>2022-02-15T03:06:46Z</time></trkpt><trkpt lat="33.8560607" lon="132.7724047"><ele>140.69333333333333</ele><time>2022-02-15T03:07:03Z</time></trkpt><trkpt lat="33.8558765" lon="132.7724148"><ele>133.35666666666668</ele><time>2022-02-15T03:07:28Z</time></trkpt><trkpt lat="33.8557181" lon="132.7725197"><ele>125.49666666666667</ele><time>2022-02-15T03:08:09Z</time></trkpt><trkpt lat="33.8556211" lon="132.772331"><ele>120.00999999999999</ele><time>2022-02-15T03:08:33Z</time></trkpt><trkpt lat="33.8555506" lon="132.7721218"><ele>113.53666666666668</ele><time>2022-02-15T03:09:02Z</time></trkpt><trkpt lat="33.8553709" lon="132.7720755"><ele>106.05666666666667</ele><time>2022-02-15T03:09:39Z</time></trkpt><trkpt lat="33.8551986" lon="132.7721525"><ele>97.47333333333331</ele><time>2022-02-15T03:10:08Z</time></trkpt><trkpt lat="33.8550229" lon="132.7722205"><ele>85.95</ele><time>2022-02-15T03:10:59Z</time></trkpt><trkpt lat="33.8548386" lon="132.7722388"><ele>74.68</ele><time>2022-02-15T03:11:19Z</time></trkpt><trkpt lat="33.8546563" lon="132.7722169"><ele>62.596666666666664</ele><time>2022-02-15T03:11:43Z</time></trkpt><trkpt lat="33.8544756" lon="132.77217"><ele>52.96666666666667</ele><time>2022-02-15T03:12:39Z</time></trkpt><trkpt lat="33.8542931" lon="132.7721733"><ele>45.57333333333333</ele><time>2022-02-15T03:12:51Z</time></trkpt><trkpt lat="33.8540999" lon="132.7721743"><ele>41.22</ele><time>2022-02-15T03:13:04Z</time></trkpt><trkpt lat="33.8539199" lon="132.772197"><ele>37.61000000000001</ele><time>2022-02-15T03:13:17Z</time></trkpt><trkpt lat="33.8537368" lon="132.7722105"><ele>34.830000000000005</ele><time>2022-02-15T03:13:32Z</time></trkpt><trkpt lat="33.8535602" lon="132.7721643"><ele>32.04333333333334</ele><time>2022-02-15T03:13:47Z</time></trkpt><trkpt lat="33.8533735" lon="132.7722032"><ele>30.013333333333335</ele><time>2022-02-15T03:14:02Z</time></trkpt><trkpt lat="33.8532646" lon="132.7720278"><ele>28.97</ele><time>2022-02-15T03:14:36Z</time></trkpt><trkpt lat="33.853226" lon="132.7718136"><ele>28.513333333333335</ele><time>2022-02-15T03:14:52Z</time></trkpt><trkpt lat="33.8532002" lon="132.7715902"><ele>28.313333333333333</ele><time>2022-02-15T03:15:04Z</time></trkpt><trkpt lat="33.8532235" lon="132.771357"><ele>28.203333333333337</ele><time>2022-02-15T03:15:18Z</time></trkpt><trkpt lat="33.8531574" lon="132.7711534"><ele>28.136666666666667</ele><time>2022-02-15T03:15:31Z</time></trkpt><trkpt lat="33.8529669" lon="132.7711728"><ele>28.100000000000005</ele><time>2022-02-15T03:15:40Z</time></trkpt><trkpt lat="33.8527896" lon="132.7712179"><ele>28.100000000000005</ele><time>2022-02-15T03:15:50Z</time></trkpt></trkseg></trk></gpx>