<?xml version='1.0' encoding='UTF-8'?><gpx creator="Yama Museum Summit Candidate Generator" xsi:schemaLocation="http://www.topografix.com/GPX/1/1 http://www.topografix.com/GPX/1/1/gpx.xsd" version="1.1" xmlns="http://www.topografix.com/GPX/1/1" xmlns:xsi="http://www.w3.org/2001/XMLSchema-instance" xmlns:yama="https://museum-yama-data.moukaeritai.work/ns/yama-data/0.1"><metadata><bounds maxlat="33.8190297" maxlon="132.8531144" minlat="33.8128992" minlon="132.842102"/><name>明神山・潮見山</name><extensions><yama:source_gpx_basename>yamap_2022-03-23_07_38.gpx</yama:source_gpx_basename><yama:source_gpx_relative_path>data/01_raw/gpx/2026-05-12/yamap_2022-03-23_07_38.gpx</yama:source_gpx_relative_path><yama:detection_parameters>window=5,radius=10,min_prominence=30,merge=100</yama:detection_parameters></extensions></metadata><wpt lat="33.816673" lon="132.8428244"><ele>152.25333333333333</ele><time>2022-03-22T22:51:07Z</time><name>summit-candidate:3259dfe3d9ce60c5</name><desc>Summit candidate detected at elevation 152.25333333333333m with prominence 56.46200000000002m.</desc><sym>Summit Candidate</sym><extensions><yama:source_trackpoint_index>41</yama:source_trackpoint_index><yama:valid_elevation_index>41</yama:valid_elevation_index><yama:smoothed_ele>153.29333333333335</yama:smoothed_ele><yama:prominence>56.46200000000002</yama:prominence><yama:detection_method>local_maxima_with_prominence</yama:detection_method><yama:detection_parameters>window=5,radius=10,min_prominence=30,merge=100</yama:detection_parameters><yama:candidate_status>unresolved</yama:candidate_status></extensions></wpt>
  <wpt lat="33.8188713" lon="132.8530104"><ele>210.93999999999997</ele><time>2022-03-22T23:37:05Z</time><name>summit-candidate:45439217573adfc4</name><desc>Summit candidate detected at elevation 210.93999999999997m with prominence 104.732m.</desc><sym>Summit Candidate</sym><extensions><yama:source_trackpoint_index>141</yama:source_trackpoint_index><yama:valid_elevation_index>141</yama:valid_elevation_index><yama:smoothed_ele>208.02866666666668</yama:smoothed_ele><yama:prominence>104.732</yama:prominence><yama:detection_method>local_maxima_with_prominence</yama:detection_method><yama:detection_parameters>window=5,radius=10,min_prominence=30,merge=100</yama:detection_parameters><yama:candidate_status>unresolved</yama:candidate_status></extensions></wpt>
  <trk><name>明神山・潮見山</name><number>1</number><trkseg><trkpt lat="33.8162483" lon="132.8461161"><ele>100.65</ele><time>2022-03-22T22:38:59Z</time></trkpt><trkpt lat="33.816363" lon="132.8459413"><ele>100.685</ele><time>2022-03-22T22:39:13Z</time></trkpt><trkpt lat="33.8162383" lon="132.8457703"><ele>100.76666666666667</ele><time>2022-03-22T22:39:29Z</time></trkpt><trkpt lat="33.816125" lon="132.8456017"><ele>100.64</ele><time>2022-03-22T22:39:42Z</time></trkpt><trkpt lat="33.8159698" lon="132.8454794"><ele>100.32</ele><time>2022-03-22T22:39:55Z</time></trkpt><trkpt lat="33.8158066" lon="132.8453684"><ele>99.75999999999999</ele><time>2022-03-22T22:40:08Z</time></trkpt><trkpt lat="33.8156341" lon="132.8452736"><ele>99.21333333333332</ele><time>2022-03-22T22:40:29Z</time></trkpt><trkpt lat="33.8154975" lon="132.8451312"><ele>98.69666666666667</ele><time>2022-03-22T22:40:42Z</time></trkpt><trkpt lat="33.8154492" lon="132.844913"><ele>98.45333333333333</ele><time>2022-03-22T22:40:56Z</time></trkpt><trkpt lat="33.8152952" lon="132.8447776"><ele>98.46333333333332</ele><time>2022-03-22T22:41:10Z</time></trkpt><trkpt lat="33.81511" lon="132.8447212"><ele>98.39999999999999</ele><time>2022-03-22T22:41:20Z</time></trkpt><trkpt lat="33.8149599" lon="132.8445856"><ele>98.34666666666668</ele><time>2022-03-22T22:41:34Z</time></trkpt><trkpt lat="33.814877" lon="132.8443767"><ele>98.35000000000001</ele><time>2022-03-22T22:41:47Z</time></trkpt><trkpt lat="33.8148189" lon="132.8441622"><ele>101.78333333333335</ele><time>2022-03-22T22:41:59Z</time></trkpt><trkpt lat="33.8146437" lon="132.8440649"><ele>103.58666666666666</ele><time>2022-03-22T22:42:11Z</time></trkpt><trkpt lat="33.8144471" lon="132.8440659"><ele>103.49000000000001</ele><time>2022-03-22T22:42:22Z</time></trkpt><trkpt lat="33.8142772" lon="132.8439547"><ele>99.91333333333334</ele><time>2022-03-22T22:42:33Z</time></trkpt><trkpt lat="33.8141012" lon="132.8438773"><ele>97.57666666666667</ele><time>2022-03-22T22:42:42Z</time></trkpt><trkpt lat="33.813969" lon="132.8437286"><ele>96.99666666666667</ele><time>2022-03-22T22:42:58Z</time></trkpt><trkpt lat="33.8139494" lon="132.8434962"><ele>96.79333333333334</ele><time>2022-03-22T22:43:11Z</time></trkpt><trkpt lat="33.8138722" lon="132.8432897"><ele>96.81333333333333</ele><time>2022-03-22T22:43:23Z</time></trkpt><trkpt lat="33.8138319" lon="132.8430688"><ele>96.59666666666668</ele><time>2022-03-22T22:43:34Z</time></trkpt><trkpt lat="33.8139799" lon="132.8432023"><ele>96.95666666666666</ele><time>2022-03-22T22:44:22Z</time></trkpt><trkpt lat="33.8140641" lon="132.8433955"><ele>97.69333333333334</ele><time>2022-03-22T22:44:39Z</time></trkpt><trkpt lat="33.8142511" lon="132.84338"><ele>101.11333333333334</ele><time>2022-03-22T22:45:53Z</time></trkpt><trkpt lat="33.814425" lon="132.8434599"><ele>106.30666666666667</ele><time>2022-03-22T22:46:21Z</time></trkpt><trkpt lat="33.81458" lon="132.8435703"><ele>112.93666666666667</ele><time>2022-03-22T22:46:46Z</time></trkpt><trkpt lat="33.8147553" lon="132.8436443"><ele>118.57666666666667</ele><time>2022-03-22T22:47:03Z</time></trkpt><trkpt lat="33.8149371" lon="132.8436739"><ele>121.96666666666665</ele><time>2022-03-22T22:47:21Z</time></trkpt><trkpt lat="33.8151187" lon="132.8436844"><ele>125.44000000000001</ele><time>2022-03-22T22:47:36Z</time></trkpt><trkpt lat="33.815298" lon="132.8436531"><ele>127.29</ele><time>2022-03-22T22:47:55Z</time></trkpt><trkpt lat="33.8154658" lon="132.8437442"><ele>130.97666666666666</ele><time>2022-03-22T22:48:20Z</time></trkpt><trkpt lat="33.8156577" lon="132.8437581"><ele>134.4366666666667</ele><time>2022-03-22T22:48:40Z</time></trkpt><trkpt lat="33.8158435" lon="132.8437626"><ele>140.54</ele><time>2022-03-22T22:49:01Z</time></trkpt><trkpt lat="33.8160253" lon="132.8437343"><ele>145.78333333333333</ele><time>2022-03-22T22:49:20Z</time></trkpt><trkpt lat="33.8161991" lon="132.8438027"><ele>149.40666666666667</ele><time>2022-03-22T22:49:38Z</time></trkpt><trkpt lat="33.8163828" lon="132.84381"><ele>149.88666666666666</ele><time>2022-03-22T22:49:52Z</time></trkpt><trkpt lat="33.8165326" lon="132.8436836"><ele>149.73</ele><time>2022-03-22T22:50:10Z</time></trkpt><trkpt lat="33.8166041" lon="132.8434703"><ele>150.9466666666667</ele><time>2022-03-22T22:50:22Z</time></trkpt><trkpt lat="33.8166228" lon="132.8432454"><ele>151.4466666666667</ele><time>2022-03-22T22:50:38Z</time></trkpt><trkpt lat="33.8166917" lon="132.843041"><ele>152.41</ele><time>2022-03-22T22:50:52Z</time></trkpt><trkpt lat="33.816673" lon="132.8428244"><ele>152.25333333333333</ele><time>2022-03-22T22:51:07Z</time></trkpt><trkpt lat="33.8167942" lon="132.8426529"><ele>155.27</ele><time>2022-03-22T22:52:19Z</time></trkpt><trkpt lat="33.816611" lon="132.8426542"><ele>155.08666666666667</ele><time>2022-03-22T22:54:41Z</time></trkpt><trkpt lat="33.8164599" lon="132.8425332"><ele>150.01666666666668</ele><time>2022-03-22T22:55:04Z</time></trkpt><trkpt lat="33.8163402" lon="132.8423682"><ele>141.5</ele><time>2022-03-22T22:55:14Z</time></trkpt><trkpt lat="33.8161955" lon="132.84223"><ele>133.67333333333332</ele><time>2022-03-22T22:55:25Z</time></trkpt><trkpt lat="33.8160381" lon="132.8423469"><ele>127.81000000000002</ele><time>2022-03-22T22:56:15Z</time></trkpt><trkpt lat="33.8158501" lon="132.8424006"><ele>121.49000000000001</ele><time>2022-03-22T22:56:26Z</time></trkpt><trkpt lat="33.8156771" lon="132.8423287"><ele>116.84333333333335</ele><time>2022-03-22T22:56:34Z</time></trkpt><trkpt lat="33.8154859" lon="132.8422658"><ele>114.53000000000002</ele><time>2022-03-22T22:56:43Z</time></trkpt><trkpt lat="33.8152974" lon="132.8422379"><ele>113.59999999999998</ele><time>2022-03-22T22:56:52Z</time></trkpt><trkpt lat="33.8151258" lon="132.8421687"><ele>112.84333333333332</ele><time>2022-03-22T22:57:02Z</time></trkpt><trkpt lat="33.8149379" lon="132.8421746"><ele>112.5</ele><time>2022-03-22T22:57:13Z</time></trkpt><trkpt lat="33.8147448" lon="132.8421633"><ele>112.03666666666668</ele><time>2022-03-22T22:57:27Z</time></trkpt><trkpt lat="33.8145682" lon="132.842102"><ele>109.12</ele><time>2022-03-22T22:57:40Z</time></trkpt><trkpt lat="33.8145976" lon="132.8423207"><ele>104.51666666666667</ele><time>2022-03-22T22:58:01Z</time></trkpt><trkpt lat="33.8147793" lon="132.8423733"><ele>101.61</ele><time>2022-03-22T22:58:10Z</time></trkpt><trkpt lat="33.8149545" lon="132.8424492"><ele>101.05333333333334</ele><time>2022-03-22T22:58:22Z</time></trkpt><trkpt lat="33.8150715" lon="132.8426166"><ele>101.07666666666667</ele><time>2022-03-22T22:58:34Z</time></trkpt><trkpt lat="33.8150478" lon="132.8428508"><ele>99.94333333333334</ele><time>2022-03-22T22:58:46Z</time></trkpt><trkpt lat="33.8148758" lon="132.8429244"><ele>98.5</ele><time>2022-03-22T22:58:58Z</time></trkpt><trkpt lat="33.8146949" lon="132.8429675"><ele>97.98</ele><time>2022-03-22T22:59:09Z</time></trkpt><trkpt lat="33.8145141" lon="132.8430211"><ele>98.03666666666668</ele><time>2022-03-22T22:59:21Z</time></trkpt><trkpt lat="33.8143339" lon="132.8430685"><ele>98.15333333333332</ele><time>2022-03-22T22:59:33Z</time></trkpt><trkpt lat="33.8141667" lon="132.8431645"><ele>98.60000000000001</ele><time>2022-03-22T22:59:46Z</time></trkpt><trkpt lat="33.8139951" lon="132.8432412"><ele>98.49333333333334</ele><time>2022-03-22T23:00:01Z</time></trkpt><trkpt lat="33.8139961" lon="132.8434637"><ele>98.32333333333334</ele><time>2022-03-22T23:00:23Z</time></trkpt><trkpt lat="33.8139822" lon="132.8436846"><ele>97.52333333333333</ele><time>2022-03-22T23:00:38Z</time></trkpt><trkpt lat="33.8139412" lon="132.8439034"><ele>96.3</ele><time>2022-03-22T23:00:52Z</time></trkpt><trkpt lat="33.8138955" lon="132.8441126"><ele>94.87666666666667</ele><time>2022-03-22T23:01:05Z</time></trkpt><trkpt lat="33.8139092" lon="132.844329"><ele>94.05333333333334</ele><time>2022-03-22T23:01:18Z</time></trkpt><trkpt lat="33.8138893" lon="132.8445503"><ele>94.22000000000001</ele><time>2022-03-22T23:01:32Z</time></trkpt><trkpt lat="33.8138154" lon="132.8447505"><ele>94.78666666666668</ele><time>2022-03-22T23:01:45Z</time></trkpt><trkpt lat="33.8137226" lon="132.8449521"><ele>95.23666666666666</ele><time>2022-03-22T23:01:57Z</time></trkpt><trkpt lat="33.8136329" lon="132.8451502"><ele>95.67</ele><time>2022-03-22T23:02:08Z</time></trkpt><trkpt lat="33.81354" lon="132.8453357"><ele>96.12666666666667</ele><time>2022-03-22T23:02:22Z</time></trkpt><trkpt lat="33.8134594" lon="132.845531"><ele>96.68</ele><time>2022-03-22T23:02:36Z</time></trkpt><trkpt lat="33.8133971" lon="132.8457376"><ele>97.27000000000002</ele><time>2022-03-22T23:02:49Z</time></trkpt><trkpt lat="33.8133293" lon="132.8459399"><ele>97.66333333333334</ele><time>2022-03-22T23:03:01Z</time></trkpt><trkpt lat="33.8132979" lon="132.8461538"><ele>97.78333333333335</ele><time>2022-03-22T23:03:14Z</time></trkpt><trkpt lat="33.813296" lon="132.8463749"><ele>97.60666666666668</ele><time>2022-03-22T23:03:27Z</time></trkpt><trkpt lat="33.8132294" lon="132.8465919"><ele>97.56000000000002</ele><time>2022-03-22T23:03:41Z</time></trkpt><trkpt lat="33.8131784" lon="132.8468124"><ele>97.83666666666666</ele><time>2022-03-22T23:03:55Z</time></trkpt><trkpt lat="33.8131354" lon="132.8470337"><ele>98.16666666666667</ele><time>2022-03-22T23:04:09Z</time></trkpt><trkpt lat="33.8130907" lon="132.8472523"><ele>98.33666666666666</ele><time>2022-03-22T23:04:23Z</time></trkpt><trkpt lat="33.8130493" lon="132.8474764"><ele>98.28666666666668</ele><time>2022-03-22T23:04:37Z</time></trkpt><trkpt lat="33.8129998" lon="132.8476892"><ele>98.14666666666666</ele><time>2022-03-22T23:04:50Z</time></trkpt><trkpt lat="33.8129549" lon="132.8479073"><ele>98.05</ele><time>2022-03-22T23:05:11Z</time></trkpt><trkpt lat="33.8129207" lon="132.848134"><ele>98.09333333333335</ele><time>2022-03-22T23:05:20Z</time></trkpt><trkpt lat="33.8128992" lon="132.8483534"><ele>98.41666666666667</ele><time>2022-03-22T23:05:30Z</time></trkpt><trkpt lat="33.8129725" lon="132.8485599"><ele>98.85333333333334</ele><time>2022-03-22T23:05:47Z</time></trkpt><trkpt lat="33.8130962" lon="132.8487426"><ele>99.39333333333333</ele><time>2022-03-22T23:05:57Z</time></trkpt><trkpt lat="33.8131936" lon="132.8489342"><ele>100.11000000000001</ele><time>2022-03-22T23:06:08Z</time></trkpt><trkpt lat="33.8132686" lon="132.8491344"><ele>100.93333333333334</ele><time>2022-03-22T23:06:24Z</time></trkpt><trkpt lat="33.8133975" lon="132.8493038"><ele>101.85000000000001</ele><time>2022-03-22T23:07:21Z</time></trkpt><trkpt lat="33.8134622" lon="132.8495093"><ele>102.58666666666666</ele><time>2022-03-22T23:07:31Z</time></trkpt><trkpt lat="33.8135509" lon="132.8496992"><ele>103.38333333333334</ele><time>2022-03-22T23:07:44Z</time></trkpt><trkpt lat="33.8136483" lon="132.8498934"><ele>104.09333333333335</ele><time>2022-03-22T23:07:57Z</time></trkpt><trkpt lat="33.8137735" lon="132.850056"><ele>104.90666666666668</ele><time>2022-03-22T23:08:08Z</time></trkpt><trkpt lat="33.8137839" lon="132.8502759"><ele>105.70333333333333</ele><time>2022-03-22T23:08:17Z</time></trkpt><trkpt lat="33.8139108" lon="132.8504374"><ele>106.55</ele><time>2022-03-22T23:08:37Z</time></trkpt><trkpt lat="33.8139408" lon="132.8506565"><ele>107.42333333333333</ele><time>2022-03-22T23:08:49Z</time></trkpt><trkpt lat="33.8139835" lon="132.8508713"><ele>108.28000000000002</ele><time>2022-03-22T23:08:56Z</time></trkpt><trkpt lat="33.8140691" lon="132.8510636"><ele>109.11</ele><time>2022-03-22T23:09:09Z</time></trkpt><trkpt lat="33.8140713" lon="132.851283"><ele>109.62333333333333</ele><time>2022-03-22T23:09:25Z</time></trkpt><trkpt lat="33.8141601" lon="132.8514751"><ele>109.91000000000001</ele><time>2022-03-22T23:09:38Z</time></trkpt><trkpt lat="33.8141862" lon="132.8516902"><ele>109.69666666666667</ele><time>2022-03-22T23:09:52Z</time></trkpt><trkpt lat="33.814252" lon="132.8519021"><ele>109.69333333333334</ele><time>2022-03-22T23:10:05Z</time></trkpt><trkpt lat="33.8143759" lon="132.8520697"><ele>110.64666666666669</ele><time>2022-03-22T23:10:22Z</time></trkpt><trkpt lat="33.8145023" lon="132.8522317"><ele>113.18333333333334</ele><time>2022-03-22T23:10:37Z</time></trkpt><trkpt lat="33.8146155" lon="132.8524017"><ele>115.88</ele><time>2022-03-22T23:10:49Z</time></trkpt><trkpt lat="33.8147368" lon="132.8525626"><ele>117.34333333333335</ele><time>2022-03-22T23:11:02Z</time></trkpt><trkpt lat="33.8148582" lon="132.8527302"><ele>117.64666666666666</ele><time>2022-03-22T23:11:15Z</time></trkpt><trkpt lat="33.8150161" lon="132.8528589"><ele>117.74333333333334</ele><time>2022-03-22T23:11:29Z</time></trkpt><trkpt lat="33.8151941" lon="132.8529"><ele>118.26333333333334</ele><time>2022-03-22T23:11:46Z</time></trkpt><trkpt lat="33.8153625" lon="132.8528071"><ele>118.88</ele><time>2022-03-22T23:11:59Z</time></trkpt><trkpt lat="33.8155316" lon="132.8527242"><ele>120.06666666666666</ele><time>2022-03-22T23:12:09Z</time></trkpt><trkpt lat="33.8157131" lon="132.8526945"><ele>121.73666666666668</ele><time>2022-03-22T23:12:52Z</time></trkpt><trkpt lat="33.8158626" lon="132.8525627"><ele>124.27333333333335</ele><time>2022-03-22T23:13:07Z</time></trkpt><trkpt lat="33.8160148" lon="132.8524462"><ele>126.73333333333335</ele><time>2022-03-22T23:13:21Z</time></trkpt><trkpt lat="33.816189" lon="132.8523823"><ele>129.98666666666668</ele><time>2022-03-22T23:13:39Z</time></trkpt><trkpt lat="33.8162598" lon="132.8521824"><ele>133.39333333333335</ele><time>2022-03-22T23:14:31Z</time></trkpt><trkpt lat="33.8164334" lon="132.8521203"><ele>136.46</ele><time>2022-03-22T23:15:18Z</time></trkpt><trkpt lat="33.8166112" lon="132.8520692"><ele>141.71</ele><time>2022-03-22T23:16:35Z</time></trkpt><trkpt lat="33.816758" lon="132.8519537"><ele>148.21</ele><time>2022-03-22T23:23:29Z</time></trkpt><trkpt lat="33.8169343" lon="132.8519015"><ele>157.42666666666665</ele><time>2022-03-22T23:23:48Z</time></trkpt><trkpt lat="33.8171114" lon="132.8519433"><ele>167.36333333333332</ele><time>2022-03-22T23:25:42Z</time></trkpt><trkpt lat="33.8172316" lon="132.8521067"><ele>175.61333333333332</ele><time>2022-03-22T23:26:35Z</time></trkpt><trkpt lat="33.8173589" lon="132.8522608"><ele>182.92</ele><time>2022-03-22T23:27:18Z</time></trkpt><trkpt lat="33.8174574" lon="132.8524449"><ele>187.5666666666667</ele><time>2022-03-22T23:27:58Z</time></trkpt><trkpt lat="33.8176241" lon="132.8525479"><ele>192.49333333333334</ele><time>2022-03-22T23:29:24Z</time></trkpt><trkpt lat="33.8178028" lon="132.8526067"><ele>196.38333333333335</ele><time>2022-03-22T23:29:50Z</time></trkpt><trkpt lat="33.8179809" lon="132.8526568"><ele>198.93999999999997</ele><time>2022-03-22T23:30:13Z</time></trkpt><trkpt lat="33.8181639" lon="132.8526139"><ele>200.89000000000001</ele><time>2022-03-22T23:31:01Z</time></trkpt><trkpt lat="33.8183366" lon="132.852528"><ele>202.42</ele><time>2022-03-22T23:31:17Z</time></trkpt><trkpt lat="33.8184624" lon="132.8526896"><ele>203.77666666666667</ele><time>2022-03-22T23:32:06Z</time></trkpt><trkpt lat="33.8186421" lon="132.8527424"><ele>203.42999999999998</ele><time>2022-03-22T23:32:20Z</time></trkpt><trkpt lat="33.818805" lon="132.8528385"><ele>202.58</ele><time>2022-03-22T23:32:39Z</time></trkpt><trkpt lat="33.8188562" lon="132.8530475"><ele>204.31333333333336</ele><time>2022-03-22T23:33:10Z</time></trkpt><trkpt lat="33.8190297" lon="132.8531144"><ele>208.07666666666668</ele><time>2022-03-22T23:33:37Z</time></trkpt><trkpt lat="33.8188713" lon="132.8530104"><ele>210.93999999999997</ele><time>2022-03-22T23:37:05Z</time></trkpt><trkpt lat="33.8186964" lon="132.8528967"><ele>209.95666666666668</ele><time>2022-03-22T23:37:18Z</time></trkpt><trkpt lat="33.8185739" lon="132.8527353"><ele>206.85666666666668</ele><time>2022-03-22T23:37:31Z</time></trkpt><trkpt lat="33.8184955" lon="132.8525342"><ele>203.96666666666667</ele><time>2022-03-22T23:37:48Z</time></trkpt><trkpt lat="33.8183129" lon="132.8525378"><ele>203.06000000000003</ele><time>2022-03-22T23:38:24Z</time></trkpt><trkpt lat="33.8181334" lon="132.8525008"><ele>202.66</ele><time>2022-03-22T23:39:16Z</time></trkpt><trkpt lat="33.8179425" lon="132.8524505"><ele>202.18000000000004</ele><time>2022-03-22T23:39:30Z</time></trkpt><trkpt lat="33.8177507" lon="132.8524621"><ele>200.51999999999998</ele><time>2022-03-22T23:39:44Z</time></trkpt><trkpt lat="33.8175946" lon="132.8523499"><ele>198.43666666666664</ele><time>2022-03-22T23:40:16Z</time></trkpt><trkpt lat="33.8175056" lon="132.8521571"><ele>194.61333333333334</ele><time>2022-03-22T23:40:27Z</time></trkpt><trkpt lat="33.8173797" lon="132.8519829"><ele>190.26333333333332</ele><time>2022-03-22T23:40:39Z</time></trkpt><trkpt lat="33.8174282" lon="132.8517726"><ele>186.30333333333337</ele><time>2022-03-22T23:42:45Z</time></trkpt><trkpt lat="33.8173631" lon="132.8515644"><ele>183.92333333333332</ele><time>2022-03-22T23:43:03Z</time></trkpt><trkpt lat="33.8173504" lon="132.8513445"><ele>181.54999999999998</ele><time>2022-03-22T23:43:37Z</time></trkpt><trkpt lat="33.8172266" lon="132.8511811"><ele>178.3166666666667</ele><time>2022-03-22T23:44:44Z</time></trkpt><trkpt lat="33.8170769" lon="132.851016"><ele>173.54333333333332</ele><time>2022-03-22T23:46:20Z</time></trkpt><trkpt lat="33.8169392" lon="132.8508706"><ele>166.20333333333335</ele><time>2022-03-22T23:47:25Z</time></trkpt><trkpt lat="33.8168463" lon="132.8506792"><ele>158.25</ele><time>2022-03-22T23:48:36Z</time></trkpt><trkpt lat="33.81687" lon="132.8504579"><ele>152.3166666666667</ele><time>2022-03-22T23:48:51Z</time></trkpt><trkpt lat="33.8170223" lon="132.8503417"><ele>148.60666666666668</ele><time>2022-03-22T23:49:08Z</time></trkpt><trkpt lat="33.8171915" lon="132.8502484"><ele>146.8033333333333</ele><time>2022-03-22T23:49:25Z</time></trkpt><trkpt lat="33.8172969" lon="132.850072"><ele>144.20000000000002</ele><time>2022-03-22T23:50:03Z</time></trkpt><trkpt lat="33.8173875" lon="132.8498779"><ele>141.62666666666667</ele><time>2022-03-22T23:50:51Z</time></trkpt><trkpt lat="33.8175183" lon="132.8497151"><ele>138.8133333333333</ele><time>2022-03-22T23:51:10Z</time></trkpt><trkpt lat="33.8176284" lon="132.8495429"><ele>135.27666666666667</ele><time>2022-03-22T23:51:31Z</time></trkpt><trkpt lat="33.8177557" lon="132.8493782"><ele>129.99666666666667</ele><time>2022-03-22T23:51:45Z</time></trkpt><trkpt lat="33.8178084" lon="132.84917"><ele>123.22666666666667</ele><time>2022-03-22T23:52:00Z</time></trkpt><trkpt lat="33.8176817" lon="132.8490127"><ele>118.61333333333334</ele><time>2022-03-22T23:52:13Z</time></trkpt><trkpt lat="33.8176041" lon="132.8488133"><ele>115.08</ele><time>2022-03-22T23:52:25Z</time></trkpt><trkpt lat="33.8174518" lon="132.8486754"><ele>114.79333333333334</ele><time>2022-03-22T23:52:43Z</time></trkpt><trkpt lat="33.8173816" lon="132.8484735"><ele>113.04666666666667</ele><time>2022-03-22T23:52:55Z</time></trkpt><trkpt lat="33.8172763" lon="132.8482866"><ele>113.36</ele><time>2022-03-22T23:53:14Z</time></trkpt><trkpt lat="33.8170959" lon="132.8482172"><ele>112.75666666666666</ele><time>2022-03-22T23:53:26Z</time></trkpt><trkpt lat="33.8169435" lon="132.8481"><ele>112.52333333333333</ele><time>2022-03-22T23:53:37Z</time></trkpt><trkpt lat="33.8169279" lon="132.8478814"><ele>111.23333333333333</ele><time>2022-03-22T23:53:49Z</time></trkpt><trkpt lat="33.8168789" lon="132.8476721"><ele>109.07333333333332</ele><time>2022-03-22T23:54:02Z</time></trkpt><trkpt lat="33.8167077" lon="132.8475835"><ele>107.81333333333333</ele><time>2022-03-22T23:54:14Z</time></trkpt><trkpt lat="33.8167006" lon="132.8473644"><ele>106.76333333333334</ele><time>2022-03-22T23:54:28Z</time></trkpt><trkpt lat="33.8167706" lon="132.8471556"><ele>105.89</ele><time>2022-03-22T23:54:41Z</time></trkpt><trkpt lat="33.816683" lon="132.8469582"><ele>104.74333333333334</ele><time>2022-03-22T23:54:54Z</time></trkpt><trkpt lat="33.8165174" lon="132.8468663"><ele>104.43</ele><time>2022-03-22T23:55:07Z</time></trkpt><trkpt lat="33.816434" lon="132.846674"><ele>104.10333333333334</ele><time>2022-03-22T23:55:25Z</time></trkpt><trkpt lat="33.8163919" lon="132.8464612"><ele>103.50333333333333</ele><time>2022-03-22T23:55:40Z</time></trkpt><trkpt lat="33.8162879" lon="132.8462698"><ele>102.28333333333335</ele><time>2022-03-22T23:55:52Z</time></trkpt></trkseg></trk></gpx>