<?xml version='1.0' encoding='UTF-8'?><gpx creator="Yama Museum Summit Candidate Generator" xsi:schemaLocation="http://www.topografix.com/GPX/1/1 http://www.topografix.com/GPX/1/1/gpx.xsd" version="1.1" xmlns="http://www.topografix.com/GPX/1/1" xmlns:xsi="http://www.w3.org/2001/XMLSchema-instance" xmlns:yama="https://museum-yama-data.moukaeritai.work/ns/yama-data/0.1"><metadata><bounds maxlat="33.8508584" maxlon="132.929389" minlat="33.8365871" minlon="132.8996041"/><name>十門山(十門城址)・ヨソ山</name><extensions><yama:source_gpx_basename>yamap_2022-03-25_12_12.gpx</yama:source_gpx_basename><yama:source_gpx_relative_path>data/01_raw/gpx/2026-05-12/yamap_2022-03-25_12_12.gpx</yama:source_gpx_relative_path><yama:detection_parameters>window=5,radius=10,min_prominence=30,merge=100</yama:detection_parameters></extensions></metadata><wpt lat="33.8503146" lon="132.9103674"><ele>676.7066666666667</ele><time>2022-03-25T04:11:51Z</time><name>summit-candidate:a94564816fd4afff</name><desc>Summit candidate detected at elevation 676.7066666666667m with prominence 53.919333333333384m.</desc><sym>Summit Candidate</sym><extensions><yama:source_trackpoint_index>70</yama:source_trackpoint_index><yama:valid_elevation_index>70</yama:valid_elevation_index><yama:smoothed_ele>675.188</yama:smoothed_ele><yama:prominence>53.919333333333384</yama:prominence><yama:detection_method>local_maxima_with_prominence</yama:detection_method><yama:detection_parameters>window=5,radius=10,min_prominence=30,merge=100</yama:detection_parameters><yama:candidate_status>unresolved</yama:candidate_status></extensions></wpt>
  <wpt lat="33.8408635" lon="132.9292547"><ele>923.8766666666667</ele><time>2022-03-25T05:17:14Z</time><name>summit-candidate:555fd1e3be8780dd</name><desc>Summit candidate detected at elevation 923.8766666666667m with prominence 695.305m.</desc><sym>Summit Candidate</sym><extensions><yama:source_trackpoint_index>190</yama:source_trackpoint_index><yama:valid_elevation_index>190</yama:valid_elevation_index><yama:smoothed_ele>922.3733333333332</yama:smoothed_ele><yama:prominence>695.305</yama:prominence><yama:detection_method>local_maxima_with_prominence</yama:detection_method><yama:detection_parameters>window=5,radius=10,min_prominence=30,merge=100</yama:detection_parameters><yama:candidate_status>unresolved</yama:candidate_status></extensions></wpt>
  <trk><name>十門山(十門城址)・ヨソ山</name><number>1</number><trkseg><trkpt lat="33.8437508" lon="132.8996269"><ele>223.06</ele><time>2022-03-25T03:12:41Z</time></trkpt><trkpt lat="33.8439317" lon="132.8996661"><ele>226.885</ele><time>2022-03-25T03:13:22Z</time></trkpt><trkpt lat="33.8440998" lon="132.8997483"><ele>231.26</ele><time>2022-03-25T03:16:43Z</time></trkpt><trkpt lat="33.8442465" lon="132.8998865"><ele>240.2966666666667</ele><time>2022-03-25T03:17:43Z</time></trkpt><trkpt lat="33.8443307" lon="132.9000865"><ele>255.64666666666668</ele><time>2022-03-25T03:19:25Z</time></trkpt><trkpt lat="33.8444343" lon="132.9002742"><ele>272.1233333333334</ele><time>2022-03-25T03:23:05Z</time></trkpt><trkpt lat="33.8446007" lon="132.9003613"><ele>288.8066666666667</ele><time>2022-03-25T03:24:33Z</time></trkpt><trkpt lat="33.8447662" lon="132.9004549"><ele>301.6266666666667</ele><time>2022-03-25T03:25:22Z</time></trkpt><trkpt lat="33.8449108" lon="132.9005869"><ele>314.93333333333334</ele><time>2022-03-25T03:26:06Z</time></trkpt><trkpt lat="33.8449336" lon="132.9008085"><ele>328.55333333333334</ele><time>2022-03-25T03:29:09Z</time></trkpt><trkpt lat="33.844935" lon="132.901026"><ele>341.0733333333333</ele><time>2022-03-25T03:29:45Z</time></trkpt><trkpt lat="33.8449711" lon="132.9012891"><ele>351.99</ele><time>2022-03-25T03:30:10Z</time></trkpt><trkpt lat="33.8449547" lon="132.901505"><ele>359.9666666666667</ele><time>2022-03-25T03:30:33Z</time></trkpt><trkpt lat="33.8450558" lon="132.9016877"><ele>367.57666666666665</ele><time>2022-03-25T03:31:30Z</time></trkpt><trkpt lat="33.8450744" lon="132.9019031"><ele>374.3666666666666</ele><time>2022-03-25T03:32:38Z</time></trkpt><trkpt lat="33.8451193" lon="132.9021125"><ele>382.97333333333336</ele><time>2022-03-25T03:33:41Z</time></trkpt><trkpt lat="33.8452423" lon="132.9022782"><ele>390.1499999999999</ele><time>2022-03-25T03:35:00Z</time></trkpt><trkpt lat="33.8453687" lon="132.9024373"><ele>399.05333333333334</ele><time>2022-03-25T03:35:15Z</time></trkpt><trkpt lat="33.8454387" lon="132.9026429"><ele>407.39333333333326</ele><time>2022-03-25T03:36:41Z</time></trkpt><trkpt lat="33.8454215" lon="132.9028603"><ele>415.5233333333333</ele><time>2022-03-25T03:37:32Z</time></trkpt><trkpt lat="33.8454416" lon="132.9030778"><ele>423.32666666666665</ele><time>2022-03-25T03:37:53Z</time></trkpt><trkpt lat="33.8454982" lon="132.9033041"><ele>431.0133333333334</ele><time>2022-03-25T03:38:22Z</time></trkpt><trkpt lat="33.8455901" lon="132.9034913"><ele>438.9266666666667</ele><time>2022-03-25T03:39:00Z</time></trkpt><trkpt lat="33.8455819" lon="132.9037104"><ele>446.71333333333337</ele><time>2022-03-25T03:39:25Z</time></trkpt><trkpt lat="33.8455441" lon="132.9039225"><ele>454.27333333333337</ele><time>2022-03-25T03:39:58Z</time></trkpt><trkpt lat="33.8454772" lon="132.9041243"><ele>460.1433333333334</ele><time>2022-03-25T03:40:33Z</time></trkpt><trkpt lat="33.8454885" lon="132.9043449"><ele>464.00666666666666</ele><time>2022-03-25T03:41:01Z</time></trkpt><trkpt lat="33.8455371" lon="132.9045544"><ele>467.73333333333335</ele><time>2022-03-25T03:41:39Z</time></trkpt><trkpt lat="33.8455837" lon="132.9047647"><ele>472.9266666666667</ele><time>2022-03-25T03:42:26Z</time></trkpt><trkpt lat="33.8456343" lon="132.9049924"><ele>477.8933333333334</ele><time>2022-03-25T03:42:36Z</time></trkpt><trkpt lat="33.8456815" lon="132.9052187"><ele>481.56</ele><time>2022-03-25T03:42:47Z</time></trkpt><trkpt lat="33.8456899" lon="132.9054378"><ele>484.24666666666667</ele><time>2022-03-25T03:43:10Z</time></trkpt><trkpt lat="33.8458502" lon="132.9055451"><ele>486.96999999999997</ele><time>2022-03-25T03:43:36Z</time></trkpt><trkpt lat="33.8459774" lon="132.9057043"><ele>491.32666666666665</ele><time>2022-03-25T03:44:14Z</time></trkpt><trkpt lat="33.8459568" lon="132.9059242"><ele>495.65333333333336</ele><time>2022-03-25T03:44:29Z</time></trkpt><trkpt lat="33.8461126" lon="132.906034"><ele>500.72333333333336</ele><time>2022-03-25T03:45:40Z</time></trkpt><trkpt lat="33.8462328" lon="132.9061963"><ele>505.14333333333326</ele><time>2022-03-25T03:46:00Z</time></trkpt><trkpt lat="33.8463566" lon="132.9063578"><ele>511.56333333333333</ele><time>2022-03-25T03:46:44Z</time></trkpt><trkpt lat="33.8464809" lon="132.9065207"><ele>517.7066666666667</ele><time>2022-03-25T03:47:20Z</time></trkpt><trkpt lat="33.8466489" lon="132.9066005"><ele>524.1</ele><time>2022-03-25T03:47:56Z</time></trkpt><trkpt lat="33.8467442" lon="132.9067848"><ele>529.21</ele><time>2022-03-25T03:48:24Z</time></trkpt><trkpt lat="33.8469572" lon="132.9069277"><ele>534.75</ele><time>2022-03-25T03:49:33Z</time></trkpt><trkpt lat="33.8471371" lon="132.9069783"><ele>540.46</ele><time>2022-03-25T03:49:42Z</time></trkpt><trkpt lat="33.8473082" lon="132.9070503"><ele>546.2866666666667</ele><time>2022-03-25T03:50:52Z</time></trkpt><trkpt lat="33.8474735" lon="132.9069599"><ele>551.3166666666667</ele><time>2022-03-25T03:52:35Z</time></trkpt><trkpt lat="33.8476545" lon="132.9069156"><ele>554.9</ele><time>2022-03-25T03:52:49Z</time></trkpt><trkpt lat="33.8478296" lon="132.9068574"><ele>560.58</ele><time>2022-03-25T03:53:29Z</time></trkpt><trkpt lat="33.8480198" lon="132.9068864"><ele>566.8766666666667</ele><time>2022-03-25T03:54:33Z</time></trkpt><trkpt lat="33.8482616" lon="132.906857"><ele>577.6366666666667</ele><time>2022-03-25T03:55:30Z</time></trkpt><trkpt lat="33.8484471" lon="132.9068967"><ele>588.2566666666668</ele><time>2022-03-25T03:56:12Z</time></trkpt><trkpt lat="33.8486277" lon="132.9068699"><ele>599.6033333333334</ele><time>2022-03-25T03:57:21Z</time></trkpt><trkpt lat="33.8488307" lon="132.9068568"><ele>609.2399999999999</ele><time>2022-03-25T03:57:48Z</time></trkpt><trkpt lat="33.8489347" lon="132.9070366"><ele>615.93</ele><time>2022-03-25T03:58:16Z</time></trkpt><trkpt lat="33.8490283" lon="132.9072284"><ele>620.52</ele><time>2022-03-25T03:59:12Z</time></trkpt><trkpt lat="33.8491246" lon="132.9074173"><ele>624.1</ele><time>2022-03-25T03:59:27Z</time></trkpt><trkpt lat="33.8492444" lon="132.907582"><ele>627.7766666666666</ele><time>2022-03-25T04:02:09Z</time></trkpt><trkpt lat="33.8493796" lon="132.9077252"><ele>631.9666666666667</ele><time>2022-03-25T04:03:10Z</time></trkpt><trkpt lat="33.8494724" lon="132.9079108"><ele>635.8333333333334</ele><time>2022-03-25T04:03:58Z</time></trkpt><trkpt lat="33.849612" lon="132.9080563"><ele>641.43</ele><time>2022-03-25T04:04:30Z</time></trkpt><trkpt lat="33.8496537" lon="132.9082754"><ele>646.2966666666667</ele><time>2022-03-25T04:04:50Z</time></trkpt><trkpt lat="33.8497461" lon="132.9084704"><ele>649.3000000000001</ele><time>2022-03-25T04:05:07Z</time></trkpt><trkpt lat="33.8497511" lon="132.908696"><ele>649.2933333333334</ele><time>2022-03-25T04:05:22Z</time></trkpt><trkpt lat="33.8497215" lon="132.908911"><ele>650.83</ele><time>2022-03-25T04:06:09Z</time></trkpt><trkpt lat="33.8497896" lon="132.9091142"><ele>654.5266666666666</ele><time>2022-03-25T04:07:15Z</time></trkpt><trkpt lat="33.8498637" lon="132.9093146"><ele>660.2833333333333</ele><time>2022-03-25T04:07:31Z</time></trkpt><trkpt lat="33.8499515" lon="132.9095188"><ele>665.7233333333334</ele><time>2022-03-25T04:07:45Z</time></trkpt><trkpt lat="33.8499253" lon="132.9097405"><ele>669.3466666666667</ele><time>2022-03-25T04:08:10Z</time></trkpt><trkpt lat="33.8499388" lon="132.9099582"><ele>671.4833333333332</ele><time>2022-03-25T04:09:24Z</time></trkpt><trkpt lat="33.8499439" lon="132.9101743"><ele>671.86</ele><time>2022-03-25T04:09:40Z</time></trkpt><trkpt lat="33.8500722" lon="132.9103351"><ele>673.6266666666667</ele><time>2022-03-25T04:09:58Z</time></trkpt><trkpt lat="33.8503146" lon="132.9103674"><ele>676.7066666666667</ele><time>2022-03-25T04:11:51Z</time></trkpt><trkpt lat="33.8502077" lon="132.910547"><ele>678.0566666666667</ele><time>2022-03-25T04:16:27Z</time></trkpt><trkpt lat="33.8500676" lon="132.910688"><ele>675.69</ele><time>2022-03-25T04:18:04Z</time></trkpt><trkpt lat="33.8499559" lon="132.9108684"><ele>668.1566666666666</ele><time>2022-03-25T04:18:16Z</time></trkpt><trkpt lat="33.8499437" lon="132.9111015"><ele>661.3533333333334</ele><time>2022-03-25T04:18:35Z</time></trkpt><trkpt lat="33.8499755" lon="132.9113171"><ele>655.9</ele><time>2022-03-25T04:18:53Z</time></trkpt><trkpt lat="33.8499906" lon="132.911533"><ele>653.36</ele><time>2022-03-25T04:19:14Z</time></trkpt><trkpt lat="33.8501752" lon="132.9115282"><ele>650.2666666666667</ele><time>2022-03-25T04:19:46Z</time></trkpt><trkpt lat="33.8501571" lon="132.9117656"><ele>647.7233333333334</ele><time>2022-03-25T04:19:53Z</time></trkpt><trkpt lat="33.850131" lon="132.9122101"><ele>643.7600000000001</ele><time>2022-03-25T04:20:10Z</time></trkpt><trkpt lat="33.8501164" lon="132.912434"><ele>639.2933333333334</ele><time>2022-03-25T04:20:20Z</time></trkpt><trkpt lat="33.8501932" lon="132.9126378"><ele>634.17</ele><time>2022-03-25T04:20:32Z</time></trkpt><trkpt lat="33.8502679" lon="132.9128364"><ele>631.2566666666667</ele><time>2022-03-25T04:20:48Z</time></trkpt><trkpt lat="33.8503053" lon="132.9130538"><ele>631.4366666666666</ele><time>2022-03-25T04:21:06Z</time></trkpt><trkpt lat="33.8503805" lon="132.9132514"><ele>632.2866666666667</ele><time>2022-03-25T04:21:21Z</time></trkpt><trkpt lat="33.850403" lon="132.9134688"><ele>633.69</ele><time>2022-03-25T04:21:38Z</time></trkpt><trkpt lat="33.850467" lon="132.9136714"><ele>635.4533333333334</ele><time>2022-03-25T04:22:09Z</time></trkpt><trkpt lat="33.8503751" lon="132.9138734"><ele>638.1066666666667</ele><time>2022-03-25T04:22:28Z</time></trkpt><trkpt lat="33.8502905" lon="132.9140661"><ele>640.65</ele><time>2022-03-25T04:23:03Z</time></trkpt><trkpt lat="33.8503341" lon="132.9142811"><ele>641.56</ele><time>2022-03-25T04:23:25Z</time></trkpt><trkpt lat="33.8502733" lon="132.914494"><ele>641.7733333333334</ele><time>2022-03-25T04:23:35Z</time></trkpt><trkpt lat="33.85037" lon="132.9146774"><ele>641.4466666666666</ele><time>2022-03-25T04:24:20Z</time></trkpt><trkpt lat="33.8504409" lon="132.914892"><ele>640.3766666666667</ele><time>2022-03-25T04:24:57Z</time></trkpt><trkpt lat="33.8502957" lon="132.9150225"><ele>636.6266666666667</ele><time>2022-03-25T04:25:46Z</time></trkpt><trkpt lat="33.8502113" lon="132.9152153"><ele>630.8666666666667</ele><time>2022-03-25T04:26:14Z</time></trkpt><trkpt lat="33.8501446" lon="132.9154216"><ele>623.9499999999999</ele><time>2022-03-25T04:26:27Z</time></trkpt><trkpt lat="33.8502117" lon="132.9156243"><ele>619.24</ele><time>2022-03-25T04:26:46Z</time></trkpt><trkpt lat="33.8502683" lon="132.9158313"><ele>617.9166666666666</ele><time>2022-03-25T04:27:57Z</time></trkpt><trkpt lat="33.8503472" lon="132.9160293"><ele>620.31</ele><time>2022-03-25T04:28:13Z</time></trkpt><trkpt lat="33.8504651" lon="132.9162035"><ele>624.9266666666666</ele><time>2022-03-25T04:28:20Z</time></trkpt><trkpt lat="33.8506267" lon="132.9162999"><ele>629.2233333333334</ele><time>2022-03-25T04:29:09Z</time></trkpt><trkpt lat="33.8507311" lon="132.9164819"><ele>632.5466666666666</ele><time>2022-03-25T04:29:49Z</time></trkpt><trkpt lat="33.8507508" lon="132.9167024"><ele>634.2533333333333</ele><time>2022-03-25T04:30:02Z</time></trkpt><trkpt lat="33.850777" lon="132.9169215"><ele>635.68</ele><time>2022-03-25T04:30:14Z</time></trkpt><trkpt lat="33.8508584" lon="132.9171283"><ele>637.49</ele><time>2022-03-25T04:30:26Z</time></trkpt><trkpt lat="33.8508435" lon="132.9173473"><ele>639.9499999999999</ele><time>2022-03-25T04:30:41Z</time></trkpt><trkpt lat="33.8507663" lon="132.9175478"><ele>641.8499999999999</ele><time>2022-03-25T04:30:55Z</time></trkpt><trkpt lat="33.850684" lon="132.9177502"><ele>642.1566666666666</ele><time>2022-03-25T04:31:08Z</time></trkpt><trkpt lat="33.8507436" lon="132.9179587"><ele>641.8000000000001</ele><time>2022-03-25T04:31:22Z</time></trkpt><trkpt lat="33.8507473" lon="132.9181855"><ele>644.4866666666668</ele><time>2022-03-25T04:31:41Z</time></trkpt><trkpt lat="33.8507324" lon="132.918402"><ele>648.1166666666667</ele><time>2022-03-25T04:32:21Z</time></trkpt><trkpt lat="33.8506772" lon="132.9186116"><ele>652.4833333333335</ele><time>2022-03-25T04:32:37Z</time></trkpt><trkpt lat="33.8506512" lon="132.9188319"><ele>653.6233333333333</ele><time>2022-03-25T04:32:53Z</time></trkpt><trkpt lat="33.8506488" lon="132.9190502"><ele>655.9366666666666</ele><time>2022-03-25T04:34:21Z</time></trkpt><trkpt lat="33.8506338" lon="132.9192667"><ele>659.0</ele><time>2022-03-25T04:35:04Z</time></trkpt><trkpt lat="33.8505015" lon="132.9194151"><ele>665.9333333333334</ele><time>2022-03-25T04:35:56Z</time></trkpt><trkpt lat="33.8503996" lon="132.9195992"><ele>675.49</ele><time>2022-03-25T04:39:09Z</time></trkpt><trkpt lat="33.8503818" lon="132.9198165"><ele>689.44</ele><time>2022-03-25T04:40:32Z</time></trkpt><trkpt lat="33.8502685" lon="132.9199896"><ele>701.4200000000001</ele><time>2022-03-25T04:41:28Z</time></trkpt><trkpt lat="33.8501579" lon="132.9201729"><ele>709.9833333333335</ele><time>2022-03-25T04:42:05Z</time></trkpt><trkpt lat="33.8499867" lon="132.9202448"><ele>711.9866666666667</ele><time>2022-03-25T04:42:23Z</time></trkpt><trkpt lat="33.8498884" lon="132.9204302"><ele>713.0633333333334</ele><time>2022-03-25T04:42:38Z</time></trkpt><trkpt lat="33.849768" lon="132.9205921"><ele>715.43</ele><time>2022-03-25T04:42:59Z</time></trkpt><trkpt lat="33.8496245" lon="132.9207426"><ele>719.4033333333333</ele><time>2022-03-25T04:43:25Z</time></trkpt><trkpt lat="33.8494777" lon="132.9208783"><ele>723.8533333333334</ele><time>2022-03-25T04:43:49Z</time></trkpt><trkpt lat="33.8493696" lon="132.921059"><ele>727.7866666666667</ele><time>2022-03-25T04:44:04Z</time></trkpt><trkpt lat="33.8492254" lon="132.921204"><ele>731.5233333333334</ele><time>2022-03-25T04:44:53Z</time></trkpt><trkpt lat="33.8491084" lon="132.9213803"><ele>735.2266666666668</ele><time>2022-03-25T04:45:17Z</time></trkpt><trkpt lat="33.8489414" lon="132.9214686"><ele>739.4066666666668</ele><time>2022-03-25T04:45:41Z</time></trkpt><trkpt lat="33.848827" lon="132.9216422"><ele>744.7033333333334</ele><time>2022-03-25T04:46:34Z</time></trkpt><trkpt lat="33.8486867" lon="132.9217782"><ele>749.1766666666666</ele><time>2022-03-25T04:47:29Z</time></trkpt><trkpt lat="33.8485215" lon="132.92189"><ele>753.11</ele><time>2022-03-25T04:47:40Z</time></trkpt><trkpt lat="33.8483482" lon="132.9219563"><ele>755.9766666666668</ele><time>2022-03-25T04:48:07Z</time></trkpt><trkpt lat="33.848172" lon="132.9218956"><ele>760.2966666666667</ele><time>2022-03-25T04:49:34Z</time></trkpt><trkpt lat="33.847993" lon="132.9219367"><ele>764.3233333333334</ele><time>2022-03-25T04:50:15Z</time></trkpt><trkpt lat="33.8477927" lon="132.9219298"><ele>767.6566666666668</ele><time>2022-03-25T04:50:38Z</time></trkpt><trkpt lat="33.8476021" lon="132.9219655"><ele>770.1733333333333</ele><time>2022-03-25T04:50:52Z</time></trkpt><trkpt lat="33.8474456" lon="132.9220757"><ele>772.2466666666668</ele><time>2022-03-25T04:51:06Z</time></trkpt><trkpt lat="33.8472664" lon="132.9220252"><ele>773.57</ele><time>2022-03-25T04:51:19Z</time></trkpt><trkpt lat="33.8471031" lon="132.9221218"><ele>775.0066666666667</ele><time>2022-03-25T04:51:34Z</time></trkpt><trkpt lat="33.8469209" lon="132.9221319"><ele>777.4399999999999</ele><time>2022-03-25T04:52:09Z</time></trkpt><trkpt lat="33.8467398" lon="132.9221754"><ele>781.4699999999999</ele><time>2022-03-25T04:53:03Z</time></trkpt><trkpt lat="33.846574" lon="132.922261"><ele>785.9</ele><time>2022-03-25T04:53:31Z</time></trkpt><trkpt lat="33.8464145" lon="132.922365"><ele>789.7833333333333</ele><time>2022-03-25T04:53:46Z</time></trkpt><trkpt lat="33.8462745" lon="132.9225085"><ele>794.65</ele><time>2022-03-25T04:54:06Z</time></trkpt><trkpt lat="33.8461432" lon="132.9226587"><ele>800.1633333333333</ele><time>2022-03-25T04:54:46Z</time></trkpt><trkpt lat="33.8460144" lon="132.9228171"><ele>805.8000000000001</ele><time>2022-03-25T04:55:15Z</time></trkpt><trkpt lat="33.8458801" lon="132.9229625"><ele>809.8366666666667</ele><time>2022-03-25T04:55:32Z</time></trkpt><trkpt lat="33.8457385" lon="132.9231097"><ele>811.84</ele><time>2022-03-25T04:56:30Z</time></trkpt><trkpt lat="33.84567" lon="132.9233194"><ele>812.6833333333334</ele><time>2022-03-25T04:56:53Z</time></trkpt><trkpt lat="33.8456146" lon="132.9235283"><ele>814.8133333333334</ele><time>2022-03-25T04:57:06Z</time></trkpt><trkpt lat="33.8455785" lon="132.9237487"><ele>816.8033333333333</ele><time>2022-03-25T04:57:19Z</time></trkpt><trkpt lat="33.845516" lon="132.9239575"><ele>819.34</ele><time>2022-03-25T04:57:33Z</time></trkpt><trkpt lat="33.8454982" lon="132.9241783"><ele>820.2866666666667</ele><time>2022-03-25T04:57:49Z</time></trkpt><trkpt lat="33.8455256" lon="132.9243922"><ele>821.1733333333335</ele><time>2022-03-25T04:58:15Z</time></trkpt><trkpt lat="33.8455408" lon="132.9246113"><ele>822.0233333333332</ele><time>2022-03-25T04:58:30Z</time></trkpt><trkpt lat="33.8454509" lon="132.9248193"><ele>820.63</ele><time>2022-03-25T04:58:46Z</time></trkpt><trkpt lat="33.845323" lon="132.9249768"><ele>817.1066666666667</ele><time>2022-03-25T04:59:07Z</time></trkpt><trkpt lat="33.8452285" lon="132.9251738"><ele>814.88</ele><time>2022-03-25T04:59:24Z</time></trkpt><trkpt lat="33.845101" lon="132.9253367"><ele>817.6033333333334</ele><time>2022-03-25T05:00:00Z</time></trkpt><trkpt lat="33.84496" lon="132.9254716"><ele>825.0200000000001</ele><time>2022-03-25T05:00:31Z</time></trkpt><trkpt lat="33.8448197" lon="132.925616"><ele>833.1933333333333</ele><time>2022-03-25T05:01:55Z</time></trkpt><trkpt lat="33.844709" lon="132.9257918"><ele>839.3000000000001</ele><time>2022-03-25T05:02:18Z</time></trkpt><trkpt lat="33.84463" lon="132.9259882"><ele>844.5533333333333</ele><time>2022-03-25T05:02:53Z</time></trkpt><trkpt lat="33.8444847" lon="132.9261171"><ele>848.9433333333333</ele><time>2022-03-25T05:03:17Z</time></trkpt><trkpt lat="33.8443489" lon="132.9262634"><ele>854.2633333333333</ele><time>2022-03-25T05:03:35Z</time></trkpt><trkpt lat="33.8442242" lon="132.9264224"><ele>858.8000000000001</ele><time>2022-03-25T05:03:58Z</time></trkpt><trkpt lat="33.8441665" lon="132.9266299"><ele>861.4566666666666</ele><time>2022-03-25T05:04:25Z</time></trkpt><trkpt lat="33.8440658" lon="132.9268132"><ele>862.2033333333334</ele><time>2022-03-25T05:04:43Z</time></trkpt><trkpt lat="33.8439159" lon="132.9269515"><ele>861.9266666666667</ele><time>2022-03-25T05:04:58Z</time></trkpt><trkpt lat="33.8437836" lon="132.9271026"><ele>861.7166666666667</ele><time>2022-03-25T05:05:31Z</time></trkpt><trkpt lat="33.8436163" lon="132.92719"><ele>861.3400000000001</ele><time>2022-03-25T05:05:51Z</time></trkpt><trkpt lat="33.84349" lon="132.9273479"><ele>859.9200000000001</ele><time>2022-03-25T05:06:25Z</time></trkpt><trkpt lat="33.8433515" lon="132.9274981"><ele>858.58</ele><time>2022-03-25T05:07:25Z</time></trkpt><trkpt lat="33.8432155" lon="132.9276484"><ele>859.07</ele><time>2022-03-25T05:07:41Z</time></trkpt><trkpt lat="33.8430962" lon="132.927812"><ele>862.2400000000001</ele><time>2022-03-25T05:08:02Z</time></trkpt><trkpt lat="33.8429648" lon="132.9279703"><ele>867.1833333333334</ele><time>2022-03-25T05:08:27Z</time></trkpt><trkpt lat="33.8428224" lon="132.9281062"><ele>872.4500000000002</ele><time>2022-03-25T05:08:47Z</time></trkpt><trkpt lat="33.8426942" lon="132.9282587"><ele>876.84</ele><time>2022-03-25T05:09:11Z</time></trkpt><trkpt lat="33.8425678" lon="132.9284171"><ele>880.2066666666666</ele><time>2022-03-25T05:09:31Z</time></trkpt><trkpt lat="33.8424093" lon="132.9285264"><ele>882.6500000000001</ele><time>2022-03-25T05:09:57Z</time></trkpt><trkpt lat="33.8422865" lon="132.9286874"><ele>884.5433333333334</ele><time>2022-03-25T05:10:15Z</time></trkpt><trkpt lat="33.8421231" lon="132.928805"><ele>887.0333333333334</ele><time>2022-03-25T05:10:32Z</time></trkpt><trkpt lat="33.8419398" lon="132.9288311"><ele>892.2166666666667</ele><time>2022-03-25T05:10:49Z</time></trkpt><trkpt lat="33.8417663" lon="132.9288954"><ele>898.9433333333333</ele><time>2022-03-25T05:11:22Z</time></trkpt><trkpt lat="33.8415892" lon="132.9289481"><ele>906.4533333333334</ele><time>2022-03-25T05:12:22Z</time></trkpt><trkpt lat="33.8414286" lon="132.9290517"><ele>911.57</ele><time>2022-03-25T05:13:02Z</time></trkpt><trkpt lat="33.8413136" lon="132.9292183"><ele>916.84</ele><time>2022-03-25T05:13:35Z</time></trkpt><trkpt lat="33.8412016" lon="132.929389"><ele>921.0933333333332</ele><time>2022-03-25T05:13:54Z</time></trkpt><trkpt lat="33.8410229" lon="132.929357"><ele>923.7733333333332</ele><time>2022-03-25T05:16:57Z</time></trkpt><trkpt lat="33.8408635" lon="132.9292547"><ele>923.8766666666667</ele><time>2022-03-25T05:17:14Z</time></trkpt><trkpt lat="33.8407194" lon="132.9291214"><ele>922.5</ele><time>2022-03-25T05:17:48Z</time></trkpt><trkpt lat="33.840558" lon="132.9290047"><ele>920.6233333333333</ele><time>2022-03-25T05:18:01Z</time></trkpt><trkpt lat="33.8403876" lon="132.9289106"><ele>917.84</ele><time>2022-03-25T05:18:13Z</time></trkpt><trkpt lat="33.8402312" lon="132.9287795"><ele>914.9766666666666</ele><time>2022-03-25T05:18:24Z</time></trkpt><trkpt lat="33.8401151" lon="132.9286092"><ele>911.5533333333333</ele><time>2022-03-25T05:18:36Z</time></trkpt><trkpt lat="33.8399646" lon="132.9284885"><ele>907.4933333333333</ele><time>2022-03-25T05:18:50Z</time></trkpt><trkpt lat="33.8399705" lon="132.9282608"><ele>904.5633333333334</ele><time>2022-03-25T05:19:01Z</time></trkpt><trkpt lat="33.8399276" lon="132.9280367"><ele>903.1633333333333</ele><time>2022-03-25T05:19:13Z</time></trkpt><trkpt lat="33.8398859" lon="132.9278177"><ele>903.3933333333333</ele><time>2022-03-25T05:19:29Z</time></trkpt><trkpt lat="33.8399111" lon="132.9276024"><ele>902.32</ele><time>2022-03-25T05:19:38Z</time></trkpt><trkpt lat="33.8397684" lon="132.927438"><ele>899.2733333333332</ele><time>2022-03-25T05:19:51Z</time></trkpt><trkpt lat="33.8396477" lon="132.92727"><ele>893.6366666666667</ele><time>2022-03-25T05:20:02Z</time></trkpt><trkpt lat="33.8396437" lon="132.9270518"><ele>888.2700000000001</ele><time>2022-03-25T05:20:15Z</time></trkpt><trkpt lat="33.8395353" lon="132.9268729"><ele>884.2666666666668</ele><time>2022-03-25T05:20:28Z</time></trkpt><trkpt lat="33.839392" lon="132.9267353"><ele>883.61</ele><time>2022-03-25T05:20:50Z</time></trkpt><trkpt lat="33.839226" lon="132.9266307"><ele>882.9833333333335</ele><time>2022-03-25T05:21:04Z</time></trkpt><trkpt lat="33.839101" lon="132.9264409"><ele>882.3299999999999</ele><time>2022-03-25T05:21:17Z</time></trkpt><trkpt lat="33.8389965" lon="132.9262478"><ele>880.5300000000001</ele><time>2022-03-25T05:21:28Z</time></trkpt><trkpt lat="33.83888" lon="132.9260802"><ele>876.6866666666666</ele><time>2022-03-25T05:21:44Z</time></trkpt><trkpt lat="33.8388329" lon="132.9258698"><ele>874.1066666666666</ele><time>2022-03-25T05:22:00Z</time></trkpt><trkpt lat="33.838707" lon="132.9257101"><ele>872.2666666666668</ele><time>2022-03-25T05:22:20Z</time></trkpt><trkpt lat="33.8387795" lon="132.9255069"><ele>872.5099999999999</ele><time>2022-03-25T05:22:39Z</time></trkpt><trkpt lat="33.8387741" lon="132.9252877"><ele>870.7066666666666</ele><time>2022-03-25T05:22:57Z</time></trkpt><trkpt lat="33.8387182" lon="132.9250778"><ele>868.4200000000001</ele><time>2022-03-25T05:23:13Z</time></trkpt><trkpt lat="33.8387758" lon="132.9248724"><ele>865.4866666666667</ele><time>2022-03-25T05:23:33Z</time></trkpt><trkpt lat="33.8388441" lon="132.9246614"><ele>861.8433333333332</ele><time>2022-03-25T05:23:49Z</time></trkpt><trkpt lat="33.8388242" lon="132.9244459"><ele>857.2366666666667</ele><time>2022-03-25T05:24:01Z</time></trkpt><trkpt lat="33.8388764" lon="132.9242309"><ele>851.9166666666666</ele><time>2022-03-25T05:24:14Z</time></trkpt><trkpt lat="33.8388808" lon="132.9240111"><ele>846.9966666666668</ele><time>2022-03-25T05:24:28Z</time></trkpt><trkpt lat="33.8388738" lon="132.9237899"><ele>843.34</ele><time>2022-03-25T05:24:45Z</time></trkpt><trkpt lat="33.8387872" lon="132.9235926"><ele>840.18</ele><time>2022-03-25T05:25:01Z</time></trkpt><trkpt lat="33.8386954" lon="132.9234028"><ele>836.1366666666667</ele><time>2022-03-25T05:25:13Z</time></trkpt><trkpt lat="33.8386234" lon="132.9231981"><ele>829.96</ele><time>2022-03-25T05:25:26Z</time></trkpt><trkpt lat="33.8385293" lon="132.9230082"><ele>822.48</ele><time>2022-03-25T05:25:53Z</time></trkpt><trkpt lat="33.8384388" lon="132.9228127"><ele>815.8833333333333</ele><time>2022-03-25T05:26:05Z</time></trkpt><trkpt lat="33.8383588" lon="132.9226111"><ele>809.8933333333334</ele><time>2022-03-25T05:26:14Z</time></trkpt><trkpt lat="33.8383917" lon="132.9223959"><ele>805.2566666666667</ele><time>2022-03-25T05:26:28Z</time></trkpt><trkpt lat="33.8384178" lon="132.9221796"><ele>803.9499999999999</ele><time>2022-03-25T05:26:44Z</time></trkpt><trkpt lat="33.8384416" lon="132.9219523"><ele>804.5266666666666</ele><time>2022-03-25T05:26:59Z</time></trkpt><trkpt lat="33.8384069" lon="132.9217355"><ele>803.4633333333335</ele><time>2022-03-25T05:27:14Z</time></trkpt><trkpt lat="33.8383844" lon="132.921515"><ele>800.2199999999999</ele><time>2022-03-25T05:27:47Z</time></trkpt><trkpt lat="33.8383378" lon="132.9213015"><ele>795.69</ele><time>2022-03-25T05:27:59Z</time></trkpt><trkpt lat="33.8382664" lon="132.9210925"><ele>795.2033333333333</ele><time>2022-03-25T05:28:12Z</time></trkpt><trkpt lat="33.8381921" lon="132.920889"><ele>795.6233333333333</ele><time>2022-03-25T05:28:27Z</time></trkpt><trkpt lat="33.8381163" lon="132.9206915"><ele>798.88</ele><time>2022-03-25T05:28:41Z</time></trkpt><trkpt lat="33.8379742" lon="132.9205555"><ele>801.94</ele><time>2022-03-25T05:29:12Z</time></trkpt><trkpt lat="33.8379851" lon="132.9203397"><ele>805.8433333333334</ele><time>2022-03-25T05:29:34Z</time></trkpt><trkpt lat="33.8379282" lon="132.9201324"><ele>808.2233333333334</ele><time>2022-03-25T05:29:49Z</time></trkpt><trkpt lat="33.8378503" lon="132.9199353"><ele>808.2466666666666</ele><time>2022-03-25T05:30:15Z</time></trkpt><trkpt lat="33.837793" lon="132.9197297"><ele>806.5033333333334</ele><time>2022-03-25T05:30:34Z</time></trkpt><trkpt lat="33.8376867" lon="132.9195267"><ele>803.0266666666666</ele><time>2022-03-25T05:30:56Z</time></trkpt><trkpt lat="33.8376269" lon="132.9193185"><ele>800.5533333333334</ele><time>2022-03-25T05:31:26Z</time></trkpt><trkpt lat="33.8375981" lon="132.9191045"><ele>799.0566666666667</ele><time>2022-03-25T05:31:35Z</time></trkpt><trkpt lat="33.8376418" lon="132.9188847"><ele>799.7066666666666</ele><time>2022-03-25T05:31:44Z</time></trkpt><trkpt lat="33.8376062" lon="132.918669"><ele>798.7433333333333</ele><time>2022-03-25T05:37:33Z</time></trkpt><trkpt lat="33.8374195" lon="132.9185946"><ele>796.1033333333335</ele><time>2022-03-25T05:37:45Z</time></trkpt><trkpt lat="33.8372527" lon="132.9185094"><ele>790.9500000000002</ele><time>2022-03-25T05:37:53Z</time></trkpt><trkpt lat="33.8371238" lon="132.9183572"><ele>787.7199999999999</ele><time>2022-03-25T05:38:04Z</time></trkpt><trkpt lat="33.837018" lon="132.9181751"><ele>787.5833333333334</ele><time>2022-03-25T05:38:25Z</time></trkpt><trkpt lat="33.8368814" lon="132.918019"><ele>789.7533333333334</ele><time>2022-03-25T05:38:36Z</time></trkpt><trkpt lat="33.8367272" lon="132.9179004"><ele>791.4</ele><time>2022-03-25T05:38:49Z</time></trkpt><trkpt lat="33.8365871" lon="132.9177619"><ele>789.6633333333334</ele><time>2022-03-25T05:39:16Z</time></trkpt><trkpt lat="33.836651" lon="132.9175542"><ele>786.2533333333334</ele><time>2022-03-25T05:40:46Z</time></trkpt><trkpt lat="33.8366022" lon="132.9173285"><ele>780.75</ele><time>2022-03-25T05:40:57Z</time></trkpt><trkpt lat="33.8366799" lon="132.9171324"><ele>773.6133333333333</ele><time>2022-03-25T05:41:51Z</time></trkpt><trkpt lat="33.8367921" lon="132.9169607"><ele>766.8766666666667</ele><time>2022-03-25T05:42:19Z</time></trkpt><trkpt lat="33.8368216" lon="132.9167318"><ele>761.1333333333333</ele><time>2022-03-25T05:42:34Z</time></trkpt><trkpt lat="33.8369793" lon="132.9166209"><ele>757.3433333333334</ele><time>2022-03-25T05:43:11Z</time></trkpt><trkpt lat="33.8370436" lon="132.9164022"><ele>753.7233333333334</ele><time>2022-03-25T05:43:54Z</time></trkpt><trkpt lat="33.8371591" lon="132.9162308"><ele>750.6933333333333</ele><time>2022-03-25T05:44:05Z</time></trkpt><trkpt lat="33.8372251" lon="132.9160251"><ele>746.84</ele><time>2022-03-25T05:44:21Z</time></trkpt><trkpt lat="33.8371828" lon="132.9158144"><ele>742.0266666666666</ele><time>2022-03-25T05:44:40Z</time></trkpt><trkpt lat="33.8372241" lon="132.9156025"><ele>737.2566666666667</ele><time>2022-03-25T05:45:03Z</time></trkpt><trkpt lat="33.8372944" lon="132.9153971"><ele>733.1566666666668</ele><time>2022-03-25T05:45:15Z</time></trkpt><trkpt lat="33.8373178" lon="132.9151778"><ele>728.7166666666667</ele><time>2022-03-25T05:45:31Z</time></trkpt><trkpt lat="33.8372626" lon="132.914968"><ele>720.3000000000001</ele><time>2022-03-25T05:46:57Z</time></trkpt><trkpt lat="33.8370872" lon="132.9150264"><ele>712.6533333333333</ele><time>2022-03-25T05:47:13Z</time></trkpt><trkpt lat="33.8370423" lon="132.914816"><ele>703.1366666666667</ele><time>2022-03-25T05:47:36Z</time></trkpt><trkpt lat="33.8371925" lon="132.91469"><ele>697.9666666666667</ele><time>2022-03-25T05:49:01Z</time></trkpt><trkpt lat="33.8373398" lon="132.9145553"><ele>690.91</ele><time>2022-03-25T05:49:54Z</time></trkpt><trkpt lat="33.8374878" lon="132.9144262"><ele>688.6533333333333</ele><time>2022-03-25T05:50:16Z</time></trkpt><trkpt lat="33.8375778" lon="132.9142352"><ele>685.0600000000001</ele><time>2022-03-25T05:50:46Z</time></trkpt><trkpt lat="33.8377058" lon="132.9140752"><ele>683.5433333333334</ele><time>2022-03-25T05:51:07Z</time></trkpt><trkpt lat="33.837641" lon="132.9138727"><ele>680.4133333333333</ele><time>2022-03-25T05:51:35Z</time></trkpt><trkpt lat="33.8376446" lon="132.9136535"><ele>679.38</ele><time>2022-03-25T05:52:03Z</time></trkpt><trkpt lat="33.8375951" lon="132.9134407"><ele>677.6366666666668</ele><time>2022-03-25T05:52:22Z</time></trkpt><trkpt lat="33.8375547" lon="132.9132257"><ele>675.0066666666667</ele><time>2022-03-25T05:52:38Z</time></trkpt><trkpt lat="33.8375815" lon="132.913011"><ele>671.14</ele><time>2022-03-25T05:53:01Z</time></trkpt><trkpt lat="33.8377204" lon="132.9128684"><ele>668.9433333333334</ele><time>2022-03-25T05:53:49Z</time></trkpt><trkpt lat="33.837778" lon="132.912652"><ele>664.9833333333335</ele><time>2022-03-25T05:54:04Z</time></trkpt><trkpt lat="33.8377166" lon="132.9124438"><ele>659.8333333333334</ele><time>2022-03-25T05:54:23Z</time></trkpt><trkpt lat="33.8377143" lon="132.9122225"><ele>651.6666666666666</ele><time>2022-03-25T05:54:56Z</time></trkpt><trkpt lat="33.8377076" lon="132.9120032"><ele>646.3433333333334</ele><time>2022-03-25T05:55:28Z</time></trkpt><trkpt lat="33.8376819" lon="132.9117884"><ele>643.1733333333333</ele><time>2022-03-25T05:55:55Z</time></trkpt><trkpt lat="33.837595" lon="132.9115984"><ele>642.42</ele><time>2022-03-25T05:56:33Z</time></trkpt><trkpt lat="33.8374444" lon="132.9114603"><ele>643.3766666666667</ele><time>2022-03-25T05:56:58Z</time></trkpt><trkpt lat="33.8374515" lon="132.9112353"><ele>644.3433333333334</ele><time>2022-03-25T05:57:23Z</time></trkpt><trkpt lat="33.8374627" lon="132.9110168"><ele>644.0500000000001</ele><time>2022-03-25T05:58:01Z</time></trkpt><trkpt lat="33.8375007" lon="132.9108018"><ele>641.89</ele><time>2022-03-25T05:58:18Z</time></trkpt><trkpt lat="33.8373662" lon="132.9106299"><ele>638.35</ele><time>2022-03-25T05:58:35Z</time></trkpt><trkpt lat="33.8372995" lon="132.9104256"><ele>634.8333333333334</ele><time>2022-03-25T05:58:56Z</time></trkpt><trkpt lat="33.8373638" lon="132.9102232"><ele>632.2133333333333</ele><time>2022-03-25T05:59:24Z</time></trkpt><trkpt lat="33.8373273" lon="132.9100023"><ele>627.59</ele><time>2022-03-25T05:59:46Z</time></trkpt><trkpt lat="33.8373601" lon="132.909786"><ele>620.48</ele><time>2022-03-25T06:00:41Z</time></trkpt><trkpt lat="33.8374366" lon="132.9095852"><ele>610.1133333333333</ele><time>2022-03-25T06:01:12Z</time></trkpt><trkpt lat="33.8374646" lon="132.909371"><ele>600.8633333333333</ele><time>2022-03-25T06:01:30Z</time></trkpt><trkpt lat="33.8375258" lon="132.9091605"><ele>592.4633333333334</ele><time>2022-03-25T06:02:19Z</time></trkpt><trkpt lat="33.8375921" lon="132.9089522"><ele>585.4066666666666</ele><time>2022-03-25T06:02:33Z</time></trkpt><trkpt lat="33.837656" lon="132.9087494"><ele>579.1566666666666</ele><time>2022-03-25T06:03:35Z</time></trkpt><trkpt lat="33.8376846" lon="132.9085267"><ele>572.5766666666667</ele><time>2022-03-25T06:04:06Z</time></trkpt><trkpt lat="33.8377327" lon="132.9083149"><ele>567.2533333333333</ele><time>2022-03-25T06:04:37Z</time></trkpt><trkpt lat="33.8377925" lon="132.9081108"><ele>562.58</ele><time>2022-03-25T06:04:57Z</time></trkpt><trkpt lat="33.8378765" lon="132.9079125"><ele>561.0633333333334</ele><time>2022-03-25T06:05:26Z</time></trkpt><trkpt lat="33.837876" lon="132.9076933"><ele>557.75</ele><time>2022-03-25T06:05:42Z</time></trkpt><trkpt lat="33.8379066" lon="132.9074795"><ele>553.74</ele><time>2022-03-25T06:05:59Z</time></trkpt><trkpt lat="33.8379816" lon="132.9072798"><ele>549.4499999999999</ele><time>2022-03-25T06:06:14Z</time></trkpt><trkpt lat="33.838093" lon="132.9070986"><ele>546.6566666666668</ele><time>2022-03-25T06:06:57Z</time></trkpt><trkpt lat="33.8381461" lon="132.90689"><ele>543.6066666666667</ele><time>2022-03-25T06:07:09Z</time></trkpt><trkpt lat="33.8381856" lon="132.9066745"><ele>537.3766666666667</ele><time>2022-03-25T06:07:23Z</time></trkpt><trkpt lat="33.8383418" lon="132.9065608"><ele>533.8266666666667</ele><time>2022-03-25T06:07:39Z</time></trkpt><trkpt lat="33.8384214" lon="132.9063667"><ele>531.2299999999999</ele><time>2022-03-25T06:07:52Z</time></trkpt><trkpt lat="33.8384943" lon="132.9061507"><ele>530.1433333333333</ele><time>2022-03-25T06:08:05Z</time></trkpt><trkpt lat="33.8386288" lon="132.9059989"><ele>528.8733333333333</ele><time>2022-03-25T06:08:27Z</time></trkpt><trkpt lat="33.8387692" lon="132.9058449"><ele>528.5533333333334</ele><time>2022-03-25T06:09:44Z</time></trkpt><trkpt lat="33.838823" lon="132.9056324"><ele>528.2233333333334</ele><time>2022-03-25T06:10:29Z</time></trkpt><trkpt lat="33.8388051" lon="132.9054125"><ele>525.6366666666667</ele><time>2022-03-25T06:10:44Z</time></trkpt><trkpt lat="33.8387148" lon="132.9052168"><ele>521.4833333333335</ele><time>2022-03-25T06:10:59Z</time></trkpt><trkpt lat="33.8387213" lon="132.904998"><ele>517.3833333333333</ele><time>2022-03-25T06:11:13Z</time></trkpt><trkpt lat="33.8386939" lon="132.9047831"><ele>510.85999999999996</ele><time>2022-03-25T06:11:30Z</time></trkpt><trkpt lat="33.8386775" lon="132.9045647"><ele>503.91</ele><time>2022-03-25T06:11:46Z</time></trkpt><trkpt lat="33.8386581" lon="132.904338"><ele>495.5833333333333</ele><time>2022-03-25T06:12:30Z</time></trkpt><trkpt lat="33.8386722" lon="132.9045535"><ele>493.71000000000004</ele><time>2022-03-25T06:13:50Z</time></trkpt><trkpt lat="33.8387154" lon="132.9047722"><ele>496.0366666666667</ele><time>2022-03-25T06:14:36Z</time></trkpt><trkpt lat="33.8387249" lon="132.9049953"><ele>504.3633333333334</ele><time>2022-03-25T06:14:56Z</time></trkpt><trkpt lat="33.8387644" lon="132.9052069"><ele>510.82666666666665</ele><time>2022-03-25T06:15:25Z</time></trkpt><trkpt lat="33.8389135" lon="132.9053312"><ele>517.12</ele><time>2022-03-25T06:16:48Z</time></trkpt><trkpt lat="33.8390747" lon="132.9052284"><ele>519.0066666666667</ele><time>2022-03-25T06:17:28Z</time></trkpt><trkpt lat="33.839249" lon="132.9051409"><ele>516.4166666666666</ele><time>2022-03-25T06:21:53Z</time></trkpt><trkpt lat="33.8394007" lon="132.9050119"><ele>505.8</ele><time>2022-03-25T06:23:23Z</time></trkpt><trkpt lat="33.8395159" lon="132.9048442"><ele>491.16333333333336</ele><time>2022-03-25T06:24:13Z</time></trkpt><trkpt lat="33.8396407" lon="132.9046765"><ele>476.5</ele><time>2022-03-25T06:24:52Z</time></trkpt><trkpt lat="33.8397506" lon="132.904497"><ele>464.98</ele><time>2022-03-25T06:25:09Z</time></trkpt><trkpt lat="33.8398827" lon="132.9043471"><ele>457.6966666666667</ele><time>2022-03-25T06:25:24Z</time></trkpt><trkpt lat="33.8400295" lon="132.9042114"><ele>453.6033333333333</ele><time>2022-03-25T06:25:59Z</time></trkpt><trkpt lat="33.8401494" lon="132.9040325"><ele>451.5133333333333</ele><time>2022-03-25T06:26:14Z</time></trkpt><trkpt lat="33.8402828" lon="132.9038673"><ele>448.7966666666666</ele><time>2022-03-25T06:26:43Z</time></trkpt><trkpt lat="33.8402892" lon="132.9036485"><ele>439.58666666666664</ele><time>2022-03-25T06:28:05Z</time></trkpt><trkpt lat="33.840258" lon="132.9034328"><ele>427.15333333333336</ele><time>2022-03-25T06:28:22Z</time></trkpt><trkpt lat="33.8403028" lon="132.9032201"><ele>414.5</ele><time>2022-03-25T06:28:39Z</time></trkpt><trkpt lat="33.8404636" lon="132.9030833"><ele>409.78</ele><time>2022-03-25T06:28:51Z</time></trkpt><trkpt lat="33.8405116" lon="132.9028748"><ele>407.9433333333333</ele><time>2022-03-25T06:28:58Z</time></trkpt><trkpt lat="33.840597" lon="132.9026708"><ele>407.46000000000004</ele><time>2022-03-25T06:29:10Z</time></trkpt><trkpt lat="33.8407247" lon="132.9025112"><ele>404.94</ele><time>2022-03-25T06:29:23Z</time></trkpt><trkpt lat="33.8408594" lon="132.9023549"><ele>401.9066666666667</ele><time>2022-03-25T06:29:58Z</time></trkpt><trkpt lat="33.8409842" lon="132.9021974"><ele>395.84999999999997</ele><time>2022-03-25T06:30:13Z</time></trkpt><trkpt lat="33.8411032" lon="132.902028"><ele>386.60999999999996</ele><time>2022-03-25T06:31:12Z</time></trkpt><trkpt lat="33.8411534" lon="132.9018165"><ele>375.90000000000003</ele><time>2022-03-25T06:31:38Z</time></trkpt><trkpt lat="33.8412834" lon="132.9016649"><ele>365.43666666666667</ele><time>2022-03-25T06:32:44Z</time></trkpt><trkpt lat="33.8414253" lon="132.9015307"><ele>356.6766666666667</ele><time>2022-03-25T06:33:40Z</time></trkpt><trkpt lat="33.841546" lon="132.9013644"><ele>347.3233333333333</ele><time>2022-03-25T06:34:23Z</time></trkpt><trkpt lat="33.8416951" lon="132.9012309"><ele>336.24333333333334</ele><time>2022-03-25T06:35:20Z</time></trkpt><trkpt lat="33.8417263" lon="132.901004"><ele>321.74333333333334</ele><time>2022-03-25T06:35:48Z</time></trkpt><trkpt lat="33.8418008" lon="132.9008067"><ele>306.46999999999997</ele><time>2022-03-25T06:36:19Z</time></trkpt><trkpt lat="33.8419744" lon="132.9007096"><ele>294.5333333333333</ele><time>2022-03-25T06:36:48Z</time></trkpt><trkpt lat="33.8421416" lon="132.9006077"><ele>285.50666666666666</ele><time>2022-03-25T06:38:09Z</time></trkpt><trkpt lat="33.8422306" lon="132.9004192"><ele>276.22</ele><time>2022-03-25T06:39:40Z</time></trkpt><trkpt lat="33.8423449" lon="132.90025"><ele>265.01</ele><time>2022-03-25T06:41:03Z</time></trkpt><trkpt lat="33.8424051" lon="132.9000228"><ele>250.22000000000003</ele><time>2022-03-25T06:43:00Z</time></trkpt><trkpt lat="33.8423438" lon="132.8998115"><ele>235.77666666666667</ele><time>2022-03-25T06:45:36Z</time></trkpt><trkpt lat="33.8424843" lon="132.8996713"><ele>223.97</ele><time>2022-03-25T06:46:07Z</time></trkpt><trkpt lat="33.8426589" lon="132.8996041"><ele>217.76333333333332</ele><time>2022-03-25T06:46:27Z</time></trkpt><trkpt lat="33.8428435" lon="132.899621"><ele>215.91666666666666</ele><time>2022-03-25T06:46:47Z</time></trkpt><trkpt lat="33.8430267" lon="132.8996419"><ele>215.9666666666667</ele><time>2022-03-25T06:47:18Z</time></trkpt><trkpt lat="33.843208" lon="132.8996457"><ele>216.35000000000002</ele><time>2022-03-25T06:47:32Z</time></trkpt><trkpt lat="33.8433934" lon="132.8996317"><ele>216.96333333333334</ele><time>2022-03-25T06:47:52Z</time></trkpt><trkpt lat="33.8435739" lon="132.8996054"><ele>217.92666666666665</ele><time>2022-03-25T06:48:11Z</time></trkpt></trkseg></trk></gpx>