<?xml version='1.0' encoding='UTF-8'?><gpx creator="Yama Museum Summit Candidate Generator" xsi:schemaLocation="http://www.topografix.com/GPX/1/1 http://www.topografix.com/GPX/1/1/gpx.xsd" version="1.1" xmlns="http://www.topografix.com/GPX/1/1" xmlns:xsi="http://www.w3.org/2001/XMLSchema-instance" xmlns:yama="https://museum-yama-data.moukaeritai.work/ns/yama-data/0.1"><metadata><bounds maxlat="33.8552913" maxlon="133.2742516" minlat="33.8388345" minlon="133.2547999"/><name>沓掛山・黒森山</name><extensions><yama:source_gpx_basename>yamap_2024-06-08_08_42.gpx</yama:source_gpx_basename><yama:source_gpx_relative_path>data/01_raw/gpx/2026-05-12/yamap_2024-06-08_08_42.gpx</yama:source_gpx_relative_path><yama:detection_parameters>window=5,radius=10,min_prominence=30,merge=100</yama:detection_parameters></extensions></metadata><wpt lat="33.8493229" lon="133.2701244"><ele>1690.4033333333334</ele><time>2024-06-08T01:47:02Z</time><name>summit-candidate:40e090ce41a89b55</name><desc>Summit candidate detected at elevation 1690.4033333333334m with prominence 719.639777777778m.</desc><sym>Summit Candidate</sym><extensions><yama:source_trackpoint_index>172</yama:source_trackpoint_index><yama:valid_elevation_index>172</yama:valid_elevation_index><yama:smoothed_ele>1686.8020000000001</yama:smoothed_ele><yama:prominence>719.639777777778</yama:prominence><yama:detection_method>local_maxima_with_prominence</yama:detection_method><yama:detection_parameters>window=5,radius=10,min_prominence=30,merge=100</yama:detection_parameters><yama:candidate_status>unresolved</yama:candidate_status></extensions></wpt>
  <wpt lat="33.8551537" lon="133.2686747"><ele>1666.7</ele><time>2024-06-08T02:44:18Z</time><name>summit-candidate:dd7a40896ae9f6d4</name><desc>Summit candidate detected at elevation 1666.7m with prominence 47.66199999999958m.</desc><sym>Summit Candidate</sym><extensions><yama:source_trackpoint_index>209</yama:source_trackpoint_index><yama:valid_elevation_index>209</yama:valid_elevation_index><yama:smoothed_ele>1663.4019999999996</yama:smoothed_ele><yama:prominence>47.66199999999958</yama:prominence><yama:detection_method>local_maxima_with_prominence</yama:detection_method><yama:detection_parameters>window=5,radius=10,min_prominence=30,merge=100</yama:detection_parameters><yama:candidate_status>unresolved</yama:candidate_status></extensions></wpt>
  <trk><name>沓掛山・黒森山</name><number>1</number><trkseg><trkpt lat="33.8406269" lon="133.2547999"><ele>957.16</ele><time>2024-06-07T23:42:41Z</time></trkpt><trkpt lat="33.8406326" lon="133.25506"><ele>960.0550000000001</ele><time>2024-06-07T23:43:40Z</time></trkpt><trkpt lat="33.8405812" lon="133.2552845"><ele>961.1566666666668</ele><time>2024-06-07T23:43:58Z</time></trkpt><trkpt lat="33.8405007" lon="133.255511"><ele>965.1899999999999</ele><time>2024-06-07T23:44:18Z</time></trkpt><trkpt lat="33.8404409" lon="133.2557406"><ele>968.4733333333334</ele><time>2024-06-07T23:44:57Z</time></trkpt><trkpt lat="33.8403135" lon="133.2559491"><ele>971.0133333333333</ele><time>2024-06-07T23:45:14Z</time></trkpt><trkpt lat="33.8403456" lon="133.2561837"><ele>973.1100000000001</ele><time>2024-06-07T23:45:41Z</time></trkpt><trkpt lat="33.840358" lon="133.2564121"><ele>975.4133333333334</ele><time>2024-06-07T23:45:58Z</time></trkpt><trkpt lat="33.8403125" lon="133.2566308"><ele>976.9900000000001</ele><time>2024-06-07T23:46:18Z</time></trkpt><trkpt lat="33.8403351" lon="133.2568768"><ele>978.3666666666668</ele><time>2024-06-07T23:46:54Z</time></trkpt><trkpt lat="33.840298" lon="133.2571214"><ele>978.9466666666667</ele><time>2024-06-07T23:47:11Z</time></trkpt><trkpt lat="33.8402573" lon="133.2573694"><ele>979.2066666666666</ele><time>2024-06-07T23:47:27Z</time></trkpt><trkpt lat="33.8402366" lon="133.2576155"><ele>978.0366666666667</ele><time>2024-06-07T23:48:30Z</time></trkpt><trkpt lat="33.840411" lon="133.2577399"><ele>979.0300000000001</ele><time>2024-06-07T23:48:42Z</time></trkpt><trkpt lat="33.8405661" lon="133.2579063"><ele>982.5666666666667</ele><time>2024-06-07T23:48:58Z</time></trkpt><trkpt lat="33.840662" lon="133.2581307"><ele>986.48</ele><time>2024-06-07T23:49:16Z</time></trkpt><trkpt lat="33.8405623" lon="133.2579063"><ele>987.37</ele><time>2024-06-07T23:50:01Z</time></trkpt><trkpt lat="33.8403822" lon="133.2577898"><ele>985.6700000000001</ele><time>2024-06-07T23:50:19Z</time></trkpt><trkpt lat="33.8403105" lon="133.2575895"><ele>983.5099999999999</ele><time>2024-06-07T23:50:43Z</time></trkpt><trkpt lat="33.8404767" lon="133.2577594"><ele>982.62</ele><time>2024-06-07T23:51:00Z</time></trkpt><trkpt lat="33.8405723" lon="133.2579786"><ele>984.32</ele><time>2024-06-07T23:51:15Z</time></trkpt><trkpt lat="33.8405808" lon="133.2582221"><ele>986.4433333333335</ele><time>2024-06-07T23:51:30Z</time></trkpt><trkpt lat="33.8404002" lon="133.2583671"><ele>990.2566666666667</ele><time>2024-06-07T23:51:48Z</time></trkpt><trkpt lat="33.8402813" lon="133.2581642"><ele>990.7400000000001</ele><time>2024-06-07T23:52:04Z</time></trkpt><trkpt lat="33.8400797" lon="133.2581511"><ele>988.2800000000001</ele><time>2024-06-07T23:52:21Z</time></trkpt><trkpt lat="33.8400253" lon="133.2583747"><ele>986.2466666666668</ele><time>2024-06-07T23:52:33Z</time></trkpt><trkpt lat="33.8399165" lon="133.2586173"><ele>988.21</ele><time>2024-06-07T23:52:48Z</time></trkpt><trkpt lat="33.8398314" lon="133.2588607"><ele>995.66</ele><time>2024-06-07T23:53:03Z</time></trkpt><trkpt lat="33.8396988" lon="133.2590719"><ele>1001.2266666666668</ele><time>2024-06-07T23:53:23Z</time></trkpt><trkpt lat="33.8396675" lon="133.2593"><ele>1007.4</ele><time>2024-06-07T23:54:40Z</time></trkpt><trkpt lat="33.8395311" lon="133.2594606"><ele>1012.8566666666667</ele><time>2024-06-07T23:55:11Z</time></trkpt><trkpt lat="33.8396094" lon="133.25966"><ele>1019.5133333333333</ele><time>2024-06-07T23:56:24Z</time></trkpt><trkpt lat="33.8395135" lon="133.2598464"><ele>1026.1833333333334</ele><time>2024-06-07T23:57:36Z</time></trkpt><trkpt lat="33.8394452" lon="133.2600575"><ele>1034.84</ele><time>2024-06-07T23:57:59Z</time></trkpt><trkpt lat="33.839463" lon="133.260289"><ele>1043.6899999999998</ele><time>2024-06-07T23:58:50Z</time></trkpt><trkpt lat="33.839398" lon="133.2604974"><ele>1051.7500000000002</ele><time>2024-06-07T23:59:11Z</time></trkpt><trkpt lat="33.8393179" lon="133.2606944"><ele>1056.24</ele><time>2024-06-07T23:59:38Z</time></trkpt><trkpt lat="33.839321" lon="133.260919"><ele>1059.5533333333333</ele><time>2024-06-08T00:00:02Z</time></trkpt><trkpt lat="33.8393498" lon="133.2611448"><ele>1063.6066666666668</ele><time>2024-06-08T00:00:26Z</time></trkpt><trkpt lat="33.8392372" lon="133.2613376"><ele>1067.0633333333333</ele><time>2024-06-08T00:01:06Z</time></trkpt><trkpt lat="33.8393366" lon="133.2615483"><ele>1071.2700000000002</ele><time>2024-06-08T00:01:36Z</time></trkpt><trkpt lat="33.8392604" lon="133.2617668"><ele>1074.1533333333334</ele><time>2024-06-08T00:02:17Z</time></trkpt><trkpt lat="33.8391494" lon="133.2619534"><ele>1077.41</ele><time>2024-06-08T00:02:55Z</time></trkpt><trkpt lat="33.8391871" lon="133.2621658"><ele>1079.78</ele><time>2024-06-08T00:03:20Z</time></trkpt><trkpt lat="33.8391452" lon="133.2624067"><ele>1082.9633333333334</ele><time>2024-06-08T00:03:56Z</time></trkpt><trkpt lat="33.8392355" lon="133.2626163"><ele>1090.1333333333334</ele><time>2024-06-08T00:05:07Z</time></trkpt><trkpt lat="33.8391716" lon="133.2628188"><ele>1097.3866666666665</ele><time>2024-06-08T00:05:53Z</time></trkpt><trkpt lat="33.8391196" lon="133.2630291"><ele>1104.33</ele><time>2024-06-08T00:06:35Z</time></trkpt><trkpt lat="33.8391025" lon="133.2632475"><ele>1110.9033333333334</ele><time>2024-06-08T00:07:10Z</time></trkpt><trkpt lat="33.8389566" lon="133.2633809"><ele>1114.78</ele><time>2024-06-08T00:07:44Z</time></trkpt><trkpt lat="33.8389661" lon="133.2636034"><ele>1121.5933333333332</ele><time>2024-06-08T00:08:10Z</time></trkpt><trkpt lat="33.8388852" lon="133.2638011"><ele>1125.76</ele><time>2024-06-08T00:08:52Z</time></trkpt><trkpt lat="33.8388798" lon="133.2640246"><ele>1133.8633333333335</ele><time>2024-06-08T00:09:39Z</time></trkpt><trkpt lat="33.8388345" lon="133.2642438"><ele>1136.5633333333335</ele><time>2024-06-08T00:10:13Z</time></trkpt><trkpt lat="33.8388834" lon="133.2644729"><ele>1140.03</ele><time>2024-06-08T00:10:37Z</time></trkpt><trkpt lat="33.8389477" lon="133.2646904"><ele>1142.3733333333337</ele><time>2024-06-08T00:11:11Z</time></trkpt><trkpt lat="33.8391108" lon="133.264816"><ele>1149.4566666666667</ele><time>2024-06-08T00:12:12Z</time></trkpt><trkpt lat="33.8392641" lon="133.2649571"><ele>1157.95</ele><time>2024-06-08T00:12:55Z</time></trkpt><trkpt lat="33.8393808" lon="133.2651331"><ele>1168.9966666666667</ele><time>2024-06-08T00:13:28Z</time></trkpt><trkpt lat="33.839441" lon="133.2653415"><ele>1179.2066666666667</ele><time>2024-06-08T00:14:16Z</time></trkpt><trkpt lat="33.8394496" lon="133.265563"><ele>1186.26</ele><time>2024-06-08T00:14:58Z</time></trkpt><trkpt lat="33.839481" lon="133.2657781"><ele>1191.6766666666665</ele><time>2024-06-08T00:16:08Z</time></trkpt><trkpt lat="33.8393781" lon="133.2659674"><ele>1193.75</ele><time>2024-06-08T00:16:47Z</time></trkpt><trkpt lat="33.839326" lon="133.2661766"><ele>1195.42</ele><time>2024-06-08T00:17:04Z</time></trkpt><trkpt lat="33.8392677" lon="133.2663859"><ele>1195.6499999999999</ele><time>2024-06-08T00:17:35Z</time></trkpt><trkpt lat="33.8394209" lon="133.2665005"><ele>1200.8366666666668</ele><time>2024-06-08T00:18:38Z</time></trkpt><trkpt lat="33.8394687" lon="133.2667189"><ele>1208.4166666666667</ele><time>2024-06-08T00:19:38Z</time></trkpt><trkpt lat="33.8394377" lon="133.266952"><ele>1217.283333333333</ele><time>2024-06-08T00:20:11Z</time></trkpt><trkpt lat="33.8395824" lon="133.2670826"><ele>1226.0833333333333</ele><time>2024-06-08T00:21:22Z</time></trkpt><trkpt lat="33.8397117" lon="133.2672401"><ele>1236.3533333333335</ele><time>2024-06-08T00:22:08Z</time></trkpt><trkpt lat="33.8398649" lon="133.2673579"><ele>1247.3333333333333</ele><time>2024-06-08T00:25:47Z</time></trkpt><trkpt lat="33.840043" lon="133.2672985"><ele>1257.78</ele><time>2024-06-08T00:27:02Z</time></trkpt><trkpt lat="33.8402078" lon="133.2671858"><ele>1269.1566666666668</ele><time>2024-06-08T00:27:22Z</time></trkpt><trkpt lat="33.8401274" lon="133.2673872"><ele>1277.1666666666667</ele><time>2024-06-08T00:28:33Z</time></trkpt><trkpt lat="33.8401794" lon="133.2675966"><ele>1282.466666666667</ele><time>2024-06-08T00:28:48Z</time></trkpt><trkpt lat="33.8401546" lon="133.2678293"><ele>1283.5166666666667</ele><time>2024-06-08T00:29:14Z</time></trkpt><trkpt lat="33.8400784" lon="133.268069"><ele>1283.43</ele><time>2024-06-08T00:29:46Z</time></trkpt><trkpt lat="33.8400753" lon="133.268314"><ele>1285.2866666666666</ele><time>2024-06-08T00:30:04Z</time></trkpt><trkpt lat="33.8401247" lon="133.2685445"><ele>1289.4766666666667</ele><time>2024-06-08T00:31:23Z</time></trkpt><trkpt lat="33.8402992" lon="133.2686226"><ele>1295.5266666666666</ele><time>2024-06-08T00:32:07Z</time></trkpt><trkpt lat="33.8404153" lon="133.2688194"><ele>1303.2933333333333</ele><time>2024-06-08T00:33:14Z</time></trkpt><trkpt lat="33.8405457" lon="133.2689851"><ele>1310.7</ele><time>2024-06-08T00:33:35Z</time></trkpt><trkpt lat="33.8405899" lon="133.2692138"><ele>1318.98</ele><time>2024-06-08T00:34:02Z</time></trkpt><trkpt lat="33.8407522" lon="133.2693165"><ele>1324.6733333333334</ele><time>2024-06-08T00:34:44Z</time></trkpt><trkpt lat="33.840932" lon="133.2692997"><ele>1328.8566666666668</ele><time>2024-06-08T00:35:05Z</time></trkpt><trkpt lat="33.8410887" lon="133.2694355"><ele>1333.18</ele><time>2024-06-08T00:35:38Z</time></trkpt><trkpt lat="33.8412895" lon="133.2694282"><ele>1335.8633333333335</ele><time>2024-06-08T00:37:40Z</time></trkpt><trkpt lat="33.8414622" lon="133.2693508"><ele>1337.74</ele><time>2024-06-08T00:38:00Z</time></trkpt><trkpt lat="33.8416435" lon="133.2694262"><ele>1339.5233333333333</ele><time>2024-06-08T00:38:35Z</time></trkpt><trkpt lat="33.8418224" lon="133.2694724"><ele>1341.8500000000001</ele><time>2024-06-08T00:38:56Z</time></trkpt><trkpt lat="33.8417618" lon="133.2696778"><ele>1345.8766666666668</ele><time>2024-06-08T00:39:33Z</time></trkpt><trkpt lat="33.8417563" lon="133.269901"><ele>1350.2966666666669</ele><time>2024-06-08T00:40:14Z</time></trkpt><trkpt lat="33.8419499" lon="133.2699177"><ele>1356.3666666666668</ele><time>2024-06-08T00:40:44Z</time></trkpt><trkpt lat="33.8419213" lon="133.2701423"><ele>1363.0600000000002</ele><time>2024-06-08T00:41:46Z</time></trkpt><trkpt lat="33.8418203" lon="133.2703258"><ele>1368.5833333333333</ele><time>2024-06-08T00:42:12Z</time></trkpt><trkpt lat="33.8417084" lon="133.2705127"><ele>1372.88</ele><time>2024-06-08T00:42:56Z</time></trkpt><trkpt lat="33.8418804" lon="133.2706096"><ele>1376.4233333333334</ele><time>2024-06-08T00:43:31Z</time></trkpt><trkpt lat="33.8420606" lon="133.2705171"><ele>1380.58</ele><time>2024-06-08T00:44:07Z</time></trkpt><trkpt lat="33.8420018" lon="133.2707245"><ele>1384.2966666666669</ele><time>2024-06-08T00:44:55Z</time></trkpt><trkpt lat="33.8418952" lon="133.2709107"><ele>1386.7600000000002</ele><time>2024-06-08T00:45:21Z</time></trkpt><trkpt lat="33.8420108" lon="133.2710773"><ele>1391.7700000000002</ele><time>2024-06-08T00:46:23Z</time></trkpt><trkpt lat="33.842191" lon="133.2710335"><ele>1398.7766666666666</ele><time>2024-06-08T00:46:49Z</time></trkpt><trkpt lat="33.8423761" lon="133.2709775"><ele>1405.9766666666667</ele><time>2024-06-08T00:47:20Z</time></trkpt><trkpt lat="33.8425525" lon="133.2708923"><ele>1410.6633333333332</ele><time>2024-06-08T00:48:37Z</time></trkpt><trkpt lat="33.8424357" lon="133.2710854"><ele>1412.99</ele><time>2024-06-08T00:50:00Z</time></trkpt><trkpt lat="33.842315" lon="133.2712666"><ele>1415.3666666666668</ele><time>2024-06-08T00:50:26Z</time></trkpt><trkpt lat="33.8421556" lon="133.2714212"><ele>1417.5766666666666</ele><time>2024-06-08T00:50:49Z</time></trkpt><trkpt lat="33.8420286" lon="133.2716037"><ele>1419.1333333333332</ele><time>2024-06-08T00:51:10Z</time></trkpt><trkpt lat="33.8419323" lon="133.2717864"><ele>1420.49</ele><time>2024-06-08T00:51:33Z</time></trkpt><trkpt lat="33.8418515" lon="133.2720028"><ele>1422.1466666666665</ele><time>2024-06-08T00:51:57Z</time></trkpt><trkpt lat="33.8417062" lon="133.2721674"><ele>1423.8466666666666</ele><time>2024-06-08T00:52:23Z</time></trkpt><trkpt lat="33.8416656" lon="133.2724018"><ele>1426.2133333333334</ele><time>2024-06-08T00:52:56Z</time></trkpt><trkpt lat="33.8416094" lon="133.272608"><ele>1427.46</ele><time>2024-06-08T00:53:16Z</time></trkpt><trkpt lat="33.8415807" lon="133.2728362"><ele>1430.2233333333334</ele><time>2024-06-08T00:53:46Z</time></trkpt><trkpt lat="33.8415538" lon="133.2730528"><ele>1432.8866666666665</ele><time>2024-06-08T00:54:07Z</time></trkpt><trkpt lat="33.8415341" lon="133.2732913"><ele>1435.61</ele><time>2024-06-08T00:54:29Z</time></trkpt><trkpt lat="33.8415221" lon="133.2735081"><ele>1437.5233333333333</ele><time>2024-06-08T00:54:49Z</time></trkpt><trkpt lat="33.8414785" lon="133.2737425"><ele>1439.4733333333334</ele><time>2024-06-08T00:55:13Z</time></trkpt><trkpt lat="33.8414367" lon="133.2739611"><ele>1441.8933333333334</ele><time>2024-06-08T00:55:31Z</time></trkpt><trkpt lat="33.8413271" lon="133.2741563"><ele>1444.0833333333333</ele><time>2024-06-08T00:55:49Z</time></trkpt><trkpt lat="33.8415095" lon="133.2742516"><ele>1445.2066666666667</ele><time>2024-06-08T00:56:48Z</time></trkpt><trkpt lat="33.8416496" lon="133.274109"><ele>1446.9466666666667</ele><time>2024-06-08T00:57:44Z</time></trkpt><trkpt lat="33.8417789" lon="133.2739509"><ele>1448.71</ele><time>2024-06-08T00:58:34Z</time></trkpt><trkpt lat="33.8419257" lon="133.2737848"><ele>1451.0633333333335</ele><time>2024-06-08T00:59:00Z</time></trkpt><trkpt lat="33.8420204" lon="133.2735898"><ele>1453.74</ele><time>2024-06-08T00:59:26Z</time></trkpt><trkpt lat="33.8421902" lon="133.2734994"><ele>1456.9466666666667</ele><time>2024-06-08T01:03:10Z</time></trkpt><trkpt lat="33.8423858" lon="133.2734342"><ele>1459.7333333333333</ele><time>2024-06-08T01:03:38Z</time></trkpt><trkpt lat="33.8425767" lon="133.2734105"><ele>1461.3566666666666</ele><time>2024-06-08T01:03:59Z</time></trkpt><trkpt lat="33.8427602" lon="133.27341"><ele>1462.3166666666666</ele><time>2024-06-08T01:04:22Z</time></trkpt><trkpt lat="33.8429361" lon="133.2733346"><ele>1464.57</ele><time>2024-06-08T01:04:46Z</time></trkpt><trkpt lat="33.8431239" lon="133.273234"><ele>1467.6133333333335</ele><time>2024-06-08T01:05:19Z</time></trkpt><trkpt lat="33.8433168" lon="133.2731841"><ele>1470.26</ele><time>2024-06-08T01:05:48Z</time></trkpt><trkpt lat="33.843486" lon="133.2730841"><ele>1472.3000000000002</ele><time>2024-06-08T01:06:11Z</time></trkpt><trkpt lat="33.8436034" lon="133.2728915"><ele>1474.6066666666666</ele><time>2024-06-08T01:06:35Z</time></trkpt><trkpt lat="33.8437713" lon="133.2727933"><ele>1478.5033333333333</ele><time>2024-06-08T01:07:02Z</time></trkpt><trkpt lat="33.8439543" lon="133.2728583"><ele>1481.5166666666667</ele><time>2024-06-08T01:07:37Z</time></trkpt><trkpt lat="33.8441396" lon="133.2728217"><ele>1485.6333333333332</ele><time>2024-06-08T01:08:02Z</time></trkpt><trkpt lat="33.8442982" lon="133.2727013"><ele>1489.07</ele><time>2024-06-08T01:08:40Z</time></trkpt><trkpt lat="33.8444629" lon="133.2725621"><ele>1494.4366666666665</ele><time>2024-06-08T01:09:31Z</time></trkpt><trkpt lat="33.8446381" lon="133.2724989"><ele>1498.9866666666667</ele><time>2024-06-08T01:10:01Z</time></trkpt><trkpt lat="33.8448247" lon="133.2724814"><ele>1504.2533333333333</ele><time>2024-06-08T01:10:31Z</time></trkpt><trkpt lat="33.8450071" lon="133.272512"><ele>1508.5166666666667</ele><time>2024-06-08T01:10:52Z</time></trkpt><trkpt lat="33.8451952" lon="133.2725615"><ele>1512.5900000000001</ele><time>2024-06-08T01:11:21Z</time></trkpt><trkpt lat="33.8453958" lon="133.2725735"><ele>1516.0966666666666</ele><time>2024-06-08T01:11:48Z</time></trkpt><trkpt lat="33.8455911" lon="133.2725922"><ele>1519.6566666666668</ele><time>2024-06-08T01:12:09Z</time></trkpt><trkpt lat="33.8457744" lon="133.2726314"><ele>1521.5600000000002</ele><time>2024-06-08T01:12:33Z</time></trkpt><trkpt lat="33.845953" lon="133.2725293"><ele>1522.3366666666668</ele><time>2024-06-08T01:13:08Z</time></trkpt><trkpt lat="33.846113" lon="133.2723743"><ele>1522.706666666667</ele><time>2024-06-08T01:13:40Z</time></trkpt><trkpt lat="33.8462862" lon="133.2722559"><ele>1524.3700000000001</ele><time>2024-06-08T01:14:01Z</time></trkpt><trkpt lat="33.8464081" lon="133.2720818"><ele>1528.3</ele><time>2024-06-08T01:14:27Z</time></trkpt><trkpt lat="33.8465911" lon="133.2720407"><ele>1533.0666666666666</ele><time>2024-06-08T01:15:26Z</time></trkpt><trkpt lat="33.846775" lon="133.2720589"><ele>1539.0533333333333</ele><time>2024-06-08T01:16:41Z</time></trkpt><trkpt lat="33.8469524" lon="133.2721065"><ele>1544.5733333333335</ele><time>2024-06-08T01:18:28Z</time></trkpt><trkpt lat="33.8471222" lon="133.2720232"><ele>1551.4333333333334</ele><time>2024-06-08T01:19:07Z</time></trkpt><trkpt lat="33.8473005" lon="133.2719872"><ele>1558.4766666666667</ele><time>2024-06-08T01:20:01Z</time></trkpt><trkpt lat="33.8474819" lon="133.2720514"><ele>1567.1966666666667</ele><time>2024-06-08T01:20:52Z</time></trkpt><trkpt lat="33.8476517" lon="133.2719703"><ele>1575.506666666667</ele><time>2024-06-08T01:22:01Z</time></trkpt><trkpt lat="33.8478115" lon="133.2718431"><ele>1583.3966666666668</ele><time>2024-06-08T01:22:58Z</time></trkpt><trkpt lat="33.8479931" lon="133.2718355"><ele>1591.2633333333335</ele><time>2024-06-08T01:24:50Z</time></trkpt><trkpt lat="33.8481397" lon="133.2719661"><ele>1599.28</ele><time>2024-06-08T01:25:41Z</time></trkpt><trkpt lat="33.8483289" lon="133.2719911"><ele>1610.4666666666665</ele><time>2024-06-08T01:26:55Z</time></trkpt><trkpt lat="33.8484091" lon="133.2721966"><ele>1619.9166666666667</ele><time>2024-06-08T01:27:46Z</time></trkpt><trkpt lat="33.8485794" lon="133.2720918"><ele>1630.46</ele><time>2024-06-08T01:28:57Z</time></trkpt><trkpt lat="33.8486024" lon="133.2718748"><ele>1635.53</ele><time>2024-06-08T01:30:10Z</time></trkpt><trkpt lat="33.8486418" lon="133.2716497"><ele>1640.4933333333336</ele><time>2024-06-08T01:30:36Z</time></trkpt><trkpt lat="33.8487265" lon="133.2714444"><ele>1645.0900000000001</ele><time>2024-06-08T01:31:25Z</time></trkpt><trkpt lat="33.8488613" lon="133.2712978"><ele>1653.426666666667</ele><time>2024-06-08T01:32:52Z</time></trkpt><trkpt lat="33.8488804" lon="133.2710677"><ele>1663.1133333333335</ele><time>2024-06-08T01:34:18Z</time></trkpt><trkpt lat="33.8489615" lon="133.2708554"><ele>1672.14</ele><time>2024-06-08T01:35:45Z</time></trkpt><trkpt lat="33.8490148" lon="133.2706259"><ele>1679.3233333333335</ele><time>2024-06-08T01:36:49Z</time></trkpt><trkpt lat="33.8491291" lon="133.2704507"><ele>1685.243333333333</ele><time>2024-06-08T01:38:00Z</time></trkpt><trkpt lat="33.8491621" lon="133.2702304"><ele>1688.74</ele><time>2024-06-08T01:38:48Z</time></trkpt><trkpt lat="33.8493229" lon="133.2701244"><ele>1690.4033333333334</ele><time>2024-06-08T01:47:02Z</time></trkpt><trkpt lat="33.8494779" lon="133.2700029"><ele>1688.7133333333334</ele><time>2024-06-08T01:48:15Z</time></trkpt><trkpt lat="33.8496052" lon="133.2698442"><ele>1680.91</ele><time>2024-06-08T01:51:26Z</time></trkpt><trkpt lat="33.8496461" lon="133.2696239"><ele>1669.82</ele><time>2024-06-08T01:52:14Z</time></trkpt><trkpt lat="33.849687" lon="133.2694025"><ele>1656.1366666666665</ele><time>2024-06-08T01:53:52Z</time></trkpt><trkpt lat="33.8498637" lon="133.2693005"><ele>1643.6000000000001</ele><time>2024-06-08T01:54:58Z</time></trkpt><trkpt lat="33.8500542" lon="133.2692679"><ele>1630.5133333333333</ele><time>2024-06-08T01:55:45Z</time></trkpt><trkpt lat="33.8502232" lon="133.2691837"><ele>1620.22</ele><time>2024-06-08T01:56:17Z</time></trkpt><trkpt lat="33.850403" lon="133.2691242"><ele>1614.4866666666667</ele><time>2024-06-08T01:56:40Z</time></trkpt><trkpt lat="33.8505594" lon="133.2690052"><ele>1612.4966666666667</ele><time>2024-06-08T01:57:07Z</time></trkpt><trkpt lat="33.8507354" lon="133.2689492"><ele>1612.47</ele><time>2024-06-08T01:57:40Z</time></trkpt><trkpt lat="33.8509051" lon="133.2688624"><ele>1615.4166666666667</ele><time>2024-06-08T01:58:09Z</time></trkpt><trkpt lat="33.8510829" lon="133.2688237"><ele>1619.8433333333332</ele><time>2024-06-08T02:00:01Z</time></trkpt><trkpt lat="33.8512662" lon="133.2688451"><ele>1625.533333333333</ele><time>2024-06-08T02:01:21Z</time></trkpt><trkpt lat="33.8514524" lon="133.2688884"><ele>1628.8500000000001</ele><time>2024-06-08T02:02:14Z</time></trkpt><trkpt lat="33.8516419" lon="133.2689013"><ele>1631.0466666666664</ele><time>2024-06-08T02:06:03Z</time></trkpt><trkpt lat="33.8518238" lon="133.2688766"><ele>1633.0033333333333</ele><time>2024-06-08T02:06:51Z</time></trkpt><trkpt lat="33.8520048" lon="133.2688779"><ele>1635.6766666666665</ele><time>2024-06-08T02:07:21Z</time></trkpt><trkpt lat="33.8521868" lon="133.2688483"><ele>1640.8133333333333</ele><time>2024-06-08T02:08:00Z</time></trkpt><trkpt lat="33.8523603" lon="133.2689311"><ele>1645.5133333333333</ele><time>2024-06-08T02:08:53Z</time></trkpt><trkpt lat="33.8525522" lon="133.2689675"><ele>1649.4633333333331</ele><time>2024-06-08T02:10:05Z</time></trkpt><trkpt lat="33.8527438" lon="133.2689955"><ele>1650.9966666666667</ele><time>2024-06-08T02:10:37Z</time></trkpt><trkpt lat="33.8529155" lon="133.2690631"><ele>1651.7033333333331</ele><time>2024-06-08T02:10:59Z</time></trkpt><trkpt lat="33.8530996" lon="133.2691458"><ele>1653.1366666666665</ele><time>2024-06-08T02:11:23Z</time></trkpt><trkpt lat="33.8532637" lon="133.2692518"><ele>1654.7966666666669</ele><time>2024-06-08T02:11:52Z</time></trkpt><trkpt lat="33.853434" lon="133.2693278"><ele>1657.3</ele><time>2024-06-08T02:12:13Z</time></trkpt><trkpt lat="33.8536131" lon="133.269412"><ele>1660.4866666666667</ele><time>2024-06-08T02:13:08Z</time></trkpt><trkpt lat="33.8537953" lon="133.269464"><ele>1664.8566666666668</ele><time>2024-06-08T02:13:39Z</time></trkpt><trkpt lat="33.8539496" lon="133.2693445"><ele>1666.5566666666666</ele><time>2024-06-08T02:14:24Z</time></trkpt><trkpt lat="33.8541136" lon="133.269254"><ele>1663.2666666666667</ele><time>2024-06-08T02:15:36Z</time></trkpt><trkpt lat="33.8542728" lon="133.2691423"><ele>1657.75</ele><time>2024-06-08T02:18:03Z</time></trkpt><trkpt lat="33.8544258" lon="133.2690086"><ele>1653.346666666667</ele><time>2024-06-08T02:19:01Z</time></trkpt><trkpt lat="33.8546082" lon="133.2689304"><ele>1652.61</ele><time>2024-06-08T02:20:15Z</time></trkpt><trkpt lat="33.854767" lon="133.2688186"><ele>1653.0966666666666</ele><time>2024-06-08T02:20:54Z</time></trkpt><trkpt lat="33.8549284" lon="133.2687068"><ele>1655.49</ele><time>2024-06-08T02:21:36Z</time></trkpt><trkpt lat="33.8551068" lon="133.2686151"><ele>1659.7533333333333</ele><time>2024-06-08T02:22:09Z</time></trkpt><trkpt lat="33.8552913" lon="133.2685346"><ele>1664.4733333333334</ele><time>2024-06-08T02:22:49Z</time></trkpt><trkpt lat="33.8551537" lon="133.2686747"><ele>1666.7</ele><time>2024-06-08T02:44:18Z</time></trkpt><trkpt lat="33.8549602" lon="133.2686516"><ele>1665.53</ele><time>2024-06-08T02:46:05Z</time></trkpt><trkpt lat="33.8548055" lon="133.2687898"><ele>1660.5533333333333</ele><time>2024-06-08T02:46:44Z</time></trkpt><trkpt lat="33.8546395" lon="133.2688774"><ele>1655.6133333333335</ele><time>2024-06-08T02:47:17Z</time></trkpt><trkpt lat="33.8544602" lon="133.2689744"><ele>1652.5233333333333</ele><time>2024-06-08T02:47:46Z</time></trkpt><trkpt lat="33.8543023" lon="133.2690892"><ele>1651.8633333333335</ele><time>2024-06-08T02:48:34Z</time></trkpt><trkpt lat="33.8541472" lon="133.2692239"><ele>1652.8499999999997</ele><time>2024-06-08T02:50:31Z</time></trkpt><trkpt lat="33.853983" lon="133.2693258"><ele>1655.84</ele><time>2024-06-08T02:51:13Z</time></trkpt><trkpt lat="33.8538194" lon="133.2694402"><ele>1661.6433333333334</ele><time>2024-06-08T02:51:49Z</time></trkpt><trkpt lat="33.8536317" lon="133.269402"><ele>1665.2933333333333</ele><time>2024-06-08T02:52:56Z</time></trkpt><trkpt lat="33.8534374" lon="133.2693414"><ele>1664.7133333333334</ele><time>2024-06-08T02:53:40Z</time></trkpt><trkpt lat="33.8532643" lon="133.2692495"><ele>1660.4866666666667</ele><time>2024-06-08T02:54:02Z</time></trkpt><trkpt lat="33.8531086" lon="133.2691382"><ele>1656.6233333333332</ele><time>2024-06-08T02:54:23Z</time></trkpt><trkpt lat="33.8529346" lon="133.2690348"><ele>1653.82</ele><time>2024-06-08T02:54:46Z</time></trkpt><trkpt lat="33.8527557" lon="133.2690074"><ele>1652.16</ele><time>2024-06-08T02:55:12Z</time></trkpt><trkpt lat="33.8525756" lon="133.26896"><ele>1651.5</ele><time>2024-06-08T02:55:41Z</time></trkpt><trkpt lat="33.8523958" lon="133.2689248"><ele>1651.1966666666667</ele><time>2024-06-08T02:56:14Z</time></trkpt><trkpt lat="33.8522069" lon="133.268871"><ele>1649.6633333333332</ele><time>2024-06-08T02:57:01Z</time></trkpt><trkpt lat="33.8520226" lon="133.2688846"><ele>1644.7</ele><time>2024-06-08T02:57:31Z</time></trkpt><trkpt lat="33.8518385" lon="133.2688668"><ele>1639.8966666666668</ele><time>2024-06-08T02:58:02Z</time></trkpt><trkpt lat="33.8516549" lon="133.2688914"><ele>1634.76</ele><time>2024-06-08T02:58:28Z</time></trkpt><trkpt lat="33.8514783" lon="133.2688196"><ele>1633.63</ele><time>2024-06-08T03:01:29Z</time></trkpt><trkpt lat="33.8512958" lon="133.2688358"><ele>1631.6733333333332</ele><time>2024-06-08T03:03:53Z</time></trkpt><trkpt lat="33.8511121" lon="133.268811"><ele>1630.1166666666668</ele><time>2024-06-08T03:04:37Z</time></trkpt><trkpt lat="33.8509258" lon="133.268818"><ele>1626.1733333333334</ele><time>2024-06-08T03:05:37Z</time></trkpt><trkpt lat="33.850752" lon="133.2689066"><ele>1621.1633333333332</ele><time>2024-06-08T03:06:09Z</time></trkpt><trkpt lat="33.8505626" lon="133.2689953"><ele>1616.0966666666666</ele><time>2024-06-08T03:06:38Z</time></trkpt><trkpt lat="33.8503929" lon="133.2691218"><ele>1613.1499999999999</ele><time>2024-06-08T03:07:04Z</time></trkpt><trkpt lat="33.8501979" lon="133.2691771"><ele>1612.4966666666667</ele><time>2024-06-08T03:07:31Z</time></trkpt><trkpt lat="33.8500233" lon="133.2692544"><ele>1615.793333333333</ele><time>2024-06-08T03:08:08Z</time></trkpt><trkpt lat="33.8498436" lon="133.2692936"><ele>1621.5266666666666</ele><time>2024-06-08T03:08:52Z</time></trkpt><trkpt lat="33.8496723" lon="133.2693758"><ele>1631.4966666666667</ele><time>2024-06-08T03:10:52Z</time></trkpt><trkpt lat="33.8496304" lon="133.2695909"><ele>1643.2766666666666</ele><time>2024-06-08T03:12:58Z</time></trkpt><trkpt lat="33.849609" lon="133.2698102"><ele>1655.1166666666668</ele><time>2024-06-08T03:13:55Z</time></trkpt><trkpt lat="33.849484" lon="133.2699665"><ele>1668.5466666666669</ele><time>2024-06-08T03:15:50Z</time></trkpt><trkpt lat="33.8493393" lon="133.2701132"><ele>1679.6366666666665</ele><time>2024-06-08T03:18:32Z</time></trkpt><trkpt lat="33.8491693" lon="133.2702271"><ele>1688.1366666666665</ele><time>2024-06-08T03:20:13Z</time></trkpt><trkpt lat="33.8491016" lon="133.2704332"><ele>1690.2600000000002</ele><time>2024-06-08T03:22:10Z</time></trkpt><trkpt lat="33.8489886" lon="133.270603"><ele>1688.5966666666666</ele><time>2024-06-08T03:22:48Z</time></trkpt><trkpt lat="33.8489609" lon="133.270819"><ele>1685.2966666666664</ele><time>2024-06-08T03:23:33Z</time></trkpt><trkpt lat="33.8488789" lon="133.2710263"><ele>1679.8933333333334</ele><time>2024-06-08T03:24:58Z</time></trkpt><trkpt lat="33.8488529" lon="133.2712507"><ele>1674.1899999999998</ele><time>2024-06-08T03:25:21Z</time></trkpt><trkpt lat="33.8487353" lon="133.2714277"><ele>1664.966666666667</ele><time>2024-06-08T03:26:02Z</time></trkpt><trkpt lat="33.8486181" lon="133.2716195"><ele>1655.3866666666665</ele><time>2024-06-08T03:27:05Z</time></trkpt><trkpt lat="33.8485938" lon="133.2718496"><ele>1645.57</ele><time>2024-06-08T03:27:39Z</time></trkpt><trkpt lat="33.8485528" lon="133.2720716"><ele>1640.9733333333334</ele><time>2024-06-08T03:28:02Z</time></trkpt><trkpt lat="33.8483604" lon="133.2719959"><ele>1633.8766666666668</ele><time>2024-06-08T03:29:01Z</time></trkpt><trkpt lat="33.8481742" lon="133.2719729"><ele>1623.3833333333334</ele><time>2024-06-08T03:29:33Z</time></trkpt><trkpt lat="33.8480564" lon="133.2717972"><ele>1611.7700000000002</ele><time>2024-06-08T03:29:57Z</time></trkpt><trkpt lat="33.8478813" lon="133.271861"><ele>1601.676666666667</ele><time>2024-06-08T03:30:28Z</time></trkpt><trkpt lat="33.8476812" lon="133.2719207"><ele>1594.6800000000003</ele><time>2024-06-08T03:31:45Z</time></trkpt><trkpt lat="33.8475299" lon="133.2720534"><ele>1585.4833333333336</ele><time>2024-06-08T03:32:12Z</time></trkpt><trkpt lat="33.8473462" lon="133.2719873"><ele>1577.7933333333333</ele><time>2024-06-08T03:32:48Z</time></trkpt><trkpt lat="33.8471705" lon="133.2720675"><ele>1568.4099999999999</ele><time>2024-06-08T03:33:18Z</time></trkpt><trkpt lat="33.8469891" lon="133.2720449"><ele>1560.5966666666666</ele><time>2024-06-08T03:33:54Z</time></trkpt><trkpt lat="33.8467974" lon="133.2719897"><ele>1552.24</ele><time>2024-06-08T03:34:57Z</time></trkpt><trkpt lat="33.8466051" lon="133.2720203"><ele>1545.46</ele><time>2024-06-08T03:35:31Z</time></trkpt><trkpt lat="33.8464209" lon="133.2720774"><ele>1539.0333333333335</ele><time>2024-06-08T03:36:03Z</time></trkpt><trkpt lat="33.8462806" lon="133.2722491"><ele>1533.0666666666666</ele><time>2024-06-08T03:37:14Z</time></trkpt><trkpt lat="33.8460834" lon="133.2723625"><ele>1528.5366666666666</ele><time>2024-06-08T03:39:37Z</time></trkpt><trkpt lat="33.8459218" lon="133.2725244"><ele>1524.6066666666666</ele><time>2024-06-08T03:39:55Z</time></trkpt><trkpt lat="33.8457565" lon="133.272616"><ele>1522.9433333333334</ele><time>2024-06-08T03:40:16Z</time></trkpt><trkpt lat="33.8455844" lon="133.2725356"><ele>1522.3333333333333</ele><time>2024-06-08T03:40:49Z</time></trkpt><trkpt lat="33.8453974" lon="133.2725697"><ele>1521.66</ele><time>2024-06-08T03:41:10Z</time></trkpt><trkpt lat="33.8452181" lon="133.2724921"><ele>1519.756666666667</ele><time>2024-06-08T03:41:28Z</time></trkpt><trkpt lat="33.8450282" lon="133.2724508"><ele>1516.6166666666668</ele><time>2024-06-08T03:41:43Z</time></trkpt><trkpt lat="33.8448274" lon="133.2724586"><ele>1513.006666666667</ele><time>2024-06-08T03:42:00Z</time></trkpt><trkpt lat="33.8446278" lon="133.272421"><ele>1509.29</ele><time>2024-06-08T03:42:18Z</time></trkpt><trkpt lat="33.8444332" lon="133.2724798"><ele>1504.8366666666668</ele><time>2024-06-08T03:42:39Z</time></trkpt><trkpt lat="33.8442858" lon="133.2726206"><ele>1500.2033333333331</ele><time>2024-06-08T03:42:54Z</time></trkpt><trkpt lat="33.8441337" lon="133.2727918"><ele>1495.2966666666664</ele><time>2024-06-08T03:43:12Z</time></trkpt><trkpt lat="33.8439492" lon="133.272833"><ele>1489.7033333333336</ele><time>2024-06-08T03:43:32Z</time></trkpt><trkpt lat="33.8437882" lon="133.2727199"><ele>1486.0</ele><time>2024-06-08T03:43:54Z</time></trkpt><trkpt lat="33.8436093" lon="133.2728162"><ele>1482.22</ele><time>2024-06-08T03:44:11Z</time></trkpt><trkpt lat="33.8435176" lon="133.2730185"><ele>1479.2066666666667</ele><time>2024-06-08T03:44:29Z</time></trkpt><trkpt lat="33.8433727" lon="133.2731544"><ele>1475.36</ele><time>2024-06-08T03:44:47Z</time></trkpt><trkpt lat="33.8431692" lon="133.2731558"><ele>1473.0766666666666</ele><time>2024-06-08T03:45:14Z</time></trkpt><trkpt lat="33.8429995" lon="133.2732511"><ele>1471.9766666666667</ele><time>2024-06-08T03:45:38Z</time></trkpt><trkpt lat="33.8428034" lon="133.2733313"><ele>1469.5266666666666</ele><time>2024-06-08T03:46:01Z</time></trkpt><trkpt lat="33.8426198" lon="133.2733628"><ele>1466.1533333333334</ele><time>2024-06-08T03:46:22Z</time></trkpt><trkpt lat="33.8424185" lon="133.273385"><ele>1463.39</ele><time>2024-06-08T03:46:40Z</time></trkpt><trkpt lat="33.8422471" lon="133.2734528"><ele>1461.8166666666668</ele><time>2024-06-08T03:47:06Z</time></trkpt><trkpt lat="33.8420812" lon="133.2735575"><ele>1460.4233333333332</ele><time>2024-06-08T03:47:20Z</time></trkpt><trkpt lat="33.8419555" lon="133.2737277"><ele>1457.86</ele><time>2024-06-08T03:47:41Z</time></trkpt><trkpt lat="33.8418046" lon="133.2738603"><ele>1455.0633333333335</ele><time>2024-06-08T03:47:56Z</time></trkpt><trkpt lat="33.8417019" lon="133.2740511"><ele>1452.2699999999998</ele><time>2024-06-08T03:48:16Z</time></trkpt><trkpt lat="33.8415285" lon="133.2741476"><ele>1450.0366666666666</ele><time>2024-06-08T03:48:31Z</time></trkpt><trkpt lat="33.8415222" lon="133.2739096"><ele>1447.486666666667</ele><time>2024-06-08T03:49:12Z</time></trkpt><trkpt lat="33.8415978" lon="133.2736822"><ele>1445.486666666667</ele><time>2024-06-08T03:49:42Z</time></trkpt><trkpt lat="33.8416665" lon="133.2734635"><ele>1444.6633333333332</ele><time>2024-06-08T03:49:57Z</time></trkpt><trkpt lat="33.8417082" lon="133.2732414"><ele>1444.86</ele><time>2024-06-08T03:50:11Z</time></trkpt><trkpt lat="33.8417294" lon="133.2730048"><ele>1444.2866666666669</ele><time>2024-06-08T03:50:29Z</time></trkpt><trkpt lat="33.8417246" lon="133.2727843"><ele>1441.63</ele><time>2024-06-08T03:50:43Z</time></trkpt><trkpt lat="33.841784" lon="133.2725578"><ele>1438.17</ele><time>2024-06-08T03:50:59Z</time></trkpt><trkpt lat="33.8418046" lon="133.2723356"><ele>1434.58</ele><time>2024-06-08T03:51:13Z</time></trkpt><trkpt lat="33.8419034" lon="133.2721371"><ele>1431.216666666667</ele><time>2024-06-08T03:51:34Z</time></trkpt><trkpt lat="33.8420777" lon="133.2719838"><ele>1429.7666666666667</ele><time>2024-06-08T03:51:54Z</time></trkpt><trkpt lat="33.8421347" lon="133.2717382"><ele>1428.2933333333333</ele><time>2024-06-08T03:52:12Z</time></trkpt><trkpt lat="33.8422225" lon="133.2715305"><ele>1427.0233333333333</ele><time>2024-06-08T03:52:30Z</time></trkpt><trkpt lat="33.8423726" lon="133.2713502"><ele>1424.21</ele><time>2024-06-08T03:53:27Z</time></trkpt><trkpt lat="33.8425194" lon="133.2712166"><ele>1423.0933333333332</ele><time>2024-06-08T03:53:41Z</time></trkpt><trkpt lat="33.8425928" lon="133.2710106"><ele>1420.7700000000002</ele><time>2024-06-08T03:53:56Z</time></trkpt><trkpt lat="33.8423924" lon="133.270983"><ele>1416.7733333333333</ele><time>2024-06-08T03:54:26Z</time></trkpt><trkpt lat="33.8421762" lon="133.2710017"><ele>1409.3233333333335</ele><time>2024-06-08T03:54:45Z</time></trkpt><trkpt lat="33.8419641" lon="133.2710154"><ele>1401.6899999999998</ele><time>2024-06-08T03:55:02Z</time></trkpt><trkpt lat="33.8419274" lon="133.270787"><ele>1394.3133333333333</ele><time>2024-06-08T03:55:29Z</time></trkpt><trkpt lat="33.8421073" lon="133.2706461"><ele>1389.5200000000002</ele><time>2024-06-08T03:55:43Z</time></trkpt><trkpt lat="33.8419665" lon="133.2704959"><ele>1384.4766666666667</ele><time>2024-06-08T03:56:14Z</time></trkpt><trkpt lat="33.8418004" lon="133.2706091"><ele>1381.6633333333332</ele><time>2024-06-08T03:56:26Z</time></trkpt><trkpt lat="33.841895" lon="133.2703846"><ele>1377.7833333333335</ele><time>2024-06-08T03:56:55Z</time></trkpt><trkpt lat="33.8420133" lon="133.2701711"><ele>1376.3433333333332</ele><time>2024-06-08T03:57:10Z</time></trkpt><trkpt lat="33.8421395" lon="133.2699927"><ele>1373.5433333333333</ele><time>2024-06-08T03:57:25Z</time></trkpt><trkpt lat="33.8419718" lon="133.2698936"><ele>1368.58</ele><time>2024-06-08T03:57:49Z</time></trkpt><trkpt lat="33.8417879" lon="133.2698785"><ele>1362.6333333333334</ele><time>2024-06-08T03:58:04Z</time></trkpt><trkpt lat="33.8418944" lon="133.2696497"><ele>1356.0133333333333</ele><time>2024-06-08T03:58:31Z</time></trkpt><trkpt lat="33.8418068" lon="133.2694145"><ele>1350.9399999999998</ele><time>2024-06-08T03:59:01Z</time></trkpt><trkpt lat="33.8416616" lon="133.2692387"><ele>1345.2066666666667</ele><time>2024-06-08T03:59:16Z</time></trkpt><trkpt lat="33.8414802" lon="133.269386"><ele>1341.0433333333333</ele><time>2024-06-08T03:59:37Z</time></trkpt><trkpt lat="33.8412976" lon="133.2694084"><ele>1338.716666666667</ele><time>2024-06-08T03:59:51Z</time></trkpt><trkpt lat="33.8411172" lon="133.2693442"><ele>1337.4366666666667</ele><time>2024-06-08T04:00:09Z</time></trkpt><trkpt lat="33.8409588" lon="133.2692298"><ele>1335.4066666666668</ele><time>2024-06-08T04:00:27Z</time></trkpt><trkpt lat="33.8407629" lon="133.2692864"><ele>1332.1533333333334</ele><time>2024-06-08T04:00:45Z</time></trkpt><trkpt lat="33.8406026" lon="133.2691554"><ele>1328.2866666666666</ele><time>2024-06-08T04:01:13Z</time></trkpt><trkpt lat="33.8405257" lon="133.2689218"><ele>1323.69</ele><time>2024-06-08T04:01:38Z</time></trkpt><trkpt lat="33.8404345" lon="133.268717"><ele>1317.89</ele><time>2024-06-08T04:02:01Z</time></trkpt><trkpt lat="33.8403123" lon="133.2685554"><ele>1309.61</ele><time>2024-06-08T04:02:56Z</time></trkpt><trkpt lat="33.8401328" lon="133.2685034"><ele>1301.62</ele><time>2024-06-08T04:03:37Z</time></trkpt><trkpt lat="33.8401425" lon="133.2682861"><ele>1295.0233333333333</ele><time>2024-06-08T04:04:10Z</time></trkpt><trkpt lat="33.8401979" lon="133.2680551"><ele>1293.2600000000002</ele><time>2024-06-08T04:04:54Z</time></trkpt><trkpt lat="33.840181" lon="133.2678322"><ele>1290.0666666666666</ele><time>2024-06-08T04:05:11Z</time></trkpt><trkpt lat="33.8401815" lon="133.2676083"><ele>1287.716666666667</ele><time>2024-06-08T04:05:32Z</time></trkpt><trkpt lat="33.8402429" lon="133.2673974"><ele>1285.3400000000001</ele><time>2024-06-08T04:05:54Z</time></trkpt><trkpt lat="33.8402759" lon="133.2671492"><ele>1284.7733333333333</ele><time>2024-06-08T04:06:14Z</time></trkpt><trkpt lat="33.8400859" lon="133.2672284"><ele>1280.8566666666668</ele><time>2024-06-08T04:06:47Z</time></trkpt><trkpt lat="33.8398957" lon="133.2672681"><ele>1271.0333333333335</ele><time>2024-06-08T04:08:52Z</time></trkpt><trkpt lat="33.8397228" lon="133.2673625"><ele>1259.1066666666668</ele><time>2024-06-08T04:09:24Z</time></trkpt><trkpt lat="33.8395618" lon="133.2672456"><ele>1247.5666666666668</ele><time>2024-06-08T04:10:20Z</time></trkpt><trkpt lat="33.8395133" lon="133.2670056"><ele>1238.7333333333333</ele><time>2024-06-08T04:10:52Z</time></trkpt><trkpt lat="33.8395403" lon="133.2667749"><ele>1231.1233333333332</ele><time>2024-06-08T04:11:13Z</time></trkpt><trkpt lat="33.839531" lon="133.2665318"><ele>1223.3500000000001</ele><time>2024-06-08T04:11:40Z</time></trkpt><trkpt lat="33.8393894" lon="133.2663951"><ele>1214.4800000000002</ele><time>2024-06-08T04:12:11Z</time></trkpt><trkpt lat="33.8393639" lon="133.2661484"><ele>1206.1833333333334</ele><time>2024-06-08T04:13:26Z</time></trkpt><trkpt lat="33.8394817" lon="133.2659601"><ele>1201.4133333333336</ele><time>2024-06-08T04:13:44Z</time></trkpt><trkpt lat="33.8396033" lon="133.2657856"><ele>1201.0733333333335</ele><time>2024-06-08T04:18:38Z</time></trkpt><trkpt lat="33.8395392" lon="133.2655743"><ele>1199.6000000000001</ele><time>2024-06-08T04:19:30Z</time></trkpt><trkpt lat="33.8395013" lon="133.265358"><ele>1197.5266666666666</ele><time>2024-06-08T04:19:50Z</time></trkpt><trkpt lat="33.8393661" lon="133.2651617"><ele>1190.0666666666666</ele><time>2024-06-08T04:20:16Z</time></trkpt><trkpt lat="33.8392691" lon="133.2649444"><ele>1182.6699999999998</ele><time>2024-06-08T04:20:34Z</time></trkpt><trkpt lat="33.8391572" lon="133.2647719"><ele>1172.6133333333335</ele><time>2024-06-08T04:20:51Z</time></trkpt><trkpt lat="33.8390061" lon="133.2646131"><ele>1163.45</ele><time>2024-06-08T04:21:31Z</time></trkpt><trkpt lat="33.8389782" lon="133.2643956"><ele>1155.4166666666667</ele><time>2024-06-08T04:21:49Z</time></trkpt><trkpt lat="33.838912" lon="133.2641897"><ele>1150.5066666666667</ele><time>2024-06-08T04:22:06Z</time></trkpt><trkpt lat="33.8389494" lon="133.2639713"><ele>1147.3766666666668</ele><time>2024-06-08T04:22:24Z</time></trkpt><trkpt lat="33.8389899" lon="133.2637477"><ele>1145.1033333333335</ele><time>2024-06-08T04:23:05Z</time></trkpt><trkpt lat="33.8390175" lon="133.2635185"><ele>1138.3933333333334</ele><time>2024-06-08T04:23:38Z</time></trkpt><trkpt lat="33.8391187" lon="133.2633287"><ele>1131.8633333333335</ele><time>2024-06-08T04:23:58Z</time></trkpt><trkpt lat="33.8391522" lon="133.2630946"><ele>1123.1366666666665</ele><time>2024-06-08T04:24:37Z</time></trkpt><trkpt lat="33.8391848" lon="133.2628625"><ele>1114.9666666666667</ele><time>2024-06-08T04:24:57Z</time></trkpt><trkpt lat="33.8392062" lon="133.2626453"><ele>1107.0233333333333</ele><time>2024-06-08T04:25:21Z</time></trkpt><trkpt lat="33.8392018" lon="133.2624077"><ele>1097.92</ele><time>2024-06-08T04:26:11Z</time></trkpt><trkpt lat="33.8392415" lon="133.2621432"><ele>1091.2</ele><time>2024-06-08T04:26:53Z</time></trkpt><trkpt lat="33.8392812" lon="133.2619306"><ele>1085.7533333333333</ele><time>2024-06-08T04:27:11Z</time></trkpt><trkpt lat="33.8393062" lon="133.2616875"><ele>1082.6833333333334</ele><time>2024-06-08T04:27:38Z</time></trkpt><trkpt lat="33.8392864" lon="133.2614715"><ele>1078.9666666666667</ele><time>2024-06-08T04:27:54Z</time></trkpt><trkpt lat="33.8393236" lon="133.2612492"><ele>1074.1766666666667</ele><time>2024-06-08T04:28:23Z</time></trkpt><trkpt lat="33.8392893" lon="133.2610214"><ele>1069.1633333333334</ele><time>2024-06-08T04:28:50Z</time></trkpt><trkpt lat="33.8394003" lon="133.2608269"><ele>1066.2866666666666</ele><time>2024-06-08T04:29:14Z</time></trkpt><trkpt lat="33.8394669" lon="133.2606074"><ele>1063.78</ele><time>2024-06-08T04:29:38Z</time></trkpt><trkpt lat="33.8394378" lon="133.2603778"><ele>1060.7266666666667</ele><time>2024-06-08T04:29:59Z</time></trkpt><trkpt lat="33.8394731" lon="133.2601465"><ele>1055.7933333333333</ele><time>2024-06-08T04:30:29Z</time></trkpt><trkpt lat="33.8395748" lon="133.259968"><ele>1050.4033333333334</ele><time>2024-06-08T04:31:01Z</time></trkpt><trkpt lat="33.8395502" lon="133.259745"><ele>1041.5</ele><time>2024-06-08T04:31:39Z</time></trkpt><trkpt lat="33.8396154" lon="133.2595196"><ele>1031.6333333333332</ele><time>2024-06-08T04:32:23Z</time></trkpt><trkpt lat="33.839753" lon="133.2593575"><ele>1022.3966666666666</ele><time>2024-06-08T04:33:07Z</time></trkpt><trkpt lat="33.8397196" lon="133.2591451"><ele>1015.5266666666666</ele><time>2024-06-08T04:34:19Z</time></trkpt><trkpt lat="33.8398484" lon="133.2589636"><ele>1010.9333333333334</ele><time>2024-06-08T04:34:36Z</time></trkpt><trkpt lat="33.839909" lon="133.258719"><ele>1003.7166666666667</ele><time>2024-06-08T04:35:12Z</time></trkpt><trkpt lat="33.8399855" lon="133.2584893"><ele>998.3566666666667</ele><time>2024-06-08T04:35:27Z</time></trkpt><trkpt lat="33.8401482" lon="133.2583086"><ele>993.09</ele><time>2024-06-08T04:35:51Z</time></trkpt><trkpt lat="33.8403338" lon="133.2582877"><ele>991.6666666666666</ele><time>2024-06-08T04:36:06Z</time></trkpt><trkpt lat="33.8405021" lon="133.2584026"><ele>992.7233333333334</ele><time>2024-06-08T04:36:21Z</time></trkpt><trkpt lat="33.8406611" lon="133.2582582"><ele>992.8733333333333</ele><time>2024-06-08T04:36:36Z</time></trkpt><trkpt lat="33.8406631" lon="133.2580047"><ele>991.6766666666667</ele><time>2024-06-08T04:36:52Z</time></trkpt><trkpt lat="33.8405334" lon="133.2578329"><ele>988.43</ele><time>2024-06-08T04:37:06Z</time></trkpt><trkpt lat="33.840382" lon="133.2576812"><ele>985.8100000000001</ele><time>2024-06-08T04:37:21Z</time></trkpt><trkpt lat="33.8403763" lon="133.2574537"><ele>984.5366666666667</ele><time>2024-06-08T04:37:36Z</time></trkpt><trkpt lat="33.8403642" lon="133.2571998"><ele>984.21</ele><time>2024-06-08T04:38:31Z</time></trkpt><trkpt lat="33.8403978" lon="133.2569862"><ele>984.4633333333333</ele><time>2024-06-08T04:44:55Z</time></trkpt><trkpt lat="33.84039" lon="133.2567597"><ele>983.4233333333333</ele><time>2024-06-08T04:46:16Z</time></trkpt><trkpt lat="33.8403877" lon="133.2565233"><ele>982.1</ele><time>2024-06-08T04:46:30Z</time></trkpt><trkpt lat="33.8403763" lon="133.2562969"><ele>980.0</ele><time>2024-06-08T04:46:45Z</time></trkpt><trkpt lat="33.840385" lon="133.2560741"><ele>977.4666666666667</ele><time>2024-06-08T04:47:00Z</time></trkpt><trkpt lat="33.8404259" lon="133.2558592"><ele>975.6366666666667</ele><time>2024-06-08T04:47:15Z</time></trkpt><trkpt lat="33.8405681" lon="133.2557216"><ele>975.11</ele><time>2024-06-08T04:47:36Z</time></trkpt><trkpt lat="33.8405989" lon="133.2555014"><ele>973.4699999999999</ele><time>2024-06-08T04:49:34Z</time></trkpt><trkpt lat="33.8406527" lon="133.2552948"><ele>970.3433333333332</ele><time>2024-06-08T04:50:49Z</time></trkpt><trkpt lat="33.8406967" lon="133.255073"><ele>967.2399999999999</ele><time>2024-06-08T04:51:15Z</time></trkpt><trkpt lat="33.8406843" lon="133.2548272"><ele>963.9033333333333</ele><time>2024-06-08T04:52:10Z</time></trkpt></trkseg></trk></gpx>