<?xml version='1.0' encoding='UTF-8'?><gpx creator="Yama Museum Summit Candidate Generator" xsi:schemaLocation="http://www.topografix.com/GPX/1/1 http://www.topografix.com/GPX/1/1/gpx.xsd" version="1.1" xmlns="http://www.topografix.com/GPX/1/1" xmlns:xsi="http://www.w3.org/2001/XMLSchema-instance" xmlns:yama="https://museum-yama-data.moukaeritai.work/ns/yama-data/0.1"><metadata><bounds maxlat="33.5076962" maxlon="132.5828343" minlat="33.4973633" minlon="132.5779895"/><name>根太山</name><extensions><yama:source_gpx_basename>yamap_2025-12-14_12_03.gpx</yama:source_gpx_basename><yama:source_gpx_relative_path>data/01_raw/gpx/2026-05-12/yamap_2025-12-14_12_03.gpx</yama:source_gpx_relative_path><yama:detection_parameters>window=5,radius=10,min_prominence=30,merge=100</yama:detection_parameters></extensions></metadata><wpt lat="33.4977228" lon="132.5826447"><ele>285.99333333333334</ele><time>2025-12-14T04:02:00Z</time><name>summit-candidate:b1bd2a482a691bd8</name><desc>Summit candidate detected at elevation 285.99333333333334m with prominence 253.20822222222225m.</desc><sym>Summit Candidate</sym><extensions><yama:source_trackpoint_index>80</yama:source_trackpoint_index><yama:valid_elevation_index>80</yama:valid_elevation_index><yama:smoothed_ele>284.4426666666667</yama:smoothed_ele><yama:prominence>253.20822222222225</yama:prominence><yama:detection_method>local_maxima_with_prominence</yama:detection_method><yama:detection_parameters>window=5,radius=10,min_prominence=30,merge=100</yama:detection_parameters><yama:candidate_status>unresolved</yama:candidate_status></extensions></wpt>
  <trk><name>根太山</name><number>1</number><trkseg><trkpt lat="33.5076962" lon="132.5780454"><ele>30.87</ele><time>2025-12-14T03:03:18Z</time></trkpt><trkpt lat="33.5075101" lon="132.5781208"><ele>31.12</ele><time>2025-12-14T03:04:24Z</time></trkpt><trkpt lat="33.507398" lon="132.5783198"><ele>31.713333333333335</ele><time>2025-12-14T03:04:54Z</time></trkpt><trkpt lat="33.5072637" lon="132.5784792"><ele>32.61333333333334</ele><time>2025-12-14T03:05:09Z</time></trkpt><trkpt lat="33.5071035" lon="132.5786266"><ele>34.00333333333333</ele><time>2025-12-14T03:05:26Z</time></trkpt><trkpt lat="33.5070233" lon="132.5788546"><ele>34.443333333333335</ele><time>2025-12-14T03:05:44Z</time></trkpt><trkpt lat="33.5070307" lon="132.5790843"><ele>33.156666666666666</ele><time>2025-12-14T03:06:08Z</time></trkpt><trkpt lat="33.5071086" lon="132.5793151"><ele>29.916666666666668</ele><time>2025-12-14T03:06:20Z</time></trkpt><trkpt lat="33.5069152" lon="132.5792162"><ele>28.656666666666666</ele><time>2025-12-14T03:06:50Z</time></trkpt><trkpt lat="33.506742" lon="132.5791199"><ele>32.20333333333334</ele><time>2025-12-14T03:07:10Z</time></trkpt><trkpt lat="33.5065608" lon="132.5791909"><ele>39.05666666666667</ele><time>2025-12-14T03:07:34Z</time></trkpt><trkpt lat="33.5064188" lon="132.5793677"><ele>45.57333333333333</ele><time>2025-12-14T03:08:07Z</time></trkpt><trkpt lat="33.5064075" lon="132.5795951"><ele>47.92666666666667</ele><time>2025-12-14T03:08:22Z</time></trkpt><trkpt lat="33.5062387" lon="132.5797183"><ele>49.14666666666667</ele><time>2025-12-14T03:08:43Z</time></trkpt><trkpt lat="33.5061724" lon="132.5794844"><ele>49.21</ele><time>2025-12-14T03:09:01Z</time></trkpt><trkpt lat="33.5062047" lon="132.5797508"><ele>49.79333333333333</ele><time>2025-12-14T03:10:19Z</time></trkpt><trkpt lat="33.5061417" lon="132.5799621"><ele>48.84666666666667</ele><time>2025-12-14T03:10:40Z</time></trkpt><trkpt lat="33.5061936" lon="132.5801942"><ele>49.913333333333334</ele><time>2025-12-14T03:10:58Z</time></trkpt><trkpt lat="33.5061063" lon="132.5803832"><ele>53.6</ele><time>2025-12-14T03:11:13Z</time></trkpt><trkpt lat="33.5059093" lon="132.5804614"><ele>58.75</ele><time>2025-12-14T03:11:31Z</time></trkpt><trkpt lat="33.5057261" lon="132.5803935"><ele>60.76333333333334</ele><time>2025-12-14T03:11:46Z</time></trkpt><trkpt lat="33.5055691" lon="132.5802502"><ele>60.303333333333335</ele><time>2025-12-14T03:12:01Z</time></trkpt><trkpt lat="33.5054628" lon="132.5800602"><ele>58.71</ele><time>2025-12-14T03:12:16Z</time></trkpt><trkpt lat="33.5052577" lon="132.5801669"><ele>57.18000000000001</ele><time>2025-12-14T03:12:28Z</time></trkpt><trkpt lat="33.5053317" lon="132.5803645"><ele>59.583333333333336</ele><time>2025-12-14T03:12:57Z</time></trkpt><trkpt lat="33.5055202" lon="132.5804123"><ele>61.803333333333335</ele><time>2025-12-14T03:13:37Z</time></trkpt><trkpt lat="33.5056073" lon="132.5806222"><ele>67.02666666666666</ele><time>2025-12-14T03:14:01Z</time></trkpt><trkpt lat="33.5057399" lon="132.5808115"><ele>70.49</ele><time>2025-12-14T03:14:27Z</time></trkpt><trkpt lat="33.5059041" lon="132.5809195"><ele>75.0</ele><time>2025-12-14T03:15:13Z</time></trkpt><trkpt lat="33.5060325" lon="132.5810798"><ele>78.83333333333333</ele><time>2025-12-14T03:15:27Z</time></trkpt><trkpt lat="33.5060068" lon="132.581324"><ele>81.67</ele><time>2025-12-14T03:15:42Z</time></trkpt><trkpt lat="33.5058489" lon="132.5814638"><ele>85.35000000000001</ele><time>2025-12-14T03:16:37Z</time></trkpt><trkpt lat="33.5056582" lon="132.5815427"><ele>90.82333333333334</ele><time>2025-12-14T03:16:57Z</time></trkpt><trkpt lat="33.5054909" lon="132.5816568"><ele>95.64</ele><time>2025-12-14T03:17:14Z</time></trkpt><trkpt lat="33.5053039" lon="132.5817273"><ele>99.8</ele><time>2025-12-14T03:17:32Z</time></trkpt><trkpt lat="33.5050954" lon="132.5816751"><ele>103.39</ele><time>2025-12-14T03:17:46Z</time></trkpt><trkpt lat="33.5049072" lon="132.5816603"><ele>107.48666666666666</ele><time>2025-12-14T03:17:57Z</time></trkpt><trkpt lat="33.5047427" lon="132.5817733"><ele>112.04666666666667</ele><time>2025-12-14T03:18:20Z</time></trkpt><trkpt lat="33.5045342" lon="132.5816844"><ele>114.89999999999999</ele><time>2025-12-14T03:20:54Z</time></trkpt><trkpt lat="33.5043457" lon="132.5816669"><ele>116.93666666666667</ele><time>2025-12-14T03:21:15Z</time></trkpt><trkpt lat="33.5042238" lon="132.5818448"><ele>120.82000000000001</ele><time>2025-12-14T03:22:13Z</time></trkpt><trkpt lat="33.5040741" lon="132.581967"><ele>126.51333333333332</ele><time>2025-12-14T03:23:29Z</time></trkpt><trkpt lat="33.5038911" lon="132.5819739"><ele>134.59666666666666</ele><time>2025-12-14T03:24:44Z</time></trkpt><trkpt lat="33.5037074" lon="132.5819848"><ele>142.19</ele><time>2025-12-14T03:25:29Z</time></trkpt><trkpt lat="33.5035632" lon="132.5821214"><ele>149.09</ele><time>2025-12-14T03:27:56Z</time></trkpt><trkpt lat="33.5033782" lon="132.5822233"><ele>156.19000000000003</ele><time>2025-12-14T03:28:50Z</time></trkpt><trkpt lat="33.5031899" lon="132.5822584"><ele>162.65</ele><time>2025-12-14T03:29:29Z</time></trkpt><trkpt lat="33.5030063" lon="132.582294"><ele>167.80666666666664</ele><time>2025-12-14T03:29:53Z</time></trkpt><trkpt lat="33.5028084" lon="132.5821903"><ele>170.85333333333332</ele><time>2025-12-14T03:30:51Z</time></trkpt><trkpt lat="33.50263" lon="132.5821141"><ele>172.14000000000001</ele><time>2025-12-14T03:31:06Z</time></trkpt><trkpt lat="33.5024275" lon="132.5820562"><ele>172.26666666666665</ele><time>2025-12-14T03:31:24Z</time></trkpt><trkpt lat="33.5022597" lon="132.5821393"><ele>172.90666666666667</ele><time>2025-12-14T03:31:39Z</time></trkpt><trkpt lat="33.5020742" lon="132.5821445"><ele>173.59333333333333</ele><time>2025-12-14T03:32:00Z</time></trkpt><trkpt lat="33.5018905" lon="132.582202"><ele>175.82333333333335</ele><time>2025-12-14T03:32:57Z</time></trkpt><trkpt lat="33.5017148" lon="132.5821416"><ele>177.81333333333336</ele><time>2025-12-14T03:33:33Z</time></trkpt><trkpt lat="33.5015517" lon="132.5820498"><ele>180.70000000000002</ele><time>2025-12-14T03:34:06Z</time></trkpt><trkpt lat="33.5013566" lon="132.5820601"><ele>184.08666666666667</ele><time>2025-12-14T03:34:33Z</time></trkpt><trkpt lat="33.5011813" lon="132.5819828"><ele>187.38</ele><time>2025-12-14T03:34:54Z</time></trkpt><trkpt lat="33.5010118" lon="132.5818769"><ele>190.38333333333333</ele><time>2025-12-14T03:35:30Z</time></trkpt><trkpt lat="33.5008209" lon="132.5818013"><ele>192.57333333333335</ele><time>2025-12-14T03:35:54Z</time></trkpt><trkpt lat="33.5006353" lon="132.5817446"><ele>194.85333333333335</ele><time>2025-12-14T03:36:15Z</time></trkpt><trkpt lat="33.5004533" lon="132.5817701"><ele>197.98</ele><time>2025-12-14T03:37:18Z</time></trkpt><trkpt lat="33.5002594" lon="132.5818171"><ele>202.07333333333335</ele><time>2025-12-14T03:38:51Z</time></trkpt><trkpt lat="33.5000833" lon="132.5819052"><ele>207.76999999999998</ele><time>2025-12-14T03:40:18Z</time></trkpt><trkpt lat="33.4998925" lon="132.5819711"><ele>213.45333333333335</ele><time>2025-12-14T03:41:21Z</time></trkpt><trkpt lat="33.4997148" lon="132.582044"><ele>220.2733333333333</ele><time>2025-12-14T03:41:54Z</time></trkpt><trkpt lat="33.4995265" lon="132.5820535"><ele>227.16666666666666</ele><time>2025-12-14T03:42:38Z</time></trkpt><trkpt lat="33.4993461" lon="132.5820441"><ele>234.07333333333335</ele><time>2025-12-14T03:43:15Z</time></trkpt><trkpt lat="33.4991533" lon="132.5820831"><ele>239.54333333333332</ele><time>2025-12-14T03:43:48Z</time></trkpt><trkpt lat="33.4989657" lon="132.582103"><ele>243.4</ele><time>2025-12-14T03:44:14Z</time></trkpt><trkpt lat="33.4987644" lon="132.5821583"><ele>248.16333333333333</ele><time>2025-12-14T03:46:33Z</time></trkpt><trkpt lat="33.4985986" lon="132.5822638"><ele>254.65333333333334</ele><time>2025-12-14T03:47:42Z</time></trkpt><trkpt lat="33.4984211" lon="132.5823155"><ele>261.70666666666665</ele><time>2025-12-14T03:47:58Z</time></trkpt><trkpt lat="33.4982328" lon="132.5823551"><ele>269.23333333333335</ele><time>2025-12-14T03:49:59Z</time></trkpt><trkpt lat="33.4980534" lon="132.5824243"><ele>274.99</ele><time>2025-12-14T03:51:12Z</time></trkpt><trkpt lat="33.497892" lon="132.5825671"><ele>279.71</ele><time>2025-12-14T03:51:33Z</time></trkpt><trkpt lat="33.4977135" lon="132.5826677"><ele>281.28000000000003</ele><time>2025-12-14T03:51:54Z</time></trkpt><trkpt lat="33.4975451" lon="132.5827738"><ele>281.8633333333333</ele><time>2025-12-14T03:52:33Z</time></trkpt><trkpt lat="33.4973633" lon="132.5828343"><ele>285.2366666666666</ele><time>2025-12-14T03:53:57Z</time></trkpt><trkpt lat="33.4975594" lon="132.5827669"><ele>285.58666666666664</ele><time>2025-12-14T04:01:42Z</time></trkpt><trkpt lat="33.4977228" lon="132.5826447"><ele>285.99333333333334</ele><time>2025-12-14T04:02:00Z</time></trkpt><trkpt lat="33.4978836" lon="132.582535"><ele>282.99</ele><time>2025-12-14T04:02:25Z</time></trkpt><trkpt lat="33.4980687" lon="132.5824895"><ele>282.4066666666667</ele><time>2025-12-14T04:02:45Z</time></trkpt><trkpt lat="33.4982803" lon="132.5824524"><ele>279.33666666666664</ele><time>2025-12-14T04:03:11Z</time></trkpt><trkpt lat="33.4983521" lon="132.5822404"><ele>274.90000000000003</ele><time>2025-12-14T04:03:29Z</time></trkpt><trkpt lat="33.4985206" lon="132.5820408"><ele>266.28000000000003</ele><time>2025-12-14T04:03:46Z</time></trkpt><trkpt lat="33.4983501" lon="132.5823052"><ele>264.65000000000003</ele><time>2025-12-14T04:03:51Z</time></trkpt><trkpt lat="33.4985498" lon="132.5822322"><ele>262.12</ele><time>2025-12-14T04:04:00Z</time></trkpt><trkpt lat="33.4987561" lon="132.5821701"><ele>261.87666666666667</ele><time>2025-12-14T04:05:43Z</time></trkpt><trkpt lat="33.4989578" lon="132.5821597"><ele>255.04000000000005</ele><time>2025-12-14T04:06:02Z</time></trkpt><trkpt lat="33.4991437" lon="132.5821359"><ele>249.03333333333333</ele><time>2025-12-14T04:06:23Z</time></trkpt><trkpt lat="33.4993318" lon="132.582161"><ele>243.79333333333332</ele><time>2025-12-14T04:07:06Z</time></trkpt><trkpt lat="33.4995381" lon="132.5820918"><ele>238.00333333333333</ele><time>2025-12-14T04:07:24Z</time></trkpt><trkpt lat="33.4997302" lon="132.5820907"><ele>232.21</ele><time>2025-12-14T04:07:38Z</time></trkpt><trkpt lat="33.4998624" lon="132.581903"><ele>226.71666666666667</ele><time>2025-12-14T04:08:05Z</time></trkpt><trkpt lat="33.5000686" lon="132.5818813"><ele>220.65333333333334</ele><time>2025-12-14T04:08:46Z</time></trkpt><trkpt lat="33.5002523" lon="132.5818838"><ele>214.15666666666667</ele><time>2025-12-14T04:09:44Z</time></trkpt><trkpt lat="33.5004344" lon="132.5818324"><ele>207.69000000000003</ele><time>2025-12-14T04:09:59Z</time></trkpt><trkpt lat="33.5006315" lon="132.5818009"><ele>202.2266666666667</ele><time>2025-12-14T04:10:14Z</time></trkpt><trkpt lat="33.5007146" lon="132.5820247"><ele>197.04</ele><time>2025-12-14T04:10:36Z</time></trkpt><trkpt lat="33.5009092" lon="132.5820505"><ele>193.20333333333335</ele><time>2025-12-14T04:10:50Z</time></trkpt><trkpt lat="33.5010576" lon="132.5819148"><ele>191.38666666666666</ele><time>2025-12-14T04:10:59Z</time></trkpt><trkpt lat="33.5012461" lon="132.5820199"><ele>190.96666666666667</ele><time>2025-12-14T04:11:17Z</time></trkpt><trkpt lat="33.501407" lon="132.5821296"><ele>189.14666666666665</ele><time>2025-12-14T04:11:34Z</time></trkpt><trkpt lat="33.5016133" lon="132.5821476"><ele>185.89</ele><time>2025-12-14T04:11:55Z</time></trkpt><trkpt lat="33.5018145" lon="132.5822241"><ele>181.97666666666666</ele><time>2025-12-14T04:12:16Z</time></trkpt><trkpt lat="33.5020077" lon="132.5822262"><ele>179.15666666666667</ele><time>2025-12-14T04:12:31Z</time></trkpt><trkpt lat="33.5021935" lon="132.5821829"><ele>177.08</ele><time>2025-12-14T04:12:48Z</time></trkpt><trkpt lat="33.502369" lon="132.5820997"><ele>175.58333333333334</ele><time>2025-12-14T04:13:03Z</time></trkpt><trkpt lat="33.5025631" lon="132.5820651"><ele>174.29</ele><time>2025-12-14T04:13:24Z</time></trkpt><trkpt lat="33.5027588" lon="132.5821318"><ele>173.16333333333333</ele><time>2025-12-14T04:13:52Z</time></trkpt><trkpt lat="33.5029373" lon="132.5821896"><ele>172.35666666666668</ele><time>2025-12-14T04:14:23Z</time></trkpt><trkpt lat="33.5030718" lon="132.5823743"><ele>171.35666666666665</ele><time>2025-12-14T04:14:43Z</time></trkpt><trkpt lat="33.5032585" lon="132.5824263"><ele>169.1</ele><time>2025-12-14T04:15:00Z</time></trkpt><trkpt lat="33.5034197" lon="132.5825963"><ele>164.92666666666665</ele><time>2025-12-14T04:15:24Z</time></trkpt><trkpt lat="33.5036144" lon="132.5826487"><ele>159.3166666666667</ele><time>2025-12-14T04:15:50Z</time></trkpt><trkpt lat="33.5037932" lon="132.5827122"><ele>152.57666666666668</ele><time>2025-12-14T04:16:32Z</time></trkpt><trkpt lat="33.5039975" lon="132.582648"><ele>142.06666666666666</ele><time>2025-12-14T04:19:10Z</time></trkpt><trkpt lat="33.5041759" lon="132.5824155"><ele>133.50333333333336</ele><time>2025-12-14T04:19:16Z</time></trkpt><trkpt lat="33.5042444" lon="132.5822089"><ele>129.25333333333333</ele><time>2025-12-14T04:19:36Z</time></trkpt><trkpt lat="33.5043234" lon="132.5819974"><ele>129.5533333333333</ele><time>2025-12-14T04:19:52Z</time></trkpt><trkpt lat="33.5044343" lon="132.5818095"><ele>127.87666666666667</ele><time>2025-12-14T04:20:07Z</time></trkpt><trkpt lat="33.5045746" lon="132.5816041"><ele>122.10000000000001</ele><time>2025-12-14T04:20:21Z</time></trkpt><trkpt lat="33.5047508" lon="132.5815098"><ele>117.28333333333335</ele><time>2025-12-14T04:20:40Z</time></trkpt><trkpt lat="33.504912" lon="132.5816081"><ele>114.06333333333333</ele><time>2025-12-14T04:21:16Z</time></trkpt><trkpt lat="33.5050956" lon="132.5815872"><ele>112.72333333333334</ele><time>2025-12-14T04:21:28Z</time></trkpt><trkpt lat="33.5050888" lon="132.5813276"><ele>110.76666666666667</ele><time>2025-12-14T04:22:31Z</time></trkpt><trkpt lat="33.5050854" lon="132.5810851"><ele>104.87666666666667</ele><time>2025-12-14T04:22:49Z</time></trkpt><trkpt lat="33.5050648" lon="132.5808549"><ele>94.36666666666667</ele><time>2025-12-14T04:23:55Z</time></trkpt><trkpt lat="33.5051661" lon="132.5806607"><ele>82.47000000000001</ele><time>2025-12-14T04:24:21Z</time></trkpt><trkpt lat="33.5052893" lon="132.5804933"><ele>73.37</ele><time>2025-12-14T04:25:04Z</time></trkpt><trkpt lat="33.5052735" lon="132.5802383"><ele>66.74666666666667</ele><time>2025-12-14T04:25:45Z</time></trkpt><trkpt lat="33.5054424" lon="132.5801067"><ele>62.6</ele><time>2025-12-14T04:25:57Z</time></trkpt><trkpt lat="33.5055931" lon="132.5802915"><ele>60.39666666666667</ele><time>2025-12-14T04:26:25Z</time></trkpt><trkpt lat="33.505795" lon="132.5803585"><ele>60.1</ele><time>2025-12-14T04:26:39Z</time></trkpt><trkpt lat="33.5059779" lon="132.5803639"><ele>60.126666666666665</ele><time>2025-12-14T04:26:54Z</time></trkpt><trkpt lat="33.5061699" lon="132.5803035"><ele>58.593333333333334</ele><time>2025-12-14T04:27:12Z</time></trkpt><trkpt lat="33.506167" lon="132.5800671"><ele>55.18666666666667</ele><time>2025-12-14T04:27:53Z</time></trkpt><trkpt lat="33.5061953" lon="132.5798325"><ele>51.15</ele><time>2025-12-14T04:28:08Z</time></trkpt><trkpt lat="33.506307" lon="132.5796374"><ele>48.946666666666665</ele><time>2025-12-14T04:28:48Z</time></trkpt><trkpt lat="33.5064571" lon="132.579505"><ele>48.84</ele><time>2025-12-14T04:29:03Z</time></trkpt><trkpt lat="33.5065899" lon="132.5793202"><ele>47.79999999999999</ele><time>2025-12-14T04:29:18Z</time></trkpt><trkpt lat="33.5067684" lon="132.5792527"><ele>42.95000000000001</ele><time>2025-12-14T04:29:57Z</time></trkpt><trkpt lat="33.5069651" lon="132.5793201"><ele>36.39</ele><time>2025-12-14T04:30:33Z</time></trkpt><trkpt lat="33.5071837" lon="132.5793127"><ele>29.823333333333334</ele><time>2025-12-14T04:30:51Z</time></trkpt><trkpt lat="33.5071589" lon="132.5790816"><ele>27.013333333333332</ele><time>2025-12-14T04:31:08Z</time></trkpt><trkpt lat="33.507078" lon="132.5788779"><ele>28.313333333333333</ele><time>2025-12-14T04:31:19Z</time></trkpt><trkpt lat="33.5070653" lon="132.5786444"><ele>31.456666666666667</ele><time>2025-12-14T04:31:35Z</time></trkpt><trkpt lat="33.5072372" lon="132.578528"><ele>33.57666666666666</ele><time>2025-12-14T04:31:55Z</time></trkpt><trkpt lat="33.5073931" lon="132.5784033"><ele>33.49333333333333</ele><time>2025-12-14T04:32:09Z</time></trkpt><trkpt lat="33.5075339" lon="132.5782243"><ele>32.403333333333336</ele><time>2025-12-14T04:32:24Z</time></trkpt><trkpt lat="33.507576" lon="132.5779895"><ele>31.713333333333335</ele><time>2025-12-14T04:32:39Z</time></trkpt></trkseg></trk></gpx>