<?xml version='1.0' encoding='UTF-8'?><gpx creator="Yama Museum Summit Candidate Generator" xsi:schemaLocation="http://www.topografix.com/GPX/1/1 http://www.topografix.com/GPX/1/1/gpx.xsd" version="1.1" xmlns="http://www.topografix.com/GPX/1/1" xmlns:xsi="http://www.w3.org/2001/XMLSchema-instance" xmlns:yama="https://museum-yama-data.moukaeritai.work/ns/yama-data/0.1"><metadata><bounds maxlat="33.9864076" maxlon="133.6820912" minlat="33.9779806" minlon="133.6624026"/><name>峰畑山</name><extensions><yama:source_gpx_basename>yamap_2026-03-08_08_05.gpx</yama:source_gpx_basename><yama:source_gpx_relative_path>data/01_raw/gpx/2026-05-12/yamap_2026-03-08_08_05.gpx</yama:source_gpx_relative_path><yama:detection_parameters>window=5,radius=10,min_prominence=30,merge=100</yama:detection_parameters></extensions></metadata><wpt lat="33.9835402" lon="133.681909"><ele>753.8057910293684</ele><time>2026-03-08T00:08:39Z</time><name>summit-candidate:eb031d650d8e9a7a</name><desc>Summit candidate detected at elevation 753.8057910293684m with prominence 52.796117856295155m.</desc><sym>Summit Candidate</sym><extensions><yama:source_trackpoint_index>111</yama:source_trackpoint_index><yama:valid_elevation_index>111</yama:valid_elevation_index><yama:smoothed_ele>751.6952397262621</yama:smoothed_ele><yama:prominence>52.796117856295155</yama:prominence><yama:detection_method>local_maxima_with_prominence</yama:detection_method><yama:detection_parameters>window=5,radius=10,min_prominence=30,merge=100</yama:detection_parameters><yama:candidate_status>unresolved</yama:candidate_status></extensions></wpt>
  <trk><name>峰畑山</name><number>1</number><trkseg><trkpt lat="33.9780059" lon="133.6624026"><ele>780.3133833403424</ele><time>2026-03-07T23:05:50Z</time></trkpt><trkpt lat="33.9779806" lon="133.6626213"><ele>781.4680984089025</ele><time>2026-03-07T23:07:47Z</time></trkpt><trkpt lat="33.9780269" lon="133.662861"><ele>782.6728233345638</ele><time>2026-03-07T23:08:14Z</time></trkpt><trkpt lat="33.978139" lon="133.6630396"><ele>785.4278920859942</ele><time>2026-03-07T23:08:35Z</time></trkpt><trkpt lat="33.9781578" lon="133.6632564"><ele>789.0653947707942</ele><time>2026-03-07T23:09:11Z</time></trkpt><trkpt lat="33.9782108" lon="133.6634682"><ele>793.9050986322933</ele><time>2026-03-07T23:09:44Z</time></trkpt><trkpt lat="33.978376" lon="133.6635736"><ele>798.292941869467</ele><time>2026-03-07T23:10:26Z</time></trkpt><trkpt lat="33.978492" lon="133.6637606"><ele>799.9136305608596</ele><time>2026-03-07T23:10:59Z</time></trkpt><trkpt lat="33.9786729" lon="133.663792"><ele>797.118799174842</ele><time>2026-03-07T23:11:23Z</time></trkpt><trkpt lat="33.9788559" lon="133.6636891"><ele>792.0390587367577</ele><time>2026-03-07T23:11:45Z</time></trkpt><trkpt lat="33.9790437" lon="133.6636338"><ele>787.6647425468865</ele><time>2026-03-07T23:12:11Z</time></trkpt><trkpt lat="33.9792076" lon="133.6637346"><ele>784.9350406608168</ele><time>2026-03-07T23:12:26Z</time></trkpt><trkpt lat="33.9793259" lon="133.6639004"><ele>783.6081763653714</ele><time>2026-03-07T23:12:50Z</time></trkpt><trkpt lat="33.979407" lon="133.6641038"><ele>784.6676506144353</ele><time>2026-03-07T23:13:47Z</time></trkpt><trkpt lat="33.97947" lon="133.6643213"><ele>787.5665269756505</ele><time>2026-03-07T23:14:20Z</time></trkpt><trkpt lat="33.9796348" lon="133.664457"><ele>790.4218183208544</ele><time>2026-03-07T23:14:43Z</time></trkpt><trkpt lat="33.9797342" lon="133.6646592"><ele>792.9258929582428</ele><time>2026-03-07T23:15:21Z</time></trkpt><trkpt lat="33.9798498" lon="133.6648444"><ele>796.1540981994176</ele><time>2026-03-07T23:15:47Z</time></trkpt><trkpt lat="33.9799016" lon="133.6650549"><ele>800.458923390415</ele><time>2026-03-07T23:16:04Z</time></trkpt><trkpt lat="33.97989" lon="133.6652825"><ele>803.6921207181485</ele><time>2026-03-07T23:16:31Z</time></trkpt><trkpt lat="33.9799024" lon="133.6655161"><ele>806.5187892575627</ele><time>2026-03-07T23:16:58Z</time></trkpt><trkpt lat="33.9799751" lon="133.6657257"><ele>808.4126207665932</ele><time>2026-03-07T23:17:16Z</time></trkpt><trkpt lat="33.9800547" lon="133.6659485"><ele>809.1738377122225</ele><time>2026-03-07T23:17:36Z</time></trkpt><trkpt lat="33.9801401" lon="133.6661404"><ele>808.3668074130859</ele><time>2026-03-07T23:17:51Z</time></trkpt><trkpt lat="33.980174" lon="133.6663633"><ele>807.4398858097647</ele><time>2026-03-07T23:18:09Z</time></trkpt><trkpt lat="33.9801611" lon="133.6665796"><ele>807.5169657508568</ele><time>2026-03-07T23:18:39Z</time></trkpt><trkpt lat="33.9802475" lon="133.6667872"><ele>807.6857236147725</ele><time>2026-03-07T23:19:03Z</time></trkpt><trkpt lat="33.9802411" lon="133.6670188"><ele>807.2465163876092</ele><time>2026-03-07T23:19:24Z</time></trkpt><trkpt lat="33.9802927" lon="133.6672409"><ele>804.7781929500669</ele><time>2026-03-07T23:19:48Z</time></trkpt><trkpt lat="33.9802834" lon="133.6674646"><ele>801.4531298832095</ele><time>2026-03-07T23:20:24Z</time></trkpt><trkpt lat="33.9803589" lon="133.667691"><ele>797.8911847634455</ele><time>2026-03-07T23:20:45Z</time></trkpt><trkpt lat="33.9804509" lon="133.6679122"><ele>795.5885873086331</ele><time>2026-03-07T23:21:06Z</time></trkpt><trkpt lat="33.9805237" lon="133.6681408"><ele>794.1173137274054</ele><time>2026-03-07T23:21:42Z</time></trkpt><trkpt lat="33.9805876" lon="133.6683827"><ele>793.1002434738253</ele><time>2026-03-07T23:22:02Z</time></trkpt><trkpt lat="33.9806691" lon="133.668589"><ele>792.8405454221138</ele><time>2026-03-07T23:22:19Z</time></trkpt><trkpt lat="33.980752" lon="133.6687814"><ele>792.9320064022862</ele><time>2026-03-07T23:22:37Z</time></trkpt><trkpt lat="33.9808489" lon="133.6689719"><ele>793.6620872564649</ele><time>2026-03-07T23:22:58Z</time></trkpt><trkpt lat="33.9808421" lon="133.6692027"><ele>793.0555627667471</ele><time>2026-03-07T23:23:31Z</time></trkpt><trkpt lat="33.9808994" lon="133.6694168"><ele>790.6367977272049</ele><time>2026-03-07T23:23:51Z</time></trkpt><trkpt lat="33.9809406" lon="133.6696473"><ele>786.6074004172275</ele><time>2026-03-07T23:24:12Z</time></trkpt><trkpt lat="33.9810231" lon="133.6698517"><ele>782.5520397302316</ele><time>2026-03-07T23:24:30Z</time></trkpt><trkpt lat="33.9809613" lon="133.670079"><ele>778.8813051905532</ele><time>2026-03-07T23:24:54Z</time></trkpt><trkpt lat="33.9808572" lon="133.670256"><ele>775.4644825076531</ele><time>2026-03-07T23:25:18Z</time></trkpt><trkpt lat="33.9807517" lon="133.6704736"><ele>772.279839920897</ele><time>2026-03-07T23:26:21Z</time></trkpt><trkpt lat="33.9807283" lon="133.6707047"><ele>770.1311934528388</ele><time>2026-03-07T23:26:42Z</time></trkpt><trkpt lat="33.9807037" lon="133.670936"><ele>769.3254669506636</ele><time>2026-03-07T23:27:03Z</time></trkpt><trkpt lat="33.980843" lon="133.6711125"><ele>766.3469881323459</ele><time>2026-03-07T23:27:42Z</time></trkpt><trkpt lat="33.981007" lon="133.6712053"><ele>760.4523782709326</ele><time>2026-03-07T23:28:05Z</time></trkpt><trkpt lat="33.9809896" lon="133.671445"><ele>754.2281449391148</ele><time>2026-03-07T23:28:38Z</time></trkpt><trkpt lat="33.9810509" lon="133.671662"><ele>751.3496091973698</ele><time>2026-03-07T23:29:20Z</time></trkpt><trkpt lat="33.9810033" lon="133.6718924"><ele>753.625672264453</ele><time>2026-03-07T23:30:02Z</time></trkpt><trkpt lat="33.9809165" lon="133.6720915"><ele>754.7498289038346</ele><time>2026-03-07T23:30:32Z</time></trkpt><trkpt lat="33.9808336" lon="133.6722962"><ele>753.6504705097619</ele><time>2026-03-07T23:31:47Z</time></trkpt><trkpt lat="33.981023" lon="133.6723794"><ele>748.0430963324357</ele><time>2026-03-07T23:32:41Z</time></trkpt><trkpt lat="33.9812237" lon="133.6723916"><ele>740.0538244430332</ele><time>2026-03-07T23:33:10Z</time></trkpt><trkpt lat="33.9814075" lon="133.6723899"><ele>732.886017098872</ele><time>2026-03-07T23:33:31Z</time></trkpt><trkpt lat="33.9815657" lon="133.6725011"><ele>729.3898281257385</ele><time>2026-03-07T23:33:55Z</time></trkpt><trkpt lat="33.9816873" lon="133.6727011"><ele>731.2150363280454</ele><time>2026-03-07T23:34:43Z</time></trkpt><trkpt lat="33.9817821" lon="133.672914"><ele>735.8733950889783</ele><time>2026-03-07T23:35:13Z</time></trkpt><trkpt lat="33.9818389" lon="133.6731241"><ele>740.651313348119</ele><time>2026-03-07T23:35:46Z</time></trkpt><trkpt lat="33.9818856" lon="133.6733533"><ele>745.4236482125169</ele><time>2026-03-07T23:36:19Z</time></trkpt><trkpt lat="33.9819735" lon="133.6735536"><ele>747.8565767977803</ele><time>2026-03-07T23:36:43Z</time></trkpt><trkpt lat="33.9821476" lon="133.6736319"><ele>747.9186941339113</ele><time>2026-03-07T23:37:15Z</time></trkpt><trkpt lat="33.9823297" lon="133.6736667"><ele>745.2263187276543</ele><time>2026-03-07T23:37:33Z</time></trkpt><trkpt lat="33.982522" lon="133.6737826"><ele>742.7460861532436</ele><time>2026-03-07T23:37:54Z</time></trkpt><trkpt lat="33.9826662" lon="133.6739372"><ele>742.4295729188601</ele><time>2026-03-07T23:38:15Z</time></trkpt><trkpt lat="33.9827823" lon="133.674113"><ele>744.2361561335446</ele><time>2026-03-07T23:38:35Z</time></trkpt><trkpt lat="33.9828314" lon="133.6743252"><ele>746.5590757782389</ele><time>2026-03-07T23:38:53Z</time></trkpt><trkpt lat="33.9828384" lon="133.674554"><ele>748.9042858138008</ele><time>2026-03-07T23:39:16Z</time></trkpt><trkpt lat="33.9830077" lon="133.6746676"><ele>749.404249457523</ele><time>2026-03-07T23:40:13Z</time></trkpt><trkpt lat="33.9831959" lon="133.6747269"><ele>749.2989561902587</ele><time>2026-03-07T23:40:33Z</time></trkpt><trkpt lat="33.9833566" lon="133.6748307"><ele>748.6283651090938</ele><time>2026-03-07T23:40:54Z</time></trkpt><trkpt lat="33.9834785" lon="133.6749997"><ele>749.4540099843343</ele><time>2026-03-07T23:41:11Z</time></trkpt><trkpt lat="33.9835495" lon="133.6752088"><ele>749.906625231493</ele><time>2026-03-07T23:42:26Z</time></trkpt><trkpt lat="33.9835599" lon="133.6754357"><ele>747.7190271365613</ele><time>2026-03-07T23:42:59Z</time></trkpt><trkpt lat="33.9834834" lon="133.6756368"><ele>743.1970714221261</ele><time>2026-03-07T23:44:08Z</time></trkpt><trkpt lat="33.9833747" lon="133.6758287"><ele>738.401266847725</ele><time>2026-03-07T23:44:35Z</time></trkpt><trkpt lat="33.9835505" lon="133.6757346"><ele>735.3893588774994</ele><time>2026-03-07T23:46:26Z</time></trkpt><trkpt lat="33.9837152" lon="133.6758678"><ele>732.8318377362299</ele><time>2026-03-07T23:47:32Z</time></trkpt><trkpt lat="33.9838322" lon="133.6760399"><ele>728.561305669763</ele><time>2026-03-07T23:47:58Z</time></trkpt><trkpt lat="33.9839373" lon="133.6762505"><ele>723.1745512567192</ele><time>2026-03-07T23:48:25Z</time></trkpt><trkpt lat="33.9840978" lon="133.6764147"><ele>718.359231610911</ele><time>2026-03-07T23:48:43Z</time></trkpt><trkpt lat="33.9841813" lon="133.6766293"><ele>716.0724544967769</ele><time>2026-03-07T23:49:04Z</time></trkpt><trkpt lat="33.9841783" lon="133.6768814"><ele>714.637244624424</ele><time>2026-03-07T23:49:22Z</time></trkpt><trkpt lat="33.9842129" lon="133.6770946"><ele>712.9445027160642</ele><time>2026-03-07T23:49:37Z</time></trkpt><trkpt lat="33.9842651" lon="133.6773187"><ele>710.8652439311394</ele><time>2026-03-07T23:49:55Z</time></trkpt><trkpt lat="33.9842617" lon="133.6775739"><ele>708.3531249800825</ele><time>2026-03-07T23:50:13Z</time></trkpt><trkpt lat="33.984192" lon="133.6778119"><ele>707.6075319842315</ele><time>2026-03-07T23:50:31Z</time></trkpt><trkpt lat="33.9841359" lon="133.6780335"><ele>706.8943004955962</ele><time>2026-03-07T23:50:49Z</time></trkpt><trkpt lat="33.9841462" lon="133.6782693"><ele>705.4310129190827</ele><time>2026-03-07T23:51:10Z</time></trkpt><trkpt lat="33.9841766" lon="133.6784873"><ele>701.4107760689668</ele><time>2026-03-07T23:51:37Z</time></trkpt><trkpt lat="33.9841588" lon="133.6787388"><ele>697.6989591391215</ele><time>2026-03-07T23:52:37Z</time></trkpt><trkpt lat="33.9841326" lon="133.6789651"><ele>696.6091828865198</ele><time>2026-03-07T23:53:07Z</time></trkpt><trkpt lat="33.9841117" lon="133.6792105"><ele>698.1297063463602</ele><time>2026-03-07T23:53:37Z</time></trkpt><trkpt lat="33.9841525" lon="133.6794324"><ele>700.6469849088666</ele><time>2026-03-07T23:53:58Z</time></trkpt><trkpt lat="33.9841833" lon="133.6796682"><ele>703.00617542084</ele><time>2026-03-07T23:54:17Z</time></trkpt><trkpt lat="33.9843041" lon="133.6798516"><ele>706.0318720395126</ele><time>2026-03-07T23:54:38Z</time></trkpt><trkpt lat="33.9844509" lon="133.6799842"><ele>708.8803544191229</ele><time>2026-03-07T23:54:55Z</time></trkpt><trkpt lat="33.9844765" lon="133.680223"><ele>710.7234704087645</ele><time>2026-03-07T23:55:37Z</time></trkpt><trkpt lat="33.9842893" lon="133.6802265"><ele>713.2960312331328</ele><time>2026-03-07T23:56:25Z</time></trkpt><trkpt lat="33.9841788" lon="133.6804177"><ele>717.9259917219621</ele><time>2026-03-07T23:57:10Z</time></trkpt><trkpt lat="33.9840636" lon="133.6806071"><ele>724.3709219093295</ele><time>2026-03-07T23:57:34Z</time></trkpt><trkpt lat="33.984045" lon="133.6808282"><ele>728.7550469599008</ele><time>2026-03-07T23:58:04Z</time></trkpt><trkpt lat="33.9839519" lon="133.6810393"><ele>731.8005994806177</ele><time>2026-03-07T23:58:36Z</time></trkpt><trkpt lat="33.9838629" lon="133.6812479"><ele>734.7943358075719</ele><time>2026-03-07T23:59:03Z</time></trkpt><trkpt lat="33.9838034" lon="133.6814714"><ele>737.185343169488</ele><time>2026-03-07T23:59:48Z</time></trkpt><trkpt lat="33.983839" lon="133.6816907"><ele>738.4454099453575</ele><time>2026-03-08T00:00:12Z</time></trkpt><trkpt lat="33.9838105" lon="133.6819093"><ele>740.5489723049377</ele><time>2026-03-08T00:00:42Z</time></trkpt><trkpt lat="33.9836491" lon="133.6820267"><ele>744.6051567234254</ele><time>2026-03-08T00:01:09Z</time></trkpt><trkpt lat="33.9834682" lon="133.6820912"><ele>751.0015536941186</ele><time>2026-03-08T00:02:03Z</time></trkpt><trkpt lat="33.9836557" lon="133.6820781"><ele>752.8823323111061</ele><time>2026-03-08T00:07:00Z</time></trkpt><trkpt lat="33.9835402" lon="133.681909"><ele>753.8057910293684</ele><time>2026-03-08T00:08:39Z</time></trkpt><trkpt lat="33.983693" lon="133.6820289"><ele>751.1446574718578</ele><time>2026-03-08T00:09:39Z</time></trkpt><trkpt lat="33.983814" lon="133.6818675"><ele>749.6418641248598</ele><time>2026-03-08T00:09:58Z</time></trkpt><trkpt lat="33.9838722" lon="133.6816522"><ele>745.442939409208</ele><time>2026-03-08T00:10:55Z</time></trkpt><trkpt lat="33.983924" lon="133.6814425"><ele>740.8282378430991</ele><time>2026-03-08T00:11:13Z</time></trkpt><trkpt lat="33.9839574" lon="133.6812156"><ele>737.1693586250466</ele><time>2026-03-08T00:11:37Z</time></trkpt><trkpt lat="33.984019" lon="133.6809948"><ele>734.8198676053008</ele><time>2026-03-08T00:12:01Z</time></trkpt><trkpt lat="33.9840616" lon="133.6807703"><ele>733.0259148824694</ele><time>2026-03-08T00:12:22Z</time></trkpt><trkpt lat="33.9841441" lon="133.6805461"><ele>730.8558561478718</ele><time>2026-03-08T00:12:42Z</time></trkpt><trkpt lat="33.9842237" lon="133.6803451"><ele>727.7533542043475</ele><time>2026-03-08T00:13:02Z</time></trkpt><trkpt lat="33.9844129" lon="133.6802735"><ele>723.1324849152988</ele><time>2026-03-08T00:13:25Z</time></trkpt><trkpt lat="33.9845112" lon="133.6800916"><ele>717.289363422855</ele><time>2026-03-08T00:13:40Z</time></trkpt><trkpt lat="33.9843797" lon="133.6799173"><ele>713.230430159297</ele><time>2026-03-08T00:14:01Z</time></trkpt><trkpt lat="33.9842374" lon="133.6797719"><ele>711.0535550641868</ele><time>2026-03-08T00:14:16Z</time></trkpt><trkpt lat="33.984175" lon="133.6795494"><ele>709.0190629565645</ele><time>2026-03-08T00:14:34Z</time></trkpt><trkpt lat="33.9841514" lon="133.6792966"><ele>706.3597519944669</ele><time>2026-03-08T00:14:52Z</time></trkpt><trkpt lat="33.9841343" lon="133.6790772"><ele>703.6097811321214</ele><time>2026-03-08T00:15:09Z</time></trkpt><trkpt lat="33.9841493" lon="133.6788238"><ele>701.3300876956555</ele><time>2026-03-08T00:15:30Z</time></trkpt><trkpt lat="33.9841831" lon="133.6786107"><ele>699.1801344307873</ele><time>2026-03-08T00:15:45Z</time></trkpt><trkpt lat="33.9843702" lon="133.6785143"><ele>695.5874717236057</ele><time>2026-03-08T00:16:08Z</time></trkpt><trkpt lat="33.98446" lon="133.6783134"><ele>691.5451554408469</ele><time>2026-03-08T00:16:26Z</time></trkpt><trkpt lat="33.9846066" lon="133.6781732"><ele>686.830335503946</ele><time>2026-03-08T00:16:53Z</time></trkpt><trkpt lat="33.9847515" lon="133.6780079"><ele>682.4315966946191</ele><time>2026-03-08T00:17:11Z</time></trkpt><trkpt lat="33.9848744" lon="133.6777947"><ele>677.284426941893</ele><time>2026-03-08T00:17:28Z</time></trkpt><trkpt lat="33.9850495" lon="133.6777388"><ele>672.0234017894198</ele><time>2026-03-08T00:17:49Z</time></trkpt><trkpt lat="33.9851989" lon="133.677603"><ele>667.3417421259693</ele><time>2026-03-08T00:18:03Z</time></trkpt><trkpt lat="33.9853457" lon="133.6774631"><ele>662.9412871549195</ele><time>2026-03-08T00:18:17Z</time></trkpt><trkpt lat="33.9854405" lon="133.6772361"><ele>658.3346944411069</ele><time>2026-03-08T00:18:32Z</time></trkpt><trkpt lat="33.9855929" lon="133.6770862"><ele>653.4647727422938</ele><time>2026-03-08T00:18:46Z</time></trkpt><trkpt lat="33.9856513" lon="133.6768726"><ele>649.4665095462152</ele><time>2026-03-08T00:19:13Z</time></trkpt><trkpt lat="33.9855852" lon="133.676664"><ele>645.8144863431022</ele><time>2026-03-08T00:19:33Z</time></trkpt><trkpt lat="33.9857821" lon="133.6766505"><ele>642.8891005300198</ele><time>2026-03-08T00:19:54Z</time></trkpt><trkpt lat="33.9859683" lon="133.6767151"><ele>639.7109830054475</ele><time>2026-03-08T00:20:12Z</time></trkpt><trkpt lat="33.9861563" lon="133.6766942"><ele>637.3502221122154</ele><time>2026-03-08T00:20:42Z</time></trkpt><trkpt lat="33.9862843" lon="133.6765336"><ele>634.7919479953689</ele><time>2026-03-08T00:20:57Z</time></trkpt><trkpt lat="33.9864042" lon="133.6763422"><ele>633.2063410249825</ele><time>2026-03-08T00:21:18Z</time></trkpt><trkpt lat="33.9864076" lon="133.6761169"><ele>631.6672986145651</ele><time>2026-03-08T00:21:45Z</time></trkpt><trkpt lat="33.9863861" lon="133.6758675"><ele>631.6942309743495</ele><time>2026-03-08T00:22:12Z</time></trkpt><trkpt lat="33.9863362" lon="133.6756399"><ele>632.7721628327454</ele><time>2026-03-08T00:22:30Z</time></trkpt><trkpt lat="33.9862888" lon="133.6754229"><ele>635.2893604440147</ele><time>2026-03-08T00:22:48Z</time></trkpt><trkpt lat="33.9862002" lon="133.6752322"><ele>638.7315098162729</ele><time>2026-03-08T00:23:06Z</time></trkpt><trkpt lat="33.9860894" lon="133.6750496"><ele>642.5635301602034</ele><time>2026-03-08T00:23:32Z</time></trkpt><trkpt lat="33.9860199" lon="133.6748493"><ele>646.224206729424</ele><time>2026-03-08T00:23:50Z</time></trkpt><trkpt lat="33.9860425" lon="133.674597"><ele>649.4364365029674</ele><time>2026-03-08T00:24:10Z</time></trkpt><trkpt lat="33.9860363" lon="133.6743607"><ele>652.401156664923</ele><time>2026-03-08T00:24:28Z</time></trkpt><trkpt lat="33.9859385" lon="133.6741746"><ele>655.1386143890048</ele><time>2026-03-08T00:24:46Z</time></trkpt><trkpt lat="33.9857783" lon="133.6740351"><ele>658.0028449303287</ele><time>2026-03-08T00:25:04Z</time></trkpt><trkpt lat="33.9856167" lon="133.6738903"><ele>661.5870525141917</ele><time>2026-03-08T00:25:26Z</time></trkpt><trkpt lat="33.98545" lon="133.6737935"><ele>664.8476181038969</ele><time>2026-03-08T00:25:46Z</time></trkpt><trkpt lat="33.9852799" lon="133.6738989"><ele>667.3885965453591</ele><time>2026-03-08T00:26:03Z</time></trkpt><trkpt lat="33.9850946" lon="133.673952"><ele>668.6292726850821</ele><time>2026-03-08T00:26:20Z</time></trkpt><trkpt lat="33.9849171" lon="133.6739917"><ele>669.5694186109558</ele><time>2026-03-08T00:26:35Z</time></trkpt><trkpt lat="33.9847413" lon="133.6740934"><ele>671.1950444172563</ele><time>2026-03-08T00:26:53Z</time></trkpt><trkpt lat="33.984585" lon="133.6739652"><ele>672.7228604370124</ele><time>2026-03-08T00:27:07Z</time></trkpt><trkpt lat="33.9844898" lon="133.6737716"><ele>675.0366895157176</ele><time>2026-03-08T00:27:24Z</time></trkpt><trkpt lat="33.9843774" lon="133.6735833"><ele>676.5260668280567</ele><time>2026-03-08T00:27:48Z</time></trkpt><trkpt lat="33.9841969" lon="133.6734788"><ele>678.5439824172763</ele><time>2026-03-08T00:28:09Z</time></trkpt><trkpt lat="33.9842735" lon="133.6732663"><ele>681.140361986484</ele><time>2026-03-08T00:28:32Z</time></trkpt><trkpt lat="33.9843505" lon="133.6730501"><ele>683.813873715039</ele><time>2026-03-08T00:29:02Z</time></trkpt><trkpt lat="33.9842433" lon="133.6728708"><ele>686.2936556575601</ele><time>2026-03-08T00:29:17Z</time></trkpt><trkpt lat="33.9841279" lon="133.672651"><ele>687.8783455927381</ele><time>2026-03-08T00:29:37Z</time></trkpt><trkpt lat="33.983928" lon="133.6725822"><ele>689.8898084287845</ele><time>2026-03-08T00:29:58Z</time></trkpt><trkpt lat="33.9837454" lon="133.6726783"><ele>692.1295326832834</ele><time>2026-03-08T00:30:45Z</time></trkpt><trkpt lat="33.9835653" lon="133.6726516"><ele>693.8791819064428</ele><time>2026-03-08T00:31:03Z</time></trkpt><trkpt lat="33.9833863" lon="133.6726255"><ele>695.6938426706371</ele><time>2026-03-08T00:31:18Z</time></trkpt><trkpt lat="33.9832262" lon="133.6727659"><ele>697.4920030808024</ele><time>2026-03-08T00:31:36Z</time></trkpt><trkpt lat="33.9831934" lon="133.6729799"><ele>700.3905477635107</ele><time>2026-03-08T00:31:53Z</time></trkpt><trkpt lat="33.9829858" lon="133.6729718"><ele>702.8618451802249</ele><time>2026-03-08T00:32:11Z</time></trkpt><trkpt lat="33.9827873" lon="133.6730565"><ele>705.068662424744</ele><time>2026-03-08T00:32:31Z</time></trkpt><trkpt lat="33.9826696" lon="133.6728667"><ele>707.1718308459594</ele><time>2026-03-08T00:32:49Z</time></trkpt><trkpt lat="33.9824994" lon="133.6727531"><ele>709.0856840591256</ele><time>2026-03-08T00:33:07Z</time></trkpt><trkpt lat="33.982351" lon="133.6725739"><ele>711.3944215953001</ele><time>2026-03-08T00:33:27Z</time></trkpt><trkpt lat="33.9822824" lon="133.6723446"><ele>713.5225567905336</ele><time>2026-03-08T00:33:45Z</time></trkpt><trkpt lat="33.9822272" lon="133.6721369"><ele>715.6553504242546</ele><time>2026-03-08T00:34:03Z</time></trkpt><trkpt lat="33.9821464" lon="133.6719418"><ele>718.0258635555616</ele><time>2026-03-08T00:34:20Z</time></trkpt><trkpt lat="33.9821098" lon="133.6717149"><ele>720.2089258687632</ele><time>2026-03-08T00:34:40Z</time></trkpt><trkpt lat="33.9819901" lon="133.6715244"><ele>722.7580984349721</ele><time>2026-03-08T00:34:58Z</time></trkpt><trkpt lat="33.9818621" lon="133.671329"><ele>725.4538022278812</ele><time>2026-03-08T00:35:18Z</time></trkpt><trkpt lat="33.9817934" lon="133.6710935"><ele>728.4110279633754</ele><time>2026-03-08T00:35:39Z</time></trkpt><trkpt lat="33.9817905" lon="133.6708361"><ele>731.6525670222377</ele><time>2026-03-08T00:36:08Z</time></trkpt><trkpt lat="33.9817829" lon="133.6706051"><ele>733.8356966199171</ele><time>2026-03-08T00:36:26Z</time></trkpt><trkpt lat="33.9818016" lon="133.6703888"><ele>735.8724507198389</ele><time>2026-03-08T00:36:41Z</time></trkpt><trkpt lat="33.9818007" lon="133.6701656"><ele>737.3526643434712</ele><time>2026-03-08T00:37:05Z</time></trkpt><trkpt lat="33.9818698" lon="133.6699604"><ele>738.5785185030732</ele><time>2026-03-08T00:37:20Z</time></trkpt><trkpt lat="33.9820792" lon="133.6699264"><ele>739.4755595761844</ele><time>2026-03-08T00:37:38Z</time></trkpt><trkpt lat="33.9822439" lon="133.6698361"><ele>740.322099887297</ele><time>2026-03-08T00:37:58Z</time></trkpt><trkpt lat="33.9822065" lon="133.6695787"><ele>741.0782458804715</ele><time>2026-03-08T00:38:25Z</time></trkpt><trkpt lat="33.9821839" lon="133.6693534"><ele>742.2465435126927</ele><time>2026-03-08T00:39:04Z</time></trkpt><trkpt lat="33.9821511" lon="133.6691359"><ele>742.9277270099547</ele><time>2026-03-08T00:39:22Z</time></trkpt><trkpt lat="33.9820356" lon="133.6689494"><ele>744.4896159387098</ele><time>2026-03-08T00:39:39Z</time></trkpt><trkpt lat="33.9820868" lon="133.668718"><ele>745.1338343745041</ele><time>2026-03-08T00:39:59Z</time></trkpt><trkpt lat="33.9822664" lon="133.6685981"><ele>746.5905571793027</ele><time>2026-03-08T00:40:17Z</time></trkpt><trkpt lat="33.9822342" lon="133.6683806"><ele>748.4193993662396</ele><time>2026-03-08T00:40:37Z</time></trkpt><trkpt lat="33.9820408" lon="133.6683407"><ele>750.751150903761</ele><time>2026-03-08T00:40:57Z</time></trkpt><trkpt lat="33.9818467" lon="133.6683614"><ele>753.2493975241804</ele><time>2026-03-08T00:41:16Z</time></trkpt><trkpt lat="33.9816475" lon="133.6683287"><ele>755.9483712701749</ele><time>2026-03-08T00:41:36Z</time></trkpt><trkpt lat="33.9814937" lon="133.668169"><ele>758.519450810572</ele><time>2026-03-08T00:41:56Z</time></trkpt><trkpt lat="33.9815772" lon="133.6679716"><ele>760.2589285181961</ele><time>2026-03-08T00:42:16Z</time></trkpt><trkpt lat="33.9814924" lon="133.6677634"><ele>760.8999758547106</ele><time>2026-03-08T00:42:33Z</time></trkpt><trkpt lat="33.9813443" lon="133.6676234"><ele>760.9312742649898</ele><time>2026-03-08T00:42:50Z</time></trkpt><trkpt lat="33.9812174" lon="133.6674355"><ele>761.2067459005781</ele><time>2026-03-08T00:43:26Z</time></trkpt><trkpt lat="33.9812488" lon="133.667186"><ele>761.7746939893196</ele><time>2026-03-08T00:43:58Z</time></trkpt><trkpt lat="33.9811725" lon="133.6669549"><ele>763.0071438549026</ele><time>2026-03-08T00:44:19Z</time></trkpt><trkpt lat="33.9811502" lon="133.666703"><ele>765.1008190379212</ele><time>2026-03-08T00:44:37Z</time></trkpt><trkpt lat="33.9811109" lon="133.6664557"><ele>767.71174246356</ele><time>2026-03-08T00:44:55Z</time></trkpt><trkpt lat="33.9810674" lon="133.6662443"><ele>770.0556783295746</ele><time>2026-03-08T00:45:10Z</time></trkpt><trkpt lat="33.981016" lon="133.6660238"><ele>772.2389345057003</ele><time>2026-03-08T00:45:25Z</time></trkpt><trkpt lat="33.9808937" lon="133.6658221"><ele>773.8744658500503</ele><time>2026-03-08T00:45:43Z</time></trkpt><trkpt lat="33.9807692" lon="133.6656416"><ele>776.2436735886046</ele><time>2026-03-08T00:46:01Z</time></trkpt><trkpt lat="33.9806633" lon="133.6654456"><ele>778.2505941344051</ele><time>2026-03-08T00:46:19Z</time></trkpt><trkpt lat="33.9805471" lon="133.6652555"><ele>780.5975938735131</ele><time>2026-03-08T00:46:37Z</time></trkpt><trkpt lat="33.9804329" lon="133.6650803"><ele>782.7346051392539</ele><time>2026-03-08T00:46:55Z</time></trkpt><trkpt lat="33.9804347" lon="133.6648374"><ele>784.2919509260558</ele><time>2026-03-08T00:47:12Z</time></trkpt><trkpt lat="33.9805079" lon="133.66461"><ele>785.5980587384876</ele><time>2026-03-08T00:47:30Z</time></trkpt><trkpt lat="33.980546" lon="133.6643978"><ele>786.4006629723407</ele><time>2026-03-08T00:47:54Z</time></trkpt><trkpt lat="33.9803672" lon="133.6643078"><ele>787.1812832300612</ele><time>2026-03-08T00:48:24Z</time></trkpt><trkpt lat="33.9801803" lon="133.6643343"><ele>787.1217487695085</ele><time>2026-03-08T00:48:39Z</time></trkpt><trkpt lat="33.9799951" lon="133.6642964"><ele>786.7873053922003</ele><time>2026-03-08T00:48:54Z</time></trkpt><trkpt lat="33.9798478" lon="133.6641395"><ele>786.330462168441</ele><time>2026-03-08T00:49:09Z</time></trkpt><trkpt lat="33.979696" lon="133.6640047"><ele>786.697528425726</ele><time>2026-03-08T00:49:27Z</time></trkpt><trkpt lat="33.9794878" lon="133.6639209"><ele>787.6868122964042</ele><time>2026-03-08T00:50:03Z</time></trkpt><trkpt lat="33.9793052" lon="133.6638521"><ele>788.7745474389625</ele><time>2026-03-08T00:50:17Z</time></trkpt><trkpt lat="33.9791505" lon="133.663718"><ele>788.8890923166542</ele><time>2026-03-08T00:50:32Z</time></trkpt><trkpt lat="33.978981" lon="133.6635977"><ele>789.3815643457065</ele><time>2026-03-08T00:50:50Z</time></trkpt><trkpt lat="33.9787876" lon="133.6635557"><ele>790.3332153596328</ele><time>2026-03-08T00:51:05Z</time></trkpt><trkpt lat="33.9786188" lon="133.6634194"><ele>792.3073615270582</ele><time>2026-03-08T00:51:22Z</time></trkpt><trkpt lat="33.978444" lon="133.6632737"><ele>792.871124145459</ele><time>2026-03-08T00:51:40Z</time></trkpt><trkpt lat="33.9782964" lon="133.6630791"><ele>792.1759496549115</ele><time>2026-03-08T00:51:58Z</time></trkpt><trkpt lat="33.9781533" lon="133.6629161"><ele>790.2442732502517</ele><time>2026-03-08T00:52:12Z</time></trkpt><trkpt lat="33.9780729" lon="133.662717"><ele>788.4229188949304</ele><time>2026-03-08T00:52:24Z</time></trkpt><trkpt lat="33.9780521" lon="133.6624671"><ele>787.5120032090344</ele><time>2026-03-08T00:52:42Z</time></trkpt></trkseg></trk></gpx>