<?xml version='1.0' encoding='UTF-8'?><gpx creator="Yama Museum Summit Candidate Generator" xsi:schemaLocation="http://www.topografix.com/GPX/1/1 http://www.topografix.com/GPX/1/1/gpx.xsd" version="1.1" xmlns="http://www.topografix.com/GPX/1/1" xmlns:xsi="http://www.w3.org/2001/XMLSchema-instance" xmlns:yama="https://museum-yama-data.moukaeritai.work/ns/yama-data/0.1"><metadata><bounds maxlat="33.2014412" maxlon="132.6373748" minlat="33.1812975" minlon="132.602826"/><name>鬼ヶ城山・大久保山・八面山・三本杭・横ノ森・小屋ヶ森・毛山</name><extensions><yama:source_gpx_basename>yamap_2022-04-08_09_33.gpx</yama:source_gpx_basename><yama:source_gpx_relative_path>data/01_raw/gpx/2026-05-12/yamap_2022-04-08_09_33.gpx</yama:source_gpx_relative_path><yama:detection_parameters>window=5,radius=10,min_prominence=30,merge=100</yama:detection_parameters></extensions></metadata><wpt lat="33.1905947" lon="132.6094331"><ele>1155.4333072605007</ele><time>2022-04-08T00:54:40Z</time><name>summit-candidate:7ceb76663c2bb81b</name><desc>Summit candidate detected at elevation 1155.4333072605007m with prominence 100.21873922444047m.</desc><sym>Summit Candidate</sym><extensions><yama:source_trackpoint_index>39</yama:source_trackpoint_index><yama:valid_elevation_index>39</yama:valid_elevation_index><yama:smoothed_ele>1154.694432589434</yama:smoothed_ele><yama:prominence>100.21873922444047</yama:prominence><yama:detection_method>local_maxima_with_prominence</yama:detection_method><yama:detection_parameters>window=5,radius=10,min_prominence=30,merge=100</yama:detection_parameters><yama:candidate_status>unresolved</yama:candidate_status></extensions></wpt>
  <wpt lat="33.1812975" lon="132.6194355"><ele>1167.5519282683324</ele><time>2022-04-08T01:34:13Z</time><name>summit-candidate:27c1036d4aa2230e</name><desc>Summit candidate detected at elevation 1167.5519282683324m with prominence 127.99264956473075m.</desc><sym>Summit Candidate</sym><extensions><yama:source_trackpoint_index>111</yama:source_trackpoint_index><yama:valid_elevation_index>111</yama:valid_elevation_index><yama:smoothed_ele>1165.6822239228245</yama:smoothed_ele><yama:prominence>127.99264956473075</yama:prominence><yama:detection_method>local_maxima_with_prominence</yama:detection_method><yama:detection_parameters>window=5,radius=10,min_prominence=30,merge=100</yama:detection_parameters><yama:candidate_status>unresolved</yama:candidate_status></extensions></wpt>
  <wpt lat="33.1878433" lon="132.6355525"><ele>1222.4936499541386</ele><time>2022-04-08T02:26:01Z</time><name>summit-candidate:babbcdf7bbd23463</name><desc>Summit candidate detected at elevation 1222.4936499541386m with prominence 199.59591833705952m.</desc><sym>Summit Candidate</sym><extensions><yama:source_trackpoint_index>205</yama:source_trackpoint_index><yama:valid_elevation_index>205</yama:valid_elevation_index><yama:smoothed_ele>1219.280039532869</yama:smoothed_ele><yama:prominence>199.59591833705952</yama:prominence><yama:detection_method>local_maxima_with_prominence</yama:detection_method><yama:detection_parameters>window=5,radius=10,min_prominence=30,merge=100</yama:detection_parameters><yama:candidate_status>unresolved</yama:candidate_status></extensions></wpt>
  <wpt lat="33.1848651" lon="132.6159575"><ele>1162.2731411431716</ele><time>2022-04-08T04:03:22Z</time><name>summit-candidate:91ebf1d99654d5b2</name><desc>Summit candidate detected at elevation 1162.2731411431716m with prominence 112.70646127274085m.</desc><sym>Summit Candidate</sym><extensions><yama:source_trackpoint_index>369</yama:source_trackpoint_index><yama:valid_elevation_index>369</yama:valid_elevation_index><yama:smoothed_ele>1159.4103176788672</yama:smoothed_ele><yama:prominence>112.70646127274085</yama:prominence><yama:detection_method>local_maxima_with_prominence</yama:detection_method><yama:detection_parameters>window=5,radius=10,min_prominence=30,merge=100</yama:detection_parameters><yama:candidate_status>unresolved</yama:candidate_status></extensions></wpt>
  <wpt lat="33.2001424" lon="132.6082692"><ele>1090.3964691990484</ele><time>2022-04-08T05:17:22Z</time><name>summit-candidate:40068653b28bad40</name><desc>Summit candidate detected at elevation 1090.3964691990484m with prominence 73.97412148025501m.</desc><sym>Summit Candidate</sym><extensions><yama:source_trackpoint_index>533</yama:source_trackpoint_index><yama:valid_elevation_index>533</yama:valid_elevation_index><yama:smoothed_ele>1089.6164763512995</yama:smoothed_ele><yama:prominence>73.97412148025501</yama:prominence><yama:detection_method>local_maxima_with_prominence</yama:detection_method><yama:detection_parameters>window=5,radius=10,min_prominence=30,merge=100</yama:detection_parameters><yama:candidate_status>unresolved</yama:candidate_status></extensions></wpt>
  <trk><name>鬼ヶ城山・大久保山・八面山・三本杭・横ノ森・小屋ヶ森・毛山</name><number>1</number><trkseg><trkpt lat="33.1967329" lon="132.6088843"><ele>1020.7771063141379</ele><time>2022-04-08T00:33:28Z</time></trkpt><trkpt lat="33.1966656" lon="132.6090901"><ele>1018.7290159051479</ele><time>2022-04-08T00:35:44Z</time></trkpt><trkpt lat="33.1964812" lon="132.6091147"><ele>1019.5622849889165</ele><time>2022-04-08T00:36:01Z</time></trkpt><trkpt lat="33.1963102" lon="132.6091883"><ele>1019.6680775750361</ele><time>2022-04-08T00:36:20Z</time></trkpt><trkpt lat="33.1961436" lon="132.6092709"><ele>1023.2995887098168</ele><time>2022-04-08T00:36:35Z</time></trkpt><trkpt lat="33.1959785" lon="132.6093711"><ele>1025.9820092499215</ele><time>2022-04-08T00:36:50Z</time></trkpt><trkpt lat="33.1958293" lon="132.6094947"><ele>1028.9171123063345</ele><time>2022-04-08T00:37:10Z</time></trkpt><trkpt lat="33.1956521" lon="132.6095374"><ele>1029.6374744567975</ele><time>2022-04-08T00:37:23Z</time></trkpt><trkpt lat="33.195467" lon="132.6095855"><ele>1029.430405849725</ele><time>2022-04-08T00:37:38Z</time></trkpt><trkpt lat="33.1952867" lon="132.6096049"><ele>1029.4223538931328</ele><time>2022-04-08T00:37:58Z</time></trkpt><trkpt lat="33.1951016" lon="132.6095768"><ele>1029.6595022431407</ele><time>2022-04-08T00:38:13Z</time></trkpt><trkpt lat="33.1949207" lon="132.6095469"><ele>1028.9905698682471</ele><time>2022-04-08T00:38:31Z</time></trkpt><trkpt lat="33.194777" lon="132.6094169"><ele>1032.120565198102</ele><time>2022-04-08T00:39:01Z</time></trkpt><trkpt lat="33.1947021" lon="132.6092129"><ele>1035.8584593721996</ele><time>2022-04-08T00:39:14Z</time></trkpt><trkpt lat="33.1946012" lon="132.6094003"><ele>1042.5100372520712</ele><time>2022-04-08T00:40:44Z</time></trkpt><trkpt lat="33.1944203" lon="132.6094483"><ele>1046.5396268044833</ele><time>2022-04-08T00:41:15Z</time></trkpt><trkpt lat="33.194265" lon="132.6095691"><ele>1050.5157756361614</ele><time>2022-04-08T00:42:51Z</time></trkpt><trkpt lat="33.1940915" lon="132.6096335"><ele>1052.8179907179376</ele><time>2022-04-08T00:43:02Z</time></trkpt><trkpt lat="33.1939162" lon="132.6096918"><ele>1054.229860692188</ele><time>2022-04-08T00:43:31Z</time></trkpt><trkpt lat="33.1937337" lon="132.609737"><ele>1055.5971527773697</ele><time>2022-04-08T00:44:01Z</time></trkpt><trkpt lat="33.193552" lon="132.6097882"><ele>1057.844395156806</ele><time>2022-04-08T00:44:09Z</time></trkpt><trkpt lat="33.1933732" lon="132.6097468"><ele>1062.3359044672904</ele><time>2022-04-08T00:44:35Z</time></trkpt><trkpt lat="33.1932052" lon="132.6098316"><ele>1068.4948976449514</ele><time>2022-04-08T00:44:59Z</time></trkpt><trkpt lat="33.1930208" lon="132.6098531"><ele>1074.3200724479702</ele><time>2022-04-08T00:45:15Z</time></trkpt><trkpt lat="33.1928623" lon="132.6099587"><ele>1080.9396745250488</ele><time>2022-04-08T00:47:10Z</time></trkpt><trkpt lat="33.1927183" lon="132.6100899"><ele>1088.5531396616261</ele><time>2022-04-08T00:48:09Z</time></trkpt><trkpt lat="33.1925706" lon="132.6102193"><ele>1097.7640515638868</ele><time>2022-04-08T00:48:29Z</time></trkpt><trkpt lat="33.1924438" lon="132.6103739"><ele>1108.1893016488928</ele><time>2022-04-08T00:49:36Z</time></trkpt><trkpt lat="33.1922659" lon="132.6104115"><ele>1118.784515102215</ele><time>2022-04-08T00:50:22Z</time></trkpt><trkpt lat="33.1920939" lon="132.6104768"><ele>1128.2079907291302</ele><time>2022-04-08T00:50:50Z</time></trkpt><trkpt lat="33.191914" lon="132.6105207"><ele>1134.532437235144</ele><time>2022-04-08T00:51:42Z</time></trkpt><trkpt lat="33.1917291" lon="132.6104844"><ele>1138.2690800074142</ele><time>2022-04-08T00:51:59Z</time></trkpt><trkpt lat="33.1915813" lon="132.6103603"><ele>1141.480094130506</ele><time>2022-04-08T00:52:16Z</time></trkpt><trkpt lat="33.1914025" lon="132.6102872"><ele>1143.449883816257</ele><time>2022-04-08T00:52:32Z</time></trkpt><trkpt lat="33.1912801" lon="132.6101241"><ele>1146.040906229764</ele><time>2022-04-08T00:52:47Z</time></trkpt><trkpt lat="33.1911984" lon="132.6099309"><ele>1148.9158067298918</ele><time>2022-04-08T00:53:07Z</time></trkpt><trkpt lat="33.1910474" lon="132.6098113"><ele>1152.437811974975</ele><time>2022-04-08T00:53:36Z</time></trkpt><trkpt lat="33.1909143" lon="132.6096617"><ele>1154.77489022736</ele><time>2022-04-08T00:54:00Z</time></trkpt><trkpt lat="33.1907661" lon="132.6095307"><ele>1155.4586704556284</ele><time>2022-04-08T00:54:23Z</time></trkpt><trkpt lat="33.1905947" lon="132.6094331"><ele>1155.4333072605007</ele><time>2022-04-08T00:54:40Z</time></trkpt><trkpt lat="33.1904236" lon="132.6093569"><ele>1154.6800514316099</ele><time>2022-04-08T00:54:54Z</time></trkpt><trkpt lat="33.1902587" lon="132.6094685"><ele>1153.1252435720703</ele><time>2022-04-08T00:57:05Z</time></trkpt><trkpt lat="33.1901011" lon="132.6095845"><ele>1148.3791191529929</ele><time>2022-04-08T00:57:35Z</time></trkpt><trkpt lat="33.1899358" lon="132.6096723"><ele>1142.1353637378268</ele><time>2022-04-08T00:57:52Z</time></trkpt><trkpt lat="33.1897773" lon="132.6097888"><ele>1133.2388903234087</ele><time>2022-04-08T00:58:13Z</time></trkpt><trkpt lat="33.1896884" lon="132.6099837"><ele>1128.6042111195627</ele><time>2022-04-08T01:00:22Z</time></trkpt><trkpt lat="33.1895045" lon="132.6100579"><ele>1123.8537113115287</ele><time>2022-04-08T01:00:37Z</time></trkpt><trkpt lat="33.1893404" lon="132.6101471"><ele>1121.800059029015</ele><time>2022-04-08T01:00:53Z</time></trkpt><trkpt lat="33.1891611" lon="132.6101241"><ele>1115.26829756328</ele><time>2022-04-08T01:01:14Z</time></trkpt><trkpt lat="33.1889838" lon="132.6101663"><ele>1107.2828748206541</ele><time>2022-04-08T01:01:45Z</time></trkpt><trkpt lat="33.1888079" lon="132.610216"><ele>1098.251349095792</ele><time>2022-04-08T01:02:05Z</time></trkpt><trkpt lat="33.1886639" lon="132.6103609"><ele>1089.8738371844208</ele><time>2022-04-08T01:02:27Z</time></trkpt><trkpt lat="33.1884725" lon="132.6103942"><ele>1084.131736029005</ele><time>2022-04-08T01:02:43Z</time></trkpt><trkpt lat="33.1882873" lon="132.6104752"><ele>1080.4846264885718</ele><time>2022-04-08T01:02:58Z</time></trkpt><trkpt lat="33.1881889" lon="132.6106662"><ele>1077.1350945838428</ele><time>2022-04-08T01:03:56Z</time></trkpt><trkpt lat="33.1880434" lon="132.6108024"><ele>1074.9479019806574</ele><time>2022-04-08T01:04:12Z</time></trkpt><trkpt lat="33.1879164" lon="132.6109635"><ele>1073.1010567037567</ele><time>2022-04-08T01:04:26Z</time></trkpt><trkpt lat="33.1878365" lon="132.6111563"><ele>1071.830096483727</ele><time>2022-04-08T01:04:42Z</time></trkpt><trkpt lat="33.1876873" lon="132.6112921"><ele>1068.627661234151</ele><time>2022-04-08T01:04:57Z</time></trkpt><trkpt lat="33.187618" lon="132.6114921"><ele>1064.3015765114526</ele><time>2022-04-08T01:05:15Z</time></trkpt><trkpt lat="33.187567" lon="132.611698"><ele>1059.42983991428</ele><time>2022-04-08T01:05:33Z</time></trkpt><trkpt lat="33.1874882" lon="132.6118921"><ele>1056.2530265357548</ele><time>2022-04-08T01:05:52Z</time></trkpt><trkpt lat="33.1874235" lon="132.612096"><ele>1055.4303763346227</ele><time>2022-04-08T01:06:16Z</time></trkpt><trkpt lat="33.1872571" lon="132.612187"><ele>1055.377951014558</ele><time>2022-04-08T01:06:30Z</time></trkpt><trkpt lat="33.187094" lon="132.6122844"><ele>1054.9535958259887</ele><time>2022-04-08T01:06:45Z</time></trkpt><trkpt lat="33.1869199" lon="132.6123596"><ele>1053.2432331098473</ele><time>2022-04-08T01:06:59Z</time></trkpt><trkpt lat="33.1867508" lon="132.6124406"><ele>1053.3733105399508</ele><time>2022-04-08T01:08:20Z</time></trkpt><trkpt lat="33.1866461" lon="132.6126176"><ele>1056.1335791866318</ele><time>2022-04-08T01:08:43Z</time></trkpt><trkpt lat="33.1866273" lon="132.6128311"><ele>1062.2321405628745</ele><time>2022-04-08T01:10:39Z</time></trkpt><trkpt lat="33.1864893" lon="132.6129769"><ele>1068.7846447384152</ele><time>2022-04-08T01:11:01Z</time></trkpt><trkpt lat="33.1864136" lon="132.6131736"><ele>1073.9417625166639</ele><time>2022-04-08T01:11:15Z</time></trkpt><trkpt lat="33.1863713" lon="132.6133917"><ele>1076.9977116891116</ele><time>2022-04-08T01:11:27Z</time></trkpt><trkpt lat="33.1862385" lon="132.6135408"><ele>1079.7763599910793</ele><time>2022-04-08T01:11:51Z</time></trkpt><trkpt lat="33.1861514" lon="132.6137352"><ele>1083.131998936028</ele><time>2022-04-08T01:12:26Z</time></trkpt><trkpt lat="33.1860091" lon="132.6138695"><ele>1085.9967984454827</ele><time>2022-04-08T01:13:00Z</time></trkpt><trkpt lat="33.1858264" lon="132.6138784"><ele>1088.7298590535593</ele><time>2022-04-08T01:13:13Z</time></trkpt><trkpt lat="33.1856952" lon="132.6140404"><ele>1090.4876250719042</ele><time>2022-04-08T01:13:41Z</time></trkpt><trkpt lat="33.1855961" lon="132.6142265"><ele>1093.2589742999287</ele><time>2022-04-08T01:14:06Z</time></trkpt><trkpt lat="33.1854544" lon="132.6143661"><ele>1098.7194642569357</ele><time>2022-04-08T01:14:51Z</time></trkpt><trkpt lat="33.1853308" lon="132.6145429"><ele>1104.6430366335592</ele><time>2022-04-08T01:15:12Z</time></trkpt><trkpt lat="33.1853596" lon="132.6147554"><ele>1114.6159547948378</ele><time>2022-04-08T01:16:27Z</time></trkpt><trkpt lat="33.185252" lon="132.6149358"><ele>1121.935780225769</ele><time>2022-04-08T01:17:08Z</time></trkpt><trkpt lat="33.1851799" lon="132.615135"><ele>1131.8694469338636</ele><time>2022-04-08T01:17:44Z</time></trkpt><trkpt lat="33.185076" lon="132.6155294"><ele>1139.4772917392872</ele><time>2022-04-08T01:18:38Z</time></trkpt><trkpt lat="33.1849727" lon="132.6157135"><ele>1148.5143528690958</ele><time>2022-04-08T01:19:02Z</time></trkpt><trkpt lat="33.1848202" lon="132.6158533"><ele>1156.8610933434186</ele><time>2022-04-08T01:19:51Z</time></trkpt><trkpt lat="33.1847412" lon="132.6160467"><ele>1161.6757493086604</ele><time>2022-04-08T01:20:51Z</time></trkpt><trkpt lat="33.1845822" lon="132.6161487"><ele>1161.8702282533752</ele><time>2022-04-08T01:24:06Z</time></trkpt><trkpt lat="33.1843981" lon="132.6162409"><ele>1157.6473668146375</ele><time>2022-04-08T01:24:35Z</time></trkpt><trkpt lat="33.1842256" lon="132.6163382"><ele>1152.6042902926945</ele><time>2022-04-08T01:24:43Z</time></trkpt><trkpt lat="33.1840445" lon="132.6163343"><ele>1149.7020909332898</ele><time>2022-04-08T01:24:56Z</time></trkpt><trkpt lat="33.1838866" lon="132.6164528"><ele>1146.9244614118095</ele><time>2022-04-08T01:25:14Z</time></trkpt><trkpt lat="33.1837147" lon="132.6165324"><ele>1145.358141226178</ele><time>2022-04-08T01:25:31Z</time></trkpt><trkpt lat="33.1835766" lon="132.6166813"><ele>1144.387774158998</ele><time>2022-04-08T01:25:48Z</time></trkpt><trkpt lat="33.1833994" lon="132.6167932"><ele>1143.7788569116199</ele><time>2022-04-08T01:26:14Z</time></trkpt><trkpt lat="33.1832444" lon="132.6169084"><ele>1142.8134024206545</ele><time>2022-04-08T01:26:42Z</time></trkpt><trkpt lat="33.1830458" lon="132.6169809"><ele>1146.652334988252</ele><time>2022-04-08T01:26:52Z</time></trkpt><trkpt lat="33.182872" lon="132.6170484"><ele>1146.5654254615063</ele><time>2022-04-08T01:27:02Z</time></trkpt><trkpt lat="33.1827115" lon="132.6171544"><ele>1147.4087331672526</ele><time>2022-04-08T01:27:18Z</time></trkpt><trkpt lat="33.18261" lon="132.6173489"><ele>1142.9330895596902</ele><time>2022-04-08T01:27:40Z</time></trkpt><trkpt lat="33.1824744" lon="132.6174936"><ele>1143.924732618344</ele><time>2022-04-08T01:28:20Z</time></trkpt><trkpt lat="33.1823594" lon="132.6176683"><ele>1144.3213796137081</ele><time>2022-04-08T01:28:33Z</time></trkpt><trkpt lat="33.1822474" lon="132.6178445"><ele>1144.1901515417978</ele><time>2022-04-08T01:28:45Z</time></trkpt><trkpt lat="33.1821317" lon="132.6180104"><ele>1143.9966262352002</ele><time>2022-04-08T01:28:57Z</time></trkpt><trkpt lat="33.1820356" lon="132.6181944"><ele>1143.5743790953818</ele><time>2022-04-08T01:29:13Z</time></trkpt><trkpt lat="33.1819358" lon="132.6183768"><ele>1145.7932151367231</ele><time>2022-04-08T01:32:08Z</time></trkpt><trkpt lat="33.1818425" lon="132.6185637"><ele>1147.97582244697</ele><time>2022-04-08T01:32:23Z</time></trkpt><trkpt lat="33.1817513" lon="132.6187605"><ele>1151.0608484939414</ele><time>2022-04-08T01:32:41Z</time></trkpt><trkpt lat="33.1816317" lon="132.6189307"><ele>1156.3855029828212</ele><time>2022-04-08T01:33:00Z</time></trkpt><trkpt lat="33.1815524" lon="132.6191292"><ele>1160.57675825097</ele><time>2022-04-08T01:33:30Z</time></trkpt><trkpt lat="33.1814128" lon="132.619266"><ele>1165.561636199658</ele><time>2022-04-08T01:33:57Z</time></trkpt><trkpt lat="33.1812975" lon="132.6194355"><ele>1167.5519282683324</ele><time>2022-04-08T01:34:13Z</time></trkpt><trkpt lat="33.1813404" lon="132.6196466"><ele>1169.1090911116587</ele><time>2022-04-08T01:35:21Z</time></trkpt><trkpt lat="33.1814329" lon="132.6198394"><ele>1165.6117057835024</ele><time>2022-04-08T01:36:06Z</time></trkpt><trkpt lat="33.1815777" lon="132.6199769"><ele>1159.0322801703746</ele><time>2022-04-08T01:36:26Z</time></trkpt><trkpt lat="33.1817396" lon="132.6200802"><ele>1151.5240604271864</ele><time>2022-04-08T01:36:43Z</time></trkpt><trkpt lat="33.1818268" lon="132.6202827"><ele>1144.5305785934968</ele><time>2022-04-08T01:37:01Z</time></trkpt><trkpt lat="33.1819557" lon="132.6204392"><ele>1137.25910983572</ele><time>2022-04-08T01:37:19Z</time></trkpt><trkpt lat="33.1820656" lon="132.6206159"><ele>1129.2927610639344</ele><time>2022-04-08T01:37:40Z</time></trkpt><trkpt lat="33.1821853" lon="132.6207911"><ele>1122.2008271476368</ele><time>2022-04-08T01:37:58Z</time></trkpt><trkpt lat="33.1821976" lon="132.6210135"><ele>1115.1764913541308</ele><time>2022-04-08T01:38:17Z</time></trkpt><trkpt lat="33.1822512" lon="132.6212191"><ele>1108.914389058813</ele><time>2022-04-08T01:38:39Z</time></trkpt><trkpt lat="33.1823568" lon="132.621394"><ele>1103.1212482350566</ele><time>2022-04-08T01:38:58Z</time></trkpt><trkpt lat="33.1824509" lon="132.6215782"><ele>1098.2874393069535</ele><time>2022-04-08T01:39:28Z</time></trkpt><trkpt lat="33.1825188" lon="132.6217783"><ele>1095.4296606444607</ele><time>2022-04-08T01:39:42Z</time></trkpt><trkpt lat="33.182525" lon="132.6219965"><ele>1093.7639736412664</ele><time>2022-04-08T01:39:59Z</time></trkpt><trkpt lat="33.1826163" lon="132.6221919"><ele>1092.8570816152853</ele><time>2022-04-08T01:40:14Z</time></trkpt><trkpt lat="33.1827024" lon="132.6223819"><ele>1091.7075289566262</ele><time>2022-04-08T01:40:30Z</time></trkpt><trkpt lat="33.1827737" lon="132.622584"><ele>1091.871787097463</ele><time>2022-04-08T01:40:46Z</time></trkpt><trkpt lat="33.182802" lon="132.6228017"><ele>1092.4229360199486</ele><time>2022-04-08T01:41:28Z</time></trkpt><trkpt lat="33.1828986" lon="132.6229835"><ele>1092.7359991751473</ele><time>2022-04-08T01:41:41Z</time></trkpt><trkpt lat="33.1830013" lon="132.6231666"><ele>1092.240348785512</ele><time>2022-04-08T01:41:55Z</time></trkpt><trkpt lat="33.1830761" lon="132.6233642"><ele>1091.1269692538756</ele><time>2022-04-08T01:42:11Z</time></trkpt><trkpt lat="33.1831132" lon="132.6235756"><ele>1089.8229675789792</ele><time>2022-04-08T01:42:28Z</time></trkpt><trkpt lat="33.1832443" lon="132.6237294"><ele>1086.8716064446764</ele><time>2022-04-08T01:42:58Z</time></trkpt><trkpt lat="33.1833615" lon="132.6239027"><ele>1084.0956536874853</ele><time>2022-04-08T01:43:11Z</time></trkpt><trkpt lat="33.1834432" lon="132.6240957"><ele>1082.2075124055298</ele><time>2022-04-08T01:44:39Z</time></trkpt><trkpt lat="33.1834983" lon="132.6243033"><ele>1082.4191350255776</ele><time>2022-04-08T01:44:51Z</time></trkpt><trkpt lat="33.183602" lon="132.6244837"><ele>1083.5573307368663</ele><time>2022-04-08T01:45:04Z</time></trkpt><trkpt lat="33.1836762" lon="132.6246942"><ele>1084.378179197959</ele><time>2022-04-08T01:45:18Z</time></trkpt><trkpt lat="33.1837264" lon="132.6249035"><ele>1084.127275366366</ele><time>2022-04-08T01:45:33Z</time></trkpt><trkpt lat="33.183747" lon="132.6251207"><ele>1083.7324964220534</ele><time>2022-04-08T01:45:52Z</time></trkpt><trkpt lat="33.1837983" lon="132.6253329"><ele>1082.3975504596522</ele><time>2022-04-08T01:46:06Z</time></trkpt><trkpt lat="33.183877" lon="132.6255342"><ele>1081.1252770245662</ele><time>2022-04-08T01:46:24Z</time></trkpt><trkpt lat="33.1839304" lon="132.6257469"><ele>1078.6905723386244</ele><time>2022-04-08T01:46:42Z</time></trkpt><trkpt lat="33.183986" lon="132.6259531"><ele>1076.8320090521886</ele><time>2022-04-08T01:47:09Z</time></trkpt><trkpt lat="33.1839467" lon="132.6261665"><ele>1080.7678989970968</ele><time>2022-04-08T01:47:30Z</time></trkpt><trkpt lat="33.183988" lon="132.6263853"><ele>1080.3456975043107</ele><time>2022-04-08T01:47:57Z</time></trkpt><trkpt lat="33.1840478" lon="132.6266067"><ele>1080.1977099641092</ele><time>2022-04-08T01:48:10Z</time></trkpt><trkpt lat="33.1841516" lon="132.626786"><ele>1074.2707742931261</ele><time>2022-04-08T01:48:23Z</time></trkpt><trkpt lat="33.1842392" lon="132.6269754"><ele>1073.0803921135073</ele><time>2022-04-08T01:48:40Z</time></trkpt><trkpt lat="33.1843167" lon="132.6271718"><ele>1070.4579781459495</ele><time>2022-04-08T01:48:58Z</time></trkpt><trkpt lat="33.1844819" lon="132.6272721"><ele>1065.0236992384007</ele><time>2022-04-08T01:49:16Z</time></trkpt><trkpt lat="33.184518" lon="132.6274831"><ele>1061.2240824988994</ele><time>2022-04-08T01:49:44Z</time></trkpt><trkpt lat="33.184566" lon="132.6276915"><ele>1062.718742203606</ele><time>2022-04-08T01:49:59Z</time></trkpt><trkpt lat="33.1846625" lon="132.6278801"><ele>1068.097973075223</ele><time>2022-04-08T01:50:15Z</time></trkpt><trkpt lat="33.1846773" lon="132.628106"><ele>1072.19198256063</ele><time>2022-04-08T01:53:00Z</time></trkpt><trkpt lat="33.1847474" lon="132.6283037"><ele>1073.105301521117</ele><time>2022-04-08T01:53:25Z</time></trkpt><trkpt lat="33.1847294" lon="132.6285295"><ele>1074.1838278854627</ele><time>2022-04-08T01:53:36Z</time></trkpt><trkpt lat="33.1847303" lon="132.6287468"><ele>1074.0003400246549</ele><time>2022-04-08T01:53:48Z</time></trkpt><trkpt lat="33.184836" lon="132.6289311"><ele>1072.1851739769527</ele><time>2022-04-08T01:54:05Z</time></trkpt><trkpt lat="33.1849584" lon="132.6290948"><ele>1067.9617530616727</ele><time>2022-04-08T01:54:19Z</time></trkpt><trkpt lat="33.1849144" lon="132.629307"><ele>1064.771339586441</ele><time>2022-04-08T01:54:37Z</time></trkpt><trkpt lat="33.1849726" lon="132.6295121"><ele>1061.4823436165095</ele><time>2022-04-08T01:54:58Z</time></trkpt><trkpt lat="33.185062" lon="132.629703"><ele>1058.3702754048911</ele><time>2022-04-08T01:55:11Z</time></trkpt><trkpt lat="33.1851382" lon="132.6298975"><ele>1051.9327305428098</ele><time>2022-04-08T01:56:00Z</time></trkpt><trkpt lat="33.1851171" lon="132.6301133"><ele>1045.63255573229</ele><time>2022-04-08T01:56:16Z</time></trkpt><trkpt lat="33.1851041" lon="132.6303439"><ele>1039.9931890962935</ele><time>2022-04-08T01:56:31Z</time></trkpt><trkpt lat="33.185154" lon="132.6305519"><ele>1037.6956102277925</ele><time>2022-04-08T01:56:55Z</time></trkpt><trkpt lat="33.1851417" lon="132.6307683"><ele>1035.9399634040258</ele><time>2022-04-08T01:59:44Z</time></trkpt><trkpt lat="33.1851312" lon="132.6309904"><ele>1036.1920032827868</ele><time>2022-04-08T02:00:15Z</time></trkpt><trkpt lat="33.1853106" lon="132.6310283"><ele>1038.62710577957</ele><time>2022-04-08T02:00:58Z</time></trkpt><trkpt lat="33.1852471" lon="132.6312302"><ele>1042.2774648747247</ele><time>2022-04-08T02:01:13Z</time></trkpt><trkpt lat="33.1853869" lon="132.6313663"><ele>1047.2276980632023</ele><time>2022-04-08T02:01:58Z</time></trkpt><trkpt lat="33.1854377" lon="132.6315789"><ele>1051.1135095272446</ele><time>2022-04-08T02:02:12Z</time></trkpt><trkpt lat="33.1854704" lon="132.6317921"><ele>1054.5118421411141</ele><time>2022-04-08T02:02:26Z</time></trkpt><trkpt lat="33.1854885" lon="132.6320094"><ele>1056.1895478548556</ele><time>2022-04-08T02:02:43Z</time></trkpt><trkpt lat="33.1855746" lon="132.6322041"><ele>1057.3673394326054</ele><time>2022-04-08T02:03:00Z</time></trkpt><trkpt lat="33.1856219" lon="132.6324119"><ele>1059.0779446797972</ele><time>2022-04-08T02:03:32Z</time></trkpt><trkpt lat="33.1856498" lon="132.632633"><ele>1058.69052405792</ele><time>2022-04-08T02:03:44Z</time></trkpt><trkpt lat="33.1856521" lon="132.6328545"><ele>1061.6042297895792</ele><time>2022-04-08T02:03:59Z</time></trkpt><trkpt lat="33.1857164" lon="132.6330554"><ele>1065.282390895634</ele><time>2022-04-08T02:04:43Z</time></trkpt><trkpt lat="33.1857488" lon="132.6332757"><ele>1075.6366751688277</ele><time>2022-04-08T02:05:40Z</time></trkpt><trkpt lat="33.1858343" lon="132.633467"><ele>1081.4578561426324</ele><time>2022-04-08T02:06:14Z</time></trkpt><trkpt lat="33.1859332" lon="132.633656"><ele>1089.2510422678015</ele><time>2022-04-08T02:06:58Z</time></trkpt><trkpt lat="33.186022" lon="132.6338465"><ele>1092.66508949153</ele><time>2022-04-08T02:07:13Z</time></trkpt><trkpt lat="33.1860689" lon="132.6340597"><ele>1097.4953836575742</ele><time>2022-04-08T02:07:27Z</time></trkpt><trkpt lat="33.1861214" lon="132.6342771"><ele>1101.7800371080623</ele><time>2022-04-08T02:08:07Z</time></trkpt><trkpt lat="33.1861203" lon="132.6344919"><ele>1110.2159415739554</ele><time>2022-04-08T02:09:23Z</time></trkpt><trkpt lat="33.1861831" lon="132.6346942"><ele>1120.9073009657957</ele><time>2022-04-08T02:10:14Z</time></trkpt><trkpt lat="33.1861785" lon="132.6349178"><ele>1134.973176399468</ele><time>2022-04-08T02:12:08Z</time></trkpt><trkpt lat="33.1862371" lon="132.6351245"><ele>1145.4606031503424</ele><time>2022-04-08T02:12:19Z</time></trkpt><trkpt lat="33.1863307" lon="132.6353112"><ele>1155.80554758036</ele><time>2022-04-08T02:13:15Z</time></trkpt><trkpt lat="33.1864743" lon="132.6354439"><ele>1162.6332112167138</ele><time>2022-04-08T02:13:55Z</time></trkpt><trkpt lat="33.1866079" lon="132.6355885"><ele>1168.4564302225454</ele><time>2022-04-08T02:14:50Z</time></trkpt><trkpt lat="33.1867806" lon="132.6356663"><ele>1170.0034409463256</ele><time>2022-04-08T02:15:01Z</time></trkpt><trkpt lat="33.1869591" lon="132.6357214"><ele>1171.8784811876899</ele><time>2022-04-08T02:15:46Z</time></trkpt><trkpt lat="33.1871441" lon="132.6357336"><ele>1175.70051280745</ele><time>2022-04-08T02:16:11Z</time></trkpt><trkpt lat="33.1873263" lon="132.6357349"><ele>1185.8644970983496</ele><time>2022-04-08T02:17:20Z</time></trkpt><trkpt lat="33.1875176" lon="132.6357541"><ele>1194.6570651458342</ele><time>2022-04-08T02:18:02Z</time></trkpt><trkpt lat="33.1877011" lon="132.6357326"><ele>1202.779692569997</ele><time>2022-04-08T02:18:35Z</time></trkpt><trkpt lat="33.1878396" lon="132.6355944"><ele>1207.8997546170062</ele><time>2022-04-08T02:18:57Z</time></trkpt><trkpt lat="33.188017" lon="132.6355533"><ele>1213.0066527311465</ele><time>2022-04-08T02:19:27Z</time></trkpt><trkpt lat="33.1882037" lon="132.6354893"><ele>1218.0473274435196</ele><time>2022-04-08T02:20:28Z</time></trkpt><trkpt lat="33.1880272" lon="132.6355593"><ele>1221.6797693657816</ele><time>2022-04-08T02:25:41Z</time></trkpt><trkpt lat="33.1878433" lon="132.6355525"><ele>1222.4936499541386</ele><time>2022-04-08T02:26:01Z</time></trkpt><trkpt lat="33.1877257" lon="132.6357495"><ele>1219.5566914697918</ele><time>2022-04-08T02:26:39Z</time></trkpt><trkpt lat="33.1875481" lon="132.6358053"><ele>1214.6227594311129</ele><time>2022-04-08T02:26:57Z</time></trkpt><trkpt lat="33.1873688" lon="132.6357773"><ele>1207.2697283724456</ele><time>2022-04-08T02:27:47Z</time></trkpt><trkpt lat="33.1871973" lon="132.6358616"><ele>1200.355749231846</ele><time>2022-04-08T02:28:03Z</time></trkpt><trkpt lat="33.1870275" lon="132.6357775"><ele>1193.2897945908983</ele><time>2022-04-08T02:28:25Z</time></trkpt><trkpt lat="33.1868441" lon="132.6357648"><ele>1187.7290264232008</ele><time>2022-04-08T02:28:44Z</time></trkpt><trkpt lat="33.1866611" lon="132.6357354"><ele>1183.1857496304756</ele><time>2022-04-08T02:29:16Z</time></trkpt><trkpt lat="33.1864784" lon="132.6357564"><ele>1180.7358069724862</ele><time>2022-04-08T02:29:35Z</time></trkpt><trkpt lat="33.1863952" lon="132.6359493"><ele>1181.5361448773874</ele><time>2022-04-08T02:30:31Z</time></trkpt><trkpt lat="33.1862829" lon="132.6361258"><ele>1184.3003207374693</ele><time>2022-04-08T02:30:48Z</time></trkpt><trkpt lat="33.1861664" lon="132.636296"><ele>1187.4582598772856</ele><time>2022-04-08T02:31:00Z</time></trkpt><trkpt lat="33.1861234" lon="132.6365069"><ele>1190.018041778224</ele><time>2022-04-08T02:31:21Z</time></trkpt><trkpt lat="33.186006" lon="132.6366746"><ele>1192.1916884083505</ele><time>2022-04-08T02:31:37Z</time></trkpt><trkpt lat="33.1858118" lon="132.6366848"><ele>1193.3273059491892</ele><time>2022-04-08T02:31:48Z</time></trkpt><trkpt lat="33.1856805" lon="132.6365331"><ele>1192.3710213639904</ele><time>2022-04-08T02:32:39Z</time></trkpt><trkpt lat="33.1855" lon="132.6365133"><ele>1193.74087499216</ele><time>2022-04-08T02:33:05Z</time></trkpt><trkpt lat="33.185364" lon="132.6366595"><ele>1197.1796143504396</ele><time>2022-04-08T02:33:44Z</time></trkpt><trkpt lat="33.1852426" lon="132.6368302"><ele>1203.3995109429072</ele><time>2022-04-08T02:34:01Z</time></trkpt><trkpt lat="33.1851011" lon="132.6369709"><ele>1207.2888704661837</ele><time>2022-04-08T02:34:33Z</time></trkpt><trkpt lat="33.1850091" lon="132.6371568"><ele>1210.03967732983</ele><time>2022-04-08T02:34:53Z</time></trkpt><trkpt lat="33.184839" lon="132.637245"><ele>1208.3171649011497</ele><time>2022-04-08T02:37:20Z</time></trkpt><trkpt lat="33.1846634" lon="132.6372981"><ele>1202.8787010860444</ele><time>2022-04-08T02:37:36Z</time></trkpt><trkpt lat="33.1844939" lon="132.6373748"><ele>1194.3781933915454</ele><time>2022-04-08T02:38:07Z</time></trkpt><trkpt lat="33.1842727" lon="132.6373432"><ele>1190.0816429224262</ele><time>2022-04-08T02:38:18Z</time></trkpt><trkpt lat="33.184091" lon="132.6373157"><ele>1186.2983568652492</ele><time>2022-04-08T02:38:26Z</time></trkpt><trkpt lat="33.18393" lon="132.6372103"><ele>1183.0591247576815</ele><time>2022-04-08T02:39:01Z</time></trkpt><trkpt lat="33.1837516" lon="132.6372482"><ele>1177.0404953679536</ele><time>2022-04-08T02:39:23Z</time></trkpt><trkpt lat="33.1835698" lon="132.6372744"><ele>1172.1657014772688</ele><time>2022-04-08T02:39:40Z</time></trkpt><trkpt lat="33.1833834" lon="132.6373055"><ele>1168.454456413782</ele><time>2022-04-08T02:39:56Z</time></trkpt><trkpt lat="33.1832065" lon="132.6372501"><ele>1165.266089704037</ele><time>2022-04-08T02:40:13Z</time></trkpt><trkpt lat="33.1830421" lon="132.6371522"><ele>1162.118765685714</ele><time>2022-04-08T02:40:27Z</time></trkpt><trkpt lat="33.1828682" lon="132.6370935"><ele>1159.0971597690886</ele><time>2022-04-08T02:40:46Z</time></trkpt><trkpt lat="33.1826922" lon="132.6370256"><ele>1158.743013384809</ele><time>2022-04-08T02:41:29Z</time></trkpt><trkpt lat="33.1825091" lon="132.6369836"><ele>1161.473808116676</ele><time>2022-04-08T02:41:43Z</time></trkpt><trkpt lat="33.1823598" lon="132.6368632"><ele>1167.7114626069415</ele><time>2022-04-08T02:42:31Z</time></trkpt><trkpt lat="33.1822008" lon="132.6367615"><ele>1174.2453506359068</ele><time>2022-04-08T02:42:58Z</time></trkpt><trkpt lat="33.182027" lon="132.6367028"><ele>1180.027446422071</ele><time>2022-04-08T02:43:25Z</time></trkpt><trkpt lat="33.1818891" lon="132.6365642"><ele>1183.9908510957937</ele><time>2022-04-08T02:43:57Z</time></trkpt><trkpt lat="33.1820594" lon="132.6366387"><ele>1182.5258373332265</ele><time>2022-04-08T02:48:09Z</time></trkpt><trkpt lat="33.1822115" lon="132.6367587"><ele>1180.0448322936118</ele><time>2022-04-08T02:48:21Z</time></trkpt><trkpt lat="33.182379" lon="132.6368389"><ele>1173.8932360774206</ele><time>2022-04-08T02:48:35Z</time></trkpt><trkpt lat="33.1825389" lon="132.6369522"><ele>1169.5253919674033</ele><time>2022-04-08T02:48:56Z</time></trkpt><trkpt lat="33.1826902" lon="132.637076"><ele>1163.6823478747017</ele><time>2022-04-08T02:49:11Z</time></trkpt><trkpt lat="33.1828655" lon="132.6370134"><ele>1159.2256029842156</ele><time>2022-04-08T02:49:31Z</time></trkpt><trkpt lat="33.1830384" lon="132.6369497"><ele>1155.435945652864</ele><time>2022-04-08T02:50:19Z</time></trkpt><trkpt lat="33.1832216" lon="132.6369687"><ele>1151.197296966991</ele><time>2022-04-08T02:50:59Z</time></trkpt><trkpt lat="33.1833543" lon="132.6368163"><ele>1147.5770063104308</ele><time>2022-04-08T02:51:15Z</time></trkpt><trkpt lat="33.1834577" lon="132.6366394"><ele>1143.8488824543274</ele><time>2022-04-08T02:51:45Z</time></trkpt><trkpt lat="33.1835707" lon="132.6364714"><ele>1139.9503689701776</ele><time>2022-04-08T02:52:16Z</time></trkpt><trkpt lat="33.1837488" lon="132.6364321"><ele>1136.3765338429503</ele><time>2022-04-08T02:52:30Z</time></trkpt><trkpt lat="33.1839283" lon="132.6363874"><ele>1133.467754695069</ele><time>2022-04-08T02:52:47Z</time></trkpt><trkpt lat="33.1841018" lon="132.6363105"><ele>1130.9780882979178</ele><time>2022-04-08T02:53:09Z</time></trkpt><trkpt lat="33.1842529" lon="132.6361822"><ele>1127.6018210892887</ele><time>2022-04-08T02:53:47Z</time></trkpt><trkpt lat="33.1843334" lon="132.6359805"><ele>1124.5143186940438</ele><time>2022-04-08T02:54:08Z</time></trkpt><trkpt lat="33.1843564" lon="132.6357625"><ele>1121.08878921886</ele><time>2022-04-08T02:54:26Z</time></trkpt><trkpt lat="33.1844398" lon="132.635568"><ele>1117.9190868330618</ele><time>2022-04-08T02:54:54Z</time></trkpt><trkpt lat="33.1845879" lon="132.635438"><ele>1113.4635183637113</ele><time>2022-04-08T02:55:39Z</time></trkpt><trkpt lat="33.1847817" lon="132.6354948"><ele>1110.1683945781388</ele><time>2022-04-08T02:57:21Z</time></trkpt><trkpt lat="33.1848631" lon="132.6352998"><ele>1106.6858945805013</ele><time>2022-04-08T02:58:42Z</time></trkpt><trkpt lat="33.1849117" lon="132.6350896"><ele>1105.1103407063338</ele><time>2022-04-08T02:58:58Z</time></trkpt><trkpt lat="33.1849818" lon="132.6348887"><ele>1103.1110852844386</ele><time>2022-04-08T02:59:20Z</time></trkpt><trkpt lat="33.1850769" lon="132.6347034"><ele>1103.332373253701</ele><time>2022-04-08T02:59:43Z</time></trkpt><trkpt lat="33.1852128" lon="132.6345569"><ele>1103.0138111778508</ele><time>2022-04-08T03:01:33Z</time></trkpt><trkpt lat="33.1853782" lon="132.6344515"><ele>1102.6883449332279</ele><time>2022-04-08T03:01:47Z</time></trkpt><trkpt lat="33.1855137" lon="132.6343015"><ele>1100.5097696259502</ele><time>2022-04-08T03:02:09Z</time></trkpt><trkpt lat="33.1856331" lon="132.6341396"><ele>1097.6768903456355</ele><time>2022-04-08T03:02:46Z</time></trkpt><trkpt lat="33.1857612" lon="132.6339729"><ele>1095.5069335492587</ele><time>2022-04-08T03:02:59Z</time></trkpt><trkpt lat="33.1858023" lon="132.6337516"><ele>1093.8866711032545</ele><time>2022-04-08T03:03:19Z</time></trkpt><trkpt lat="33.1858081" lon="132.6335361"><ele>1093.1163623504117</ele><time>2022-04-08T03:03:39Z</time></trkpt><trkpt lat="33.1858191" lon="132.6333167"><ele>1089.4908378234184</ele><time>2022-04-08T03:04:53Z</time></trkpt><trkpt lat="33.1856768" lon="132.6331244"><ele>1083.6544807986381</ele><time>2022-04-08T03:05:27Z</time></trkpt><trkpt lat="33.1856283" lon="132.6329133"><ele>1077.2866816153007</ele><time>2022-04-08T03:05:39Z</time></trkpt><trkpt lat="33.1856972" lon="132.6327149"><ele>1072.5331983190958</ele><time>2022-04-08T03:06:08Z</time></trkpt><trkpt lat="33.185633" lon="132.6325092"><ele>1069.3213822951561</ele><time>2022-04-08T03:06:44Z</time></trkpt><trkpt lat="33.1855227" lon="132.6323352"><ele>1059.0921764579018</ele><time>2022-04-08T03:07:38Z</time></trkpt><trkpt lat="33.1854886" lon="132.6321229"><ele>1055.5753789749806</ele><time>2022-04-08T03:08:08Z</time></trkpt><trkpt lat="33.1854555" lon="132.631909"><ele>1053.6699362416932</ele><time>2022-04-08T03:08:20Z</time></trkpt><trkpt lat="33.1854069" lon="132.631698"><ele>1058.883747949052</ele><time>2022-04-08T03:08:32Z</time></trkpt><trkpt lat="33.1853402" lon="132.6314934"><ele>1058.286228925092</ele><time>2022-04-08T03:09:17Z</time></trkpt><trkpt lat="33.1852492" lon="132.6313019"><ele>1056.5625803679275</ele><time>2022-04-08T03:09:33Z</time></trkpt><trkpt lat="33.185132" lon="132.6311348"><ele>1052.778078056259</ele><time>2022-04-08T03:09:50Z</time></trkpt><trkpt lat="33.1851526" lon="132.6309187"><ele>1049.36181807196</ele><time>2022-04-08T03:10:35Z</time></trkpt><trkpt lat="33.1851064" lon="132.6307027"><ele>1045.9658997695292</ele><time>2022-04-08T03:10:59Z</time></trkpt><trkpt lat="33.1850457" lon="132.6304874"><ele>1045.955693760448</ele><time>2022-04-08T03:11:36Z</time></trkpt><trkpt lat="33.1849809" lon="132.6302862"><ele>1045.1189868745944</ele><time>2022-04-08T03:11:44Z</time></trkpt><trkpt lat="33.1849204" lon="132.6300808"><ele>1047.1168835540993</ele><time>2022-04-08T03:12:04Z</time></trkpt><trkpt lat="33.1849955" lon="132.6298774"><ele>1050.1151413309553</ele><time>2022-04-08T03:12:31Z</time></trkpt><trkpt lat="33.1849628" lon="132.6296638"><ele>1056.609054391796</ele><time>2022-04-08T03:15:47Z</time></trkpt><trkpt lat="33.1849692" lon="132.6294461"><ele>1060.33908180506</ele><time>2022-04-08T03:15:57Z</time></trkpt><trkpt lat="33.1848851" lon="132.6292458"><ele>1063.437092232286</ele><time>2022-04-08T03:16:10Z</time></trkpt><trkpt lat="33.1849071" lon="132.6290218"><ele>1064.942178146471</ele><time>2022-04-08T03:17:05Z</time></trkpt><trkpt lat="33.1848105" lon="132.6288366"><ele>1060.8449230908689</ele><time>2022-04-08T03:17:35Z</time></trkpt><trkpt lat="33.1847624" lon="132.6286191"><ele>1064.8164937898503</ele><time>2022-04-08T03:20:34Z</time></trkpt><trkpt lat="33.1846932" lon="132.6284167"><ele>1066.9883246750862</ele><time>2022-04-08T03:20:45Z</time></trkpt><trkpt lat="33.1846204" lon="132.6282048"><ele>1074.7783619977986</ele><time>2022-04-08T03:21:01Z</time></trkpt><trkpt lat="33.1845989" lon="132.6279897"><ele>1072.2562819868758</ele><time>2022-04-08T03:22:33Z</time></trkpt><trkpt lat="33.1846218" lon="132.6277734"><ele>1070.4746154006882</ele><time>2022-04-08T03:22:57Z</time></trkpt><trkpt lat="33.1845453" lon="132.6275752"><ele>1068.326411095526</ele><time>2022-04-08T03:33:58Z</time></trkpt><trkpt lat="33.1845143" lon="132.6273635"><ele>1068.1318547797905</ele><time>2022-04-08T03:34:32Z</time></trkpt><trkpt lat="33.1843813" lon="132.6272008"><ele>1068.0509236094274</ele><time>2022-04-08T03:35:00Z</time></trkpt><trkpt lat="33.1842642" lon="132.6270282"><ele>1067.7854386072133</ele><time>2022-04-08T03:35:14Z</time></trkpt><trkpt lat="33.1841339" lon="132.6268791"><ele>1067.2374144796545</ele><time>2022-04-08T03:35:32Z</time></trkpt><trkpt lat="33.1840225" lon="132.6267096"><ele>1067.3166637180757</ele><time>2022-04-08T03:35:49Z</time></trkpt><trkpt lat="33.1840194" lon="132.6264939"><ele>1069.6468287949901</ele><time>2022-04-08T03:36:09Z</time></trkpt><trkpt lat="33.1839156" lon="132.6263042"><ele>1071.0887192064529</ele><time>2022-04-08T03:36:26Z</time></trkpt><trkpt lat="33.1839811" lon="132.6261004"><ele>1072.3030038431527</ele><time>2022-04-08T03:37:09Z</time></trkpt><trkpt lat="33.1839253" lon="132.6258857"><ele>1072.1031877016032</ele><time>2022-04-08T03:37:23Z</time></trkpt><trkpt lat="33.1838534" lon="132.6256851"><ele>1070.7887887357954</ele><time>2022-04-08T03:37:38Z</time></trkpt><trkpt lat="33.1837615" lon="132.6254871"><ele>1073.165336350955</ele><time>2022-04-08T03:37:56Z</time></trkpt><trkpt lat="33.1837525" lon="132.6252681"><ele>1073.380162122181</ele><time>2022-04-08T03:38:24Z</time></trkpt><trkpt lat="33.1837436" lon="132.6250497"><ele>1076.277869315335</ele><time>2022-04-08T03:38:42Z</time></trkpt><trkpt lat="33.1836867" lon="132.6248447"><ele>1075.0920254826788</ele><time>2022-04-08T03:38:55Z</time></trkpt><trkpt lat="33.1835263" lon="132.6247448"><ele>1078.5156524833262</ele><time>2022-04-08T03:39:21Z</time></trkpt><trkpt lat="33.1834425" lon="132.6245518"><ele>1080.1897238546467</ele><time>2022-04-08T03:39:41Z</time></trkpt><trkpt lat="33.183388" lon="132.6243394"><ele>1082.0646971207277</ele><time>2022-04-08T03:39:56Z</time></trkpt><trkpt lat="33.1832999" lon="132.6241466"><ele>1082.2704880436038</ele><time>2022-04-08T03:40:13Z</time></trkpt><trkpt lat="33.1833384" lon="132.6239351"><ele>1083.5097334134698</ele><time>2022-04-08T03:40:28Z</time></trkpt><trkpt lat="33.1832071" lon="132.6237779"><ele>1084.2877560553197</ele><time>2022-04-08T03:40:48Z</time></trkpt><trkpt lat="33.183133" lon="132.6235745"><ele>1085.818788126141</ele><time>2022-04-08T03:41:10Z</time></trkpt><trkpt lat="33.1830228" lon="132.6234023"><ele>1087.4412181324544</ele><time>2022-04-08T03:41:28Z</time></trkpt><trkpt lat="33.1829339" lon="132.6232058"><ele>1091.0249891865033</ele><time>2022-04-08T03:41:59Z</time></trkpt><trkpt lat="33.1828275" lon="132.6230264"><ele>1093.252331608116</ele><time>2022-04-08T03:42:30Z</time></trkpt><trkpt lat="33.1827664" lon="132.6228152"><ele>1094.982204452924</ele><time>2022-04-08T03:42:45Z</time></trkpt><trkpt lat="33.1827194" lon="132.6226001"><ele>1095.561497154741</ele><time>2022-04-08T03:42:57Z</time></trkpt><trkpt lat="33.1825835" lon="132.6224536"><ele>1094.698153257111</ele><time>2022-04-08T03:43:10Z</time></trkpt><trkpt lat="33.1825419" lon="132.6222422"><ele>1094.8592668290032</ele><time>2022-04-08T03:43:25Z</time></trkpt><trkpt lat="33.1825473" lon="132.6220196"><ele>1093.8428094352792</ele><time>2022-04-08T03:43:42Z</time></trkpt><trkpt lat="33.1824775" lon="132.6218207"><ele>1095.7101673020402</ele><time>2022-04-08T03:43:58Z</time></trkpt><trkpt lat="33.1823672" lon="132.6216458"><ele>1096.4993862966533</ele><time>2022-04-08T03:44:22Z</time></trkpt><trkpt lat="33.1823512" lon="132.6214283"><ele>1098.5526478797212</ele><time>2022-04-08T03:44:56Z</time></trkpt><trkpt lat="33.1823507" lon="132.6212086"><ele>1099.2595959287903</ele><time>2022-04-08T03:45:24Z</time></trkpt><trkpt lat="33.1823958" lon="132.6209988"><ele>1100.7295193466355</ele><time>2022-04-08T03:45:41Z</time></trkpt><trkpt lat="33.1824464" lon="132.6207872"><ele>1101.1318693520213</ele><time>2022-04-08T03:47:49Z</time></trkpt><trkpt lat="33.1824094" lon="132.6205672"><ele>1102.4069340784133</ele><time>2022-04-08T03:48:06Z</time></trkpt><trkpt lat="33.1823767" lon="132.6203496"><ele>1103.6197641792605</ele><time>2022-04-08T03:48:22Z</time></trkpt><trkpt lat="33.1823474" lon="132.620132"><ele>1105.0185957355</ele><time>2022-04-08T03:48:36Z</time></trkpt><trkpt lat="33.1822557" lon="132.6199402"><ele>1106.144412226744</ele><time>2022-04-08T03:48:55Z</time></trkpt><trkpt lat="33.1821287" lon="132.6197878"><ele>1106.8512971107855</ele><time>2022-04-08T03:49:15Z</time></trkpt><trkpt lat="33.1821025" lon="132.6195704"><ele>1107.407416370501</ele><time>2022-04-08T03:50:09Z</time></trkpt><trkpt lat="33.1821351" lon="132.6193552"><ele>1107.1788628883132</ele><time>2022-04-08T03:50:24Z</time></trkpt><trkpt lat="33.182277" lon="132.6192223"><ele>1108.838408775532</ele><time>2022-04-08T03:51:02Z</time></trkpt><trkpt lat="33.1822877" lon="132.6190081"><ele>1111.8339340854848</ele><time>2022-04-08T03:51:18Z</time></trkpt><trkpt lat="33.1823038" lon="132.6187877"><ele>1114.5643822486682</ele><time>2022-04-08T03:51:33Z</time></trkpt><trkpt lat="33.182297" lon="132.6185587"><ele>1116.9710918814837</ele><time>2022-04-08T03:53:40Z</time></trkpt><trkpt lat="33.1822794" lon="132.6183361"><ele>1120.0865384328156</ele><time>2022-04-08T03:53:55Z</time></trkpt><trkpt lat="33.1824253" lon="132.6182025"><ele>1125.8261568815574</ele><time>2022-04-08T03:54:41Z</time></trkpt><trkpt lat="33.1825574" lon="132.6180555"><ele>1129.5635205415076</ele><time>2022-04-08T03:54:55Z</time></trkpt><trkpt lat="33.1827087" lon="132.6179352"><ele>1131.5006002632326</ele><time>2022-04-08T03:55:13Z</time></trkpt><trkpt lat="33.1828314" lon="132.6177767"><ele>1131.093944911513</ele><time>2022-04-08T03:55:31Z</time></trkpt><trkpt lat="33.1829583" lon="132.6176218"><ele>1131.973604893654</ele><time>2022-04-08T03:55:46Z</time></trkpt><trkpt lat="33.1831015" lon="132.6174788"><ele>1132.7062338323751</ele><time>2022-04-08T03:56:03Z</time></trkpt><trkpt lat="33.1830744" lon="132.6172663"><ele>1133.5777927921933</ele><time>2022-04-08T03:57:06Z</time></trkpt><trkpt lat="33.1832161" lon="132.61713"><ele>1136.2433069877525</ele><time>2022-04-08T03:57:45Z</time></trkpt><trkpt lat="33.1832554" lon="132.6169143"><ele>1139.395796460127</ele><time>2022-04-08T03:58:02Z</time></trkpt><trkpt lat="33.1834109" lon="132.6167981"><ele>1143.014838678173</ele><time>2022-04-08T03:58:23Z</time></trkpt><trkpt lat="33.1835601" lon="132.6166735"><ele>1144.6656805163482</ele><time>2022-04-08T03:58:38Z</time></trkpt><trkpt lat="33.1836928" lon="132.616527"><ele>1145.6623863822035</ele><time>2022-04-08T03:58:57Z</time></trkpt><trkpt lat="33.1838375" lon="132.6163961"><ele>1146.8259492858963</ele><time>2022-04-08T03:59:19Z</time></trkpt><trkpt lat="33.1839952" lon="132.6162783"><ele>1148.0402295853535</ele><time>2022-04-08T03:59:48Z</time></trkpt><trkpt lat="33.1841751" lon="132.6162369"><ele>1151.6403663418403</ele><time>2022-04-08T04:00:07Z</time></trkpt><trkpt lat="33.1843593" lon="132.6161819"><ele>1154.9239197201252</ele><time>2022-04-08T04:00:38Z</time></trkpt><trkpt lat="33.1845403" lon="132.6161432"><ele>1158.0370878575675</ele><time>2022-04-08T04:01:11Z</time></trkpt><trkpt lat="33.1846948" lon="132.6160291"><ele>1160.6234210071161</ele><time>2022-04-08T04:01:48Z</time></trkpt><trkpt lat="33.1848651" lon="132.6159575"><ele>1162.2731411431716</ele><time>2022-04-08T04:03:22Z</time></trkpt><trkpt lat="33.18493" lon="132.6157534"><ele>1160.2962124410053</ele><time>2022-04-08T04:04:14Z</time></trkpt><trkpt lat="33.184934" lon="132.6155345"><ele>1155.8217259454761</ele><time>2022-04-08T04:04:26Z</time></trkpt><trkpt lat="33.1850429" lon="132.6153629"><ele>1150.5085858575367</ele><time>2022-04-08T04:04:44Z</time></trkpt><trkpt lat="33.1851886" lon="132.6152365"><ele>1144.8723940158332</ele><time>2022-04-08T04:05:06Z</time></trkpt><trkpt lat="33.1852128" lon="132.6150215"><ele>1139.3813851643333</ele><time>2022-04-08T04:05:23Z</time></trkpt><trkpt lat="33.1851818" lon="132.6147994"><ele>1132.6839434124802</ele><time>2022-04-08T04:05:43Z</time></trkpt><trkpt lat="33.1852394" lon="132.6145943"><ele>1126.879496090938</ele><time>2022-04-08T04:06:04Z</time></trkpt><trkpt lat="33.1852747" lon="132.614383"><ele>1119.5872127812293</ele><time>2022-04-08T04:06:33Z</time></trkpt><trkpt lat="33.185453" lon="132.6143028"><ele>1112.938052221605</ele><time>2022-04-08T04:07:01Z</time></trkpt><trkpt lat="33.1855764" lon="132.6141459"><ele>1105.7462591485803</ele><time>2022-04-08T04:07:20Z</time></trkpt><trkpt lat="33.1857295" lon="132.6140216"><ele>1099.5200556024408</ele><time>2022-04-08T04:07:46Z</time></trkpt><trkpt lat="33.185794" lon="132.6138195"><ele>1095.12073108529</ele><time>2022-04-08T04:08:00Z</time></trkpt><trkpt lat="33.1859113" lon="132.6136527"><ele>1089.1767094036609</ele><time>2022-04-08T04:09:05Z</time></trkpt><trkpt lat="33.1860592" lon="132.6135176"><ele>1083.1106863055734</ele><time>2022-04-08T04:09:18Z</time></trkpt><trkpt lat="33.1862108" lon="132.6133966"><ele>1076.7380151927416</ele><time>2022-04-08T04:09:36Z</time></trkpt><trkpt lat="33.1863329" lon="132.6132163"><ele>1074.4389671367755</ele><time>2022-04-08T04:09:52Z</time></trkpt><trkpt lat="33.1863873" lon="132.6130118"><ele>1072.6848211673193</ele><time>2022-04-08T04:10:07Z</time></trkpt><trkpt lat="33.186478" lon="132.6128244"><ele>1070.0661590670513</ele><time>2022-04-08T04:10:30Z</time></trkpt><trkpt lat="33.1866527" lon="132.6127573"><ele>1065.236118894157</ele><time>2022-04-08T04:10:46Z</time></trkpt><trkpt lat="33.1867796" lon="132.6125948"><ele>1061.4241713291224</ele><time>2022-04-08T04:11:04Z</time></trkpt><trkpt lat="33.1868672" lon="132.6123985"><ele>1057.251126543659</ele><time>2022-04-08T04:11:22Z</time></trkpt><trkpt lat="33.1868243" lon="132.6121869"><ele>1054.4975751555914</ele><time>2022-04-08T04:11:37Z</time></trkpt><trkpt lat="33.1869367" lon="132.6120155"><ele>1050.9110114534917</ele><time>2022-04-08T04:11:56Z</time></trkpt><trkpt lat="33.1870518" lon="132.6118441"><ele>1047.0891897179426</ele><time>2022-04-08T04:12:15Z</time></trkpt><trkpt lat="33.1871267" lon="132.611644"><ele>1042.890868192651</ele><time>2022-04-08T04:12:36Z</time></trkpt><trkpt lat="33.1871229" lon="132.6114246"><ele>1039.2993555539317</ele><time>2022-04-08T04:12:50Z</time></trkpt><trkpt lat="33.1870277" lon="132.6112334"><ele>1036.511175433617</ele><time>2022-04-08T04:13:06Z</time></trkpt><trkpt lat="33.187011" lon="132.6110065"><ele>1032.9848202042929</ele><time>2022-04-08T04:13:22Z</time></trkpt><trkpt lat="33.187009" lon="132.6107912"><ele>1028.8876519520566</ele><time>2022-04-08T04:13:39Z</time></trkpt><trkpt lat="33.1870493" lon="132.610566"><ele>1024.7677126508424</ele><time>2022-04-08T04:13:53Z</time></trkpt><trkpt lat="33.1871473" lon="132.6103827"><ele>1022.2250388155904</ele><time>2022-04-08T04:14:06Z</time></trkpt><trkpt lat="33.1872255" lon="132.6101894"><ele>1016.3268130847711</ele><time>2022-04-08T04:14:59Z</time></trkpt><trkpt lat="33.1873081" lon="132.6099944"><ele>1010.3202989624411</ele><time>2022-04-08T04:15:58Z</time></trkpt><trkpt lat="33.1874786" lon="132.6098914"><ele>1004.9641607802765</ele><time>2022-04-08T04:16:11Z</time></trkpt><trkpt lat="33.1876299" lon="132.6097684"><ele>1003.9242620961863</ele><time>2022-04-08T04:16:25Z</time></trkpt><trkpt lat="33.1876808" lon="132.6095577"><ele>1004.8797245506627</ele><time>2022-04-08T04:16:46Z</time></trkpt><trkpt lat="33.1878623" lon="132.609579"><ele>1005.6318495860547</ele><time>2022-04-08T04:16:58Z</time></trkpt><trkpt lat="33.1880251" lon="132.6094754"><ele>1007.2229920018659</ele><time>2022-04-08T04:17:14Z</time></trkpt><trkpt lat="33.1881916" lon="132.6093781"><ele>1008.2422831434733</ele><time>2022-04-08T04:17:33Z</time></trkpt><trkpt lat="33.188244" lon="132.6091718"><ele>1012.5152598555528</ele><time>2022-04-08T04:18:10Z</time></trkpt><trkpt lat="33.1883427" lon="132.6089864"><ele>1013.0783357749906</ele><time>2022-04-08T04:19:22Z</time></trkpt><trkpt lat="33.1884754" lon="132.608835"><ele>1013.7873136546228</ele><time>2022-04-08T04:20:23Z</time></trkpt><trkpt lat="33.188647" lon="132.6087625"><ele>1011.5000984737668</ele><time>2022-04-08T04:20:50Z</time></trkpt><trkpt lat="33.1886684" lon="132.6085359"><ele>1012.6315216970244</ele><time>2022-04-08T04:21:05Z</time></trkpt><trkpt lat="33.1886028" lon="132.6083344"><ele>1013.7252856287082</ele><time>2022-04-08T04:22:39Z</time></trkpt><trkpt lat="33.1886438" lon="132.608113"><ele>1015.1959238760563</ele><time>2022-04-08T04:22:46Z</time></trkpt><trkpt lat="33.188661" lon="132.6078883"><ele>1016.466026423006</ele><time>2022-04-08T04:22:59Z</time></trkpt><trkpt lat="33.1885936" lon="132.6076842"><ele>1017.7556152292633</ele><time>2022-04-08T04:23:09Z</time></trkpt><trkpt lat="33.188509" lon="132.6074906"><ele>1018.5680879796614</ele><time>2022-04-08T04:23:23Z</time></trkpt><trkpt lat="33.1884666" lon="132.607267"><ele>1019.3752623768197</ele><time>2022-04-08T04:23:35Z</time></trkpt><trkpt lat="33.188462" lon="132.6070523"><ele>1020.0687177731011</ele><time>2022-04-08T04:23:51Z</time></trkpt><trkpt lat="33.1883208" lon="132.6069066"><ele>1021.1890431972142</ele><time>2022-04-08T04:24:08Z</time></trkpt><trkpt lat="33.1882204" lon="132.6067225"><ele>1022.4083480394698</ele><time>2022-04-08T04:24:21Z</time></trkpt><trkpt lat="33.188229" lon="132.6064997"><ele>1024.0853085190904</ele><time>2022-04-08T04:24:35Z</time></trkpt><trkpt lat="33.1881714" lon="132.6062887"><ele>1025.5829861221407</ele><time>2022-04-08T04:24:52Z</time></trkpt><trkpt lat="33.1881065" lon="132.6060833"><ele>1027.5335618851193</ele><time>2022-04-08T04:25:12Z</time></trkpt><trkpt lat="33.1882" lon="132.6058895"><ele>1028.4687042633661</ele><time>2022-04-08T04:25:26Z</time></trkpt><trkpt lat="33.1882187" lon="132.6056761"><ele>1029.3861180497686</ele><time>2022-04-08T04:25:40Z</time></trkpt><trkpt lat="33.1881287" lon="132.6054829"><ele>1029.667139117332</ele><time>2022-04-08T04:26:18Z</time></trkpt><trkpt lat="33.1881456" lon="132.6052686"><ele>1030.175841319197</ele><time>2022-04-08T04:26:30Z</time></trkpt><trkpt lat="33.1881163" lon="132.6050382"><ele>1030.3640921982576</ele><time>2022-04-08T04:26:44Z</time></trkpt><trkpt lat="33.1879929" lon="132.6048772"><ele>1030.305191388988</ele><time>2022-04-08T04:26:59Z</time></trkpt><trkpt lat="33.1878832" lon="132.6047046"><ele>1026.0204053084146</ele><time>2022-04-08T04:27:16Z</time></trkpt><trkpt lat="33.1878604" lon="132.6044901"><ele>1021.1746826949972</ele><time>2022-04-08T04:27:32Z</time></trkpt><trkpt lat="33.1878456" lon="132.6042762"><ele>1020.6716533907929</ele><time>2022-04-08T04:27:47Z</time></trkpt><trkpt lat="33.1877697" lon="132.6040673"><ele>1024.9013558854942</ele><time>2022-04-08T04:28:01Z</time></trkpt><trkpt lat="33.1875943" lon="132.6039701"><ele>1028.9363479181784</ele><time>2022-04-08T04:28:16Z</time></trkpt><trkpt lat="33.1874926" lon="132.6037874"><ele>1028.2621785131175</ele><time>2022-04-08T04:28:32Z</time></trkpt><trkpt lat="33.1874556" lon="132.6035704"><ele>1025.4416033259686</ele><time>2022-04-08T04:28:48Z</time></trkpt><trkpt lat="33.1874264" lon="132.6033538"><ele>1024.8866253334766</ele><time>2022-04-08T04:29:03Z</time></trkpt><trkpt lat="33.1875894" lon="132.6032619"><ele>1021.361471774304</ele><time>2022-04-08T04:29:21Z</time></trkpt><trkpt lat="33.1877598" lon="132.603174"><ele>1023.1894052799695</ele><time>2022-04-08T04:29:36Z</time></trkpt><trkpt lat="33.187943" lon="132.6031649"><ele>1021.2006704535091</ele><time>2022-04-08T04:29:52Z</time></trkpt><trkpt lat="33.1880996" lon="132.6030562"><ele>1023.3081220823924</ele><time>2022-04-08T04:30:59Z</time></trkpt><trkpt lat="33.1882799" lon="132.6030318"><ele>1021.0722504932838</ele><time>2022-04-08T04:31:15Z</time></trkpt><trkpt lat="33.1884617" lon="132.6030322"><ele>1021.7368698160053</ele><time>2022-04-08T04:34:58Z</time></trkpt><trkpt lat="33.1885893" lon="132.6028743"><ele>1020.130154296371</ele><time>2022-04-08T04:35:10Z</time></trkpt><trkpt lat="33.1887759" lon="132.602826"><ele>1020.58511777814</ele><time>2022-04-08T04:35:21Z</time></trkpt><trkpt lat="33.1889495" lon="132.6028951"><ele>1019.1255258175987</ele><time>2022-04-08T04:35:34Z</time></trkpt><trkpt lat="33.1890653" lon="132.6030672"><ele>1021.7956336559764</ele><time>2022-04-08T04:35:47Z</time></trkpt><trkpt lat="33.1891161" lon="132.6032779"><ele>1020.9531303395491</ele><time>2022-04-08T04:36:00Z</time></trkpt><trkpt lat="33.1891799" lon="132.6034813"><ele>1020.4674179794397</ele><time>2022-04-08T04:36:19Z</time></trkpt><trkpt lat="33.1892215" lon="132.6036923"><ele>1016.9865380251209</ele><time>2022-04-08T04:36:35Z</time></trkpt><trkpt lat="33.1893134" lon="132.6038869"><ele>1016.6960325912133</ele><time>2022-04-08T04:36:51Z</time></trkpt><trkpt lat="33.1895037" lon="132.6038821"><ele>1016.2449214573107</ele><time>2022-04-08T04:37:30Z</time></trkpt><trkpt lat="33.1895413" lon="132.6040952"><ele>1016.1887819835101</ele><time>2022-04-08T04:38:24Z</time></trkpt><trkpt lat="33.189656" lon="132.6042628"><ele>1014.8666642037851</ele><time>2022-04-08T04:38:36Z</time></trkpt><trkpt lat="33.1898254" lon="132.6043372"><ele>1014.9208122594214</ele><time>2022-04-08T04:38:47Z</time></trkpt><trkpt lat="33.1899209" lon="132.6045278"><ele>1015.0647450098628</ele><time>2022-04-08T04:39:01Z</time></trkpt><trkpt lat="33.1900256" lon="132.6047027"><ele>1015.9156794708077</ele><time>2022-04-08T04:39:15Z</time></trkpt><trkpt lat="33.1901513" lon="132.6048677"><ele>1015.8023216647263</ele><time>2022-04-08T04:39:32Z</time></trkpt><trkpt lat="33.190298" lon="132.6050074"><ele>1015.9022477834034</ele><time>2022-04-08T04:39:50Z</time></trkpt><trkpt lat="33.1904405" lon="132.6051449"><ele>1014.9954555354742</ele><time>2022-04-08T04:41:08Z</time></trkpt><trkpt lat="33.1905885" lon="132.6052878"><ele>1015.4556141633647</ele><time>2022-04-08T04:41:22Z</time></trkpt><trkpt lat="33.1907206" lon="132.6054449"><ele>1015.6017711523368</ele><time>2022-04-08T04:41:34Z</time></trkpt><trkpt lat="33.1908365" lon="132.6056153"><ele>1016.0760175812903</ele><time>2022-04-08T04:41:48Z</time></trkpt><trkpt lat="33.190852" lon="132.6058296"><ele>1015.9876272390514</ele><time>2022-04-08T04:42:03Z</time></trkpt><trkpt lat="33.1908343" lon="132.6060515"><ele>1015.8455084377487</ele><time>2022-04-08T04:42:17Z</time></trkpt><trkpt lat="33.1907929" lon="132.6062665"><ele>1016.200485046514</ele><time>2022-04-08T04:42:33Z</time></trkpt><trkpt lat="33.19081" lon="132.6064836"><ele>1016.0317594581355</ele><time>2022-04-08T04:42:47Z</time></trkpt><trkpt lat="33.1908807" lon="132.6066937"><ele>1016.0391568373243</ele><time>2022-04-08T04:43:02Z</time></trkpt><trkpt lat="33.1909658" lon="132.6068837"><ele>1015.4513346670637</ele><time>2022-04-08T04:43:17Z</time></trkpt><trkpt lat="33.191094" lon="132.6070385"><ele>1015.2451633959666</ele><time>2022-04-08T04:43:33Z</time></trkpt><trkpt lat="33.1912225" lon="132.6072196"><ele>1015.4467762175765</ele><time>2022-04-08T04:43:49Z</time></trkpt><trkpt lat="33.1913333" lon="132.6074013"><ele>1015.7005429970409</ele><time>2022-04-08T04:44:04Z</time></trkpt><trkpt lat="33.1914527" lon="132.6075659"><ele>1015.7729995866011</ele><time>2022-04-08T04:44:20Z</time></trkpt><trkpt lat="33.191623" lon="132.6076482"><ele>1014.9693780058836</ele><time>2022-04-08T04:44:39Z</time></trkpt><trkpt lat="33.1918103" lon="132.6076713"><ele>1014.7357266941295</ele><time>2022-04-08T04:44:58Z</time></trkpt><trkpt lat="33.1919746" lon="132.6077758"><ele>1014.5810149915227</ele><time>2022-04-08T04:45:13Z</time></trkpt><trkpt lat="33.1921437" lon="132.6078781"><ele>1015.0787179963046</ele><time>2022-04-08T04:45:28Z</time></trkpt><trkpt lat="33.1922548" lon="132.6080528"><ele>1015.2129135445354</ele><time>2022-04-08T04:45:43Z</time></trkpt><trkpt lat="33.1923757" lon="132.6082192"><ele>1015.6487626062093</ele><time>2022-04-08T04:45:56Z</time></trkpt><trkpt lat="33.1924318" lon="132.6084278"><ele>1016.2168945898032</ele><time>2022-04-08T04:46:10Z</time></trkpt><trkpt lat="33.1924919" lon="132.6086336"><ele>1016.8434905430212</ele><time>2022-04-08T04:46:26Z</time></trkpt><trkpt lat="33.1926276" lon="132.6087843"><ele>1017.5182349917962</ele><time>2022-04-08T04:46:42Z</time></trkpt><trkpt lat="33.1927693" lon="132.6089251"><ele>1017.7656165010497</ele><time>2022-04-08T04:47:02Z</time></trkpt><trkpt lat="33.1928942" lon="132.6090863"><ele>1018.1004989341201</ele><time>2022-04-08T04:47:19Z</time></trkpt><trkpt lat="33.1930806" lon="132.6090668"><ele>1018.0629733601332</ele><time>2022-04-08T04:47:33Z</time></trkpt><trkpt lat="33.193277" lon="132.6090894"><ele>1018.4784632237197</ele><time>2022-04-08T04:47:50Z</time></trkpt><trkpt lat="33.1934616" lon="132.6091042"><ele>1018.7732456231121</ele><time>2022-04-08T04:49:27Z</time></trkpt><trkpt lat="33.1936221" lon="132.6092055"><ele>1019.098068301642</ele><time>2022-04-08T04:49:42Z</time></trkpt><trkpt lat="33.1938148" lon="132.609179"><ele>1019.3279780013628</ele><time>2022-04-08T04:49:59Z</time></trkpt><trkpt lat="33.1939694" lon="132.6090593"><ele>1019.8679765903616</ele><time>2022-04-08T04:50:13Z</time></trkpt><trkpt lat="33.1941498" lon="132.6090751"><ele>1020.4677306774156</ele><time>2022-04-08T04:50:32Z</time></trkpt><trkpt lat="33.1943387" lon="132.6090958"><ele>1020.3106544908</ele><time>2022-04-08T04:50:47Z</time></trkpt><trkpt lat="33.194519" lon="132.6090276"><ele>1019.6086457805351</ele><time>2022-04-08T04:51:03Z</time></trkpt><trkpt lat="33.1946792" lon="132.608889"><ele>1019.6348290621414</ele><time>2022-04-08T04:51:18Z</time></trkpt><trkpt lat="33.1948052" lon="132.6087308"><ele>1020.2519193099164</ele><time>2022-04-08T04:51:34Z</time></trkpt><trkpt lat="33.1948608" lon="132.6085242"><ele>1021.0877082476856</ele><time>2022-04-08T04:51:49Z</time></trkpt><trkpt lat="33.195049" lon="132.6085252"><ele>1021.5505648790012</ele><time>2022-04-08T04:52:05Z</time></trkpt><trkpt lat="33.1951845" lon="132.6083652"><ele>1022.4587689349828</ele><time>2022-04-08T04:53:01Z</time></trkpt><trkpt lat="33.1953645" lon="132.6083156"><ele>1023.4302437389825</ele><time>2022-04-08T04:55:00Z</time></trkpt><trkpt lat="33.1954608" lon="132.6081314"><ele>1023.9820881625614</ele><time>2022-04-08T04:55:11Z</time></trkpt><trkpt lat="33.1956192" lon="132.6080177"><ele>1024.3963318785495</ele><time>2022-04-08T04:55:30Z</time></trkpt><trkpt lat="33.1957968" lon="132.6079658"><ele>1024.771778178698</ele><time>2022-04-08T04:55:45Z</time></trkpt><trkpt lat="33.1959766" lon="132.6079182"><ele>1024.9215560112104</ele><time>2022-04-08T04:55:59Z</time></trkpt><trkpt lat="33.1961492" lon="132.6078542"><ele>1024.838566620953</ele><time>2022-04-08T04:56:14Z</time></trkpt><trkpt lat="33.1962703" lon="132.6080426"><ele>1024.582218143696</ele><time>2022-04-08T04:56:30Z</time></trkpt><trkpt lat="33.1962913" lon="132.6082641"><ele>1025.430441318609</ele><time>2022-04-08T04:56:41Z</time></trkpt><trkpt lat="33.1963421" lon="132.6084705"><ele>1025.9296054021233</ele><time>2022-04-08T04:56:55Z</time></trkpt><trkpt lat="33.1964395" lon="132.6086521"><ele>1026.463211679803</ele><time>2022-04-08T04:57:06Z</time></trkpt><trkpt lat="33.1965712" lon="132.608825"><ele>1027.0326051653722</ele><time>2022-04-08T04:57:25Z</time></trkpt><trkpt lat="33.1967585" lon="132.6088702"><ele>1028.2932494450476</ele><time>2022-04-08T04:57:38Z</time></trkpt><trkpt lat="33.1969425" lon="132.6087737"><ele>1028.890340833699</ele><time>2022-04-08T04:57:54Z</time></trkpt><trkpt lat="33.197031" lon="132.608581"><ele>1028.9800376895287</ele><time>2022-04-08T04:58:33Z</time></trkpt><trkpt lat="33.1971196" lon="132.6083862"><ele>1028.0104259464767</ele><time>2022-04-08T04:58:47Z</time></trkpt><trkpt lat="33.1972817" lon="132.6082921"><ele>1029.146490144637</ele><time>2022-04-08T04:59:35Z</time></trkpt><trkpt lat="33.1974605" lon="132.6083206"><ele>1031.5262553317884</ele><time>2022-04-08T04:59:50Z</time></trkpt><trkpt lat="33.1976522" lon="132.6083106"><ele>1035.3943875651582</ele><time>2022-04-08T05:00:06Z</time></trkpt><trkpt lat="33.1978313" lon="132.6082594"><ele>1038.4706076962866</ele><time>2022-04-08T05:00:22Z</time></trkpt><trkpt lat="33.1979914" lon="132.6081517"><ele>1040.188538839798</ele><time>2022-04-08T05:00:40Z</time></trkpt><trkpt lat="33.1981739" lon="132.6081353"><ele>1042.8421981747472</ele><time>2022-04-08T05:01:01Z</time></trkpt><trkpt lat="33.1983552" lon="132.6080862"><ele>1046.8462520088945</ele><time>2022-04-08T05:01:31Z</time></trkpt><trkpt lat="33.1985353" lon="132.6081232"><ele>1051.8541345802457</ele><time>2022-04-08T05:01:51Z</time></trkpt><trkpt lat="33.198681" lon="132.6082507"><ele>1057.0786612943025</ele><time>2022-04-08T05:02:27Z</time></trkpt><trkpt lat="33.1987975" lon="132.6084214"><ele>1061.0390386347678</ele><time>2022-04-08T05:03:27Z</time></trkpt><trkpt lat="33.1989531" lon="132.6085371"><ele>1067.7445780548198</ele><time>2022-04-08T05:14:35Z</time></trkpt><trkpt lat="33.1991377" lon="132.6085203"><ele>1075.6109849260345</ele><time>2022-04-08T05:15:19Z</time></trkpt><trkpt lat="33.1992991" lon="132.608619"><ele>1084.5010885156646</ele><time>2022-04-08T05:15:53Z</time></trkpt><trkpt lat="33.1994958" lon="132.6086112"><ele>1089.4549737518428</ele><time>2022-04-08T05:16:11Z</time></trkpt><trkpt lat="33.1996795" lon="132.6086191"><ele>1089.6418737401923</ele><time>2022-04-08T05:16:22Z</time></trkpt><trkpt lat="33.1998168" lon="132.6084776"><ele>1088.0755122834319</ele><time>2022-04-08T05:16:33Z</time></trkpt><trkpt lat="33.1999703" lon="132.6083637"><ele>1087.5743474660067</ele><time>2022-04-08T05:16:53Z</time></trkpt><trkpt lat="33.2001424" lon="132.6082692"><ele>1090.3964691990484</ele><time>2022-04-08T05:17:22Z</time></trkpt><trkpt lat="33.2002844" lon="132.608122"><ele>1091.8956671488568</ele><time>2022-04-08T05:18:37Z</time></trkpt><trkpt lat="33.2002969" lon="132.6079054"><ele>1090.1403856591542</ele><time>2022-04-08T05:18:52Z</time></trkpt><trkpt lat="33.2002944" lon="132.6076902"><ele>1083.9952015127253</ele><time>2022-04-08T05:19:09Z</time></trkpt><trkpt lat="33.2004017" lon="132.6075088"><ele>1078.4742595239074</ele><time>2022-04-08T05:19:20Z</time></trkpt><trkpt lat="33.2005461" lon="132.6073691"><ele>1072.6120969659414</ele><time>2022-04-08T05:19:36Z</time></trkpt><trkpt lat="33.2007226" lon="132.6073172"><ele>1068.0051823077201</ele><time>2022-04-08T05:19:54Z</time></trkpt><trkpt lat="33.2008207" lon="132.6071357"><ele>1056.9917444290647</ele><time>2022-04-08T05:20:41Z</time></trkpt><trkpt lat="33.2009367" lon="132.6069632"><ele>1051.496470573933</ele><time>2022-04-08T05:21:01Z</time></trkpt><trkpt lat="33.2010472" lon="132.6067883"><ele>1043.49602921686</ele><time>2022-04-08T05:21:28Z</time></trkpt><trkpt lat="33.2011787" lon="132.6066312"><ele>1042.4838121468404</ele><time>2022-04-08T05:21:40Z</time></trkpt><trkpt lat="33.2012794" lon="132.606451"><ele>1037.3312866879496</ele><time>2022-04-08T05:21:49Z</time></trkpt><trkpt lat="33.2013354" lon="132.6062376"><ele>1034.7843246937427</ele><time>2022-04-08T05:22:01Z</time></trkpt><trkpt lat="33.2013498" lon="132.6060185"><ele>1029.7459789677766</ele><time>2022-04-08T05:22:25Z</time></trkpt><trkpt lat="33.2014412" lon="132.605827"><ele>1024.4647006288983</ele><time>2022-04-08T05:22:54Z</time></trkpt><trkpt lat="33.2014279" lon="132.6056124"><ele>1020.1684776826428</ele><time>2022-04-08T05:23:19Z</time></trkpt><trkpt lat="33.2014206" lon="132.6053893"><ele>1015.6253230130127</ele><time>2022-04-08T05:23:38Z</time></trkpt><trkpt lat="33.2014284" lon="132.605616"><ele>1014.4026576433329</ele><time>2022-04-08T05:24:38Z</time></trkpt><trkpt lat="33.2013437" lon="132.6058107"><ele>1013.823988774417</ele><time>2022-04-08T05:24:50Z</time></trkpt><trkpt lat="33.2012718" lon="132.6060206"><ele>1016.7280845878522</ele><time>2022-04-08T05:25:02Z</time></trkpt><trkpt lat="33.2012641" lon="132.6062536"><ele>1017.6317203366078</ele><time>2022-04-08T05:25:13Z</time></trkpt><trkpt lat="33.201233" lon="132.6064686"><ele>1018.926903652341</ele><time>2022-04-08T05:25:25Z</time></trkpt><trkpt lat="33.2011178" lon="132.6066428"><ele>1020.0803654563375</ele><time>2022-04-08T05:25:41Z</time></trkpt><trkpt lat="33.2009492" lon="132.6067216"><ele>1021.5052580341662</ele><time>2022-04-08T05:25:56Z</time></trkpt><trkpt lat="33.2007836" lon="132.6068162"><ele>1022.371239751274</ele><time>2022-04-08T05:26:10Z</time></trkpt><trkpt lat="33.2006074" lon="132.6069144"><ele>1023.077569138528</ele><time>2022-04-08T05:26:25Z</time></trkpt><trkpt lat="33.2004191" lon="132.6069154"><ele>1022.8739990761078</ele><time>2022-04-08T05:26:38Z</time></trkpt><trkpt lat="33.2002605" lon="132.6070295"><ele>1023.4801673754333</ele><time>2022-04-08T05:26:54Z</time></trkpt><trkpt lat="33.2000764" lon="132.6070703"><ele>1024.5477227135639</ele><time>2022-04-08T05:27:13Z</time></trkpt><trkpt lat="33.1999268" lon="132.6072196"><ele>1026.2044616270402</ele><time>2022-04-08T05:30:05Z</time></trkpt><trkpt lat="33.1997919" lon="132.6073783"><ele>1026.7475908548888</ele><time>2022-04-08T05:30:15Z</time></trkpt><trkpt lat="33.199618" lon="132.6074841"><ele>1026.6782644035984</ele><time>2022-04-08T05:30:30Z</time></trkpt><trkpt lat="33.1994354" lon="132.6074646"><ele>1026.6592776175248</ele><time>2022-04-08T05:30:44Z</time></trkpt><trkpt lat="33.1993397" lon="132.607653"><ele>1026.3844442956176</ele><time>2022-04-08T05:30:57Z</time></trkpt><trkpt lat="33.1992409" lon="132.607838"><ele>1026.6429354489626</ele><time>2022-04-08T05:31:08Z</time></trkpt><trkpt lat="33.1990616" lon="132.6078887"><ele>1026.630816880315</ele><time>2022-04-08T05:31:22Z</time></trkpt><trkpt lat="33.1988836" lon="132.6078314"><ele>1027.6094094172258</ele><time>2022-04-08T05:31:35Z</time></trkpt><trkpt lat="33.1987182" lon="132.6077391"><ele>1026.5654252515574</ele><time>2022-04-08T05:31:46Z</time></trkpt><trkpt lat="33.1985367" lon="132.6077422"><ele>1027.148623304038</ele><time>2022-04-08T05:32:05Z</time></trkpt><trkpt lat="33.1983331" lon="132.607783"><ele>1027.2491403507502</ele><time>2022-04-08T05:35:19Z</time></trkpt><trkpt lat="33.1981446" lon="132.6077931"><ele>1028.8142014819814</ele><time>2022-04-08T05:35:39Z</time></trkpt><trkpt lat="33.197957" lon="132.6078256"><ele>1028.9515336479083</ele><time>2022-04-08T05:35:55Z</time></trkpt><trkpt lat="33.1978362" lon="132.6079936"><ele>1029.3024660415624</ele><time>2022-04-08T05:36:10Z</time></trkpt><trkpt lat="33.197657" lon="132.6080747"><ele>1029.2993031248543</ele><time>2022-04-08T05:36:23Z</time></trkpt><trkpt lat="33.1975035" lon="132.608202"><ele>1029.464588281923</ele><time>2022-04-08T05:36:38Z</time></trkpt><trkpt lat="33.1973318" lon="132.6082721"><ele>1028.9048138376113</ele><time>2022-04-08T05:36:58Z</time></trkpt><trkpt lat="33.1971749" lon="132.6084118"><ele>1028.7210908282143</ele><time>2022-04-08T05:37:10Z</time></trkpt><trkpt lat="33.1970526" lon="132.6085738"><ele>1028.1285776454154</ele><time>2022-04-08T05:37:24Z</time></trkpt><trkpt lat="33.1969928" lon="132.6087794"><ele>1028.0497804148233</ele><time>2022-04-08T05:37:40Z</time></trkpt><trkpt lat="33.1968058" lon="132.6088352"><ele>1027.8303539913704</ele><time>2022-04-08T05:40:09Z</time></trkpt></trkseg></trk></gpx>