<?xml version='1.0' encoding='UTF-8'?><gpx creator="Yama Museum Summit Candidate Generator" xsi:schemaLocation="http://www.topografix.com/GPX/1/1 http://www.topografix.com/GPX/1/1/gpx.xsd" version="1.1" xmlns="http://www.topografix.com/GPX/1/1" xmlns:xsi="http://www.w3.org/2001/XMLSchema-instance" xmlns:yama="https://museum-yama-data.moukaeritai.work/ns/yama-data/0.1"><metadata><bounds maxlat="33.662678" maxlon="132.7273255" minlat="33.6622927" minlon="132.7269456"/><name>秦皇山</name><extensions><yama:source_gpx_basename>yamap_2023-12-17_09_45.gpx</yama:source_gpx_basename><yama:source_gpx_relative_path>data/01_raw/gpx/2026-05-12/yamap_2023-12-17_09_45.gpx</yama:source_gpx_relative_path><yama:detection_parameters>window=5,radius=10,min_prominence=30,merge=100</yama:detection_parameters></extensions></metadata><trk><name>秦皇山</name><number>1</number><trkseg><trkpt lat="33.6625515" lon="132.7273255"><ele>868.33</ele><time>2023-12-17T00:45:11Z</time></trkpt><trkpt lat="33.662678" lon="132.7271678"><ele>869.31</ele><time>2023-12-17T00:45:33Z</time></trkpt><trkpt lat="33.6626739" lon="132.7269456"><ele>869.77</ele><time>2023-12-17T00:45:56Z</time></trkpt><trkpt lat="33.6625043" lon="132.7270226"><ele>870.65</ele><time>2023-12-17T00:47:07Z</time></trkpt><trkpt lat="33.6623292" lon="132.7269593"><ele>871.2166666666667</ele><time>2023-12-17T00:47:32Z</time></trkpt><trkpt lat="33.6622927" lon="132.7271783"><ele>871.1999999999999</ele><time>2023-12-17T00:49:54Z</time></trkpt><trkpt lat="33.6624663" lon="132.7272373"><ele>870.9666666666667</ele><time>2023-12-17T00:50:06Z</time></trkpt></trkseg></trk></gpx>