<?xml version='1.0' encoding='UTF-8'?><gpx creator="Yama Museum Summit Candidate Generator" xsi:schemaLocation="http://www.topografix.com/GPX/1/1 http://www.topografix.com/GPX/1/1/gpx.xsd" version="1.1" xmlns="http://www.topografix.com/GPX/1/1" xmlns:xsi="http://www.w3.org/2001/XMLSchema-instance" xmlns:yama="https://museum-yama-data.moukaeritai.work/ns/yama-data/0.1"><metadata><bounds maxlat="33.7283493" maxlon="132.8439655" minlat="33.7262694" minlon="132.8386021"/><name>勝山</name><extensions><yama:source_gpx_basename>yamap_2025-01-11_11_51.gpx</yama:source_gpx_basename><yama:source_gpx_relative_path>data/01_raw/gpx/2026-05-12/yamap_2025-01-11_11_51.gpx</yama:source_gpx_relative_path><yama:detection_parameters>window=5,radius=10,min_prominence=30,merge=100</yama:detection_parameters></extensions></metadata><wpt lat="33.7282794" lon="132.8388236"><ele>371.26</ele><time>2025-01-11T03:43:39Z</time><name>summit-candidate:2b833dfb6f3f84c1</name><desc>Summit candidate detected at elevation 371.26m with prominence 165.2626666666667m.</desc><sym>Summit Candidate</sym><extensions><yama:source_trackpoint_index>42</yama:source_trackpoint_index><yama:valid_elevation_index>42</yama:valid_elevation_index><yama:smoothed_ele>364.6926666666667</yama:smoothed_ele><yama:prominence>165.2626666666667</yama:prominence><yama:detection_method>local_maxima_with_prominence</yama:detection_method><yama:detection_parameters>window=5,radius=10,min_prominence=30,merge=100</yama:detection_parameters><yama:candidate_status>unresolved</yama:candidate_status></extensions></wpt>
  <trk><name>勝山</name><number>1</number><trkseg><trkpt lat="33.7274292" lon="132.8439655"><ele>211.78</ele><time>2025-01-11T02:51:40Z</time></trkpt><trkpt lat="33.7275106" lon="132.84376"><ele>209.285</ele><time>2025-01-11T02:52:31Z</time></trkpt><trkpt lat="33.7276664" lon="132.8436061"><ele>208.32333333333335</ele><time>2025-01-11T02:52:48Z</time></trkpt><trkpt lat="33.7278386" lon="132.8435189"><ele>207.25</ele><time>2025-01-11T02:53:06Z</time></trkpt><trkpt lat="33.7276649" lon="132.8434219"><ele>205.2966666666667</ele><time>2025-01-11T02:53:44Z</time></trkpt><trkpt lat="33.7274666" lon="132.8433953"><ele>202.91666666666666</ele><time>2025-01-11T02:54:02Z</time></trkpt><trkpt lat="33.727522" lon="132.8431566"><ele>198.83</ele><time>2025-01-11T02:54:17Z</time></trkpt><trkpt lat="33.7273761" lon="132.8430235"><ele>197.56333333333336</ele><time>2025-01-11T02:54:35Z</time></trkpt><trkpt lat="33.7272013" lon="132.8428983"><ele>197.71666666666667</ele><time>2025-01-11T02:54:51Z</time></trkpt><trkpt lat="33.7270348" lon="132.8427538"><ele>199.62</ele><time>2025-01-11T02:55:51Z</time></trkpt><trkpt lat="33.7269689" lon="132.8425449"><ele>203.62333333333333</ele><time>2025-01-11T02:56:51Z</time></trkpt><trkpt lat="33.727142" lon="132.8424411"><ele>209.04</ele><time>2025-01-11T02:57:29Z</time></trkpt><trkpt lat="33.7273197" lon="132.8425027"><ele>212.83333333333334</ele><time>2025-01-11T02:57:53Z</time></trkpt><trkpt lat="33.7272445" lon="132.8422653"><ele>217.6833333333333</ele><time>2025-01-11T02:58:26Z</time></trkpt><trkpt lat="33.7271708" lon="132.8420673"><ele>222.11333333333334</ele><time>2025-01-11T02:59:40Z</time></trkpt><trkpt lat="33.7270021" lon="132.8419746"><ele>228.48000000000002</ele><time>2025-01-11T03:00:55Z</time></trkpt><trkpt lat="33.7268274" lon="132.8420281"><ele>232.54333333333332</ele><time>2025-01-11T03:02:35Z</time></trkpt><trkpt lat="33.7266439" lon="132.8420019"><ele>235.62333333333333</ele><time>2025-01-11T03:03:10Z</time></trkpt><trkpt lat="33.7264626" lon="132.8420396"><ele>238.38333333333333</ele><time>2025-01-11T03:03:37Z</time></trkpt><trkpt lat="33.7262985" lon="132.8418692"><ele>241.73333333333335</ele><time>2025-01-11T03:04:08Z</time></trkpt><trkpt lat="33.7263001" lon="132.841652"><ele>245.53333333333333</ele><time>2025-01-11T03:04:26Z</time></trkpt><trkpt lat="33.7263767" lon="132.8414345"><ele>249.59</ele><time>2025-01-11T03:06:31Z</time></trkpt><trkpt lat="33.7264737" lon="132.841238"><ele>253.58333333333334</ele><time>2025-01-11T03:07:19Z</time></trkpt><trkpt lat="33.7266195" lon="132.8410803"><ele>257.63000000000005</ele><time>2025-01-11T03:07:43Z</time></trkpt><trkpt lat="33.7266949" lon="132.8408672"><ele>260.8933333333334</ele><time>2025-01-11T03:08:07Z</time></trkpt><trkpt lat="33.7268118" lon="132.8406881"><ele>263.28</ele><time>2025-01-11T03:08:28Z</time></trkpt><trkpt lat="33.726884" lon="132.8404875"><ele>264.8566666666666</ele><time>2025-01-11T03:08:49Z</time></trkpt><trkpt lat="33.727065" lon="132.8404553"><ele>267.33666666666664</ele><time>2025-01-11T03:09:51Z</time></trkpt><trkpt lat="33.7272525" lon="132.8403596"><ele>270.79</ele><time>2025-01-11T03:10:30Z</time></trkpt><trkpt lat="33.7274189" lon="132.8402616"><ele>275.89000000000004</ele><time>2025-01-11T03:11:37Z</time></trkpt><trkpt lat="33.7275836" lon="132.8401629"><ele>283.04333333333335</ele><time>2025-01-11T03:12:23Z</time></trkpt><trkpt lat="33.7277606" lon="132.8400439"><ele>291.98333333333335</ele><time>2025-01-11T03:13:00Z</time></trkpt><trkpt lat="33.7279114" lon="132.8399178"><ele>301.3066666666667</ele><time>2025-01-11T03:15:12Z</time></trkpt><trkpt lat="33.728086" lon="132.8398487"><ele>310.14</ele><time>2025-01-11T03:15:54Z</time></trkpt><trkpt lat="33.7278397" lon="132.8399212"><ele>312.2666666666667</ele><time>2025-01-11T03:16:15Z</time></trkpt><trkpt lat="33.7279055" lon="132.8397112"><ele>315.62333333333333</ele><time>2025-01-11T03:16:57Z</time></trkpt><trkpt lat="33.7280765" lon="132.8395877"><ele>319.12333333333333</ele><time>2025-01-11T03:17:33Z</time></trkpt><trkpt lat="33.7282159" lon="132.8394158"><ele>329.67333333333335</ele><time>2025-01-11T03:18:46Z</time></trkpt><trkpt lat="33.7283493" lon="132.8392541"><ele>338.99666666666667</ele><time>2025-01-11T03:19:27Z</time></trkpt><trkpt lat="33.7282655" lon="132.8390525"><ele>348.2166666666667</ele><time>2025-01-11T03:20:24Z</time></trkpt><trkpt lat="33.7282603" lon="132.8388324"><ele>357.21000000000004</ele><time>2025-01-11T03:22:01Z</time></trkpt><trkpt lat="33.7282803" lon="132.8386021"><ele>368.03999999999996</ele><time>2025-01-11T03:23:13Z</time></trkpt><trkpt lat="33.7282794" lon="132.8388236"><ele>371.26</ele><time>2025-01-11T03:43:39Z</time></trkpt><trkpt lat="33.7283324" lon="132.8390339"><ele>368.45</ele><time>2025-01-11T03:49:38Z</time></trkpt><trkpt lat="33.7282535" lon="132.8392553"><ele>358.50333333333333</ele><time>2025-01-11T03:50:44Z</time></trkpt><trkpt lat="33.7281216" lon="132.8394103"><ele>348.97333333333336</ele><time>2025-01-11T03:52:11Z</time></trkpt><trkpt lat="33.7281501" lon="132.8396239"><ele>339.1366666666667</ele><time>2025-01-11T03:53:26Z</time></trkpt><trkpt lat="33.7279952" lon="132.839783"><ele>329.35333333333335</ele><time>2025-01-11T03:54:20Z</time></trkpt><trkpt lat="33.7278693" lon="132.8399501"><ele>319.7766666666667</ele><time>2025-01-11T03:54:53Z</time></trkpt><trkpt lat="33.7277387" lon="132.840104"><ele>310.0366666666667</ele><time>2025-01-11T03:55:32Z</time></trkpt><trkpt lat="33.7275561" lon="132.8401473"><ele>300.78000000000003</ele><time>2025-01-11T03:56:16Z</time></trkpt><trkpt lat="33.7273739" lon="132.8402457"><ele>291.61333333333334</ele><time>2025-01-11T03:58:09Z</time></trkpt><trkpt lat="33.7271837" lon="132.84029"><ele>283.74333333333334</ele><time>2025-01-11T03:58:36Z</time></trkpt><trkpt lat="33.7270063" lon="132.840391"><ele>276.57666666666665</ele><time>2025-01-11T03:59:09Z</time></trkpt><trkpt lat="33.7268719" lon="132.8405522"><ele>271.89000000000004</ele><time>2025-01-11T03:59:44Z</time></trkpt><trkpt lat="33.7267345" lon="132.8407153"><ele>268.18666666666667</ele><time>2025-01-11T04:00:05Z</time></trkpt><trkpt lat="33.726638" lon="132.8409071"><ele>265.06</ele><time>2025-01-11T04:00:22Z</time></trkpt><trkpt lat="33.7265755" lon="132.8411099"><ele>262.9533333333333</ele><time>2025-01-11T04:00:46Z</time></trkpt><trkpt lat="33.7264034" lon="132.8412042"><ele>260.34</ele><time>2025-01-11T04:01:15Z</time></trkpt><trkpt lat="33.7262815" lon="132.8413923"><ele>256.9633333333333</ele><time>2025-01-11T04:01:36Z</time></trkpt><trkpt lat="33.7262694" lon="132.8416135"><ele>253.64666666666668</ele><time>2025-01-11T04:02:09Z</time></trkpt><trkpt lat="33.7263024" lon="132.8418433"><ele>249.77666666666664</ele><time>2025-01-11T04:02:36Z</time></trkpt><trkpt lat="33.7264387" lon="132.8419943"><ele>245.83333333333334</ele><time>2025-01-11T04:03:12Z</time></trkpt><trkpt lat="33.7266286" lon="132.8420032"><ele>241.73333333333335</ele><time>2025-01-11T04:03:45Z</time></trkpt><trkpt lat="33.7267907" lon="132.8419023"><ele>239.46333333333334</ele><time>2025-01-11T04:04:27Z</time></trkpt><trkpt lat="33.7269188" lon="132.8420544"><ele>235.71</ele><time>2025-01-11T04:05:48Z</time></trkpt><trkpt lat="33.7271077" lon="132.8420586"><ele>232.58666666666667</ele><time>2025-01-11T04:06:21Z</time></trkpt><trkpt lat="33.7272404" lon="132.8422493"><ele>227.4433333333333</ele><time>2025-01-11T04:06:56Z</time></trkpt><trkpt lat="33.7272994" lon="132.8424851"><ele>222.07000000000002</ele><time>2025-01-11T04:07:14Z</time></trkpt><trkpt lat="33.7271086" lon="132.8424095"><ele>217.16666666666666</ele><time>2025-01-11T04:07:35Z</time></trkpt><trkpt lat="33.7271186" lon="132.8426413"><ele>211.89000000000001</ele><time>2025-01-11T04:08:10Z</time></trkpt><trkpt lat="33.7271823" lon="132.8428658"><ele>207.37666666666667</ele><time>2025-01-11T04:08:37Z</time></trkpt><trkpt lat="33.7273581" lon="132.8430027"><ele>201.61333333333334</ele><time>2025-01-11T04:08:52Z</time></trkpt><trkpt lat="33.727527" lon="132.843124"><ele>197.76</ele><time>2025-01-11T04:09:07Z</time></trkpt><trkpt lat="33.7274613" lon="132.843337"><ele>197.56333333333336</ele><time>2025-01-11T04:09:34Z</time></trkpt><trkpt lat="33.7274365" lon="132.8435758"><ele>199.29</ele><time>2025-01-11T04:09:58Z</time></trkpt><trkpt lat="33.7274214" lon="132.843807"><ele>203.10666666666665</ele><time>2025-01-11T04:10:25Z</time></trkpt></trkseg></trk></gpx>