<?xml version='1.0' encoding='UTF-8'?><gpx creator="Yama Museum Summit Candidate Generator" xsi:schemaLocation="http://www.topografix.com/GPX/1/1 http://www.topografix.com/GPX/1/1/gpx.xsd" version="1.1" xmlns="http://www.topografix.com/GPX/1/1" xmlns:xsi="http://www.w3.org/2001/XMLSchema-instance" xmlns:yama="https://museum-yama-data.moukaeritai.work/ns/yama-data/0.1"><metadata><bounds maxlat="33.9160998" maxlon="133.6444927" minlat="33.8715409" minlon="133.6036207"/><name>三ッ足山・カガマシ山・橡尾山・笹ヶ峰</name><extensions><yama:source_gpx_basename>yamap_2024-10-14_04_48.gpx</yama:source_gpx_basename><yama:source_gpx_relative_path>data/01_raw/gpx/2026-05-12/yamap_2024-10-14_04_48.gpx</yama:source_gpx_relative_path><yama:detection_parameters>window=5,radius=10,min_prominence=30,merge=100</yama:detection_parameters></extensions></metadata><wpt lat="33.895514" lon="133.6139166"><ele>1096.6433333333332</ele><time>2024-10-13T22:45:27Z</time><name>summit-candidate:8078eb6cc96c519a</name><desc>Summit candidate detected at elevation 1096.6433333333332m with prominence 138.08199999999988m.</desc><sym>Summit Candidate</sym><extensions><yama:source_trackpoint_index>95</yama:source_trackpoint_index><yama:valid_elevation_index>95</yama:valid_elevation_index><yama:smoothed_ele>1096.6593333333333</yama:smoothed_ele><yama:prominence>138.08199999999988</yama:prominence><yama:detection_method>local_maxima_with_prominence</yama:detection_method><yama:detection_parameters>window=5,radius=10,min_prominence=30,merge=100</yama:detection_parameters><yama:candidate_status>unresolved</yama:candidate_status></extensions></wpt>
  <wpt lat="33.8803402" lon="133.6037486"><ele>1340.51</ele><time>2024-10-14T01:04:11Z</time><name>summit-candidate:0886436b79473a6c</name><desc>Summit candidate detected at elevation 1340.51m with prominence 972.5505555555553m.</desc><sym>Summit Candidate</sym><extensions><yama:source_trackpoint_index>200</yama:source_trackpoint_index><yama:valid_elevation_index>200</yama:valid_elevation_index><yama:smoothed_ele>1338.2066666666665</yama:smoothed_ele><yama:prominence>972.5505555555553</yama:prominence><yama:detection_method>local_maxima_with_prominence</yama:detection_method><yama:detection_parameters>window=5,radius=10,min_prominence=30,merge=100</yama:detection_parameters><yama:candidate_status>unresolved</yama:candidate_status></extensions></wpt>
  <wpt lat="33.8717366" lon="133.6269198"><ele>1220.8566666666666</ele><time>2024-10-14T02:23:58Z</time><name>summit-candidate:a1b1b7885eeab893</name><desc>Summit candidate detected at elevation 1220.8566666666666m with prominence 72.654m.</desc><sym>Summit Candidate</sym><extensions><yama:source_trackpoint_index>327</yama:source_trackpoint_index><yama:valid_elevation_index>327</yama:valid_elevation_index><yama:smoothed_ele>1220.808</yama:smoothed_ele><yama:prominence>72.654</yama:prominence><yama:detection_method>local_maxima_with_prominence</yama:detection_method><yama:detection_parameters>window=5,radius=10,min_prominence=30,merge=100</yama:detection_parameters><yama:candidate_status>unresolved</yama:candidate_status></extensions></wpt>
  <wpt lat="33.8802331" lon="133.6356728"><ele>1024.2766666666666</ele><time>2024-10-14T03:37:46Z</time><name>summit-candidate:851dc9683d2d7442</name><desc>Summit candidate detected at elevation 1024.2766666666666m with prominence 43.927999999999884m.</desc><sym>Summit Candidate</sym><extensions><yama:source_trackpoint_index>393</yama:source_trackpoint_index><yama:valid_elevation_index>393</yama:valid_elevation_index><yama:smoothed_ele>1022.9906666666666</yama:smoothed_ele><yama:prominence>43.927999999999884</yama:prominence><yama:detection_method>local_maxima_with_prominence</yama:detection_method><yama:detection_parameters>window=5,radius=10,min_prominence=30,merge=100</yama:detection_parameters><yama:candidate_status>unresolved</yama:candidate_status></extensions></wpt>
  <wpt lat="33.8837598" lon="133.6434747"><ele>1017.4166666666666</ele><time>2024-10-14T04:14:29Z</time><name>summit-candidate:a53ed6259e132097</name><desc>Summit candidate detected at elevation 1017.4166666666666m with prominence 42.78733333333321m.</desc><sym>Summit Candidate</sym><extensions><yama:source_trackpoint_index>436</yama:source_trackpoint_index><yama:valid_elevation_index>436</yama:valid_elevation_index><yama:smoothed_ele>1016.5326666666667</yama:smoothed_ele><yama:prominence>42.78733333333321</yama:prominence><yama:detection_method>local_maxima_with_prominence</yama:detection_method><yama:detection_parameters>window=5,radius=10,min_prominence=30,merge=100</yama:detection_parameters><yama:candidate_status>unresolved</yama:candidate_status></extensions></wpt>
  <wpt lat="33.9019921" lon="133.6396523"><ele>846.3000000000001</ele><time>2024-10-14T05:13:07Z</time><name>summit-candidate:fecfbf815fc6d5a7</name><desc>Summit candidate detected at elevation 846.3000000000001m with prominence 75.3993333333334m.</desc><sym>Summit Candidate</sym><extensions><yama:source_trackpoint_index>543</yama:source_trackpoint_index><yama:valid_elevation_index>543</yama:valid_elevation_index><yama:smoothed_ele>844.284</yama:smoothed_ele><yama:prominence>75.3993333333334</yama:prominence><yama:detection_method>local_maxima_with_prominence</yama:detection_method><yama:detection_parameters>window=5,radius=10,min_prominence=30,merge=100</yama:detection_parameters><yama:candidate_status>unresolved</yama:candidate_status></extensions></wpt>
  <trk><name>三ッ足山・カガマシ山・橡尾山・笹ヶ峰</name><number>1</number><trkseg><trkpt lat="33.9031767" lon="133.6300293"><ele>359.75</ele><time>2024-10-13T19:48:21Z</time></trkpt><trkpt lat="33.9030907" lon="133.6298306"><ele>365.735</ele><time>2024-10-13T19:53:49Z</time></trkpt><trkpt lat="33.9029308" lon="133.629725"><ele>371.48333333333335</ele><time>2024-10-13T19:54:34Z</time></trkpt><trkpt lat="33.9027444" lon="133.6296793"><ele>384.2066666666667</ele><time>2024-10-13T19:56:04Z</time></trkpt><trkpt lat="33.9026055" lon="133.6295389"><ele>397.02000000000004</ele><time>2024-10-13T19:57:16Z</time></trkpt><trkpt lat="33.9024381" lon="133.6296283"><ele>407.93</ele><time>2024-10-13T19:59:40Z</time></trkpt><trkpt lat="33.9022605" lon="133.6295569"><ele>418.02333333333337</ele><time>2024-10-13T20:01:31Z</time></trkpt><trkpt lat="33.9021459" lon="133.6293893"><ele>427.2766666666667</ele><time>2024-10-13T20:02:37Z</time></trkpt><trkpt lat="33.9020473" lon="133.6291933"><ele>438.8333333333333</ele><time>2024-10-13T20:03:46Z</time></trkpt><trkpt lat="33.901963" lon="133.6289874"><ele>449.99666666666667</ele><time>2024-10-13T20:06:52Z</time></trkpt><trkpt lat="33.9020278" lon="133.6287782"><ele>459.93666666666667</ele><time>2024-10-13T20:07:40Z</time></trkpt><trkpt lat="33.9019596" lon="133.6285717"><ele>469.41</ele><time>2024-10-13T20:09:34Z</time></trkpt><trkpt lat="33.9018276" lon="133.6284221"><ele>479.01666666666665</ele><time>2024-10-13T20:15:16Z</time></trkpt><trkpt lat="33.901688" lon="133.628264"><ele>490.0233333333333</ele><time>2024-10-13T20:16:49Z</time></trkpt><trkpt lat="33.9015534" lon="133.6281103"><ele>499.85999999999996</ele><time>2024-10-13T20:18:37Z</time></trkpt><trkpt lat="33.9014298" lon="133.6279524"><ele>510.32</ele><time>2024-10-13T20:19:13Z</time></trkpt><trkpt lat="33.9013876" lon="133.6277379"><ele>520.58</ele><time>2024-10-13T20:21:58Z</time></trkpt><trkpt lat="33.9012896" lon="133.6275417"><ele>530.2399999999999</ele><time>2024-10-13T20:23:10Z</time></trkpt><trkpt lat="33.9012024" lon="133.6273436"><ele>537.43</ele><time>2024-10-13T20:24:49Z</time></trkpt><trkpt lat="33.9010738" lon="133.6271865"><ele>545.9133333333333</ele><time>2024-10-13T20:25:58Z</time></trkpt><trkpt lat="33.9009165" lon="133.6270747"><ele>555.6233333333333</ele><time>2024-10-13T20:27:16Z</time></trkpt><trkpt lat="33.9007327" lon="133.6270117"><ele>569.3866666666667</ele><time>2024-10-13T20:29:07Z</time></trkpt><trkpt lat="33.9005482" lon="133.6270001"><ele>584.44</ele><time>2024-10-13T20:31:37Z</time></trkpt><trkpt lat="33.9003885" lon="133.6268965"><ele>600.0533333333334</ele><time>2024-10-13T20:35:19Z</time></trkpt><trkpt lat="33.9002112" lon="133.626843"><ele>614.4133333333333</ele><time>2024-10-13T20:40:58Z</time></trkpt><trkpt lat="33.9000289" lon="133.6268403"><ele>628.5100000000001</ele><time>2024-10-13T20:43:40Z</time></trkpt><trkpt lat="33.8998526" lon="133.6267924"><ele>640.4733333333334</ele><time>2024-10-13T20:46:58Z</time></trkpt><trkpt lat="33.8997947" lon="133.6265777"><ele>648.58</ele><time>2024-10-13T20:47:52Z</time></trkpt><trkpt lat="33.8997572" lon="133.6263642"><ele>652.5566666666667</ele><time>2024-10-13T20:48:37Z</time></trkpt><trkpt lat="33.8996694" lon="133.6261626"><ele>655.2566666666667</ele><time>2024-10-13T20:49:07Z</time></trkpt><trkpt lat="33.8995839" lon="133.6259614"><ele>658.1999999999999</ele><time>2024-10-13T20:49:49Z</time></trkpt><trkpt lat="33.8994601" lon="133.6258"><ele>660.88</ele><time>2024-10-13T20:51:10Z</time></trkpt><trkpt lat="33.8993579" lon="133.6256162"><ele>664.7933333333333</ele><time>2024-10-13T20:52:31Z</time></trkpt><trkpt lat="33.899257" lon="133.6254239"><ele>669.36</ele><time>2024-10-13T20:54:01Z</time></trkpt><trkpt lat="33.8991372" lon="133.6252512"><ele>674.4200000000001</ele><time>2024-10-13T20:55:43Z</time></trkpt><trkpt lat="33.899" lon="133.6250951"><ele>679.2966666666666</ele><time>2024-10-13T20:56:37Z</time></trkpt><trkpt lat="33.8988884" lon="133.6249108"><ele>683.91</ele><time>2024-10-13T20:57:43Z</time></trkpt><trkpt lat="33.8987182" lon="133.6248313"><ele>688.88</ele><time>2024-10-13T20:58:37Z</time></trkpt><trkpt lat="33.8986447" lon="133.6246102"><ele>695.1733333333333</ele><time>2024-10-13T21:01:55Z</time></trkpt><trkpt lat="33.898631" lon="133.6243942"><ele>703.4933333333333</ele><time>2024-10-13T21:04:34Z</time></trkpt><trkpt lat="33.8985718" lon="133.6241874"><ele>714.8133333333334</ele><time>2024-10-13T21:06:52Z</time></trkpt><trkpt lat="33.8985016" lon="133.6239879"><ele>728.4</ele><time>2024-10-13T21:09:04Z</time></trkpt><trkpt lat="33.898418" lon="133.6237928"><ele>742.02</ele><time>2024-10-13T21:17:49Z</time></trkpt><trkpt lat="33.8983468" lon="133.6235883"><ele>755.1966666666667</ele><time>2024-10-13T21:20:01Z</time></trkpt><trkpt lat="33.8981946" lon="133.6234648"><ele>765.84</ele><time>2024-10-13T21:22:04Z</time></trkpt><trkpt lat="33.8980998" lon="133.6232733"><ele>776.7666666666668</ele><time>2024-10-13T21:24:10Z</time></trkpt><trkpt lat="33.8980126" lon="133.6230771"><ele>783.8566666666666</ele><time>2024-10-13T21:25:34Z</time></trkpt><trkpt lat="33.8978465" lon="133.6229848"><ele>792.2966666666667</ele><time>2024-10-13T21:26:28Z</time></trkpt><trkpt lat="33.8976879" lon="133.622852"><ele>798.8566666666667</ele><time>2024-10-13T21:27:22Z</time></trkpt><trkpt lat="33.8975707" lon="133.6226847"><ele>808.1533333333333</ele><time>2024-10-13T21:28:52Z</time></trkpt><trkpt lat="33.8974535" lon="133.6225169"><ele>818.8933333333334</ele><time>2024-10-13T21:31:04Z</time></trkpt><trkpt lat="33.8974275" lon="133.6222961"><ele>832.36</ele><time>2024-10-13T21:34:37Z</time></trkpt><trkpt lat="33.8972755" lon="133.6221698"><ele>848.4133333333334</ele><time>2024-10-13T21:35:34Z</time></trkpt><trkpt lat="33.8970889" lon="133.6220992"><ele>862.0500000000001</ele><time>2024-10-13T21:37:10Z</time></trkpt><trkpt lat="33.896905" lon="133.6221112"><ele>872.5666666666666</ele><time>2024-10-13T21:38:52Z</time></trkpt><trkpt lat="33.8967754" lon="133.6219518"><ele>881.3266666666667</ele><time>2024-10-13T21:40:13Z</time></trkpt><trkpt lat="33.8966598" lon="133.6217813"><ele>890.08</ele><time>2024-10-13T21:41:10Z</time></trkpt><trkpt lat="33.8965407" lon="133.6216015"><ele>897.4033333333333</ele><time>2024-10-13T21:42:09Z</time></trkpt><trkpt lat="33.8964575" lon="133.6214076"><ele>899.3733333333333</ele><time>2024-10-13T21:43:03Z</time></trkpt><trkpt lat="33.8965152" lon="133.6211919"><ele>899.5566666666667</ele><time>2024-10-13T21:44:39Z</time></trkpt><trkpt lat="33.8965454" lon="133.6209719"><ele>898.4833333333332</ele><time>2024-10-13T21:45:30Z</time></trkpt><trkpt lat="33.8965862" lon="133.6207538"><ele>896.8833333333333</ele><time>2024-10-13T21:46:27Z</time></trkpt><trkpt lat="33.8965744" lon="133.6205342"><ele>894.0833333333334</ele><time>2024-10-13T21:48:03Z</time></trkpt><trkpt lat="33.896579" lon="133.6203126"><ele>892.4433333333333</ele><time>2024-10-13T21:50:09Z</time></trkpt><trkpt lat="33.8965174" lon="133.620106"><ele>894.5366666666667</ele><time>2024-10-13T21:53:18Z</time></trkpt><trkpt lat="33.8964802" lon="133.6198834"><ele>901.93</ele><time>2024-10-13T21:54:36Z</time></trkpt><trkpt lat="33.8963737" lon="133.6197085"><ele>912.1266666666667</ele><time>2024-10-13T21:57:57Z</time></trkpt><trkpt lat="33.8962744" lon="133.6195243"><ele>921.0666666666667</ele><time>2024-10-13T22:00:23Z</time></trkpt><trkpt lat="33.8962334" lon="133.6193075"><ele>930.2566666666668</ele><time>2024-10-13T22:02:08Z</time></trkpt><trkpt lat="33.8961117" lon="133.6191452"><ele>941.04</ele><time>2024-10-13T22:14:17Z</time></trkpt><trkpt lat="33.8959947" lon="133.6189792"><ele>955.2833333333334</ele><time>2024-10-13T22:15:47Z</time></trkpt><trkpt lat="33.8958817" lon="133.6188016"><ele>966.7266666666666</ele><time>2024-10-13T22:16:50Z</time></trkpt><trkpt lat="33.8957247" lon="133.6186867"><ele>976.18</ele><time>2024-10-13T22:17:55Z</time></trkpt><trkpt lat="33.8955806" lon="133.6185483"><ele>984.7966666666666</ele><time>2024-10-13T22:19:43Z</time></trkpt><trkpt lat="33.8955439" lon="133.6183347"><ele>993.0799999999999</ele><time>2024-10-13T22:20:46Z</time></trkpt><trkpt lat="33.8954603" lon="133.6181411"><ele>999.7433333333333</ele><time>2024-10-13T22:22:37Z</time></trkpt><trkpt lat="33.8954866" lon="133.6179216"><ele>1004.0233333333332</ele><time>2024-10-13T22:23:31Z</time></trkpt><trkpt lat="33.8955413" lon="133.6177028"><ele>1007.9500000000002</ele><time>2024-10-13T22:25:16Z</time></trkpt><trkpt lat="33.8956517" lon="133.6175315"><ele>1014.0799999999999</ele><time>2024-10-13T22:28:19Z</time></trkpt><trkpt lat="33.8957195" lon="133.6173295"><ele>1025.53</ele><time>2024-10-13T22:29:49Z</time></trkpt><trkpt lat="33.8957819" lon="133.6171131"><ele>1036.3</ele><time>2024-10-13T22:31:34Z</time></trkpt><trkpt lat="33.8956697" lon="133.6169262"><ele>1045.4433333333334</ele><time>2024-10-13T22:32:13Z</time></trkpt><trkpt lat="33.8956441" lon="133.6167064"><ele>1051.28</ele><time>2024-10-13T22:34:58Z</time></trkpt><trkpt lat="33.8956933" lon="133.6164975"><ele>1058.5666666666666</ele><time>2024-10-13T22:36:43Z</time></trkpt><trkpt lat="33.8955981" lon="133.6163085"><ele>1067.6633333333334</ele><time>2024-10-13T22:38:31Z</time></trkpt><trkpt lat="33.8954896" lon="133.6161192"><ele>1075.7733333333333</ele><time>2024-10-13T22:39:30Z</time></trkpt><trkpt lat="33.8953755" lon="133.61593"><ele>1083.2933333333333</ele><time>2024-10-13T22:40:12Z</time></trkpt><trkpt lat="33.8953641" lon="133.6157033"><ele>1088.1033333333335</ele><time>2024-10-13T22:40:48Z</time></trkpt><trkpt lat="33.8954303" lon="133.6154866"><ele>1091.04</ele><time>2024-10-13T22:41:18Z</time></trkpt><trkpt lat="33.8954708" lon="133.6152564"><ele>1092.44</ele><time>2024-10-13T22:42:06Z</time></trkpt><trkpt lat="33.8954418" lon="133.6150374"><ele>1093.4866666666667</ele><time>2024-10-13T22:42:39Z</time></trkpt><trkpt lat="33.8954848" lon="133.6148172"><ele>1094.5633333333333</ele><time>2024-10-13T22:43:18Z</time></trkpt><trkpt lat="33.8954476" lon="133.6145865"><ele>1095.25</ele><time>2024-10-13T22:44:06Z</time></trkpt><trkpt lat="33.8954423" lon="133.6143565"><ele>1094.2533333333333</ele><time>2024-10-13T22:44:33Z</time></trkpt><trkpt lat="33.8954702" lon="133.6141338"><ele>1094.6633333333332</ele><time>2024-10-13T22:44:57Z</time></trkpt><trkpt lat="33.895514" lon="133.6139166"><ele>1096.6433333333332</ele><time>2024-10-13T22:45:27Z</time></trkpt><trkpt lat="33.8954923" lon="133.6137007"><ele>1099.78</ele><time>2024-10-13T22:46:24Z</time></trkpt><trkpt lat="33.8953252" lon="133.6135728"><ele>1097.9566666666667</ele><time>2024-10-13T22:59:48Z</time></trkpt><trkpt lat="33.8951515" lon="133.6134532"><ele>1092.0566666666666</ele><time>2024-10-13T23:00:14Z</time></trkpt><trkpt lat="33.8949658" lon="133.6133635"><ele>1082.56</ele><time>2024-10-13T23:00:43Z</time></trkpt><trkpt lat="33.8947943" lon="133.6132792"><ele>1072.9800000000002</ele><time>2024-10-13T23:01:14Z</time></trkpt><trkpt lat="33.8946341" lon="133.6131644"><ele>1062.7533333333333</ele><time>2024-10-13T23:02:20Z</time></trkpt><trkpt lat="33.8945467" lon="133.6129594"><ele>1053.26</ele><time>2024-10-13T23:02:58Z</time></trkpt><trkpt lat="33.8943784" lon="133.612865"><ele>1044.4733333333334</ele><time>2024-10-13T23:03:25Z</time></trkpt><trkpt lat="33.894213" lon="133.6127753"><ele>1037.17</ele><time>2024-10-13T23:03:52Z</time></trkpt><trkpt lat="33.8940441" lon="133.6126385"><ele>1031.4566666666667</ele><time>2024-10-13T23:04:22Z</time></trkpt><trkpt lat="33.8938723" lon="133.6125026"><ele>1027.1866666666667</ele><time>2024-10-13T23:05:07Z</time></trkpt><trkpt lat="33.8937659" lon="133.6123277"><ele>1023.4366666666668</ele><time>2024-10-13T23:06:28Z</time></trkpt><trkpt lat="33.8937201" lon="133.6120918"><ele>1020.46</ele><time>2024-10-13T23:07:43Z</time></trkpt><trkpt lat="33.8935639" lon="133.6119588"><ele>1017.2333333333332</ele><time>2024-10-13T23:08:13Z</time></trkpt><trkpt lat="33.893471" lon="133.6117672"><ele>1013.4866666666667</ele><time>2024-10-13T23:08:36Z</time></trkpt><trkpt lat="33.8933161" lon="133.6116456"><ele>1009.6066666666667</ele><time>2024-10-13T23:09:09Z</time></trkpt><trkpt lat="33.8931671" lon="133.6114966"><ele>1006.0</ele><time>2024-10-13T23:09:51Z</time></trkpt><trkpt lat="33.8930857" lon="133.6113033"><ele>1003.57</ele><time>2024-10-13T23:10:15Z</time></trkpt><trkpt lat="33.8930057" lon="133.6110889"><ele>1001.9533333333334</ele><time>2024-10-13T23:11:06Z</time></trkpt><trkpt lat="33.8929075" lon="133.6108831"><ele>1000.6533333333333</ele><time>2024-10-13T23:11:30Z</time></trkpt><trkpt lat="33.8928418" lon="133.6106761"><ele>999.6300000000001</ele><time>2024-10-13T23:11:51Z</time></trkpt><trkpt lat="33.8927404" lon="133.6104752"><ele>998.7666666666668</ele><time>2024-10-13T23:12:23Z</time></trkpt><trkpt lat="33.8925559" lon="133.6104028"><ele>995.6566666666668</ele><time>2024-10-13T23:12:50Z</time></trkpt><trkpt lat="33.8923888" lon="133.6103066"><ele>991.2333333333332</ele><time>2024-10-13T23:13:25Z</time></trkpt><trkpt lat="33.8922903" lon="133.610109"><ele>984.4666666666667</ele><time>2024-10-13T23:14:13Z</time></trkpt><trkpt lat="33.8921871" lon="133.6099102"><ele>980.0766666666667</ele><time>2024-10-13T23:14:43Z</time></trkpt><trkpt lat="33.8920481" lon="133.6097444"><ele>976.0600000000001</ele><time>2024-10-13T23:15:09Z</time></trkpt><trkpt lat="33.8918924" lon="133.6096296"><ele>973.4000000000001</ele><time>2024-10-13T23:15:29Z</time></trkpt><trkpt lat="33.8917394" lon="133.6094915"><ele>970.7166666666667</ele><time>2024-10-13T23:15:59Z</time></trkpt><trkpt lat="33.8915608" lon="133.609385"><ele>966.4266666666667</ele><time>2024-10-13T23:16:29Z</time></trkpt><trkpt lat="33.8914467" lon="133.6092124"><ele>963.8100000000001</ele><time>2024-10-13T23:17:26Z</time></trkpt><trkpt lat="33.8913144" lon="133.6090385"><ele>962.0566666666667</ele><time>2024-10-13T23:18:14Z</time></trkpt><trkpt lat="33.8911575" lon="133.6089166"><ele>964.4333333333334</ele><time>2024-10-13T23:18:56Z</time></trkpt><trkpt lat="33.8910395" lon="133.6087383"><ele>968.75</ele><time>2024-10-13T23:19:35Z</time></trkpt><trkpt lat="33.8909161" lon="133.60856"><ele>973.5533333333333</ele><time>2024-10-13T23:20:20Z</time></trkpt><trkpt lat="33.8907495" lon="133.6084703"><ele>974.3633333333333</ele><time>2024-10-13T23:22:41Z</time></trkpt><trkpt lat="33.890566" lon="133.6084193"><ele>969.9966666666668</ele><time>2024-10-13T23:23:17Z</time></trkpt><trkpt lat="33.8903838" lon="133.6083472"><ele>963.8000000000001</ele><time>2024-10-13T23:23:44Z</time></trkpt><trkpt lat="33.8901897" lon="133.6082345"><ele>957.7400000000001</ele><time>2024-10-13T23:24:17Z</time></trkpt><trkpt lat="33.890014" lon="133.6081854"><ele>954.3233333333334</ele><time>2024-10-13T23:24:47Z</time></trkpt><trkpt lat="33.8898437" lon="133.6080903"><ele>955.41</ele><time>2024-10-13T23:25:23Z</time></trkpt><trkpt lat="33.8896591" lon="133.6080334"><ele>961.6133333333333</ele><time>2024-10-13T23:26:32Z</time></trkpt><trkpt lat="33.8894817" lon="133.6080884"><ele>969.37</ele><time>2024-10-13T23:27:13Z</time></trkpt><trkpt lat="33.8893042" lon="133.6081748"><ele>975.4066666666668</ele><time>2024-10-13T23:27:43Z</time></trkpt><trkpt lat="33.8891211" lon="133.6082224"><ele>981.4966666666666</ele><time>2024-10-13T23:28:22Z</time></trkpt><trkpt lat="33.888941" lon="133.6081857"><ele>988.84</ele><time>2024-10-13T23:30:19Z</time></trkpt><trkpt lat="33.8887593" lon="133.60814"><ele>997.8766666666667</ele><time>2024-10-13T23:32:04Z</time></trkpt><trkpt lat="33.8885919" lon="133.6082548"><ele>1008.4200000000001</ele><time>2024-10-13T23:33:58Z</time></trkpt><trkpt lat="33.8884093" lon="133.6082468"><ele>1020.18</ele><time>2024-10-13T23:34:58Z</time></trkpt><trkpt lat="33.8882211" lon="133.6082413"><ele>1030.96</ele><time>2024-10-13T23:36:22Z</time></trkpt><trkpt lat="33.8880333" lon="133.6082639"><ele>1038.3500000000001</ele><time>2024-10-13T23:38:07Z</time></trkpt><trkpt lat="33.8878516" lon="133.6082237"><ele>1041.8433333333335</ele><time>2024-10-13T23:38:34Z</time></trkpt><trkpt lat="33.887672" lon="133.608164"><ele>1043.17</ele><time>2024-10-13T23:40:19Z</time></trkpt><trkpt lat="33.8875005" lon="133.6080917"><ele>1044.8566666666668</ele><time>2024-10-13T23:40:48Z</time></trkpt><trkpt lat="33.8873223" lon="133.6080502"><ele>1046.9233333333334</ele><time>2024-10-13T23:41:24Z</time></trkpt><trkpt lat="33.8871394" lon="133.6079814"><ele>1049.6033333333332</ele><time>2024-10-13T23:41:56Z</time></trkpt><trkpt lat="33.8869579" lon="133.6079357"><ele>1051.9766666666667</ele><time>2024-10-13T23:42:38Z</time></trkpt><trkpt lat="33.8867957" lon="133.607819"><ele>1054.7966666666666</ele><time>2024-10-13T23:43:35Z</time></trkpt><trkpt lat="33.8866738" lon="133.6076374"><ele>1057.0066666666667</ele><time>2024-10-13T23:44:10Z</time></trkpt><trkpt lat="33.8864693" lon="133.6076003"><ele>1059.9733333333334</ele><time>2024-10-13T23:44:46Z</time></trkpt><trkpt lat="33.8862807" lon="133.6075903"><ele>1062.9066666666668</ele><time>2024-10-13T23:45:10Z</time></trkpt><trkpt lat="33.8861036" lon="133.6074953"><ele>1067.4533333333334</ele><time>2024-10-13T23:45:34Z</time></trkpt><trkpt lat="33.8859412" lon="133.6073847"><ele>1074.033333333333</ele><time>2024-10-13T23:46:37Z</time></trkpt><trkpt lat="33.8857565" lon="133.6073692"><ele>1081.9033333333334</ele><time>2024-10-13T23:48:10Z</time></trkpt><trkpt lat="33.8855771" lon="133.6073929"><ele>1092.3700000000001</ele><time>2024-10-13T23:52:10Z</time></trkpt><trkpt lat="33.8853968" lon="133.6073586"><ele>1102.0166666666667</ele><time>2024-10-13T23:54:07Z</time></trkpt><trkpt lat="33.8852411" lon="133.6072375"><ele>1112.8700000000001</ele><time>2024-10-13T23:55:37Z</time></trkpt><trkpt lat="33.885069" lon="133.6071589"><ele>1123.48</ele><time>2024-10-13T23:57:28Z</time></trkpt><trkpt lat="33.8848865" lon="133.6071075"><ele>1133.9433333333334</ele><time>2024-10-13T23:58:34Z</time></trkpt><trkpt lat="33.8847026" lon="133.6070857"><ele>1143.64</ele><time>2024-10-13T23:59:43Z</time></trkpt><trkpt lat="33.8845188" lon="133.6071124"><ele>1150.4866666666667</ele><time>2024-10-14T00:00:28Z</time></trkpt><trkpt lat="33.8843418" lon="133.6071863"><ele>1156.1233333333334</ele><time>2024-10-14T00:01:34Z</time></trkpt><trkpt lat="33.8841591" lon="133.6071419"><ele>1160.33</ele><time>2024-10-14T00:08:22Z</time></trkpt><trkpt lat="33.8839748" lon="133.6071467"><ele>1164.05</ele><time>2024-10-14T00:09:34Z</time></trkpt><trkpt lat="33.8837889" lon="133.6070591"><ele>1170.4666666666667</ele><time>2024-10-14T00:11:04Z</time></trkpt><trkpt lat="33.8836081" lon="133.6070298"><ele>1177.466666666667</ele><time>2024-10-14T00:11:55Z</time></trkpt><trkpt lat="33.8834278" lon="133.607024"><ele>1186.57</ele><time>2024-10-14T00:13:40Z</time></trkpt><trkpt lat="33.8832475" lon="133.6069884"><ele>1193.7666666666667</ele><time>2024-10-14T00:16:28Z</time></trkpt><trkpt lat="33.8830719" lon="133.6069297"><ele>1204.0566666666666</ele><time>2024-10-14T00:17:49Z</time></trkpt><trkpt lat="33.882894" lon="133.6069804"><ele>1214.17</ele><time>2024-10-14T00:19:28Z</time></trkpt><trkpt lat="33.8827102" lon="133.6069762"><ele>1225.9666666666667</ele><time>2024-10-14T00:23:37Z</time></trkpt><trkpt lat="33.8825315" lon="133.6069284"><ele>1235.8966666666668</ele><time>2024-10-14T00:25:43Z</time></trkpt><trkpt lat="33.8823495" lon="133.6068681"><ele>1246.9966666666667</ele><time>2024-10-14T00:26:40Z</time></trkpt><trkpt lat="33.8821671" lon="133.6068366"><ele>1257.5133333333333</ele><time>2024-10-14T00:33:58Z</time></trkpt><trkpt lat="33.8819877" lon="133.6067792"><ele>1268.2333333333333</ele><time>2024-10-14T00:36:01Z</time></trkpt><trkpt lat="33.8818091" lon="133.6067462"><ele>1280.54</ele><time>2024-10-14T00:38:21Z</time></trkpt><trkpt lat="33.8816169" lon="133.6067041"><ele>1291.3166666666666</ele><time>2024-10-14T00:40:18Z</time></trkpt><trkpt lat="33.8814323" lon="133.6066263"><ele>1298.9399999999998</ele><time>2024-10-14T00:40:57Z</time></trkpt><trkpt lat="33.8813113" lon="133.6064549"><ele>1301.4466666666667</ele><time>2024-10-14T00:41:33Z</time></trkpt><trkpt lat="33.8811496" lon="133.6063227"><ele>1302.3</ele><time>2024-10-14T00:42:12Z</time></trkpt><trkpt lat="33.8810054" lon="133.606186"><ele>1303.0833333333333</ele><time>2024-10-14T00:42:36Z</time></trkpt><trkpt lat="33.8809851" lon="133.6059566"><ele>1303.5166666666667</ele><time>2024-10-14T00:43:06Z</time></trkpt><trkpt lat="33.8809529" lon="133.6057423"><ele>1304.3033333333333</ele><time>2024-10-14T00:43:45Z</time></trkpt><trkpt lat="33.8809615" lon="133.6055091"><ele>1305.3766666666668</ele><time>2024-10-14T00:44:42Z</time></trkpt><trkpt lat="33.8808912" lon="133.605305"><ele>1306.7066666666667</ele><time>2024-10-14T00:45:09Z</time></trkpt><trkpt lat="33.8807656" lon="133.6051406"><ele>1308.0266666666666</ele><time>2024-10-14T00:45:39Z</time></trkpt><trkpt lat="33.8807236" lon="133.6049257"><ele>1309.746666666667</ele><time>2024-10-14T00:46:15Z</time></trkpt><trkpt lat="33.8806964" lon="133.6047089"><ele>1312.9066666666668</ele><time>2024-10-14T00:46:57Z</time></trkpt><trkpt lat="33.8806878" lon="133.6044876"><ele>1316.88</ele><time>2024-10-14T00:47:33Z</time></trkpt><trkpt lat="33.8806414" lon="133.6042757"><ele>1321.7766666666666</ele><time>2024-10-14T00:48:06Z</time></trkpt><trkpt lat="33.8806403" lon="133.6040393"><ele>1326.9233333333334</ele><time>2024-10-14T00:48:51Z</time></trkpt><trkpt lat="33.880503" lon="133.6038742"><ele>1332.1533333333334</ele><time>2024-10-14T00:49:23Z</time></trkpt><trkpt lat="33.8803443" lon="133.6037436"><ele>1336.57</ele><time>2024-10-14T00:49:56Z</time></trkpt><trkpt lat="33.8801778" lon="133.6036207"><ele>1339.51</ele><time>2024-10-14T00:50:26Z</time></trkpt><trkpt lat="33.8803402" lon="133.6037486"><ele>1340.51</ele><time>2024-10-14T01:04:11Z</time></trkpt><trkpt lat="33.8804845" lon="133.6038799"><ele>1338.9366666666667</ele><time>2024-10-14T01:04:41Z</time></trkpt><trkpt lat="33.8805844" lon="133.6040646"><ele>1335.5066666666667</ele><time>2024-10-14T01:05:17Z</time></trkpt><trkpt lat="33.8806126" lon="133.6042906"><ele>1331.09</ele><time>2024-10-14T01:05:51Z</time></trkpt><trkpt lat="33.8806507" lon="133.6045036"><ele>1326.1966666666667</ele><time>2024-10-14T01:06:18Z</time></trkpt><trkpt lat="33.8806656" lon="133.6047199"><ele>1321.03</ele><time>2024-10-14T01:07:00Z</time></trkpt><trkpt lat="33.8807012" lon="133.6049573"><ele>1316.1333333333334</ele><time>2024-10-14T01:07:51Z</time></trkpt><trkpt lat="33.880747" lon="133.6051671"><ele>1311.4133333333334</ele><time>2024-10-14T01:08:32Z</time></trkpt><trkpt lat="33.8808597" lon="133.6053492"><ele>1308.6133333333335</ele><time>2024-10-14T01:08:59Z</time></trkpt><trkpt lat="33.8808785" lon="133.605583"><ele>1306.3666666666666</ele><time>2024-10-14T01:09:23Z</time></trkpt><trkpt lat="33.8808715" lon="133.6058138"><ele>1305.8766666666668</ele><time>2024-10-14T01:09:53Z</time></trkpt><trkpt lat="33.8809134" lon="133.6060335"><ele>1304.7966666666666</ele><time>2024-10-14T01:10:20Z</time></trkpt><trkpt lat="33.8809907" lon="133.6062409"><ele>1303.8366666666666</ele><time>2024-10-14T01:10:50Z</time></trkpt><trkpt lat="33.8811349" lon="133.6064023"><ele>1302.8999999999999</ele><time>2024-10-14T01:11:32Z</time></trkpt><trkpt lat="33.8813065" lon="133.6065049"><ele>1302.3666666666668</ele><time>2024-10-14T01:12:04Z</time></trkpt><trkpt lat="33.8814745" lon="133.6066456"><ele>1302.0466666666666</ele><time>2024-10-14T01:12:35Z</time></trkpt><trkpt lat="33.8815502" lon="133.6068419"><ele>1301.57</ele><time>2024-10-14T01:13:02Z</time></trkpt><trkpt lat="33.8814607" lon="133.6070489"><ele>1300.1466666666665</ele><time>2024-10-14T01:13:28Z</time></trkpt><trkpt lat="33.8813817" lon="133.6072674"><ele>1296.71</ele><time>2024-10-14T01:13:57Z</time></trkpt><trkpt lat="33.8812457" lon="133.6074262"><ele>1291.2166666666665</ele><time>2024-10-14T01:14:21Z</time></trkpt><trkpt lat="33.8811403" lon="133.6076195"><ele>1284.99</ele><time>2024-10-14T01:14:50Z</time></trkpt><trkpt lat="33.8810503" lon="133.6078071"><ele>1279.2066666666667</ele><time>2024-10-14T01:15:44Z</time></trkpt><trkpt lat="33.8811283" lon="133.6080067"><ele>1272.8633333333335</ele><time>2024-10-14T01:16:32Z</time></trkpt><trkpt lat="33.8812046" lon="133.6082089"><ele>1266.1966666666667</ele><time>2024-10-14T01:16:55Z</time></trkpt><trkpt lat="33.8811712" lon="133.6084312"><ele>1259.3700000000001</ele><time>2024-10-14T01:17:31Z</time></trkpt><trkpt lat="33.8811512" lon="133.6086523"><ele>1253.8600000000001</ele><time>2024-10-14T01:18:34Z</time></trkpt><trkpt lat="33.8810861" lon="133.6088585"><ele>1247.94</ele><time>2024-10-14T01:19:15Z</time></trkpt><trkpt lat="33.8811288" lon="133.6090845"><ele>1243.8999999999999</ele><time>2024-10-14T01:19:36Z</time></trkpt><trkpt lat="33.8811095" lon="133.6093166"><ele>1239.3266666666668</ele><time>2024-10-14T01:20:14Z</time></trkpt><trkpt lat="33.8810778" lon="133.6095352"><ele>1236.4233333333334</ele><time>2024-10-14T01:20:53Z</time></trkpt><trkpt lat="33.8810009" lon="133.6097368"><ele>1233.5566666666666</ele><time>2024-10-14T01:21:25Z</time></trkpt><trkpt lat="33.8808725" lon="133.6099409"><ele>1232.6166666666666</ele><time>2024-10-14T01:21:43Z</time></trkpt><trkpt lat="33.8807824" lon="133.6101317"><ele>1232.2366666666667</ele><time>2024-10-14T01:22:07Z</time></trkpt><trkpt lat="33.8807427" lon="133.6103618"><ele>1231.53</ele><time>2024-10-14T01:22:25Z</time></trkpt><trkpt lat="33.8807786" lon="133.6105892"><ele>1231.2299999999998</ele><time>2024-10-14T01:22:43Z</time></trkpt><trkpt lat="33.8807872" lon="133.6108109"><ele>1231.1633333333332</ele><time>2024-10-14T01:23:01Z</time></trkpt><trkpt lat="33.8807693" lon="133.6110605"><ele>1231.36</ele><time>2024-10-14T01:23:18Z</time></trkpt><trkpt lat="33.8807025" lon="133.6112681"><ele>1230.4033333333334</ele><time>2024-10-14T01:23:42Z</time></trkpt><trkpt lat="33.8805197" lon="133.6113758"><ele>1227.96</ele><time>2024-10-14T01:24:26Z</time></trkpt><trkpt lat="33.8803494" lon="133.6114823"><ele>1224.54</ele><time>2024-10-14T01:24:50Z</time></trkpt><trkpt lat="33.880167" lon="133.6115732"><ele>1220.4066666666665</ele><time>2024-10-14T01:25:25Z</time></trkpt><trkpt lat="33.8799761" lon="133.6115503"><ele>1215.9</ele><time>2024-10-14T01:25:46Z</time></trkpt><trkpt lat="33.8798263" lon="133.6116753"><ele>1212.1066666666666</ele><time>2024-10-14T01:26:10Z</time></trkpt><trkpt lat="33.8797065" lon="133.6118679"><ele>1211.6166666666668</ele><time>2024-10-14T01:26:31Z</time></trkpt><trkpt lat="33.8796218" lon="133.6120719"><ele>1212.74</ele><time>2024-10-14T01:26:48Z</time></trkpt><trkpt lat="33.8794918" lon="133.6122512"><ele>1213.9833333333333</ele><time>2024-10-14T01:27:39Z</time></trkpt><trkpt lat="33.8793423" lon="133.6124103"><ele>1213.1133333333335</ele><time>2024-10-14T01:28:03Z</time></trkpt><trkpt lat="33.8792323" lon="133.6126147"><ele>1212.0966666666666</ele><time>2024-10-14T01:28:38Z</time></trkpt><trkpt lat="33.8791514" lon="133.6128376"><ele>1211.3366666666666</ele><time>2024-10-14T01:28:59Z</time></trkpt><trkpt lat="33.8790491" lon="133.6130511"><ele>1210.7266666666667</ele><time>2024-10-14T01:29:20Z</time></trkpt><trkpt lat="33.8789662" lon="133.613288"><ele>1208.9233333333334</ele><time>2024-10-14T01:29:41Z</time></trkpt><trkpt lat="33.8788297" lon="133.6134439"><ele>1206.3066666666666</ele><time>2024-10-14T01:29:58Z</time></trkpt><trkpt lat="33.878742" lon="133.6136363"><ele>1202.8166666666668</ele><time>2024-10-14T01:30:49Z</time></trkpt><trkpt lat="33.8786251" lon="133.6138149"><ele>1200.2066666666667</ele><time>2024-10-14T01:32:22Z</time></trkpt><trkpt lat="33.8784897" lon="133.6139637"><ele>1197.6466666666665</ele><time>2024-10-14T01:32:42Z</time></trkpt><trkpt lat="33.8783797" lon="133.6141582"><ele>1195.63</ele><time>2024-10-14T01:33:03Z</time></trkpt><trkpt lat="33.8783063" lon="133.6143731"><ele>1193.83</ele><time>2024-10-14T01:33:24Z</time></trkpt><trkpt lat="33.8781834" lon="133.6145575"><ele>1192.3100000000002</ele><time>2024-10-14T01:33:45Z</time></trkpt><trkpt lat="33.8781018" lon="133.6147797"><ele>1190.1333333333334</ele><time>2024-10-14T01:34:06Z</time></trkpt><trkpt lat="33.87799" lon="133.6149574"><ele>1187.5500000000002</ele><time>2024-10-14T01:34:30Z</time></trkpt><trkpt lat="33.8778541" lon="133.6151001"><ele>1184.7966666666669</ele><time>2024-10-14T01:35:51Z</time></trkpt><trkpt lat="33.8777509" lon="133.6152911"><ele>1182.6033333333332</ele><time>2024-10-14T01:36:11Z</time></trkpt><trkpt lat="33.8776361" lon="133.6154831"><ele>1179.96</ele><time>2024-10-14T01:36:27Z</time></trkpt><trkpt lat="33.8775081" lon="133.6156656"><ele>1176.5600000000002</ele><time>2024-10-14T01:36:48Z</time></trkpt><trkpt lat="33.8773885" lon="133.6158757"><ele>1172.04</ele><time>2024-10-14T01:37:09Z</time></trkpt><trkpt lat="33.8772593" lon="133.6160621"><ele>1168.3833333333334</ele><time>2024-10-14T01:37:29Z</time></trkpt><trkpt lat="33.8771342" lon="133.6162441"><ele>1165.0133333333333</ele><time>2024-10-14T01:37:56Z</time></trkpt><trkpt lat="33.8770266" lon="133.6164622"><ele>1162.4266666666665</ele><time>2024-10-14T01:38:14Z</time></trkpt><trkpt lat="33.876946" lon="133.6166596"><ele>1159.9399999999998</ele><time>2024-10-14T01:38:31Z</time></trkpt><trkpt lat="33.8768142" lon="133.6168105"><ele>1157.71</ele><time>2024-10-14T01:38:52Z</time></trkpt><trkpt lat="33.8767475" lon="133.6170133"><ele>1155.68</ele><time>2024-10-14T01:39:09Z</time></trkpt><trkpt lat="33.8766441" lon="133.6172418"><ele>1153.8733333333334</ele><time>2024-10-14T01:39:30Z</time></trkpt><trkpt lat="33.8765225" lon="133.6174161"><ele>1152.7900000000002</ele><time>2024-10-14T01:39:53Z</time></trkpt><trkpt lat="33.8764402" lon="133.6176413"><ele>1151.9466666666667</ele><time>2024-10-14T01:40:19Z</time></trkpt><trkpt lat="33.8762806" lon="133.6177558"><ele>1151.2333333333333</ele><time>2024-10-14T01:40:40Z</time></trkpt><trkpt lat="33.8761903" lon="133.6179718"><ele>1149.8333333333333</ele><time>2024-10-14T01:41:01Z</time></trkpt><trkpt lat="33.8760684" lon="133.6181352"><ele>1148.3700000000001</ele><time>2024-10-14T01:41:34Z</time></trkpt><trkpt lat="33.8761376" lon="133.6183396"><ele>1146.95</ele><time>2024-10-14T01:42:04Z</time></trkpt><trkpt lat="33.8760807" lon="133.6185495"><ele>1146.9466666666667</ele><time>2024-10-14T01:42:43Z</time></trkpt><trkpt lat="33.8759932" lon="133.618744"><ele>1148.67</ele><time>2024-10-14T01:43:22Z</time></trkpt><trkpt lat="33.875911" lon="133.6189502"><ele>1151.0333333333335</ele><time>2024-10-14T01:43:45Z</time></trkpt><trkpt lat="33.8758454" lon="133.6191647"><ele>1153.7333333333333</ele><time>2024-10-14T01:44:05Z</time></trkpt><trkpt lat="33.8757413" lon="133.6193443"><ele>1156.14</ele><time>2024-10-14T01:44:26Z</time></trkpt><trkpt lat="33.8756756" lon="133.619547"><ele>1158.3833333333332</ele><time>2024-10-14T01:44:46Z</time></trkpt><trkpt lat="33.8756825" lon="133.6197657"><ele>1160.8433333333335</ele><time>2024-10-14T01:45:19Z</time></trkpt><trkpt lat="33.8757804" lon="133.6199523"><ele>1162.9433333333334</ele><time>2024-10-14T01:45:55Z</time></trkpt><trkpt lat="33.8756643" lon="133.6201496"><ele>1166.0200000000002</ele><time>2024-10-14T01:46:58Z</time></trkpt><trkpt lat="33.8754975" lon="133.6202381"><ele>1169.04</ele><time>2024-10-14T01:47:30Z</time></trkpt><trkpt lat="33.8753177" lon="133.6203198"><ele>1172.4866666666667</ele><time>2024-10-14T01:48:12Z</time></trkpt><trkpt lat="33.8752456" lon="133.6205188"><ele>1175.5766666666668</ele><time>2024-10-14T01:48:36Z</time></trkpt><trkpt lat="33.8751623" lon="133.6207253"><ele>1178.6866666666667</ele><time>2024-10-14T01:49:18Z</time></trkpt><trkpt lat="33.8750765" lon="133.6209251"><ele>1181.1366666666665</ele><time>2024-10-14T01:50:06Z</time></trkpt><trkpt lat="33.8749413" lon="133.621114"><ele>1182.6166666666666</ele><time>2024-10-14T01:50:36Z</time></trkpt><trkpt lat="33.8748" lon="133.6212647"><ele>1183.23</ele><time>2024-10-14T01:50:57Z</time></trkpt><trkpt lat="33.8747188" lon="133.62146"><ele>1183.8</ele><time>2024-10-14T01:51:15Z</time></trkpt><trkpt lat="33.8746289" lon="133.6216577"><ele>1183.9533333333331</ele><time>2024-10-14T01:51:33Z</time></trkpt><trkpt lat="33.8745108" lon="133.621838"><ele>1183.6766666666665</ele><time>2024-10-14T01:51:53Z</time></trkpt><trkpt lat="33.8743797" lon="133.6220144"><ele>1181.89</ele><time>2024-10-14T01:52:11Z</time></trkpt><trkpt lat="33.8742843" lon="133.6222298"><ele>1178.6100000000001</ele><time>2024-10-14T01:52:32Z</time></trkpt><trkpt lat="33.8741352" lon="133.6223669"><ele>1174.6666666666667</ele><time>2024-10-14T01:52:59Z</time></trkpt><trkpt lat="33.874016" lon="133.6225489"><ele>1172.2066666666667</ele><time>2024-10-14T01:53:16Z</time></trkpt><trkpt lat="33.8738493" lon="133.6226328"><ele>1172.0633333333335</ele><time>2024-10-14T01:53:37Z</time></trkpt><trkpt lat="33.8737104" lon="133.6228092"><ele>1174.2066666666667</ele><time>2024-10-14T01:54:02Z</time></trkpt><trkpt lat="33.8736114" lon="133.6229936"><ele>1176.5533333333333</ele><time>2024-10-14T01:54:26Z</time></trkpt><trkpt lat="33.8735877" lon="133.6232151"><ele>1179.24</ele><time>2024-10-14T01:54:56Z</time></trkpt><trkpt lat="33.8735106" lon="133.6234229"><ele>1180.7966666666664</ele><time>2024-10-14T01:55:21Z</time></trkpt><trkpt lat="33.8734138" lon="133.6236062"><ele>1182.34</ele><time>2024-10-14T01:55:50Z</time></trkpt><trkpt lat="33.8733386" lon="133.6238251"><ele>1183.4166666666667</ele><time>2024-10-14T01:56:56Z</time></trkpt><trkpt lat="33.8732851" lon="133.6240426"><ele>1184.6633333333334</ele><time>2024-10-14T01:57:17Z</time></trkpt><trkpt lat="33.8732844" lon="133.6242688"><ele>1185.87</ele><time>2024-10-14T01:57:37Z</time></trkpt><trkpt lat="33.8732696" lon="133.624491"><ele>1187.1566666666665</ele><time>2024-10-14T01:58:07Z</time></trkpt><trkpt lat="33.8732069" lon="133.6247085"><ele>1189.3166666666666</ele><time>2024-10-14T01:58:39Z</time></trkpt><trkpt lat="33.8732245" lon="133.6249345"><ele>1192.0</ele><time>2024-10-14T01:59:03Z</time></trkpt><trkpt lat="33.8731792" lon="133.625144"><ele>1195.6966666666667</ele><time>2024-10-14T01:59:33Z</time></trkpt><trkpt lat="33.8731621" lon="133.6253772"><ele>1198.7133333333334</ele><time>2024-10-14T02:00:02Z</time></trkpt><trkpt lat="33.8732067" lon="133.6255931"><ele>1200.8266666666668</ele><time>2024-10-14T02:00:26Z</time></trkpt><trkpt lat="33.8730374" lon="133.6256902"><ele>1202.02</ele><time>2024-10-14T02:01:11Z</time></trkpt><trkpt lat="33.8729252" lon="133.6258858"><ele>1202.7833333333335</ele><time>2024-10-14T02:01:32Z</time></trkpt><trkpt lat="33.8728033" lon="133.6260479"><ele>1203.8133333333333</ele><time>2024-10-14T02:01:53Z</time></trkpt><trkpt lat="33.8726436" lon="133.6261909"><ele>1204.9533333333334</ele><time>2024-10-14T02:02:20Z</time></trkpt><trkpt lat="33.8725079" lon="133.6263714"><ele>1207.2266666666667</ele><time>2024-10-14T02:02:41Z</time></trkpt><trkpt lat="33.8723972" lon="133.6265712"><ele>1210.5166666666667</ele><time>2024-10-14T02:03:05Z</time></trkpt><trkpt lat="33.8722292" lon="133.6266645"><ele>1213.756666666667</ele><time>2024-10-14T02:03:29Z</time></trkpt><trkpt lat="33.8721019" lon="133.6268194"><ele>1217.0033333333333</ele><time>2024-10-14T02:04:02Z</time></trkpt><trkpt lat="33.8719289" lon="133.6268929"><ele>1219.3100000000002</ele><time>2024-10-14T02:04:32Z</time></trkpt><trkpt lat="33.8717269" lon="133.6268959"><ele>1220.8633333333335</ele><time>2024-10-14T02:20:25Z</time></trkpt><trkpt lat="33.8715409" lon="133.6269016"><ele>1220.8733333333332</ele><time>2024-10-14T02:22:43Z</time></trkpt><trkpt lat="33.8717366" lon="133.6269198"><ele>1220.8566666666666</ele><time>2024-10-14T02:23:58Z</time></trkpt><trkpt lat="33.8719242" lon="133.6269528"><ele>1220.8733333333332</ele><time>2024-10-14T02:25:07Z</time></trkpt><trkpt lat="33.8720838" lon="133.627075"><ele>1220.5733333333335</ele><time>2024-10-14T02:26:10Z</time></trkpt><trkpt lat="33.8721383" lon="133.627292"><ele>1217.6499999999999</ele><time>2024-10-14T02:27:01Z</time></trkpt><trkpt lat="33.8721494" lon="133.6275186"><ele>1211.61</ele><time>2024-10-14T02:28:43Z</time></trkpt><trkpt lat="33.8722376" lon="133.6277087"><ele>1203.5400000000002</ele><time>2024-10-14T02:29:52Z</time></trkpt><trkpt lat="33.8722187" lon="133.6279345"><ele>1196.9366666666667</ele><time>2024-10-14T02:31:16Z</time></trkpt><trkpt lat="33.8723047" lon="133.6281247"><ele>1191.8533333333332</ele><time>2024-10-14T02:32:25Z</time></trkpt><trkpt lat="33.8723995" lon="133.6283086"><ele>1187.55</ele><time>2024-10-14T02:33:10Z</time></trkpt><trkpt lat="33.8724112" lon="133.628525"><ele>1181.926666666667</ele><time>2024-10-14T02:34:10Z</time></trkpt><trkpt lat="33.8724402" lon="133.6287446"><ele>1177.49</ele><time>2024-10-14T02:34:52Z</time></trkpt><trkpt lat="33.872446" lon="133.6289612"><ele>1174.2500000000002</ele><time>2024-10-14T02:39:34Z</time></trkpt><trkpt lat="33.8725306" lon="133.6291564"><ele>1172.2333333333333</ele><time>2024-10-14T02:40:04Z</time></trkpt><trkpt lat="33.8726291" lon="133.6293557"><ele>1168.6733333333332</ele><time>2024-10-14T02:40:37Z</time></trkpt><trkpt lat="33.8727384" lon="133.6295404"><ele>1165.4466666666667</ele><time>2024-10-14T02:41:10Z</time></trkpt><trkpt lat="33.8728935" lon="133.6296562"><ele>1162.6333333333334</ele><time>2024-10-14T02:41:58Z</time></trkpt><trkpt lat="33.873028" lon="133.6298287"><ele>1161.53</ele><time>2024-10-14T02:42:25Z</time></trkpt><trkpt lat="33.873174" lon="133.6299755"><ele>1158.46</ele><time>2024-10-14T02:42:55Z</time></trkpt><trkpt lat="33.8733468" lon="133.6300382"><ele>1149.7533333333333</ele><time>2024-10-14T02:47:06Z</time></trkpt><trkpt lat="33.8735294" lon="133.6300508"><ele>1137.55</ele><time>2024-10-14T02:49:09Z</time></trkpt><trkpt lat="33.873685" lon="133.6301869"><ele>1124.7433333333333</ele><time>2024-10-14T02:51:21Z</time></trkpt><trkpt lat="33.8737983" lon="133.6303572"><ele>1116.2166666666665</ele><time>2024-10-14T02:52:06Z</time></trkpt><trkpt lat="33.8739749" lon="133.6304173"><ele>1109.4333333333334</ele><time>2024-10-14T02:54:36Z</time></trkpt><trkpt lat="33.8741231" lon="133.6305545"><ele>1100.3400000000001</ele><time>2024-10-14T02:55:12Z</time></trkpt><trkpt lat="33.8742991" lon="133.6306338"><ele>1089.8866666666665</ele><time>2024-10-14T02:56:15Z</time></trkpt><trkpt lat="33.8744674" lon="133.6307475"><ele>1080.0566666666666</ele><time>2024-10-14T02:56:48Z</time></trkpt><trkpt lat="33.8746473" lon="133.6308155"><ele>1074.3433333333332</ele><time>2024-10-14T02:57:09Z</time></trkpt><trkpt lat="33.8748294" lon="133.6309008"><ele>1070.96</ele><time>2024-10-14T02:57:38Z</time></trkpt><trkpt lat="33.8749927" lon="133.6310179"><ele>1067.4566666666667</ele><time>2024-10-14T02:58:28Z</time></trkpt><trkpt lat="33.8751378" lon="133.6311625"><ele>1063.9533333333331</ele><time>2024-10-14T02:58:46Z</time></trkpt><trkpt lat="33.8752714" lon="133.6313357"><ele>1059.67</ele><time>2024-10-14T03:00:28Z</time></trkpt><trkpt lat="33.8754031" lon="133.6315133"><ele>1055.36</ele><time>2024-10-14T03:01:10Z</time></trkpt><trkpt lat="33.8755688" lon="133.6316118"><ele>1050.5200000000002</ele><time>2024-10-14T03:02:01Z</time></trkpt><trkpt lat="33.8757126" lon="133.6317634"><ele>1046.93</ele><time>2024-10-14T03:02:46Z</time></trkpt><trkpt lat="33.8758531" lon="133.6319186"><ele>1044.2433333333333</ele><time>2024-10-14T03:03:36Z</time></trkpt><trkpt lat="33.8760472" lon="133.6319416"><ele>1041.8000000000002</ele><time>2024-10-14T03:06:36Z</time></trkpt><trkpt lat="33.8762161" lon="133.6318594"><ele>1038.9399999999998</ele><time>2024-10-14T03:07:18Z</time></trkpt><trkpt lat="33.8764085" lon="133.6318383"><ele>1034.4133333333334</ele><time>2024-10-14T03:07:54Z</time></trkpt><trkpt lat="33.8765434" lon="133.6319869"><ele>1032.2</ele><time>2024-10-14T03:08:48Z</time></trkpt><trkpt lat="33.8767003" lon="133.6321076"><ele>1029.51</ele><time>2024-10-14T03:10:00Z</time></trkpt><trkpt lat="33.8768738" lon="133.6321966"><ele>1028.3433333333335</ele><time>2024-10-14T03:10:45Z</time></trkpt><trkpt lat="33.8770442" lon="133.6322838"><ele>1024.99</ele><time>2024-10-14T03:11:27Z</time></trkpt><trkpt lat="33.8772241" lon="133.6323705"><ele>1022.4366666666668</ele><time>2024-10-14T03:11:57Z</time></trkpt><trkpt lat="33.877289" lon="133.6325769"><ele>1020.5933333333334</ele><time>2024-10-14T03:18:03Z</time></trkpt><trkpt lat="33.877424" lon="133.6327227"><ele>1017.2733333333334</ele><time>2024-10-14T03:18:48Z</time></trkpt><trkpt lat="33.8775952" lon="133.6328044"><ele>1011.0966666666667</ele><time>2024-10-14T03:19:33Z</time></trkpt><trkpt lat="33.8777727" lon="133.6328614"><ele>1002.6300000000001</ele><time>2024-10-14T03:20:30Z</time></trkpt><trkpt lat="33.8779369" lon="133.6329613"><ele>996.08</ele><time>2024-10-14T03:21:21Z</time></trkpt><trkpt lat="33.8780903" lon="133.6330867"><ele>992.8166666666667</ele><time>2024-10-14T03:21:51Z</time></trkpt><trkpt lat="33.878258" lon="133.6331932"><ele>990.0666666666666</ele><time>2024-10-14T03:22:18Z</time></trkpt><trkpt lat="33.8783744" lon="133.6333881"><ele>987.61</ele><time>2024-10-14T03:22:45Z</time></trkpt><trkpt lat="33.8784906" lon="133.6335555"><ele>984.2066666666666</ele><time>2024-10-14T03:23:30Z</time></trkpt><trkpt lat="33.8786403" lon="133.6336862"><ele>981.5666666666667</ele><time>2024-10-14T03:24:36Z</time></trkpt><trkpt lat="33.8787755" lon="133.6338557"><ele>978.8033333333334</ele><time>2024-10-14T03:25:03Z</time></trkpt><trkpt lat="33.878937" lon="133.6339521"><ele>977.9433333333335</ele><time>2024-10-14T03:25:51Z</time></trkpt><trkpt lat="33.8791194" lon="133.634043"><ele>978.7900000000001</ele><time>2024-10-14T03:26:30Z</time></trkpt><trkpt lat="33.8793034" lon="133.6339936"><ele>979.0133333333333</ele><time>2024-10-14T03:26:57Z</time></trkpt><trkpt lat="33.8794775" lon="133.6340924"><ele>980.7633333333333</ele><time>2024-10-14T03:27:27Z</time></trkpt><trkpt lat="33.8796372" lon="133.6342145"><ele>982.8800000000001</ele><time>2024-10-14T03:31:06Z</time></trkpt><trkpt lat="33.8796838" lon="133.6344414"><ele>991.0833333333334</ele><time>2024-10-14T03:32:14Z</time></trkpt><trkpt lat="33.8798006" lon="133.634609"><ele>999.0233333333334</ele><time>2024-10-14T03:33:08Z</time></trkpt><trkpt lat="33.8799456" lon="133.6347512"><ele>1006.8533333333335</ele><time>2024-10-14T03:33:53Z</time></trkpt><trkpt lat="33.8800583" lon="133.6349247"><ele>1012.4200000000001</ele><time>2024-10-14T03:34:26Z</time></trkpt><trkpt lat="33.8802153" lon="133.6350469"><ele>1017.5300000000001</ele><time>2024-10-14T03:35:02Z</time></trkpt><trkpt lat="33.8803323" lon="133.635222"><ele>1022.0233333333332</ele><time>2024-10-14T03:35:41Z</time></trkpt><trkpt lat="33.8803133" lon="133.6354648"><ele>1024.2</ele><time>2024-10-14T03:37:23Z</time></trkpt><trkpt lat="33.8802331" lon="133.6356728"><ele>1024.2766666666666</ele><time>2024-10-14T03:37:46Z</time></trkpt><trkpt lat="33.8802675" lon="133.6358861"><ele>1023.4466666666667</ele><time>2024-10-14T03:38:10Z</time></trkpt><trkpt lat="33.8802501" lon="133.6361036"><ele>1021.0066666666667</ele><time>2024-10-14T03:38:40Z</time></trkpt><trkpt lat="33.8802614" lon="133.636327"><ele>1017.1433333333334</ele><time>2024-10-14T03:39:42Z</time></trkpt><trkpt lat="33.8801931" lon="133.6365643"><ele>1014.0766666666667</ele><time>2024-10-14T03:40:14Z</time></trkpt><trkpt lat="33.8802723" lon="133.6367673"><ele>1011.0766666666667</ele><time>2024-10-14T03:40:38Z</time></trkpt><trkpt lat="33.8803584" lon="133.6369658"><ele>1009.4366666666666</ele><time>2024-10-14T03:41:08Z</time></trkpt><trkpt lat="33.8803847" lon="133.6371849"><ele>1007.1633333333334</ele><time>2024-10-14T03:41:37Z</time></trkpt><trkpt lat="33.8804149" lon="133.637421"><ele>1005.5300000000001</ele><time>2024-10-14T03:42:04Z</time></trkpt><trkpt lat="33.8804635" lon="133.6376637"><ele>1003.79</ele><time>2024-10-14T03:42:27Z</time></trkpt><trkpt lat="33.8805171" lon="133.6378807"><ele>1002.16</ele><time>2024-10-14T03:42:50Z</time></trkpt><trkpt lat="33.8806307" lon="133.6380604"><ele>1000.54</ele><time>2024-10-14T03:43:11Z</time></trkpt><trkpt lat="33.8807413" lon="133.6382318"><ele>998.8000000000001</ele><time>2024-10-14T03:43:38Z</time></trkpt><trkpt lat="33.8806972" lon="133.6384542"><ele>996.5333333333334</ele><time>2024-10-14T03:44:26Z</time></trkpt><trkpt lat="33.8806467" lon="133.6386731"><ele>993.5933333333332</ele><time>2024-10-14T03:44:56Z</time></trkpt><trkpt lat="33.8805991" lon="133.6389056"><ele>989.75</ele><time>2024-10-14T03:45:20Z</time></trkpt><trkpt lat="33.8806184" lon="133.6391544"><ele>985.3233333333334</ele><time>2024-10-14T03:45:44Z</time></trkpt><trkpt lat="33.8807524" lon="133.6393376"><ele>980.2166666666667</ele><time>2024-10-14T03:46:01Z</time></trkpt><trkpt lat="33.8809098" lon="133.6394813"><ele>976.3366666666667</ele><time>2024-10-14T03:46:22Z</time></trkpt><trkpt lat="33.8810558" lon="133.6396148"><ele>973.91</ele><time>2024-10-14T03:46:40Z</time></trkpt><trkpt lat="33.8812113" lon="133.6397528"><ele>973.3233333333334</ele><time>2024-10-14T03:47:01Z</time></trkpt><trkpt lat="33.8813176" lon="133.6399616"><ele>973.1833333333334</ele><time>2024-10-14T03:47:21Z</time></trkpt><trkpt lat="33.8813813" lon="133.6401735"><ele>973.39</ele><time>2024-10-14T03:47:48Z</time></trkpt><trkpt lat="33.8815094" lon="133.6403355"><ele>974.9200000000001</ele><time>2024-10-14T03:48:12Z</time></trkpt><trkpt lat="33.881621" lon="133.6405335"><ele>979.15</ele><time>2024-10-14T03:49:44Z</time></trkpt><trkpt lat="33.8817818" lon="133.6406682"><ele>985.1899999999999</ele><time>2024-10-14T03:50:20Z</time></trkpt><trkpt lat="33.8818798" lon="133.64085"><ele>992.5</ele><time>2024-10-14T03:52:08Z</time></trkpt><trkpt lat="33.8819503" lon="133.6410503"><ele>998.8533333333335</ele><time>2024-10-14T03:54:14Z</time></trkpt><trkpt lat="33.8820451" lon="133.6412465"><ele>1003.5500000000001</ele><time>2024-10-14T03:54:56Z</time></trkpt><trkpt lat="33.8820527" lon="133.6414692"><ele>1006.7066666666666</ele><time>2024-10-14T03:55:26Z</time></trkpt><trkpt lat="33.8820988" lon="133.6416875"><ele>1008.83</ele><time>2024-10-14T03:55:53Z</time></trkpt><trkpt lat="33.8821755" lon="133.641894"><ele>1010.4433333333335</ele><time>2024-10-14T03:56:26Z</time></trkpt><trkpt lat="33.8823025" lon="133.6420586"><ele>1011.3733333333333</ele><time>2024-10-14T03:56:59Z</time></trkpt><trkpt lat="33.8824732" lon="133.6421452"><ele>1011.2700000000001</ele><time>2024-10-14T03:57:20Z</time></trkpt><trkpt lat="33.8825894" lon="133.6423385"><ele>1011.9633333333333</ele><time>2024-10-14T03:57:46Z</time></trkpt><trkpt lat="33.8827303" lon="133.6425065"><ele>1012.5433333333334</ele><time>2024-10-14T03:58:09Z</time></trkpt><trkpt lat="33.8828695" lon="133.6426556"><ele>1013.3233333333333</ele><time>2024-10-14T03:58:30Z</time></trkpt><trkpt lat="33.883026" lon="133.6427915"><ele>1013.4633333333335</ele><time>2024-10-14T03:58:57Z</time></trkpt><trkpt lat="33.8831869" lon="133.6429534"><ele>1012.61</ele><time>2024-10-14T04:00:03Z</time></trkpt><trkpt lat="33.8833282" lon="133.6431269"><ele>1012.5</ele><time>2024-10-14T04:00:27Z</time></trkpt><trkpt lat="33.8834722" lon="133.6432591"><ele>1012.6999999999999</ele><time>2024-10-14T04:01:03Z</time></trkpt><trkpt lat="33.8834205" lon="133.6434798"><ele>1015.7966666666667</ele><time>2024-10-14T04:12:39Z</time></trkpt><trkpt lat="33.8836049" lon="133.6435857"><ele>1016.89</ele><time>2024-10-14T04:13:32Z</time></trkpt><trkpt lat="33.8837598" lon="133.6434747"><ele>1017.4166666666666</ele><time>2024-10-14T04:14:29Z</time></trkpt><trkpt lat="33.8839491" lon="133.6434198"><ele>1016.2933333333334</ele><time>2024-10-14T04:18:53Z</time></trkpt><trkpt lat="33.884142" lon="133.6434043"><ele>1016.2666666666668</ele><time>2024-10-14T04:19:41Z</time></trkpt><trkpt lat="33.8843374" lon="133.6434409"><ele>1015.7000000000002</ele><time>2024-10-14T04:20:02Z</time></trkpt><trkpt lat="33.8845294" lon="133.6434396"><ele>1013.87</ele><time>2024-10-14T04:20:19Z</time></trkpt><trkpt lat="33.8847093" lon="133.643496"><ele>1012.5</ele><time>2024-10-14T04:20:49Z</time></trkpt><trkpt lat="33.8848755" lon="133.6436232"><ele>1011.8933333333334</ele><time>2024-10-14T04:21:10Z</time></trkpt><trkpt lat="33.8850582" lon="133.6437195"><ele>1011.8400000000001</ele><time>2024-10-14T04:21:31Z</time></trkpt><trkpt lat="33.8852378" lon="133.6438493"><ele>1011.33</ele><time>2024-10-14T04:21:55Z</time></trkpt><trkpt lat="33.8854114" lon="133.643947"><ele>1010.1133333333333</ele><time>2024-10-14T04:22:15Z</time></trkpt><trkpt lat="33.8855818" lon="133.6441137"><ele>1008.3000000000001</ele><time>2024-10-14T04:23:21Z</time></trkpt><trkpt lat="33.8857058" lon="133.6442742"><ele>1006.1</ele><time>2024-10-14T04:23:38Z</time></trkpt><trkpt lat="33.8858648" lon="133.6444099"><ele>1003.7366666666667</ele><time>2024-10-14T04:24:17Z</time></trkpt><trkpt lat="33.8860597" lon="133.6443861"><ele>1000.3666666666667</ele><time>2024-10-14T04:24:47Z</time></trkpt><trkpt lat="33.8862541" lon="133.6444355"><ele>997.2166666666666</ele><time>2024-10-14T04:25:08Z</time></trkpt><trkpt lat="33.8864366" lon="133.6444927"><ele>994.1166666666667</ele><time>2024-10-14T04:25:26Z</time></trkpt><trkpt lat="33.8866078" lon="133.644407"><ele>990.5300000000001</ele><time>2024-10-14T04:25:46Z</time></trkpt><trkpt lat="33.886769" lon="133.6442925"><ele>986.4899999999999</ele><time>2024-10-14T04:26:04Z</time></trkpt><trkpt lat="33.8869554" lon="133.6441729"><ele>982.4399999999999</ele><time>2024-10-14T04:26:22Z</time></trkpt><trkpt lat="33.8871393" lon="133.6440933"><ele>980.8466666666667</ele><time>2024-10-14T04:26:39Z</time></trkpt><trkpt lat="33.8873098" lon="133.644014"><ele>980.57</ele><time>2024-10-14T04:26:57Z</time></trkpt><trkpt lat="33.887504" lon="133.6439887"><ele>981.3233333333334</ele><time>2024-10-14T04:27:18Z</time></trkpt><trkpt lat="33.8876714" lon="133.6438894"><ele>984.4200000000001</ele><time>2024-10-14T04:27:42Z</time></trkpt><trkpt lat="33.8878543" lon="133.6438771"><ele>987.43</ele><time>2024-10-14T04:28:14Z</time></trkpt><trkpt lat="33.8880062" lon="133.6437364"><ele>990.7966666666666</ele><time>2024-10-14T04:28:37Z</time></trkpt><trkpt lat="33.8881823" lon="133.6436378"><ele>991.1366666666667</ele><time>2024-10-14T04:28:55Z</time></trkpt><trkpt lat="33.8883144" lon="133.6434601"><ele>990.35</ele><time>2024-10-14T04:29:18Z</time></trkpt><trkpt lat="33.888452" lon="133.6433031"><ele>986.5266666666666</ele><time>2024-10-14T04:29:41Z</time></trkpt><trkpt lat="33.8886512" lon="133.6433156"><ele>981.3533333333334</ele><time>2024-10-14T04:30:01Z</time></trkpt><trkpt lat="33.8888375" lon="133.6433581"><ele>972.1433333333333</ele><time>2024-10-14T04:30:27Z</time></trkpt><trkpt lat="33.8889652" lon="133.6431661"><ele>961.9266666666666</ele><time>2024-10-14T04:30:54Z</time></trkpt><trkpt lat="33.8890766" lon="133.6429578"><ele>952.1833333333334</ele><time>2024-10-14T04:32:05Z</time></trkpt><trkpt lat="33.8892237" lon="133.6428215"><ele>943.5066666666667</ele><time>2024-10-14T04:32:40Z</time></trkpt><trkpt lat="33.8893426" lon="133.6426589"><ele>934.9566666666666</ele><time>2024-10-14T04:33:16Z</time></trkpt><trkpt lat="33.8895265" lon="133.6426528"><ele>925.5733333333334</ele><time>2024-10-14T04:33:43Z</time></trkpt><trkpt lat="33.8896777" lon="133.6425228"><ele>918.3766666666667</ele><time>2024-10-14T04:34:12Z</time></trkpt><trkpt lat="33.8898584" lon="133.6424752"><ele>912.38</ele><time>2024-10-14T04:34:32Z</time></trkpt><trkpt lat="33.89004" lon="133.6425008"><ele>907.1766666666666</ele><time>2024-10-14T04:34:50Z</time></trkpt><trkpt lat="33.8902215" lon="133.6425097"><ele>903.7400000000001</ele><time>2024-10-14T04:35:04Z</time></trkpt><trkpt lat="33.8903999" lon="133.6424476"><ele>901.2366666666667</ele><time>2024-10-14T04:35:21Z</time></trkpt><trkpt lat="33.8906157" lon="133.6424406"><ele>898.4566666666668</ele><time>2024-10-14T04:35:38Z</time></trkpt><trkpt lat="33.8907996" lon="133.6423448"><ele>895.5100000000001</ele><time>2024-10-14T04:35:56Z</time></trkpt><trkpt lat="33.8909528" lon="133.6421979"><ele>892.9366666666666</ele><time>2024-10-14T04:36:13Z</time></trkpt><trkpt lat="33.891126" lon="133.6421268"><ele>891.8966666666666</ele><time>2024-10-14T04:36:30Z</time></trkpt><trkpt lat="33.8913372" lon="133.6420882"><ele>891.4066666666668</ele><time>2024-10-14T04:36:47Z</time></trkpt><trkpt lat="33.8915188" lon="133.6420205"><ele>891.6033333333334</ele><time>2024-10-14T04:37:04Z</time></trkpt><trkpt lat="33.8917254" lon="133.6419827"><ele>891.71</ele><time>2024-10-14T04:37:22Z</time></trkpt><trkpt lat="33.8919205" lon="133.6419534"><ele>891.46</ele><time>2024-10-14T04:37:39Z</time></trkpt><trkpt lat="33.8921316" lon="133.641947"><ele>891.3800000000001</ele><time>2024-10-14T04:37:57Z</time></trkpt><trkpt lat="33.8923123" lon="133.6418559"><ele>891.48</ele><time>2024-10-14T04:38:15Z</time></trkpt><trkpt lat="33.8925233" lon="133.6417825"><ele>891.4433333333333</ele><time>2024-10-14T04:38:41Z</time></trkpt><trkpt lat="33.8927092" lon="133.641783"><ele>891.5400000000001</ele><time>2024-10-14T04:38:56Z</time></trkpt><trkpt lat="33.8928988" lon="133.6417623"><ele>892.5166666666668</ele><time>2024-10-14T04:39:12Z</time></trkpt><trkpt lat="33.8930776" lon="133.6417158"><ele>893.1866666666668</ele><time>2024-10-14T04:39:26Z</time></trkpt><trkpt lat="33.8932681" lon="133.6416915"><ele>893.4033333333333</ele><time>2024-10-14T04:39:56Z</time></trkpt><trkpt lat="33.8934573" lon="133.6417116"><ele>892.0733333333334</ele><time>2024-10-14T04:40:20Z</time></trkpt><trkpt lat="33.8936245" lon="133.6418396"><ele>891.2933333333334</ele><time>2024-10-14T04:40:44Z</time></trkpt><trkpt lat="33.8938307" lon="133.6419304"><ele>889.4533333333334</ele><time>2024-10-14T04:41:04Z</time></trkpt><trkpt lat="33.894009" lon="133.6419939"><ele>886.59</ele><time>2024-10-14T04:41:21Z</time></trkpt><trkpt lat="33.8941906" lon="133.6420509"><ele>881.3633333333333</ele><time>2024-10-14T04:41:35Z</time></trkpt><trkpt lat="33.8943631" lon="133.6421486"><ele>874.1933333333333</ele><time>2024-10-14T04:41:52Z</time></trkpt><trkpt lat="33.8944774" lon="133.6423305"><ele>869.5100000000001</ele><time>2024-10-14T04:42:16Z</time></trkpt><trkpt lat="33.8946044" lon="133.6424858"><ele>865.0933333333332</ele><time>2024-10-14T04:42:43Z</time></trkpt><trkpt lat="33.8947801" lon="133.6425407"><ele>862.0200000000001</ele><time>2024-10-14T04:43:25Z</time></trkpt><trkpt lat="33.8949155" lon="133.6426917"><ele>856.8733333333333</ele><time>2024-10-14T04:43:40Z</time></trkpt><trkpt lat="33.895115" lon="133.6427775"><ele>852.3366666666667</ele><time>2024-10-14T04:44:00Z</time></trkpt><trkpt lat="33.8953278" lon="133.6428035"><ele>848.8066666666667</ele><time>2024-10-14T04:44:21Z</time></trkpt><trkpt lat="33.8955049" lon="133.6428634"><ele>846.4699999999999</ele><time>2024-10-14T04:44:38Z</time></trkpt><trkpt lat="33.8956883" lon="133.6428899"><ele>844.91</ele><time>2024-10-14T04:44:55Z</time></trkpt><trkpt lat="33.8958689" lon="133.642948"><ele>843.7800000000001</ele><time>2024-10-14T04:45:58Z</time></trkpt><trkpt lat="33.8960569" lon="133.6430069"><ele>842.65</ele><time>2024-10-14T04:46:19Z</time></trkpt><trkpt lat="33.8962402" lon="133.6429456"><ele>841.5866666666667</ele><time>2024-10-14T04:46:43Z</time></trkpt><trkpt lat="33.8964254" lon="133.6428618"><ele>838.6566666666668</ele><time>2024-10-14T04:47:01Z</time></trkpt><trkpt lat="33.8965672" lon="133.6427136"><ele>833.4766666666668</ele><time>2024-10-14T04:47:28Z</time></trkpt><trkpt lat="33.8967546" lon="133.6426393"><ele>826.8433333333334</ele><time>2024-10-14T04:47:58Z</time></trkpt><trkpt lat="33.8969259" lon="133.6425697"><ele>820.57</ele><time>2024-10-14T04:48:27Z</time></trkpt><trkpt lat="33.8971105" lon="133.6425627"><ele>816.1066666666667</ele><time>2024-10-14T04:49:00Z</time></trkpt><trkpt lat="33.8973143" lon="133.6425291"><ele>811.8233333333334</ele><time>2024-10-14T04:49:21Z</time></trkpt><trkpt lat="33.8974721" lon="133.6424213"><ele>807.8100000000001</ele><time>2024-10-14T04:49:47Z</time></trkpt><trkpt lat="33.8976548" lon="133.6423851"><ele>800.6633333333333</ele><time>2024-10-14T04:50:10Z</time></trkpt><trkpt lat="33.8978409" lon="133.6422745"><ele>792.71</ele><time>2024-10-14T04:50:37Z</time></trkpt><trkpt lat="33.8980138" lon="133.6421847"><ele>783.3466666666667</ele><time>2024-10-14T04:51:00Z</time></trkpt><trkpt lat="33.8982199" lon="133.6421118"><ele>775.9166666666666</ele><time>2024-10-14T04:51:23Z</time></trkpt><trkpt lat="33.8984087" lon="133.6419904"><ele>769.6333333333333</ele><time>2024-10-14T04:51:43Z</time></trkpt><trkpt lat="33.8986047" lon="133.6419337"><ele>766.44</ele><time>2024-10-14T04:52:09Z</time></trkpt><trkpt lat="33.8988036" lon="133.6419308"><ele>767.25</ele><time>2024-10-14T04:52:33Z</time></trkpt><trkpt lat="33.8989655" lon="133.6418248"><ele>768.7599999999999</ele><time>2024-10-14T04:53:00Z</time></trkpt><trkpt lat="33.8989659" lon="133.6415966"><ele>772.34</ele><time>2024-10-14T04:54:02Z</time></trkpt><trkpt lat="33.8989632" lon="133.6413355"><ele>775.29</ele><time>2024-10-14T04:54:35Z</time></trkpt><trkpt lat="33.8989932" lon="133.6411222"><ele>780.1766666666666</ele><time>2024-10-14T04:54:56Z</time></trkpt><trkpt lat="33.8991086" lon="133.6409374"><ele>784.7633333333333</ele><time>2024-10-14T04:56:35Z</time></trkpt><trkpt lat="33.8991998" lon="133.640736"><ele>789.9499999999999</ele><time>2024-10-14T04:56:59Z</time></trkpt><trkpt lat="33.8993508" lon="133.6405625"><ele>793.8566666666667</ele><time>2024-10-14T04:57:44Z</time></trkpt><trkpt lat="33.8995565" lon="133.6405201"><ele>795.52</ele><time>2024-10-14T04:58:47Z</time></trkpt><trkpt lat="33.8997526" lon="133.6404659"><ele>794.4333333333334</ele><time>2024-10-14T04:59:10Z</time></trkpt><trkpt lat="33.8999555" lon="133.6404842"><ele>794.5966666666667</ele><time>2024-10-14T04:59:52Z</time></trkpt><trkpt lat="33.9001178" lon="133.6403895"><ele>797.6700000000001</ele><time>2024-10-14T05:00:28Z</time></trkpt><trkpt lat="33.9003092" lon="133.640357"><ele>803.75</ele><time>2024-10-14T05:01:04Z</time></trkpt><trkpt lat="33.9004662" lon="133.6402441"><ele>812.7366666666667</ele><time>2024-10-14T05:02:01Z</time></trkpt><trkpt lat="33.9006465" lon="133.6402741"><ele>821.5166666666668</ele><time>2024-10-14T05:03:04Z</time></trkpt><trkpt lat="33.9008287" lon="133.6403251"><ele>828.94</ele><time>2024-10-14T05:03:36Z</time></trkpt><trkpt lat="33.9010144" lon="133.6402568"><ele>832.21</ele><time>2024-10-14T05:04:12Z</time></trkpt><trkpt lat="33.9011948" lon="133.6402723"><ele>835.37</ele><time>2024-10-14T05:09:09Z</time></trkpt><trkpt lat="33.9013887" lon="133.6402691"><ele>837.4066666666668</ele><time>2024-10-14T05:11:15Z</time></trkpt><trkpt lat="33.9015481" lon="133.6401455"><ele>840.6466666666666</ele><time>2024-10-14T05:11:44Z</time></trkpt><trkpt lat="33.9016762" lon="133.6399703"><ele>842.5866666666667</ele><time>2024-10-14T05:12:11Z</time></trkpt><trkpt lat="33.9018651" lon="133.6398483"><ele>846.3166666666666</ele><time>2024-10-14T05:12:49Z</time></trkpt><trkpt lat="33.9019921" lon="133.6396523"><ele>846.3000000000001</ele><time>2024-10-14T05:13:07Z</time></trkpt><trkpt lat="33.9021766" lon="133.6395605"><ele>845.0533333333333</ele><time>2024-10-14T05:13:28Z</time></trkpt><trkpt lat="33.9023184" lon="133.6394231"><ele>841.1633333333334</ele><time>2024-10-14T05:13:49Z</time></trkpt><trkpt lat="33.9024901" lon="133.6392968"><ele>838.2800000000001</ele><time>2024-10-14T05:14:07Z</time></trkpt><trkpt lat="33.9026583" lon="133.6391703"><ele>835.1566666666666</ele><time>2024-10-14T05:14:37Z</time></trkpt><trkpt lat="33.9028185" lon="133.6390247"><ele>831.54</ele><time>2024-10-14T05:15:01Z</time></trkpt><trkpt lat="33.9029846" lon="133.6389244"><ele>828.0300000000001</ele><time>2024-10-14T05:15:22Z</time></trkpt><trkpt lat="33.9031395" lon="133.6387892"><ele>823.9266666666667</ele><time>2024-10-14T05:15:43Z</time></trkpt><trkpt lat="33.9032707" lon="133.6386143"><ele>819.6700000000001</ele><time>2024-10-14T05:16:06Z</time></trkpt><trkpt lat="33.9033796" lon="133.6384415"><ele>815.3333333333334</ele><time>2024-10-14T05:16:32Z</time></trkpt><trkpt lat="33.9034848" lon="133.6382653"><ele>811.25</ele><time>2024-10-14T05:17:14Z</time></trkpt><trkpt lat="33.9035595" lon="133.6380581"><ele>807.6333333333333</ele><time>2024-10-14T05:18:38Z</time></trkpt><trkpt lat="33.9035138" lon="133.6378168"><ele>803.0066666666667</ele><time>2024-10-14T05:19:11Z</time></trkpt><trkpt lat="33.9035763" lon="133.637607"><ele>797.19</ele><time>2024-10-14T05:19:29Z</time></trkpt><trkpt lat="33.9037279" lon="133.6374788"><ele>792.2166666666667</ele><time>2024-10-14T05:19:55Z</time></trkpt><trkpt lat="33.9039035" lon="133.6373913"><ele>788.25</ele><time>2024-10-14T05:20:24Z</time></trkpt><trkpt lat="33.9040821" lon="133.6372611"><ele>782.8066666666667</ele><time>2024-10-14T05:21:03Z</time></trkpt><trkpt lat="33.904192" lon="133.637089"><ele>775.2066666666668</ele><time>2024-10-14T05:21:20Z</time></trkpt><trkpt lat="33.904335" lon="133.636942"><ele>767.6266666666667</ele><time>2024-10-14T05:21:49Z</time></trkpt><trkpt lat="33.9045173" lon="133.6368465"><ele>761.7366666666667</ele><time>2024-10-14T05:22:34Z</time></trkpt><trkpt lat="33.9044517" lon="133.6370532"><ele>758.7666666666668</ele><time>2024-10-14T05:23:58Z</time></trkpt><trkpt lat="33.9045025" lon="133.637269"><ele>751.5500000000001</ele><time>2024-10-14T05:24:25Z</time></trkpt><trkpt lat="33.9046972" lon="133.637291"><ele>742.87</ele><time>2024-10-14T05:25:06Z</time></trkpt><trkpt lat="33.9047781" lon="133.6374992"><ele>732.1666666666666</ele><time>2024-10-14T05:25:30Z</time></trkpt><trkpt lat="33.9049543" lon="133.6375795"><ele>724.5833333333334</ele><time>2024-10-14T05:25:57Z</time></trkpt><trkpt lat="33.9051425" lon="133.6375551"><ele>716.75</ele><time>2024-10-14T05:26:18Z</time></trkpt><trkpt lat="33.9053077" lon="133.6376976"><ele>708.4433333333333</ele><time>2024-10-14T05:26:52Z</time></trkpt><trkpt lat="33.905453" lon="133.6375616"><ele>699.4333333333334</ele><time>2024-10-14T05:27:19Z</time></trkpt><trkpt lat="33.9056579" lon="133.6375976"><ele>690.8366666666667</ele><time>2024-10-14T05:28:18Z</time></trkpt><trkpt lat="33.9058415" lon="133.6376453"><ele>681.3766666666667</ele><time>2024-10-14T05:28:51Z</time></trkpt><trkpt lat="33.9059544" lon="133.6378177"><ele>673.2466666666668</ele><time>2024-10-14T05:29:44Z</time></trkpt><trkpt lat="33.906023" lon="133.6375958"><ele>668.7966666666667</ele><time>2024-10-14T05:30:11Z</time></trkpt><trkpt lat="33.906207" lon="133.6375653"><ele>661.6966666666666</ele><time>2024-10-14T05:31:01Z</time></trkpt><trkpt lat="33.9063882" lon="133.6376151"><ele>653.0233333333334</ele><time>2024-10-14T05:39:37Z</time></trkpt><trkpt lat="33.9065724" lon="133.6376755"><ele>639.3266666666667</ele><time>2024-10-14T05:40:46Z</time></trkpt><trkpt lat="33.9066135" lon="133.6378956"><ele>625.9633333333333</ele><time>2024-10-14T05:41:57Z</time></trkpt><trkpt lat="33.9068046" lon="133.6379296"><ele>613.3566666666667</ele><time>2024-10-14T05:42:41Z</time></trkpt><trkpt lat="33.9069796" lon="133.6380171"><ele>600.82</ele><time>2024-10-14T05:43:32Z</time></trkpt><trkpt lat="33.9070108" lon="133.638247"><ele>591.0233333333333</ele><time>2024-10-14T05:44:16Z</time></trkpt><trkpt lat="33.9071132" lon="133.6384298"><ele>581.0866666666667</ele><time>2024-10-14T05:45:00Z</time></trkpt><trkpt lat="33.9071354" lon="133.6386479"><ele>573.9699999999999</ele><time>2024-10-14T05:45:24Z</time></trkpt><trkpt lat="33.9073181" lon="133.6386951"><ele>567.3433333333334</ele><time>2024-10-14T05:46:15Z</time></trkpt><trkpt lat="33.9074907" lon="133.6387714"><ele>557.2733333333333</ele><time>2024-10-14T05:47:27Z</time></trkpt><trkpt lat="33.9076101" lon="133.6385834"><ele>546.5633333333334</ele><time>2024-10-14T05:47:57Z</time></trkpt><trkpt lat="33.9076386" lon="133.6387996"><ele>537.3000000000001</ele><time>2024-10-14T05:48:33Z</time></trkpt><trkpt lat="33.9076446" lon="133.6390364"><ele>533.3266666666667</ele><time>2024-10-14T05:49:05Z</time></trkpt><trkpt lat="33.9077073" lon="133.6392604"><ele>528.7366666666667</ele><time>2024-10-14T05:49:38Z</time></trkpt><trkpt lat="33.907873" lon="133.6393527"><ele>520.98</ele><time>2024-10-14T05:50:25Z</time></trkpt><trkpt lat="33.9080488" lon="133.6394783"><ele>510.3533333333334</ele><time>2024-10-14T05:51:22Z</time></trkpt><trkpt lat="33.908227" lon="133.6395117"><ele>498.6000000000001</ele><time>2024-10-14T05:52:07Z</time></trkpt><trkpt lat="33.9082722" lon="133.6397285"><ele>487.71333333333337</ele><time>2024-10-14T05:53:09Z</time></trkpt><trkpt lat="33.9084417" lon="133.6396215"><ele>478.2866666666667</ele><time>2024-10-14T05:53:48Z</time></trkpt><trkpt lat="33.9085153" lon="133.6398259"><ele>470.1266666666667</ele><time>2024-10-14T05:54:45Z</time></trkpt><trkpt lat="33.9086411" lon="133.6399878"><ele>461.36666666666673</ele><time>2024-10-14T05:55:42Z</time></trkpt><trkpt lat="33.9088218" lon="133.6400035"><ele>450.49</ele><time>2024-10-14T05:56:53Z</time></trkpt><trkpt lat="33.9089984" lon="133.6399194"><ele>440.2366666666667</ele><time>2024-10-14T05:57:44Z</time></trkpt><trkpt lat="33.909149" lon="133.6400482"><ele>428.27666666666664</ele><time>2024-10-14T05:59:13Z</time></trkpt><trkpt lat="33.9092317" lon="133.6402416"><ele>417.4166666666667</ele><time>2024-10-14T05:59:49Z</time></trkpt><trkpt lat="33.9093644" lon="133.640063"><ele>406.5566666666667</ele><time>2024-10-14T06:00:25Z</time></trkpt><trkpt lat="33.909534" lon="133.640169"><ele>396.24333333333334</ele><time>2024-10-14T06:01:37Z</time></trkpt><trkpt lat="33.909723" lon="133.6402297"><ele>387.0566666666667</ele><time>2024-10-14T06:02:18Z</time></trkpt><trkpt lat="33.9099209" lon="133.640255"><ele>378.33</ele><time>2024-10-14T06:03:12Z</time></trkpt><trkpt lat="33.9101008" lon="133.6403052"><ele>371.6866666666667</ele><time>2024-10-14T06:03:47Z</time></trkpt><trkpt lat="33.9102956" lon="133.6402798"><ele>365.08666666666676</ele><time>2024-10-14T06:04:17Z</time></trkpt><trkpt lat="33.9104828" lon="133.6402962"><ele>358.8066666666667</ele><time>2024-10-14T06:05:41Z</time></trkpt><trkpt lat="33.9106666" lon="133.6403061"><ele>354.25333333333333</ele><time>2024-10-14T06:06:20Z</time></trkpt><trkpt lat="33.9108548" lon="133.6402592"><ele>351.2066666666667</ele><time>2024-10-14T06:06:50Z</time></trkpt><trkpt lat="33.911032" lon="133.6401786"><ele>348.02666666666664</ele><time>2024-10-14T06:07:14Z</time></trkpt><trkpt lat="33.9112272" lon="133.6401571"><ele>344.18666666666667</ele><time>2024-10-14T06:07:37Z</time></trkpt><trkpt lat="33.9114277" lon="133.640089"><ele>339.6333333333334</ele><time>2024-10-14T06:08:07Z</time></trkpt><trkpt lat="33.9116114" lon="133.640094"><ele>335.05333333333334</ele><time>2024-10-14T06:08:46Z</time></trkpt><trkpt lat="33.9117918" lon="133.6401437"><ele>329.96333333333337</ele><time>2024-10-14T06:09:28Z</time></trkpt><trkpt lat="33.9119893" lon="133.6401377"><ele>324.91333333333336</ele><time>2024-10-14T06:10:04Z</time></trkpt><trkpt lat="33.9121752" lon="133.6401594"><ele>319.68666666666667</ele><time>2024-10-14T06:10:33Z</time></trkpt><trkpt lat="33.9123546" lon="133.6400726"><ele>315.8533333333333</ele><time>2024-10-14T06:11:06Z</time></trkpt><trkpt lat="33.912532" lon="133.6399844"><ele>311.73</ele><time>2024-10-14T06:11:33Z</time></trkpt><trkpt lat="33.9127013" lon="133.6398913"><ele>308.65000000000003</ele><time>2024-10-14T06:12:15Z</time></trkpt><trkpt lat="33.9128812" lon="133.639791"><ele>304.66333333333336</ele><time>2024-10-14T06:12:45Z</time></trkpt><trkpt lat="33.9130673" lon="133.6397152"><ele>301.52333333333337</ele><time>2024-10-14T06:13:06Z</time></trkpt><trkpt lat="33.9132542" lon="133.6397128"><ele>298.12666666666667</ele><time>2024-10-14T06:13:33Z</time></trkpt><trkpt lat="33.9134506" lon="133.6397625"><ele>295.12666666666667</ele><time>2024-10-14T06:14:00Z</time></trkpt><trkpt lat="33.9136247" lon="133.6398855"><ele>292.19</ele><time>2024-10-14T06:14:26Z</time></trkpt><trkpt lat="33.9137578" lon="133.6400547"><ele>289.10999999999996</ele><time>2024-10-14T06:14:47Z</time></trkpt><trkpt lat="33.9139435" lon="133.6400854"><ele>286.7433333333333</ele><time>2024-10-14T06:15:08Z</time></trkpt><trkpt lat="33.914123" lon="133.6401554"><ele>284.1933333333333</ele><time>2024-10-14T06:15:50Z</time></trkpt><trkpt lat="33.9143163" lon="133.6402105"><ele>281.82666666666665</ele><time>2024-10-14T06:16:08Z</time></trkpt><trkpt lat="33.9144955" lon="133.6402743"><ele>281.22333333333336</ele><time>2024-10-14T06:16:32Z</time></trkpt><trkpt lat="33.91462" lon="133.6404328"><ele>279.5233333333333</ele><time>2024-10-14T06:16:47Z</time></trkpt><trkpt lat="33.9147736" lon="133.6405603"><ele>278.1333333333333</ele><time>2024-10-14T06:17:11Z</time></trkpt><trkpt lat="33.9149474" lon="133.6406204"><ele>274.09666666666664</ele><time>2024-10-14T06:17:38Z</time></trkpt><trkpt lat="33.9151202" lon="133.6407356"><ele>271.79333333333335</ele><time>2024-10-14T06:17:59Z</time></trkpt><trkpt lat="33.9153129" lon="133.6408023"><ele>270.15000000000003</ele><time>2024-10-14T06:18:17Z</time></trkpt><trkpt lat="33.9155056" lon="133.6408767"><ele>271.59999999999997</ele><time>2024-10-14T06:18:38Z</time></trkpt><trkpt lat="33.9156922" lon="133.6408756"><ele>273.40333333333336</ele><time>2024-10-14T06:18:53Z</time></trkpt><trkpt lat="33.9158395" lon="133.6407487"><ele>272.81333333333333</ele><time>2024-10-14T06:19:14Z</time></trkpt><trkpt lat="33.9157437" lon="133.6405438"><ele>269.76666666666665</ele><time>2024-10-14T06:19:50Z</time></trkpt><trkpt lat="33.9155595" lon="133.6404675"><ele>268.14000000000004</ele><time>2024-10-14T06:20:13Z</time></trkpt><trkpt lat="33.9153907" lon="133.6403424"><ele>269.77</ele><time>2024-10-14T06:20:34Z</time></trkpt><trkpt lat="33.9152183" lon="133.6402104"><ele>271.9166666666667</ele><time>2024-10-14T06:20:55Z</time></trkpt><trkpt lat="33.9150712" lon="133.6400676"><ele>272.61999999999995</ele><time>2024-10-14T06:21:16Z</time></trkpt><trkpt lat="33.9149999" lon="133.6398438"><ele>272.3</ele><time>2024-10-14T06:21:40Z</time></trkpt><trkpt lat="33.91508" lon="133.6396177"><ele>273.17333333333335</ele><time>2024-10-14T06:22:01Z</time></trkpt><trkpt lat="33.9151137" lon="133.6393953"><ele>275.92</ele><time>2024-10-14T06:22:19Z</time></trkpt><trkpt lat="33.9150503" lon="133.6391682"><ele>279.28</ele><time>2024-10-14T06:22:40Z</time></trkpt><trkpt lat="33.914999" lon="133.6389385"><ele>280.7633333333333</ele><time>2024-10-14T06:23:02Z</time></trkpt><trkpt lat="33.9150527" lon="133.6387271"><ele>282.18</ele><time>2024-10-14T06:23:22Z</time></trkpt><trkpt lat="33.9151536" lon="133.6385422"><ele>283.7966666666667</ele><time>2024-10-14T06:23:42Z</time></trkpt><trkpt lat="33.9152449" lon="133.6383294"><ele>286.8</ele><time>2024-10-14T06:24:03Z</time></trkpt><trkpt lat="33.9153139" lon="133.6380993"><ele>287.95666666666665</ele><time>2024-10-14T06:24:23Z</time></trkpt><trkpt lat="33.9154303" lon="133.6378934"><ele>289.77333333333337</ele><time>2024-10-14T06:24:46Z</time></trkpt><trkpt lat="33.9155078" lon="133.6376943"><ele>290.1466666666667</ele><time>2024-10-14T06:25:08Z</time></trkpt><trkpt lat="33.9155898" lon="133.6374848"><ele>291.77333333333337</ele><time>2024-10-14T06:25:28Z</time></trkpt><trkpt lat="33.9157049" lon="133.6372981"><ele>291.88000000000005</ele><time>2024-10-14T06:25:49Z</time></trkpt><trkpt lat="33.9158572" lon="133.6371603"><ele>293.17333333333335</ele><time>2024-10-14T06:26:09Z</time></trkpt><trkpt lat="33.9160147" lon="133.6370388"><ele>295.13</ele><time>2024-10-14T06:26:35Z</time></trkpt><trkpt lat="33.9160869" lon="133.6368187"><ele>296.69</ele><time>2024-10-14T06:26:58Z</time></trkpt><trkpt lat="33.9160998" lon="133.6366001"><ele>297.79333333333335</ele><time>2024-10-14T06:27:15Z</time></trkpt><trkpt lat="33.9159788" lon="133.6363979"><ele>296.48</ele><time>2024-10-14T06:27:33Z</time></trkpt><trkpt lat="33.9158496" lon="133.636231"><ele>295.14666666666665</ele><time>2024-10-14T06:27:51Z</time></trkpt><trkpt lat="33.91574" lon="133.6360232"><ele>294.26000000000005</ele><time>2024-10-14T06:28:12Z</time></trkpt><trkpt lat="33.9156798" lon="133.6357885"><ele>294.72</ele><time>2024-10-14T06:28:33Z</time></trkpt><trkpt lat="33.9156115" lon="133.6355516"><ele>295.45666666666665</ele><time>2024-10-14T06:28:54Z</time></trkpt><trkpt lat="33.9155602" lon="133.6353172"><ele>296.96666666666664</ele><time>2024-10-14T06:29:15Z</time></trkpt><trkpt lat="33.9155035" lon="133.6351011"><ele>299.9166666666667</ele><time>2024-10-14T06:29:33Z</time></trkpt><trkpt lat="33.915408" lon="133.6349087"><ele>303.23333333333335</ele><time>2024-10-14T06:29:51Z</time></trkpt><trkpt lat="33.9153077" lon="133.6346947"><ele>305.42</ele><time>2024-10-14T06:30:12Z</time></trkpt><trkpt lat="33.9152055" lon="133.6345062"><ele>305.1333333333334</ele><time>2024-10-14T06:30:30Z</time></trkpt><trkpt lat="33.9151207" lon="133.6342793"><ele>304.84666666666664</ele><time>2024-10-14T06:30:51Z</time></trkpt><trkpt lat="33.9150305" lon="133.6340477"><ele>305.1166666666667</ele><time>2024-10-14T06:31:12Z</time></trkpt><trkpt lat="33.9149178" lon="133.6338598"><ele>305.34000000000003</ele><time>2024-10-14T06:31:30Z</time></trkpt><trkpt lat="33.9147521" lon="133.6337392"><ele>305.6033333333333</ele><time>2024-10-14T06:31:48Z</time></trkpt><trkpt lat="33.9145715" lon="133.6336821"><ele>304.4733333333333</ele><time>2024-10-14T06:32:06Z</time></trkpt><trkpt lat="33.9143865" lon="133.6336769"><ele>303.43666666666667</ele><time>2024-10-14T06:32:24Z</time></trkpt><trkpt lat="33.9141855" lon="133.6336602"><ele>303.3066666666667</ele><time>2024-10-14T06:32:42Z</time></trkpt><trkpt lat="33.9139841" lon="133.6336107"><ele>304.00333333333333</ele><time>2024-10-14T06:33:00Z</time></trkpt><trkpt lat="33.913779" lon="133.6336558"><ele>305.02</ele><time>2024-10-14T06:33:27Z</time></trkpt><trkpt lat="33.9136078" lon="133.6335197"><ele>305.02666666666664</ele><time>2024-10-14T06:33:45Z</time></trkpt><trkpt lat="33.9134864" lon="133.6333416"><ele>304.57666666666665</ele><time>2024-10-14T06:34:03Z</time></trkpt><trkpt lat="33.9134335" lon="133.6331034"><ele>304.0733333333333</ele><time>2024-10-14T06:34:24Z</time></trkpt><trkpt lat="33.9134661" lon="133.6328604"><ele>304.1133333333334</ele><time>2024-10-14T06:34:45Z</time></trkpt><trkpt lat="33.9134203" lon="133.632628"><ele>303.24666666666667</ele><time>2024-10-14T06:35:06Z</time></trkpt><trkpt lat="33.9132572" lon="133.6325057"><ele>300.25333333333333</ele><time>2024-10-14T06:35:21Z</time></trkpt><trkpt lat="33.9130704" lon="133.6324952"><ele>298.67</ele><time>2024-10-14T06:35:39Z</time></trkpt><trkpt lat="33.9129111" lon="133.6326465"><ele>299.68666666666667</ele><time>2024-10-14T06:35:57Z</time></trkpt><trkpt lat="33.9127238" lon="133.6327123"><ele>302.8966666666667</ele><time>2024-10-14T06:36:15Z</time></trkpt><trkpt lat="33.9125789" lon="133.6325804"><ele>304.5933333333333</ele><time>2024-10-14T06:36:39Z</time></trkpt><trkpt lat="33.9124777" lon="133.632366"><ele>303.86333333333334</ele><time>2024-10-14T06:37:00Z</time></trkpt><trkpt lat="33.9123419" lon="133.6322188"><ele>304.07666666666665</ele><time>2024-10-14T06:37:18Z</time></trkpt><trkpt lat="33.9122055" lon="133.6320614"><ele>304.2966666666667</ele><time>2024-10-14T06:37:38Z</time></trkpt><trkpt lat="33.9120626" lon="133.6318992"><ele>307.3433333333333</ele><time>2024-10-14T06:37:56Z</time></trkpt><trkpt lat="33.9119119" lon="133.6317768"><ele>310.5266666666667</ele><time>2024-10-14T06:38:14Z</time></trkpt><trkpt lat="33.9117073" lon="133.6317778"><ele>313.16</ele><time>2024-10-14T06:38:32Z</time></trkpt><trkpt lat="33.9115518" lon="133.6319251"><ele>314.68666666666667</ele><time>2024-10-14T06:38:53Z</time></trkpt><trkpt lat="33.9113657" lon="133.6318535"><ele>314.5833333333333</ele><time>2024-10-14T06:39:14Z</time></trkpt><trkpt lat="33.9111882" lon="133.6317918"><ele>314.9266666666667</ele><time>2024-10-14T06:39:32Z</time></trkpt><trkpt lat="33.9109969" lon="133.6317103"><ele>315.0366666666667</ele><time>2024-10-14T06:39:53Z</time></trkpt><trkpt lat="33.9108361" lon="133.6315983"><ele>315.2133333333333</ele><time>2024-10-14T06:40:11Z</time></trkpt><trkpt lat="33.9107056" lon="133.6314424"><ele>315.24666666666667</ele><time>2024-10-14T06:40:29Z</time></trkpt><trkpt lat="33.9105535" lon="133.6313254"><ele>314.4866666666667</ele><time>2024-10-14T06:40:47Z</time></trkpt><trkpt lat="33.9103753" lon="133.6312318"><ele>314.25666666666666</ele><time>2024-10-14T06:41:05Z</time></trkpt><trkpt lat="33.9101933" lon="133.6311511"><ele>313.64</ele><time>2024-10-14T06:41:23Z</time></trkpt><trkpt lat="33.9100043" lon="133.6310729"><ele>313.3433333333333</ele><time>2024-10-14T06:41:41Z</time></trkpt><trkpt lat="33.9098166" lon="133.6310725"><ele>312.90000000000003</ele><time>2024-10-14T06:41:59Z</time></trkpt><trkpt lat="33.9096459" lon="133.6311612"><ele>312.67</ele><time>2024-10-14T06:42:17Z</time></trkpt><trkpt lat="33.9094669" lon="133.6312891"><ele>313.60999999999996</ele><time>2024-10-14T06:42:38Z</time></trkpt><trkpt lat="33.9092759" lon="133.6312579"><ele>315.59666666666664</ele><time>2024-10-14T06:42:59Z</time></trkpt><trkpt lat="33.9090891" lon="133.6311848"><ele>319.84</ele><time>2024-10-14T06:43:23Z</time></trkpt><trkpt lat="33.9088916" lon="133.6311236"><ele>322.46000000000004</ele><time>2024-10-14T06:43:44Z</time></trkpt><trkpt lat="33.9086997" lon="133.6310947"><ele>324.8333333333333</ele><time>2024-10-14T06:44:02Z</time></trkpt><trkpt lat="33.9085219" lon="133.6309751"><ele>327.2166666666667</ele><time>2024-10-14T06:44:23Z</time></trkpt><trkpt lat="33.9083795" lon="133.630825"><ele>330.3333333333333</ele><time>2024-10-14T06:45:02Z</time></trkpt><trkpt lat="33.9082392" lon="133.6306411"><ele>333.03999999999996</ele><time>2024-10-14T06:46:44Z</time></trkpt><trkpt lat="33.9080558" lon="133.6305394"><ele>333.7033333333333</ele><time>2024-10-14T06:47:05Z</time></trkpt><trkpt lat="33.9078824" lon="133.6304613"><ele>334.68666666666667</ele><time>2024-10-14T06:47:23Z</time></trkpt><trkpt lat="33.9076997" lon="133.6303837"><ele>335.0566666666667</ele><time>2024-10-14T06:47:44Z</time></trkpt><trkpt lat="33.9074921" lon="133.630384"><ele>336.4166666666667</ele><time>2024-10-14T06:48:02Z</time></trkpt><trkpt lat="33.9072967" lon="133.6303888"><ele>339.1033333333333</ele><time>2024-10-14T06:48:20Z</time></trkpt><trkpt lat="33.9071043" lon="133.6304691"><ele>342.04333333333335</ele><time>2024-10-14T06:48:38Z</time></trkpt><trkpt lat="33.9069748" lon="133.6306254"><ele>344.25333333333333</ele><time>2024-10-14T06:48:56Z</time></trkpt><trkpt lat="33.9068924" lon="133.6308532"><ele>345.8066666666667</ele><time>2024-10-14T06:49:17Z</time></trkpt><trkpt lat="33.9067095" lon="133.6309165"><ele>347.84666666666664</ele><time>2024-10-14T06:51:11Z</time></trkpt><trkpt lat="33.9065024" lon="133.6308821"><ele>348.5733333333333</ele><time>2024-10-14T06:51:32Z</time></trkpt><trkpt lat="33.9063439" lon="133.6307707"><ele>346.71999999999997</ele><time>2024-10-14T06:51:53Z</time></trkpt><trkpt lat="33.9061589" lon="133.6307857"><ele>345.44</ele><time>2024-10-14T06:52:11Z</time></trkpt><trkpt lat="33.9059708" lon="133.6308397"><ele>346.62999999999994</ele><time>2024-10-14T06:52:29Z</time></trkpt><trkpt lat="33.90578" lon="133.630891"><ele>349.49666666666667</ele><time>2024-10-14T06:52:50Z</time></trkpt><trkpt lat="33.9055748" lon="133.6309099"><ele>352.1433333333334</ele><time>2024-10-14T06:53:11Z</time></trkpt><trkpt lat="33.9053864" lon="133.6309074"><ele>354.9066666666667</ele><time>2024-10-14T06:53:35Z</time></trkpt><trkpt lat="33.9052154" lon="133.6307849"><ele>358.34</ele><time>2024-10-14T06:53:53Z</time></trkpt><trkpt lat="33.9050998" lon="133.6306083"><ele>359.17333333333335</ele><time>2024-10-14T06:54:11Z</time></trkpt></trkseg></trk></gpx>