<?xml version='1.0' encoding='UTF-8'?><gpx creator="Yama Museum Summit Candidate Generator" xsi:schemaLocation="http://www.topografix.com/GPX/1/1 http://www.topografix.com/GPX/1/1/gpx.xsd" version="1.1" xmlns="http://www.topografix.com/GPX/1/1" xmlns:xsi="http://www.w3.org/2001/XMLSchema-instance" xmlns:yama="https://museum-yama-data.moukaeritai.work/ns/yama-data/0.1"><metadata><bounds maxlat="33.7279897" maxlon="132.8960806" minlat="33.7153292" minlon="132.8739323"/><name>皿ヶ嶺・引地山</name><extensions><yama:source_gpx_basename>yamap_2022-04-15_11_52.gpx</yama:source_gpx_basename><yama:source_gpx_relative_path>data/01_raw/gpx/2026-05-12/yamap_2022-04-15_11_52.gpx</yama:source_gpx_relative_path><yama:detection_parameters>window=5,radius=10,min_prominence=30,merge=100</yama:detection_parameters></extensions></metadata><wpt lat="33.7157017" lon="132.8951897"><ele>1277.043085490437</ele><time>2022-04-15T04:40:23Z</time><name>summit-candidate:7a1f0e8b5f9e5cc2</name><desc>Summit candidate detected at elevation 1277.043085490437m with prominence 334.6426018089121m.</desc><sym>Summit Candidate</sym><extensions><yama:source_trackpoint_index>157</yama:source_trackpoint_index><yama:valid_elevation_index>157</yama:valid_elevation_index><yama:smoothed_ele>1276.8795567022137</yama:smoothed_ele><yama:prominence>334.6426018089121</yama:prominence><yama:detection_method>local_maxima_with_prominence</yama:detection_method><yama:detection_parameters>window=5,radius=10,min_prominence=30,merge=100</yama:detection_parameters><yama:candidate_status>unresolved</yama:candidate_status></extensions></wpt>
  <wpt lat="33.7217271" lon="132.882066"><ele>1139.9767402874822</ele><time>2022-04-15T05:55:09Z</time><name>summit-candidate:b06e13a9483478e5</name><desc>Summit candidate detected at elevation 1139.9767402874822m with prominence 118.19356129498044m.</desc><sym>Summit Candidate</sym><extensions><yama:source_trackpoint_index>366</yama:source_trackpoint_index><yama:valid_elevation_index>366</yama:valid_elevation_index><yama:smoothed_ele>1139.1845147709828</yama:smoothed_ele><yama:prominence>118.19356129498044</yama:prominence><yama:detection_method>local_maxima_with_prominence</yama:detection_method><yama:detection_parameters>window=5,radius=10,min_prominence=30,merge=100</yama:detection_parameters><yama:candidate_status>unresolved</yama:candidate_status></extensions></wpt>
  <trk><name>皿ヶ嶺・引地山</name><number>1</number><trkseg><trkpt lat="33.7240827" lon="132.8862444"><ele>934.8948108129264</ele><time>2022-04-15T02:52:21Z</time></trkpt><trkpt lat="33.7241205" lon="132.886459"><ele>937.6554989541951</ele><time>2022-04-15T02:52:41Z</time></trkpt><trkpt lat="33.7240694" lon="132.8866724"><ele>939.5323616328668</ele><time>2022-04-15T02:53:04Z</time></trkpt><trkpt lat="33.7240098" lon="132.8868805"><ele>944.5534290878231</ele><time>2022-04-15T02:53:59Z</time></trkpt><trkpt lat="33.7239497" lon="132.8870853"><ele>948.1475184638044</ele><time>2022-04-15T02:54:12Z</time></trkpt><trkpt lat="33.7238801" lon="132.887289"><ele>952.3543912986989</ele><time>2022-04-15T02:54:25Z</time></trkpt><trkpt lat="33.7237386" lon="132.8874311"><ele>952.5166232119755</ele><time>2022-04-15T02:55:15Z</time></trkpt><trkpt lat="33.7235585" lon="132.8873519"><ele>954.5896031857683</ele><time>2022-04-15T02:55:33Z</time></trkpt><trkpt lat="33.7233984" lon="132.8872409"><ele>956.1586760608556</ele><time>2022-04-15T02:55:45Z</time></trkpt><trkpt lat="33.7232872" lon="132.8870695"><ele>959.1871745850646</ele><time>2022-04-15T02:55:58Z</time></trkpt><trkpt lat="33.7232385" lon="132.88685"><ele>960.4500798425753</ele><time>2022-04-15T02:56:09Z</time></trkpt><trkpt lat="33.7231881" lon="132.8866396"><ele>960.4276493560793</ele><time>2022-04-15T02:56:22Z</time></trkpt><trkpt lat="33.7231791" lon="132.8864134"><ele>960.5778322685834</ele><time>2022-04-15T02:56:34Z</time></trkpt><trkpt lat="33.7232023" lon="132.8861892"><ele>960.6094360473807</ele><time>2022-04-15T02:56:51Z</time></trkpt><trkpt lat="33.7232684" lon="132.8859832"><ele>961.1513383555965</ele><time>2022-04-15T02:57:19Z</time></trkpt><trkpt lat="33.7233165" lon="132.885769"><ele>961.719911477698</ele><time>2022-04-15T02:57:32Z</time></trkpt><trkpt lat="33.7232044" lon="132.8855867"><ele>962.6913163978185</ele><time>2022-04-15T02:57:44Z</time></trkpt><trkpt lat="33.7230434" lon="132.8854865"><ele>964.3685895012937</ele><time>2022-04-15T02:58:05Z</time></trkpt><trkpt lat="33.722985" lon="132.8856918"><ele>968.6755581470692</ele><time>2022-04-15T02:59:09Z</time></trkpt><trkpt lat="33.7229292" lon="132.8859087"><ele>973.8542040771154</ele><time>2022-04-15T02:59:32Z</time></trkpt><trkpt lat="33.7228272" lon="132.8860962"><ele>978.4896348766177</ele><time>2022-04-15T02:59:44Z</time></trkpt><trkpt lat="33.7227144" lon="132.8862746"><ele>981.2434337950696</ele><time>2022-04-15T02:59:55Z</time></trkpt><trkpt lat="33.7226437" lon="132.886486"><ele>983.4031482065102</ele><time>2022-04-15T03:00:09Z</time></trkpt><trkpt lat="33.7224895" lon="132.8863568"><ele>986.6967981727154</ele><time>2022-04-15T03:00:31Z</time></trkpt><trkpt lat="33.7223735" lon="132.8861766"><ele>990.819252592747</ele><time>2022-04-15T03:00:43Z</time></trkpt><trkpt lat="33.7224761" lon="132.8859977"><ele>993.9892649724525</ele><time>2022-04-15T03:01:15Z</time></trkpt><trkpt lat="33.722439" lon="132.8857823"><ele>999.598135102223</ele><time>2022-04-15T03:02:53Z</time></trkpt><trkpt lat="33.7222969" lon="132.8859184"><ele>1005.6240898628861</ele><time>2022-04-15T03:03:30Z</time></trkpt><trkpt lat="33.7222439" lon="132.8861259"><ele>1012.1550095404021</ele><time>2022-04-15T03:03:54Z</time></trkpt><trkpt lat="33.7221903" lon="132.8863363"><ele>1016.117728071716</ele><time>2022-04-15T03:04:12Z</time></trkpt><trkpt lat="33.7221627" lon="132.8865617"><ele>1019.10736220857</ele><time>2022-04-15T03:04:37Z</time></trkpt><trkpt lat="33.7220937" lon="132.8867634"><ele>1024.0658528377332</ele><time>2022-04-15T03:04:56Z</time></trkpt><trkpt lat="33.7219508" lon="132.8866212"><ele>1029.1559493073785</ele><time>2022-04-15T03:05:24Z</time></trkpt><trkpt lat="33.7219014" lon="132.8864107"><ele>1034.3705106358093</ele><time>2022-04-15T03:05:47Z</time></trkpt><trkpt lat="33.7218508" lon="132.8861948"><ele>1037.363484472192</ele><time>2022-04-15T03:06:00Z</time></trkpt><trkpt lat="33.7218053" lon="132.8859847"><ele>1040.0811144637191</ele><time>2022-04-15T03:06:16Z</time></trkpt><trkpt lat="33.7217359" lon="132.8857852"><ele>1043.555197064824</ele><time>2022-04-15T03:06:40Z</time></trkpt><trkpt lat="33.7217574" lon="132.8855636"><ele>1048.0134617859337</ele><time>2022-04-15T03:06:59Z</time></trkpt><trkpt lat="33.7218126" lon="132.8857728"><ele>1052.9720919125668</ele><time>2022-04-15T03:07:35Z</time></trkpt><trkpt lat="33.7217939" lon="132.8859884"><ele>1057.311441830392</ele><time>2022-04-15T03:07:54Z</time></trkpt><trkpt lat="33.7217409" lon="132.8861967"><ele>1061.3704297753993</ele><time>2022-04-15T03:08:12Z</time></trkpt><trkpt lat="33.7216394" lon="132.8863957"><ele>1064.4142566357023</ele><time>2022-04-15T03:08:29Z</time></trkpt><trkpt lat="33.7215204" lon="132.8865671"><ele>1066.9992373953194</ele><time>2022-04-15T03:08:44Z</time></trkpt><trkpt lat="33.7214287" lon="132.8867609"><ele>1070.548649537061</ele><time>2022-04-15T03:08:59Z</time></trkpt><trkpt lat="33.7214027" lon="132.8869815"><ele>1073.0987845080456</ele><time>2022-04-15T03:09:15Z</time></trkpt><trkpt lat="33.7214275" lon="132.8871954"><ele>1075.7521011216716</ele><time>2022-04-15T03:09:31Z</time></trkpt><trkpt lat="33.7213206" lon="132.8873762"><ele>1076.0914851732657</ele><time>2022-04-15T03:09:44Z</time></trkpt><trkpt lat="33.7212428" lon="132.8875749"><ele>1076.0153466684076</ele><time>2022-04-15T03:10:01Z</time></trkpt><trkpt lat="33.7213925" lon="132.8877104"><ele>1075.257713677511</ele><time>2022-04-15T03:10:16Z</time></trkpt><trkpt lat="33.7215235" lon="132.8878676"><ele>1075.8876393967396</ele><time>2022-04-15T03:10:31Z</time></trkpt><trkpt lat="33.7214437" lon="132.8880635"><ele>1078.905796861082</ele><time>2022-04-15T03:10:50Z</time></trkpt><trkpt lat="33.7214984" lon="132.8882992"><ele>1082.4690717310696</ele><time>2022-04-15T03:11:13Z</time></trkpt><trkpt lat="33.7215032" lon="132.8885205"><ele>1085.0315895319375</ele><time>2022-04-15T03:11:37Z</time></trkpt><trkpt lat="33.7214766" lon="132.8887413"><ele>1089.7546764677948</ele><time>2022-04-15T03:12:02Z</time></trkpt><trkpt lat="33.7215027" lon="132.888958"><ele>1094.561313003823</ele><time>2022-04-15T03:12:23Z</time></trkpt><trkpt lat="33.7214808" lon="132.8891775"><ele>1100.85877360766</ele><time>2022-04-15T03:12:39Z</time></trkpt><trkpt lat="33.7213304" lon="132.8893045"><ele>1104.485047019925</ele><time>2022-04-15T03:12:58Z</time></trkpt><trkpt lat="33.7212246" lon="132.8894821"><ele>1107.3632639831296</ele><time>2022-04-15T03:13:13Z</time></trkpt><trkpt lat="33.7211806" lon="132.8897004"><ele>1108.5104534766613</ele><time>2022-04-15T03:13:38Z</time></trkpt><trkpt lat="33.7211955" lon="132.8899163"><ele>1107.9472724981863</ele><time>2022-04-15T03:13:54Z</time></trkpt><trkpt lat="33.7213706" lon="132.8900196"><ele>1108.8327256388823</ele><time>2022-04-15T03:14:11Z</time></trkpt><trkpt lat="33.7214503" lon="132.8902135"><ele>1109.9893085023164</ele><time>2022-04-15T03:14:29Z</time></trkpt><trkpt lat="33.7215048" lon="132.8904241"><ele>1112.1453797305799</ele><time>2022-04-15T03:14:45Z</time></trkpt><trkpt lat="33.7214611" lon="132.8906401"><ele>1115.492731353492</ele><time>2022-04-15T03:15:33Z</time></trkpt><trkpt lat="33.7215157" lon="132.8908657"><ele>1118.6419069877995</ele><time>2022-04-15T03:15:46Z</time></trkpt><trkpt lat="33.7215596" lon="132.8910835"><ele>1122.391459986352</ele><time>2022-04-15T03:16:01Z</time></trkpt><trkpt lat="33.7215401" lon="132.8913052"><ele>1124.5415000269752</ele><time>2022-04-15T03:16:24Z</time></trkpt><trkpt lat="33.7215845" lon="132.8915178"><ele>1127.6890903312787</ele><time>2022-04-15T03:16:41Z</time></trkpt><trkpt lat="33.7216098" lon="132.8917391"><ele>1129.3000648426278</ele><time>2022-04-15T03:16:57Z</time></trkpt><trkpt lat="33.7216832" lon="132.8919363"><ele>1131.017067669038</ele><time>2022-04-15T03:17:13Z</time></trkpt><trkpt lat="33.7218032" lon="132.8920985"><ele>1130.6958764072742</ele><time>2022-04-15T03:17:30Z</time></trkpt><trkpt lat="33.7218523" lon="132.8923102"><ele>1133.78411872119</ele><time>2022-04-15T03:17:51Z</time></trkpt><trkpt lat="33.7218116" lon="132.8925263"><ele>1137.5549588415035</ele><time>2022-04-15T03:18:07Z</time></trkpt><trkpt lat="33.7217689" lon="132.8927382"><ele>1144.3901770498906</ele><time>2022-04-15T03:18:34Z</time></trkpt><trkpt lat="33.7217011" lon="132.8929519"><ele>1149.2293846720288</ele><time>2022-04-15T03:18:51Z</time></trkpt><trkpt lat="33.7216591" lon="132.8931643"><ele>1154.5776160883554</ele><time>2022-04-15T03:19:17Z</time></trkpt><trkpt lat="33.7215264" lon="132.8933186"><ele>1157.8864352874677</ele><time>2022-04-15T03:19:34Z</time></trkpt><trkpt lat="33.7213837" lon="132.893451"><ele>1158.900264324345</ele><time>2022-04-15T03:19:48Z</time></trkpt><trkpt lat="33.7214889" lon="132.8936299"><ele>1158.023828381205</ele><time>2022-04-15T03:20:00Z</time></trkpt><trkpt lat="33.7215622" lon="132.8938276"><ele>1155.9876097153658</ele><time>2022-04-15T03:20:13Z</time></trkpt><trkpt lat="33.7213837" lon="132.8937883"><ele>1155.5338167315583</ele><time>2022-04-15T03:21:43Z</time></trkpt><trkpt lat="33.7212698" lon="132.8939695"><ele>1155.0646711944166</ele><time>2022-04-15T04:03:10Z</time></trkpt><trkpt lat="33.7213792" lon="132.8937977"><ele>1157.5968923412415</ele><time>2022-04-15T04:13:59Z</time></trkpt><trkpt lat="33.7215583" lon="132.893751"><ele>1159.1855147926397</ele><time>2022-04-15T04:16:22Z</time></trkpt><trkpt lat="33.7217401" lon="132.8937726"><ele>1161.8735753474432</ele><time>2022-04-15T04:17:12Z</time></trkpt><trkpt lat="33.7219002" lon="132.8936424"><ele>1162.7165382451215</ele><time>2022-04-15T04:17:33Z</time></trkpt><trkpt lat="33.7220642" lon="132.893538"><ele>1164.5708559084537</ele><time>2022-04-15T04:17:52Z</time></trkpt><trkpt lat="33.7221285" lon="132.8937457"><ele>1165.611731576925</ele><time>2022-04-15T04:18:10Z</time></trkpt><trkpt lat="33.7222161" lon="132.8939365"><ele>1167.257401243631</ele><time>2022-04-15T04:18:23Z</time></trkpt><trkpt lat="33.7222601" lon="132.8941504"><ele>1167.0447736718886</ele><time>2022-04-15T04:18:36Z</time></trkpt><trkpt lat="33.7223445" lon="132.8943483"><ele>1166.4384836113645</ele><time>2022-04-15T04:18:49Z</time></trkpt><trkpt lat="33.7224589" lon="132.894524"><ele>1157.2994244113324</ele><time>2022-04-15T04:19:01Z</time></trkpt><trkpt lat="33.7225997" lon="132.8946786"><ele>1156.7261470836524</ele><time>2022-04-15T04:19:15Z</time></trkpt><trkpt lat="33.7227233" lon="132.8948391"><ele>1155.2742693658784</ele><time>2022-04-15T04:19:28Z</time></trkpt><trkpt lat="33.722695" lon="132.8950601"><ele>1163.2205315152648</ele><time>2022-04-15T04:19:41Z</time></trkpt><trkpt lat="33.7226563" lon="132.8952737"><ele>1162.9131685460572</ele><time>2022-04-15T04:19:55Z</time></trkpt><trkpt lat="33.7226971" lon="132.8954897"><ele>1164.1526358587405</ele><time>2022-04-15T04:20:13Z</time></trkpt><trkpt lat="33.7225726" lon="132.8956537"><ele>1163.486099963489</ele><time>2022-04-15T04:20:24Z</time></trkpt><trkpt lat="33.722424" lon="132.8957876"><ele>1157.1301088727876</ele><time>2022-04-15T04:20:36Z</time></trkpt><trkpt lat="33.7222579" lon="132.8958749"><ele>1155.7731948911146</ele><time>2022-04-15T04:20:51Z</time></trkpt><trkpt lat="33.7220688" lon="132.8958956"><ele>1152.7018361693772</ele><time>2022-04-15T04:21:05Z</time></trkpt><trkpt lat="33.7218831" lon="132.8959098"><ele>1158.3715281455268</ele><time>2022-04-15T04:21:18Z</time></trkpt><trkpt lat="33.721703" lon="132.8959382"><ele>1158.161369580908</ele><time>2022-04-15T04:21:31Z</time></trkpt><trkpt lat="33.721567" lon="132.8960806"><ele>1159.7301298804716</ele><time>2022-04-15T04:21:44Z</time></trkpt><trkpt lat="33.7214165" lon="132.8959581"><ele>1160.1978293892882</ele><time>2022-04-15T04:22:24Z</time></trkpt><trkpt lat="33.7212981" lon="132.8957925"><ele>1161.7647457138862</ele><time>2022-04-15T04:22:39Z</time></trkpt><trkpt lat="33.7212241" lon="132.8955935"><ele>1165.3015594619972</ele><time>2022-04-15T04:23:09Z</time></trkpt><trkpt lat="33.7211379" lon="132.8953949"><ele>1169.2954364476757</ele><time>2022-04-15T04:23:30Z</time></trkpt><trkpt lat="33.7210532" lon="132.8951937"><ele>1173.0808239973005</ele><time>2022-04-15T04:23:44Z</time></trkpt><trkpt lat="33.7209673" lon="132.8950037"><ele>1175.9899447990103</ele><time>2022-04-15T04:23:55Z</time></trkpt><trkpt lat="33.7209051" lon="132.8948006"><ele>1177.1359268257415</ele><time>2022-04-15T04:24:06Z</time></trkpt><trkpt lat="33.7208371" lon="132.8945978"><ele>1179.4744609248748</ele><time>2022-04-15T04:24:23Z</time></trkpt><trkpt lat="33.7207391" lon="132.8944141"><ele>1182.3845318871295</ele><time>2022-04-15T04:24:53Z</time></trkpt><trkpt lat="33.7205954" lon="132.8942781"><ele>1186.8001206446663</ele><time>2022-04-15T04:25:23Z</time></trkpt><trkpt lat="33.7205783" lon="132.8940617"><ele>1194.0207155142289</ele><time>2022-04-15T04:26:30Z</time></trkpt><trkpt lat="33.7204575" lon="132.8938989"><ele>1198.518939722957</ele><time>2022-04-15T04:26:52Z</time></trkpt><trkpt lat="33.7204231" lon="132.8936813"><ele>1204.2239589933858</ele><time>2022-04-15T04:27:01Z</time></trkpt><trkpt lat="33.7204079" lon="132.8934562"><ele>1203.3556756405517</ele><time>2022-04-15T04:27:14Z</time></trkpt><trkpt lat="33.720282" lon="132.8932882"><ele>1206.8734200290055</ele><time>2022-04-15T04:27:27Z</time></trkpt><trkpt lat="33.7202519" lon="132.8930721"><ele>1207.6420249751604</ele><time>2022-04-15T04:27:48Z</time></trkpt><trkpt lat="33.7202112" lon="132.8928543"><ele>1209.8230130525756</ele><time>2022-04-15T04:28:08Z</time></trkpt><trkpt lat="33.7201932" lon="132.8926289"><ele>1208.8422602843623</ele><time>2022-04-15T04:28:25Z</time></trkpt><trkpt lat="33.7201154" lon="132.892425"><ele>1208.7904406073765</ele><time>2022-04-15T04:28:41Z</time></trkpt><trkpt lat="33.7199713" lon="132.8922873"><ele>1209.4869222277673</ele><time>2022-04-15T04:29:04Z</time></trkpt><trkpt lat="33.7197941" lon="132.8923553"><ele>1211.8155883633979</ele><time>2022-04-15T04:29:21Z</time></trkpt><trkpt lat="33.7197228" lon="132.8925575"><ele>1214.1307390797274</ele><time>2022-04-15T04:29:40Z</time></trkpt><trkpt lat="33.7197832" lon="132.8927655"><ele>1216.2707308891002</ele><time>2022-04-15T04:29:57Z</time></trkpt><trkpt lat="33.7197564" lon="132.8929912"><ele>1219.1340575778183</ele><time>2022-04-15T04:30:15Z</time></trkpt><trkpt lat="33.7196978" lon="132.893203"><ele>1221.8487500987753</ele><time>2022-04-15T04:30:34Z</time></trkpt><trkpt lat="33.7196557" lon="132.8934155"><ele>1225.512741466389</ele><time>2022-04-15T04:31:08Z</time></trkpt><trkpt lat="33.7194959" lon="132.8935716"><ele>1228.3365487631074</ele><time>2022-04-15T04:31:23Z</time></trkpt><trkpt lat="33.7193075" lon="132.8936926"><ele>1231.197863128841</ele><time>2022-04-15T04:31:30Z</time></trkpt><trkpt lat="33.7191199" lon="132.8936399"><ele>1234.2547261620073</ele><time>2022-04-15T04:31:46Z</time></trkpt><trkpt lat="33.71894" lon="132.8936029"><ele>1238.1764646100864</ele><time>2022-04-15T04:32:40Z</time></trkpt><trkpt lat="33.7187582" lon="132.8936401"><ele>1242.7305237158616</ele><time>2022-04-15T04:32:50Z</time></trkpt><trkpt lat="33.7186707" lon="132.8938409"><ele>1246.0629378870024</ele><time>2022-04-15T04:32:58Z</time></trkpt><trkpt lat="33.7185506" lon="132.894011"><ele>1247.0840268576262</ele><time>2022-04-15T04:33:09Z</time></trkpt><trkpt lat="33.7183691" lon="132.8939752"><ele>1249.2786978015881</ele><time>2022-04-15T04:33:28Z</time></trkpt><trkpt lat="33.7181905" lon="132.8940118"><ele>1251.407379502057</ele><time>2022-04-15T04:33:46Z</time></trkpt><trkpt lat="33.7180765" lon="132.894183"><ele>1254.860621341425</ele><time>2022-04-15T04:33:58Z</time></trkpt><trkpt lat="33.717894" lon="132.8942053"><ele>1257.2855680910336</ele><time>2022-04-15T04:34:23Z</time></trkpt><trkpt lat="33.7177154" lon="132.8942467"><ele>1261.5874650742787</ele><time>2022-04-15T04:34:42Z</time></trkpt><trkpt lat="33.7175332" lon="132.8943163"><ele>1265.9737340617176</ele><time>2022-04-15T04:35:37Z</time></trkpt><trkpt lat="33.7173581" lon="132.8943847"><ele>1269.0633873024183</ele><time>2022-04-15T04:35:45Z</time></trkpt><trkpt lat="33.7171743" lon="132.8944126"><ele>1269.6534896572039</ele><time>2022-04-15T04:35:59Z</time></trkpt><trkpt lat="33.716998" lon="132.8944601"><ele>1268.9057275774494</ele><time>2022-04-15T04:36:29Z</time></trkpt><trkpt lat="33.7168164" lon="132.8944786"><ele>1269.6940724945553</ele><time>2022-04-15T04:37:10Z</time></trkpt><trkpt lat="33.7166477" lon="132.8945857"><ele>1270.569050877281</ele><time>2022-04-15T04:37:26Z</time></trkpt><trkpt lat="33.7164915" lon="132.8947116"><ele>1271.2968705668193</ele><time>2022-04-15T04:37:48Z</time></trkpt><trkpt lat="33.716316" lon="132.8947694"><ele>1271.0862301789757</ele><time>2022-04-15T04:38:02Z</time></trkpt><trkpt lat="33.7161791" lon="132.8949112"><ele>1271.4337331099712</ele><time>2022-04-15T04:38:17Z</time></trkpt><trkpt lat="33.7160051" lon="132.8949851"><ele>1272.8835569714518</ele><time>2022-04-15T04:38:33Z</time></trkpt><trkpt lat="33.7158198" lon="132.8950256"><ele>1272.8118649811868</ele><time>2022-04-15T04:38:45Z</time></trkpt><trkpt lat="33.7156729" lon="132.8951611"><ele>1273.7153621410687</ele><time>2022-04-15T04:38:58Z</time></trkpt><trkpt lat="33.7155056" lon="132.8952629"><ele>1274.5342769824053</ele><time>2022-04-15T04:39:19Z</time></trkpt><trkpt lat="33.7153292" lon="132.8952115"><ele>1277.4221450760094</ele><time>2022-04-15T04:39:51Z</time></trkpt><trkpt lat="33.7155216" lon="132.8951743"><ele>1278.016385848489</ele><time>2022-04-15T04:40:15Z</time></trkpt><trkpt lat="33.7157017" lon="132.8951897"><ele>1277.043085490437</ele><time>2022-04-15T04:40:23Z</time></trkpt><trkpt lat="33.7158705" lon="132.8950757"><ele>1276.6580122928865</ele><time>2022-04-15T04:40:34Z</time></trkpt><trkpt lat="33.7160262" lon="132.8949483"><ele>1275.258154803246</ele><time>2022-04-15T04:40:46Z</time></trkpt><trkpt lat="33.7161794" lon="132.8948266"><ele>1274.5169184918716</ele><time>2022-04-15T04:40:56Z</time></trkpt><trkpt lat="33.7163277" lon="132.8946971"><ele>1272.1131815140168</ele><time>2022-04-15T04:41:06Z</time></trkpt><trkpt lat="33.7164916" lon="132.8946056"><ele>1273.4021324588628</ele><time>2022-04-15T04:41:22Z</time></trkpt><trkpt lat="33.7166281" lon="132.8944589"><ele>1273.1482764711227</ele><time>2022-04-15T04:41:34Z</time></trkpt><trkpt lat="33.7168073" lon="132.8944024"><ele>1272.5655317064447</ele><time>2022-04-15T04:41:48Z</time></trkpt><trkpt lat="33.7169842" lon="132.8944729"><ele>1270.3065668456347</ele><time>2022-04-15T04:41:58Z</time></trkpt><trkpt lat="33.7171729" lon="132.894441"><ele>1269.6027715420544</ele><time>2022-04-15T04:42:11Z</time></trkpt><trkpt lat="33.7173588" lon="132.8944094"><ele>1269.8891653160128</ele><time>2022-04-15T04:42:26Z</time></trkpt><trkpt lat="33.7175236" lon="132.8943217"><ele>1270.199937955932</ele><time>2022-04-15T04:42:39Z</time></trkpt><trkpt lat="33.7177061" lon="132.8942675"><ele>1269.1225943248628</ele><time>2022-04-15T04:42:55Z</time></trkpt><trkpt lat="33.7178838" lon="132.8941871"><ele>1266.1606376374573</ele><time>2022-04-15T04:43:07Z</time></trkpt><trkpt lat="33.718058" lon="132.8941043"><ele>1262.0988201685198</ele><time>2022-04-15T04:43:17Z</time></trkpt><trkpt lat="33.7182263" lon="132.8940093"><ele>1258.4579008137196</ele><time>2022-04-15T04:43:28Z</time></trkpt><trkpt lat="33.7184072" lon="132.8939634"><ele>1255.9646415464879</ele><time>2022-04-15T04:43:39Z</time></trkpt><trkpt lat="33.7185739" lon="132.8938725"><ele>1253.1590504144224</ele><time>2022-04-15T04:43:53Z</time></trkpt><trkpt lat="33.7187297" lon="132.893755"><ele>1250.449716782449</ele><time>2022-04-15T04:44:07Z</time></trkpt><trkpt lat="33.7189166" lon="132.8936905"><ele>1246.8782382278466</ele><time>2022-04-15T04:44:18Z</time></trkpt><trkpt lat="33.719097" lon="132.8936677"><ele>1243.5888880116297</ele><time>2022-04-15T04:44:32Z</time></trkpt><trkpt lat="33.7192767" lon="132.893698"><ele>1240.419758493793</ele><time>2022-04-15T04:44:47Z</time></trkpt><trkpt lat="33.7194206" lon="132.8935551"><ele>1236.8455307273355</ele><time>2022-04-15T04:45:00Z</time></trkpt><trkpt lat="33.7196067" lon="132.8935461"><ele>1233.9907205416928</ele><time>2022-04-15T04:45:14Z</time></trkpt><trkpt lat="33.7196785" lon="132.8933349"><ele>1231.2263337011964</ele><time>2022-04-15T04:45:30Z</time></trkpt><trkpt lat="33.7196781" lon="132.8931174"><ele>1227.706687187428</ele><time>2022-04-15T04:45:49Z</time></trkpt><trkpt lat="33.7196887" lon="132.8928958"><ele>1225.2608420912813</ele><time>2022-04-15T04:46:01Z</time></trkpt><trkpt lat="33.7197167" lon="132.8926818"><ele>1221.958407369242</ele><time>2022-04-15T04:46:15Z</time></trkpt><trkpt lat="33.7198307" lon="132.8925141"><ele>1220.0676048475764</ele><time>2022-04-15T04:46:30Z</time></trkpt><trkpt lat="33.7198218" lon="132.8922922"><ele>1216.5894040091305</ele><time>2022-04-15T04:46:45Z</time></trkpt><trkpt lat="33.7198249" lon="132.8920697"><ele>1214.9695467208228</ele><time>2022-04-15T04:47:15Z</time></trkpt><trkpt lat="33.7198683" lon="132.8918563"><ele>1215.7596482445526</ele><time>2022-04-15T04:47:36Z</time></trkpt><trkpt lat="33.7200271" lon="132.891752"><ele>1217.4246100288362</ele><time>2022-04-15T04:47:45Z</time></trkpt><trkpt lat="33.7200723" lon="132.8915343"><ele>1216.2188697843796</ele><time>2022-04-15T04:47:57Z</time></trkpt><trkpt lat="33.7201331" lon="132.8913249"><ele>1213.2124540166021</ele><time>2022-04-15T04:48:10Z</time></trkpt><trkpt lat="33.7201719" lon="132.8911119"><ele>1208.7275192234613</ele><time>2022-04-15T04:48:22Z</time></trkpt><trkpt lat="33.7202699" lon="132.8909268"><ele>1207.0654719602314</ele><time>2022-04-15T04:48:32Z</time></trkpt><trkpt lat="33.7202703" lon="132.8907089"><ele>1205.0362270767857</ele><time>2022-04-15T04:48:42Z</time></trkpt><trkpt lat="33.7202148" lon="132.8904895"><ele>1203.9842289069768</ele><time>2022-04-15T04:48:54Z</time></trkpt><trkpt lat="33.7200635" lon="132.8903629"><ele>1199.8469256055275</ele><time>2022-04-15T04:49:23Z</time></trkpt><trkpt lat="33.7200184" lon="132.8901396"><ele>1195.2538041904306</ele><time>2022-04-15T04:49:34Z</time></trkpt><trkpt lat="33.7200888" lon="132.8899348"><ele>1190.6546401564947</ele><time>2022-04-15T04:49:43Z</time></trkpt><trkpt lat="33.7201553" lon="132.8897309"><ele>1188.6962245792272</ele><time>2022-04-15T04:49:53Z</time></trkpt><trkpt lat="33.7201768" lon="132.8895133"><ele>1187.227357780962</ele><time>2022-04-15T04:50:05Z</time></trkpt><trkpt lat="33.7201365" lon="132.8892988"><ele>1185.5759541374548</ele><time>2022-04-15T04:50:19Z</time></trkpt><trkpt lat="33.7201682" lon="132.889084"><ele>1182.6531473773432</ele><time>2022-04-15T04:50:34Z</time></trkpt><trkpt lat="33.720232" lon="132.8888809"><ele>1179.1089761040187</ele><time>2022-04-15T04:50:47Z</time></trkpt><trkpt lat="33.7201866" lon="132.8886638"><ele>1174.9641591417446</ele><time>2022-04-15T04:50:59Z</time></trkpt><trkpt lat="33.7200985" lon="132.8884745"><ele>1171.1166471711767</ele><time>2022-04-15T04:51:14Z</time></trkpt><trkpt lat="33.7201169" lon="132.8882555"><ele>1165.3909595035957</ele><time>2022-04-15T04:51:31Z</time></trkpt><trkpt lat="33.7200475" lon="132.888053"><ele>1159.8044984751216</ele><time>2022-04-15T04:51:45Z</time></trkpt><trkpt lat="33.7201886" lon="132.8879125"><ele>1158.0064000761288</ele><time>2022-04-15T04:52:05Z</time></trkpt><trkpt lat="33.7201244" lon="132.8877036"><ele>1160.523893711031</ele><time>2022-04-15T04:52:17Z</time></trkpt><trkpt lat="33.7200077" lon="132.8875391"><ele>1163.512083565863</ele><time>2022-04-15T04:52:31Z</time></trkpt><trkpt lat="33.7200796" lon="132.8873335"><ele>1162.8033415237758</ele><time>2022-04-15T04:52:43Z</time></trkpt><trkpt lat="33.7201771" lon="132.8871518"><ele>1158.5338112060465</ele><time>2022-04-15T04:53:04Z</time></trkpt><trkpt lat="33.7202148" lon="132.8869306"><ele>1153.0052127764075</ele><time>2022-04-15T04:54:01Z</time></trkpt><trkpt lat="33.7201343" lon="132.8867371"><ele>1149.9718889437645</ele><time>2022-04-15T04:54:15Z</time></trkpt><trkpt lat="33.720112" lon="132.8865186"><ele>1149.7199409326138</ele><time>2022-04-15T04:54:51Z</time></trkpt><trkpt lat="33.7200713" lon="132.8863027"><ele>1151.0115348839465</ele><time>2022-04-15T04:54:59Z</time></trkpt><trkpt lat="33.7201157" lon="132.8860824"><ele>1150.084072586769</ele><time>2022-04-15T04:55:08Z</time></trkpt><trkpt lat="33.7201896" lon="132.8858805"><ele>1148.0238277692442</ele><time>2022-04-15T04:55:17Z</time></trkpt><trkpt lat="33.7202355" lon="132.8856653"><ele>1147.0834320748702</ele><time>2022-04-15T04:55:28Z</time></trkpt><trkpt lat="33.7202762" lon="132.8854514"><ele>1147.7301928422307</ele><time>2022-04-15T04:55:42Z</time></trkpt><trkpt lat="33.7203041" lon="132.8852281"><ele>1148.6791019630139</ele><time>2022-04-15T04:55:59Z</time></trkpt><trkpt lat="33.7203453" lon="132.8850164"><ele>1149.36337329958</ele><time>2022-04-15T04:56:24Z</time></trkpt><trkpt lat="33.7204592" lon="132.8848385"><ele>1149.4934142790646</ele><time>2022-04-15T04:56:36Z</time></trkpt><trkpt lat="33.7205957" lon="132.8846957"><ele>1148.2619702137763</ele><time>2022-04-15T04:56:45Z</time></trkpt><trkpt lat="33.7206807" lon="132.8844989"><ele>1147.9889759038108</ele><time>2022-04-15T04:56:56Z</time></trkpt><trkpt lat="33.7207515" lon="132.8842819"><ele>1146.976831811384</ele><time>2022-04-15T04:57:08Z</time></trkpt><trkpt lat="33.7207969" lon="132.8840684"><ele>1148.0205930274772</ele><time>2022-04-15T04:57:16Z</time></trkpt><trkpt lat="33.7208618" lon="132.8838592"><ele>1146.9337558389132</ele><time>2022-04-15T04:57:29Z</time></trkpt><trkpt lat="33.7209295" lon="132.8836591"><ele>1144.6886186543936</ele><time>2022-04-15T04:57:42Z</time></trkpt><trkpt lat="33.7210685" lon="132.8834969"><ele>1145.5712191426253</ele><time>2022-04-15T04:58:24Z</time></trkpt><trkpt lat="33.7211269" lon="132.8832927"><ele>1144.1732101816067</ele><time>2022-04-15T04:58:42Z</time></trkpt><trkpt lat="33.7212891" lon="132.8831571"><ele>1145.2372206876405</ele><time>2022-04-15T04:59:00Z</time></trkpt><trkpt lat="33.7213708" lon="132.8829617"><ele>1143.825547296667</ele><time>2022-04-15T04:59:40Z</time></trkpt><trkpt lat="33.7213983" lon="132.8827453"><ele>1147.4958218193212</ele><time>2022-04-15T05:00:00Z</time></trkpt><trkpt lat="33.7215073" lon="132.8825668"><ele>1150.6080516430827</ele><time>2022-04-15T05:00:08Z</time></trkpt><trkpt lat="33.7215573" lon="132.8823559"><ele>1150.7472622039115</ele><time>2022-04-15T05:00:19Z</time></trkpt><trkpt lat="33.7216008" lon="132.8821391"><ele>1150.1237800550252</ele><time>2022-04-15T05:00:32Z</time></trkpt><trkpt lat="33.7217057" lon="132.881954"><ele>1149.5036734320613</ele><time>2022-04-15T05:00:45Z</time></trkpt><trkpt lat="33.7217954" lon="132.8817405"><ele>1151.8471997970357</ele><time>2022-04-15T05:01:00Z</time></trkpt><trkpt lat="33.7218511" lon="132.8815221"><ele>1152.396685247714</ele><time>2022-04-15T05:01:15Z</time></trkpt><trkpt lat="33.7217579" lon="132.8813277"><ele>1150.5634292022849</ele><time>2022-04-15T05:01:25Z</time></trkpt><trkpt lat="33.7217615" lon="132.8810997"><ele>1147.85849118018</ele><time>2022-04-15T05:01:38Z</time></trkpt><trkpt lat="33.7217144" lon="132.8808884"><ele>1141.8774479578803</ele><time>2022-04-15T05:02:03Z</time></trkpt><trkpt lat="33.7218068" lon="132.8806847"><ele>1135.343856307949</ele><time>2022-04-15T05:02:20Z</time></trkpt><trkpt lat="33.7217722" lon="132.8804713"><ele>1118.2388989991548</ele><time>2022-04-15T05:04:52Z</time></trkpt><trkpt lat="33.7218826" lon="132.8802992"><ele>1097.6198291879937</ele><time>2022-04-15T05:05:57Z</time></trkpt><trkpt lat="33.7219292" lon="132.8800862"><ele>1077.5969350066691</ele><time>2022-04-15T05:06:11Z</time></trkpt><trkpt lat="33.7220523" lon="132.8799246"><ele>1065.654135970602</ele><time>2022-04-15T05:06:30Z</time></trkpt><trkpt lat="33.7221647" lon="132.8797554"><ele>1059.9645429433124</ele><time>2022-04-15T05:06:46Z</time></trkpt><trkpt lat="33.7222757" lon="132.8795667"><ele>1055.2157189916848</ele><time>2022-04-15T05:06:55Z</time></trkpt><trkpt lat="33.722383" lon="132.8793873"><ele>1051.0556613810752</ele><time>2022-04-15T05:07:11Z</time></trkpt><trkpt lat="33.7223345" lon="132.8791778"><ele>1045.1216779636052</ele><time>2022-04-15T05:07:33Z</time></trkpt><trkpt lat="33.7223553" lon="132.878955"><ele>1040.140995783098</ele><time>2022-04-15T05:07:44Z</time></trkpt><trkpt lat="33.7223395" lon="132.8787383"><ele>1037.7360991699559</ele><time>2022-04-15T05:07:59Z</time></trkpt><trkpt lat="33.7224163" lon="132.8785368"><ele>1039.241505586143</ele><time>2022-04-15T05:08:09Z</time></trkpt><trkpt lat="33.7224767" lon="132.8783295"><ele>1045.2866064960517</ele><time>2022-04-15T05:08:54Z</time></trkpt><trkpt lat="33.7225259" lon="132.8781199"><ele>1051.7477984989755</ele><time>2022-04-15T05:09:12Z</time></trkpt><trkpt lat="33.7226911" lon="132.8780282"><ele>1055.503164010028</ele><time>2022-04-15T05:09:35Z</time></trkpt><trkpt lat="33.7228768" lon="132.8780359"><ele>1052.8920081246406</ele><time>2022-04-15T05:09:48Z</time></trkpt><trkpt lat="33.7230821" lon="132.8780612"><ele>1048.0541586217826</ele><time>2022-04-15T05:09:59Z</time></trkpt><trkpt lat="33.7232593" lon="132.8780131"><ele>1043.411249662778</ele><time>2022-04-15T05:10:11Z</time></trkpt><trkpt lat="33.7233932" lon="132.8778656"><ele>1039.3291560892078</ele><time>2022-04-15T05:10:25Z</time></trkpt><trkpt lat="33.7234458" lon="132.8776567"><ele>1035.6144056847015</ele><time>2022-04-15T05:10:39Z</time></trkpt><trkpt lat="33.7234948" lon="132.8774463"><ele>1033.386468826491</ele><time>2022-04-15T05:10:52Z</time></trkpt><trkpt lat="33.7235913" lon="132.8772575"><ele>1031.6738855946526</ele><time>2022-04-15T05:11:05Z</time></trkpt><trkpt lat="33.72366" lon="132.8770575"><ele>1031.8982964814684</ele><time>2022-04-15T05:11:24Z</time></trkpt><trkpt lat="33.7237939" lon="132.8769118"><ele>1033.2357268824426</ele><time>2022-04-15T05:11:38Z</time></trkpt><trkpt lat="33.7239465" lon="132.8767802"><ele>1035.952449265195</ele><time>2022-04-15T05:12:17Z</time></trkpt><trkpt lat="33.7240141" lon="132.8765731"><ele>1038.6194581265297</ele><time>2022-04-15T05:12:32Z</time></trkpt><trkpt lat="33.7241719" lon="132.8764686"><ele>1041.8023544788293</ele><time>2022-04-15T05:12:44Z</time></trkpt><trkpt lat="33.7243291" lon="132.8763623"><ele>1044.0839239210984</ele><time>2022-04-15T05:12:58Z</time></trkpt><trkpt lat="33.7244495" lon="132.8761664"><ele>1048.175081009919</ele><time>2022-04-15T05:13:52Z</time></trkpt><trkpt lat="33.7245558" lon="132.8759714"><ele>1050.641965897954</ele><time>2022-04-15T05:14:09Z</time></trkpt><trkpt lat="33.7245968" lon="132.8757536"><ele>1051.327688128394</ele><time>2022-04-15T05:14:26Z</time></trkpt><trkpt lat="33.7247188" lon="132.8755931"><ele>1045.8784229260102</ele><time>2022-04-15T05:14:50Z</time></trkpt><trkpt lat="33.7248804" lon="132.8754819"><ele>1036.7552229519108</ele><time>2022-04-15T05:15:08Z</time></trkpt><trkpt lat="33.7250551" lon="132.8754102"><ele>1032.4994600714706</ele><time>2022-04-15T05:15:25Z</time></trkpt><trkpt lat="33.7251962" lon="132.8752756"><ele>1030.4205591361408</ele><time>2022-04-15T05:15:49Z</time></trkpt><trkpt lat="33.7252771" lon="132.8750765"><ele>1030.5206413886908</ele><time>2022-04-15T05:16:03Z</time></trkpt><trkpt lat="33.7253969" lon="132.8749079"><ele>1028.324137155361</ele><time>2022-04-15T05:16:15Z</time></trkpt><trkpt lat="33.7255571" lon="132.8747878"><ele>1026.3786642731166</ele><time>2022-04-15T05:16:29Z</time></trkpt><trkpt lat="33.7257491" lon="132.8748331"><ele>1024.034929920358</ele><time>2022-04-15T05:16:48Z</time></trkpt><trkpt lat="33.7259345" lon="132.8748153"><ele>1021.1803727458196</ele><time>2022-04-15T05:17:02Z</time></trkpt><trkpt lat="33.7261022" lon="132.874736"><ele>1020.1991587676517</ele><time>2022-04-15T05:17:20Z</time></trkpt><trkpt lat="33.7262838" lon="132.8746942"><ele>1022.2806037415885</ele><time>2022-04-15T05:17:36Z</time></trkpt><trkpt lat="33.7264625" lon="132.8747261"><ele>1025.3086973196762</ele><time>2022-04-15T05:18:41Z</time></trkpt><trkpt lat="33.7266098" lon="132.8748615"><ele>1029.1972929905705</ele><time>2022-04-15T05:19:08Z</time></trkpt><trkpt lat="33.7267651" lon="132.8749721"><ele>1030.0739862385005</ele><time>2022-04-15T05:19:19Z</time></trkpt><trkpt lat="33.7269182" lon="132.875088"><ele>1029.923933900798</ele><time>2022-04-15T05:19:31Z</time></trkpt><trkpt lat="33.7270754" lon="132.8751974"><ele>1027.8475505488102</ele><time>2022-04-15T05:19:46Z</time></trkpt><trkpt lat="33.7272568" lon="132.8751674"><ele>1027.941112138926</ele><time>2022-04-15T05:19:59Z</time></trkpt><trkpt lat="33.7274412" lon="132.8751717"><ele>1029.7346465936373</ele><time>2022-04-15T05:20:14Z</time></trkpt><trkpt lat="33.7276182" lon="132.8751277"><ele>1031.6986270827572</ele><time>2022-04-15T05:20:31Z</time></trkpt><trkpt lat="33.7277991" lon="132.875114"><ele>1030.234536383119</ele><time>2022-04-15T05:20:49Z</time></trkpt><trkpt lat="33.7278924" lon="132.8749245"><ele>1027.946934887824</ele><time>2022-04-15T05:21:32Z</time></trkpt><trkpt lat="33.7278165" lon="132.8747182"><ele>1024.927485815425</ele><time>2022-04-15T05:21:48Z</time></trkpt><trkpt lat="33.7277904" lon="132.8745014"><ele>1025.1088533294271</ele><time>2022-04-15T05:22:01Z</time></trkpt><trkpt lat="33.7276646" lon="132.8743438"><ele>1023.8158283514522</ele><time>2022-04-15T05:22:18Z</time></trkpt><trkpt lat="33.7275099" lon="132.874231"><ele>1024.9274055820713</ele><time>2022-04-15T05:22:40Z</time></trkpt><trkpt lat="33.7273625" lon="132.8740954"><ele>1026.650763863566</ele><time>2022-04-15T05:22:56Z</time></trkpt><trkpt lat="33.7272235" lon="132.8739323"><ele>1029.1686749397143</ele><time>2022-04-15T05:23:09Z</time></trkpt><trkpt lat="33.7273935" lon="132.8740202"><ele>1028.7843511739318</ele><time>2022-04-15T05:25:44Z</time></trkpt><trkpt lat="33.7275337" lon="132.8741602"><ele>1026.0465561370995</ele><time>2022-04-15T05:25:55Z</time></trkpt><trkpt lat="33.7276909" lon="132.8742674"><ele>1023.4653016227403</ele><time>2022-04-15T05:26:05Z</time></trkpt><trkpt lat="33.7278453" lon="132.8743953"><ele>1022.5138600098198</ele><time>2022-04-15T05:26:16Z</time></trkpt><trkpt lat="33.7279221" lon="132.8745985"><ele>1023.3166334955749</ele><time>2022-04-15T05:26:29Z</time></trkpt><trkpt lat="33.7279897" lon="132.8748002"><ele>1024.4337963199955</ele><time>2022-04-15T05:27:22Z</time></trkpt><trkpt lat="33.7279393" lon="132.8750273"><ele>1027.9100340837037</ele><time>2022-04-15T05:27:57Z</time></trkpt><trkpt lat="33.7278067" lon="132.8751888"><ele>1030.9648027883925</ele><time>2022-04-15T05:28:04Z</time></trkpt><trkpt lat="33.7276328" lon="132.8752588"><ele>1033.5623505918782</ele><time>2022-04-15T05:28:11Z</time></trkpt><trkpt lat="33.7274497" lon="132.875221"><ele>1032.4953238744545</ele><time>2022-04-15T05:28:26Z</time></trkpt><trkpt lat="33.7272727" lon="132.875296"><ele>1030.642266248422</ele><time>2022-04-15T05:28:44Z</time></trkpt><trkpt lat="33.727084" lon="132.8752404"><ele>1028.4269596312286</ele><time>2022-04-15T05:29:00Z</time></trkpt><trkpt lat="33.7269103" lon="132.8751676"><ele>1027.741263481115</ele><time>2022-04-15T05:29:14Z</time></trkpt><trkpt lat="33.7267277" lon="132.875155"><ele>1029.385684132865</ele><time>2022-04-15T05:29:31Z</time></trkpt><trkpt lat="33.7265934" lon="132.8750068"><ele>1030.759173812884</ele><time>2022-04-15T05:29:48Z</time></trkpt><trkpt lat="33.7265258" lon="132.8748003"><ele>1030.0076646808202</ele><time>2022-04-15T05:30:01Z</time></trkpt><trkpt lat="33.726356" lon="132.8747152"><ele>1027.008622476902</ele><time>2022-04-15T05:30:14Z</time></trkpt><trkpt lat="33.7261722" lon="132.8747312"><ele>1024.774576551854</ele><time>2022-04-15T05:30:27Z</time></trkpt><trkpt lat="33.7260242" lon="132.8748652"><ele>1022.7160780543327</ele><time>2022-04-15T05:30:39Z</time></trkpt><trkpt lat="33.7258414" lon="132.8748722"><ele>1020.4298282698577</ele><time>2022-04-15T05:30:53Z</time></trkpt><trkpt lat="33.7256606" lon="132.8748879"><ele>1019.0571777529385</ele><time>2022-04-15T05:31:12Z</time></trkpt><trkpt lat="33.7254783" lon="132.8749072"><ele>1019.9752156428643</ele><time>2022-04-15T05:31:36Z</time></trkpt><trkpt lat="33.7254105" lon="132.8751136"><ele>1022.7764676600183</ele><time>2022-04-15T05:31:55Z</time></trkpt><trkpt lat="33.7252846" lon="132.87527"><ele>1025.1544222992832</ele><time>2022-04-15T05:32:15Z</time></trkpt><trkpt lat="33.7251922" lon="132.8754678"><ele>1027.9558654257462</ele><time>2022-04-15T05:32:45Z</time></trkpt><trkpt lat="33.725049" lon="132.8756085"><ele>1029.5241711094895</ele><time>2022-04-15T05:32:57Z</time></trkpt><trkpt lat="33.7248837" lon="132.8757013"><ele>1031.190056974114</ele><time>2022-04-15T05:33:13Z</time></trkpt><trkpt lat="33.724705" lon="132.8757423"><ele>1032.6164094334906</ele><time>2022-04-15T05:33:31Z</time></trkpt><trkpt lat="33.7246295" lon="132.8759425"><ele>1039.8104771345406</ele><time>2022-04-15T05:34:35Z</time></trkpt><trkpt lat="33.7245898" lon="132.8761627"><ele>1046.0030776344786</ele><time>2022-04-15T05:34:49Z</time></trkpt><trkpt lat="33.7244498" lon="132.8763298"><ele>1048.482462378279</ele><time>2022-04-15T05:34:58Z</time></trkpt><trkpt lat="33.724295" lon="132.8764554"><ele>1045.6275935898968</ele><time>2022-04-15T05:35:10Z</time></trkpt><trkpt lat="33.7242049" lon="132.8766454"><ele>1041.5038626628896</ele><time>2022-04-15T05:35:19Z</time></trkpt><trkpt lat="33.7240632" lon="132.8767942"><ele>1039.2958316660413</ele><time>2022-04-15T05:35:31Z</time></trkpt><trkpt lat="33.7239271" lon="132.876943"><ele>1036.979668342389</ele><time>2022-04-15T05:35:56Z</time></trkpt><trkpt lat="33.723831" lon="132.8771293"><ele>1034.2994834640797</ele><time>2022-04-15T05:36:05Z</time></trkpt><trkpt lat="33.7237324" lon="132.8773271"><ele>1031.7247344718132</ele><time>2022-04-15T05:36:19Z</time></trkpt><trkpt lat="33.7236721" lon="132.877536"><ele>1029.1037859079072</ele><time>2022-04-15T05:37:02Z</time></trkpt><trkpt lat="33.7235545" lon="132.8777077"><ele>1027.9822368359094</ele><time>2022-04-15T05:37:14Z</time></trkpt><trkpt lat="33.7233947" lon="132.8778359"><ele>1025.4064528435576</ele><time>2022-04-15T05:37:25Z</time></trkpt><trkpt lat="33.7232827" lon="132.8780086"><ele>1023.0816388591275</ele><time>2022-04-15T05:37:36Z</time></trkpt><trkpt lat="33.7232166" lon="132.8782121"><ele>1025.485056680045</ele><time>2022-04-15T05:37:52Z</time></trkpt><trkpt lat="33.7230345" lon="132.8781983"><ele>1031.9370229064791</ele><time>2022-04-15T05:38:20Z</time></trkpt><trkpt lat="33.7228873" lon="132.8780683"><ele>1041.113843960656</ele><time>2022-04-15T05:38:53Z</time></trkpt><trkpt lat="33.7227067" lon="132.878033"><ele>1047.8351536825776</ele><time>2022-04-15T05:39:30Z</time></trkpt><trkpt lat="33.7225802" lon="132.8782027"><ele>1051.008910289453</ele><time>2022-04-15T05:39:52Z</time></trkpt><trkpt lat="33.7224983" lon="132.8783961"><ele>1048.465097623306</ele><time>2022-04-15T05:40:10Z</time></trkpt><trkpt lat="33.7223949" lon="132.8785751"><ele>1041.869297167126</ele><time>2022-04-15T05:40:32Z</time></trkpt><trkpt lat="33.722505" lon="132.8787624"><ele>1036.0745824928129</ele><time>2022-04-15T05:40:44Z</time></trkpt><trkpt lat="33.7224218" lon="132.8789649"><ele>1033.7305878597242</ele><time>2022-04-15T05:41:04Z</time></trkpt><trkpt lat="33.7223674" lon="132.8791845"><ele>1036.277624824136</ele><time>2022-04-15T05:41:31Z</time></trkpt><trkpt lat="33.7223941" lon="132.8794053"><ele>1041.3302527046433</ele><time>2022-04-15T05:42:21Z</time></trkpt><trkpt lat="33.7223842" lon="132.8796376"><ele>1047.4561114858427</ele><time>2022-04-15T05:42:51Z</time></trkpt><trkpt lat="33.72227" lon="132.879844"><ele>1051.6229851365224</ele><time>2022-04-15T05:43:01Z</time></trkpt><trkpt lat="33.7221418" lon="132.8800004"><ele>1052.20259592256</ele><time>2022-04-15T05:43:15Z</time></trkpt><trkpt lat="33.7220046" lon="132.8801457"><ele>1054.6250992231624</ele><time>2022-04-15T05:43:40Z</time></trkpt><trkpt lat="33.7218503" lon="132.8802617"><ele>1064.1041212361372</ele><time>2022-04-15T05:45:34Z</time></trkpt><trkpt lat="33.7217958" lon="132.8805679"><ele>1083.4703842664733</ele><time>2022-04-15T05:48:16Z</time></trkpt><trkpt lat="33.7218059" lon="132.8807929"><ele>1105.7828903138557</ele><time>2022-04-15T05:52:33Z</time></trkpt><trkpt lat="33.7218369" lon="132.881008"><ele>1120.9734667943542</ele><time>2022-04-15T05:53:14Z</time></trkpt><trkpt lat="33.7218485" lon="132.8812251"><ele>1129.8474008241906</ele><time>2022-04-15T05:54:18Z</time></trkpt><trkpt lat="33.7218849" lon="132.8814372"><ele>1134.1110130061343</ele><time>2022-04-15T05:54:30Z</time></trkpt><trkpt lat="33.7218513" lon="132.8816618"><ele>1139.1560843954146</ele><time>2022-04-15T05:54:42Z</time></trkpt><trkpt lat="33.7218235" lon="132.8818816"><ele>1140.6491865146638</ele><time>2022-04-15T05:54:55Z</time></trkpt><trkpt lat="33.7217271" lon="132.882066"><ele>1139.9767402874822</ele><time>2022-04-15T05:55:09Z</time></trkpt><trkpt lat="33.7217101" lon="132.8822823"><ele>1138.6165446663038</ele><time>2022-04-15T05:55:25Z</time></trkpt><trkpt lat="33.7216283" lon="132.8824782"><ele>1137.5240179910497</ele><time>2022-04-15T05:55:43Z</time></trkpt><trkpt lat="33.7215678" lon="132.8826825"><ele>1138.3797343329418</ele><time>2022-04-15T05:55:57Z</time></trkpt><trkpt lat="33.7214868" lon="132.8828791"><ele>1138.8399767782778</ele><time>2022-04-15T05:56:09Z</time></trkpt><trkpt lat="33.7213913" lon="132.8830682"><ele>1139.876970665205</ele><time>2022-04-15T05:56:25Z</time></trkpt><trkpt lat="33.7212394" lon="132.8831936"><ele>1139.0902321344877</ele><time>2022-04-15T05:56:51Z</time></trkpt><trkpt lat="33.7211799" lon="132.8833994"><ele>1136.877241596104</ele><time>2022-04-15T05:57:07Z</time></trkpt><trkpt lat="33.7210399" lon="132.8835459"><ele>1134.8579694938683</ele><time>2022-04-15T05:57:18Z</time></trkpt><trkpt lat="33.7209197" lon="132.883711"><ele>1132.9781498470275</ele><time>2022-04-15T05:57:35Z</time></trkpt><trkpt lat="33.7208634" lon="132.8839466"><ele>1132.548482311964</ele><time>2022-04-15T05:57:51Z</time></trkpt><trkpt lat="33.7208252" lon="132.8841578"><ele>1133.609895781006</ele><time>2022-04-15T05:58:09Z</time></trkpt><trkpt lat="33.7208182" lon="132.8843764"><ele>1136.0721536823673</ele><time>2022-04-15T05:58:29Z</time></trkpt><trkpt lat="33.7207787" lon="132.8845975"><ele>1138.1997110750883</ele><time>2022-04-15T05:58:46Z</time></trkpt><trkpt lat="33.720648" lon="132.884759"><ele>1140.3109225010476</ele><time>2022-04-15T05:59:02Z</time></trkpt><trkpt lat="33.7205405" lon="132.8849439"><ele>1140.7926120788134</ele><time>2022-04-15T05:59:19Z</time></trkpt><trkpt lat="33.7204794" lon="132.8851509"><ele>1139.1492594176052</ele><time>2022-04-15T06:00:07Z</time></trkpt><trkpt lat="33.7204252" lon="132.8853577"><ele>1135.297348789483</ele><time>2022-04-15T06:00:29Z</time></trkpt><trkpt lat="33.7204983" lon="132.8855628"><ele>1130.9483309729656</ele><time>2022-04-15T06:00:39Z</time></trkpt><trkpt lat="33.720636" lon="132.8857103"><ele>1127.8112264860913</ele><time>2022-04-15T06:00:48Z</time></trkpt><trkpt lat="33.7206812" lon="132.885928"><ele>1123.6672283517619</ele><time>2022-04-15T06:01:02Z</time></trkpt><trkpt lat="33.7207643" lon="132.8861268"><ele>1119.0712950759962</ele><time>2022-04-15T06:01:18Z</time></trkpt><trkpt lat="33.7207448" lon="132.8863432"><ele>1115.3373088415958</ele><time>2022-04-15T06:01:38Z</time></trkpt><trkpt lat="33.7207535" lon="132.8865663"><ele>1114.1732089665097</ele><time>2022-04-15T06:01:52Z</time></trkpt><trkpt lat="33.7206926" lon="132.8867729"><ele>1114.6411513856117</ele><time>2022-04-15T06:02:34Z</time></trkpt><trkpt lat="33.7207531" lon="132.8864706"><ele>1114.6565217352409</ele><time>2022-04-15T06:04:52Z</time></trkpt><trkpt lat="33.7209192" lon="132.8863601"><ele>1109.5488184943304</ele><time>2022-04-15T06:14:09Z</time></trkpt><trkpt lat="33.7210761" lon="132.8862466"><ele>1101.7720933651378</ele><time>2022-04-15T06:14:23Z</time></trkpt><trkpt lat="33.7211573" lon="132.8860494"><ele>1093.6422960756788</ele><time>2022-04-15T06:14:35Z</time></trkpt><trkpt lat="33.7212021" lon="132.8858362"><ele>1084.7749743435988</ele><time>2022-04-15T06:15:42Z</time></trkpt><trkpt lat="33.7212971" lon="132.8856507"><ele>1077.1893598424592</ele><time>2022-04-15T06:15:58Z</time></trkpt><trkpt lat="33.7214689" lon="132.8855796"><ele>1069.7906727112768</ele><time>2022-04-15T06:16:10Z</time></trkpt><trkpt lat="33.7215981" lon="132.8854286"><ele>1063.1121333949795</ele><time>2022-04-15T06:17:09Z</time></trkpt><trkpt lat="33.7217227" lon="132.8852681"><ele>1053.427872903395</ele><time>2022-04-15T06:17:50Z</time></trkpt><trkpt lat="33.7217852" lon="132.8854746"><ele>1042.7579624839234</ele><time>2022-04-15T06:18:17Z</time></trkpt><trkpt lat="33.7217839" lon="132.8856958"><ele>1033.5068386829819</ele><time>2022-04-15T06:18:28Z</time></trkpt><trkpt lat="33.7218972" lon="132.8858761"><ele>1028.5421236495197</ele><time>2022-04-15T06:18:38Z</time></trkpt><trkpt lat="33.7219829" lon="132.8860777"><ele>1024.2038580863887</ele><time>2022-04-15T06:18:51Z</time></trkpt><trkpt lat="33.7219432" lon="132.8862939"><ele>1022.3513863685292</ele><time>2022-04-15T06:19:07Z</time></trkpt><trkpt lat="33.7219726" lon="132.8865179"><ele>1019.3424194097151</ele><time>2022-04-15T06:19:22Z</time></trkpt><trkpt lat="33.7219996" lon="132.8867376"><ele>1017.461845118015</ele><time>2022-04-15T06:19:38Z</time></trkpt><trkpt lat="33.7220463" lon="132.8865221"><ele>1013.787832088055</ele><time>2022-04-15T06:20:08Z</time></trkpt><trkpt lat="33.7221163" lon="132.886323"><ele>1008.073142220334</ele><time>2022-04-15T06:20:25Z</time></trkpt><trkpt lat="33.7221585" lon="132.8861115"><ele>1002.4245904846703</ele><time>2022-04-15T06:20:40Z</time></trkpt><trkpt lat="33.7222083" lon="132.8859026"><ele>998.8083116328444</ele><time>2022-04-15T06:21:02Z</time></trkpt><trkpt lat="33.7222788" lon="132.8857028"><ele>996.8302595755448</ele><time>2022-04-15T06:21:16Z</time></trkpt><trkpt lat="33.7223195" lon="132.8854916"><ele>995.7948484046614</ele><time>2022-04-15T06:21:30Z</time></trkpt><trkpt lat="33.7224207" lon="132.885672"><ele>992.9971252085185</ele><time>2022-04-15T06:21:43Z</time></trkpt><trkpt lat="33.7225109" lon="132.8858614"><ele>991.0699563707963</ele><time>2022-04-15T06:21:56Z</time></trkpt><trkpt lat="33.7225492" lon="132.8860805"><ele>986.2194564619907</ele><time>2022-04-15T06:22:12Z</time></trkpt><trkpt lat="33.7225767" lon="132.8863001"><ele>983.3101687323741</ele><time>2022-04-15T06:22:29Z</time></trkpt><trkpt lat="33.7227561" lon="132.8862489"><ele>979.2639894992006</ele><time>2022-04-15T06:22:57Z</time></trkpt><trkpt lat="33.7227959" lon="132.8860373"><ele>975.2596755012027</ele><time>2022-04-15T06:23:12Z</time></trkpt><trkpt lat="33.7229694" lon="132.8861254"><ele>971.880068595069</ele><time>2022-04-15T06:23:32Z</time></trkpt><trkpt lat="33.7230188" lon="132.8863355"><ele>969.2482748486364</ele><time>2022-04-15T06:23:44Z</time></trkpt><trkpt lat="33.7229944" lon="132.8865506"><ele>967.1401395252393</ele><time>2022-04-15T06:23:59Z</time></trkpt><trkpt lat="33.7231434" lon="132.8866743"><ele>963.4822058230169</ele><time>2022-04-15T06:24:24Z</time></trkpt><trkpt lat="33.7232892" lon="132.8868303"><ele>960.7083031998724</ele><time>2022-04-15T06:24:39Z</time></trkpt><trkpt lat="33.7234171" lon="132.886989"><ele>958.7267182897184</ele><time>2022-04-15T06:24:53Z</time></trkpt><trkpt lat="33.7235667" lon="132.8871179"><ele>956.281118756097</ele><time>2022-04-15T06:25:08Z</time></trkpt><trkpt lat="33.7237398" lon="132.8870301"><ele>952.8379765534611</ele><time>2022-04-15T06:25:25Z</time></trkpt><trkpt lat="33.7238602" lon="132.8868644"><ele>948.5067363818915</ele><time>2022-04-15T06:25:43Z</time></trkpt><trkpt lat="33.7239362" lon="132.8866649"><ele>945.518754690764</ele><time>2022-04-15T06:25:58Z</time></trkpt><trkpt lat="33.7240121" lon="132.8864591"><ele>942.3586870900713</ele><time>2022-04-15T06:26:15Z</time></trkpt><trkpt lat="33.7241302" lon="132.886291"><ele>938.8334228990694</ele><time>2022-04-15T06:26:33Z</time></trkpt></trkseg></trk></gpx>