<?xml version='1.0' encoding='UTF-8'?><gpx creator="Yama Museum Summit Candidate Generator" xsi:schemaLocation="http://www.topografix.com/GPX/1/1 http://www.topografix.com/GPX/1/1/gpx.xsd" version="1.1" xmlns="http://www.topografix.com/GPX/1/1" xmlns:xsi="http://www.w3.org/2001/XMLSchema-instance" xmlns:yama="https://museum-yama-data.moukaeritai.work/ns/yama-data/0.1"><metadata><bounds maxlat="33.7332212" maxlon="133.0589481" minlat="33.7182406" minlon="133.0444083"/><name>大ノ森</name><extensions><yama:source_gpx_basename>yamap_2026-03-17_06_58.gpx</yama:source_gpx_basename><yama:source_gpx_relative_path>data/01_raw/gpx/2026-05-12/yamap_2026-03-17_06_58.gpx</yama:source_gpx_relative_path><yama:detection_parameters>window=5,radius=10,min_prominence=30,merge=100</yama:detection_parameters></extensions></metadata><wpt lat="33.7182406" lon="133.056812"><ele>1317.4533333333331</ele><time>2026-03-17T00:26:33Z</time><name>summit-candidate:777bcc5c6ed2c27e</name><desc>Summit candidate detected at elevation 1317.4533333333331m with prominence 579.2302222222223m.</desc><sym>Summit Candidate</sym><extensions><yama:source_trackpoint_index>141</yama:source_trackpoint_index><yama:valid_elevation_index>141</yama:valid_elevation_index><yama:smoothed_ele>1314.9913333333334</yama:smoothed_ele><yama:prominence>579.2302222222223</yama:prominence><yama:detection_method>local_maxima_with_prominence</yama:detection_method><yama:detection_parameters>window=5,radius=10,min_prominence=30,merge=100</yama:detection_parameters><yama:candidate_status>unresolved</yama:candidate_status></extensions></wpt>
  <trk><name>大ノ森</name><number>1</number><trkseg><trkpt lat="33.7332212" lon="133.0444083"><ele>726.74</ele><time>2026-03-16T21:57:39Z</time></trkpt><trkpt lat="33.7331366" lon="133.0446199"><ele>728.38</ele><time>2026-03-16T21:59:22Z</time></trkpt><trkpt lat="33.7330725" lon="133.0448533"><ele>730.2199999999999</ele><time>2026-03-16T21:59:47Z</time></trkpt><trkpt lat="33.7329772" lon="133.0450711"><ele>734.9166666666666</ele><time>2026-03-16T22:00:12Z</time></trkpt><trkpt lat="33.7328905" lon="133.0452706"><ele>739.1733333333333</ele><time>2026-03-16T22:00:42Z</time></trkpt><trkpt lat="33.7328641" lon="133.0455029"><ele>743.6899999999999</ele><time>2026-03-16T22:01:21Z</time></trkpt><trkpt lat="33.7328691" lon="133.0457522"><ele>748.5166666666668</ele><time>2026-03-16T22:01:49Z</time></trkpt><trkpt lat="33.7328095" lon="133.0459761"><ele>755.0733333333334</ele><time>2026-03-16T22:02:07Z</time></trkpt><trkpt lat="33.73284" lon="133.0462175"><ele>759.7866666666667</ele><time>2026-03-16T22:02:27Z</time></trkpt><trkpt lat="33.7327199" lon="133.0463938"><ele>763.9233333333335</ele><time>2026-03-16T22:02:48Z</time></trkpt><trkpt lat="33.7326311" lon="133.0466094"><ele>765.7366666666667</ele><time>2026-03-16T22:03:24Z</time></trkpt><trkpt lat="33.7326152" lon="133.0468433"><ele>769.9466666666667</ele><time>2026-03-16T22:03:45Z</time></trkpt><trkpt lat="33.7326959" lon="133.046637"><ele>768.88</ele><time>2026-03-16T22:04:39Z</time></trkpt><trkpt lat="33.7327817" lon="133.0464453"><ele>767.0500000000001</ele><time>2026-03-16T22:04:57Z</time></trkpt><trkpt lat="33.7328864" lon="133.0462191"><ele>762.84</ele><time>2026-03-16T22:05:21Z</time></trkpt><trkpt lat="33.7328729" lon="133.0459795"><ele>761.75</ele><time>2026-03-16T22:05:42Z</time></trkpt><trkpt lat="33.7329368" lon="133.0457686"><ele>758.94</ele><time>2026-03-16T22:06:00Z</time></trkpt><trkpt lat="33.7327049" lon="133.0457884"><ele>757.1700000000001</ele><time>2026-03-16T22:07:12Z</time></trkpt><trkpt lat="33.7326189" lon="133.0459906"><ele>759.6733333333333</ele><time>2026-03-16T22:07:51Z</time></trkpt><trkpt lat="33.7324473" lon="133.0460588"><ele>764.1999999999999</ele><time>2026-03-16T22:08:32Z</time></trkpt><trkpt lat="33.7323" lon="133.0461935"><ele>771.0733333333334</ele><time>2026-03-16T22:08:58Z</time></trkpt><trkpt lat="33.7322126" lon="133.0463843"><ele>777.4766666666668</ele><time>2026-03-16T22:10:55Z</time></trkpt><trkpt lat="33.7321294" lon="133.0465916"><ele>788.18</ele><time>2026-03-16T22:11:49Z</time></trkpt><trkpt lat="33.7320693" lon="133.0467987"><ele>798.2133333333335</ele><time>2026-03-16T22:12:49Z</time></trkpt><trkpt lat="33.7318596" lon="133.0470052"><ele>805.8466666666667</ele><time>2026-03-16T22:13:38Z</time></trkpt><trkpt lat="33.7317128" lon="133.0471488"><ele>812.54</ele><time>2026-03-16T22:15:42Z</time></trkpt><trkpt lat="33.7315989" lon="133.0473329"><ele>819.9899999999999</ele><time>2026-03-16T22:17:26Z</time></trkpt><trkpt lat="33.731519" lon="133.0475412"><ele>829.16</ele><time>2026-03-16T22:18:14Z</time></trkpt><trkpt lat="33.7314506" lon="133.0477514"><ele>837.57</ele><time>2026-03-16T22:19:02Z</time></trkpt><trkpt lat="33.7312986" lon="133.0479006"><ele>844.34</ele><time>2026-03-16T22:19:39Z</time></trkpt><trkpt lat="33.7311367" lon="133.0480195"><ele>848.4733333333334</ele><time>2026-03-16T22:20:03Z</time></trkpt><trkpt lat="33.7309631" lon="133.0481019"><ele>851.5066666666667</ele><time>2026-03-16T22:20:47Z</time></trkpt><trkpt lat="33.7307945" lon="133.0481939"><ele>855.1633333333334</ele><time>2026-03-16T22:22:56Z</time></trkpt><trkpt lat="33.7306153" lon="133.0482277"><ele>860.8833333333333</ele><time>2026-03-16T22:23:48Z</time></trkpt><trkpt lat="33.7304379" lon="133.048316"><ele>866.9433333333333</ele><time>2026-03-16T22:24:12Z</time></trkpt><trkpt lat="33.7302465" lon="133.0483348"><ele>873.2066666666666</ele><time>2026-03-16T22:24:41Z</time></trkpt><trkpt lat="33.73007" lon="133.0484068"><ele>878.94</ele><time>2026-03-16T22:25:24Z</time></trkpt><trkpt lat="33.7298724" lon="133.048437"><ele>884.14</ele><time>2026-03-16T22:25:53Z</time></trkpt><trkpt lat="33.7297211" lon="133.0485795"><ele>890.0033333333334</ele><time>2026-03-16T22:26:48Z</time></trkpt><trkpt lat="33.729543" lon="133.0486613"><ele>895.9333333333334</ele><time>2026-03-16T22:27:38Z</time></trkpt><trkpt lat="33.7296281" lon="133.0488764"><ele>901.39</ele><time>2026-03-16T22:29:05Z</time></trkpt><trkpt lat="33.7297676" lon="133.0490371"><ele>904.1700000000001</ele><time>2026-03-16T22:29:41Z</time></trkpt><trkpt lat="33.7298929" lon="133.0492021"><ele>904.2599999999999</ele><time>2026-03-16T22:30:06Z</time></trkpt><trkpt lat="33.7300237" lon="133.0493787"><ele>904.0833333333334</ele><time>2026-03-16T22:30:29Z</time></trkpt><trkpt lat="33.7299338" lon="133.0496013"><ele>902.8133333333334</ele><time>2026-03-16T22:32:02Z</time></trkpt><trkpt lat="33.7298669" lon="133.0498213"><ele>901.8566666666667</ele><time>2026-03-16T22:32:21Z</time></trkpt><trkpt lat="33.7298049" lon="133.0500703"><ele>899.5466666666666</ele><time>2026-03-16T22:32:38Z</time></trkpt><trkpt lat="33.7297469" lon="133.0502972"><ele>896.41</ele><time>2026-03-16T22:34:14Z</time></trkpt><trkpt lat="33.7297634" lon="133.0505227"><ele>893.8100000000001</ele><time>2026-03-16T22:34:38Z</time></trkpt><trkpt lat="33.7297433" lon="133.0507472"><ele>892.6533333333333</ele><time>2026-03-16T22:34:57Z</time></trkpt><trkpt lat="33.7296971" lon="133.0509769"><ele>894.1866666666666</ele><time>2026-03-16T22:35:17Z</time></trkpt><trkpt lat="33.7296583" lon="133.0512017"><ele>895.9833333333335</ele><time>2026-03-16T22:35:53Z</time></trkpt><trkpt lat="33.7295754" lon="133.0513957"><ele>898.8333333333334</ele><time>2026-03-16T22:37:06Z</time></trkpt><trkpt lat="33.7294714" lon="133.0515776"><ele>904.2266666666666</ele><time>2026-03-16T22:39:03Z</time></trkpt><trkpt lat="33.7293526" lon="133.051403"><ele>910.2199999999999</ele><time>2026-03-16T22:43:21Z</time></trkpt><trkpt lat="33.7291703" lon="133.0513975"><ele>919.8566666666666</ele><time>2026-03-16T22:44:28Z</time></trkpt><trkpt lat="33.728995" lon="133.0512993"><ele>927.3366666666666</ele><time>2026-03-16T22:46:03Z</time></trkpt><trkpt lat="33.7288189" lon="133.0511841"><ele>935.3100000000001</ele><time>2026-03-16T22:47:46Z</time></trkpt><trkpt lat="33.7286453" lon="133.0511095"><ele>937.8033333333333</ele><time>2026-03-16T22:48:34Z</time></trkpt><trkpt lat="33.7284514" lon="133.0511551"><ele>940.5533333333333</ele><time>2026-03-16T22:49:39Z</time></trkpt><trkpt lat="33.7282713" lon="133.0512281"><ele>943.19</ele><time>2026-03-16T22:50:16Z</time></trkpt><trkpt lat="33.7280966" lon="133.0512945"><ele>944.4766666666666</ele><time>2026-03-16T22:50:45Z</time></trkpt><trkpt lat="33.7279692" lon="133.0514766"><ele>945.07</ele><time>2026-03-16T22:51:25Z</time></trkpt><trkpt lat="33.7278646" lon="133.0516569"><ele>945.8166666666666</ele><time>2026-03-16T22:51:54Z</time></trkpt><trkpt lat="33.727681" lon="133.0516912"><ele>946.6733333333333</ele><time>2026-03-16T22:53:33Z</time></trkpt><trkpt lat="33.7275737" lon="133.0518682"><ele>949.3666666666668</ele><time>2026-03-16T22:54:36Z</time></trkpt><trkpt lat="33.7274637" lon="133.0516963"><ele>954.0333333333334</ele><time>2026-03-16T22:56:30Z</time></trkpt><trkpt lat="33.7273493" lon="133.0515273"><ele>960.3466666666667</ele><time>2026-03-16T22:57:27Z</time></trkpt><trkpt lat="33.727156" lon="133.0515408"><ele>967.7199999999999</ele><time>2026-03-16T22:58:40Z</time></trkpt><trkpt lat="33.7270206" lon="133.0513975"><ele>971.66</ele><time>2026-03-16T23:00:15Z</time></trkpt><trkpt lat="33.72683" lon="133.051439"><ele>977.9899999999999</ele><time>2026-03-16T23:00:55Z</time></trkpt><trkpt lat="33.7266947" lon="133.0512916"><ele>979.66</ele><time>2026-03-16T23:01:21Z</time></trkpt><trkpt lat="33.7266645" lon="133.0510747"><ele>979.2466666666668</ele><time>2026-03-16T23:01:48Z</time></trkpt><trkpt lat="33.7266569" lon="133.0508571"><ele>976.9500000000002</ele><time>2026-03-16T23:02:19Z</time></trkpt><trkpt lat="33.7266165" lon="133.05064"><ele>977.5933333333334</ele><time>2026-03-16T23:02:57Z</time></trkpt><trkpt lat="33.7265556" lon="133.0504261"><ele>979.8833333333333</ele><time>2026-03-16T23:03:22Z</time></trkpt><trkpt lat="33.726421" lon="133.0502744"><ele>983.9133333333334</ele><time>2026-03-16T23:04:01Z</time></trkpt><trkpt lat="33.726248" lon="133.0501966"><ele>990.0300000000001</ele><time>2026-03-16T23:05:58Z</time></trkpt><trkpt lat="33.726078" lon="133.0502778"><ele>999.8833333333333</ele><time>2026-03-16T23:06:58Z</time></trkpt><trkpt lat="33.7260609" lon="133.0505163"><ele>1008.0933333333332</ele><time>2026-03-16T23:07:27Z</time></trkpt><trkpt lat="33.7259127" lon="133.0503845"><ele>1013.62</ele><time>2026-03-16T23:08:33Z</time></trkpt><trkpt lat="33.7258605" lon="133.0501687"><ele>1015.9766666666668</ele><time>2026-03-16T23:09:04Z</time></trkpt><trkpt lat="33.725725" lon="133.0500253"><ele>1018.9766666666668</ele><time>2026-03-16T23:10:04Z</time></trkpt><trkpt lat="33.725592" lon="133.0501859"><ele>1021.9266666666666</ele><time>2026-03-16T23:11:54Z</time></trkpt><trkpt lat="33.7254351" lon="133.0503007"><ele>1022.4766666666668</ele><time>2026-03-16T23:19:42Z</time></trkpt><trkpt lat="33.725365" lon="133.0505087"><ele>1021.6999999999999</ele><time>2026-03-16T23:20:19Z</time></trkpt><trkpt lat="33.7252854" lon="133.05072"><ele>1020.08</ele><time>2026-03-16T23:20:54Z</time></trkpt><trkpt lat="33.725224" lon="133.050927"><ele>1019.9233333333333</ele><time>2026-03-16T23:21:27Z</time></trkpt><trkpt lat="33.7250912" lon="133.0511159"><ele>1018.1333333333333</ele><time>2026-03-16T23:22:15Z</time></trkpt><trkpt lat="33.7249161" lon="133.0511934"><ele>1014.27</ele><time>2026-03-16T23:22:49Z</time></trkpt><trkpt lat="33.7247899" lon="133.0513532"><ele>1012.6933333333333</ele><time>2026-03-16T23:23:30Z</time></trkpt><trkpt lat="33.7246369" lon="133.0514719"><ele>1014.9033333333333</ele><time>2026-03-16T23:25:06Z</time></trkpt><trkpt lat="33.7245997" lon="133.0516867"><ele>1019.6733333333335</ele><time>2026-03-16T23:25:45Z</time></trkpt><trkpt lat="33.724606" lon="133.0519195"><ele>1023.7833333333333</ele><time>2026-03-16T23:26:19Z</time></trkpt><trkpt lat="33.7245889" lon="133.0521378"><ele>1026.61</ele><time>2026-03-16T23:27:09Z</time></trkpt><trkpt lat="33.7245616" lon="133.0523526"><ele>1028.98</ele><time>2026-03-16T23:27:34Z</time></trkpt><trkpt lat="33.7245688" lon="133.0525786"><ele>1031.9266666666665</ele><time>2026-03-16T23:28:10Z</time></trkpt><trkpt lat="33.7246501" lon="133.0527975"><ele>1034.6933333333334</ele><time>2026-03-16T23:28:55Z</time></trkpt><trkpt lat="33.7246633" lon="133.0530218"><ele>1037.5966666666668</ele><time>2026-03-16T23:30:21Z</time></trkpt><trkpt lat="33.7245662" lon="133.0532273"><ele>1039.82</ele><time>2026-03-16T23:30:58Z</time></trkpt><trkpt lat="33.7244416" lon="133.0533909"><ele>1044.1366666666665</ele><time>2026-03-16T23:31:30Z</time></trkpt><trkpt lat="33.7243043" lon="133.0535548"><ele>1051.5733333333333</ele><time>2026-03-16T23:33:48Z</time></trkpt><trkpt lat="33.7241601" lon="133.0536923"><ele>1060.6533333333334</ele><time>2026-03-16T23:35:01Z</time></trkpt><trkpt lat="33.7239873" lon="133.0537748"><ele>1070.4833333333333</ele><time>2026-03-16T23:36:15Z</time></trkpt><trkpt lat="33.7238054" lon="133.0538734"><ele>1079.3066666666666</ele><time>2026-03-16T23:37:34Z</time></trkpt><trkpt lat="33.7236323" lon="133.0539408"><ele>1088.8466666666666</ele><time>2026-03-16T23:39:36Z</time></trkpt><trkpt lat="33.7234402" lon="133.0539623"><ele>1098.0066666666667</ele><time>2026-03-16T23:40:25Z</time></trkpt><trkpt lat="33.7233412" lon="133.0541437"><ele>1105.6866666666667</ele><time>2026-03-16T23:42:21Z</time></trkpt><trkpt lat="33.7231897" lon="133.0542608"><ele>1112.3566666666666</ele><time>2026-03-16T23:43:30Z</time></trkpt><trkpt lat="33.7230056" lon="133.0542993"><ele>1117.8533333333335</ele><time>2026-03-16T23:45:09Z</time></trkpt><trkpt lat="33.7228349" lon="133.0543842"><ele>1125.0366666666669</ele><time>2026-03-16T23:46:22Z</time></trkpt><trkpt lat="33.7226558" lon="133.0544312"><ele>1132.51</ele><time>2026-03-16T23:47:43Z</time></trkpt><trkpt lat="33.7224767" lon="133.054495"><ele>1141.2233333333336</ele><time>2026-03-16T23:48:51Z</time></trkpt><trkpt lat="33.7223417" lon="133.0546415"><ele>1147.8</ele><time>2026-03-16T23:50:03Z</time></trkpt><trkpt lat="33.7221876" lon="133.0547536"><ele>1155.2166666666667</ele><time>2026-03-16T23:58:51Z</time></trkpt><trkpt lat="33.7220115" lon="133.054841"><ele>1162.0866666666668</ele><time>2026-03-16T23:59:51Z</time></trkpt><trkpt lat="33.721838" lon="133.0549398"><ele>1169.8333333333333</ele><time>2026-03-17T00:00:28Z</time></trkpt><trkpt lat="33.721677" lon="133.0550594"><ele>1175.9833333333333</ele><time>2026-03-17T00:01:03Z</time></trkpt><trkpt lat="33.721537" lon="133.0551985"><ele>1180.79</ele><time>2026-03-17T00:01:52Z</time></trkpt><trkpt lat="33.7213557" lon="133.0552322"><ele>1185.53</ele><time>2026-03-17T00:02:24Z</time></trkpt><trkpt lat="33.7211851" lon="133.0551345"><ele>1191.6033333333335</ele><time>2026-03-17T00:03:01Z</time></trkpt><trkpt lat="33.7209981" lon="133.0551121"><ele>1198.3566666666668</ele><time>2026-03-17T00:03:34Z</time></trkpt><trkpt lat="33.7208214" lon="133.0550464"><ele>1204.9166666666667</ele><time>2026-03-17T00:04:09Z</time></trkpt><trkpt lat="33.7206405" lon="133.0550751"><ele>1208.86</ele><time>2026-03-17T00:04:49Z</time></trkpt><trkpt lat="33.7204658" lon="133.0551296"><ele>1213.9166666666667</ele><time>2026-03-17T00:07:21Z</time></trkpt><trkpt lat="33.7203343" lon="133.0552964"><ele>1220.0766666666668</ele><time>2026-03-17T00:10:07Z</time></trkpt><trkpt lat="33.7201421" lon="133.0553086"><ele>1227.7733333333335</ele><time>2026-03-17T00:11:15Z</time></trkpt><trkpt lat="33.719968" lon="133.0553773"><ele>1234.6866666666667</ele><time>2026-03-17T00:12:04Z</time></trkpt><trkpt lat="33.7197937" lon="133.0553206"><ele>1240.54</ele><time>2026-03-17T00:12:51Z</time></trkpt><trkpt lat="33.719634" lon="133.0551993"><ele>1244.6466666666668</ele><time>2026-03-17T00:13:15Z</time></trkpt><trkpt lat="33.719481" lon="133.0550415"><ele>1247.3100000000002</ele><time>2026-03-17T00:13:43Z</time></trkpt><trkpt lat="33.7192929" lon="133.0550629"><ele>1251.3233333333335</ele><time>2026-03-17T00:16:34Z</time></trkpt><trkpt lat="33.7191272" lon="133.0551571"><ele>1260.3566666666668</ele><time>2026-03-17T00:19:21Z</time></trkpt><trkpt lat="33.7190168" lon="133.0553365"><ele>1271.7733333333333</ele><time>2026-03-17T00:22:06Z</time></trkpt><trkpt lat="33.7189191" lon="133.0555243"><ele>1281.3333333333335</ele><time>2026-03-17T00:22:33Z</time></trkpt><trkpt lat="33.7188149" lon="133.0557133"><ele>1287.96</ele><time>2026-03-17T00:23:03Z</time></trkpt><trkpt lat="33.718655" lon="133.0558245"><ele>1293.6033333333332</ele><time>2026-03-17T00:23:48Z</time></trkpt><trkpt lat="33.7185091" lon="133.0559816"><ele>1299.4933333333333</ele><time>2026-03-17T00:24:21Z</time></trkpt><trkpt lat="33.7183744" lon="133.056159"><ele>1305.0866666666668</ele><time>2026-03-17T00:24:48Z</time></trkpt><trkpt lat="33.7183122" lon="133.0563738"><ele>1309.81</ele><time>2026-03-17T00:25:22Z</time></trkpt><trkpt lat="33.7182882" lon="133.0566006"><ele>1314.2366666666667</ele><time>2026-03-17T00:25:49Z</time></trkpt><trkpt lat="33.7182406" lon="133.056812"><ele>1317.4533333333331</ele><time>2026-03-17T00:26:33Z</time></trkpt><trkpt lat="33.7183055" lon="133.0570202"><ele>1318.2733333333333</ele><time>2026-03-17T00:43:27Z</time></trkpt><trkpt lat="33.7184039" lon="133.0572025"><ele>1315.1833333333334</ele><time>2026-03-17T00:43:52Z</time></trkpt><trkpt lat="33.7184711" lon="133.0574057"><ele>1308.4033333333334</ele><time>2026-03-17T00:44:19Z</time></trkpt><trkpt lat="33.7185433" lon="133.05761"><ele>1300.9166666666667</ele><time>2026-03-17T00:45:03Z</time></trkpt><trkpt lat="33.7185697" lon="133.0578393"><ele>1293.0766666666668</ele><time>2026-03-17T00:45:24Z</time></trkpt><trkpt lat="33.7187103" lon="133.0580023"><ele>1283.9833333333333</ele><time>2026-03-17T00:47:40Z</time></trkpt><trkpt lat="33.718863" lon="133.0581214"><ele>1273.5566666666666</ele><time>2026-03-17T00:48:24Z</time></trkpt><trkpt lat="33.7190377" lon="133.0582277"><ele>1264.09</ele><time>2026-03-17T00:49:00Z</time></trkpt><trkpt lat="33.7192268" lon="133.0582686"><ele>1256.45</ele><time>2026-03-17T00:49:33Z</time></trkpt><trkpt lat="33.7193924" lon="133.0583755"><ele>1248.83</ele><time>2026-03-17T00:50:40Z</time></trkpt><trkpt lat="33.7194886" lon="133.0585648"><ele>1238.0166666666667</ele><time>2026-03-17T00:52:25Z</time></trkpt><trkpt lat="33.7195625" lon="133.0587673"><ele>1225.9166666666667</ele><time>2026-03-17T00:53:06Z</time></trkpt><trkpt lat="33.7197211" lon="133.0588881"><ele>1213.4466666666667</ele><time>2026-03-17T00:53:46Z</time></trkpt><trkpt lat="33.7199076" lon="133.0589481"><ele>1202.8500000000001</ele><time>2026-03-17T00:54:16Z</time></trkpt><trkpt lat="33.7200996" lon="133.0588948"><ele>1195.8733333333332</ele><time>2026-03-17T00:54:55Z</time></trkpt><trkpt lat="33.7202222" lon="133.0587229"><ele>1190.7766666666666</ele><time>2026-03-17T00:55:46Z</time></trkpt><trkpt lat="33.7202123" lon="133.0584872"><ele>1188.3866666666665</ele><time>2026-03-17T00:56:10Z</time></trkpt><trkpt lat="33.7203519" lon="133.0583255"><ele>1185.23</ele><time>2026-03-17T00:56:37Z</time></trkpt><trkpt lat="33.720513" lon="133.0584407"><ele>1181.0200000000002</ele><time>2026-03-17T00:58:09Z</time></trkpt><trkpt lat="33.7206863" lon="133.0585463"><ele>1175.74</ele><time>2026-03-17T00:58:37Z</time></trkpt><trkpt lat="33.7208448" lon="133.0586502"><ele>1169.1033333333335</ele><time>2026-03-17T00:59:01Z</time></trkpt><trkpt lat="33.7210545" lon="133.0586902"><ele>1163.97</ele><time>2026-03-17T00:59:24Z</time></trkpt><trkpt lat="33.7212399" lon="133.0587338"><ele>1158.6133333333335</ele><time>2026-03-17T00:59:45Z</time></trkpt><trkpt lat="33.7214264" lon="133.0586727"><ele>1154.21</ele><time>2026-03-17T01:00:54Z</time></trkpt><trkpt lat="33.7216127" lon="133.0586675"><ele>1150.73</ele><time>2026-03-17T01:01:18Z</time></trkpt><trkpt lat="33.7217886" lon="133.0585855"><ele>1148.3733333333334</ele><time>2026-03-17T01:01:42Z</time></trkpt><trkpt lat="33.7219686" lon="133.0585116"><ele>1145.8166666666668</ele><time>2026-03-17T01:02:03Z</time></trkpt><trkpt lat="33.7221528" lon="133.0585055"><ele>1143.6466666666668</ele><time>2026-03-17T01:02:28Z</time></trkpt><trkpt lat="33.7223291" lon="133.0585625"><ele>1140.0166666666667</ele><time>2026-03-17T01:03:24Z</time></trkpt><trkpt lat="33.7224895" lon="133.0584508"><ele>1135.4666666666667</ele><time>2026-03-17T01:03:57Z</time></trkpt><trkpt lat="33.7225277" lon="133.0582322"><ele>1132.1933333333334</ele><time>2026-03-17T01:04:52Z</time></trkpt><trkpt lat="33.7225822" lon="133.057987"><ele>1130.5466666666664</ele><time>2026-03-17T01:05:13Z</time></trkpt><trkpt lat="33.722648" lon="133.0577511"><ele>1130.39</ele><time>2026-03-17T01:05:33Z</time></trkpt><trkpt lat="33.7225742" lon="133.0575501"><ele>1129.6666666666667</ele><time>2026-03-17T01:06:00Z</time></trkpt><trkpt lat="33.7225963" lon="133.0573303"><ele>1128.5833333333333</ele><time>2026-03-17T01:07:21Z</time></trkpt><trkpt lat="33.7227506" lon="133.057192"><ele>1127.6766666666665</ele><time>2026-03-17T01:07:55Z</time></trkpt><trkpt lat="33.7227768" lon="133.0569485"><ele>1125.9199999999998</ele><time>2026-03-17T01:08:21Z</time></trkpt><trkpt lat="33.7227898" lon="133.0567206"><ele>1125.26</ele><time>2026-03-17T01:09:04Z</time></trkpt><trkpt lat="33.7228463" lon="133.0565152"><ele>1123.21</ele><time>2026-03-17T01:09:28Z</time></trkpt><trkpt lat="33.7226823" lon="133.056391"><ele>1123.54</ele><time>2026-03-17T01:10:00Z</time></trkpt><trkpt lat="33.722488" lon="133.0563411"><ele>1123.03</ele><time>2026-03-17T01:10:36Z</time></trkpt><trkpt lat="33.7226002" lon="133.0561417"><ele>1122.6166666666666</ele><time>2026-03-17T01:12:22Z</time></trkpt><trkpt lat="33.7227618" lon="133.0560238"><ele>1119.75</ele><time>2026-03-17T01:12:43Z</time></trkpt><trkpt lat="33.7229366" lon="133.0559177"><ele>1118.83</ele><time>2026-03-17T01:13:09Z</time></trkpt><trkpt lat="33.7230616" lon="133.0557602"><ele>1120.2700000000002</ele><time>2026-03-17T01:13:33Z</time></trkpt><trkpt lat="33.7230887" lon="133.0555445"><ele>1123.11</ele><time>2026-03-17T01:14:10Z</time></trkpt><trkpt lat="33.7232027" lon="133.0553731"><ele>1121.4833333333333</ele><time>2026-03-17T01:15:52Z</time></trkpt><trkpt lat="33.7232416" lon="133.0551592"><ele>1118.1233333333332</ele><time>2026-03-17T01:18:10Z</time></trkpt><trkpt lat="33.7234018" lon="133.0550525"><ele>1109.3633333333335</ele><time>2026-03-17T01:19:58Z</time></trkpt><trkpt lat="33.7233418" lon="133.0548244"><ele>1102.3433333333332</ele><time>2026-03-17T01:21:57Z</time></trkpt><trkpt lat="33.7233296" lon="133.0545985"><ele>1098.4333333333334</ele><time>2026-03-17T01:23:07Z</time></trkpt><trkpt lat="33.7234514" lon="133.054419"><ele>1098.4566666666667</ele><time>2026-03-17T01:24:00Z</time></trkpt><trkpt lat="33.7235428" lon="133.0542102"><ele>1101.8866666666668</ele><time>2026-03-17T01:24:51Z</time></trkpt><trkpt lat="33.7236075" lon="133.053999"><ele>1102.6966666666667</ele><time>2026-03-17T01:25:24Z</time></trkpt><trkpt lat="33.7237736" lon="133.0539139"><ele>1099.0800000000002</ele><time>2026-03-17T01:26:40Z</time></trkpt><trkpt lat="33.7239413" lon="133.0538079"><ele>1091.5033333333333</ele><time>2026-03-17T01:27:15Z</time></trkpt><trkpt lat="33.7240587" lon="133.0536351"><ele>1081.7433333333333</ele><time>2026-03-17T01:28:42Z</time></trkpt><trkpt lat="33.7242431" lon="133.0536778"><ele>1074.3033333333333</ele><time>2026-03-17T01:31:16Z</time></trkpt><trkpt lat="33.7244199" lon="133.053623"><ele>1065.7533333333333</ele><time>2026-03-17T01:32:06Z</time></trkpt><trkpt lat="33.7245143" lon="133.0534168"><ele>1057.243333333333</ele><time>2026-03-17T01:33:06Z</time></trkpt><trkpt lat="33.7246048" lon="133.0532267"><ele>1049.13</ele><time>2026-03-17T01:33:45Z</time></trkpt><trkpt lat="33.7246845" lon="133.0530325"><ele>1043.4633333333334</ele><time>2026-03-17T01:34:18Z</time></trkpt><trkpt lat="33.724659" lon="133.0528185"><ele>1039.82</ele><time>2026-03-17T01:35:13Z</time></trkpt><trkpt lat="33.7246341" lon="133.0526042"><ele>1037.6033333333332</ele><time>2026-03-17T01:35:39Z</time></trkpt><trkpt lat="33.7246218" lon="133.0523818"><ele>1034.7</ele><time>2026-03-17T01:36:07Z</time></trkpt><trkpt lat="33.7246717" lon="133.0521736"><ele>1032.08</ele><time>2026-03-17T01:36:36Z</time></trkpt><trkpt lat="33.7246408" lon="133.0519333"><ele>1028.6433333333334</ele><time>2026-03-17T01:37:22Z</time></trkpt><trkpt lat="33.7246621" lon="133.0517177"><ele>1025.2433333333333</ele><time>2026-03-17T01:38:07Z</time></trkpt><trkpt lat="33.7246596" lon="133.051499"><ele>1022.2700000000001</ele><time>2026-03-17T01:38:34Z</time></trkpt><trkpt lat="33.7247617" lon="133.0513184"><ele>1019.4</ele><time>2026-03-17T01:39:43Z</time></trkpt><trkpt lat="33.7249149" lon="133.0511858"><ele>1015.66</ele><time>2026-03-17T01:40:06Z</time></trkpt><trkpt lat="33.7251065" lon="133.0511089"><ele>1013.4499999999999</ele><time>2026-03-17T01:40:30Z</time></trkpt><trkpt lat="33.725181" lon="133.0509047"><ele>1012.1266666666667</ele><time>2026-03-17T01:40:52Z</time></trkpt><trkpt lat="33.7252772" lon="133.0506941"><ele>1015.2000000000002</ele><time>2026-03-17T01:41:55Z</time></trkpt><trkpt lat="33.7253557" lon="133.0504501"><ele>1016.9900000000001</ele><time>2026-03-17T01:42:24Z</time></trkpt><trkpt lat="33.7254734" lon="133.0502765"><ele>1019.29</ele><time>2026-03-17T01:42:42Z</time></trkpt><trkpt lat="33.7256345" lon="133.0501675"><ele>1021.1166666666668</ele><time>2026-03-17T01:43:24Z</time></trkpt><trkpt lat="33.7256473" lon="133.0503836"><ele>1024.2433333333333</ele><time>2026-03-17T01:44:19Z</time></trkpt><trkpt lat="33.725663" lon="133.0501448"><ele>1025.86</ele><time>2026-03-17T01:45:24Z</time></trkpt><trkpt lat="33.725731" lon="133.0499401"><ele>1024.29</ele><time>2026-03-17T01:45:57Z</time></trkpt><trkpt lat="33.725877" lon="133.0501161"><ele>1020.8133333333334</ele><time>2026-03-17T01:47:04Z</time></trkpt><trkpt lat="33.725923" lon="133.0503288"><ele>1018.1933333333333</ele><time>2026-03-17T01:47:27Z</time></trkpt><trkpt lat="33.7260016" lon="133.0505305"><ele>1016.9966666666668</ele><time>2026-03-17T01:47:48Z</time></trkpt><trkpt lat="33.7260935" lon="133.0503319"><ele>1014.64</ele><time>2026-03-17T01:48:34Z</time></trkpt><trkpt lat="33.7262627" lon="133.0504468"><ele>1010.75</ele><time>2026-03-17T01:49:24Z</time></trkpt><trkpt lat="33.7263776" lon="133.050259"><ele>1001.9533333333334</ele><time>2026-03-17T01:50:04Z</time></trkpt><trkpt lat="33.7265603" lon="133.0503665"><ele>992.1</ele><time>2026-03-17T01:50:37Z</time></trkpt><trkpt lat="33.7266204" lon="133.0505953"><ele>984.8333333333334</ele><time>2026-03-17T01:51:01Z</time></trkpt><trkpt lat="33.7266669" lon="133.0508128"><ele>980.1166666666668</ele><time>2026-03-17T01:51:25Z</time></trkpt><trkpt lat="33.7266852" lon="133.0510438"><ele>977.8266666666667</ele><time>2026-03-17T01:52:04Z</time></trkpt><trkpt lat="33.7266944" lon="133.0512799"><ele>976.9500000000002</ele><time>2026-03-17T01:52:37Z</time></trkpt><trkpt lat="33.7268361" lon="133.0514267"><ele>979.2466666666668</ele><time>2026-03-17T01:53:03Z</time></trkpt><trkpt lat="33.727019" lon="133.0514723"><ele>981.4366666666666</ele><time>2026-03-17T01:53:28Z</time></trkpt><trkpt lat="33.7271834" lon="133.0515767"><ele>981.5866666666667</ele><time>2026-03-17T01:53:58Z</time></trkpt><trkpt lat="33.7273432" lon="133.0516931"><ele>977.6999999999999</ele><time>2026-03-17T01:54:31Z</time></trkpt><trkpt lat="33.7275036" lon="133.0518006"><ele>970.3066666666667</ele><time>2026-03-17T01:56:01Z</time></trkpt><trkpt lat="33.7276451" lon="133.0519449"><ele>961.3833333333333</ele><time>2026-03-17T01:57:19Z</time></trkpt><trkpt lat="33.727786" lon="133.0518093"><ele>954.3033333333333</ele><time>2026-03-17T01:58:19Z</time></trkpt><trkpt lat="33.727912" lon="133.0516487"><ele>953.0533333333333</ele><time>2026-03-17T01:58:57Z</time></trkpt><trkpt lat="33.7280623" lon="133.0514882"><ele>952.9233333333333</ele><time>2026-03-17T01:59:27Z</time></trkpt><trkpt lat="33.7281964" lon="133.0513377"><ele>953.1766666666667</ele><time>2026-03-17T01:59:58Z</time></trkpt><trkpt lat="33.7283598" lon="133.0512292"><ele>951.0266666666666</ele><time>2026-03-17T02:00:40Z</time></trkpt><trkpt lat="33.7285257" lon="133.0511323"><ele>947.5433333333334</ele><time>2026-03-17T02:01:15Z</time></trkpt><trkpt lat="33.7287122" lon="133.0511271"><ele>943.4500000000002</ele><time>2026-03-17T02:02:01Z</time></trkpt><trkpt lat="33.728891" lon="133.0512171"><ele>940.6033333333335</ele><time>2026-03-17T02:02:33Z</time></trkpt><trkpt lat="33.7289955" lon="133.051403"><ele>938.9266666666667</ele><time>2026-03-17T02:02:51Z</time></trkpt><trkpt lat="33.7290472" lon="133.0516142"><ele>940.0866666666666</ele><time>2026-03-17T02:03:19Z</time></trkpt><trkpt lat="33.7291182" lon="133.0518134"><ele>939.9866666666667</ele><time>2026-03-17T02:03:42Z</time></trkpt><trkpt lat="33.7292931" lon="133.0517416"><ele>935.0766666666667</ele><time>2026-03-17T02:06:16Z</time></trkpt><trkpt lat="33.7294132" lon="133.0515767"><ele>925.4933333333333</ele><time>2026-03-17T02:07:57Z</time></trkpt><trkpt lat="33.7295691" lon="133.0514499"><ele>912.81</ele><time>2026-03-17T02:10:04Z</time></trkpt><trkpt lat="33.7296192" lon="133.0512365"><ele>904.5633333333334</ele><time>2026-03-17T02:10:31Z</time></trkpt><trkpt lat="33.7295922" lon="133.0510206"><ele>898.6933333333335</ele><time>2026-03-17T02:11:45Z</time></trkpt><trkpt lat="33.7297023" lon="133.0508304"><ele>895.96</ele><time>2026-03-17T02:13:39Z</time></trkpt><trkpt lat="33.7296943" lon="133.0506148"><ele>893.9933333333333</ele><time>2026-03-17T02:14:39Z</time></trkpt><trkpt lat="33.7298005" lon="133.0504306"><ele>894.5466666666666</ele><time>2026-03-17T02:17:12Z</time></trkpt><trkpt lat="33.7298523" lon="133.0502234"><ele>897.3100000000001</ele><time>2026-03-17T02:17:37Z</time></trkpt><trkpt lat="33.729888" lon="133.0499827"><ele>900.0733333333334</ele><time>2026-03-17T02:17:57Z</time></trkpt><trkpt lat="33.7299474" lon="133.0497392"><ele>902.1700000000001</ele><time>2026-03-17T02:18:21Z</time></trkpt><trkpt lat="33.7300171" lon="133.0495344"><ele>902.9000000000001</ele><time>2026-03-17T02:18:40Z</time></trkpt><trkpt lat="33.730084" lon="133.0493134"><ele>904.5500000000001</ele><time>2026-03-17T02:19:01Z</time></trkpt><trkpt lat="33.7300276" lon="133.0490535"><ele>903.0500000000001</ele><time>2026-03-17T02:19:25Z</time></trkpt><trkpt lat="33.7300194" lon="133.0488329"><ele>899.7466666666666</ele><time>2026-03-17T02:19:52Z</time></trkpt><trkpt lat="33.7300843" lon="133.0486075"><ele>893.6999999999999</ele><time>2026-03-17T02:20:27Z</time></trkpt><trkpt lat="33.7302274" lon="133.0484726"><ele>886.9066666666666</ele><time>2026-03-17T02:20:48Z</time></trkpt><trkpt lat="33.7303997" lon="133.0483511"><ele>880.2666666666668</ele><time>2026-03-17T02:21:42Z</time></trkpt><trkpt lat="33.7305752" lon="133.0482746"><ele>873.5366666666667</ele><time>2026-03-17T02:22:04Z</time></trkpt><trkpt lat="33.7307377" lon="133.0481719"><ele>867.9533333333334</ele><time>2026-03-17T02:22:34Z</time></trkpt><trkpt lat="33.7309404" lon="133.0481405"><ele>862.3033333333333</ele><time>2026-03-17T02:23:01Z</time></trkpt><trkpt lat="33.731113" lon="133.0480678"><ele>857.4866666666667</ele><time>2026-03-17T02:23:21Z</time></trkpt><trkpt lat="33.7312712" lon="133.0479594"><ele>854.2066666666666</ele><time>2026-03-17T02:23:46Z</time></trkpt><trkpt lat="33.7314009" lon="133.0478058"><ele>851.25</ele><time>2026-03-17T02:24:10Z</time></trkpt><trkpt lat="33.7314905" lon="133.0476146"><ele>847.3133333333334</ele><time>2026-03-17T02:24:30Z</time></trkpt><trkpt lat="33.7315809" lon="133.0474042"><ele>840.79</ele><time>2026-03-17T02:24:57Z</time></trkpt><trkpt lat="33.7316896" lon="133.047205"><ele>832.9266666666667</ele><time>2026-03-17T02:25:18Z</time></trkpt><trkpt lat="33.7318585" lon="133.0470551"><ele>823.89</ele><time>2026-03-17T02:25:48Z</time></trkpt><trkpt lat="33.7320135" lon="133.0469408"><ele>817.2366666666667</ele><time>2026-03-17T02:26:13Z</time></trkpt><trkpt lat="33.7321035" lon="133.0467462"><ele>809.7233333333334</ele><time>2026-03-17T02:26:40Z</time></trkpt><trkpt lat="33.7322208" lon="133.0465768"><ele>803.3033333333333</ele><time>2026-03-17T02:27:06Z</time></trkpt><trkpt lat="33.7322251" lon="133.0463477"><ele>795.21</ele><time>2026-03-17T02:27:30Z</time></trkpt><trkpt lat="33.7323566" lon="133.0461871"><ele>786.7200000000001</ele><time>2026-03-17T02:28:06Z</time></trkpt><trkpt lat="33.7325448" lon="133.0461271"><ele>779.0366666666665</ele><time>2026-03-17T02:28:40Z</time></trkpt><trkpt lat="33.7326263" lon="133.0459192"><ele>771.3566666666666</ele><time>2026-03-17T02:29:09Z</time></trkpt><trkpt lat="33.7327855" lon="133.0457596"><ele>764.4166666666666</ele><time>2026-03-17T02:29:34Z</time></trkpt><trkpt lat="33.7328708" lon="133.0455509"><ele>756.7233333333334</ele><time>2026-03-17T02:30:03Z</time></trkpt><trkpt lat="33.7329027" lon="133.0453186"><ele>749.8033333333334</ele><time>2026-03-17T02:30:19Z</time></trkpt><trkpt lat="33.7329513" lon="133.0450952"><ele>744.7033333333333</ele><time>2026-03-17T02:30:33Z</time></trkpt><trkpt lat="33.7330356" lon="133.0448869"><ele>740.5366666666665</ele><time>2026-03-17T02:30:52Z</time></trkpt><trkpt lat="33.7331293" lon="133.0446709"><ele>735.82</ele><time>2026-03-17T02:31:09Z</time></trkpt><trkpt lat="33.7331779" lon="133.0444327"><ele>730.9266666666667</ele><time>2026-03-17T02:31:25Z</time></trkpt></trkseg></trk></gpx>