<?xml version='1.0' encoding='UTF-8'?><gpx creator="Yama Museum Summit Candidate Generator" xsi:schemaLocation="http://www.topografix.com/GPX/1/1 http://www.topografix.com/GPX/1/1/gpx.xsd" version="1.1" xmlns="http://www.topografix.com/GPX/1/1" xmlns:xsi="http://www.w3.org/2001/XMLSchema-instance" xmlns:yama="https://museum-yama-data.moukaeritai.work/ns/yama-data/0.1"><metadata><bounds maxlat="33.6120763" maxlon="132.8525727" minlat="33.5925885" minlon="132.8376458"/><name>日浦嶺・打越山</name><extensions><yama:source_gpx_basename>yamap_2024-04-28_10_37.gpx</yama:source_gpx_basename><yama:source_gpx_relative_path>data/01_raw/gpx/2026-05-12/yamap_2024-04-28_10_37.gpx</yama:source_gpx_relative_path><yama:detection_parameters>window=5,radius=10,min_prominence=30,merge=100</yama:detection_parameters></extensions></metadata><wpt lat="33.5926584" lon="132.8486131"><ele>900.0566666666667</ele><time>2024-04-28T03:10:40Z</time><name>summit-candidate:606168b97944fce5</name><desc>Summit candidate detected at elevation 900.0566666666667m with prominence 336.20955555555554m.</desc><sym>Summit Candidate</sym><extensions><yama:source_trackpoint_index>110</yama:source_trackpoint_index><yama:valid_elevation_index>110</yama:valid_elevation_index><yama:smoothed_ele>898.184</yama:smoothed_ele><yama:prominence>336.20955555555554</yama:prominence><yama:detection_method>local_maxima_with_prominence</yama:detection_method><yama:detection_parameters>window=5,radius=10,min_prominence=30,merge=100</yama:detection_parameters><yama:candidate_status>unresolved</yama:candidate_status></extensions></wpt>
  <wpt lat="33.6118803" lon="132.8524765"><ele>854.2033333333333</ele><time>2024-04-28T05:00:31Z</time><name>summit-candidate:498b9618ca98fa34</name><desc>Summit candidate detected at elevation 854.2033333333333m with prominence 124.50266666666653m.</desc><sym>Summit Candidate</sym><extensions><yama:source_trackpoint_index>265</yama:source_trackpoint_index><yama:valid_elevation_index>265</yama:valid_elevation_index><yama:smoothed_ele>849.7359999999999</yama:smoothed_ele><yama:prominence>124.50266666666653</yama:prominence><yama:detection_method>local_maxima_with_prominence</yama:detection_method><yama:detection_parameters>window=5,radius=10,min_prominence=30,merge=100</yama:detection_parameters><yama:candidate_status>unresolved</yama:candidate_status></extensions></wpt>
  <trk><name>日浦嶺・打越山</name><number>1</number><trkseg><trkpt lat="33.6011156" lon="132.8411239"><ele>559.92</ele><time>2024-04-28T01:37:36Z</time></trkpt><trkpt lat="33.6009363" lon="132.8411812"><ele>558.765</ele><time>2024-04-28T01:38:19Z</time></trkpt><trkpt lat="33.6008196" lon="132.8413567"><ele>559.3166666666666</ele><time>2024-04-28T01:38:38Z</time></trkpt><trkpt lat="33.6006947" lon="132.8415145"><ele>560.5666666666666</ele><time>2024-04-28T01:38:52Z</time></trkpt><trkpt lat="33.6005566" lon="132.8413497"><ele>562.7466666666666</ele><time>2024-04-28T01:39:25Z</time></trkpt><trkpt lat="33.6005066" lon="132.8411406"><ele>564.6833333333333</ele><time>2024-04-28T01:39:43Z</time></trkpt><trkpt lat="33.6004709" lon="132.8409245"><ele>564.8766666666667</ele><time>2024-04-28T01:39:58Z</time></trkpt><trkpt lat="33.6003992" lon="132.8406827"><ele>565.2066666666666</ele><time>2024-04-28T01:40:13Z</time></trkpt><trkpt lat="33.600251" lon="132.8405421"><ele>568.3499999999999</ele><time>2024-04-28T01:40:29Z</time></trkpt><trkpt lat="33.6001328" lon="132.8403522"><ele>571.9166666666666</ele><time>2024-04-28T01:40:44Z</time></trkpt><trkpt lat="33.6000258" lon="132.8401642"><ele>576.3866666666668</ele><time>2024-04-28T01:40:58Z</time></trkpt><trkpt lat="33.5999258" lon="132.8399535"><ele>576.6933333333333</ele><time>2024-04-28T01:41:14Z</time></trkpt><trkpt lat="33.5997413" lon="132.8398668"><ele>579.1666666666666</ele><time>2024-04-28T01:41:32Z</time></trkpt><trkpt lat="33.5998172" lon="132.8400736"><ele>581.5233333333334</ele><time>2024-04-28T01:42:04Z</time></trkpt><trkpt lat="33.5998866" lon="132.8402972"><ele>585.2266666666667</ele><time>2024-04-28T01:42:22Z</time></trkpt><trkpt lat="33.5999463" lon="132.8405083"><ele>588.1899999999999</ele><time>2024-04-28T01:42:37Z</time></trkpt><trkpt lat="33.6000855" lon="132.8406788"><ele>589.7133333333334</ele><time>2024-04-28T01:42:52Z</time></trkpt><trkpt lat="33.6001434" lon="132.8409123"><ele>590.7466666666667</ele><time>2024-04-28T01:43:10Z</time></trkpt><trkpt lat="33.6000989" lon="132.8411385"><ele>590.5933333333334</ele><time>2024-04-28T01:43:31Z</time></trkpt><trkpt lat="33.5999721" lon="132.8413401"><ele>591.2133333333335</ele><time>2024-04-28T01:43:46Z</time></trkpt><trkpt lat="33.5999892" lon="132.8415677"><ele>592.2033333333334</ele><time>2024-04-28T01:44:31Z</time></trkpt><trkpt lat="33.6000582" lon="132.8417735"><ele>592.5366666666667</ele><time>2024-04-28T01:44:49Z</time></trkpt><trkpt lat="33.5999497" lon="132.8419868"><ele>594.6899999999999</ele><time>2024-04-28T01:45:07Z</time></trkpt><trkpt lat="33.5998123" lon="132.8421528"><ele>597.5066666666667</ele><time>2024-04-28T01:45:19Z</time></trkpt><trkpt lat="33.5996268" lon="132.842164"><ele>603.0066666666667</ele><time>2024-04-28T01:46:23Z</time></trkpt><trkpt lat="33.5996457" lon="132.8419118"><ele>607.6266666666667</ele><time>2024-04-28T01:47:58Z</time></trkpt><trkpt lat="33.5996753" lon="132.8416578"><ele>610.5400000000001</ele><time>2024-04-28T01:48:16Z</time></trkpt><trkpt lat="33.5994935" lon="132.8416103"><ele>613.4966666666668</ele><time>2024-04-28T01:48:42Z</time></trkpt><trkpt lat="33.5994047" lon="132.841802"><ele>617.2399999999999</ele><time>2024-04-28T01:49:18Z</time></trkpt><trkpt lat="33.5993109" lon="132.8416006"><ele>622.7533333333333</ele><time>2024-04-28T01:50:33Z</time></trkpt><trkpt lat="33.5991839" lon="132.8414317"><ele>625.6500000000001</ele><time>2024-04-28T01:50:47Z</time></trkpt><trkpt lat="33.5990467" lon="132.8412517"><ele>626.6166666666667</ele><time>2024-04-28T01:51:04Z</time></trkpt><trkpt lat="33.5988795" lon="132.8411571"><ele>628.9166666666666</ele><time>2024-04-28T01:51:20Z</time></trkpt><trkpt lat="33.5987222" lon="132.8410129"><ele>631.42</ele><time>2024-04-28T01:51:39Z</time></trkpt><trkpt lat="33.598544" lon="132.8411025"><ele>637.3866666666667</ele><time>2024-04-28T01:52:00Z</time></trkpt><trkpt lat="33.59837" lon="132.8411966"><ele>643.8566666666667</ele><time>2024-04-28T01:52:32Z</time></trkpt><trkpt lat="33.5982404" lon="132.8410269"><ele>651.16</ele><time>2024-04-28T01:53:08Z</time></trkpt><trkpt lat="33.5981274" lon="132.8412097"><ele>658.04</ele><time>2024-04-28T01:54:07Z</time></trkpt><trkpt lat="33.5982311" lon="132.8414077"><ele>662.4166666666666</ele><time>2024-04-28T01:54:32Z</time></trkpt><trkpt lat="33.5982441" lon="132.8416244"><ele>670.1366666666667</ele><time>2024-04-28T02:00:04Z</time></trkpt><trkpt lat="33.5981964" lon="132.8418469"><ele>676.6566666666668</ele><time>2024-04-28T02:04:19Z</time></trkpt><trkpt lat="33.5981425" lon="132.8420542"><ele>684.9266666666666</ele><time>2024-04-28T02:04:50Z</time></trkpt><trkpt lat="33.5980859" lon="132.8422614"><ele>690.5466666666667</ele><time>2024-04-28T02:05:50Z</time></trkpt><trkpt lat="33.5979239" lon="132.8423892"><ele>696.0033333333334</ele><time>2024-04-28T02:06:38Z</time></trkpt><trkpt lat="33.5977879" lon="132.8425379"><ele>700.3933333333333</ele><time>2024-04-28T02:07:13Z</time></trkpt><trkpt lat="33.5976568" lon="132.8427016"><ele>704.9200000000001</ele><time>2024-04-28T02:08:09Z</time></trkpt><trkpt lat="33.5974711" lon="132.8426513"><ele>709.3933333333333</ele><time>2024-04-28T02:08:34Z</time></trkpt><trkpt lat="33.5972734" lon="132.8426461"><ele>715.38</ele><time>2024-04-28T02:09:27Z</time></trkpt><trkpt lat="33.5971121" lon="132.8425311"><ele>720.3733333333333</ele><time>2024-04-28T02:09:51Z</time></trkpt><trkpt lat="33.5970181" lon="132.8423345"><ele>722.8533333333334</ele><time>2024-04-28T02:10:13Z</time></trkpt><trkpt lat="33.5969777" lon="132.8425591"><ele>724.6866666666666</ele><time>2024-04-28T02:11:39Z</time></trkpt><trkpt lat="33.5969729" lon="132.8427951"><ele>728.23</ele><time>2024-04-28T02:12:00Z</time></trkpt><trkpt lat="33.5969685" lon="132.8430119"><ele>732.4866666666667</ele><time>2024-04-28T02:12:17Z</time></trkpt><trkpt lat="33.5968807" lon="132.843208"><ele>736.3333333333334</ele><time>2024-04-28T02:12:35Z</time></trkpt><trkpt lat="33.5967999" lon="132.843409"><ele>738.81</ele><time>2024-04-28T02:12:52Z</time></trkpt><trkpt lat="33.5967479" lon="132.8436355"><ele>743.07</ele><time>2024-04-28T02:13:13Z</time></trkpt><trkpt lat="33.5966072" lon="132.8434969"><ele>746.1999999999999</ele><time>2024-04-28T02:14:04Z</time></trkpt><trkpt lat="33.5966443" lon="132.8432797"><ele>749.0533333333333</ele><time>2024-04-28T02:14:22Z</time></trkpt><trkpt lat="33.5966278" lon="132.843054"><ele>750.5033333333334</ele><time>2024-04-28T02:14:40Z</time></trkpt><trkpt lat="33.5964246" lon="132.8430974"><ele>753.6866666666666</ele><time>2024-04-28T02:15:03Z</time></trkpt><trkpt lat="33.5964288" lon="132.8428573"><ele>755.7666666666668</ele><time>2024-04-28T02:16:07Z</time></trkpt><trkpt lat="33.5962244" lon="132.8428523"><ele>758.4966666666668</ele><time>2024-04-28T02:16:40Z</time></trkpt><trkpt lat="33.5960469" lon="132.8429024"><ele>759.21</ele><time>2024-04-28T02:16:57Z</time></trkpt><trkpt lat="33.5960782" lon="132.8431333"><ele>764.0933333333332</ele><time>2024-04-28T02:17:51Z</time></trkpt><trkpt lat="33.5960516" lon="132.8433484"><ele>768.7133333333335</ele><time>2024-04-28T02:18:49Z</time></trkpt><trkpt lat="33.596024" lon="132.8435907"><ele>775.1500000000001</ele><time>2024-04-28T02:19:12Z</time></trkpt><trkpt lat="33.5959265" lon="132.8437724"><ele>779.3733333333333</ele><time>2024-04-28T02:19:42Z</time></trkpt><trkpt lat="33.5957631" lon="132.8436798"><ele>785.04</ele><time>2024-04-28T02:20:29Z</time></trkpt><trkpt lat="33.595564" lon="132.843729"><ele>789.4566666666666</ele><time>2024-04-28T02:21:08Z</time></trkpt><trkpt lat="33.5954935" lon="132.8439447"><ele>795.9200000000001</ele><time>2024-04-28T02:22:05Z</time></trkpt><trkpt lat="33.5953289" lon="132.8438489"><ele>800.3533333333334</ele><time>2024-04-28T02:23:26Z</time></trkpt><trkpt lat="33.5952205" lon="132.84367"><ele>802.1866666666668</ele><time>2024-04-28T02:26:26Z</time></trkpt><trkpt lat="33.5952264" lon="132.8439129"><ele>803.8933333333334</ele><time>2024-04-28T02:26:59Z</time></trkpt><trkpt lat="33.5952776" lon="132.8441221"><ele>807.7066666666666</ele><time>2024-04-28T02:27:33Z</time></trkpt><trkpt lat="33.5953188" lon="132.8443402"><ele>813.3833333333333</ele><time>2024-04-28T02:27:54Z</time></trkpt><trkpt lat="33.5953566" lon="132.8445763"><ele>816.6966666666667</ele><time>2024-04-28T02:28:27Z</time></trkpt><trkpt lat="33.5953511" lon="132.8448174"><ele>818.0833333333334</ele><time>2024-04-28T02:28:48Z</time></trkpt><trkpt lat="33.5953545" lon="132.8450674"><ele>819.9966666666668</ele><time>2024-04-28T02:29:12Z</time></trkpt><trkpt lat="33.595339" lon="132.8453162"><ele>822.0500000000001</ele><time>2024-04-28T02:29:32Z</time></trkpt><trkpt lat="33.5953286" lon="132.8455619"><ele>825.0433333333334</ele><time>2024-04-28T02:29:53Z</time></trkpt><trkpt lat="33.5953671" lon="132.8457859"><ele>829.4866666666667</ele><time>2024-04-28T02:30:13Z</time></trkpt><trkpt lat="33.5954165" lon="132.8460053"><ele>834.4666666666667</ele><time>2024-04-28T02:30:53Z</time></trkpt><trkpt lat="33.5952536" lon="132.8458751"><ele>838.5366666666667</ele><time>2024-04-28T02:31:55Z</time></trkpt><trkpt lat="33.5951846" lon="132.8456676"><ele>840.35</ele><time>2024-04-28T02:32:12Z</time></trkpt><trkpt lat="33.5950905" lon="132.8454603"><ele>841.3666666666667</ele><time>2024-04-28T02:32:45Z</time></trkpt><trkpt lat="33.594985" lon="132.8452761"><ele>843.0033333333334</ele><time>2024-04-28T02:33:02Z</time></trkpt><trkpt lat="33.5948027" lon="132.8452309"><ele>847.8866666666667</ele><time>2024-04-28T02:33:42Z</time></trkpt><trkpt lat="33.5946695" lon="132.8453892"><ele>854.07</ele><time>2024-04-28T02:34:32Z</time></trkpt><trkpt lat="33.5945546" lon="132.8455651"><ele>861.68</ele><time>2024-04-28T02:35:22Z</time></trkpt><trkpt lat="33.5944816" lon="132.8457908"><ele>866.5866666666667</ele><time>2024-04-28T02:40:55Z</time></trkpt><trkpt lat="33.5944794" lon="132.8460202"><ele>869.5166666666668</ele><time>2024-04-28T02:41:25Z</time></trkpt><trkpt lat="33.5945877" lon="132.8462022"><ele>870.2666666666668</ele><time>2024-04-28T02:42:24Z</time></trkpt><trkpt lat="33.5947141" lon="132.8463685"><ele>870.9500000000002</ele><time>2024-04-28T02:43:12Z</time></trkpt><trkpt lat="33.5947792" lon="132.8465764"><ele>871.5799999999999</ele><time>2024-04-28T02:43:47Z</time></trkpt><trkpt lat="33.5946871" lon="132.8467647"><ele>872.2966666666667</ele><time>2024-04-28T02:45:27Z</time></trkpt><trkpt lat="33.5946183" lon="132.8469712"><ele>872.9366666666668</ele><time>2024-04-28T02:47:44Z</time></trkpt><trkpt lat="33.5945539" lon="132.8471734"><ele>873.7166666666667</ele><time>2024-04-28T02:48:59Z</time></trkpt><trkpt lat="33.594458" lon="132.8473832"><ele>874.1933333333333</ele><time>2024-04-28T02:49:44Z</time></trkpt><trkpt lat="33.5943049" lon="132.8475145"><ele>874.4433333333333</ele><time>2024-04-28T02:50:08Z</time></trkpt><trkpt lat="33.594104" lon="132.8475599"><ele>874.6366666666667</ele><time>2024-04-28T02:51:17Z</time></trkpt><trkpt lat="33.5939156" lon="132.8475881"><ele>875.39</ele><time>2024-04-28T02:51:54Z</time></trkpt><trkpt lat="33.5937799" lon="132.8477678"><ele>876.39</ele><time>2024-04-28T02:52:38Z</time></trkpt><trkpt lat="33.5936382" lon="132.8479233"><ele>877.6733333333333</ele><time>2024-04-28T02:53:14Z</time></trkpt><trkpt lat="33.5935086" lon="132.8480805"><ele>879.3033333333334</ele><time>2024-04-28T02:53:56Z</time></trkpt><trkpt lat="33.5933679" lon="132.848224"><ele>881.84</ele><time>2024-04-28T02:55:28Z</time></trkpt><trkpt lat="33.5932048" lon="132.848326"><ele>885.3800000000001</ele><time>2024-04-28T02:56:13Z</time></trkpt><trkpt lat="33.5930698" lon="132.8484749"><ele>888.9333333333334</ele><time>2024-04-28T02:56:58Z</time></trkpt><trkpt lat="33.5928769" lon="132.8485438"><ele>892.8133333333334</ele><time>2024-04-28T02:58:07Z</time></trkpt><trkpt lat="33.5927397" lon="132.8486923"><ele>896.3566666666667</ele><time>2024-04-28T02:59:16Z</time></trkpt><trkpt lat="33.5925885" lon="132.8488209"><ele>899.07</ele><time>2024-04-28T03:00:53Z</time></trkpt><trkpt lat="33.5926584" lon="132.8486131"><ele>900.0566666666667</ele><time>2024-04-28T03:10:40Z</time></trkpt><trkpt lat="33.5927427" lon="132.8483927"><ele>898.9066666666668</ele><time>2024-04-28T03:10:58Z</time></trkpt><trkpt lat="33.5929094" lon="132.8482921"><ele>896.5300000000001</ele><time>2024-04-28T03:11:18Z</time></trkpt><trkpt lat="33.5930896" lon="132.8483228"><ele>894.0766666666667</ele><time>2024-04-28T03:12:22Z</time></trkpt><trkpt lat="33.593257" lon="132.8482108"><ele>890.7199999999999</ele><time>2024-04-28T03:13:01Z</time></trkpt><trkpt lat="33.5934532" lon="132.8481939"><ele>887.5866666666667</ele><time>2024-04-28T03:13:42Z</time></trkpt><trkpt lat="33.5936002" lon="132.848032"><ele>883.2166666666667</ele><time>2024-04-28T03:14:34Z</time></trkpt><trkpt lat="33.5937092" lon="132.8478527"><ele>880.4666666666667</ele><time>2024-04-28T03:15:04Z</time></trkpt><trkpt lat="33.5938691" lon="132.8477107"><ele>878.1133333333333</ele><time>2024-04-28T03:15:27Z</time></trkpt><trkpt lat="33.5940615" lon="132.8476254"><ele>876.3233333333334</ele><time>2024-04-28T03:15:57Z</time></trkpt><trkpt lat="33.5942537" lon="132.847579"><ele>874.6633333333334</ele><time>2024-04-28T03:16:28Z</time></trkpt><trkpt lat="33.5944191" lon="132.8474696"><ele>873.4433333333333</ele><time>2024-04-28T03:16:51Z</time></trkpt><trkpt lat="33.5945656" lon="132.8472944"><ele>873.2066666666666</ele><time>2024-04-28T03:17:15Z</time></trkpt><trkpt lat="33.5945874" lon="132.8470757"><ele>873.5233333333334</ele><time>2024-04-28T03:17:39Z</time></trkpt><trkpt lat="33.5946536" lon="132.8468582"><ele>873.7199999999999</ele><time>2024-04-28T03:18:04Z</time></trkpt><trkpt lat="33.5948002" lon="132.8467083"><ele>873.3466666666667</ele><time>2024-04-28T03:18:33Z</time></trkpt><trkpt lat="33.5947842" lon="132.8464786"><ele>872.5100000000001</ele><time>2024-04-28T03:19:33Z</time></trkpt><trkpt lat="33.5947799" lon="132.8462544"><ele>871.6</ele><time>2024-04-28T03:20:15Z</time></trkpt><trkpt lat="33.5947458" lon="132.846029"><ele>871.0433333333334</ele><time>2024-04-28T03:20:48Z</time></trkpt><trkpt lat="33.5945793" lon="132.8459444"><ele>870.7733333333334</ele><time>2024-04-28T03:21:57Z</time></trkpt><trkpt lat="33.5944636" lon="132.8457683"><ele>870.4266666666667</ele><time>2024-04-28T03:22:15Z</time></trkpt><trkpt lat="33.5944015" lon="132.8455575"><ele>869.21</ele><time>2024-04-28T03:22:36Z</time></trkpt><trkpt lat="33.5945242" lon="132.8453836"><ele>866.1033333333335</ele><time>2024-04-28T03:22:54Z</time></trkpt><trkpt lat="33.5947025" lon="132.8454687"><ele>863.4033333333333</ele><time>2024-04-28T03:23:18Z</time></trkpt><trkpt lat="33.5947062" lon="132.8456896"><ele>863.2133333333333</ele><time>2024-04-28T03:24:05Z</time></trkpt><trkpt lat="33.5948036" lon="132.8458719"><ele>864.9933333333333</ele><time>2024-04-28T03:25:05Z</time></trkpt><trkpt lat="33.5949846" lon="132.8459044"><ele>863.66</ele><time>2024-04-28T03:26:32Z</time></trkpt><trkpt lat="33.5950721" lon="132.8460932"><ele>861.1933333333333</ele><time>2024-04-28T03:27:02Z</time></trkpt><trkpt lat="33.595134" lon="132.8463208"><ele>857.3733333333333</ele><time>2024-04-28T03:27:56Z</time></trkpt><trkpt lat="33.5953148" lon="132.8463807"><ele>855.7166666666667</ele><time>2024-04-28T03:28:11Z</time></trkpt><trkpt lat="33.5955102" lon="132.8463728"><ele>851.9566666666666</ele><time>2024-04-28T03:28:27Z</time></trkpt><trkpt lat="33.5954453" lon="132.8461675"><ele>848.8033333333333</ele><time>2024-04-28T03:28:56Z</time></trkpt><trkpt lat="33.5954062" lon="132.8459451"><ele>843.3000000000001</ele><time>2024-04-28T03:29:11Z</time></trkpt><trkpt lat="33.5953907" lon="132.8456796"><ele>837.1766666666666</ele><time>2024-04-28T03:29:26Z</time></trkpt><trkpt lat="33.5955456" lon="132.8458423"><ele>831.1466666666665</ele><time>2024-04-28T03:29:55Z</time></trkpt><trkpt lat="33.5956736" lon="132.8460175"><ele>830.2800000000001</ele><time>2024-04-28T03:30:16Z</time></trkpt><trkpt lat="33.5958817" lon="132.8461105"><ele>830.1833333333334</ele><time>2024-04-28T03:30:34Z</time></trkpt><trkpt lat="33.5960605" lon="132.8462312"><ele>828.94</ele><time>2024-04-28T03:30:49Z</time></trkpt><trkpt lat="33.5962657" lon="132.846174"><ele>824.3733333333333</ele><time>2024-04-28T03:31:04Z</time></trkpt><trkpt lat="33.596205" lon="132.845932"><ele>820.2600000000001</ele><time>2024-04-28T03:31:19Z</time></trkpt><trkpt lat="33.5963901" lon="132.8458531"><ele>816.86</ele><time>2024-04-28T03:31:42Z</time></trkpt><trkpt lat="33.5965772" lon="132.8458946"><ele>814.2199999999999</ele><time>2024-04-28T03:31:57Z</time></trkpt><trkpt lat="33.5967716" lon="132.8459169"><ele>812.5799999999999</ele><time>2024-04-28T03:32:15Z</time></trkpt><trkpt lat="33.596965" lon="132.8459639"><ele>810.96</ele><time>2024-04-28T03:32:36Z</time></trkpt><trkpt lat="33.5971652" lon="132.84602"><ele>808.7400000000001</ele><time>2024-04-28T03:32:56Z</time></trkpt><trkpt lat="33.597278" lon="132.8462143"><ele>804.57</ele><time>2024-04-28T03:33:38Z</time></trkpt><trkpt lat="33.597451" lon="132.8463067"><ele>799.2833333333333</ele><time>2024-04-28T03:34:47Z</time></trkpt><trkpt lat="33.5976351" lon="132.8463177"><ele>792.4899999999999</ele><time>2024-04-28T03:35:21Z</time></trkpt><trkpt lat="33.5978248" lon="132.8462635"><ele>784.61</ele><time>2024-04-28T03:35:50Z</time></trkpt><trkpt lat="33.5979589" lon="132.8461067"><ele>778.48</ele><time>2024-04-28T03:36:17Z</time></trkpt><trkpt lat="33.5981421" lon="132.846052"><ele>772.2533333333334</ele><time>2024-04-28T03:37:04Z</time></trkpt><trkpt lat="33.5983094" lon="132.8459707"><ele>766.6166666666667</ele><time>2024-04-28T03:37:25Z</time></trkpt><trkpt lat="33.5984994" lon="132.846012"><ele>758.91</ele><time>2024-04-28T03:37:51Z</time></trkpt><trkpt lat="33.5986942" lon="132.8460595"><ele>751.89</ele><time>2024-04-28T03:38:24Z</time></trkpt><trkpt lat="33.5988821" lon="132.8461001"><ele>746.4200000000001</ele><time>2024-04-28T03:38:47Z</time></trkpt><trkpt lat="33.5990647" lon="132.8460535"><ele>742.81</ele><time>2024-04-28T03:39:02Z</time></trkpt><trkpt lat="33.5992413" lon="132.846002"><ele>740.4533333333334</ele><time>2024-04-28T03:39:25Z</time></trkpt><trkpt lat="33.5994232" lon="132.8459086"><ele>738.3166666666666</ele><time>2024-04-28T03:42:47Z</time></trkpt><trkpt lat="33.5996268" lon="132.8458791"><ele>735.71</ele><time>2024-04-28T03:43:07Z</time></trkpt><trkpt lat="33.599827" lon="132.8458403"><ele>733.4033333333333</ele><time>2024-04-28T03:43:27Z</time></trkpt><trkpt lat="33.6000083" lon="132.8457718"><ele>731.11</ele><time>2024-04-28T03:43:47Z</time></trkpt><trkpt lat="33.6001919" lon="132.8457572"><ele>728.9166666666666</ele><time>2024-04-28T03:44:02Z</time></trkpt><trkpt lat="33.600376" lon="132.8456785"><ele>727.8166666666667</ele><time>2024-04-28T03:44:53Z</time></trkpt><trkpt lat="33.6005327" lon="132.8455152"><ele>729.1033333333334</ele><time>2024-04-28T03:45:33Z</time></trkpt><trkpt lat="33.6006588" lon="132.8453487"><ele>731.3633333333333</ele><time>2024-04-28T03:45:50Z</time></trkpt><trkpt lat="33.6007871" lon="132.8451896"><ele>732.02</ele><time>2024-04-28T03:46:08Z</time></trkpt><trkpt lat="33.6009303" lon="132.8450247"><ele>729.4466666666667</ele><time>2024-04-28T03:46:26Z</time></trkpt><trkpt lat="33.6011194" lon="132.8450087"><ele>726.8966666666666</ele><time>2024-04-28T03:46:43Z</time></trkpt><trkpt lat="33.6012855" lon="132.8451025"><ele>725.6433333333334</ele><time>2024-04-28T03:47:02Z</time></trkpt><trkpt lat="33.6014168" lon="132.8452742"><ele>727.5100000000001</ele><time>2024-04-28T03:47:28Z</time></trkpt><trkpt lat="33.6015891" lon="132.8453871"><ele>729.7966666666667</ele><time>2024-04-28T03:47:45Z</time></trkpt><trkpt lat="33.6017714" lon="132.845427"><ele>731.9966666666668</ele><time>2024-04-28T03:48:00Z</time></trkpt><trkpt lat="33.6019603" lon="132.8454359"><ele>731.84</ele><time>2024-04-28T03:48:20Z</time></trkpt><trkpt lat="33.6020875" lon="132.84527"><ele>729.2933333333334</ele><time>2024-04-28T03:48:42Z</time></trkpt><trkpt lat="33.6022748" lon="132.8452324"><ele>725.64</ele><time>2024-04-28T03:49:02Z</time></trkpt><trkpt lat="33.6024365" lon="132.8450884"><ele>723.1233333333333</ele><time>2024-04-28T03:49:23Z</time></trkpt><trkpt lat="33.6026027" lon="132.8449854"><ele>722.7199999999999</ele><time>2024-04-28T03:49:38Z</time></trkpt><trkpt lat="33.6027943" lon="132.8449097"><ele>725.39</ele><time>2024-04-28T03:50:02Z</time></trkpt><trkpt lat="33.6029487" lon="132.8447847"><ele>729.4866666666667</ele><time>2024-04-28T03:50:41Z</time></trkpt><trkpt lat="33.6031295" lon="132.8447507"><ele>734.4866666666667</ele><time>2024-04-28T03:54:27Z</time></trkpt><trkpt lat="33.6033015" lon="132.8446579"><ele>737.77</ele><time>2024-04-28T03:54:56Z</time></trkpt><trkpt lat="33.6034889" lon="132.8446452"><ele>738.1266666666667</ele><time>2024-04-28T03:55:22Z</time></trkpt><trkpt lat="33.6036889" lon="132.8446573"><ele>738.9900000000001</ele><time>2024-04-28T03:55:51Z</time></trkpt><trkpt lat="33.6038594" lon="132.8447309"><ele>741.07</ele><time>2024-04-28T03:56:24Z</time></trkpt><trkpt lat="33.6040387" lon="132.8448121"><ele>745.79</ele><time>2024-04-28T03:56:57Z</time></trkpt><trkpt lat="33.6042172" lon="132.8448541"><ele>750.9266666666666</ele><time>2024-04-28T03:57:48Z</time></trkpt><trkpt lat="33.6043849" lon="132.8449533"><ele>755.4066666666668</ele><time>2024-04-28T03:58:18Z</time></trkpt><trkpt lat="33.6045706" lon="132.8450023"><ele>760.9066666666668</ele><time>2024-04-28T03:59:09Z</time></trkpt><trkpt lat="33.6047624" lon="132.8449589"><ele>765.8066666666667</ele><time>2024-04-28T03:59:54Z</time></trkpt><trkpt lat="33.604939" lon="132.8448668"><ele>770.54</ele><time>2024-04-28T04:00:16Z</time></trkpt><trkpt lat="33.6051108" lon="132.844761"><ele>773.4266666666667</ele><time>2024-04-28T04:00:51Z</time></trkpt><trkpt lat="33.6052889" lon="132.8446929"><ele>775.9500000000002</ele><time>2024-04-28T04:01:15Z</time></trkpt><trkpt lat="33.6054486" lon="132.8445748"><ele>778.9633333333335</ele><time>2024-04-28T04:01:57Z</time></trkpt><trkpt lat="33.6056103" lon="132.8444788"><ele>783.0433333333334</ele><time>2024-04-28T04:02:21Z</time></trkpt><trkpt lat="33.6057643" lon="132.844364"><ele>788.6700000000001</ele><time>2024-04-28T04:02:58Z</time></trkpt><trkpt lat="33.6059562" lon="132.8443672"><ele>794.3833333333333</ele><time>2024-04-28T04:03:46Z</time></trkpt><trkpt lat="33.6061497" lon="132.844344"><ele>799.8233333333334</ele><time>2024-04-28T04:04:43Z</time></trkpt><trkpt lat="33.6063445" lon="132.8443102"><ele>803.2933333333334</ele><time>2024-04-28T04:05:20Z</time></trkpt><trkpt lat="33.6065268" lon="132.8442866"><ele>806.2933333333334</ele><time>2024-04-28T04:05:40Z</time></trkpt><trkpt lat="33.6067262" lon="132.8442392"><ele>809.0333333333333</ele><time>2024-04-28T04:06:11Z</time></trkpt><trkpt lat="33.6069094" lon="132.8442871"><ele>813.32</ele><time>2024-04-28T04:07:01Z</time></trkpt><trkpt lat="33.6070854" lon="132.8443467"><ele>817.5166666666668</ele><time>2024-04-28T04:07:29Z</time></trkpt><trkpt lat="33.6072759" lon="132.8442937"><ele>820.7733333333334</ele><time>2024-04-28T04:08:04Z</time></trkpt><trkpt lat="33.6074251" lon="132.8441578"><ele>821.7866666666667</ele><time>2024-04-28T04:09:07Z</time></trkpt><trkpt lat="33.6075715" lon="132.8442957"><ele>822.1066666666667</ele><time>2024-04-28T04:10:08Z</time></trkpt><trkpt lat="33.6074982" lon="132.8445097"><ele>821.94</ele><time>2024-04-28T04:10:43Z</time></trkpt><trkpt lat="33.6074344" lon="132.844723"><ele>820.2166666666667</ele><time>2024-04-28T04:11:04Z</time></trkpt><trkpt lat="33.6075283" lon="132.8449537"><ele>816.7866666666667</ele><time>2024-04-28T04:11:27Z</time></trkpt><trkpt lat="33.6076572" lon="132.8451047"><ele>812.19</ele><time>2024-04-28T04:11:48Z</time></trkpt><trkpt lat="33.6075716" lon="132.8453086"><ele>809.1166666666667</ele><time>2024-04-28T04:12:55Z</time></trkpt><trkpt lat="33.6075276" lon="132.8455275"><ele>808.4666666666667</ele><time>2024-04-28T04:13:37Z</time></trkpt><trkpt lat="33.6075035" lon="132.8457557"><ele>809.9166666666666</ele><time>2024-04-28T04:14:24Z</time></trkpt><trkpt lat="33.6076274" lon="132.8459223"><ele>811.57</ele><time>2024-04-28T04:14:51Z</time></trkpt><trkpt lat="33.607805" lon="132.8459924"><ele>812.2433333333333</ele><time>2024-04-28T04:17:29Z</time></trkpt><trkpt lat="33.6079827" lon="132.8460534"><ele>812.0933333333332</ele><time>2024-04-28T04:17:56Z</time></trkpt><trkpt lat="33.608137" lon="132.8462208"><ele>811.5066666666667</ele><time>2024-04-28T04:18:21Z</time></trkpt><trkpt lat="33.6083059" lon="132.8463561"><ele>810.4233333333333</ele><time>2024-04-28T04:18:41Z</time></trkpt><trkpt lat="33.6084375" lon="132.8465186"><ele>808.5066666666668</ele><time>2024-04-28T04:18:59Z</time></trkpt><trkpt lat="33.6085407" lon="132.8467078"><ele>805.93</ele><time>2024-04-28T04:19:23Z</time></trkpt><trkpt lat="33.6085968" lon="132.8469187"><ele>804.0266666666666</ele><time>2024-04-28T04:19:46Z</time></trkpt><trkpt lat="33.6086616" lon="132.8471452"><ele>803.1500000000001</ele><time>2024-04-28T04:20:07Z</time></trkpt><trkpt lat="33.6086822" lon="132.8473715"><ele>803.1233333333333</ele><time>2024-04-28T04:20:28Z</time></trkpt><trkpt lat="33.6086734" lon="132.847589"><ele>803.06</ele><time>2024-04-28T04:20:46Z</time></trkpt><trkpt lat="33.6085977" lon="132.8477863"><ele>802.9133333333333</ele><time>2024-04-28T04:21:17Z</time></trkpt><trkpt lat="33.6085943" lon="132.8480119"><ele>802.9</ele><time>2024-04-28T04:21:38Z</time></trkpt><trkpt lat="33.6085193" lon="132.8482314"><ele>802.66</ele><time>2024-04-28T04:22:25Z</time></trkpt><trkpt lat="33.6085277" lon="132.8484524"><ele>802.91</ele><time>2024-04-28T04:22:49Z</time></trkpt><trkpt lat="33.608526" lon="132.848673"><ele>803.7533333333334</ele><time>2024-04-28T04:23:11Z</time></trkpt><trkpt lat="33.6084664" lon="132.8489028"><ele>805.6366666666667</ele><time>2024-04-28T04:24:16Z</time></trkpt><trkpt lat="33.6084667" lon="132.8491226"><ele>808.2466666666666</ele><time>2024-04-28T04:24:52Z</time></trkpt><trkpt lat="33.6085826" lon="132.8493001"><ele>810.0966666666667</ele><time>2024-04-28T04:25:30Z</time></trkpt><trkpt lat="33.6087043" lon="132.849478"><ele>810.8666666666667</ele><time>2024-04-28T04:25:57Z</time></trkpt><trkpt lat="33.608849" lon="132.8496309"><ele>810.0799999999999</ele><time>2024-04-28T04:26:24Z</time></trkpt><trkpt lat="33.608987" lon="132.8497875"><ele>808.6433333333334</ele><time>2024-04-28T04:26:55Z</time></trkpt><trkpt lat="33.6091442" lon="132.8499129"><ele>807.8800000000001</ele><time>2024-04-28T04:27:18Z</time></trkpt><trkpt lat="33.6093051" lon="132.8500497"><ele>808.37</ele><time>2024-04-28T04:27:45Z</time></trkpt><trkpt lat="33.6094949" lon="132.8501001"><ele>809.9233333333333</ele><time>2024-04-28T04:28:11Z</time></trkpt><trkpt lat="33.6096587" lon="132.8502382"><ele>811.3766666666667</ele><time>2024-04-28T04:29:03Z</time></trkpt><trkpt lat="33.609747" lon="132.8504468"><ele>812.5766666666667</ele><time>2024-04-28T04:29:30Z</time></trkpt><trkpt lat="33.6098323" lon="132.850659"><ele>814.5099999999999</ele><time>2024-04-28T04:29:52Z</time></trkpt><trkpt lat="33.6099302" lon="132.8508582"><ele>817.08</ele><time>2024-04-28T04:30:17Z</time></trkpt><trkpt lat="33.6100515" lon="132.8510403"><ele>819.0966666666668</ele><time>2024-04-28T04:30:41Z</time></trkpt><trkpt lat="33.6101616" lon="132.8512156"><ele>820.4000000000001</ele><time>2024-04-28T04:31:07Z</time></trkpt><trkpt lat="33.6103058" lon="132.8513853"><ele>820.32</ele><time>2024-04-28T04:31:31Z</time></trkpt><trkpt lat="33.6104179" lon="132.8515728"><ele>817.71</ele><time>2024-04-28T04:31:55Z</time></trkpt><trkpt lat="33.6105798" lon="132.8516778"><ele>813.1333333333333</ele><time>2024-04-28T04:32:31Z</time></trkpt><trkpt lat="33.6107424" lon="132.851793"><ele>808.8933333333333</ele><time>2024-04-28T04:40:22Z</time></trkpt><trkpt lat="33.610887" lon="132.8519231"><ele>808.9033333333333</ele><time>2024-04-28T04:40:52Z</time></trkpt><trkpt lat="33.6110476" lon="132.8520677"><ele>813.0266666666666</ele><time>2024-04-28T04:41:26Z</time></trkpt><trkpt lat="33.6112233" lon="132.8521557"><ele>819.2033333333334</ele><time>2024-04-28T04:41:58Z</time></trkpt><trkpt lat="33.6113874" lon="132.8522792"><ele>825.8966666666666</ele><time>2024-04-28T04:42:35Z</time></trkpt><trkpt lat="33.6115524" lon="132.8523748"><ele>831.9766666666668</ele><time>2024-04-28T04:43:22Z</time></trkpt><trkpt lat="33.6117186" lon="132.8524773"><ele>839.5166666666668</ele><time>2024-04-28T04:44:32Z</time></trkpt><trkpt lat="33.611894" lon="132.852561"><ele>846.9499999999999</ele><time>2024-04-28T04:45:11Z</time></trkpt><trkpt lat="33.6120763" lon="132.8525727"><ele>852.5466666666667</ele><time>2024-04-28T04:54:32Z</time></trkpt><trkpt lat="33.6118803" lon="132.8524765"><ele>854.2033333333333</ele><time>2024-04-28T05:00:31Z</time></trkpt><trkpt lat="33.6117092" lon="132.8523845"><ele>850.9033333333333</ele><time>2024-04-28T05:00:48Z</time></trkpt><trkpt lat="33.6115433" lon="132.8522947"><ele>844.0766666666667</ele><time>2024-04-28T05:02:46Z</time></trkpt><trkpt lat="33.6113777" lon="132.8521985"><ele>836.8299999999999</ele><time>2024-04-28T05:03:42Z</time></trkpt><trkpt lat="33.6112182" lon="132.8520924"><ele>830.4633333333333</ele><time>2024-04-28T05:04:02Z</time></trkpt><trkpt lat="33.6110435" lon="132.8520047"><ele>824.7133333333335</ele><time>2024-04-28T05:04:26Z</time></trkpt><trkpt lat="33.6109062" lon="132.851853"><ele>818.1199999999999</ele><time>2024-04-28T05:04:52Z</time></trkpt><trkpt lat="33.6107493" lon="132.8517291"><ele>811.2866666666667</ele><time>2024-04-28T05:05:18Z</time></trkpt><trkpt lat="33.6105898" lon="132.8516203"><ele>808.1633333333333</ele><time>2024-04-28T05:05:51Z</time></trkpt><trkpt lat="33.6104208" lon="132.8515162"><ele>809.0133333333333</ele><time>2024-04-28T05:06:33Z</time></trkpt><trkpt lat="33.610261" lon="132.8513848"><ele>813.91</ele><time>2024-04-28T05:06:57Z</time></trkpt><trkpt lat="33.6101488" lon="132.8511884"><ele>818.3866666666668</ele><time>2024-04-28T05:07:20Z</time></trkpt><trkpt lat="33.6100383" lon="132.8509935"><ele>820.6633333333334</ele><time>2024-04-28T05:07:41Z</time></trkpt><trkpt lat="33.609916" lon="132.8507826"><ele>820.0833333333334</ele><time>2024-04-28T05:07:59Z</time></trkpt><trkpt lat="33.6098263" lon="132.8505856"><ele>818.43</ele><time>2024-04-28T05:08:13Z</time></trkpt><trkpt lat="33.6097696" lon="132.8503733"><ele>815.7800000000001</ele><time>2024-04-28T05:08:28Z</time></trkpt><trkpt lat="33.6096352" lon="132.8501919"><ele>813.48</ele><time>2024-04-28T05:08:46Z</time></trkpt><trkpt lat="33.6094807" lon="132.8500165"><ele>811.4233333333333</ele><time>2024-04-28T05:09:03Z</time></trkpt><trkpt lat="33.6093412" lon="132.8498656"><ele>810.1166666666668</ele><time>2024-04-28T05:09:17Z</time></trkpt><trkpt lat="33.60919" lon="132.8497185"><ele>808.4266666666667</ele><time>2024-04-28T05:09:35Z</time></trkpt><trkpt lat="33.6090206" lon="132.8496167"><ele>807.5133333333333</ele><time>2024-04-28T05:09:52Z</time></trkpt><trkpt lat="33.6088242" lon="132.849552"><ele>807.7366666666667</ele><time>2024-04-28T05:10:16Z</time></trkpt><trkpt lat="33.6087071" lon="132.8493842"><ele>808.9966666666666</ele><time>2024-04-28T05:10:41Z</time></trkpt><trkpt lat="33.6085863" lon="132.8492216"><ele>810.13</ele><time>2024-04-28T05:11:08Z</time></trkpt><trkpt lat="33.6085868" lon="132.8489971"><ele>809.1</ele><time>2024-04-28T05:12:04Z</time></trkpt><trkpt lat="33.6085878" lon="132.8487581"><ele>807.2666666666665</ele><time>2024-04-28T05:12:24Z</time></trkpt><trkpt lat="33.60863" lon="132.8485295"><ele>803.7866666666665</ele><time>2024-04-28T05:12:44Z</time></trkpt><trkpt lat="33.6085826" lon="132.8482927"><ele>802.37</ele><time>2024-04-28T05:13:14Z</time></trkpt><trkpt lat="33.6086642" lon="132.8480714"><ele>801.4</ele><time>2024-04-28T05:13:35Z</time></trkpt><trkpt lat="33.6086628" lon="132.8478468"><ele>802.38</ele><time>2024-04-28T05:14:04Z</time></trkpt><trkpt lat="33.6087319" lon="132.8476151"><ele>802.4399999999999</ele><time>2024-04-28T05:14:34Z</time></trkpt><trkpt lat="33.6087207" lon="132.8473763"><ele>802.9500000000002</ele><time>2024-04-28T05:14:58Z</time></trkpt><trkpt lat="33.6087187" lon="132.8471245"><ele>802.9633333333333</ele><time>2024-04-28T05:15:19Z</time></trkpt><trkpt lat="33.6086533" lon="132.8468894"><ele>803.2066666666666</ele><time>2024-04-28T05:15:39Z</time></trkpt><trkpt lat="33.6086071" lon="132.8466725"><ele>803.54</ele><time>2024-04-28T05:15:57Z</time></trkpt><trkpt lat="33.6084914" lon="132.8465022"><ele>804.3800000000001</ele><time>2024-04-28T05:16:17Z</time></trkpt><trkpt lat="33.6083467" lon="132.8463401"><ele>805.94</ele><time>2024-04-28T05:16:38Z</time></trkpt><trkpt lat="33.6081892" lon="132.8462125"><ele>808.0533333333333</ele><time>2024-04-28T05:17:00Z</time></trkpt><trkpt lat="33.6080368" lon="132.8460749"><ele>810.0033333333334</ele><time>2024-04-28T05:17:27Z</time></trkpt><trkpt lat="33.6078489" lon="132.8459813"><ele>811.2866666666667</ele><time>2024-04-28T05:17:51Z</time></trkpt><trkpt lat="33.6076869" lon="132.845865"><ele>811.93</ele><time>2024-04-28T05:18:17Z</time></trkpt><trkpt lat="33.6075742" lon="132.8456674"><ele>811.9266666666666</ele><time>2024-04-28T05:19:02Z</time></trkpt><trkpt lat="33.6074001" lon="132.8455633"><ele>811.3466666666667</ele><time>2024-04-28T05:19:44Z</time></trkpt><trkpt lat="33.6074738" lon="132.8453572"><ele>810.0600000000001</ele><time>2024-04-28T05:20:53Z</time></trkpt><trkpt lat="33.6075417" lon="132.8451551"><ele>809.0666666666666</ele><time>2024-04-28T05:21:13Z</time></trkpt><trkpt lat="33.607529" lon="132.8449266"><ele>809.6933333333333</ele><time>2024-04-28T05:22:37Z</time></trkpt><trkpt lat="33.6073942" lon="132.8447742"><ele>812.8299999999999</ele><time>2024-04-28T05:23:22Z</time></trkpt><trkpt lat="33.6073641" lon="132.8445493"><ele>816.9233333333333</ele><time>2024-04-28T05:23:55Z</time></trkpt><trkpt lat="33.6073193" lon="132.8443223"><ele>820.19</ele><time>2024-04-28T05:24:19Z</time></trkpt><trkpt lat="33.6072095" lon="132.8441166"><ele>821.0633333333335</ele><time>2024-04-28T05:24:46Z</time></trkpt><trkpt lat="33.6071998" lon="132.8438824"><ele>819.2466666666668</ele><time>2024-04-28T05:25:14Z</time></trkpt><trkpt lat="33.6072385" lon="132.8436697"><ele>816.1166666666668</ele><time>2024-04-28T05:25:47Z</time></trkpt><trkpt lat="33.6072185" lon="132.8434419"><ele>812.9966666666668</ele><time>2024-04-28T05:26:01Z</time></trkpt><trkpt lat="33.6071733" lon="132.8431972"><ele>809.7633333333333</ele><time>2024-04-28T05:26:16Z</time></trkpt><trkpt lat="33.6071473" lon="132.842967"><ele>806.39</ele><time>2024-04-28T05:26:31Z</time></trkpt><trkpt lat="33.607127" lon="132.8427283"><ele>802.6133333333333</ele><time>2024-04-28T05:26:49Z</time></trkpt><trkpt lat="33.6070872" lon="132.8425036"><ele>799.15</ele><time>2024-04-28T05:27:04Z</time></trkpt><trkpt lat="33.6069381" lon="132.8426554"><ele>795.0266666666666</ele><time>2024-04-28T05:27:22Z</time></trkpt><trkpt lat="33.6067589" lon="132.8426023"><ele>788.7566666666667</ele><time>2024-04-28T05:27:52Z</time></trkpt><trkpt lat="33.606689" lon="132.8423691"><ele>782.4166666666666</ele><time>2024-04-28T05:28:12Z</time></trkpt><trkpt lat="33.6066007" lon="132.8421398"><ele>775.0733333333334</ele><time>2024-04-28T05:28:29Z</time></trkpt><trkpt lat="33.6065358" lon="132.8419205"><ele>769.6933333333333</ele><time>2024-04-28T05:28:47Z</time></trkpt><trkpt lat="33.6064197" lon="132.8417263"><ele>764.6933333333333</ele><time>2024-04-28T05:29:02Z</time></trkpt><trkpt lat="33.6063903" lon="132.8415131"><ele>761.19</ele><time>2024-04-28T05:29:17Z</time></trkpt><trkpt lat="33.6062815" lon="132.8413322"><ele>757.3866666666667</ele><time>2024-04-28T05:29:33Z</time></trkpt><trkpt lat="33.6061424" lon="132.8411511"><ele>752.3833333333333</ele><time>2024-04-28T05:29:50Z</time></trkpt><trkpt lat="33.6060793" lon="132.8409295"><ele>747.5266666666666</ele><time>2024-04-28T05:30:46Z</time></trkpt><trkpt lat="33.6060132" lon="132.8406996"><ele>742.3533333333334</ele><time>2024-04-28T05:31:52Z</time></trkpt><trkpt lat="33.6059423" lon="132.8404592"><ele>737.4066666666666</ele><time>2024-04-28T05:32:11Z</time></trkpt><trkpt lat="33.6059004" lon="132.8402286"><ele>732.75</ele><time>2024-04-28T05:32:30Z</time></trkpt><trkpt lat="33.6058611" lon="132.8399926"><ele>728.0300000000001</ele><time>2024-04-28T05:32:51Z</time></trkpt><trkpt lat="33.605819" lon="132.8397585"><ele>723.4533333333334</ele><time>2024-04-28T05:33:09Z</time></trkpt><trkpt lat="33.6057764" lon="132.8395478"><ele>718.7266666666668</ele><time>2024-04-28T05:33:25Z</time></trkpt><trkpt lat="33.6056237" lon="132.8396788"><ele>714.2566666666667</ele><time>2024-04-28T05:33:45Z</time></trkpt><trkpt lat="33.6054935" lon="132.8394961"><ele>709.8366666666667</ele><time>2024-04-28T05:34:18Z</time></trkpt><trkpt lat="33.6053391" lon="132.8393116"><ele>704.79</ele><time>2024-04-28T05:34:37Z</time></trkpt><trkpt lat="33.6052356" lon="132.8391005"><ele>699.3733333333333</ele><time>2024-04-28T05:35:03Z</time></trkpt><trkpt lat="33.6051725" lon="132.8388871"><ele>694.71</ele><time>2024-04-28T05:35:22Z</time></trkpt><trkpt lat="33.6051223" lon="132.8386663"><ele>691.1100000000001</ele><time>2024-04-28T05:35:36Z</time></trkpt><trkpt lat="33.6049269" lon="132.8387401"><ele>687.8666666666667</ele><time>2024-04-28T05:35:54Z</time></trkpt><trkpt lat="33.6047353" lon="132.8387655"><ele>684.02</ele><time>2024-04-28T05:36:28Z</time></trkpt><trkpt lat="33.6045602" lon="132.8386924"><ele>678.84</ele><time>2024-04-28T05:36:48Z</time></trkpt><trkpt lat="33.6043784" lon="132.83875"><ele>672.0066666666667</ele><time>2024-04-28T05:37:15Z</time></trkpt><trkpt lat="33.6043635" lon="132.8385312"><ele>666.8133333333334</ele><time>2024-04-28T05:38:34Z</time></trkpt><trkpt lat="33.6042924" lon="132.8382849"><ele>662.1433333333333</ele><time>2024-04-28T05:38:57Z</time></trkpt><trkpt lat="33.6042397" lon="132.8380678"><ele>659.2833333333333</ele><time>2024-04-28T05:39:15Z</time></trkpt><trkpt lat="33.6040613" lon="132.8381147"><ele>654.2766666666666</ele><time>2024-04-28T05:39:48Z</time></trkpt><trkpt lat="33.6039409" lon="132.8382871"><ele>648.5266666666666</ele><time>2024-04-28T05:40:02Z</time></trkpt><trkpt lat="33.6038543" lon="132.8385018"><ele>643.3333333333334</ele><time>2024-04-28T05:40:21Z</time></trkpt><trkpt lat="33.6038032" lon="132.8382889"><ele>639.0866666666667</ele><time>2024-04-28T05:40:46Z</time></trkpt><trkpt lat="33.6038911" lon="132.8380676"><ele>637.1266666666667</ele><time>2024-04-28T05:41:04Z</time></trkpt><trkpt lat="33.6037361" lon="132.8381885"><ele>634.3100000000001</ele><time>2024-04-28T05:41:24Z</time></trkpt><trkpt lat="33.603605" lon="132.8383706"><ele>631.4266666666667</ele><time>2024-04-28T05:41:41Z</time></trkpt><trkpt lat="33.6035328" lon="132.8385807"><ele>627.9133333333333</ele><time>2024-04-28T05:41:56Z</time></trkpt><trkpt lat="33.6034864" lon="132.8383463"><ele>624.1333333333333</ele><time>2024-04-28T05:42:26Z</time></trkpt><trkpt lat="33.6032948" lon="132.838404"><ele>619.21</ele><time>2024-04-28T05:42:53Z</time></trkpt><trkpt lat="33.603238" lon="132.8381746"><ele>612.5466666666666</ele><time>2024-04-28T05:43:50Z</time></trkpt><trkpt lat="33.6030941" lon="132.8380263"><ele>606.4466666666667</ele><time>2024-04-28T05:44:34Z</time></trkpt><trkpt lat="33.6030062" lon="132.8378239"><ele>600.9566666666666</ele><time>2024-04-28T05:44:55Z</time></trkpt><trkpt lat="33.6028753" lon="132.8376458"><ele>595.41</ele><time>2024-04-28T05:45:12Z</time></trkpt><trkpt lat="33.6027114" lon="132.8378206"><ele>590.88</ele><time>2024-04-28T05:45:27Z</time></trkpt><trkpt lat="33.60252" lon="132.8379484"><ele>587.5066666666667</ele><time>2024-04-28T05:45:51Z</time></trkpt><trkpt lat="33.6023242" lon="132.8380248"><ele>586.3133333333334</ele><time>2024-04-28T05:46:07Z</time></trkpt><trkpt lat="33.6021479" lon="132.8380984"><ele>585.0266666666666</ele><time>2024-04-28T05:46:24Z</time></trkpt><trkpt lat="33.6019973" lon="132.8382727"><ele>584.64</ele><time>2024-04-28T05:46:39Z</time></trkpt><trkpt lat="33.6018557" lon="132.8384608"><ele>581.9566666666666</ele><time>2024-04-28T05:46:55Z</time></trkpt><trkpt lat="33.6017456" lon="132.8386729"><ele>578.5300000000001</ele><time>2024-04-28T05:47:09Z</time></trkpt><trkpt lat="33.6017081" lon="132.8388999"><ele>575.9666666666667</ele><time>2024-04-28T05:47:24Z</time></trkpt><trkpt lat="33.6016133" lon="132.8391035"><ele>575.43</ele><time>2024-04-28T05:47:39Z</time></trkpt><trkpt lat="33.6015778" lon="132.8393629"><ele>575.77</ele><time>2024-04-28T05:47:54Z</time></trkpt><trkpt lat="33.6016028" lon="132.8396249"><ele>575.3299999999999</ele><time>2024-04-28T05:48:09Z</time></trkpt><trkpt lat="33.6016232" lon="132.839849"><ele>575.8866666666667</ele><time>2024-04-28T05:48:24Z</time></trkpt><trkpt lat="33.6016128" lon="132.8401062"><ele>576.6033333333334</ele><time>2024-04-28T05:48:43Z</time></trkpt><trkpt lat="33.6016175" lon="132.8403457"><ele>577.1</ele><time>2024-04-28T05:48:57Z</time></trkpt><trkpt lat="33.6015868" lon="132.8405991"><ele>574.5300000000001</ele><time>2024-04-28T05:49:12Z</time></trkpt><trkpt lat="33.6015721" lon="132.840825"><ele>571.8733333333334</ele><time>2024-04-28T05:49:25Z</time></trkpt><trkpt lat="33.6015172" lon="132.8410811"><ele>568.7166666666667</ele><time>2024-04-28T05:49:43Z</time></trkpt><trkpt lat="33.6013787" lon="132.8412805"><ele>567.6466666666666</ele><time>2024-04-28T05:50:00Z</time></trkpt><trkpt lat="33.6012131" lon="132.8414134"><ele>566.7166666666666</ele><time>2024-04-28T05:50:12Z</time></trkpt><trkpt lat="33.6010789" lon="132.8415743"><ele>566.5366666666667</ele><time>2024-04-28T05:50:24Z</time></trkpt><trkpt lat="33.6009571" lon="132.8413983"><ele>564.95</ele><time>2024-04-28T05:50:42Z</time></trkpt><trkpt lat="33.6011103" lon="132.8412705"><ele>563.3466666666667</ele><time>2024-04-28T05:50:57Z</time></trkpt><trkpt lat="33.6012658" lon="132.8411606"><ele>561.7666666666668</ele><time>2024-04-28T05:51:12Z</time></trkpt><trkpt lat="33.6010785" lon="132.8411416"><ele>560.81</ele><time>2024-04-28T05:51:27Z</time></trkpt></trkseg></trk></gpx>