<?xml version='1.0' encoding='UTF-8'?><gpx creator="Yama Museum Summit Candidate Generator" xsi:schemaLocation="http://www.topografix.com/GPX/1/1 http://www.topografix.com/GPX/1/1/gpx.xsd" version="1.1" xmlns="http://www.topografix.com/GPX/1/1" xmlns:xsi="http://www.w3.org/2001/XMLSchema-instance" xmlns:yama="https://museum-yama-data.moukaeritai.work/ns/yama-data/0.1"><metadata><bounds maxlat="33.8408995" maxlon="132.7225609" minlat="33.8387603" minlon="132.7195602"/><name>権現山</name><extensions><yama:source_gpx_basename>yamap_2026-04-12_11_03.gpx</yama:source_gpx_basename><yama:source_gpx_relative_path>data/01_raw/gpx/2026-05-12/yamap_2026-04-12_11_03.gpx</yama:source_gpx_relative_path><yama:detection_parameters>window=5,radius=10,min_prominence=30,merge=100</yama:detection_parameters></extensions></metadata><wpt lat="33.8390197" lon="132.7201785"><ele>102.87</ele><time>2026-04-12T02:20:02Z</time><name>summit-candidate:2011a6c909945d6f</name><desc>Summit candidate detected at elevation 102.87m with prominence 68.71622222222223m.</desc><sym>Summit Candidate</sym><extensions><yama:source_trackpoint_index>25</yama:source_trackpoint_index><yama:valid_elevation_index>25</yama:valid_elevation_index><yama:smoothed_ele>101.19733333333333</yama:smoothed_ele><yama:prominence>68.71622222222223</yama:prominence><yama:detection_method>local_maxima_with_prominence</yama:detection_method><yama:detection_parameters>window=5,radius=10,min_prominence=30,merge=100</yama:detection_parameters><yama:candidate_status>unresolved</yama:candidate_status></extensions></wpt>
  <trk><name>権現山</name><number>1</number><trkseg><trkpt lat="33.8408995" lon="132.7224509"><ele>16.7</ele><time>2026-04-12T02:03:01Z</time></trkpt><trkpt lat="33.8406895" lon="132.7225609"><ele>17.439999999999998</ele><time>2026-04-12T02:04:03Z</time></trkpt><trkpt lat="33.840534" lon="132.7224426"><ele>18.63</ele><time>2026-04-12T02:04:36Z</time></trkpt><trkpt lat="33.8404112" lon="132.7222496"><ele>21.573333333333334</ele><time>2026-04-12T02:05:11Z</time></trkpt><trkpt lat="33.8403625" lon="132.7220069"><ele>26.610000000000003</ele><time>2026-04-12T02:05:59Z</time></trkpt><trkpt lat="33.8403518" lon="132.721791"><ele>33.11666666666667</ele><time>2026-04-12T02:06:14Z</time></trkpt><trkpt lat="33.8402971" lon="132.7215821"><ele>39.486666666666665</ele><time>2026-04-12T02:06:40Z</time></trkpt><trkpt lat="33.8401076" lon="132.7215925"><ele>46.59</ele><time>2026-04-12T02:07:04Z</time></trkpt><trkpt lat="33.8402937" lon="132.7215991"><ele>47.96</ele><time>2026-04-12T02:07:21Z</time></trkpt><trkpt lat="33.8401029" lon="132.7215197"><ele>51.75333333333334</ele><time>2026-04-12T02:07:37Z</time></trkpt><trkpt lat="33.8399169" lon="132.7214729"><ele>53.85</ele><time>2026-04-12T02:07:58Z</time></trkpt><trkpt lat="33.8397302" lon="132.7214231"><ele>61.00666666666666</ele><time>2026-04-12T02:08:28Z</time></trkpt><trkpt lat="33.8395345" lon="132.7213653"><ele>65.38333333333334</ele><time>2026-04-12T02:09:00Z</time></trkpt><trkpt lat="33.8396036" lon="132.7211481"><ele>70.96</ele><time>2026-04-12T02:09:43Z</time></trkpt><trkpt lat="33.839488" lon="132.7209441"><ele>76.45</ele><time>2026-04-12T02:10:01Z</time></trkpt><trkpt lat="33.839306" lon="132.7208504"><ele>83.66666666666667</ele><time>2026-04-12T02:10:44Z</time></trkpt><trkpt lat="33.8391559" lon="132.7206968"><ele>88.57666666666667</ele><time>2026-04-12T02:11:44Z</time></trkpt><trkpt lat="33.8389871" lon="132.7206178"><ele>92.03666666666668</ele><time>2026-04-12T02:12:29Z</time></trkpt><trkpt lat="33.8389568" lon="132.7203964"><ele>95.25666666666666</ele><time>2026-04-12T02:13:20Z</time></trkpt><trkpt lat="33.8388392" lon="132.7202195"><ele>96.94666666666667</ele><time>2026-04-12T02:13:41Z</time></trkpt><trkpt lat="33.8387709" lon="132.7199998"><ele>99.04333333333334</ele><time>2026-04-12T02:14:02Z</time></trkpt><trkpt lat="33.8387603" lon="132.7197588"><ele>96.60000000000001</ele><time>2026-04-12T02:14:26Z</time></trkpt><trkpt lat="33.838846" lon="132.7195602"><ele>98.77333333333333</ele><time>2026-04-12T02:17:10Z</time></trkpt><trkpt lat="33.8387991" lon="132.7198045"><ele>98.92666666666666</ele><time>2026-04-12T02:19:20Z</time></trkpt><trkpt lat="33.8388751" lon="132.7200453"><ele>102.46666666666665</ele><time>2026-04-12T02:19:41Z</time></trkpt><trkpt lat="33.8390197" lon="132.7201785"><ele>102.87</ele><time>2026-04-12T02:20:02Z</time></trkpt><trkpt lat="33.8391273" lon="132.7203529"><ele>102.47666666666667</ele><time>2026-04-12T02:20:22Z</time></trkpt><trkpt lat="33.8392331" lon="132.7205671"><ele>99.24666666666667</ele><time>2026-04-12T02:20:43Z</time></trkpt><trkpt lat="33.8393484" lon="132.720355"><ele>93.03000000000002</ele><time>2026-04-12T02:22:22Z</time></trkpt><trkpt lat="33.8395428" lon="132.7202409"><ele>87.27333333333333</ele><time>2026-04-12T02:22:40Z</time></trkpt><trkpt lat="33.8396988" lon="132.7206345"><ele>78.71</ele><time>2026-04-12T02:22:51Z</time></trkpt><trkpt lat="33.8396718" lon="132.7210625"><ele>74.88666666666667</ele><time>2026-04-12T02:22:54Z</time></trkpt><trkpt lat="33.8396083" lon="132.7212668"><ele>72.49666666666667</ele><time>2026-04-12T02:23:16Z</time></trkpt><trkpt lat="33.8396792" lon="132.7214743"><ele>70.08333333333333</ele><time>2026-04-12T02:23:37Z</time></trkpt><trkpt lat="33.8398663" lon="132.7214654"><ele>65.55666666666667</ele><time>2026-04-12T02:23:55Z</time></trkpt><trkpt lat="33.8400505" lon="132.7213825"><ele>60.583333333333336</ele><time>2026-04-12T02:24:11Z</time></trkpt><trkpt lat="33.8402153" lon="132.7214942"><ele>56.10333333333333</ele><time>2026-04-12T02:24:48Z</time></trkpt><trkpt lat="33.8403929" lon="132.7213843"><ele>48.70333333333334</ele><time>2026-04-12T02:25:14Z</time></trkpt><trkpt lat="33.840585" lon="132.7214629"><ele>39.64</ele><time>2026-04-12T02:25:33Z</time></trkpt><trkpt lat="33.8404674" lon="132.7216308"><ele>36.52666666666667</ele><time>2026-04-12T02:26:03Z</time></trkpt><trkpt lat="33.8404297" lon="132.7218859"><ele>34.806666666666665</ele><time>2026-04-12T02:27:15Z</time></trkpt><trkpt lat="33.8404476" lon="132.7221046"><ele>33.919999999999995</ele><time>2026-04-12T02:27:32Z</time></trkpt><trkpt lat="33.840517" lon="132.72235"><ele>28.71666666666667</ele><time>2026-04-12T02:28:07Z</time></trkpt></trkseg></trk></gpx>