<?xml version='1.0' encoding='UTF-8'?><gpx creator="Yama Museum Summit Candidate Generator" xsi:schemaLocation="http://www.topografix.com/GPX/1/1 http://www.topografix.com/GPX/1/1/gpx.xsd" version="1.1" xmlns="http://www.topografix.com/GPX/1/1" xmlns:xsi="http://www.w3.org/2001/XMLSchema-instance" xmlns:yama="https://museum-yama-data.moukaeritai.work/ns/yama-data/0.1"><metadata><bounds maxlat="34.2294426" maxlon="133.0653336" minlat="34.2287646" minlon="133.06481"/><name>開山</name><extensions><yama:source_gpx_basename>yamap_2024-01-27_14_28.gpx</yama:source_gpx_basename><yama:source_gpx_relative_path>data/01_raw/gpx/2026-05-12/yamap_2024-01-27_14_28.gpx</yama:source_gpx_relative_path><yama:detection_parameters>window=5,radius=10,min_prominence=30,merge=100</yama:detection_parameters></extensions></metadata><trk><name>開山</name><number>1</number><trkseg><trkpt lat="34.2294426" lon="133.0650138"><ele>135.94</ele><time>2024-01-27T05:28:13Z</time></trkpt><trkpt lat="34.2293729" lon="133.06481"><ele>135.39499999999998</ele><time>2024-01-27T05:28:28Z</time></trkpt><trkpt lat="34.2292262" lon="133.0649398"><ele>136.89</ele><time>2024-01-27T05:28:52Z</time></trkpt><trkpt lat="34.2290479" lon="133.0650003"><ele>138.70333333333335</ele><time>2024-01-27T05:29:18Z</time></trkpt><trkpt lat="34.2288699" lon="133.0651119"><ele>140.74333333333334</ele><time>2024-01-27T05:29:34Z</time></trkpt><trkpt lat="34.2288928" lon="133.0653336"><ele>142.28333333333333</ele><time>2024-01-27T05:31:12Z</time></trkpt><trkpt lat="34.2287646" lon="133.0651739"><ele>143.3</ele><time>2024-01-27T05:35:08Z</time></trkpt><trkpt lat="34.2289347" lon="133.0651016"><ele>143.75666666666666</ele><time>2024-01-27T05:35:28Z</time></trkpt><trkpt lat="34.2290673" lon="133.0649387"><ele>142.63333333333333</ele><time>2024-01-27T05:35:46Z</time></trkpt><trkpt lat="34.2292519" lon="133.0649503"><ele>140.91666666666666</ele><time>2024-01-27T05:36:04Z</time></trkpt><trkpt lat="34.2293558" lon="133.0651385"><ele>137.73</ele><time>2024-01-27T05:36:19Z</time></trkpt></trkseg></trk></gpx>