<?xml version='1.0' encoding='UTF-8'?><gpx creator="Yama Museum Summit Candidate Generator" xsi:schemaLocation="http://www.topografix.com/GPX/1/1 http://www.topografix.com/GPX/1/1/gpx.xsd" version="1.1" xmlns="http://www.topografix.com/GPX/1/1" xmlns:xsi="http://www.w3.org/2001/XMLSchema-instance" xmlns:yama="https://museum-yama-data.moukaeritai.work/ns/yama-data/0.1"><metadata><bounds maxlat="33.7369176" maxlon="133.0832885" minlat="33.6949312" minlon="133.0634881"/><name>気多山・八辻ノ峰・五代ヶ森</name><extensions><yama:source_gpx_basename>yamap_2024-04-20_05_43.gpx</yama:source_gpx_basename><yama:source_gpx_relative_path>data/01_raw/gpx/2026-05-12/yamap_2024-04-20_05_43.gpx</yama:source_gpx_relative_path><yama:detection_parameters>window=5,radius=10,min_prominence=30,merge=100</yama:detection_parameters></extensions></metadata><wpt lat="33.6973447" lon="133.0732035"><ele>1212.5233333333333</ele><time>2024-04-19T21:59:07Z</time><name>summit-candidate:e010f98d2b23f547</name><desc>Summit candidate detected at elevation 1212.5233333333333m with prominence 45.61333333333323m.</desc><sym>Summit Candidate</sym><extensions><yama:source_trackpoint_index>116</yama:source_trackpoint_index><yama:valid_elevation_index>116</yama:valid_elevation_index><yama:smoothed_ele>1211.8746666666666</yama:smoothed_ele><yama:prominence>45.61333333333323</yama:prominence><yama:detection_method>local_maxima_with_prominence</yama:detection_method><yama:detection_parameters>window=5,radius=10,min_prominence=30,merge=100</yama:detection_parameters><yama:candidate_status>unresolved</yama:candidate_status></extensions></wpt>
  <wpt lat="33.7064228" lon="133.0786753"><ele>1281.8966666666665</ele><time>2024-04-19T22:56:41Z</time><name>summit-candidate:83056c3652757f25</name><desc>Summit candidate detected at elevation 1281.8966666666665m with prominence 110.13666666666654m.</desc><sym>Summit Candidate</sym><extensions><yama:source_trackpoint_index>179</yama:source_trackpoint_index><yama:valid_elevation_index>179</yama:valid_elevation_index><yama:smoothed_ele>1280.7693333333332</yama:smoothed_ele><yama:prominence>110.13666666666654</yama:prominence><yama:detection_method>local_maxima_with_prominence</yama:detection_method><yama:detection_parameters>window=5,radius=10,min_prominence=30,merge=100</yama:detection_parameters><yama:candidate_status>unresolved</yama:candidate_status></extensions></wpt>
  <wpt lat="33.7258222" lon="133.0801009"><ele>1478.8966666666668</ele><time>2024-04-20T00:59:24Z</time><name>summit-candidate:3f404ba3e31c8b54</name><desc>Summit candidate detected at elevation 1478.8966666666668m with prominence 33.52666666666664m.</desc><sym>Summit Candidate</sym><extensions><yama:source_trackpoint_index>303</yama:source_trackpoint_index><yama:valid_elevation_index>303</yama:valid_elevation_index><yama:smoothed_ele>1476.1200000000001</yama:smoothed_ele><yama:prominence>33.52666666666664</yama:prominence><yama:detection_method>local_maxima_with_prominence</yama:detection_method><yama:detection_parameters>window=5,radius=10,min_prominence=30,merge=100</yama:detection_parameters><yama:candidate_status>unresolved</yama:candidate_status></extensions></wpt>
  <wpt lat="33.7367329" lon="133.0832761"><ele>1709.1566666666668</ele><time>2024-04-20T03:12:28Z</time><name>summit-candidate:76cc7bb75549e7a1</name><desc>Summit candidate detected at elevation 1709.1566666666668m with prominence 914.6115555555556m.</desc><sym>Summit Candidate</sym><extensions><yama:source_trackpoint_index>369</yama:source_trackpoint_index><yama:valid_elevation_index>369</yama:valid_elevation_index><yama:smoothed_ele>1706.8326666666667</yama:smoothed_ele><yama:prominence>914.6115555555556</yama:prominence><yama:detection_method>local_maxima_with_prominence</yama:detection_method><yama:detection_parameters>window=5,radius=10,min_prominence=30,merge=100</yama:detection_parameters><yama:candidate_status>unresolved</yama:candidate_status></extensions></wpt>
  <trk><name>気多山・八辻ノ峰・五代ヶ森</name><number>1</number><trkseg><trkpt lat="33.7018803" lon="133.0683558"><ele>785.11</ele><time>2024-04-19T20:43:09Z</time></trkpt><trkpt lat="33.7019056" lon="133.0681368"><ele>784.5250000000001</ele><time>2024-04-19T20:44:02Z</time></trkpt><trkpt lat="33.7018886" lon="133.067889"><ele>784.2266666666668</ele><time>2024-04-19T20:44:27Z</time></trkpt><trkpt lat="33.7018151" lon="133.0676543"><ele>783.9333333333334</ele><time>2024-04-19T20:44:44Z</time></trkpt><trkpt lat="33.7017236" lon="133.0674544"><ele>784.23</ele><time>2024-04-19T20:45:19Z</time></trkpt><trkpt lat="33.7015717" lon="133.0672972"><ele>784.5333333333333</ele><time>2024-04-19T20:45:34Z</time></trkpt><trkpt lat="33.7014128" lon="133.0671619"><ele>784.3633333333333</ele><time>2024-04-19T20:45:52Z</time></trkpt><trkpt lat="33.7012664" lon="133.0670197"><ele>783.7533333333334</ele><time>2024-04-19T20:47:34Z</time></trkpt><trkpt lat="33.7010505" lon="133.0669627"><ele>781.9766666666668</ele><time>2024-04-19T20:47:51Z</time></trkpt><trkpt lat="33.7008414" lon="133.0670514"><ele>784.5799999999999</ele><time>2024-04-19T20:48:05Z</time></trkpt><trkpt lat="33.7006647" lon="133.0669696"><ele>788.38</ele><time>2024-04-19T20:48:21Z</time></trkpt><trkpt lat="33.7007444" lon="133.0667585"><ele>791.7999999999998</ele><time>2024-04-19T20:48:58Z</time></trkpt><trkpt lat="33.7007088" lon="133.0665427"><ele>790.2333333333332</ele><time>2024-04-19T20:49:13Z</time></trkpt><trkpt lat="33.7006682" lon="133.0663323"><ele>788.68</ele><time>2024-04-19T20:49:24Z</time></trkpt><trkpt lat="33.7006272" lon="133.0661034"><ele>789.6266666666667</ele><time>2024-04-19T20:49:39Z</time></trkpt><trkpt lat="33.7005331" lon="133.0658672"><ele>792.08</ele><time>2024-04-19T20:49:55Z</time></trkpt><trkpt lat="33.7003437" lon="133.0657069"><ele>796.48</ele><time>2024-04-19T20:50:07Z</time></trkpt><trkpt lat="33.7002548" lon="133.0654896"><ele>799.66</ele><time>2024-04-19T20:50:22Z</time></trkpt><trkpt lat="33.7001179" lon="133.0653181"><ele>802.3433333333332</ele><time>2024-04-19T20:50:38Z</time></trkpt><trkpt lat="33.6999691" lon="133.0651531"><ele>802.2666666666668</ele><time>2024-04-19T20:50:56Z</time></trkpt><trkpt lat="33.6998581" lon="133.0649718"><ele>801.7800000000001</ele><time>2024-04-19T20:51:13Z</time></trkpt><trkpt lat="33.6997078" lon="133.0647942"><ele>801.2433333333333</ele><time>2024-04-19T20:51:31Z</time></trkpt><trkpt lat="33.6995483" lon="133.0646289"><ele>801.2733333333334</ele><time>2024-04-19T20:51:49Z</time></trkpt><trkpt lat="33.6993565" lon="133.0645368"><ele>803.6766666666667</ele><time>2024-04-19T20:52:07Z</time></trkpt><trkpt lat="33.6991861" lon="133.0644277"><ele>806.7133333333335</ele><time>2024-04-19T20:52:22Z</time></trkpt><trkpt lat="33.699008" lon="133.0643242"><ele>809.6233333333333</ele><time>2024-04-19T20:52:40Z</time></trkpt><trkpt lat="33.6988159" lon="133.0642182"><ele>812.4499999999999</ele><time>2024-04-19T20:52:57Z</time></trkpt><trkpt lat="33.6986367" lon="133.0641632"><ele>815.3100000000001</ele><time>2024-04-19T20:53:11Z</time></trkpt><trkpt lat="33.6984358" lon="133.0641095"><ele>819.8733333333333</ele><time>2024-04-19T20:53:28Z</time></trkpt><trkpt lat="33.6982661" lon="133.064014"><ele>823.4566666666666</ele><time>2024-04-19T20:53:43Z</time></trkpt><trkpt lat="33.6980957" lon="133.0639024"><ele>825.8766666666667</ele><time>2024-04-19T20:54:00Z</time></trkpt><trkpt lat="33.6979326" lon="133.0637804"><ele>826.8000000000001</ele><time>2024-04-19T20:54:18Z</time></trkpt><trkpt lat="33.6977981" lon="133.0636325"><ele>828.1333333333333</ele><time>2024-04-19T20:56:04Z</time></trkpt><trkpt lat="33.697606" lon="133.0635284"><ele>830.6733333333335</ele><time>2024-04-19T20:56:29Z</time></trkpt><trkpt lat="33.6974249" lon="133.0634881"><ele>833.1100000000001</ele><time>2024-04-19T20:56:41Z</time></trkpt><trkpt lat="33.6972446" lon="133.0634967"><ele>835.0466666666666</ele><time>2024-04-19T20:56:57Z</time></trkpt><trkpt lat="33.6973177" lon="133.0637461"><ele>838.9466666666667</ele><time>2024-04-19T20:57:35Z</time></trkpt><trkpt lat="33.6974718" lon="133.0639061"><ele>841.9433333333333</ele><time>2024-04-19T20:57:53Z</time></trkpt><trkpt lat="33.6976016" lon="133.0640751"><ele>844.5633333333334</ele><time>2024-04-19T20:58:09Z</time></trkpt><trkpt lat="33.6974333" lon="133.0641558"><ele>845.63</ele><time>2024-04-19T20:58:27Z</time></trkpt><trkpt lat="33.6972764" lon="133.0640338"><ele>848.3866666666667</ele><time>2024-04-19T20:58:43Z</time></trkpt><trkpt lat="33.6970608" lon="133.0640081"><ele>852.4200000000001</ele><time>2024-04-19T20:59:03Z</time></trkpt><trkpt lat="33.6971555" lon="133.0641952"><ele>855.7066666666666</ele><time>2024-04-19T20:59:31Z</time></trkpt><trkpt lat="33.6973919" lon="133.064334"><ele>856.7433333333333</ele><time>2024-04-19T20:59:49Z</time></trkpt><trkpt lat="33.6972108" lon="133.0643717"><ele>858.7666666666668</ele><time>2024-04-19T21:00:04Z</time></trkpt><trkpt lat="33.6970257" lon="133.0642458"><ele>859.6766666666667</ele><time>2024-04-19T21:00:16Z</time></trkpt><trkpt lat="33.6968356" lon="133.0641472"><ele>862.0833333333334</ele><time>2024-04-19T21:00:31Z</time></trkpt><trkpt lat="33.6966553" lon="133.0641975"><ele>862.93</ele><time>2024-04-19T21:00:46Z</time></trkpt><trkpt lat="33.6964796" lon="133.064285"><ele>864.52</ele><time>2024-04-19T21:01:01Z</time></trkpt><trkpt lat="33.6964441" lon="133.0645107"><ele>866.6266666666667</ele><time>2024-04-19T21:01:31Z</time></trkpt><trkpt lat="33.6966333" lon="133.0645406"><ele>869.4333333333334</ele><time>2024-04-19T21:01:49Z</time></trkpt><trkpt lat="33.6968455" lon="133.0645982"><ele>872.3233333333334</ele><time>2024-04-19T21:02:07Z</time></trkpt><trkpt lat="33.6970193" lon="133.064719"><ele>875.63</ele><time>2024-04-19T21:02:25Z</time></trkpt><trkpt lat="33.6971234" lon="133.0649131"><ele>880.91</ele><time>2024-04-19T21:02:44Z</time></trkpt><trkpt lat="33.6972847" lon="133.0650296"><ele>886.7399999999999</ele><time>2024-04-19T21:03:02Z</time></trkpt><trkpt lat="33.6974716" lon="133.0650947"><ele>891.3866666666668</ele><time>2024-04-19T21:03:20Z</time></trkpt><trkpt lat="33.6976505" lon="133.0651719"><ele>892.8666666666667</ele><time>2024-04-19T21:03:34Z</time></trkpt><trkpt lat="33.6978545" lon="133.0652641"><ele>893.6766666666667</ele><time>2024-04-19T21:04:02Z</time></trkpt><trkpt lat="33.697989" lon="133.0654177"><ele>894.5033333333334</ele><time>2024-04-19T21:04:31Z</time></trkpt><trkpt lat="33.6981205" lon="133.0655714"><ele>895.0600000000001</ele><time>2024-04-19T21:04:52Z</time></trkpt><trkpt lat="33.6983252" lon="133.0656196"><ele>894.4766666666668</ele><time>2024-04-19T21:05:16Z</time></trkpt><trkpt lat="33.6984891" lon="133.0657138"><ele>893.6433333333334</ele><time>2024-04-19T21:05:28Z</time></trkpt><trkpt lat="33.6986341" lon="133.065896"><ele>895.12</ele><time>2024-04-19T21:05:56Z</time></trkpt><trkpt lat="33.6985426" lon="133.0660994"><ele>899.09</ele><time>2024-04-19T21:06:39Z</time></trkpt><trkpt lat="33.6985129" lon="133.0663154"><ele>903.8033333333333</ele><time>2024-04-19T21:06:54Z</time></trkpt><trkpt lat="33.6984288" lon="133.0665589"><ele>906.7633333333333</ele><time>2024-04-19T21:07:11Z</time></trkpt><trkpt lat="33.6983624" lon="133.0667722"><ele>909.2866666666665</ele><time>2024-04-19T21:07:42Z</time></trkpt><trkpt lat="33.6982023" lon="133.0668913"><ele>914.2266666666668</ele><time>2024-04-19T21:08:00Z</time></trkpt><trkpt lat="33.6981719" lon="133.0671338"><ele>919.0966666666667</ele><time>2024-04-19T21:08:21Z</time></trkpt><trkpt lat="33.6980213" lon="133.0673143"><ele>925.0600000000001</ele><time>2024-04-19T21:08:42Z</time></trkpt><trkpt lat="33.6978589" lon="133.0674168"><ele>929.52</ele><time>2024-04-19T21:09:28Z</time></trkpt><trkpt lat="33.6976847" lon="133.0673549"><ele>936.0966666666667</ele><time>2024-04-19T21:10:35Z</time></trkpt><trkpt lat="33.6975879" lon="133.0671715"><ele>939.7966666666666</ele><time>2024-04-19T21:10:47Z</time></trkpt><trkpt lat="33.6974039" lon="133.0670845"><ele>943.91</ele><time>2024-04-19T21:11:25Z</time></trkpt><trkpt lat="33.6972506" lon="133.0672292"><ele>948.93</ele><time>2024-04-19T21:15:39Z</time></trkpt><trkpt lat="33.6971519" lon="133.0670086"><ele>954.1</ele><time>2024-04-19T21:15:59Z</time></trkpt><trkpt lat="33.6971791" lon="133.0672399"><ele>958.8000000000001</ele><time>2024-04-19T21:17:00Z</time></trkpt><trkpt lat="33.6970145" lon="133.0673797"><ele>964.9433333333333</ele><time>2024-04-19T21:17:33Z</time></trkpt><trkpt lat="33.69687" lon="133.0675258"><ele>975.9733333333334</ele><time>2024-04-19T21:18:31Z</time></trkpt><trkpt lat="33.696705" lon="133.0676331"><ele>989.4933333333333</ele><time>2024-04-19T21:19:36Z</time></trkpt><trkpt lat="33.6966955" lon="133.0678652"><ele>1000.4066666666668</ele><time>2024-04-19T21:20:55Z</time></trkpt><trkpt lat="33.6967816" lon="133.0680741"><ele>1008.2366666666667</ele><time>2024-04-19T21:21:17Z</time></trkpt><trkpt lat="33.6968816" lon="133.0682819"><ele>1012.8800000000001</ele><time>2024-04-19T21:21:48Z</time></trkpt><trkpt lat="33.6967334" lon="133.0684134"><ele>1018.8633333333333</ele><time>2024-04-19T21:24:27Z</time></trkpt><trkpt lat="33.6965904" lon="133.0685737"><ele>1027.3533333333332</ele><time>2024-04-19T21:26:12Z</time></trkpt><trkpt lat="33.6964257" lon="133.0686782"><ele>1038.51</ele><time>2024-04-19T21:27:45Z</time></trkpt><trkpt lat="33.696307" lon="133.0688557"><ele>1051.1433333333332</ele><time>2024-04-19T21:29:21Z</time></trkpt><trkpt lat="33.6961247" lon="133.068901"><ele>1063.9866666666667</ele><time>2024-04-19T21:31:06Z</time></trkpt><trkpt lat="33.6959543" lon="133.0689935"><ele>1076.0200000000002</ele><time>2024-04-19T21:32:07Z</time></trkpt><trkpt lat="33.6958254" lon="133.0691488"><ele>1085.4666666666667</ele><time>2024-04-19T21:34:51Z</time></trkpt><trkpt lat="33.6956441" lon="133.0692032"><ele>1093.0933333333332</ele><time>2024-04-19T21:36:18Z</time></trkpt><trkpt lat="33.6954713" lon="133.0692672"><ele>1102.716666666667</ele><time>2024-04-19T21:37:21Z</time></trkpt><trkpt lat="33.6952835" lon="133.0692415"><ele>1112.1066666666666</ele><time>2024-04-19T21:38:12Z</time></trkpt><trkpt lat="33.6950963" lon="133.0692512"><ele>1121.82</ele><time>2024-04-19T21:38:46Z</time></trkpt><trkpt lat="33.6949312" lon="133.0693486"><ele>1126.82</ele><time>2024-04-19T21:40:06Z</time></trkpt><trkpt lat="33.6950639" lon="133.0695079"><ele>1132.0733333333335</ele><time>2024-04-19T21:42:15Z</time></trkpt><trkpt lat="33.6952412" lon="133.0695782"><ele>1137.0366666666666</ele><time>2024-04-19T21:43:24Z</time></trkpt><trkpt lat="33.6953976" lon="133.0696939"><ele>1144.3866666666665</ele><time>2024-04-19T21:44:27Z</time></trkpt><trkpt lat="33.695502" lon="133.0698734"><ele>1152.1066666666666</ele><time>2024-04-19T21:45:46Z</time></trkpt><trkpt lat="33.6956251" lon="133.0700396"><ele>1158.7733333333333</ele><time>2024-04-19T21:46:30Z</time></trkpt><trkpt lat="33.6957869" lon="133.0701461"><ele>1165.1666666666667</ele><time>2024-04-19T21:47:00Z</time></trkpt><trkpt lat="33.6959153" lon="133.0703217"><ele>1168.8566666666668</ele><time>2024-04-19T21:47:36Z</time></trkpt><trkpt lat="33.6960536" lon="133.0704986"><ele>1173.41</ele><time>2024-04-19T21:48:19Z</time></trkpt><trkpt lat="33.6960998" lon="133.0707089"><ele>1176.5233333333333</ele><time>2024-04-19T21:48:51Z</time></trkpt><trkpt lat="33.696146" lon="133.0709299"><ele>1179.8500000000001</ele><time>2024-04-19T21:49:14Z</time></trkpt><trkpt lat="33.696193" lon="133.0711479"><ele>1180.6833333333334</ele><time>2024-04-19T21:49:53Z</time></trkpt><trkpt lat="33.6963047" lon="133.0713258"><ele>1182.9266666666667</ele><time>2024-04-19T21:50:24Z</time></trkpt><trkpt lat="33.6964095" lon="133.0715294"><ele>1185.6233333333332</ele><time>2024-04-19T21:50:56Z</time></trkpt><trkpt lat="33.696475" lon="133.071732"><ele>1188.8033333333333</ele><time>2024-04-19T21:52:02Z</time></trkpt><trkpt lat="33.6965424" lon="133.0719424"><ele>1190.466666666667</ele><time>2024-04-19T21:54:53Z</time></trkpt><trkpt lat="33.6966434" lon="133.0721308"><ele>1194.26</ele><time>2024-04-19T21:55:31Z</time></trkpt><trkpt lat="33.6967454" lon="133.0723092"><ele>1199.4566666666667</ele><time>2024-04-19T21:56:41Z</time></trkpt><trkpt lat="33.6968933" lon="133.0724343"><ele>1205.34</ele><time>2024-04-19T21:57:38Z</time></trkpt><trkpt lat="33.696976" lon="133.0726622"><ele>1208.5</ele><time>2024-04-19T21:58:01Z</time></trkpt><trkpt lat="33.6970784" lon="133.0728439"><ele>1210.8733333333332</ele><time>2024-04-19T21:58:19Z</time></trkpt><trkpt lat="33.6972272" lon="133.0730154"><ele>1212.1499999999999</ele><time>2024-04-19T21:58:43Z</time></trkpt><trkpt lat="33.6973447" lon="133.0732035"><ele>1212.5233333333333</ele><time>2024-04-19T21:59:07Z</time></trkpt><trkpt lat="33.6974688" lon="133.0733637"><ele>1212.16</ele><time>2024-04-19T21:59:33Z</time></trkpt><trkpt lat="33.6976195" lon="133.0735029"><ele>1211.6666666666667</ele><time>2024-04-19T22:08:00Z</time></trkpt><trkpt lat="33.6977295" lon="133.073674"><ele>1209.4433333333334</ele><time>2024-04-19T22:08:37Z</time></trkpt><trkpt lat="33.6978734" lon="133.0738104"><ele>1204.3999999999999</ele><time>2024-04-19T22:09:09Z</time></trkpt><trkpt lat="33.6980357" lon="133.073917"><ele>1197.04</ele><time>2024-04-19T22:09:45Z</time></trkpt><trkpt lat="33.6981557" lon="133.0740846"><ele>1188.8166666666668</ele><time>2024-04-19T22:10:33Z</time></trkpt><trkpt lat="33.6982366" lon="133.0743023"><ele>1181.9366666666665</ele><time>2024-04-19T22:11:03Z</time></trkpt><trkpt lat="33.6983501" lon="133.0744855"><ele>1177.5466666666669</ele><time>2024-04-19T22:11:27Z</time></trkpt><trkpt lat="33.6984179" lon="133.0747121"><ele>1176.14</ele><time>2024-04-19T22:12:21Z</time></trkpt><trkpt lat="33.6985774" lon="133.0748558"><ele>1176.45</ele><time>2024-04-19T22:13:25Z</time></trkpt><trkpt lat="33.6987461" lon="133.0749938"><ele>1175.3100000000002</ele><time>2024-04-19T22:13:45Z</time></trkpt><trkpt lat="33.6989001" lon="133.0751233"><ele>1174.6033333333335</ele><time>2024-04-19T22:14:09Z</time></trkpt><trkpt lat="33.6989952" lon="133.0753169"><ele>1173.5400000000002</ele><time>2024-04-19T22:14:30Z</time></trkpt><trkpt lat="33.6990642" lon="133.075551"><ele>1172.9366666666665</ele><time>2024-04-19T22:14:54Z</time></trkpt><trkpt lat="33.6991782" lon="133.075732"><ele>1172.506666666667</ele><time>2024-04-19T22:15:18Z</time></trkpt><trkpt lat="33.6993089" lon="133.0759022"><ele>1172.3866666666665</ele><time>2024-04-19T22:15:46Z</time></trkpt><trkpt lat="33.6994098" lon="133.0760854"><ele>1172.71</ele><time>2024-04-19T22:16:15Z</time></trkpt><trkpt lat="33.6994888" lon="133.0763023"><ele>1172.1599999999999</ele><time>2024-04-19T22:16:36Z</time></trkpt><trkpt lat="33.6995666" lon="133.0765049"><ele>1171.1733333333332</ele><time>2024-04-19T22:16:56Z</time></trkpt><trkpt lat="33.6996452" lon="133.076734"><ele>1170.26</ele><time>2024-04-19T22:17:14Z</time></trkpt><trkpt lat="33.6997357" lon="133.0769698"><ele>1169.53</ele><time>2024-04-19T22:17:35Z</time></trkpt><trkpt lat="33.6998372" lon="133.0771523"><ele>1168.6666666666667</ele><time>2024-04-19T22:17:53Z</time></trkpt><trkpt lat="33.6998828" lon="133.0773937"><ele>1165.7666666666667</ele><time>2024-04-19T22:18:13Z</time></trkpt><trkpt lat="33.6999924" lon="133.0775685"><ele>1163.36</ele><time>2024-04-19T22:18:37Z</time></trkpt><trkpt lat="33.7001328" lon="133.0777056"><ele>1163.9833333333333</ele><time>2024-04-19T22:19:28Z</time></trkpt><trkpt lat="33.7002884" lon="133.0778427"><ele>1170.1966666666667</ele><time>2024-04-19T22:20:43Z</time></trkpt><trkpt lat="33.7004374" lon="133.0779785"><ele>1177.7700000000002</ele><time>2024-04-19T22:21:37Z</time></trkpt><trkpt lat="33.7005631" lon="133.0781448"><ele>1185.03</ele><time>2024-04-19T22:22:43Z</time></trkpt><trkpt lat="33.7006845" lon="133.0783193"><ele>1189.91</ele><time>2024-04-19T22:23:32Z</time></trkpt><trkpt lat="33.7007868" lon="133.0785036"><ele>1195.4533333333336</ele><time>2024-04-19T22:24:01Z</time></trkpt><trkpt lat="33.7009429" lon="133.0786216"><ele>1200.9700000000003</ele><time>2024-04-19T22:24:44Z</time></trkpt><trkpt lat="33.7011202" lon="133.0786782"><ele>1206.4833333333333</ele><time>2024-04-19T22:25:49Z</time></trkpt><trkpt lat="33.7013038" lon="133.0787627"><ele>1212.6666666666667</ele><time>2024-04-19T22:27:11Z</time></trkpt><trkpt lat="33.7014312" lon="133.0789286"><ele>1219.01</ele><time>2024-04-19T22:27:43Z</time></trkpt><trkpt lat="33.7015593" lon="133.0790903"><ele>1225.6866666666667</ele><time>2024-04-19T22:28:19Z</time></trkpt><trkpt lat="33.7017413" lon="133.0791552"><ele>1229.92</ele><time>2024-04-19T22:29:20Z</time></trkpt><trkpt lat="33.7018613" lon="133.0793217"><ele>1232.9333333333334</ele><time>2024-04-19T22:30:10Z</time></trkpt><trkpt lat="33.7020221" lon="133.079444"><ele>1235.21</ele><time>2024-04-19T22:32:34Z</time></trkpt><trkpt lat="33.7021964" lon="133.079544"><ele>1238.3833333333332</ele><time>2024-04-19T22:33:49Z</time></trkpt><trkpt lat="33.7023809" lon="133.079566"><ele>1241.6666666666667</ele><time>2024-04-19T22:34:13Z</time></trkpt><trkpt lat="33.702567" lon="133.0795684"><ele>1245.7866666666669</ele><time>2024-04-19T22:34:46Z</time></trkpt><trkpt lat="33.7027611" lon="133.0795831"><ele>1248.6166666666666</ele><time>2024-04-19T22:35:13Z</time></trkpt><trkpt lat="33.7029613" lon="133.0796568"><ele>1250.6733333333334</ele><time>2024-04-19T22:35:34Z</time></trkpt><trkpt lat="33.7031431" lon="133.0797155"><ele>1251.92</ele><time>2024-04-19T22:36:00Z</time></trkpt><trkpt lat="33.7033295" lon="133.0797491"><ele>1252.6233333333332</ele><time>2024-04-19T22:36:33Z</time></trkpt><trkpt lat="33.7034983" lon="133.079857"><ele>1253.4366666666667</ele><time>2024-04-19T22:37:03Z</time></trkpt><trkpt lat="33.7036781" lon="133.0799349"><ele>1256.4133333333334</ele><time>2024-04-19T22:37:33Z</time></trkpt><trkpt lat="33.7038655" lon="133.079946"><ele>1263.8166666666666</ele><time>2024-04-19T22:38:17Z</time></trkpt><trkpt lat="33.7040473" lon="133.0798748"><ele>1272.4599999999998</ele><time>2024-04-19T22:38:46Z</time></trkpt><trkpt lat="33.7042302" lon="133.0798543"><ele>1278.1266666666666</ele><time>2024-04-19T22:48:28Z</time></trkpt><trkpt lat="33.7044175" lon="133.0798107"><ele>1277.62</ele><time>2024-04-19T22:49:43Z</time></trkpt><trkpt lat="33.7045596" lon="133.079662"><ele>1272.006666666667</ele><time>2024-04-19T22:50:10Z</time></trkpt><trkpt lat="33.704718" lon="133.0795401"><ele>1266.1533333333334</ele><time>2024-04-19T22:50:39Z</time></trkpt><trkpt lat="33.7048814" lon="133.0794319"><ele>1262.8400000000001</ele><time>2024-04-19T22:51:12Z</time></trkpt><trkpt lat="33.7050331" lon="133.0793126"><ele>1264.6366666666668</ele><time>2024-04-19T22:51:32Z</time></trkpt><trkpt lat="33.7051902" lon="133.0791998"><ele>1267.6666666666667</ele><time>2024-04-19T22:51:56Z</time></trkpt><trkpt lat="33.7053222" lon="133.0790442"><ele>1270.1933333333334</ele><time>2024-04-19T22:52:38Z</time></trkpt><trkpt lat="33.7055157" lon="133.0790015"><ele>1272.6866666666667</ele><time>2024-04-19T22:53:13Z</time></trkpt><trkpt lat="33.7056835" lon="133.078892"><ele>1275.14</ele><time>2024-04-19T22:53:31Z</time></trkpt><trkpt lat="33.7058558" lon="133.0787818"><ele>1278.3566666666666</ele><time>2024-04-19T22:53:52Z</time></trkpt><trkpt lat="33.7060349" lon="133.0787077"><ele>1279.9866666666667</ele><time>2024-04-19T22:55:55Z</time></trkpt><trkpt lat="33.7062269" lon="133.0786581"><ele>1281.16</ele><time>2024-04-19T22:56:16Z</time></trkpt><trkpt lat="33.7064228" lon="133.0786753"><ele>1281.8966666666665</ele><time>2024-04-19T22:56:41Z</time></trkpt><trkpt lat="33.7066238" lon="133.0786692"><ele>1282.2666666666667</ele><time>2024-04-19T22:57:22Z</time></trkpt><trkpt lat="33.70682" lon="133.0786871"><ele>1278.5366666666666</ele><time>2024-04-19T22:57:50Z</time></trkpt><trkpt lat="33.7070054" lon="133.0786695"><ele>1272.2833333333333</ele><time>2024-04-19T22:58:46Z</time></trkpt><trkpt lat="33.7071956" lon="133.07864"><ele>1263.8533333333335</ele><time>2024-04-19T22:59:16Z</time></trkpt><trkpt lat="33.7073248" lon="133.0784758"><ele>1256.3266666666666</ele><time>2024-04-19T22:59:58Z</time></trkpt><trkpt lat="33.7074968" lon="133.0783761"><ele>1247.7566666666667</ele><time>2024-04-19T23:00:48Z</time></trkpt><trkpt lat="33.707679" lon="133.0783208"><ele>1240.0900000000001</ele><time>2024-04-19T23:01:14Z</time></trkpt><trkpt lat="33.7078594" lon="133.0782871"><ele>1234.7566666666664</ele><time>2024-04-19T23:01:32Z</time></trkpt><trkpt lat="33.7080454" lon="133.0782509"><ele>1232.3966666666668</ele><time>2024-04-19T23:01:50Z</time></trkpt><trkpt lat="33.7082326" lon="133.0782055"><ele>1229.1833333333334</ele><time>2024-04-19T23:02:23Z</time></trkpt><trkpt lat="33.7084191" lon="133.0781721"><ele>1223.6200000000001</ele><time>2024-04-19T23:02:53Z</time></trkpt><trkpt lat="33.7085988" lon="133.0781505"><ele>1216.41</ele><time>2024-04-19T23:03:44Z</time></trkpt><trkpt lat="33.7087575" lon="133.0780434"><ele>1209.9566666666667</ele><time>2024-04-19T23:04:22Z</time></trkpt><trkpt lat="33.7089507" lon="133.0779847"><ele>1204.9466666666665</ele><time>2024-04-19T23:05:49Z</time></trkpt><trkpt lat="33.709134" lon="133.07798"><ele>1203.79</ele><time>2024-04-19T23:06:10Z</time></trkpt><trkpt lat="33.7093164" lon="133.077956"><ele>1205.6499999999999</ele><time>2024-04-19T23:06:40Z</time></trkpt><trkpt lat="33.7094912" lon="133.0778833"><ele>1209.39</ele><time>2024-04-19T23:07:22Z</time></trkpt><trkpt lat="33.7096828" lon="133.0777897"><ele>1211.5333333333333</ele><time>2024-04-19T23:07:46Z</time></trkpt><trkpt lat="33.7098402" lon="133.0776767"><ele>1212.2133333333334</ele><time>2024-04-19T23:08:09Z</time></trkpt><trkpt lat="33.7100124" lon="133.0775867"><ele>1211.0666666666666</ele><time>2024-04-19T23:08:36Z</time></trkpt><trkpt lat="33.7102042" lon="133.0775368"><ele>1207.2933333333333</ele><time>2024-04-19T23:09:09Z</time></trkpt><trkpt lat="33.7103965" lon="133.0775567"><ele>1201.7566666666667</ele><time>2024-04-19T23:09:33Z</time></trkpt><trkpt lat="33.7105814" lon="133.077605"><ele>1196.78</ele><time>2024-04-19T23:10:00Z</time></trkpt><trkpt lat="33.7107113" lon="133.0777725"><ele>1193.5166666666667</ele><time>2024-04-19T23:10:29Z</time></trkpt><trkpt lat="33.710796" lon="133.0779786"><ele>1190.22</ele><time>2024-04-19T23:10:59Z</time></trkpt><trkpt lat="33.7109546" lon="133.0780813"><ele>1183.6533333333334</ele><time>2024-04-19T23:11:43Z</time></trkpt><trkpt lat="33.7111111" lon="133.0779306"><ele>1177.51</ele><time>2024-04-19T23:12:17Z</time></trkpt><trkpt lat="33.7111961" lon="133.0777055"><ele>1174.4266666666667</ele><time>2024-04-19T23:12:40Z</time></trkpt><trkpt lat="33.7113746" lon="133.0776359"><ele>1174.7733333333333</ele><time>2024-04-19T23:12:59Z</time></trkpt><trkpt lat="33.7115659" lon="133.0776263"><ele>1174.61</ele><time>2024-04-19T23:13:25Z</time></trkpt><trkpt lat="33.7117617" lon="133.0776115"><ele>1172.7333333333333</ele><time>2024-04-19T23:14:16Z</time></trkpt><trkpt lat="33.7119381" lon="133.077515"><ele>1169.8066666666666</ele><time>2024-04-19T23:14:37Z</time></trkpt><trkpt lat="33.7121278" lon="133.0774433"><ele>1167.6966666666667</ele><time>2024-04-19T23:15:08Z</time></trkpt><trkpt lat="33.7123109" lon="133.0774682"><ele>1168.3166666666668</ele><time>2024-04-19T23:15:55Z</time></trkpt><trkpt lat="33.7124736" lon="133.0775913"><ele>1174.9433333333334</ele><time>2024-04-19T23:17:07Z</time></trkpt><trkpt lat="33.7126263" lon="133.0777112"><ele>1184.1533333333334</ele><time>2024-04-19T23:19:19Z</time></trkpt><trkpt lat="33.712804" lon="133.0777788"><ele>1193.8566666666666</ele><time>2024-04-19T23:20:18Z</time></trkpt><trkpt lat="33.7129733" lon="133.0778614"><ele>1200.216666666667</ele><time>2024-04-19T23:20:50Z</time></trkpt><trkpt lat="33.7131499" lon="133.0779319"><ele>1205.4566666666667</ele><time>2024-04-19T23:21:22Z</time></trkpt><trkpt lat="33.713314" lon="133.0780566"><ele>1208.17</ele><time>2024-04-19T23:21:55Z</time></trkpt><trkpt lat="33.7134566" lon="133.0782037"><ele>1208.2366666666667</ele><time>2024-04-19T23:22:19Z</time></trkpt><trkpt lat="33.7135891" lon="133.0783861"><ele>1204.3500000000001</ele><time>2024-04-19T23:22:39Z</time></trkpt><trkpt lat="33.7137764" lon="133.0784633"><ele>1198.2333333333333</ele><time>2024-04-19T23:23:03Z</time></trkpt><trkpt lat="33.7138933" lon="133.0786519"><ele>1193.6866666666667</ele><time>2024-04-19T23:23:25Z</time></trkpt><trkpt lat="33.7139765" lon="133.0788567"><ele>1193.8266666666666</ele><time>2024-04-19T23:24:46Z</time></trkpt><trkpt lat="33.7141105" lon="133.0790099"><ele>1198.17</ele><time>2024-04-19T23:25:35Z</time></trkpt><trkpt lat="33.7142095" lon="133.0791903"><ele>1204.3266666666666</ele><time>2024-04-19T23:26:20Z</time></trkpt><trkpt lat="33.7143736" lon="133.0793334"><ele>1208.2133333333334</ele><time>2024-04-19T23:26:58Z</time></trkpt><trkpt lat="33.7145537" lon="133.0793977"><ele>1209.0166666666667</ele><time>2024-04-19T23:27:19Z</time></trkpt><trkpt lat="33.7146977" lon="133.0795594"><ele>1206.0233333333333</ele><time>2024-04-19T23:27:45Z</time></trkpt><trkpt lat="33.7148533" lon="133.0797185"><ele>1201.8000000000002</ele><time>2024-04-19T23:28:08Z</time></trkpt><trkpt lat="33.7149473" lon="133.0799082"><ele>1198.9633333333334</ele><time>2024-04-19T23:29:59Z</time></trkpt><trkpt lat="33.7150976" lon="133.080043"><ele>1198.5933333333332</ele><time>2024-04-19T23:30:35Z</time></trkpt><trkpt lat="33.7152679" lon="133.0801185"><ele>1199.5566666666666</ele><time>2024-04-19T23:30:59Z</time></trkpt><trkpt lat="33.7154509" lon="133.0801489"><ele>1200.1333333333334</ele><time>2024-04-19T23:31:20Z</time></trkpt><trkpt lat="33.7156263" lon="133.0802291"><ele>1200.1133333333335</ele><time>2024-04-19T23:31:43Z</time></trkpt><trkpt lat="33.7158152" lon="133.0802693"><ele>1200.2366666666667</ele><time>2024-04-19T23:32:03Z</time></trkpt><trkpt lat="33.7159904" lon="133.0803219"><ele>1201.3966666666668</ele><time>2024-04-19T23:32:33Z</time></trkpt><trkpt lat="33.716175" lon="133.0803614"><ele>1204.97</ele><time>2024-04-19T23:39:05Z</time></trkpt><trkpt lat="33.7163531" lon="133.0803175"><ele>1211.1000000000001</ele><time>2024-04-19T23:40:20Z</time></trkpt><trkpt lat="33.7165116" lon="133.0804314"><ele>1216.9866666666667</ele><time>2024-04-19T23:41:29Z</time></trkpt><trkpt lat="33.7166826" lon="133.0805072"><ele>1221.716666666667</ele><time>2024-04-19T23:41:59Z</time></trkpt><trkpt lat="33.7168556" lon="133.0805728"><ele>1225.5133333333333</ele><time>2024-04-19T23:42:44Z</time></trkpt><trkpt lat="33.7170472" lon="133.0805719"><ele>1228.8166666666666</ele><time>2024-04-19T23:43:23Z</time></trkpt><trkpt lat="33.7172217" lon="133.0805141"><ele>1231.6466666666668</ele><time>2024-04-19T23:44:05Z</time></trkpt><trkpt lat="33.7174038" lon="133.0805254"><ele>1232.4233333333334</ele><time>2024-04-19T23:44:30Z</time></trkpt><trkpt lat="33.7176075" lon="133.0805395"><ele>1233.0966666666666</ele><time>2024-04-19T23:45:25Z</time></trkpt><trkpt lat="33.7177937" lon="133.0805867"><ele>1233.3566666666666</ele><time>2024-04-19T23:45:57Z</time></trkpt><trkpt lat="33.7178896" lon="133.0803839"><ele>1236.8233333333335</ele><time>2024-04-19T23:46:23Z</time></trkpt><trkpt lat="33.7180277" lon="133.0802436"><ele>1240.58</ele><time>2024-04-19T23:46:40Z</time></trkpt><trkpt lat="33.7182115" lon="133.0801464"><ele>1246.3933333333334</ele><time>2024-04-19T23:47:03Z</time></trkpt><trkpt lat="33.7183731" lon="133.0799829"><ele>1249.1833333333334</ele><time>2024-04-19T23:47:24Z</time></trkpt><trkpt lat="33.7185232" lon="133.0798542"><ele>1251.98</ele><time>2024-04-19T23:47:45Z</time></trkpt><trkpt lat="33.7186467" lon="133.0796861"><ele>1252.7866666666666</ele><time>2024-04-19T23:48:07Z</time></trkpt><trkpt lat="33.7188151" lon="133.0795718"><ele>1254.7666666666667</ele><time>2024-04-19T23:48:30Z</time></trkpt><trkpt lat="33.7189972" lon="133.0794676"><ele>1258.74</ele><time>2024-04-19T23:49:14Z</time></trkpt><trkpt lat="33.7191434" lon="133.079329"><ele>1261.1299999999999</ele><time>2024-04-19T23:50:08Z</time></trkpt><trkpt lat="33.7189762" lon="133.0794386"><ele>1260.4933333333336</ele><time>2024-04-19T23:51:23Z</time></trkpt><trkpt lat="33.7188693" lon="133.0796334"><ele>1261.0866666666668</ele><time>2024-04-19T23:51:56Z</time></trkpt><trkpt lat="33.7187783" lon="133.0798201"><ele>1264.5566666666666</ele><time>2024-04-19T23:52:26Z</time></trkpt><trkpt lat="33.718693" lon="133.0800249"><ele>1270.1233333333334</ele><time>2024-04-19T23:53:13Z</time></trkpt><trkpt lat="33.7185854" lon="133.0802126"><ele>1273.2866666666669</ele><time>2024-04-19T23:53:43Z</time></trkpt><trkpt lat="33.7185751" lon="133.0804291"><ele>1275.8366666666668</ele><time>2024-04-19T23:54:31Z</time></trkpt><trkpt lat="33.7187638" lon="133.0804161"><ele>1280.72</ele><time>2024-04-19T23:55:43Z</time></trkpt><trkpt lat="33.718942" lon="133.0803628"><ele>1288.34</ele><time>2024-04-19T23:57:37Z</time></trkpt><trkpt lat="33.7191189" lon="133.0804171"><ele>1296.57</ele><time>2024-04-19T23:59:22Z</time></trkpt><trkpt lat="33.719297" lon="133.0804552"><ele>1305.4533333333336</ele><time>2024-04-20T00:00:40Z</time></trkpt><trkpt lat="33.719449" lon="133.0803322"><ele>1313.3366666666668</ele><time>2024-04-20T00:02:19Z</time></trkpt><trkpt lat="33.7196116" lon="133.0804351"><ele>1321.4766666666667</ele><time>2024-04-20T00:03:22Z</time></trkpt><trkpt lat="33.7197873" lon="133.0805351"><ele>1330.6133333333335</ele><time>2024-04-20T00:09:55Z</time></trkpt><trkpt lat="33.7199702" lon="133.080534"><ele>1339.3166666666666</ele><time>2024-04-20T00:11:04Z</time></trkpt><trkpt lat="33.7201402" lon="133.080612"><ele>1350.4133333333334</ele><time>2024-04-20T00:13:19Z</time></trkpt><trkpt lat="33.720308" lon="133.0807007"><ele>1360.2733333333333</ele><time>2024-04-20T00:14:43Z</time></trkpt><trkpt lat="33.7204693" lon="133.0808036"><ele>1370.6366666666665</ele><time>2024-04-20T00:16:55Z</time></trkpt><trkpt lat="33.7206499" lon="133.080821"><ele>1381.0233333333333</ele><time>2024-04-20T00:18:19Z</time></trkpt><trkpt lat="33.720835" lon="133.0808248"><ele>1390.87</ele><time>2024-04-20T00:19:43Z</time></trkpt><trkpt lat="33.7210147" lon="133.0807962"><ele>1399.5166666666667</ele><time>2024-04-20T00:20:55Z</time></trkpt><trkpt lat="33.7211884" lon="133.0807359"><ele>1405.78</ele><time>2024-04-20T00:21:34Z</time></trkpt><trkpt lat="33.7213768" lon="133.0807527"><ele>1411.3133333333335</ele><time>2024-04-20T00:23:01Z</time></trkpt><trkpt lat="33.7215589" lon="133.0807638"><ele>1417.2399999999998</ele><time>2024-04-20T00:23:58Z</time></trkpt><trkpt lat="33.7217491" lon="133.0807951"><ele>1423.3733333333332</ele><time>2024-04-20T00:27:04Z</time></trkpt><trkpt lat="33.7219216" lon="133.0808744"><ele>1428.7133333333331</ele><time>2024-04-20T00:27:37Z</time></trkpt><trkpt lat="33.7220941" lon="133.0809438"><ele>1431.4633333333331</ele><time>2024-04-20T00:29:13Z</time></trkpt><trkpt lat="33.7222532" lon="133.0810455"><ele>1432.1033333333332</ele><time>2024-04-20T00:30:28Z</time></trkpt><trkpt lat="33.7224255" lon="133.0809734"><ele>1431.8266666666666</ele><time>2024-04-20T00:32:00Z</time></trkpt><trkpt lat="33.7226028" lon="133.0809269"><ele>1431.3666666666668</ele><time>2024-04-20T00:33:28Z</time></trkpt><trkpt lat="33.7227788" lon="133.0808661"><ele>1430.58</ele><time>2024-04-20T00:34:37Z</time></trkpt><trkpt lat="33.7229603" lon="133.080778"><ele>1429.7666666666664</ele><time>2024-04-20T00:35:16Z</time></trkpt><trkpt lat="33.7231357" lon="133.0806848"><ele>1429.03</ele><time>2024-04-20T00:35:42Z</time></trkpt><trkpt lat="33.7233083" lon="133.0806025"><ele>1429.6633333333332</ele><time>2024-04-20T00:36:18Z</time></trkpt><trkpt lat="33.7234914" lon="133.0805889"><ele>1431.6133333333335</ele><time>2024-04-20T00:36:57Z</time></trkpt><trkpt lat="33.7236706" lon="133.0806215"><ele>1435.0</ele><time>2024-04-20T00:38:48Z</time></trkpt><trkpt lat="33.7238556" lon="133.0805439"><ele>1439.2733333333333</ele><time>2024-04-20T00:39:48Z</time></trkpt><trkpt lat="33.7240366" lon="133.0805413"><ele>1442.993333333333</ele><time>2024-04-20T00:41:03Z</time></trkpt><trkpt lat="33.7242138" lon="133.0804701"><ele>1447.0366666666666</ele><time>2024-04-20T00:41:42Z</time></trkpt><trkpt lat="33.7243923" lon="133.0803668"><ele>1449.5833333333333</ele><time>2024-04-20T00:44:37Z</time></trkpt><trkpt lat="33.7245597" lon="133.0802804"><ele>1452.16</ele><time>2024-04-20T00:45:15Z</time></trkpt><trkpt lat="33.7247368" lon="133.0802261"><ele>1453.6366666666665</ele><time>2024-04-20T00:46:03Z</time></trkpt><trkpt lat="33.7249151" lon="133.0802623"><ele>1456.7699999999998</ele><time>2024-04-20T00:53:27Z</time></trkpt><trkpt lat="33.7251029" lon="133.0802944"><ele>1460.966666666667</ele><time>2024-04-20T00:54:40Z</time></trkpt><trkpt lat="33.7252804" lon="133.0802561"><ele>1466.7033333333336</ele><time>2024-04-20T00:55:57Z</time></trkpt><trkpt lat="33.7254511" lon="133.0801798"><ele>1472.5866666666668</ele><time>2024-04-20T00:57:57Z</time></trkpt><trkpt lat="33.7256436" lon="133.0801337"><ele>1477.07</ele><time>2024-04-20T00:58:51Z</time></trkpt><trkpt lat="33.7258222" lon="133.0801009"><ele>1478.8966666666668</ele><time>2024-04-20T00:59:24Z</time></trkpt><trkpt lat="33.7259811" lon="133.0802142"><ele>1477.456666666667</ele><time>2024-04-20T01:00:15Z</time></trkpt><trkpt lat="33.7261022" lon="133.0803816"><ele>1474.5900000000001</ele><time>2024-04-20T01:01:28Z</time></trkpt><trkpt lat="33.7262541" lon="133.0804987"><ele>1470.46</ele><time>2024-04-20T01:03:38Z</time></trkpt><trkpt lat="33.7264094" lon="133.0806137"><ele>1466.0566666666666</ele><time>2024-04-20T01:04:14Z</time></trkpt><trkpt lat="33.7265857" lon="133.0806935"><ele>1460.8000000000002</ele><time>2024-04-20T01:04:57Z</time></trkpt><trkpt lat="33.726763" lon="133.0807331"><ele>1456.4433333333334</ele><time>2024-04-20T01:05:35Z</time></trkpt><trkpt lat="33.726944" lon="133.0807626"><ele>1450.956666666667</ele><time>2024-04-20T01:06:11Z</time></trkpt><trkpt lat="33.7271382" lon="133.0807434"><ele>1445.5566666666666</ele><time>2024-04-20T01:07:15Z</time></trkpt><trkpt lat="33.727313" lon="133.0808097"><ele>1440.8633333333335</ele><time>2024-04-20T01:07:44Z</time></trkpt><trkpt lat="33.7274788" lon="133.0808949"><ele>1438.6899999999998</ele><time>2024-04-20T01:08:25Z</time></trkpt><trkpt lat="33.7276659" lon="133.0809415"><ele>1440.9933333333336</ele><time>2024-04-20T01:09:40Z</time></trkpt><trkpt lat="33.7278429" lon="133.0809895"><ele>1446.8633333333335</ele><time>2024-04-20T01:12:22Z</time></trkpt><trkpt lat="33.7280318" lon="133.0809536"><ele>1454.38</ele><time>2024-04-20T01:15:14Z</time></trkpt><trkpt lat="33.7282113" lon="133.0809275"><ele>1461.32</ele><time>2024-04-20T01:16:10Z</time></trkpt><trkpt lat="33.7284057" lon="133.0808771"><ele>1467.6966666666667</ele><time>2024-04-20T01:18:28Z</time></trkpt><trkpt lat="33.7285726" lon="133.0807668"><ele>1476.2166666666665</ele><time>2024-04-20T01:20:41Z</time></trkpt><trkpt lat="33.7287561" lon="133.0807491"><ele>1484.5666666666666</ele><time>2024-04-20T01:23:10Z</time></trkpt><trkpt lat="33.7289351" lon="133.0807105"><ele>1493.3166666666666</ele><time>2024-04-20T01:25:58Z</time></trkpt><trkpt lat="33.729115" lon="133.0807631"><ele>1498.1733333333334</ele><time>2024-04-20T01:27:25Z</time></trkpt><trkpt lat="33.7292864" lon="133.0808308"><ele>1502.5466666666669</ele><time>2024-04-20T01:28:28Z</time></trkpt><trkpt lat="33.7294682" lon="133.0808399"><ele>1505.8500000000001</ele><time>2024-04-20T01:29:47Z</time></trkpt><trkpt lat="33.7296529" lon="133.0808691"><ele>1510.9799999999998</ele><time>2024-04-20T01:31:28Z</time></trkpt><trkpt lat="33.7298299" lon="133.0809174"><ele>1515.7266666666667</ele><time>2024-04-20T01:35:43Z</time></trkpt><trkpt lat="33.7300044" lon="133.081002"><ele>1519.79</ele><time>2024-04-20T01:39:13Z</time></trkpt><trkpt lat="33.7301664" lon="133.0811334"><ele>1522.7766666666666</ele><time>2024-04-20T01:42:25Z</time></trkpt><trkpt lat="33.7303335" lon="133.0812166"><ele>1525.93</ele><time>2024-04-20T01:51:46Z</time></trkpt><trkpt lat="33.7304229" lon="133.0814256"><ele>1529.1833333333334</ele><time>2024-04-20T01:53:49Z</time></trkpt><trkpt lat="33.7305626" lon="133.0815707"><ele>1532.8433333333335</ele><time>2024-04-20T01:54:34Z</time></trkpt><trkpt lat="33.7306832" lon="133.0817507"><ele>1537.1000000000001</ele><time>2024-04-20T01:55:46Z</time></trkpt><trkpt lat="33.7308129" lon="133.0819059"><ele>1542.3966666666668</ele><time>2024-04-20T01:56:34Z</time></trkpt><trkpt lat="33.7309458" lon="133.0820525"><ele>1548.2933333333333</ele><time>2024-04-20T01:58:07Z</time></trkpt><trkpt lat="33.7310992" lon="133.0821822"><ele>1553.9066666666665</ele><time>2024-04-20T02:00:35Z</time></trkpt><trkpt lat="33.7311969" lon="133.0823727"><ele>1560.3633333333335</ele><time>2024-04-20T02:02:04Z</time></trkpt><trkpt lat="33.7313683" lon="133.0824533"><ele>1565.7633333333335</ele><time>2024-04-20T02:02:52Z</time></trkpt><trkpt lat="33.7315545" lon="133.0824738"><ele>1570.0533333333335</ele><time>2024-04-20T02:03:31Z</time></trkpt><trkpt lat="33.7317447" lon="133.0825065"><ele>1571.76</ele><time>2024-04-20T02:04:10Z</time></trkpt><trkpt lat="33.7319254" lon="133.0825073"><ele>1573.63</ele><time>2024-04-20T02:04:55Z</time></trkpt><trkpt lat="33.7321127" lon="133.0824993"><ele>1575.49</ele><time>2024-04-20T02:05:46Z</time></trkpt><trkpt lat="33.7322799" lon="133.0825907"><ele>1577.4399999999998</ele><time>2024-04-20T02:06:23Z</time></trkpt><trkpt lat="33.7324741" lon="133.0825706"><ele>1579.4166666666667</ele><time>2024-04-20T02:06:52Z</time></trkpt><trkpt lat="33.7326609" lon="133.0825913"><ele>1582.3533333333335</ele><time>2024-04-20T02:07:52Z</time></trkpt><trkpt lat="33.7328388" lon="133.0825521"><ele>1586.91</ele><time>2024-04-20T02:08:55Z</time></trkpt><trkpt lat="33.7330283" lon="133.0825378"><ele>1592.83</ele><time>2024-04-20T02:18:10Z</time></trkpt><trkpt lat="33.733213" lon="133.0825206"><ele>1600.3466666666666</ele><time>2024-04-20T02:19:28Z</time></trkpt><trkpt lat="33.733406" lon="133.0825537"><ele>1607.9533333333331</ele><time>2024-04-20T02:21:34Z</time></trkpt><trkpt lat="33.73359" lon="133.0825501"><ele>1614.8966666666665</ele><time>2024-04-20T02:23:46Z</time></trkpt><trkpt lat="33.733771" lon="133.0825466"><ele>1620.58</ele><time>2024-04-20T02:25:07Z</time></trkpt><trkpt lat="33.7339533" lon="133.0825436"><ele>1625.5266666666666</ele><time>2024-04-20T02:26:19Z</time></trkpt><trkpt lat="33.7341179" lon="133.0824491"><ele>1633.0633333333335</ele><time>2024-04-20T02:29:01Z</time></trkpt><trkpt lat="33.7343041" lon="133.0824662"><ele>1642.456666666667</ele><time>2024-04-20T02:30:43Z</time></trkpt><trkpt lat="33.7344877" lon="133.0824865"><ele>1652.3666666666668</ele><time>2024-04-20T02:32:37Z</time></trkpt><trkpt lat="33.734658" lon="133.0825633"><ele>1659.6899999999998</ele><time>2024-04-20T02:34:43Z</time></trkpt><trkpt lat="33.7348209" lon="133.0826692"><ele>1665.39</ele><time>2024-04-20T02:35:58Z</time></trkpt><trkpt lat="33.7349966" lon="133.0827213"><ele>1672.7733333333333</ele><time>2024-04-20T02:37:50Z</time></trkpt><trkpt lat="33.735186" lon="133.0826912"><ele>1680.8233333333335</ele><time>2024-04-20T02:39:22Z</time></trkpt><trkpt lat="33.7353702" lon="133.0826849"><ele>1688.9300000000003</ele><time>2024-04-20T02:40:50Z</time></trkpt><trkpt lat="33.7355372" lon="133.0827723"><ele>1694.5833333333333</ele><time>2024-04-20T02:42:04Z</time></trkpt><trkpt lat="33.7357001" lon="133.0828763"><ele>1698.7900000000002</ele><time>2024-04-20T02:42:46Z</time></trkpt><trkpt lat="33.7358708" lon="133.0829574"><ele>1701.5</ele><time>2024-04-20T02:43:31Z</time></trkpt><trkpt lat="33.7360353" lon="133.0830505"><ele>1703.0033333333333</ele><time>2024-04-20T02:44:29Z</time></trkpt><trkpt lat="33.7362007" lon="133.0831382"><ele>1702.9166666666667</ele><time>2024-04-20T02:45:16Z</time></trkpt><trkpt lat="33.7363811" lon="133.0831679"><ele>1702.5766666666668</ele><time>2024-04-20T02:45:49Z</time></trkpt><trkpt lat="33.7365596" lon="133.0832402"><ele>1702.9433333333334</ele><time>2024-04-20T02:46:38Z</time></trkpt><trkpt lat="33.7367439" lon="133.0832885"><ele>1705.4566666666667</ele><time>2024-04-20T02:48:04Z</time></trkpt><trkpt lat="33.7369176" lon="133.0832264"><ele>1707.7666666666667</ele><time>2024-04-20T02:51:05Z</time></trkpt><trkpt lat="33.7367329" lon="133.0832761"><ele>1709.1566666666668</ele><time>2024-04-20T03:12:28Z</time></trkpt><trkpt lat="33.7365373" lon="133.083246"><ele>1707.0466666666669</ele><time>2024-04-20T03:16:31Z</time></trkpt><trkpt lat="33.7363561" lon="133.0831554"><ele>1704.7366666666667</ele><time>2024-04-20T03:17:15Z</time></trkpt><trkpt lat="33.7361711" lon="133.083124"><ele>1702.3066666666666</ele><time>2024-04-20T03:18:00Z</time></trkpt><trkpt lat="33.7359948" lon="133.0830317"><ele>1702.66</ele><time>2024-04-20T03:18:45Z</time></trkpt><trkpt lat="33.7358333" lon="133.0829172"><ele>1703.0</ele><time>2024-04-20T03:19:30Z</time></trkpt><trkpt lat="33.7356444" lon="133.082853"><ele>1702.9166666666667</ele><time>2024-04-20T03:19:54Z</time></trkpt><trkpt lat="33.735494" lon="133.0827065"><ele>1700.5833333333333</ele><time>2024-04-20T03:20:30Z</time></trkpt><trkpt lat="33.7353108" lon="133.0826421"><ele>1697.3666666666668</ele><time>2024-04-20T03:21:00Z</time></trkpt><trkpt lat="33.7351289" lon="133.0826676"><ele>1693.246666666667</ele><time>2024-04-20T03:21:45Z</time></trkpt><trkpt lat="33.7349265" lon="133.0826567"><ele>1687.3166666666668</ele><time>2024-04-20T03:22:24Z</time></trkpt><trkpt lat="33.7347447" lon="133.0826224"><ele>1678.2666666666664</ele><time>2024-04-20T03:23:00Z</time></trkpt><trkpt lat="33.7345969" lon="133.0824878"><ele>1668.6833333333334</ele><time>2024-04-20T03:23:33Z</time></trkpt><trkpt lat="33.7344198" lon="133.0824213"><ele>1660.5633333333333</ele><time>2024-04-20T03:24:12Z</time></trkpt><trkpt lat="33.7342367" lon="133.0824052"><ele>1654.9399999999998</ele><time>2024-04-20T03:24:42Z</time></trkpt><trkpt lat="33.7340507" lon="133.0824297"><ele>1649.1500000000003</ele><time>2024-04-20T03:25:33Z</time></trkpt><trkpt lat="33.733875" lon="133.0824933"><ele>1641.1899999999998</ele><time>2024-04-20T03:28:57Z</time></trkpt><trkpt lat="33.7336948" lon="133.0825065"><ele>1633.3</ele><time>2024-04-20T03:29:34Z</time></trkpt><trkpt lat="33.7335141" lon="133.0825116"><ele>1625.71</ele><time>2024-04-20T03:30:36Z</time></trkpt><trkpt lat="33.7333307" lon="133.0824708"><ele>1619.3533333333332</ele><time>2024-04-20T03:31:25Z</time></trkpt><trkpt lat="33.7331372" lon="133.0824573"><ele>1612.46</ele><time>2024-04-20T03:31:51Z</time></trkpt><trkpt lat="33.7329566" lon="133.0824646"><ele>1604.7066666666667</ele><time>2024-04-20T03:32:25Z</time></trkpt><trkpt lat="33.732774" lon="133.0825248"><ele>1598.0266666666666</ele><time>2024-04-20T03:33:12Z</time></trkpt><trkpt lat="33.7325918" lon="133.0825592"><ele>1590.93</ele><time>2024-04-20T03:33:58Z</time></trkpt><trkpt lat="33.7324066" lon="133.0825337"><ele>1586.1266666666668</ele><time>2024-04-20T03:34:24Z</time></trkpt><trkpt lat="33.7322186" lon="133.0825092"><ele>1581.8700000000001</ele><time>2024-04-20T03:34:57Z</time></trkpt><trkpt lat="33.7320404" lon="133.0824727"><ele>1579.3933333333334</ele><time>2024-04-20T03:35:36Z</time></trkpt><trkpt lat="33.7318484" lon="133.082457"><ele>1576.8466666666666</ele><time>2024-04-20T03:36:52Z</time></trkpt><trkpt lat="33.7316654" lon="133.0824395"><ele>1574.47</ele><time>2024-04-20T03:37:15Z</time></trkpt><trkpt lat="33.7314822" lon="133.0824291"><ele>1572.6533333333334</ele><time>2024-04-20T03:37:40Z</time></trkpt><trkpt lat="33.7312931" lon="133.0823512"><ele>1569.9733333333334</ele><time>2024-04-20T03:38:06Z</time></trkpt><trkpt lat="33.7311522" lon="133.0822"><ele>1566.8166666666668</ele><time>2024-04-20T03:38:39Z</time></trkpt><trkpt lat="33.7310207" lon="133.0820453"><ele>1561.4733333333334</ele><time>2024-04-20T03:39:14Z</time></trkpt><trkpt lat="33.7308667" lon="133.0819173"><ele>1556.14</ele><time>2024-04-20T03:39:47Z</time></trkpt><trkpt lat="33.7307407" lon="133.0817398"><ele>1549.9233333333334</ele><time>2024-04-20T03:40:14Z</time></trkpt><trkpt lat="33.7306051" lon="133.0815639"><ele>1543.7133333333334</ele><time>2024-04-20T03:40:41Z</time></trkpt><trkpt lat="33.7304659" lon="133.0814131"><ele>1537.7</ele><time>2024-04-20T03:41:08Z</time></trkpt><trkpt lat="33.7303458" lon="133.0812512"><ele>1532.07</ele><time>2024-04-20T03:41:38Z</time></trkpt><trkpt lat="33.7301998" lon="133.0811005"><ele>1528.3533333333332</ele><time>2024-04-20T03:42:23Z</time></trkpt><trkpt lat="33.730096" lon="133.0808941"><ele>1522.6733333333334</ele><time>2024-04-20T03:43:14Z</time></trkpt><trkpt lat="33.7300592" lon="133.0806589"><ele>1517.1633333333332</ele><time>2024-04-20T03:43:38Z</time></trkpt><trkpt lat="33.7300438" lon="133.0804372"><ele>1509.64</ele><time>2024-04-20T03:44:20Z</time></trkpt><trkpt lat="33.7299915" lon="133.0802226"><ele>1501.0766666666666</ele><time>2024-04-20T03:45:02Z</time></trkpt><trkpt lat="33.7299494" lon="133.0799961"><ele>1489.8966666666668</ele><time>2024-04-20T03:48:59Z</time></trkpt><trkpt lat="33.7300216" lon="133.0797945"><ele>1475.8966666666668</ele><time>2024-04-20T03:49:38Z</time></trkpt><trkpt lat="33.7300345" lon="133.0795649"><ele>1462.7833333333335</ele><time>2024-04-20T03:50:11Z</time></trkpt><trkpt lat="33.730009" lon="133.0793368"><ele>1449.3933333333334</ele><time>2024-04-20T03:50:44Z</time></trkpt><trkpt lat="33.730013" lon="133.0791165"><ele>1438.5433333333333</ele><time>2024-04-20T03:51:23Z</time></trkpt><trkpt lat="33.7300305" lon="133.0788757"><ele>1426.1333333333334</ele><time>2024-04-20T03:51:56Z</time></trkpt><trkpt lat="33.7300301" lon="133.078656"><ele>1414.63</ele><time>2024-04-20T03:53:14Z</time></trkpt><trkpt lat="33.730032" lon="133.0784182"><ele>1402.47</ele><time>2024-04-20T03:53:59Z</time></trkpt><trkpt lat="33.7300336" lon="133.0781995"><ele>1392.05</ele><time>2024-04-20T03:55:00Z</time></trkpt><trkpt lat="33.7300452" lon="133.0779812"><ele>1380.7</ele><time>2024-04-20T03:55:32Z</time></trkpt><trkpt lat="33.7300337" lon="133.0777631"><ele>1370.2966666666669</ele><time>2024-04-20T03:55:59Z</time></trkpt><trkpt lat="33.7299973" lon="133.077539"><ele>1359.74</ele><time>2024-04-20T03:56:39Z</time></trkpt><trkpt lat="33.7299592" lon="133.0773274"><ele>1350.8866666666668</ele><time>2024-04-20T03:57:20Z</time></trkpt><trkpt lat="33.7298048" lon="133.0772055"><ele>1340.4366666666667</ele><time>2024-04-20T03:58:06Z</time></trkpt><trkpt lat="33.7297245" lon="133.0769899"><ele>1330.3766666666668</ele><time>2024-04-20T03:59:08Z</time></trkpt><trkpt lat="33.729634" lon="133.0767925"><ele>1320.96</ele><time>2024-04-20T04:00:26Z</time></trkpt><trkpt lat="33.7295973" lon="133.0765629"><ele>1311.8433333333335</ele><time>2024-04-20T04:00:57Z</time></trkpt><trkpt lat="33.729484" lon="133.0763828"><ele>1302.8833333333334</ele><time>2024-04-20T04:01:36Z</time></trkpt><trkpt lat="33.7294839" lon="133.076166"><ele>1292.17</ele><time>2024-04-20T04:02:12Z</time></trkpt><trkpt lat="33.7294295" lon="133.0759408"><ele>1281.7066666666667</ele><time>2024-04-20T04:02:48Z</time></trkpt><trkpt lat="33.7293279" lon="133.0757618"><ele>1270.3500000000001</ele><time>2024-04-20T04:04:45Z</time></trkpt><trkpt lat="33.7293214" lon="133.0755403"><ele>1258.83</ele><time>2024-04-20T04:06:41Z</time></trkpt><trkpt lat="33.7292888" lon="133.0753271"><ele>1245.4666666666665</ele><time>2024-04-20T04:07:44Z</time></trkpt><trkpt lat="33.72934" lon="133.075113"><ele>1230.6533333333334</ele><time>2024-04-20T04:08:34Z</time></trkpt><trkpt lat="33.7292912" lon="133.0748933"><ele>1215.8400000000001</ele><time>2024-04-20T04:10:28Z</time></trkpt><trkpt lat="33.729324" lon="133.0746678"><ele>1204.0666666666666</ele><time>2024-04-20T04:11:18Z</time></trkpt><trkpt lat="33.7293329" lon="133.0744319"><ele>1193.8999999999999</ele><time>2024-04-20T04:11:54Z</time></trkpt><trkpt lat="33.7293476" lon="133.0742165"><ele>1183.26</ele><time>2024-04-20T04:14:54Z</time></trkpt><trkpt lat="33.7294231" lon="133.0744313"><ele>1178.3666666666668</ele><time>2024-04-20T04:19:21Z</time></trkpt><trkpt lat="33.7295609" lon="133.0745849"><ele>1177.9933333333333</ele><time>2024-04-20T04:19:44Z</time></trkpt><trkpt lat="33.729704" lon="133.0747324"><ele>1183.67</ele><time>2024-04-20T04:20:05Z</time></trkpt><trkpt lat="33.7297265" lon="133.0745015"><ele>1180.6466666666668</ele><time>2024-04-20T04:20:38Z</time></trkpt><trkpt lat="33.7296201" lon="133.0743087"><ele>1175.3966666666668</ele><time>2024-04-20T04:20:55Z</time></trkpt><trkpt lat="33.7294984" lon="133.0741227"><ele>1166.36</ele><time>2024-04-20T04:21:13Z</time></trkpt><trkpt lat="33.7294559" lon="133.0739029"><ele>1161.6366666666665</ele><time>2024-04-20T04:21:31Z</time></trkpt><trkpt lat="33.7293423" lon="133.0737341"><ele>1156.6499999999999</ele><time>2024-04-20T04:21:45Z</time></trkpt><trkpt lat="33.729357" lon="133.0734932"><ele>1151.5933333333332</ele><time>2024-04-20T04:22:03Z</time></trkpt><trkpt lat="33.7292978" lon="133.0732868"><ele>1147.18</ele><time>2024-04-20T04:23:21Z</time></trkpt><trkpt lat="33.7293209" lon="133.073053"><ele>1142.386666666667</ele><time>2024-04-20T04:23:59Z</time></trkpt><trkpt lat="33.7293153" lon="133.0728216"><ele>1138.21</ele><time>2024-04-20T04:24:26Z</time></trkpt><trkpt lat="33.729306" lon="133.0725998"><ele>1132.8500000000001</ele><time>2024-04-20T04:25:14Z</time></trkpt><trkpt lat="33.7293592" lon="133.0723824"><ele>1126.5433333333333</ele><time>2024-04-20T04:25:53Z</time></trkpt><trkpt lat="33.729384" lon="133.0721542"><ele>1119.6266666666668</ele><time>2024-04-20T04:26:26Z</time></trkpt><trkpt lat="33.7293093" lon="133.0719539"><ele>1114.6366666666665</ele><time>2024-04-20T04:26:56Z</time></trkpt><trkpt lat="33.7292181" lon="133.0717451"><ele>1109.6266666666668</ele><time>2024-04-20T04:27:31Z</time></trkpt><trkpt lat="33.7291449" lon="133.0715395"><ele>1102.8266666666666</ele><time>2024-04-20T04:29:17Z</time></trkpt><trkpt lat="33.7290594" lon="133.0713358"><ele>1091.9466666666667</ele><time>2024-04-20T04:29:53Z</time></trkpt><trkpt lat="33.7289626" lon="133.0711502"><ele>1079.75</ele><time>2024-04-20T04:30:37Z</time></trkpt><trkpt lat="33.728899" lon="133.0709397"><ele>1066.006666666667</ele><time>2024-04-20T04:31:19Z</time></trkpt><trkpt lat="33.7289831" lon="133.0707446"><ele>1052.8500000000001</ele><time>2024-04-20T04:32:58Z</time></trkpt><trkpt lat="33.7290232" lon="133.0705306"><ele>1041.0033333333333</ele><time>2024-04-20T04:42:07Z</time></trkpt><trkpt lat="33.7289727" lon="133.0703191"><ele>1029.14</ele><time>2024-04-20T04:43:04Z</time></trkpt><trkpt lat="33.7289814" lon="133.0700959"><ele>1014.5066666666667</ele><time>2024-04-20T04:44:13Z</time></trkpt><trkpt lat="33.7290564" lon="133.0698905"><ele>999.3666666666668</ele><time>2024-04-20T04:47:46Z</time></trkpt><trkpt lat="33.729107" lon="133.0696831"><ele>986.9100000000002</ele><time>2024-04-20T04:48:55Z</time></trkpt><trkpt lat="33.7290587" lon="133.0694707"><ele>974.9</ele><time>2024-04-20T04:49:55Z</time></trkpt><trkpt lat="33.7290004" lon="133.0692628"><ele>962.1633333333333</ele><time>2024-04-20T04:51:01Z</time></trkpt><trkpt lat="33.7289099" lon="133.0690742"><ele>948.8233333333334</ele><time>2024-04-20T04:52:07Z</time></trkpt><trkpt lat="33.7287286" lon="133.0691055"><ele>940.64</ele><time>2024-04-20T04:52:55Z</time></trkpt><trkpt lat="33.728541" lon="133.0690679"><ele>936.7400000000001</ele><time>2024-04-20T04:53:19Z</time></trkpt><trkpt lat="33.7283589" lon="133.0690153"><ele>935.88</ele><time>2024-04-20T04:53:34Z</time></trkpt><trkpt lat="33.7281789" lon="133.0690007"><ele>935.3699999999999</ele><time>2024-04-20T04:53:51Z</time></trkpt><trkpt lat="33.7279949" lon="133.0689957"><ele>934.6266666666667</ele><time>2024-04-20T04:54:07Z</time></trkpt><trkpt lat="33.7277933" lon="133.0690316"><ele>934.4733333333334</ele><time>2024-04-20T04:54:23Z</time></trkpt><trkpt lat="33.7276121" lon="133.0690276"><ele>933.6066666666667</ele><time>2024-04-20T04:54:37Z</time></trkpt><trkpt lat="33.7274117" lon="133.0690375"><ele>932.7600000000001</ele><time>2024-04-20T04:54:54Z</time></trkpt><trkpt lat="33.7272212" lon="133.0690841"><ele>932.6333333333333</ele><time>2024-04-20T04:55:11Z</time></trkpt><trkpt lat="33.7270372" lon="133.0690643"><ele>932.3833333333333</ele><time>2024-04-20T04:55:28Z</time></trkpt><trkpt lat="33.7268502" lon="133.0689529"><ele>934.0633333333334</ele><time>2024-04-20T04:55:44Z</time></trkpt><trkpt lat="33.7266612" lon="133.0688714"><ele>936.85</ele><time>2024-04-20T04:56:08Z</time></trkpt><trkpt lat="33.7264795" lon="133.0688379"><ele>940.4200000000001</ele><time>2024-04-20T04:56:24Z</time></trkpt><trkpt lat="33.7262594" lon="133.0688346"><ele>939.8366666666667</ele><time>2024-04-20T04:56:42Z</time></trkpt><trkpt lat="33.7260771" lon="133.0688043"><ele>936.1866666666666</ele><time>2024-04-20T04:56:56Z</time></trkpt><trkpt lat="33.7258946" lon="133.0686586"><ele>931.3766666666667</ele><time>2024-04-20T04:57:46Z</time></trkpt><trkpt lat="33.725728" lon="133.0685403"><ele>926.0133333333333</ele><time>2024-04-20T04:58:00Z</time></trkpt><trkpt lat="33.7255525" lon="133.0686222"><ele>922.6966666666667</ele><time>2024-04-20T04:58:26Z</time></trkpt><trkpt lat="33.7253785" lon="133.0687657"><ele>920.1700000000001</ele><time>2024-04-20T04:58:43Z</time></trkpt><trkpt lat="33.7252971" lon="133.0689859"><ele>922.0266666666666</ele><time>2024-04-20T04:58:57Z</time></trkpt><trkpt lat="33.7251064" lon="133.0690946"><ele>922.9366666666666</ele><time>2024-04-20T04:59:14Z</time></trkpt><trkpt lat="33.7249074" lon="133.0691119"><ele>922.7033333333334</ele><time>2024-04-20T04:59:31Z</time></trkpt><trkpt lat="33.7247297" lon="133.0690591"><ele>918.48</ele><time>2024-04-20T04:59:48Z</time></trkpt><trkpt lat="33.7245289" lon="133.0689572"><ele>914.9366666666666</ele><time>2024-04-20T05:00:14Z</time></trkpt><trkpt lat="33.7243429" lon="133.0690191"><ele>913.7600000000001</ele><time>2024-04-20T05:00:31Z</time></trkpt><trkpt lat="33.7242416" lon="133.0692423"><ele>914.91</ele><time>2024-04-20T05:00:48Z</time></trkpt><trkpt lat="33.7240858" lon="133.0693962"><ele>914.9366666666668</ele><time>2024-04-20T05:01:20Z</time></trkpt><trkpt lat="33.723925" lon="133.0695396"><ele>914.3733333333334</ele><time>2024-04-20T05:01:37Z</time></trkpt><trkpt lat="33.7237324" lon="133.0696137"><ele>913.8966666666666</ele><time>2024-04-20T05:01:58Z</time></trkpt><trkpt lat="33.7235533" lon="133.0696596"><ele>914.0333333333333</ele><time>2024-04-20T05:02:15Z</time></trkpt><trkpt lat="33.7233705" lon="133.0696482"><ele>914.1766666666666</ele><time>2024-04-20T05:02:33Z</time></trkpt><trkpt lat="33.723285" lon="133.0698465"><ele>914.7800000000001</ele><time>2024-04-20T05:02:50Z</time></trkpt><trkpt lat="33.7231972" lon="133.070055"><ele>914.75</ele><time>2024-04-20T05:03:11Z</time></trkpt><trkpt lat="33.7231585" lon="133.0702895"><ele>915.9200000000001</ele><time>2024-04-20T05:03:28Z</time></trkpt><trkpt lat="33.7230325" lon="133.0704546"><ele>916.3633333333333</ele><time>2024-04-20T05:03:46Z</time></trkpt><trkpt lat="33.7228503" lon="133.0705175"><ele>915.8933333333333</ele><time>2024-04-20T05:04:03Z</time></trkpt><trkpt lat="33.7228111" lon="133.0707581"><ele>915.9333333333334</ele><time>2024-04-20T05:04:20Z</time></trkpt><trkpt lat="33.7227451" lon="133.0709652"><ele>918.46</ele><time>2024-04-20T05:04:37Z</time></trkpt><trkpt lat="33.7226236" lon="133.071171"><ele>921.5833333333334</ele><time>2024-04-20T05:04:54Z</time></trkpt><trkpt lat="33.7225084" lon="133.0713613"><ele>924.46</ele><time>2024-04-20T05:05:11Z</time></trkpt><trkpt lat="33.7223428" lon="133.0714759"><ele>925.3866666666667</ele><time>2024-04-20T05:05:28Z</time></trkpt><trkpt lat="33.7221482" lon="133.071552"><ele>923.4533333333334</ele><time>2024-04-20T05:05:46Z</time></trkpt><trkpt lat="33.7220263" lon="133.0717339"><ele>921.16</ele><time>2024-04-20T05:06:03Z</time></trkpt><trkpt lat="33.7218978" lon="133.0719243"><ele>918.2600000000001</ele><time>2024-04-20T05:06:20Z</time></trkpt><trkpt lat="33.7217096" lon="133.0718834"><ele>921.2033333333334</ele><time>2024-04-20T05:06:43Z</time></trkpt><trkpt lat="33.721697" lon="133.0716368"><ele>922.1033333333334</ele><time>2024-04-20T05:07:03Z</time></trkpt><trkpt lat="33.7217242" lon="133.0713863"><ele>919.0266666666666</ele><time>2024-04-20T05:07:20Z</time></trkpt><trkpt lat="33.7217231" lon="133.0711684"><ele>913.2466666666666</ele><time>2024-04-20T05:07:35Z</time></trkpt><trkpt lat="33.7217448" lon="133.070948"><ele>906.9833333333335</ele><time>2024-04-20T05:07:51Z</time></trkpt><trkpt lat="33.7216884" lon="133.070735"><ele>905.0066666666668</ele><time>2024-04-20T05:08:14Z</time></trkpt><trkpt lat="33.7215796" lon="133.0705308"><ele>904.1366666666668</ele><time>2024-04-20T05:08:31Z</time></trkpt><trkpt lat="33.7213986" lon="133.0705424"><ele>904.6366666666667</ele><time>2024-04-20T05:08:45Z</time></trkpt><trkpt lat="33.7212163" lon="133.0706125"><ele>905.4066666666668</ele><time>2024-04-20T05:09:02Z</time></trkpt><trkpt lat="33.7210168" lon="133.0706853"><ele>905.2400000000001</ele><time>2024-04-20T05:09:21Z</time></trkpt><trkpt lat="33.7208194" lon="133.0706097"><ele>903.4866666666667</ele><time>2024-04-20T05:09:39Z</time></trkpt><trkpt lat="33.720634" lon="133.070677"><ele>902.1433333333334</ele><time>2024-04-20T05:09:56Z</time></trkpt><trkpt lat="33.7204326" lon="133.0705955"><ele>899.3800000000001</ele><time>2024-04-20T05:10:13Z</time></trkpt><trkpt lat="33.720307" lon="133.0704302"><ele>896.85</ele><time>2024-04-20T05:10:46Z</time></trkpt><trkpt lat="33.7201253" lon="133.0704658"><ele>893.8966666666666</ele><time>2024-04-20T05:11:03Z</time></trkpt><trkpt lat="33.7199675" lon="133.0705895"><ele>893.2600000000001</ele><time>2024-04-20T05:11:23Z</time></trkpt><trkpt lat="33.7197782" lon="133.0706969"><ele>893.6833333333334</ele><time>2024-04-20T05:11:47Z</time></trkpt><trkpt lat="33.7196557" lon="133.07088"><ele>894.6733333333333</ele><time>2024-04-20T05:12:01Z</time></trkpt><trkpt lat="33.7195391" lon="133.0710463"><ele>895.2633333333333</ele><time>2024-04-20T05:12:15Z</time></trkpt><trkpt lat="33.7194167" lon="133.071208"><ele>895.6733333333333</ele><time>2024-04-20T05:12:30Z</time></trkpt><trkpt lat="33.7193619" lon="133.0714563"><ele>895.7166666666666</ele><time>2024-04-20T05:12:50Z</time></trkpt><trkpt lat="33.7192506" lon="133.0716453"><ele>896.29</ele><time>2024-04-20T05:13:07Z</time></trkpt><trkpt lat="33.7190381" lon="133.0716525"><ele>896.4633333333333</ele><time>2024-04-20T05:13:24Z</time></trkpt><trkpt lat="33.7188532" lon="133.0716086"><ele>895.7466666666668</ele><time>2024-04-20T05:13:38Z</time></trkpt><trkpt lat="33.7186693" lon="133.0716717"><ele>895.33</ele><time>2024-04-20T05:13:53Z</time></trkpt><trkpt lat="33.7185871" lon="133.0718752"><ele>895.8166666666666</ele><time>2024-04-20T05:14:10Z</time></trkpt><trkpt lat="33.7186021" lon="133.0720985"><ele>897.2266666666668</ele><time>2024-04-20T05:14:24Z</time></trkpt><trkpt lat="33.7185767" lon="133.0723486"><ele>899.2833333333334</ele><time>2024-04-20T05:14:41Z</time></trkpt><trkpt lat="33.7185483" lon="133.0725732"><ele>900.1266666666667</ele><time>2024-04-20T05:14:57Z</time></trkpt><trkpt lat="33.7184234" lon="133.0727523"><ele>899.4133333333333</ele><time>2024-04-20T05:15:12Z</time></trkpt><trkpt lat="33.7182429" lon="133.0727383"><ele>897.2066666666666</ele><time>2024-04-20T05:15:24Z</time></trkpt><trkpt lat="33.7180874" lon="133.072601"><ele>896.0533333333333</ele><time>2024-04-20T05:15:38Z</time></trkpt><trkpt lat="33.7179448" lon="133.072411"><ele>894.9766666666668</ele><time>2024-04-20T05:15:55Z</time></trkpt><trkpt lat="33.7177807" lon="133.0722589"><ele>894.4</ele><time>2024-04-20T05:16:12Z</time></trkpt><trkpt lat="33.7175845" lon="133.0723023"><ele>893.5366666666667</ele><time>2024-04-20T05:16:27Z</time></trkpt><trkpt lat="33.7174079" lon="133.072243"><ele>893.8966666666666</ele><time>2024-04-20T05:17:05Z</time></trkpt><trkpt lat="33.7172145" lon="133.0721208"><ele>892.0900000000001</ele><time>2024-04-20T05:17:22Z</time></trkpt><trkpt lat="33.7170342" lon="133.0721794"><ele>890.5366666666665</ele><time>2024-04-20T05:17:36Z</time></trkpt><trkpt lat="33.7170142" lon="133.0724308"><ele>890.2033333333334</ele><time>2024-04-20T05:17:50Z</time></trkpt><trkpt lat="33.7170001" lon="133.0726786"><ele>893.2066666666666</ele><time>2024-04-20T05:18:07Z</time></trkpt><trkpt lat="33.7169188" lon="133.0729025"><ele>896.1166666666668</ele><time>2024-04-20T05:18:24Z</time></trkpt><trkpt lat="33.7167628" lon="133.0730837"><ele>896.6433333333333</ele><time>2024-04-20T05:18:42Z</time></trkpt><trkpt lat="33.7165746" lon="133.0730878"><ele>895.0499999999998</ele><time>2024-04-20T05:18:56Z</time></trkpt><trkpt lat="33.7164787" lon="133.0732855"><ele>894.6966666666667</ele><time>2024-04-20T05:19:10Z</time></trkpt><trkpt lat="33.7163101" lon="133.0733796"><ele>893.9200000000001</ele><time>2024-04-20T05:19:24Z</time></trkpt><trkpt lat="33.7161884" lon="133.0735671"><ele>893.15</ele><time>2024-04-20T05:19:38Z</time></trkpt><trkpt lat="33.7160642" lon="133.0737411"><ele>892.0733333333334</ele><time>2024-04-20T05:19:55Z</time></trkpt><trkpt lat="33.715893" lon="133.0736357"><ele>893.1066666666667</ele><time>2024-04-20T05:20:09Z</time></trkpt><trkpt lat="33.7158305" lon="133.0734095"><ele>892.7133333333335</ele><time>2024-04-20T05:20:24Z</time></trkpt><trkpt lat="33.7158658" lon="133.0731669"><ele>889.6</ele><time>2024-04-20T05:20:39Z</time></trkpt><trkpt lat="33.7159179" lon="133.0729257"><ele>884.1</ele><time>2024-04-20T05:20:56Z</time></trkpt><trkpt lat="33.7159196" lon="133.0727096"><ele>880.7733333333334</ele><time>2024-04-20T05:21:10Z</time></trkpt><trkpt lat="33.7157953" lon="133.0725407"><ele>880.7400000000001</ele><time>2024-04-20T05:21:27Z</time></trkpt><trkpt lat="33.715601" lon="133.0724634"><ele>882.6999999999999</ele><time>2024-04-20T05:21:41Z</time></trkpt><trkpt lat="33.715416" lon="133.0723339"><ele>884.35</ele><time>2024-04-20T05:21:58Z</time></trkpt><trkpt lat="33.7152089" lon="133.0722668"><ele>883.7733333333334</ele><time>2024-04-20T05:22:16Z</time></trkpt><trkpt lat="33.7150439" lon="133.0723775"><ele>881.6733333333333</ele><time>2024-04-20T05:22:30Z</time></trkpt><trkpt lat="33.7150198" lon="133.0725914"><ele>881.8566666666667</ele><time>2024-04-20T05:22:41Z</time></trkpt><trkpt lat="33.7149382" lon="133.0727909"><ele>883.3566666666667</ele><time>2024-04-20T05:22:56Z</time></trkpt><trkpt lat="33.714742" lon="133.0729069"><ele>884.9566666666668</ele><time>2024-04-20T05:23:12Z</time></trkpt><trkpt lat="33.7145574" lon="133.0729637"><ele>883.7800000000001</ele><time>2024-04-20T05:23:26Z</time></trkpt><trkpt lat="33.7143999" lon="133.0731168"><ele>882.4666666666667</ele><time>2024-04-20T05:23:40Z</time></trkpt><trkpt lat="33.7142489" lon="133.073292"><ele>880.8633333333333</ele><time>2024-04-20T05:24:12Z</time></trkpt><trkpt lat="33.7140513" lon="133.0732285"><ele>879.2399999999999</ele><time>2024-04-20T05:24:29Z</time></trkpt><trkpt lat="33.7139081" lon="133.0730733"><ele>877.0366666666667</ele><time>2024-04-20T05:25:40Z</time></trkpt><trkpt lat="33.7138428" lon="133.0728459"><ele>876.4133333333333</ele><time>2024-04-20T05:25:57Z</time></trkpt><trkpt lat="33.7138592" lon="133.0725815"><ele>874.5233333333332</ele><time>2024-04-20T05:26:15Z</time></trkpt><trkpt lat="33.7138662" lon="133.0723568"><ele>870.7800000000001</ele><time>2024-04-20T05:26:29Z</time></trkpt><trkpt lat="33.7138785" lon="133.0721194"><ele>866.5300000000001</ele><time>2024-04-20T05:26:46Z</time></trkpt><trkpt lat="33.7137883" lon="133.0719143"><ele>864.2633333333333</ele><time>2024-04-20T05:27:05Z</time></trkpt><trkpt lat="33.7136066" lon="133.0718031"><ele>863.7566666666667</ele><time>2024-04-20T05:27:22Z</time></trkpt><trkpt lat="33.7134202" lon="133.0718083"><ele>863.3733333333333</ele><time>2024-04-20T05:27:39Z</time></trkpt><trkpt lat="33.7132169" lon="133.0718462"><ele>863.6999999999999</ele><time>2024-04-20T05:27:56Z</time></trkpt><trkpt lat="33.7130057" lon="133.0718319"><ele>863.5300000000001</ele><time>2024-04-20T05:28:13Z</time></trkpt><trkpt lat="33.7128186" lon="133.0718802"><ele>861.0066666666667</ele><time>2024-04-20T05:28:27Z</time></trkpt><trkpt lat="33.7126155" lon="133.0718206"><ele>859.31</ele><time>2024-04-20T05:28:47Z</time></trkpt><trkpt lat="33.7125081" lon="133.0716396"><ele>856.5333333333333</ele><time>2024-04-20T05:29:05Z</time></trkpt><trkpt lat="33.7123505" lon="133.0715134"><ele>856.2533333333332</ele><time>2024-04-20T05:29:19Z</time></trkpt><trkpt lat="33.7121597" lon="133.071464"><ele>854.34</ele><time>2024-04-20T05:29:34Z</time></trkpt><trkpt lat="33.711992" lon="133.0713756"><ele>854.0233333333334</ele><time>2024-04-20T05:29:49Z</time></trkpt><trkpt lat="33.7118515" lon="133.0712304"><ele>852.1833333333334</ele><time>2024-04-20T05:30:06Z</time></trkpt><trkpt lat="33.7116978" lon="133.0710496"><ele>848.9666666666667</ele><time>2024-04-20T05:30:23Z</time></trkpt><trkpt lat="33.7114942" lon="133.0710437"><ele>846.1066666666667</ele><time>2024-04-20T05:30:38Z</time></trkpt><trkpt lat="33.7112893" lon="133.0710954"><ele>843.91</ele><time>2024-04-20T05:31:01Z</time></trkpt><trkpt lat="33.7111283" lon="133.0709821"><ele>842.8699999999999</ele><time>2024-04-20T05:31:18Z</time></trkpt><trkpt lat="33.7109148" lon="133.0710073"><ele>841.7466666666666</ele><time>2024-04-20T05:31:34Z</time></trkpt><trkpt lat="33.710736" lon="133.0709781"><ele>841.8033333333333</ele><time>2024-04-20T05:32:01Z</time></trkpt><trkpt lat="33.7105416" lon="133.0708944"><ele>840.7733333333334</ele><time>2024-04-20T05:32:17Z</time></trkpt><trkpt lat="33.7103405" lon="133.0709694"><ele>839.4399999999999</ele><time>2024-04-20T05:32:34Z</time></trkpt><trkpt lat="33.71034" lon="133.071217"><ele>839.9066666666668</ele><time>2024-04-20T05:32:49Z</time></trkpt><trkpt lat="33.7103248" lon="133.0714492"><ele>842.5766666666667</ele><time>2024-04-20T05:33:04Z</time></trkpt><trkpt lat="33.7102593" lon="133.0716769"><ele>844.9966666666666</ele><time>2024-04-20T05:33:21Z</time></trkpt><trkpt lat="33.7101271" lon="133.071858"><ele>842.6700000000001</ele><time>2024-04-20T05:33:37Z</time></trkpt><trkpt lat="33.7099465" lon="133.0719319"><ele>838.64</ele><time>2024-04-20T05:33:54Z</time></trkpt><trkpt lat="33.7098259" lon="133.0717313"><ele>835.0533333333333</ele><time>2024-04-20T05:34:14Z</time></trkpt><trkpt lat="33.7096664" lon="133.0715702"><ele>834.23</ele><time>2024-04-20T05:34:31Z</time></trkpt><trkpt lat="33.7095105" lon="133.0714048"><ele>834.5833333333334</ele><time>2024-04-20T05:34:49Z</time></trkpt><trkpt lat="33.7093657" lon="133.0712134"><ele>834.5166666666668</ele><time>2024-04-20T05:35:07Z</time></trkpt><trkpt lat="33.7091623" lon="133.0712517"><ele>834.9966666666666</ele><time>2024-04-20T05:35:24Z</time></trkpt><trkpt lat="33.708959" lon="133.0712271"><ele>834.8733333333334</ele><time>2024-04-20T05:35:39Z</time></trkpt><trkpt lat="33.7087528" lon="133.0712039"><ele>831.06</ele><time>2024-04-20T05:35:57Z</time></trkpt><trkpt lat="33.708538" lon="133.0711876"><ele>824.5433333333334</ele><time>2024-04-20T05:36:13Z</time></trkpt><trkpt lat="33.7083725" lon="133.0712818"><ele>819.8699999999999</ele><time>2024-04-20T05:36:27Z</time></trkpt><trkpt lat="33.7081901" lon="133.0712351"><ele>818.82</ele><time>2024-04-20T05:36:41Z</time></trkpt><trkpt lat="33.7079883" lon="133.0713005"><ele>820.7833333333333</ele><time>2024-04-20T05:36:58Z</time></trkpt><trkpt lat="33.7078174" lon="133.071457"><ele>821.8433333333334</ele><time>2024-04-20T05:37:15Z</time></trkpt><trkpt lat="33.7076398" lon="133.0715099"><ele>823.5766666666667</ele><time>2024-04-20T05:37:30Z</time></trkpt><trkpt lat="33.7074291" lon="133.0714882"><ele>823.87</ele><time>2024-04-20T05:37:46Z</time></trkpt><trkpt lat="33.7072563" lon="133.0714053"><ele>823.93</ele><time>2024-04-20T05:38:31Z</time></trkpt><trkpt lat="33.7070679" lon="133.0712809"><ele>821.41</ele><time>2024-04-20T05:38:49Z</time></trkpt><trkpt lat="33.7068846" lon="133.0712273"><ele>818.4666666666667</ele><time>2024-04-20T05:39:03Z</time></trkpt><trkpt lat="33.7066719" lon="133.0712074"><ele>814.5866666666667</ele><time>2024-04-20T05:39:19Z</time></trkpt><trkpt lat="33.7064662" lon="133.0711963"><ele>813.5133333333333</ele><time>2024-04-20T05:39:36Z</time></trkpt><trkpt lat="33.7062637" lon="133.0712699"><ele>813.8366666666666</ele><time>2024-04-20T05:39:53Z</time></trkpt><trkpt lat="33.7060956" lon="133.0714031"><ele>815.0633333333334</ele><time>2024-04-20T05:40:09Z</time></trkpt><trkpt lat="33.7059642" lon="133.0715847"><ele>815.8833333333333</ele><time>2024-04-20T05:40:24Z</time></trkpt><trkpt lat="33.7057756" lon="133.0716016"><ele>815.2566666666668</ele><time>2024-04-20T05:40:38Z</time></trkpt><trkpt lat="33.7055659" lon="133.0715725"><ele>814.7466666666668</ele><time>2024-04-20T05:40:54Z</time></trkpt><trkpt lat="33.7053929" lon="133.0714975"><ele>814.1866666666666</ele><time>2024-04-20T05:41:09Z</time></trkpt><trkpt lat="33.7052014" lon="133.0713937"><ele>812.0833333333334</ele><time>2024-04-20T05:41:25Z</time></trkpt><trkpt lat="33.7050293" lon="133.0714622"><ele>809.3766666666667</ele><time>2024-04-20T05:41:39Z</time></trkpt><trkpt lat="33.704849" lon="133.0715414"><ele>808.4066666666668</ele><time>2024-04-20T05:42:56Z</time></trkpt><trkpt lat="33.7046486" lon="133.0715584"><ele>810.4433333333333</ele><time>2024-04-20T05:44:34Z</time></trkpt><trkpt lat="33.7044704" lon="133.0714657"><ele>810.2533333333334</ele><time>2024-04-20T05:44:55Z</time></trkpt><trkpt lat="33.7044192" lon="133.0712428"><ele>809.7633333333333</ele><time>2024-04-20T05:45:13Z</time></trkpt><trkpt lat="33.7044734" lon="133.0709988"><ele>808.8766666666667</ele><time>2024-04-20T05:45:34Z</time></trkpt><trkpt lat="33.7045543" lon="133.0707984"><ele>809.6333333333333</ele><time>2024-04-20T05:45:49Z</time></trkpt><trkpt lat="33.7046594" lon="133.0706183"><ele>807.6300000000001</ele><time>2024-04-20T05:46:03Z</time></trkpt><trkpt lat="33.7047446" lon="133.070407"><ele>806.2866666666667</ele><time>2024-04-20T05:46:16Z</time></trkpt><trkpt lat="33.7047967" lon="133.0701984"><ele>805.6666666666666</ele><time>2024-04-20T05:46:33Z</time></trkpt><trkpt lat="33.7046522" lon="133.0700609"><ele>807.86</ele><time>2024-04-20T05:46:51Z</time></trkpt><trkpt lat="33.704495" lon="133.0698993"><ele>806.9900000000001</ele><time>2024-04-20T05:47:32Z</time></trkpt><trkpt lat="33.7043152" lon="133.0698817"><ele>804.6233333333333</ele><time>2024-04-20T05:47:47Z</time></trkpt><trkpt lat="33.704105" lon="133.0698551"><ele>800.65</ele><time>2024-04-20T05:48:03Z</time></trkpt><trkpt lat="33.7039869" lon="133.0696786"><ele>798.3833333333333</ele><time>2024-04-20T05:48:18Z</time></trkpt><trkpt lat="33.7038864" lon="133.0694911"><ele>796.7800000000001</ele><time>2024-04-20T05:48:33Z</time></trkpt><trkpt lat="33.7037312" lon="133.0693349"><ele>796.5133333333333</ele><time>2024-04-20T05:48:49Z</time></trkpt><trkpt lat="33.7035924" lon="133.0691636"><ele>797.3266666666667</ele><time>2024-04-20T05:49:03Z</time></trkpt><trkpt lat="33.7034639" lon="133.0690032"><ele>799.7033333333334</ele><time>2024-04-20T05:49:18Z</time></trkpt><trkpt lat="33.7033706" lon="133.0687709"><ele>798.96</ele><time>2024-04-20T05:49:35Z</time></trkpt><trkpt lat="33.7032104" lon="133.0686153"><ele>797.35</ele><time>2024-04-20T05:49:52Z</time></trkpt><trkpt lat="33.7030321" lon="133.0685484"><ele>795.2400000000001</ele><time>2024-04-20T05:50:06Z</time></trkpt><trkpt lat="33.702818" lon="133.0684947"><ele>795.4933333333333</ele><time>2024-04-20T05:50:23Z</time></trkpt><trkpt lat="33.7026124" lon="133.0684818"><ele>795.9699999999999</ele><time>2024-04-20T05:50:40Z</time></trkpt><trkpt lat="33.7024164" lon="133.0684684"><ele>795.1833333333334</ele><time>2024-04-20T05:50:55Z</time></trkpt><trkpt lat="33.7022287" lon="133.0685137"><ele>792.1766666666667</ele><time>2024-04-20T05:51:09Z</time></trkpt><trkpt lat="33.7020302" lon="133.0685673"><ele>789.3033333333333</ele><time>2024-04-20T05:51:23Z</time></trkpt></trkseg></trk></gpx>