<?xml version='1.0' encoding='UTF-8'?><gpx creator="Yama Museum Summit Candidate Generator" xsi:schemaLocation="http://www.topografix.com/GPX/1/1 http://www.topografix.com/GPX/1/1/gpx.xsd" version="1.1" xmlns="http://www.topografix.com/GPX/1/1" xmlns:xsi="http://www.w3.org/2001/XMLSchema-instance" xmlns:yama="https://museum-yama-data.moukaeritai.work/ns/yama-data/0.1"><metadata><bounds maxlat="33.8418619" maxlon="132.8127743" minlat="33.8299214" minlon="132.7930973"/><name>宝ヶ峯・淡路ヶ峠</name><extensions><yama:source_gpx_basename>yamap_2023-03-05_11_09.gpx</yama:source_gpx_basename><yama:source_gpx_relative_path>data/01_raw/gpx/2026-05-12/yamap_2023-03-05_11_09.gpx</yama:source_gpx_relative_path><yama:detection_parameters>window=5,radius=10,min_prominence=30,merge=100</yama:detection_parameters></extensions></metadata><wpt lat="33.8346163" lon="132.8126367"><ele>278.9166666666667</ele><time>2023-03-05T02:46:34Z</time><name>summit-candidate:d43fade4de3e33c8</name><desc>Summit candidate detected at elevation 278.9166666666667m with prominence 231.9462222222222m.</desc><sym>Summit Candidate</sym><extensions><yama:source_trackpoint_index>123</yama:source_trackpoint_index><yama:valid_elevation_index>123</yama:valid_elevation_index><yama:smoothed_ele>277.32399999999996</yama:smoothed_ele><yama:prominence>231.9462222222222</yama:prominence><yama:detection_method>local_maxima_with_prominence</yama:detection_method><yama:detection_parameters>window=5,radius=10,min_prominence=30,merge=100</yama:detection_parameters><yama:candidate_status>unresolved</yama:candidate_status></extensions></wpt>
  <trk><name>宝ヶ峯・淡路ヶ峠</name><number>1</number><trkseg><trkpt lat="33.8395735" lon="132.7931132"><ele>44.1</ele><time>2023-03-05T02:09:35Z</time></trkpt><trkpt lat="33.8397554" lon="132.7930973"><ele>44.22</ele><time>2023-03-05T02:09:47Z</time></trkpt><trkpt lat="33.8398686" lon="132.7932717"><ele>44.346666666666664</ele><time>2023-03-05T02:10:02Z</time></trkpt><trkpt lat="33.839879" lon="132.7934912"><ele>44.54333333333333</ele><time>2023-03-05T02:10:14Z</time></trkpt><trkpt lat="33.8398839" lon="132.79371"><ele>44.663333333333334</ele><time>2023-03-05T02:10:26Z</time></trkpt><trkpt lat="33.8399067" lon="132.7939271"><ele>44.73</ele><time>2023-03-05T02:10:40Z</time></trkpt><trkpt lat="33.8398975" lon="132.7941505"><ele>44.79333333333333</ele><time>2023-03-05T02:10:50Z</time></trkpt><trkpt lat="33.8399089" lon="132.79438"><ele>44.970000000000006</ele><time>2023-03-05T02:11:04Z</time></trkpt><trkpt lat="33.8398939" lon="132.7945971"><ele>45.24333333333334</ele><time>2023-03-05T02:11:18Z</time></trkpt><trkpt lat="33.8398668" lon="132.7948126"><ele>45.526666666666664</ele><time>2023-03-05T02:11:31Z</time></trkpt><trkpt lat="33.839841" lon="132.7950299"><ele>45.73</ele><time>2023-03-05T02:11:43Z</time></trkpt><trkpt lat="33.839837" lon="132.7952495"><ele>45.78333333333334</ele><time>2023-03-05T02:11:58Z</time></trkpt><trkpt lat="33.8398163" lon="132.7954668"><ele>45.910000000000004</ele><time>2023-03-05T02:12:08Z</time></trkpt><trkpt lat="33.8398639" lon="132.795686"><ele>46.1</ele><time>2023-03-05T02:12:19Z</time></trkpt><trkpt lat="33.8398245" lon="132.7959"><ele>46.42000000000001</ele><time>2023-03-05T02:12:28Z</time></trkpt><trkpt lat="33.8399053" lon="132.7961077"><ele>46.74333333333334</ele><time>2023-03-05T02:12:43Z</time></trkpt><trkpt lat="33.8399443" lon="132.7963241"><ele>47.11666666666667</ele><time>2023-03-05T02:12:53Z</time></trkpt><trkpt lat="33.8399824" lon="132.796539"><ele>47.48</ele><time>2023-03-05T02:13:09Z</time></trkpt><trkpt lat="33.8401777" lon="132.7965555"><ele>47.843333333333334</ele><time>2023-03-05T02:13:23Z</time></trkpt><trkpt lat="33.8403623" lon="132.7965882"><ele>48.21333333333333</ele><time>2023-03-05T02:13:32Z</time></trkpt><trkpt lat="33.8405247" lon="132.7966836"><ele>48.586666666666666</ele><time>2023-03-05T02:13:46Z</time></trkpt><trkpt lat="33.8406915" lon="132.7967674"><ele>48.95333333333334</ele><time>2023-03-05T02:13:59Z</time></trkpt><trkpt lat="33.8408422" lon="132.7968921"><ele>49.34</ele><time>2023-03-05T02:14:11Z</time></trkpt><trkpt lat="33.8410245" lon="132.7969068"><ele>49.73666666666667</ele><time>2023-03-05T02:14:25Z</time></trkpt><trkpt lat="33.8411943" lon="132.7970129"><ele>50.10666666666666</ele><time>2023-03-05T02:14:38Z</time></trkpt><trkpt lat="33.8413151" lon="132.7971792"><ele>50.43000000000001</ele><time>2023-03-05T02:14:50Z</time></trkpt><trkpt lat="33.8414112" lon="132.7973674"><ele>50.74</ele><time>2023-03-05T02:15:01Z</time></trkpt><trkpt lat="33.8414536" lon="132.7975855"><ele>51.18000000000001</ele><time>2023-03-05T02:15:12Z</time></trkpt><trkpt lat="33.8414756" lon="132.7978009"><ele>51.64333333333334</ele><time>2023-03-05T02:15:22Z</time></trkpt><trkpt lat="33.8414254" lon="132.7980121"><ele>52.14333333333334</ele><time>2023-03-05T02:15:32Z</time></trkpt><trkpt lat="33.841372" lon="132.7982197"><ele>52.583333333333336</ele><time>2023-03-05T02:15:42Z</time></trkpt><trkpt lat="33.8413932" lon="132.7984487"><ele>52.97666666666667</ele><time>2023-03-05T02:15:57Z</time></trkpt><trkpt lat="33.8414937" lon="132.7986341"><ele>53.30333333333334</ele><time>2023-03-05T02:16:06Z</time></trkpt><trkpt lat="33.841554" lon="132.7988488"><ele>53.51333333333334</ele><time>2023-03-05T02:16:20Z</time></trkpt><trkpt lat="33.8415661" lon="132.7990721"><ele>53.73333333333333</ele><time>2023-03-05T02:16:33Z</time></trkpt><trkpt lat="33.8415473" lon="132.7993027"><ele>54.00333333333333</ele><time>2023-03-05T02:16:41Z</time></trkpt><trkpt lat="33.8415455" lon="132.7995215"><ele>54.32333333333333</ele><time>2023-03-05T02:16:56Z</time></trkpt><trkpt lat="33.8415669" lon="132.799741"><ele>54.61666666666667</ele><time>2023-03-05T02:17:06Z</time></trkpt><trkpt lat="33.8416335" lon="132.7999519"><ele>54.94</ele><time>2023-03-05T02:17:18Z</time></trkpt><trkpt lat="33.8416773" lon="132.800162"><ele>55.343333333333334</ele><time>2023-03-05T02:17:29Z</time></trkpt><trkpt lat="33.8416988" lon="132.8003896"><ele>55.800000000000004</ele><time>2023-03-05T02:17:41Z</time></trkpt><trkpt lat="33.8416622" lon="132.8006106"><ele>56.24666666666667</ele><time>2023-03-05T02:17:53Z</time></trkpt><trkpt lat="33.8416896" lon="132.8008332"><ele>56.65</ele><time>2023-03-05T02:18:10Z</time></trkpt><trkpt lat="33.8416622" lon="132.8010555"><ele>57.083333333333336</ele><time>2023-03-05T02:18:21Z</time></trkpt><trkpt lat="33.8416682" lon="132.8012847"><ele>57.53666666666667</ele><time>2023-03-05T02:18:35Z</time></trkpt><trkpt lat="33.8416419" lon="132.8015029"><ele>57.98666666666667</ele><time>2023-03-05T02:18:48Z</time></trkpt><trkpt lat="33.8416559" lon="132.801719"><ele>58.43</ele><time>2023-03-05T02:19:01Z</time></trkpt><trkpt lat="33.8417221" lon="132.8019254"><ele>58.833333333333336</ele><time>2023-03-05T02:19:12Z</time></trkpt><trkpt lat="33.8417693" lon="132.8021404"><ele>59.25333333333333</ele><time>2023-03-05T02:19:25Z</time></trkpt><trkpt lat="33.8418198" lon="132.8023515"><ele>59.583333333333336</ele><time>2023-03-05T02:19:38Z</time></trkpt><trkpt lat="33.8418356" lon="132.8025731"><ele>60.00333333333333</ele><time>2023-03-05T02:19:52Z</time></trkpt><trkpt lat="33.8417598" lon="132.8027703"><ele>60.60666666666666</ele><time>2023-03-05T02:20:02Z</time></trkpt><trkpt lat="33.841673" lon="132.8029662"><ele>61.373333333333335</ele><time>2023-03-05T02:20:11Z</time></trkpt><trkpt lat="33.8416763" lon="132.8031898"><ele>62.19</ele><time>2023-03-05T02:20:23Z</time></trkpt><trkpt lat="33.841727" lon="132.8033988"><ele>62.75</ele><time>2023-03-05T02:20:36Z</time></trkpt><trkpt lat="33.8417741" lon="132.8036148"><ele>63.160000000000004</ele><time>2023-03-05T02:20:50Z</time></trkpt><trkpt lat="33.8417888" lon="132.803846"><ele>63.56</ele><time>2023-03-05T02:21:01Z</time></trkpt><trkpt lat="33.8417929" lon="132.8040711"><ele>64.33333333333333</ele><time>2023-03-05T02:21:15Z</time></trkpt><trkpt lat="33.8417857" lon="132.8042926"><ele>65.54333333333334</ele><time>2023-03-05T02:21:26Z</time></trkpt><trkpt lat="33.8417922" lon="132.8045138"><ele>66.54333333333334</ele><time>2023-03-05T02:21:35Z</time></trkpt><trkpt lat="33.8418436" lon="132.8047251"><ele>67.06</ele><time>2023-03-05T02:21:45Z</time></trkpt><trkpt lat="33.8418619" lon="132.8049463"><ele>67.09</ele><time>2023-03-05T02:22:00Z</time></trkpt><trkpt lat="33.8416876" lon="132.8050194"><ele>67.32000000000001</ele><time>2023-03-05T02:22:08Z</time></trkpt><trkpt lat="33.841561" lon="132.8051984"><ele>67.45333333333333</ele><time>2023-03-05T02:22:17Z</time></trkpt><trkpt lat="33.8414512" lon="132.8053883"><ele>67.91333333333334</ele><time>2023-03-05T02:22:32Z</time></trkpt><trkpt lat="33.8415122" lon="132.8056068"><ele>68.66000000000001</ele><time>2023-03-05T02:22:43Z</time></trkpt><trkpt lat="33.8415997" lon="132.8057961"><ele>69.6</ele><time>2023-03-05T02:22:54Z</time></trkpt><trkpt lat="33.8415039" lon="132.8059807"><ele>70.51</ele><time>2023-03-05T02:23:05Z</time></trkpt><trkpt lat="33.8414086" lon="132.8061662"><ele>71.17999999999999</ele><time>2023-03-05T02:23:17Z</time></trkpt><trkpt lat="33.841411" lon="132.806387"><ele>71.86</ele><time>2023-03-05T02:23:28Z</time></trkpt><trkpt lat="33.8413809" lon="132.8066069"><ele>72.50000000000001</ele><time>2023-03-05T02:23:39Z</time></trkpt><trkpt lat="33.8414383" lon="132.8068194"><ele>72.78000000000002</ele><time>2023-03-05T02:23:54Z</time></trkpt><trkpt lat="33.841401" lon="132.8070312"><ele>73.01</ele><time>2023-03-05T02:24:03Z</time></trkpt><trkpt lat="33.8413159" lon="132.807223"><ele>72.96333333333332</ele><time>2023-03-05T02:24:12Z</time></trkpt><trkpt lat="33.8413151" lon="132.8074458"><ele>72.88666666666667</ele><time>2023-03-05T02:24:27Z</time></trkpt><trkpt lat="33.8411926" lon="132.8076091"><ele>72.84</ele><time>2023-03-05T02:24:40Z</time></trkpt><trkpt lat="33.8410428" lon="132.8077319"><ele>73.77333333333333</ele><time>2023-03-05T02:24:54Z</time></trkpt><trkpt lat="33.8408973" lon="132.8078655"><ele>75.25333333333333</ele><time>2023-03-05T02:25:02Z</time></trkpt><trkpt lat="33.8407537" lon="132.8080134"><ele>77.13</ele><time>2023-03-05T02:25:13Z</time></trkpt><trkpt lat="33.840826" lon="132.8082201"><ele>78.06666666666666</ele><time>2023-03-05T02:25:26Z</time></trkpt><trkpt lat="33.8407583" lon="132.8084219"><ele>79.01</ele><time>2023-03-05T02:25:38Z</time></trkpt><trkpt lat="33.8407659" lon="132.8086381"><ele>79.57666666666667</ele><time>2023-03-05T02:25:51Z</time></trkpt><trkpt lat="33.8407575" lon="132.8088571"><ele>80.82666666666667</ele><time>2023-03-05T02:26:00Z</time></trkpt><trkpt lat="33.8408019" lon="132.8090697"><ele>81.02333333333333</ele><time>2023-03-05T02:26:18Z</time></trkpt><trkpt lat="33.8406871" lon="132.8092619"><ele>82.01</ele><time>2023-03-05T02:26:51Z</time></trkpt><trkpt lat="33.8405947" lon="132.8094665"><ele>82.94000000000001</ele><time>2023-03-05T02:27:00Z</time></trkpt><trkpt lat="33.8405132" lon="132.8096619"><ele>85.10000000000001</ele><time>2023-03-05T02:28:07Z</time></trkpt><trkpt lat="33.8403272" lon="132.8097161"><ele>88.78333333333335</ele><time>2023-03-05T02:28:45Z</time></trkpt><trkpt lat="33.8401458" lon="132.8097647"><ele>94.82</ele><time>2023-03-05T02:29:00Z</time></trkpt><trkpt lat="33.84008" lon="132.8099714"><ele>101.78333333333335</ele><time>2023-03-05T02:29:28Z</time></trkpt><trkpt lat="33.8399487" lon="132.8101236"><ele>108.61333333333333</ele><time>2023-03-05T02:29:54Z</time></trkpt><trkpt lat="33.8398027" lon="132.8102692"><ele>114.35000000000001</ele><time>2023-03-05T02:30:20Z</time></trkpt><trkpt lat="33.8397468" lon="132.8104786"><ele>117.89333333333333</ele><time>2023-03-05T02:30:50Z</time></trkpt><trkpt lat="33.8395719" lon="132.810566"><ele>120.30000000000001</ele><time>2023-03-05T02:31:26Z</time></trkpt><trkpt lat="33.8393832" lon="132.8105875"><ele>123.86000000000001</ele><time>2023-03-05T02:31:41Z</time></trkpt><trkpt lat="33.8392073" lon="132.8106459"><ele>128.90333333333334</ele><time>2023-03-05T02:31:54Z</time></trkpt><trkpt lat="33.8390279" lon="132.8106959"><ele>135.01333333333335</ele><time>2023-03-05T02:32:06Z</time></trkpt><trkpt lat="33.8388439" lon="132.8107097"><ele>139.0</ele><time>2023-03-05T02:32:20Z</time></trkpt><trkpt lat="33.8386729" lon="132.8107877"><ele>144.45666666666668</ele><time>2023-03-05T02:32:39Z</time></trkpt><trkpt lat="33.8385152" lon="132.8109087"><ele>149.29</ele><time>2023-03-05T02:33:21Z</time></trkpt><trkpt lat="33.8383362" lon="132.8109413"><ele>154.54333333333332</ele><time>2023-03-05T02:33:44Z</time></trkpt><trkpt lat="33.8382002" lon="132.8110865"><ele>160.06666666666666</ele><time>2023-03-05T02:34:10Z</time></trkpt><trkpt lat="33.8380536" lon="132.8112295"><ele>165.58333333333334</ele><time>2023-03-05T02:34:27Z</time></trkpt><trkpt lat="33.8378951" lon="132.8113419"><ele>172.31000000000003</ele><time>2023-03-05T02:34:41Z</time></trkpt><trkpt lat="33.8377298" lon="132.811434"><ele>177.79666666666665</ele><time>2023-03-05T02:35:03Z</time></trkpt><trkpt lat="33.8375538" lon="132.8115052"><ele>184.16666666666666</ele><time>2023-03-05T02:35:49Z</time></trkpt><trkpt lat="33.8373711" lon="132.8115352"><ele>188.8166666666667</ele><time>2023-03-05T02:36:17Z</time></trkpt><trkpt lat="33.8371985" lon="132.8116247"><ele>194.53666666666666</ele><time>2023-03-05T02:36:56Z</time></trkpt><trkpt lat="33.8370214" lon="132.8116823"><ele>199.78</ele><time>2023-03-05T02:37:43Z</time></trkpt><trkpt lat="33.8368289" lon="132.8117069"><ele>206.38000000000002</ele><time>2023-03-05T02:38:08Z</time></trkpt><trkpt lat="33.8367279" lon="132.8118905"><ele>212.43666666666664</ele><time>2023-03-05T02:38:29Z</time></trkpt><trkpt lat="33.8365872" lon="132.8120299"><ele>218.96333333333334</ele><time>2023-03-05T02:39:20Z</time></trkpt><trkpt lat="33.8364207" lon="132.8121179"><ele>225.98666666666668</ele><time>2023-03-05T02:40:18Z</time></trkpt><trkpt lat="33.8362435" lon="132.8121579"><ele>232.50333333333333</ele><time>2023-03-05T02:40:41Z</time></trkpt><trkpt lat="33.8360795" lon="132.8122538"><ele>238.45333333333335</ele><time>2023-03-05T02:40:57Z</time></trkpt><trkpt lat="33.8359137" lon="132.8123509"><ele>246.9766666666667</ele><time>2023-03-05T02:41:27Z</time></trkpt><trkpt lat="33.8357373" lon="132.8124027"><ele>255.34</ele><time>2023-03-05T02:42:12Z</time></trkpt><trkpt lat="33.8355643" lon="132.8123409"><ele>260.8933333333334</ele><time>2023-03-05T02:42:38Z</time></trkpt><trkpt lat="33.8354396" lon="132.8125014"><ele>263.95</ele><time>2023-03-05T02:43:04Z</time></trkpt><trkpt lat="33.8353248" lon="132.8126698"><ele>267.5566666666667</ele><time>2023-03-05T02:43:33Z</time></trkpt><trkpt lat="33.8351457" lon="132.8127088"><ele>273.35999999999996</ele><time>2023-03-05T02:43:54Z</time></trkpt><trkpt lat="33.8349608" lon="132.8127436"><ele>276.83666666666664</ele><time>2023-03-05T02:44:14Z</time></trkpt><trkpt lat="33.8347768" lon="132.8127386"><ele>279.0133333333333</ele><time>2023-03-05T02:44:31Z</time></trkpt><trkpt lat="33.8346163" lon="132.8126367"><ele>278.9166666666667</ele><time>2023-03-05T02:46:34Z</time></trkpt><trkpt lat="33.8344367" lon="132.8126609"><ele>277.23333333333335</ele><time>2023-03-05T02:46:47Z</time></trkpt><trkpt lat="33.8342694" lon="132.812746"><ele>274.61999999999995</ele><time>2023-03-05T02:47:03Z</time></trkpt><trkpt lat="33.8340899" lon="132.8127743"><ele>272.65</ele><time>2023-03-05T02:47:18Z</time></trkpt><trkpt lat="33.8339085" lon="132.8127483"><ele>271.55</ele><time>2023-03-05T02:47:36Z</time></trkpt><trkpt lat="33.8337207" lon="132.8127153"><ele>270.8866666666666</ele><time>2023-03-05T02:47:58Z</time></trkpt><trkpt lat="33.8335411" lon="132.8126879"><ele>270.36999999999995</ele><time>2023-03-05T02:48:11Z</time></trkpt><trkpt lat="33.8333541" lon="132.8126976"><ele>270.31666666666666</ele><time>2023-03-05T02:48:29Z</time></trkpt><trkpt lat="33.8332019" lon="132.8125717"><ele>269.56</ele><time>2023-03-05T02:48:45Z</time></trkpt><trkpt lat="33.8330558" lon="132.8124269"><ele>268.5733333333333</ele><time>2023-03-05T02:48:59Z</time></trkpt><trkpt lat="33.8328941" lon="132.8123268"><ele>268.35333333333335</ele><time>2023-03-05T02:49:13Z</time></trkpt><trkpt lat="33.8327128" lon="132.8123212"><ele>270.06</ele><time>2023-03-05T02:49:29Z</time></trkpt><trkpt lat="33.8325587" lon="132.8121994"><ele>273.03999999999996</ele><time>2023-03-05T02:49:53Z</time></trkpt><trkpt lat="33.8323688" lon="132.8122203"><ele>275.70666666666665</ele><time>2023-03-05T02:50:10Z</time></trkpt><trkpt lat="33.8321878" lon="132.8122114"><ele>277.31666666666666</ele><time>2023-03-05T02:50:24Z</time></trkpt><trkpt lat="33.8320101" lon="132.8121589"><ele>276.88</ele><time>2023-03-05T02:50:44Z</time></trkpt><trkpt lat="33.8318222" lon="132.8121067"><ele>275.35999999999996</ele><time>2023-03-05T02:51:04Z</time></trkpt><trkpt lat="33.8316438" lon="132.8120556"><ele>272.60999999999996</ele><time>2023-03-05T02:51:18Z</time></trkpt><trkpt lat="33.8314614" lon="132.8119958"><ele>269.65</ele><time>2023-03-05T02:51:35Z</time></trkpt><trkpt lat="33.8312861" lon="132.8119303"><ele>266.6066666666666</ele><time>2023-03-05T02:51:50Z</time></trkpt><trkpt lat="33.8311473" lon="132.8117872"><ele>263.1066666666666</ele><time>2023-03-05T02:52:07Z</time></trkpt><trkpt lat="33.8309726" lon="132.8118459"><ele>259.82</ele><time>2023-03-05T02:52:29Z</time></trkpt><trkpt lat="33.830857" lon="132.8116795"><ele>255.42666666666665</ele><time>2023-03-05T02:53:26Z</time></trkpt><trkpt lat="33.8307" lon="132.8115717"><ele>251.1766666666667</ele><time>2023-03-05T02:53:44Z</time></trkpt><trkpt lat="33.8305774" lon="132.8114102"><ele>248.25666666666666</ele><time>2023-03-05T02:54:01Z</time></trkpt><trkpt lat="33.8304484" lon="132.8112555"><ele>246.2733333333333</ele><time>2023-03-05T02:54:17Z</time></trkpt><trkpt lat="33.8305591" lon="132.8110818"><ele>248.3066666666667</ele><time>2023-03-05T02:55:25Z</time></trkpt><trkpt lat="33.8306828" lon="132.8109151"><ele>252.48666666666668</ele><time>2023-03-05T02:56:31Z</time></trkpt><trkpt lat="33.8307182" lon="132.8106974"><ele>261.97333333333336</ele><time>2023-03-05T02:57:21Z</time></trkpt><trkpt lat="33.8307926" lon="132.8104996"><ele>269.4633333333333</ele><time>2023-03-05T02:57:48Z</time></trkpt><trkpt lat="33.830651" lon="132.8103401"><ele>273.78999999999996</ele><time>2023-03-05T02:58:14Z</time></trkpt><trkpt lat="33.830475" lon="132.8102673"><ele>271.1766666666667</ele><time>2023-03-05T02:58:28Z</time></trkpt><trkpt lat="33.8303028" lon="132.8101932"><ele>267.09</ele><time>2023-03-05T02:58:40Z</time></trkpt><trkpt lat="33.8301228" lon="132.8101184"><ele>264.2</ele><time>2023-03-05T02:58:58Z</time></trkpt><trkpt lat="33.8299652" lon="132.8100094"><ele>262.64000000000004</ele><time>2023-03-05T02:59:23Z</time></trkpt><trkpt lat="33.8299214" lon="132.8097995"><ele>260.75666666666666</ele><time>2023-03-05T02:59:43Z</time></trkpt><trkpt lat="33.8300788" lon="132.8096921"><ele>257.89000000000004</ele><time>2023-03-05T02:59:58Z</time></trkpt><trkpt lat="33.8302533" lon="132.8095957"><ele>255.58</ele><time>2023-03-05T03:00:18Z</time></trkpt><trkpt lat="33.8304364" lon="132.8095505"><ele>256.50666666666666</ele><time>2023-03-05T03:00:38Z</time></trkpt><trkpt lat="33.8305869" lon="132.8094173"><ele>258.5933333333333</ele><time>2023-03-05T03:00:54Z</time></trkpt><trkpt lat="33.8307683" lon="132.8093629"><ele>261.8</ele><time>2023-03-05T03:01:09Z</time></trkpt><trkpt lat="33.8309125" lon="132.8092252"><ele>263.2966666666667</ele><time>2023-03-05T03:01:25Z</time></trkpt><trkpt lat="33.8310901" lon="132.8092713"><ele>264.95666666666665</ele><time>2023-03-05T03:01:47Z</time></trkpt><trkpt lat="33.8312485" lon="132.8091572"><ele>267.15000000000003</ele><time>2023-03-05T03:02:03Z</time></trkpt><trkpt lat="33.8313926" lon="132.8090157"><ele>269.0933333333333</ele><time>2023-03-05T03:02:18Z</time></trkpt><trkpt lat="33.8314617" lon="132.8088139"><ele>268.44666666666666</ele><time>2023-03-05T03:02:42Z</time></trkpt><trkpt lat="33.8316268" lon="132.8089011"><ele>266.9033333333333</ele><time>2023-03-05T03:06:00Z</time></trkpt><trkpt lat="33.8318076" lon="132.8089331"><ele>263.11</ele><time>2023-03-05T03:06:13Z</time></trkpt><trkpt lat="33.831983" lon="132.808995"><ele>259.84999999999997</ele><time>2023-03-05T03:06:38Z</time></trkpt><trkpt lat="33.8321639" lon="132.8089939"><ele>254.92666666666665</ele><time>2023-03-05T03:07:01Z</time></trkpt><trkpt lat="33.8323446" lon="132.8090001"><ele>252.0666666666667</ele><time>2023-03-05T03:07:19Z</time></trkpt><trkpt lat="33.83253" lon="132.8089898"><ele>246.92666666666665</ele><time>2023-03-05T03:07:37Z</time></trkpt><trkpt lat="33.8327076" lon="132.8089441"><ele>241.0633333333333</ele><time>2023-03-05T03:08:00Z</time></trkpt><trkpt lat="33.8328846" lon="132.8088895"><ele>232.96333333333334</ele><time>2023-03-05T03:08:22Z</time></trkpt><trkpt lat="33.8330524" lon="132.8089937"><ele>229.49333333333334</ele><time>2023-03-05T03:08:40Z</time></trkpt><trkpt lat="33.8332346" lon="132.8089996"><ele>226.89</ele><time>2023-03-05T03:08:55Z</time></trkpt><trkpt lat="33.8334155" lon="132.8089728"><ele>226.07000000000002</ele><time>2023-03-05T03:09:16Z</time></trkpt><trkpt lat="33.8335886" lon="132.8090442"><ele>224.29666666666665</ele><time>2023-03-05T03:09:34Z</time></trkpt><trkpt lat="33.833767" lon="132.8090031"><ele>223.13333333333335</ele><time>2023-03-05T03:09:49Z</time></trkpt><trkpt lat="33.8339461" lon="132.8090475"><ele>221.52333333333334</ele><time>2023-03-05T03:10:06Z</time></trkpt><trkpt lat="33.8341079" lon="132.8089323"><ele>217.77333333333334</ele><time>2023-03-05T03:10:20Z</time></trkpt><trkpt lat="33.8342443" lon="132.8090796"><ele>214.84333333333333</ele><time>2023-03-05T03:11:23Z</time></trkpt><trkpt lat="33.8344258" lon="132.8091417"><ele>212.74666666666667</ele><time>2023-03-05T03:11:37Z</time></trkpt><trkpt lat="33.8346038" lon="132.8090771"><ele>211.50333333333333</ele><time>2023-03-05T03:11:49Z</time></trkpt><trkpt lat="33.8347931" lon="132.8090697"><ele>208.12</ele><time>2023-03-05T03:12:09Z</time></trkpt><trkpt lat="33.8349507" lon="132.8091753"><ele>204.17999999999998</ele><time>2023-03-05T03:12:26Z</time></trkpt><trkpt lat="33.8351352" lon="132.8091492"><ele>198.54999999999998</ele><time>2023-03-05T03:12:47Z</time></trkpt><trkpt lat="33.8349547" lon="132.8090781"><ele>196.65</ele><time>2023-03-05T03:13:52Z</time></trkpt><trkpt lat="33.8348905" lon="132.8088646"><ele>192.06333333333336</ele><time>2023-03-05T03:14:04Z</time></trkpt><trkpt lat="33.8349663" lon="132.8086586"><ele>186.08666666666667</ele><time>2023-03-05T03:14:27Z</time></trkpt><trkpt lat="33.8348521" lon="132.8084886"><ele>174.22</ele><time>2023-03-05T03:15:24Z</time></trkpt><trkpt lat="33.8348385" lon="132.8082699"><ele>161.99</ele><time>2023-03-05T03:15:35Z</time></trkpt><trkpt lat="33.8348902" lon="132.8080616"><ele>151.97666666666666</ele><time>2023-03-05T03:16:01Z</time></trkpt><trkpt lat="33.8347091" lon="132.8080459"><ele>145.09</ele><time>2023-03-05T03:16:21Z</time></trkpt><trkpt lat="33.8345445" lon="132.8081593"><ele>144.52333333333334</ele><time>2023-03-05T03:17:08Z</time></trkpt><trkpt lat="33.8344539" lon="132.8079631"><ele>140.4366666666667</ele><time>2023-03-05T03:17:47Z</time></trkpt><trkpt lat="33.8343752" lon="132.8077608"><ele>134.79</ele><time>2023-03-05T03:18:07Z</time></trkpt><trkpt lat="33.8342844" lon="132.8075728"><ele>125.12</ele><time>2023-03-05T03:18:27Z</time></trkpt><trkpt lat="33.8341693" lon="132.8073991"><ele>120.28666666666668</ele><time>2023-03-05T03:19:15Z</time></trkpt><trkpt lat="33.8343366" lon="132.8073105"><ele>116.43666666666667</ele><time>2023-03-05T03:19:43Z</time></trkpt><trkpt lat="33.8344904" lon="132.8071898"><ele>111.76333333333334</ele><time>2023-03-05T03:19:54Z</time></trkpt><trkpt lat="33.8346736" lon="132.8071463"><ele>107.11333333333334</ele><time>2023-03-05T03:20:06Z</time></trkpt><trkpt lat="33.8345958" lon="132.8069455"><ele>103.32333333333334</ele><time>2023-03-05T03:20:25Z</time></trkpt><trkpt lat="33.8344369" lon="132.806829"><ele>101.09666666666668</ele><time>2023-03-05T03:20:36Z</time></trkpt><trkpt lat="33.834464" lon="132.8066068"><ele>98.35000000000001</ele><time>2023-03-05T03:20:53Z</time></trkpt><trkpt lat="33.834515" lon="132.8063995"><ele>94.29333333333334</ele><time>2023-03-05T03:21:11Z</time></trkpt><trkpt lat="33.8344048" lon="132.8062191"><ele>89.85000000000001</ele><time>2023-03-05T03:21:29Z</time></trkpt><trkpt lat="33.834455" lon="132.8059953"><ele>85.33666666666666</ele><time>2023-03-05T03:21:45Z</time></trkpt><trkpt lat="33.8346407" lon="132.8060072"><ele>83.44666666666667</ele><time>2023-03-05T03:21:59Z</time></trkpt><trkpt lat="33.8348308" lon="132.8060288"><ele>82.35000000000001</ele><time>2023-03-05T03:22:12Z</time></trkpt><trkpt lat="33.835007" lon="132.8059656"><ele>81.75666666666666</ele><time>2023-03-05T03:22:30Z</time></trkpt><trkpt lat="33.8350868" lon="132.8057676"><ele>79.72333333333333</ele><time>2023-03-05T03:22:59Z</time></trkpt><trkpt lat="33.8351078" lon="132.8055527"><ele>76.77333333333334</ele><time>2023-03-05T03:23:11Z</time></trkpt><trkpt lat="33.8351482" lon="132.8053379"><ele>74.73666666666666</ele><time>2023-03-05T03:23:22Z</time></trkpt><trkpt lat="33.8351741" lon="132.8051204"><ele>73.24333333333334</ele><time>2023-03-05T03:23:33Z</time></trkpt><trkpt lat="33.8351439" lon="132.8049049"><ele>72.77333333333333</ele><time>2023-03-05T03:23:48Z</time></trkpt><trkpt lat="33.8351779" lon="132.8046803"><ele>71.75333333333334</ele><time>2023-03-05T03:24:02Z</time></trkpt><trkpt lat="33.8352134" lon="132.8044682"><ele>70.22000000000001</ele><time>2023-03-05T03:24:15Z</time></trkpt><trkpt lat="33.8352332" lon="132.8042507"><ele>67.7</ele><time>2023-03-05T03:24:26Z</time></trkpt><trkpt lat="33.835236" lon="132.8040263"><ele>64.97</ele><time>2023-03-05T03:24:45Z</time></trkpt><trkpt lat="33.8352313" lon="132.8038075"><ele>61.72666666666667</ele><time>2023-03-05T03:25:01Z</time></trkpt><trkpt lat="33.8352193" lon="132.8035849"><ele>58.39000000000001</ele><time>2023-03-05T03:25:16Z</time></trkpt><trkpt lat="33.8352278" lon="132.8033652"><ele>55.04333333333333</ele><time>2023-03-05T03:25:27Z</time></trkpt><trkpt lat="33.8352262" lon="132.8031319"><ele>52.11666666666667</ele><time>2023-03-05T03:25:42Z</time></trkpt><trkpt lat="33.8353016" lon="132.8029305"><ele>50.47</ele><time>2023-03-05T03:26:01Z</time></trkpt><trkpt lat="33.8354862" lon="132.8029266"><ele>49.64000000000001</ele><time>2023-03-05T03:26:13Z</time></trkpt><trkpt lat="33.8356815" lon="132.8029021"><ele>49.51333333333334</ele><time>2023-03-05T03:26:23Z</time></trkpt><trkpt lat="33.8357135" lon="132.8026871"><ele>49.5</ele><time>2023-03-05T03:26:41Z</time></trkpt><trkpt lat="33.8356875" lon="132.8024612"><ele>49.64666666666667</ele><time>2023-03-05T03:26:57Z</time></trkpt><trkpt lat="33.8356549" lon="132.8022285"><ele>50.24666666666667</ele><time>2023-03-05T03:27:07Z</time></trkpt><trkpt lat="33.8356035" lon="132.8020169"><ele>51.24</ele><time>2023-03-05T03:27:30Z</time></trkpt><trkpt lat="33.8356426" lon="132.8017915"><ele>52.51333333333333</ele><time>2023-03-05T03:27:46Z</time></trkpt><trkpt lat="33.83574" lon="132.8015988"><ele>53.79</ele><time>2023-03-05T03:28:03Z</time></trkpt><trkpt lat="33.8357511" lon="132.8013757"><ele>54.663333333333334</ele><time>2023-03-05T03:28:17Z</time></trkpt><trkpt lat="33.8358841" lon="132.801221"><ele>55.419999999999995</ele><time>2023-03-05T03:28:29Z</time></trkpt><trkpt lat="33.8359525" lon="132.8010149"><ele>56.06333333333333</ele><time>2023-03-05T03:28:41Z</time></trkpt><trkpt lat="33.8360108" lon="132.800807"><ele>56.690000000000005</ele><time>2023-03-05T03:28:55Z</time></trkpt><trkpt lat="33.8361761" lon="132.8007086"><ele>56.863333333333344</ele><time>2023-03-05T03:29:05Z</time></trkpt><trkpt lat="33.8362864" lon="132.8005279"><ele>56.45666666666667</ele><time>2023-03-05T03:29:17Z</time></trkpt><trkpt lat="33.8363928" lon="132.8003479"><ele>55.69</ele><time>2023-03-05T03:29:33Z</time></trkpt><trkpt lat="33.836582" lon="132.8002968"><ele>54.74</ele><time>2023-03-05T03:29:49Z</time></trkpt><trkpt lat="33.836682" lon="132.8001155"><ele>53.77333333333333</ele><time>2023-03-05T03:30:01Z</time></trkpt><trkpt lat="33.836669" lon="132.7998991"><ele>52.633333333333326</ele><time>2023-03-05T03:30:13Z</time></trkpt><trkpt lat="33.8367083" lon="132.7996878"><ele>51.413333333333334</ele><time>2023-03-05T03:30:26Z</time></trkpt><trkpt lat="33.8368267" lon="132.7995125"><ele>50.25666666666667</ele><time>2023-03-05T03:30:38Z</time></trkpt><trkpt lat="33.836923" lon="132.7993282"><ele>49.44</ele><time>2023-03-05T03:31:11Z</time></trkpt><trkpt lat="33.8371274" lon="132.7993561"><ele>49.01666666666667</ele><time>2023-03-05T03:31:26Z</time></trkpt><trkpt lat="33.8373059" lon="132.7993929"><ele>48.99666666666667</ele><time>2023-03-05T03:31:35Z</time></trkpt><trkpt lat="33.8374735" lon="132.7992962"><ele>48.85999999999999</ele><time>2023-03-05T03:31:50Z</time></trkpt><trkpt lat="33.8376569" lon="132.7993066"><ele>48.70333333333334</ele><time>2023-03-05T03:32:04Z</time></trkpt><trkpt lat="33.8377113" lon="132.7990974"><ele>48.196666666666665</ele><time>2023-03-05T03:32:20Z</time></trkpt><trkpt lat="33.8375833" lon="132.7989321"><ele>47.78</ele><time>2023-03-05T03:32:31Z</time></trkpt><trkpt lat="33.8375889" lon="132.7987124"><ele>47.24666666666667</ele><time>2023-03-05T03:32:43Z</time></trkpt><trkpt lat="33.837663" lon="132.7985009"><ele>46.79</ele><time>2023-03-05T03:32:56Z</time></trkpt><trkpt lat="33.8377672" lon="132.7983236"><ele>46.49333333333334</ele><time>2023-03-05T03:33:12Z</time></trkpt><trkpt lat="33.8379" lon="132.7981646"><ele>46.449999999999996</ele><time>2023-03-05T03:33:28Z</time></trkpt><trkpt lat="33.8380856" lon="132.7981508"><ele>46.73</ele><time>2023-03-05T03:33:40Z</time></trkpt><trkpt lat="33.8379005" lon="132.7981455"><ele>46.85</ele><time>2023-03-05T03:33:55Z</time></trkpt><trkpt lat="33.8378797" lon="132.798363"><ele>46.85666666666666</ele><time>2023-03-05T03:34:06Z</time></trkpt><trkpt lat="33.8380444" lon="132.7984528"><ele>46.833333333333336</ele><time>2023-03-05T03:34:22Z</time></trkpt><trkpt lat="33.8382274" lon="132.7983985"><ele>47.156666666666666</ele><time>2023-03-05T03:34:36Z</time></trkpt><trkpt lat="33.8384088" lon="132.7983673"><ele>47.60333333333333</ele><time>2023-03-05T03:34:50Z</time></trkpt><trkpt lat="33.8385576" lon="132.7982444"><ele>48.04</ele><time>2023-03-05T03:35:05Z</time></trkpt><trkpt lat="33.838512" lon="132.7980352"><ele>48.20333333333334</ele><time>2023-03-05T03:35:18Z</time></trkpt><trkpt lat="33.8384933" lon="132.7978185"><ele>48.193333333333335</ele><time>2023-03-05T03:35:29Z</time></trkpt><trkpt lat="33.8385896" lon="132.7976297"><ele>48.076666666666675</ele><time>2023-03-05T03:35:46Z</time></trkpt><trkpt lat="33.8385492" lon="132.7974166"><ele>47.93000000000001</ele><time>2023-03-05T03:35:58Z</time></trkpt><trkpt lat="33.838623" lon="132.7972125"><ele>47.84</ele><time>2023-03-05T03:36:10Z</time></trkpt><trkpt lat="33.8387739" lon="132.7970749"><ele>47.910000000000004</ele><time>2023-03-05T03:36:30Z</time></trkpt><trkpt lat="33.8388194" lon="132.7968631"><ele>48.080000000000005</ele><time>2023-03-05T03:36:41Z</time></trkpt><trkpt lat="33.8388442" lon="132.7966291"><ele>48.23</ele><time>2023-03-05T03:36:51Z</time></trkpt><trkpt lat="33.8388963" lon="132.7964183"><ele>48.09666666666667</ele><time>2023-03-05T03:37:19Z</time></trkpt><trkpt lat="33.8389636" lon="132.7962154"><ele>47.88</ele><time>2023-03-05T03:37:31Z</time></trkpt><trkpt lat="33.8389099" lon="132.7960069"><ele>47.51</ele><time>2023-03-05T03:37:43Z</time></trkpt><trkpt lat="33.8388415" lon="132.7957933"><ele>47.120000000000005</ele><time>2023-03-05T03:37:56Z</time></trkpt><trkpt lat="33.838881" lon="132.795578"><ele>46.650000000000006</ele><time>2023-03-05T03:38:09Z</time></trkpt><trkpt lat="33.8388976" lon="132.7953573"><ele>46.24666666666667</ele><time>2023-03-05T03:38:24Z</time></trkpt><trkpt lat="33.8390238" lon="132.7951953"><ele>45.86000000000001</ele><time>2023-03-05T03:38:39Z</time></trkpt><trkpt lat="33.8392071" lon="132.7952118"><ele>45.64000000000001</ele><time>2023-03-05T03:38:53Z</time></trkpt><trkpt lat="33.8393711" lon="132.7951167"><ele>45.46333333333333</ele><time>2023-03-05T03:39:08Z</time></trkpt><trkpt lat="33.8395495" lon="132.7951531"><ele>45.4</ele><time>2023-03-05T03:39:20Z</time></trkpt><trkpt lat="33.8395936" lon="132.7949348"><ele>45.27</ele><time>2023-03-05T03:39:35Z</time></trkpt></trkseg></trk></gpx>