<?xml version='1.0' encoding='UTF-8'?><gpx creator="Yama Museum Summit Candidate Generator" xsi:schemaLocation="http://www.topografix.com/GPX/1/1 http://www.topografix.com/GPX/1/1/gpx.xsd" version="1.1" xmlns="http://www.topografix.com/GPX/1/1" xmlns:xsi="http://www.w3.org/2001/XMLSchema-instance" xmlns:yama="https://museum-yama-data.moukaeritai.work/ns/yama-data/0.1"><metadata><bounds maxlat="33.525667" maxlon="132.677009" minlat="33.5243692" minlon="132.6716242"/><name>大登山</name><extensions><yama:source_gpx_basename>yamap_2025-03-17_14_08.gpx</yama:source_gpx_basename><yama:source_gpx_relative_path>data/01_raw/gpx/2026-05-12/yamap_2025-03-17_14_08.gpx</yama:source_gpx_relative_path><yama:detection_parameters>window=5,radius=10,min_prominence=30,merge=100</yama:detection_parameters></extensions></metadata><wpt lat="33.525029" lon="132.6716242"><ele>362.42333333333335</ele><time>2025-03-17T05:23:23Z</time><name>summit-candidate:230b9847a05c8052</name><desc>Summit candidate detected at elevation 362.42333333333335m with prominence 55.94911111111111m.</desc><sym>Summit Candidate</sym><extensions><yama:source_trackpoint_index>42</yama:source_trackpoint_index><yama:valid_elevation_index>42</yama:valid_elevation_index><yama:smoothed_ele>362.178</yama:smoothed_ele><yama:prominence>55.94911111111111</yama:prominence><yama:detection_method>local_maxima_with_prominence</yama:detection_method><yama:detection_parameters>window=5,radius=10,min_prominence=30,merge=100</yama:detection_parameters><yama:candidate_status>unresolved</yama:candidate_status></extensions></wpt>
  <trk><name>大登山</name><number>1</number><trkseg><trkpt lat="33.5250036" lon="132.677009"><ele>302.32</ele><time>2025-03-17T05:08:02Z</time></trkpt><trkpt lat="33.5251228" lon="132.6768069"><ele>304.63</ele><time>2025-03-17T05:09:07Z</time></trkpt><trkpt lat="33.5253154" lon="132.6768322"><ele>303.94</ele><time>2025-03-17T05:09:42Z</time></trkpt><trkpt lat="33.5255546" lon="132.6767484"><ele>304.04</ele><time>2025-03-17T05:09:54Z</time></trkpt><trkpt lat="33.525667" lon="132.676555"><ele>304.00333333333333</ele><time>2025-03-17T05:10:06Z</time></trkpt><trkpt lat="33.5254781" lon="132.6765323"><ele>306.0933333333333</ele><time>2025-03-17T05:10:25Z</time></trkpt><trkpt lat="33.5252671" lon="132.6765426"><ele>309.0566666666667</ele><time>2025-03-17T05:10:41Z</time></trkpt><trkpt lat="33.5250444" lon="132.6765467"><ele>312.44</ele><time>2025-03-17T05:10:59Z</time></trkpt><trkpt lat="33.5248939" lon="132.6763906"><ele>319.6666666666667</ele><time>2025-03-17T05:11:17Z</time></trkpt><trkpt lat="33.5250703" lon="132.6762633"><ele>324.94666666666666</ele><time>2025-03-17T05:11:30Z</time></trkpt><trkpt lat="33.5251491" lon="132.6760622"><ele>328.8933333333334</ele><time>2025-03-17T05:11:56Z</time></trkpt><trkpt lat="33.5249573" lon="132.6760453"><ele>330.15333333333336</ele><time>2025-03-17T05:12:16Z</time></trkpt><trkpt lat="33.5248058" lon="132.6761934"><ele>333.1366666666667</ele><time>2025-03-17T05:12:32Z</time></trkpt><trkpt lat="33.5246678" lon="132.6763552"><ele>336.50333333333333</ele><time>2025-03-17T05:12:50Z</time></trkpt><trkpt lat="33.5245483" lon="132.6765275"><ele>337.8733333333334</ele><time>2025-03-17T05:13:08Z</time></trkpt><trkpt lat="33.5243748" lon="132.6764478"><ele>341.18</ele><time>2025-03-17T05:13:23Z</time></trkpt><trkpt lat="33.5244368" lon="132.6762447"><ele>344.51000000000005</ele><time>2025-03-17T05:13:35Z</time></trkpt><trkpt lat="33.5245207" lon="132.6760367"><ele>347.1700000000001</ele><time>2025-03-17T05:13:50Z</time></trkpt><trkpt lat="33.5245889" lon="132.6758134"><ele>346.9866666666667</ele><time>2025-03-17T05:14:05Z</time></trkpt><trkpt lat="33.5245671" lon="132.6755691"><ele>346.6033333333333</ele><time>2025-03-17T05:14:35Z</time></trkpt><trkpt lat="33.5244946" lon="132.6753478"><ele>347.34666666666664</ele><time>2025-03-17T05:14:47Z</time></trkpt><trkpt lat="33.5244495" lon="132.6751283"><ele>348.24333333333334</ele><time>2025-03-17T05:14:59Z</time></trkpt><trkpt lat="33.5245009" lon="132.6748912"><ele>348.7366666666667</ele><time>2025-03-17T05:15:14Z</time></trkpt><trkpt lat="33.5245423" lon="132.674661"><ele>348.7266666666667</ele><time>2025-03-17T05:15:59Z</time></trkpt><trkpt lat="33.5245155" lon="132.6744472"><ele>349.41333333333336</ele><time>2025-03-17T05:16:17Z</time></trkpt><trkpt lat="33.5245818" lon="132.6742446"><ele>351.2866666666667</ele><time>2025-03-17T05:16:32Z</time></trkpt><trkpt lat="33.524706" lon="132.6740535"><ele>354.1566666666667</ele><time>2025-03-17T05:16:47Z</time></trkpt><trkpt lat="33.5247898" lon="132.6738354"><ele>356.17333333333335</ele><time>2025-03-17T05:17:02Z</time></trkpt><trkpt lat="33.5246585" lon="132.6736452"><ele>357.0033333333334</ele><time>2025-03-17T05:17:20Z</time></trkpt><trkpt lat="33.5245656" lon="132.6734224"><ele>358.12000000000006</ele><time>2025-03-17T05:17:38Z</time></trkpt><trkpt lat="33.524462" lon="132.6736145"><ele>359.55</ele><time>2025-03-17T05:18:09Z</time></trkpt><trkpt lat="33.5243692" lon="132.6737992"><ele>360.8</ele><time>2025-03-17T05:18:36Z</time></trkpt><trkpt lat="33.5244896" lon="132.6735687"><ele>360.8733333333333</ele><time>2025-03-17T05:18:57Z</time></trkpt><trkpt lat="33.5245885" lon="132.673386"><ele>360.82666666666665</ele><time>2025-03-17T05:19:13Z</time></trkpt><trkpt lat="33.5247634" lon="132.673253"><ele>360.3533333333333</ele><time>2025-03-17T05:19:45Z</time></trkpt><trkpt lat="33.5248818" lon="132.6730903"><ele>359.73333333333335</ele><time>2025-03-17T05:20:07Z</time></trkpt><trkpt lat="33.5249241" lon="132.6728486"><ele>359.97</ele><time>2025-03-17T05:20:27Z</time></trkpt><trkpt lat="33.5249034" lon="132.6725865"><ele>360.72333333333336</ele><time>2025-03-17T05:20:51Z</time></trkpt><trkpt lat="33.5249353" lon="132.6723374"><ele>361.5533333333333</ele><time>2025-03-17T05:21:12Z</time></trkpt><trkpt lat="33.5251064" lon="132.6722274"><ele>361.75333333333333</ele><time>2025-03-17T05:21:30Z</time></trkpt><trkpt lat="33.5252135" lon="132.672037"><ele>361.7333333333333</ele><time>2025-03-17T05:21:54Z</time></trkpt><trkpt lat="33.5251203" lon="132.6718359"><ele>362.32</ele><time>2025-03-17T05:22:15Z</time></trkpt><trkpt lat="33.525029" lon="132.6716242"><ele>362.42333333333335</ele><time>2025-03-17T05:23:23Z</time></trkpt><trkpt lat="33.5252122" lon="132.6717065"><ele>362.6366666666667</ele><time>2025-03-17T05:25:29Z</time></trkpt><trkpt lat="33.5253323" lon="132.671891"><ele>361.77666666666664</ele><time>2025-03-17T05:26:14Z</time></trkpt><trkpt lat="33.5251807" lon="132.6720563"><ele>361.6566666666666</ele><time>2025-03-17T05:28:08Z</time></trkpt><trkpt lat="33.5250298" lon="132.6721928"><ele>361.7266666666667</ele><time>2025-03-17T05:28:23Z</time></trkpt><trkpt lat="33.5249121" lon="132.6723961"><ele>362.00333333333333</ele><time>2025-03-17T05:28:45Z</time></trkpt><trkpt lat="33.524858" lon="132.6726132"><ele>361.31333333333333</ele><time>2025-03-17T05:29:05Z</time></trkpt><trkpt lat="33.5248885" lon="132.6728328"><ele>360.84666666666664</ele><time>2025-03-17T05:29:17Z</time></trkpt><trkpt lat="33.5248995" lon="132.6730558"><ele>360.0133333333333</ele><time>2025-03-17T05:29:32Z</time></trkpt><trkpt lat="33.5247979" lon="132.6732394"><ele>359.46000000000004</ele><time>2025-03-17T05:29:51Z</time></trkpt><trkpt lat="33.524614" lon="132.6733094"><ele>359.22333333333336</ele><time>2025-03-17T05:30:11Z</time></trkpt><trkpt lat="33.5246702" lon="132.6735949"><ele>358.6033333333333</ele><time>2025-03-17T05:30:32Z</time></trkpt><trkpt lat="33.5248498" lon="132.6737347"><ele>357.42666666666673</ele><time>2025-03-17T05:30:44Z</time></trkpt><trkpt lat="33.5248365" lon="132.6739868"><ele>355.6333333333334</ele><time>2025-03-17T05:30:59Z</time></trkpt><trkpt lat="33.52467" lon="132.6742627"><ele>353.43333333333334</ele><time>2025-03-17T05:31:20Z</time></trkpt><trkpt lat="33.5246248" lon="132.6745142"><ele>351.16333333333336</ele><time>2025-03-17T05:31:45Z</time></trkpt><trkpt lat="33.5246176" lon="132.674748"><ele>348.3933333333334</ele><time>2025-03-17T05:31:56Z</time></trkpt><trkpt lat="33.5245139" lon="132.6749362"><ele>347.2633333333333</ele><time>2025-03-17T05:32:05Z</time></trkpt><trkpt lat="33.5244438" lon="132.6751836"><ele>347.4466666666667</ele><time>2025-03-17T05:32:17Z</time></trkpt><trkpt lat="33.524492" lon="132.675416"><ele>348.11000000000007</ele><time>2025-03-17T05:32:32Z</time></trkpt><trkpt lat="33.52459" lon="132.6756337"><ele>347.77</ele><time>2025-03-17T05:32:47Z</time></trkpt><trkpt lat="33.5245712" lon="132.6758784"><ele>347.32</ele><time>2025-03-17T05:33:02Z</time></trkpt><trkpt lat="33.5245063" lon="132.6761258"><ele>346.9433333333333</ele><time>2025-03-17T05:33:17Z</time></trkpt><trkpt lat="33.5244434" lon="132.6763433"><ele>346.89333333333326</ele><time>2025-03-17T05:33:29Z</time></trkpt><trkpt lat="33.5245777" lon="132.6764958"><ele>344.02333333333337</ele><time>2025-03-17T05:33:44Z</time></trkpt><trkpt lat="33.5247253" lon="132.6763715"><ele>340.14</ele><time>2025-03-17T05:33:56Z</time></trkpt><trkpt lat="33.5248434" lon="132.6761686"><ele>336.94666666666666</ele><time>2025-03-17T05:34:12Z</time></trkpt><trkpt lat="33.5249865" lon="132.676006"><ele>335.57666666666665</ele><time>2025-03-17T05:34:26Z</time></trkpt><trkpt lat="33.5251823" lon="132.6760842"><ele>332.26</ele><time>2025-03-17T05:34:44Z</time></trkpt><trkpt lat="33.5250639" lon="132.6762855"><ele>329.2766666666667</ele><time>2025-03-17T05:35:03Z</time></trkpt><trkpt lat="33.5249653" lon="132.6764989"><ele>324.4633333333333</ele><time>2025-03-17T05:35:17Z</time></trkpt><trkpt lat="33.5251294" lon="132.6765902"><ele>319.52000000000004</ele><time>2025-03-17T05:35:29Z</time></trkpt><trkpt lat="33.5253209" lon="132.6766336"><ele>313.1366666666667</ele><time>2025-03-17T05:35:44Z</time></trkpt><trkpt lat="33.5255348" lon="132.6765578"><ele>309.25</ele><time>2025-03-17T05:35:57Z</time></trkpt><trkpt lat="33.5253613" lon="132.6766705"><ele>307.54333333333335</ele><time>2025-03-17T05:36:39Z</time></trkpt><trkpt lat="33.5251293" lon="132.6768578"><ele>306.55</ele><time>2025-03-17T05:36:54Z</time></trkpt><trkpt lat="33.5249657" lon="132.6770085"><ele>304.5933333333333</ele><time>2025-03-17T05:37:08Z</time></trkpt></trkseg></trk></gpx>