<?xml version='1.0' encoding='UTF-8'?><gpx creator="Yama Museum Summit Candidate Generator" xsi:schemaLocation="http://www.topografix.com/GPX/1/1 http://www.topografix.com/GPX/1/1/gpx.xsd" version="1.1" xmlns="http://www.topografix.com/GPX/1/1" xmlns:xsi="http://www.w3.org/2001/XMLSchema-instance" xmlns:yama="https://museum-yama-data.moukaeritai.work/ns/yama-data/0.1"><metadata><bounds maxlat="33.8320362" maxlon="133.2844791" minlat="33.7987687" minlon="133.2603987"/><name>寒風山・笹ヶ峰・ちち山</name><extensions><yama:source_gpx_basename>yamap_2022-09-09_06_58.gpx</yama:source_gpx_basename><yama:source_gpx_relative_path>data/01_raw/gpx/2026-05-12/yamap_2022-09-09_06_58.gpx</yama:source_gpx_relative_path><yama:detection_parameters>window=5,radius=10,min_prominence=30,merge=100</yama:detection_parameters></extensions></metadata><wpt lat="33.8116552" lon="133.2616339"><ele>1758.0533333333333</ele><time>2022-09-09T00:07:04Z</time><name>summit-candidate:23eea13de5db5c9f</name><desc>Summit candidate detected at elevation 1758.0533333333333m with prominence 135.25466666666648m.</desc><sym>Summit Candidate</sym><extensions><yama:source_trackpoint_index>138</yama:source_trackpoint_index><yama:valid_elevation_index>138</yama:valid_elevation_index><yama:smoothed_ele>1755.8059999999998</yama:smoothed_ele><yama:prominence>135.25466666666648</yama:prominence><yama:detection_method>local_maxima_with_prominence</yama:detection_method><yama:detection_parameters>window=5,radius=10,min_prominence=30,merge=100</yama:detection_parameters><yama:candidate_status>unresolved</yama:candidate_status></extensions></wpt>
  <wpt lat="33.8282719" lon="133.274721"><ele>1856.2533333333333</ele><time>2022-09-09T01:37:36Z</time><name>summit-candidate:9a59c4b620ba3792</name><desc>Summit candidate detected at elevation 1856.2533333333333m with prominence 740.9765555555557m.</desc><sym>Summit Candidate</sym><extensions><yama:source_trackpoint_index>263</yama:source_trackpoint_index><yama:valid_elevation_index>263</yama:valid_elevation_index><yama:smoothed_ele>1854.9260000000002</yama:smoothed_ele><yama:prominence>740.9765555555557</yama:prominence><yama:detection_method>local_maxima_with_prominence</yama:detection_method><yama:detection_parameters>window=5,radius=10,min_prominence=30,merge=100</yama:detection_parameters><yama:candidate_status>unresolved</yama:candidate_status></extensions></wpt>
  <wpt lat="33.8318331" lon="133.2842619"><ele>1846.8</ele><time>2022-09-09T02:33:01Z</time><name>summit-candidate:7213c478833fd90f</name><desc>Summit candidate detected at elevation 1846.8m with prominence 94.97666666666714m.</desc><sym>Summit Candidate</sym><extensions><yama:source_trackpoint_index>325</yama:source_trackpoint_index><yama:valid_elevation_index>325</yama:valid_elevation_index><yama:smoothed_ele>1848.9200000000005</yama:smoothed_ele><yama:prominence>94.97666666666714</yama:prominence><yama:detection_method>local_maxima_with_prominence</yama:detection_method><yama:detection_parameters>window=5,radius=10,min_prominence=30,merge=100</yama:detection_parameters><yama:candidate_status>unresolved</yama:candidate_status></extensions></wpt>
  <wpt lat="33.8051544" lon="133.2736798"><ele>1138.3266666666668</ele><time>2022-09-09T04:41:22Z</time><name>summit-candidate:395bb631522975b6</name><desc>Summit candidate detected at elevation 1138.3266666666668m with prominence 40.846666666666806m.</desc><sym>Summit Candidate</sym><extensions><yama:source_trackpoint_index>582</yama:source_trackpoint_index><yama:valid_elevation_index>582</yama:valid_elevation_index><yama:smoothed_ele>1137.6580000000001</yama:smoothed_ele><yama:prominence>40.846666666666806</yama:prominence><yama:detection_method>local_maxima_with_prominence</yama:detection_method><yama:detection_parameters>window=5,radius=10,min_prominence=30,merge=100</yama:detection_parameters><yama:candidate_status>unresolved</yama:candidate_status></extensions></wpt>
  <trk><name>寒風山・笹ヶ峰・ちち山</name><number>1</number><trkseg><trkpt lat="33.8001524" lon="133.2667108"><ele>1114.17</ele><time>2022-09-08T21:58:48Z</time></trkpt><trkpt lat="33.8000035" lon="133.2665867"><ele>1113.625</ele><time>2022-09-08T21:59:13Z</time></trkpt><trkpt lat="33.7999048" lon="133.2664058"><ele>1114.0533333333333</ele><time>2022-09-08T21:59:47Z</time></trkpt><trkpt lat="33.7997231" lon="133.2664519"><ele>1114.5033333333333</ele><time>2022-09-08T22:00:09Z</time></trkpt><trkpt lat="33.7995532" lon="133.2665425"><ele>1114.9933333333336</ele><time>2022-09-08T22:02:08Z</time></trkpt><trkpt lat="33.7993476" lon="133.2665362"><ele>1119.09</ele><time>2022-09-08T22:06:01Z</time></trkpt><trkpt lat="33.7991673" lon="133.2665049"><ele>1127.6566666666668</ele><time>2022-09-08T22:06:36Z</time></trkpt><trkpt lat="33.7990797" lon="133.2663153"><ele>1138.1066666666668</ele><time>2022-09-08T22:07:45Z</time></trkpt><trkpt lat="33.7990723" lon="133.2660857"><ele>1147.8533333333332</ele><time>2022-09-08T22:08:16Z</time></trkpt><trkpt lat="33.7991173" lon="133.2662957"><ele>1150.53</ele><time>2022-09-08T22:10:14Z</time></trkpt><trkpt lat="33.7992179" lon="133.2664881"><ele>1148.58</ele><time>2022-09-08T22:10:56Z</time></trkpt><trkpt lat="33.7993515" lon="133.2663413"><ele>1144.1366666666668</ele><time>2022-09-08T22:11:50Z</time></trkpt><trkpt lat="33.7994743" lon="133.2665039"><ele>1134.6533333333334</ele><time>2022-09-08T22:12:36Z</time></trkpt><trkpt lat="33.7996548" lon="133.2665083"><ele>1125.9833333333333</ele><time>2022-09-08T22:13:02Z</time></trkpt><trkpt lat="33.7998302" lon="133.2664505"><ele>1116.6166666666668</ele><time>2022-09-08T22:13:19Z</time></trkpt><trkpt lat="33.7998926" lon="133.2662416"><ele>1115.4966666666667</ele><time>2022-09-08T22:13:30Z</time></trkpt><trkpt lat="33.8000521" lon="133.2663462"><ele>1117.5633333333333</ele><time>2022-09-08T22:13:43Z</time></trkpt><trkpt lat="33.8000748" lon="133.2665705"><ele>1117.426666666667</ele><time>2022-09-08T22:13:54Z</time></trkpt><trkpt lat="33.800238" lon="133.2666815"><ele>1117.0800000000002</ele><time>2022-09-08T22:14:12Z</time></trkpt><trkpt lat="33.8000654" lon="133.2667453"><ele>1113.7833333333335</ele><time>2022-09-08T22:16:10Z</time></trkpt><trkpt lat="33.7999462" lon="133.2665812"><ele>1112.9066666666668</ele><time>2022-09-08T22:16:23Z</time></trkpt><trkpt lat="33.7998881" lon="133.2663673"><ele>1112.8233333333335</ele><time>2022-09-08T22:16:38Z</time></trkpt><trkpt lat="33.7997072" lon="133.266397"><ele>1114.5466666666666</ele><time>2022-09-08T22:16:54Z</time></trkpt><trkpt lat="33.7995455" lon="133.2665012"><ele>1115.9466666666667</ele><time>2022-09-08T22:19:27Z</time></trkpt><trkpt lat="33.7994654" lon="133.2663074"><ele>1121.7733333333333</ele><time>2022-09-08T22:23:02Z</time></trkpt><trkpt lat="33.7994469" lon="133.2665251"><ele>1123.5333333333335</ele><time>2022-09-08T22:23:35Z</time></trkpt><trkpt lat="33.7992738" lon="133.2665979"><ele>1126.7766666666669</ele><time>2022-09-08T22:24:04Z</time></trkpt><trkpt lat="33.7991749" lon="133.2664103"><ele>1130.5</ele><time>2022-09-08T22:25:06Z</time></trkpt><trkpt lat="33.7990907" lon="133.2662181"><ele>1141.1533333333334</ele><time>2022-09-08T22:25:48Z</time></trkpt><trkpt lat="33.7990841" lon="133.2660001"><ele>1153.0433333333333</ele><time>2022-09-08T22:27:02Z</time></trkpt><trkpt lat="33.799009" lon="133.2658031"><ele>1161.97</ele><time>2022-09-08T22:29:45Z</time></trkpt><trkpt lat="33.7989951" lon="133.2655877"><ele>1174.9333333333332</ele><time>2022-09-08T22:31:01Z</time></trkpt><trkpt lat="33.7989962" lon="133.2653716"><ele>1188.2533333333333</ele><time>2022-09-08T22:31:52Z</time></trkpt><trkpt lat="33.7989862" lon="133.2651537"><ele>1201.0866666666668</ele><time>2022-09-08T22:32:33Z</time></trkpt><trkpt lat="33.7990111" lon="133.2649334"><ele>1209.5033333333333</ele><time>2022-09-08T22:32:59Z</time></trkpt><trkpt lat="33.7990434" lon="133.2647162"><ele>1217.1633333333332</ele><time>2022-09-08T22:33:27Z</time></trkpt><trkpt lat="33.7991027" lon="133.2645119"><ele>1224.6933333333334</ele><time>2022-09-08T22:34:00Z</time></trkpt><trkpt lat="33.7992159" lon="133.2643407"><ele>1233.2433333333336</ele><time>2022-09-08T22:35:36Z</time></trkpt><trkpt lat="33.7991168" lon="133.2641589"><ele>1240.5900000000001</ele><time>2022-09-08T22:35:51Z</time></trkpt><trkpt lat="33.7990547" lon="133.2639537"><ele>1246.6233333333332</ele><time>2022-09-08T22:36:19Z</time></trkpt><trkpt lat="33.7991283" lon="133.2637552"><ele>1252.783333333333</ele><time>2022-09-08T22:36:50Z</time></trkpt><trkpt lat="33.7990431" lon="133.2635575"><ele>1259.1433333333334</ele><time>2022-09-08T22:37:14Z</time></trkpt><trkpt lat="33.7991021" lon="133.2633486"><ele>1267.8533333333332</ele><time>2022-09-08T22:38:20Z</time></trkpt><trkpt lat="33.799142" lon="133.2631349"><ele>1277.0200000000002</ele><time>2022-09-08T22:39:37Z</time></trkpt><trkpt lat="33.7990695" lon="133.262932"><ele>1288.3233333333335</ele><time>2022-09-08T22:40:24Z</time></trkpt><trkpt lat="33.7989933" lon="133.262729"><ele>1297.2233333333334</ele><time>2022-09-08T22:40:37Z</time></trkpt><trkpt lat="33.7988885" lon="133.2625468"><ele>1300.4400000000003</ele><time>2022-09-08T22:40:55Z</time></trkpt><trkpt lat="33.7990037" lon="133.2623795"><ele>1305.0466666666669</ele><time>2022-09-08T22:42:04Z</time></trkpt><trkpt lat="33.7991095" lon="133.262201"><ele>1311.8033333333333</ele><time>2022-09-08T22:42:47Z</time></trkpt><trkpt lat="33.7991524" lon="133.2619876"><ele>1324.9700000000003</ele><time>2022-09-08T22:43:45Z</time></trkpt><trkpt lat="33.7990472" lon="133.2618091"><ele>1333.74</ele><time>2022-09-08T22:44:30Z</time></trkpt><trkpt lat="33.7990165" lon="133.2615956"><ele>1341.9333333333334</ele><time>2022-09-08T22:45:32Z</time></trkpt><trkpt lat="33.7990073" lon="133.2613752"><ele>1349.3233333333335</ele><time>2022-09-08T22:45:51Z</time></trkpt><trkpt lat="33.7989105" lon="133.2611863"><ele>1357.6366666666668</ele><time>2022-09-08T22:47:07Z</time></trkpt><trkpt lat="33.7987687" lon="133.2610441"><ele>1364.2633333333333</ele><time>2022-09-08T22:47:26Z</time></trkpt><trkpt lat="33.7988888" lon="133.2608818"><ele>1370.8966666666668</ele><time>2022-09-08T22:49:24Z</time></trkpt><trkpt lat="33.7989141" lon="133.260666"><ele>1380.4666666666665</ele><time>2022-09-08T22:50:46Z</time></trkpt><trkpt lat="33.798837" lon="133.2604655"><ele>1393.4399999999998</ele><time>2022-09-08T22:51:14Z</time></trkpt><trkpt lat="33.7990109" lon="133.2603987"><ele>1404.4399999999998</ele><time>2022-09-08T22:53:01Z</time></trkpt><trkpt lat="33.7991947" lon="133.2604249"><ele>1414.38</ele><time>2022-09-08T22:53:23Z</time></trkpt><trkpt lat="33.799361" lon="133.2605264"><ele>1420.8333333333333</ele><time>2022-09-08T22:53:40Z</time></trkpt><trkpt lat="33.799516" lon="133.2606518"><ele>1425.28</ele><time>2022-09-08T22:53:56Z</time></trkpt><trkpt lat="33.7996654" lon="133.260776"><ele>1427.5933333333332</ele><time>2022-09-08T22:54:20Z</time></trkpt><trkpt lat="33.7997728" lon="133.2609568"><ele>1429.0133333333333</ele><time>2022-09-08T22:54:37Z</time></trkpt><trkpt lat="33.7999187" lon="133.2610932"><ele>1430.4433333333334</ele><time>2022-09-08T22:55:04Z</time></trkpt><trkpt lat="33.8000581" lon="133.2612425"><ele>1430.1433333333334</ele><time>2022-09-08T22:55:34Z</time></trkpt><trkpt lat="33.8002199" lon="133.2613381"><ele>1429.9233333333334</ele><time>2022-09-08T22:56:00Z</time></trkpt><trkpt lat="33.8004012" lon="133.2613334"><ele>1431.4000000000003</ele><time>2022-09-08T22:56:26Z</time></trkpt><trkpt lat="33.8005818" lon="133.2613078"><ele>1435.63</ele><time>2022-09-08T22:57:05Z</time></trkpt><trkpt lat="33.8007624" lon="133.2612732"><ele>1439.4133333333332</ele><time>2022-09-08T22:57:24Z</time></trkpt><trkpt lat="33.8009434" lon="133.261276"><ele>1441.6966666666667</ele><time>2022-09-08T22:57:44Z</time></trkpt><trkpt lat="33.8009823" lon="133.2610605"><ele>1444.6666666666667</ele><time>2022-09-08T22:58:04Z</time></trkpt><trkpt lat="33.8011652" lon="133.2610536"><ele>1448.4966666666667</ele><time>2022-09-08T23:04:51Z</time></trkpt><trkpt lat="33.8013448" lon="133.2611138"><ele>1453.5933333333332</ele><time>2022-09-08T23:05:05Z</time></trkpt><trkpt lat="33.8015268" lon="133.2610958"><ele>1457.6066666666666</ele><time>2022-09-08T23:06:06Z</time></trkpt><trkpt lat="33.8016996" lon="133.2611578"><ele>1461.2</ele><time>2022-09-08T23:06:40Z</time></trkpt><trkpt lat="33.8018816" lon="133.2611455"><ele>1465.6633333333332</ele><time>2022-09-08T23:07:15Z</time></trkpt><trkpt lat="33.8020316" lon="133.2612717"><ele>1464.8433333333335</ele><time>2022-09-08T23:07:37Z</time></trkpt><trkpt lat="33.8022151" lon="133.261268"><ele>1465.493333333333</ele><time>2022-09-08T23:08:20Z</time></trkpt><trkpt lat="33.8023963" lon="133.2612871"><ele>1466.1200000000001</ele><time>2022-09-08T23:08:55Z</time></trkpt><trkpt lat="33.8025595" lon="133.2613887"><ele>1473.1899999999998</ele><time>2022-09-08T23:09:32Z</time></trkpt><trkpt lat="33.8027294" lon="133.2614748"><ele>1479.88</ele><time>2022-09-08T23:10:00Z</time></trkpt><trkpt lat="33.8029004" lon="133.2615441"><ele>1486.3700000000001</ele><time>2022-09-08T23:10:30Z</time></trkpt><trkpt lat="33.8030787" lon="133.2615836"><ele>1491.3433333333332</ele><time>2022-09-08T23:11:14Z</time></trkpt><trkpt lat="33.8032476" lon="133.2616652"><ele>1496.216666666667</ele><time>2022-09-08T23:12:02Z</time></trkpt><trkpt lat="33.8034326" lon="133.261719"><ele>1501.86</ele><time>2022-09-08T23:12:52Z</time></trkpt><trkpt lat="33.8036116" lon="133.2616912"><ele>1508.4399999999998</ele><time>2022-09-08T23:13:52Z</time></trkpt><trkpt lat="33.8037927" lon="133.2616941"><ele>1516.4300000000003</ele><time>2022-09-08T23:14:13Z</time></trkpt><trkpt lat="33.8039484" lon="133.2618062"><ele>1523.256666666667</ele><time>2022-09-08T23:14:36Z</time></trkpt><trkpt lat="33.8040599" lon="133.2619875"><ele>1528.6866666666665</ele><time>2022-09-08T23:15:04Z</time></trkpt><trkpt lat="33.804196" lon="133.2621293"><ele>1532.2033333333331</ele><time>2022-09-08T23:15:19Z</time></trkpt><trkpt lat="33.804372" lon="133.2622001"><ele>1534.92</ele><time>2022-09-08T23:15:39Z</time></trkpt><trkpt lat="33.8045338" lon="133.2622994"><ele>1537.3033333333333</ele><time>2022-09-08T23:16:03Z</time></trkpt><trkpt lat="33.8046901" lon="133.2624147"><ele>1538.2866666666669</ele><time>2022-09-08T23:16:24Z</time></trkpt><trkpt lat="33.8048678" lon="133.2624619"><ele>1537.5733333333335</ele><time>2022-09-08T23:16:44Z</time></trkpt><trkpt lat="33.8050338" lon="133.2625563"><ele>1534.5233333333333</ele><time>2022-09-08T23:17:03Z</time></trkpt><trkpt lat="33.8052166" lon="133.2625302"><ele>1530.9466666666667</ele><time>2022-09-08T23:17:38Z</time></trkpt><trkpt lat="33.8053675" lon="133.2624065"><ele>1530.2833333333335</ele><time>2022-09-08T23:18:03Z</time></trkpt><trkpt lat="33.8055441" lon="133.2623263"><ele>1532.3166666666666</ele><time>2022-09-08T23:18:29Z</time></trkpt><trkpt lat="33.8057211" lon="133.262278"><ele>1534.7933333333333</ele><time>2022-09-08T23:18:53Z</time></trkpt><trkpt lat="33.8058815" lon="133.2621708"><ele>1538.006666666667</ele><time>2022-09-08T23:19:17Z</time></trkpt><trkpt lat="33.8060565" lon="133.2621111"><ele>1540.1533333333334</ele><time>2022-09-08T23:20:00Z</time></trkpt><trkpt lat="33.8062119" lon="133.2619966"><ele>1548.6366666666665</ele><time>2022-09-08T23:21:19Z</time></trkpt><trkpt lat="33.8063193" lon="133.2618161"><ele>1559.2466666666667</ele><time>2022-09-08T23:22:38Z</time></trkpt><trkpt lat="33.8064849" lon="133.2617285"><ele>1573.0600000000002</ele><time>2022-09-08T23:24:11Z</time></trkpt><trkpt lat="33.8065642" lon="133.261531"><ele>1584.91</ele><time>2022-09-08T23:25:32Z</time></trkpt><trkpt lat="33.8067285" lon="133.2614234"><ele>1595.0200000000002</ele><time>2022-09-08T23:28:24Z</time></trkpt><trkpt lat="33.8069079" lon="133.2613227"><ele>1609.3666666666668</ele><time>2022-09-08T23:30:48Z</time></trkpt><trkpt lat="33.8070811" lon="133.2612616"><ele>1617.63</ele><time>2022-09-08T23:31:30Z</time></trkpt><trkpt lat="33.8072633" lon="133.2612551"><ele>1621.43</ele><time>2022-09-08T23:32:25Z</time></trkpt><trkpt lat="33.8074216" lon="133.2613677"><ele>1616.7966666666669</ele><time>2022-09-08T23:33:09Z</time></trkpt><trkpt lat="33.8076021" lon="133.2613861"><ele>1615.38</ele><time>2022-09-08T23:33:33Z</time></trkpt><trkpt lat="33.8077863" lon="133.2613748"><ele>1616.2466666666667</ele><time>2022-09-08T23:34:43Z</time></trkpt><trkpt lat="33.8079608" lon="133.2613191"><ele>1620.0100000000002</ele><time>2022-09-08T23:35:01Z</time></trkpt><trkpt lat="33.8081247" lon="133.2612202"><ele>1625.8833333333334</ele><time>2022-09-08T23:35:35Z</time></trkpt><trkpt lat="33.8083032" lon="133.2612546"><ele>1629.4099999999999</ele><time>2022-09-08T23:36:28Z</time></trkpt><trkpt lat="33.8084738" lon="133.2611763"><ele>1635.2700000000002</ele><time>2022-09-08T23:36:49Z</time></trkpt><trkpt lat="33.8086477" lon="133.2611126"><ele>1641.2766666666666</ele><time>2022-09-08T23:37:58Z</time></trkpt><trkpt lat="33.8088194" lon="133.2610406"><ele>1651.5466666666664</ele><time>2022-09-08T23:38:36Z</time></trkpt><trkpt lat="33.8089993" lon="133.2610817"><ele>1657.7233333333334</ele><time>2022-09-08T23:38:58Z</time></trkpt><trkpt lat="33.8091795" lon="133.2611045"><ele>1665.7766666666666</ele><time>2022-09-08T23:40:30Z</time></trkpt><trkpt lat="33.8093405" lon="133.2612197"><ele>1672.4833333333333</ele><time>2022-09-08T23:40:48Z</time></trkpt><trkpt lat="33.8094893" lon="133.261343"><ele>1677.45</ele><time>2022-09-08T23:41:10Z</time></trkpt><trkpt lat="33.8096472" lon="133.2612289"><ele>1684.4366666666665</ele><time>2022-09-08T23:43:27Z</time></trkpt><trkpt lat="33.8098271" lon="133.2612871"><ele>1691.0666666666666</ele><time>2022-09-08T23:43:46Z</time></trkpt><trkpt lat="33.8100062" lon="133.2613447"><ele>1698.8566666666666</ele><time>2022-09-08T23:44:52Z</time></trkpt><trkpt lat="33.8101854" lon="133.2612949"><ele>1703.3433333333335</ele><time>2022-09-08T23:45:31Z</time></trkpt><trkpt lat="33.8103326" lon="133.2611666"><ele>1708.75</ele><time>2022-09-08T23:46:03Z</time></trkpt><trkpt lat="33.8104823" lon="133.2610327"><ele>1718.5733333333335</ele><time>2022-09-08T23:46:43Z</time></trkpt><trkpt lat="33.8106164" lon="133.2608849"><ele>1728.8466666666666</ele><time>2022-09-08T23:47:41Z</time></trkpt><trkpt lat="33.8107794" lon="133.260978"><ele>1736.8833333333332</ele><time>2022-09-08T23:48:22Z</time></trkpt><trkpt lat="33.8109551" lon="133.2610445"><ele>1740.9066666666668</ele><time>2022-09-08T23:48:40Z</time></trkpt><trkpt lat="33.8111337" lon="133.2610798"><ele>1741.4266666666665</ele><time>2022-09-08T23:48:59Z</time></trkpt><trkpt lat="33.8112892" lon="133.2611913"><ele>1743.2233333333334</ele><time>2022-09-08T23:49:32Z</time></trkpt><trkpt lat="33.8114391" lon="133.2613146"><ele>1745.993333333333</ele><time>2022-09-08T23:49:58Z</time></trkpt><trkpt lat="33.8115978" lon="133.2614218"><ele>1750.5833333333333</ele><time>2022-09-08T23:50:29Z</time></trkpt><trkpt lat="33.8116406" lon="133.2616343"><ele>1755.5833333333333</ele><time>2022-09-08T23:52:09Z</time></trkpt><trkpt lat="33.8116814" lon="133.2618506"><ele>1756.5566666666666</ele><time>2022-09-09T00:05:52Z</time></trkpt><trkpt lat="33.8116552" lon="133.2616339"><ele>1758.0533333333333</ele><time>2022-09-09T00:07:04Z</time></trkpt><trkpt lat="33.8118289" lon="133.2615484"><ele>1755.2633333333333</ele><time>2022-09-09T00:07:53Z</time></trkpt><trkpt lat="33.8120094" lon="133.2615515"><ele>1753.5733333333335</ele><time>2022-09-09T00:08:19Z</time></trkpt><trkpt lat="33.8121527" lon="133.261691"><ele>1747.45</ele><time>2022-09-09T00:09:42Z</time></trkpt><trkpt lat="33.8123148" lon="133.2617927"><ele>1739.4133333333332</ele><time>2022-09-09T00:10:13Z</time></trkpt><trkpt lat="33.8124514" lon="133.2619388"><ele>1728.256666666667</ele><time>2022-09-09T00:10:31Z</time></trkpt><trkpt lat="33.8126485" lon="133.2620038"><ele>1718.8433333333332</ele><time>2022-09-09T00:11:01Z</time></trkpt><trkpt lat="33.812819" lon="133.2620781"><ele>1713.46</ele><time>2022-09-09T00:11:16Z</time></trkpt><trkpt lat="33.8129676" lon="133.262217"><ele>1712.2933333333333</ele><time>2022-09-09T00:11:49Z</time></trkpt><trkpt lat="33.8131224" lon="133.2623311"><ele>1709.87</ele><time>2022-09-09T00:12:03Z</time></trkpt><trkpt lat="33.8133033" lon="133.2624077"><ele>1707.03</ele><time>2022-09-09T00:12:21Z</time></trkpt><trkpt lat="33.8134757" lon="133.2624715"><ele>1703.8100000000002</ele><time>2022-09-09T00:13:06Z</time></trkpt><trkpt lat="33.8135595" lon="133.2626633"><ele>1701.11</ele><time>2022-09-09T00:13:36Z</time></trkpt><trkpt lat="33.8137085" lon="133.2627858"><ele>1697.4166666666667</ele><time>2022-09-09T00:14:00Z</time></trkpt><trkpt lat="33.8138207" lon="133.2629561"><ele>1692.36</ele><time>2022-09-09T00:14:21Z</time></trkpt><trkpt lat="33.8139612" lon="133.2631114"><ele>1685.33</ele><time>2022-09-09T00:14:47Z</time></trkpt><trkpt lat="33.8141083" lon="133.2632408"><ele>1679.0833333333333</ele><time>2022-09-09T00:15:18Z</time></trkpt><trkpt lat="33.8142628" lon="133.2633575"><ele>1674.05</ele><time>2022-09-09T00:16:08Z</time></trkpt><trkpt lat="33.8144087" lon="133.2634968"><ele>1670.07</ele><time>2022-09-09T00:16:47Z</time></trkpt><trkpt lat="33.8145417" lon="133.2636505"><ele>1665.5400000000002</ele><time>2022-09-09T00:17:12Z</time></trkpt><trkpt lat="33.8147051" lon="133.2637532"><ele>1660.0533333333333</ele><time>2022-09-09T00:17:47Z</time></trkpt><trkpt lat="33.81483" lon="133.2639137"><ele>1655.38</ele><time>2022-09-09T00:18:15Z</time></trkpt><trkpt lat="33.814968" lon="133.2640635"><ele>1651.46</ele><time>2022-09-09T00:18:46Z</time></trkpt><trkpt lat="33.8150693" lon="133.2642454"><ele>1649.6200000000001</ele><time>2022-09-09T00:19:27Z</time></trkpt><trkpt lat="33.8152498" lon="133.2643101"><ele>1646.9166666666667</ele><time>2022-09-09T00:20:08Z</time></trkpt><trkpt lat="33.8154201" lon="133.2643841"><ele>1644.3833333333334</ele><time>2022-09-09T00:21:04Z</time></trkpt><trkpt lat="33.8155982" lon="133.2644206"><ele>1639.88</ele><time>2022-09-09T00:22:46Z</time></trkpt><trkpt lat="33.8157863" lon="133.2644729"><ele>1635.2900000000002</ele><time>2022-09-09T00:23:15Z</time></trkpt><trkpt lat="33.8159303" lon="133.2646193"><ele>1632.5</ele><time>2022-09-09T00:24:38Z</time></trkpt><trkpt lat="33.8160104" lon="133.2648196"><ele>1632.8166666666666</ele><time>2022-09-09T00:26:34Z</time></trkpt><trkpt lat="33.8161956" lon="133.2647914"><ele>1636.6366666666665</ele><time>2022-09-09T00:27:37Z</time></trkpt><trkpt lat="33.8162525" lon="133.2649977"><ele>1639.72</ele><time>2022-09-09T00:28:07Z</time></trkpt><trkpt lat="33.8164018" lon="133.2651212"><ele>1642.2166666666665</ele><time>2022-09-09T00:28:47Z</time></trkpt><trkpt lat="33.8165796" lon="133.2651859"><ele>1643.5866666666668</ele><time>2022-09-09T00:29:16Z</time></trkpt><trkpt lat="33.8167485" lon="133.2653122"><ele>1644.1633333333332</ele><time>2022-09-09T00:29:27Z</time></trkpt><trkpt lat="33.8169297" lon="133.2653241"><ele>1643.5933333333335</ele><time>2022-09-09T00:29:51Z</time></trkpt><trkpt lat="33.8171052" lon="133.2652686"><ele>1641.5733333333335</ele><time>2022-09-09T00:30:08Z</time></trkpt><trkpt lat="33.8172773" lon="133.2653425"><ele>1638.2700000000002</ele><time>2022-09-09T00:30:47Z</time></trkpt><trkpt lat="33.8173928" lon="133.2655218"><ele>1630.3933333333334</ele><time>2022-09-09T00:31:07Z</time></trkpt><trkpt lat="33.8175914" lon="133.2655522"><ele>1621.0166666666667</ele><time>2022-09-09T00:31:56Z</time></trkpt><trkpt lat="33.817763" lon="133.2656367"><ele>1614.05</ele><time>2022-09-09T00:32:06Z</time></trkpt><trkpt lat="33.8179417" lon="133.2656058"><ele>1616.4400000000003</ele><time>2022-09-09T00:32:30Z</time></trkpt><trkpt lat="33.8181247" lon="133.2656132"><ele>1622.53</ele><time>2022-09-09T00:33:34Z</time></trkpt><trkpt lat="33.8183043" lon="133.265593"><ele>1628.72</ele><time>2022-09-09T00:34:13Z</time></trkpt><trkpt lat="33.8184856" lon="133.2655971"><ele>1631.7733333333333</ele><time>2022-09-09T00:34:35Z</time></trkpt><trkpt lat="33.8186781" lon="133.2656476"><ele>1634.243333333333</ele><time>2022-09-09T00:34:54Z</time></trkpt><trkpt lat="33.818863" lon="133.2656942"><ele>1636.8133333333333</ele><time>2022-09-09T00:35:12Z</time></trkpt><trkpt lat="33.8190451" lon="133.265757"><ele>1636.53</ele><time>2022-09-09T00:35:27Z</time></trkpt><trkpt lat="33.819191" lon="133.2658963"><ele>1635.03</ele><time>2022-09-09T00:35:42Z</time></trkpt><trkpt lat="33.8193074" lon="133.2660651"><ele>1632.96</ele><time>2022-09-09T00:35:58Z</time></trkpt><trkpt lat="33.8194211" lon="133.2662411"><ele>1633.7133333333334</ele><time>2022-09-09T00:36:16Z</time></trkpt><trkpt lat="33.8195603" lon="133.2663802"><ele>1635.9533333333331</ele><time>2022-09-09T00:36:35Z</time></trkpt><trkpt lat="33.8196944" lon="133.2665279"><ele>1638.08</ele><time>2022-09-09T00:37:19Z</time></trkpt><trkpt lat="33.8197387" lon="133.2667541"><ele>1636.4733333333334</ele><time>2022-09-09T00:38:11Z</time></trkpt><trkpt lat="33.8198611" lon="133.2669219"><ele>1631.6266666666668</ele><time>2022-09-09T00:38:19Z</time></trkpt><trkpt lat="33.820014" lon="133.2670418"><ele>1627.7866666666669</ele><time>2022-09-09T00:38:42Z</time></trkpt><trkpt lat="33.8201495" lon="133.2671913"><ele>1626.3700000000001</ele><time>2022-09-09T00:39:15Z</time></trkpt><trkpt lat="33.8202993" lon="133.2673336"><ele>1627.9066666666668</ele><time>2022-09-09T00:39:55Z</time></trkpt><trkpt lat="33.820458" lon="133.2674399"><ele>1629.6866666666665</ele><time>2022-09-09T00:40:08Z</time></trkpt><trkpt lat="33.820599" lon="133.2675781"><ele>1633.5100000000002</ele><time>2022-09-09T00:40:41Z</time></trkpt><trkpt lat="33.820778" lon="133.2676191"><ele>1637.7033333333336</ele><time>2022-09-09T00:41:08Z</time></trkpt><trkpt lat="33.8209431" lon="133.2677327"><ele>1641.6666666666667</ele><time>2022-09-09T00:41:53Z</time></trkpt><trkpt lat="33.8210747" lon="133.2678831"><ele>1645.78</ele><time>2022-09-09T00:42:19Z</time></trkpt><trkpt lat="33.8211787" lon="133.2680727"><ele>1651.43</ele><time>2022-09-09T00:43:26Z</time></trkpt><trkpt lat="33.8213448" lon="133.2681711"><ele>1656.64</ele><time>2022-09-09T00:50:47Z</time></trkpt><trkpt lat="33.8215295" lon="133.26814"><ele>1660.7233333333334</ele><time>2022-09-09T00:51:00Z</time></trkpt><trkpt lat="33.8217029" lon="133.2680617"><ele>1662.993333333333</ele><time>2022-09-09T00:51:19Z</time></trkpt><trkpt lat="33.8218772" lon="133.268003"><ele>1666.4233333333334</ele><time>2022-09-09T00:51:43Z</time></trkpt><trkpt lat="33.8220575" lon="133.2679674"><ele>1669.5833333333333</ele><time>2022-09-09T00:52:37Z</time></trkpt><trkpt lat="33.822231" lon="133.2678967"><ele>1674.46</ele><time>2022-09-09T00:53:11Z</time></trkpt><trkpt lat="33.8224051" lon="133.2678341"><ele>1680.07</ele><time>2022-09-09T00:53:46Z</time></trkpt><trkpt lat="33.8225839" lon="133.2678706"><ele>1684.6566666666665</ele><time>2022-09-09T00:54:10Z</time></trkpt><trkpt lat="33.82249" lon="133.2676861"><ele>1690.08</ele><time>2022-09-09T00:55:04Z</time></trkpt><trkpt lat="33.8226605" lon="133.2676096"><ele>1696.8</ele><time>2022-09-09T00:56:35Z</time></trkpt><trkpt lat="33.8228642" lon="133.267577"><ele>1706.29</ele><time>2022-09-09T00:57:10Z</time></trkpt><trkpt lat="33.8230403" lon="133.2675166"><ele>1714.8433333333335</ele><time>2022-09-09T00:57:41Z</time></trkpt><trkpt lat="33.8232334" lon="133.2675217"><ele>1721.9066666666668</ele><time>2022-09-09T00:58:22Z</time></trkpt><trkpt lat="33.8234208" lon="133.2675315"><ele>1728.4166666666667</ele><time>2022-09-09T00:58:55Z</time></trkpt><trkpt lat="33.8235956" lon="133.2674406"><ele>1734.7666666666667</ele><time>2022-09-09T00:59:13Z</time></trkpt><trkpt lat="33.8237772" lon="133.2674706"><ele>1738.97</ele><time>2022-09-09T00:59:56Z</time></trkpt><trkpt lat="33.8239141" lon="133.2676156"><ele>1741.71</ele><time>2022-09-09T01:01:20Z</time></trkpt><trkpt lat="33.8240917" lon="133.2676934"><ele>1741.1299999999999</ele><time>2022-09-09T01:01:37Z</time></trkpt><trkpt lat="33.8241975" lon="133.2678754"><ele>1740.6200000000001</ele><time>2022-09-09T01:01:58Z</time></trkpt><trkpt lat="33.8242903" lon="133.2680726"><ele>1739.92</ele><time>2022-09-09T01:02:25Z</time></trkpt><trkpt lat="33.8244374" lon="133.2682023"><ele>1737.8433333333332</ele><time>2022-09-09T01:02:59Z</time></trkpt><trkpt lat="33.8245563" lon="133.2683719"><ele>1735.5566666666666</ele><time>2022-09-09T01:03:14Z</time></trkpt><trkpt lat="33.8246583" lon="133.2685557"><ele>1734.21</ele><time>2022-09-09T01:03:31Z</time></trkpt><trkpt lat="33.8247616" lon="133.2687402"><ele>1733.3400000000001</ele><time>2022-09-09T01:03:44Z</time></trkpt><trkpt lat="33.8249439" lon="133.2687522"><ele>1733.95</ele><time>2022-09-09T01:04:41Z</time></trkpt><trkpt lat="33.8250929" lon="133.2688755"><ele>1735.0933333333332</ele><time>2022-09-09T01:05:25Z</time></trkpt><trkpt lat="33.82523" lon="133.2690262"><ele>1738.9633333333334</ele><time>2022-09-09T01:05:44Z</time></trkpt><trkpt lat="33.825403" lon="133.2691072"><ele>1742.3866666666665</ele><time>2022-09-09T01:07:25Z</time></trkpt><trkpt lat="33.8255077" lon="133.2692893"><ele>1745.8833333333332</ele><time>2022-09-09T01:07:49Z</time></trkpt><trkpt lat="33.8256775" lon="133.2693862"><ele>1749.2300000000002</ele><time>2022-09-09T01:08:26Z</time></trkpt><trkpt lat="33.8258647" lon="133.2694269"><ele>1752.4466666666667</ele><time>2022-09-09T01:08:44Z</time></trkpt><trkpt lat="33.82599" lon="133.2695984"><ele>1755.36</ele><time>2022-09-09T01:09:14Z</time></trkpt><trkpt lat="33.8261486" lon="133.2697133"><ele>1758.3833333333332</ele><time>2022-09-09T01:09:34Z</time></trkpt><trkpt lat="33.8262973" lon="133.2698402"><ele>1761.256666666667</ele><time>2022-09-09T01:09:54Z</time></trkpt><trkpt lat="33.8263851" lon="133.27003"><ele>1764.4166666666667</ele><time>2022-09-09T01:10:16Z</time></trkpt><trkpt lat="33.8265172" lon="133.2701816"><ele>1768.28</ele><time>2022-09-09T01:10:57Z</time></trkpt><trkpt lat="33.8266736" lon="133.2703169"><ele>1772.2466666666667</ele><time>2022-09-09T01:11:19Z</time></trkpt><trkpt lat="33.8267817" lon="133.2704941"><ele>1776.71</ele><time>2022-09-09T01:11:52Z</time></trkpt><trkpt lat="33.8269141" lon="133.2706526"><ele>1781.1333333333334</ele><time>2022-09-09T01:12:32Z</time></trkpt><trkpt lat="33.8270488" lon="133.2708051"><ele>1786.53</ele><time>2022-09-09T01:12:55Z</time></trkpt><trkpt lat="33.8271686" lon="133.2709715"><ele>1790.5833333333333</ele><time>2022-09-09T01:13:35Z</time></trkpt><trkpt lat="33.8273004" lon="133.271126"><ele>1793.4366666666667</ele><time>2022-09-09T01:13:51Z</time></trkpt><trkpt lat="33.8273562" lon="133.2713351"><ele>1796.12</ele><time>2022-09-09T01:14:07Z</time></trkpt><trkpt lat="33.827531" lon="133.2714055"><ele>1797.8133333333335</ele><time>2022-09-09T01:14:21Z</time></trkpt><trkpt lat="33.8275768" lon="133.2716176"><ele>1800.073333333333</ele><time>2022-09-09T01:14:54Z</time></trkpt><trkpt lat="33.8276833" lon="133.2717947"><ele>1801.3500000000001</ele><time>2022-09-09T01:15:15Z</time></trkpt><trkpt lat="33.8277544" lon="133.2719943"><ele>1804.3233333333335</ele><time>2022-09-09T01:15:36Z</time></trkpt><trkpt lat="33.8278678" lon="133.272168"><ele>1806.21</ele><time>2022-09-09T01:16:08Z</time></trkpt><trkpt lat="33.8279455" lon="133.2723639"><ele>1808.41</ele><time>2022-09-09T01:16:34Z</time></trkpt><trkpt lat="33.8280915" lon="133.2725018"><ele>1809.8633333333335</ele><time>2022-09-09T01:17:01Z</time></trkpt><trkpt lat="33.8281121" lon="133.2727252"><ele>1813.3466666666666</ele><time>2022-09-09T01:22:25Z</time></trkpt><trkpt lat="33.8281398" lon="133.2729514"><ele>1818.6299999999999</ele><time>2022-09-09T01:22:39Z</time></trkpt><trkpt lat="33.8282535" lon="133.2731192"><ele>1823.9000000000003</ele><time>2022-09-09T01:22:59Z</time></trkpt><trkpt lat="33.8283797" lon="133.2732756"><ele>1827.47</ele><time>2022-09-09T01:23:19Z</time></trkpt><trkpt lat="33.8283968" lon="133.2734995"><ele>1829.91</ele><time>2022-09-09T01:24:00Z</time></trkpt><trkpt lat="33.828318" lon="133.2736966"><ele>1834.6366666666665</ele><time>2022-09-09T01:24:26Z</time></trkpt><trkpt lat="33.8281754" lon="133.2738329"><ele>1840.4733333333334</ele><time>2022-09-09T01:25:13Z</time></trkpt><trkpt lat="33.8281035" lon="133.2740401"><ele>1846.4899999999998</ele><time>2022-09-09T01:25:31Z</time></trkpt><trkpt lat="33.8279713" lon="133.2741906"><ele>1850.1299999999999</ele><time>2022-09-09T01:26:02Z</time></trkpt><trkpt lat="33.8280912" lon="133.2743613"><ele>1853.1266666666668</ele><time>2022-09-09T01:26:26Z</time></trkpt><trkpt lat="33.8281425" lon="133.2745687"><ele>1855.2933333333333</ele><time>2022-09-09T01:27:12Z</time></trkpt><trkpt lat="33.8282719" lon="133.274721"><ele>1856.2533333333333</ele><time>2022-09-09T01:37:36Z</time></trkpt><trkpt lat="33.8284465" lon="133.2747932"><ele>1855.9166666666667</ele><time>2022-09-09T01:37:57Z</time></trkpt><trkpt lat="33.8286244" lon="133.274833"><ele>1854.04</ele><time>2022-09-09T01:38:17Z</time></trkpt><trkpt lat="33.8287525" lon="133.2749877"><ele>1851.8966666666668</ele><time>2022-09-09T01:38:31Z</time></trkpt><trkpt lat="33.8289091" lon="133.2750973"><ele>1848.9166666666667</ele><time>2022-09-09T01:38:53Z</time></trkpt><trkpt lat="33.8290519" lon="133.2752407"><ele>1844.8700000000001</ele><time>2022-09-09T01:40:09Z</time></trkpt><trkpt lat="33.829141" lon="133.275438"><ele>1840.0566666666666</ele><time>2022-09-09T01:40:15Z</time></trkpt><trkpt lat="33.8292554" lon="133.2756101"><ele>1834.8733333333332</ele><time>2022-09-09T01:40:29Z</time></trkpt><trkpt lat="33.8293978" lon="133.2757461"><ele>1830.6599999999999</ele><time>2022-09-09T01:40:52Z</time></trkpt><trkpt lat="33.8295159" lon="133.2759213"><ele>1827.22</ele><time>2022-09-09T01:41:11Z</time></trkpt><trkpt lat="33.8296595" lon="133.276053"><ele>1825.67</ele><time>2022-09-09T01:41:31Z</time></trkpt><trkpt lat="33.8297987" lon="133.2761919"><ele>1824.3500000000001</ele><time>2022-09-09T01:41:49Z</time></trkpt><trkpt lat="33.8299746" lon="133.2762969"><ele>1823.8</ele><time>2022-09-09T01:42:08Z</time></trkpt><trkpt lat="33.8300822" lon="133.2764777"><ele>1822.67</ele><time>2022-09-09T01:42:30Z</time></trkpt><trkpt lat="33.8301728" lon="133.2766667"><ele>1821.62</ele><time>2022-09-09T01:42:48Z</time></trkpt><trkpt lat="33.8303218" lon="133.2767943"><ele>1819.74</ele><time>2022-09-09T01:43:02Z</time></trkpt><trkpt lat="33.8304631" lon="133.2769291"><ele>1817.7766666666666</ele><time>2022-09-09T01:43:18Z</time></trkpt><trkpt lat="33.8306132" lon="133.2770697"><ele>1815.4566666666667</ele><time>2022-09-09T01:43:43Z</time></trkpt><trkpt lat="33.8307995" lon="133.2771402"><ele>1813.68</ele><time>2022-09-09T01:43:58Z</time></trkpt><trkpt lat="33.8308868" lon="133.2773333"><ele>1811.7</ele><time>2022-09-09T01:44:10Z</time></trkpt><trkpt lat="33.8309957" lon="133.2775104"><ele>1809.3866666666665</ele><time>2022-09-09T01:44:26Z</time></trkpt><trkpt lat="33.8310828" lon="133.2777064"><ele>1806.6533333333334</ele><time>2022-09-09T01:44:41Z</time></trkpt><trkpt lat="33.8308971" lon="133.2777154"><ele>1804.2900000000002</ele><time>2022-09-09T01:45:11Z</time></trkpt><trkpt lat="33.8307087" lon="133.277706"><ele>1801.1333333333334</ele><time>2022-09-09T01:46:01Z</time></trkpt><trkpt lat="33.8305348" lon="133.2777755"><ele>1796.2666666666667</ele><time>2022-09-09T01:46:12Z</time></trkpt><trkpt lat="33.8303548" lon="133.2777943"><ele>1790.3066666666666</ele><time>2022-09-09T01:46:24Z</time></trkpt><trkpt lat="33.8301825" lon="133.2777282"><ele>1785.4833333333333</ele><time>2022-09-09T01:46:39Z</time></trkpt><trkpt lat="33.8302131" lon="133.2779504"><ele>1781.9433333333334</ele><time>2022-09-09T01:47:01Z</time></trkpt><trkpt lat="33.8303842" lon="133.2780194"><ele>1779.4399999999998</ele><time>2022-09-09T01:47:16Z</time></trkpt><trkpt lat="33.8305087" lon="133.2781903"><ele>1776.5</ele><time>2022-09-09T01:47:30Z</time></trkpt><trkpt lat="33.8305152" lon="133.2784102"><ele>1772.743333333333</ele><time>2022-09-09T01:47:56Z</time></trkpt><trkpt lat="33.8306206" lon="133.2785922"><ele>1769.4633333333334</ele><time>2022-09-09T01:48:15Z</time></trkpt><trkpt lat="33.8307671" lon="133.2787242"><ele>1765.956666666667</ele><time>2022-09-09T01:48:44Z</time></trkpt><trkpt lat="33.8308859" lon="133.2788924"><ele>1762.8333333333333</ele><time>2022-09-09T01:49:09Z</time></trkpt><trkpt lat="33.830944" lon="133.2790994"><ele>1757.6966666666667</ele><time>2022-09-09T01:50:34Z</time></trkpt><trkpt lat="33.8310829" lon="133.2792413"><ele>1753.5900000000001</ele><time>2022-09-09T01:50:55Z</time></trkpt><trkpt lat="33.831184" lon="133.2794293"><ele>1751.4133333333332</ele><time>2022-09-09T01:51:07Z</time></trkpt><trkpt lat="33.8312544" lon="133.2796343"><ele>1752.3633333333335</ele><time>2022-09-09T01:51:34Z</time></trkpt><trkpt lat="33.8312885" lon="133.2798518"><ele>1754.6533333333334</ele><time>2022-09-09T01:51:47Z</time></trkpt><trkpt lat="33.8312445" lon="133.2800636"><ele>1757.8500000000001</ele><time>2022-09-09T01:52:08Z</time></trkpt><trkpt lat="33.8313006" lon="133.2802691"><ele>1760.6266666666668</ele><time>2022-09-09T01:52:36Z</time></trkpt><trkpt lat="33.8314693" lon="133.2803552"><ele>1764.0600000000002</ele><time>2022-09-09T01:53:19Z</time></trkpt><trkpt lat="33.8316099" lon="133.280491"><ele>1768.5566666666666</ele><time>2022-09-09T01:54:36Z</time></trkpt><trkpt lat="33.8316392" lon="133.2807055"><ele>1774.2833333333335</ele><time>2022-09-09T01:55:03Z</time></trkpt><trkpt lat="33.8316911" lon="133.2809172"><ele>1780.1666666666667</ele><time>2022-09-09T01:55:53Z</time></trkpt><trkpt lat="33.8316656" lon="133.2811367"><ele>1785.2833333333335</ele><time>2022-09-09T01:56:09Z</time></trkpt><trkpt lat="33.8317186" lon="133.2813442"><ele>1792.1666666666667</ele><time>2022-09-09T01:56:46Z</time></trkpt><trkpt lat="33.8317345" lon="133.2815686"><ele>1798.8966666666668</ele><time>2022-09-09T01:59:32Z</time></trkpt><trkpt lat="33.831749" lon="133.281784"><ele>1806.7</ele><time>2022-09-09T02:00:48Z</time></trkpt><trkpt lat="33.8318254" lon="133.2819833"><ele>1813.8333333333333</ele><time>2022-09-09T02:01:34Z</time></trkpt><trkpt lat="33.8318115" lon="133.2821989"><ele>1821.4799999999998</ele><time>2022-09-09T02:02:00Z</time></trkpt><trkpt lat="33.8319531" lon="133.2823334"><ele>1828.8066666666666</ele><time>2022-09-09T02:02:31Z</time></trkpt><trkpt lat="33.8319576" lon="133.2825503"><ele>1834.96</ele><time>2022-09-09T02:03:24Z</time></trkpt><trkpt lat="33.8320106" lon="133.2827601"><ele>1839.0833333333333</ele><time>2022-09-09T02:03:51Z</time></trkpt><trkpt lat="33.8319881" lon="133.2829812"><ele>1841.9733333333334</ele><time>2022-09-09T02:04:09Z</time></trkpt><trkpt lat="33.8319311" lon="133.283195"><ele>1843.1666666666667</ele><time>2022-09-09T02:04:24Z</time></trkpt><trkpt lat="33.8319636" lon="133.2834248"><ele>1844.9000000000003</ele><time>2022-09-09T02:04:56Z</time></trkpt><trkpt lat="33.8319019" lon="133.2836318"><ele>1845.8700000000001</ele><time>2022-09-09T02:05:14Z</time></trkpt><trkpt lat="33.8318079" lon="133.2838183"><ele>1848.0100000000002</ele><time>2022-09-09T02:05:34Z</time></trkpt><trkpt lat="33.8318145" lon="133.2840367"><ele>1850.0633333333335</ele><time>2022-09-09T02:06:10Z</time></trkpt><trkpt lat="33.8318331" lon="133.2842597"><ele>1851.3666666666668</ele><time>2022-09-09T02:06:35Z</time></trkpt><trkpt lat="33.8318447" lon="133.2844791"><ele>1847.5333333333335</ele><time>2022-09-09T02:21:21Z</time></trkpt><trkpt lat="33.8318331" lon="133.2842619"><ele>1846.8</ele><time>2022-09-09T02:33:01Z</time></trkpt><trkpt lat="33.831806" lon="133.2840467"><ele>1847.5333333333335</ele><time>2022-09-09T02:33:24Z</time></trkpt><trkpt lat="33.8318326" lon="133.2838273"><ele>1851.3666666666668</ele><time>2022-09-09T02:33:43Z</time></trkpt><trkpt lat="33.8318635" lon="133.2836121"><ele>1850.0633333333335</ele><time>2022-09-09T02:34:00Z</time></trkpt><trkpt lat="33.8319494" lon="133.2834082"><ele>1848.0100000000002</ele><time>2022-09-09T02:34:22Z</time></trkpt><trkpt lat="33.8319285" lon="133.2831899"><ele>1845.8700000000001</ele><time>2022-09-09T02:34:43Z</time></trkpt><trkpt lat="33.831976" lon="133.2829749"><ele>1844.8999999999999</ele><time>2022-09-09T02:35:12Z</time></trkpt><trkpt lat="33.8320362" lon="133.2827682"><ele>1843.1666666666667</ele><time>2022-09-09T02:35:30Z</time></trkpt><trkpt lat="33.8320052" lon="133.282549"><ele>1841.886666666667</ele><time>2022-09-09T02:35:47Z</time></trkpt><trkpt lat="33.8319453" lon="133.2823423"><ele>1838.9966666666667</ele><time>2022-09-09T02:36:05Z</time></trkpt><trkpt lat="33.8317906" lon="133.2822306"><ele>1834.8733333333332</ele><time>2022-09-09T02:36:50Z</time></trkpt><trkpt lat="33.8318175" lon="133.2820147"><ele>1829.3733333333332</ele><time>2022-09-09T02:37:19Z</time></trkpt><trkpt lat="33.8317384" lon="133.2818156"><ele>1822.0466666666669</ele><time>2022-09-09T02:38:04Z</time></trkpt><trkpt lat="33.8317774" lon="133.2815997"><ele>1815.3533333333335</ele><time>2022-09-09T02:39:27Z</time></trkpt><trkpt lat="33.8317354" lon="133.2813826"><ele>1807.6533333333334</ele><time>2022-09-09T02:40:32Z</time></trkpt><trkpt lat="33.8316717" lon="133.2811786"><ele>1800.6066666666666</ele><time>2022-09-09T02:40:48Z</time></trkpt><trkpt lat="33.8316485" lon="133.2809631"><ele>1792.9233333333334</ele><time>2022-09-09T02:41:04Z</time></trkpt><trkpt lat="33.8317695" lon="133.2807743"><ele>1786.3400000000001</ele><time>2022-09-09T02:41:21Z</time></trkpt><trkpt lat="33.8316953" lon="133.2805586"><ele>1781.426666666667</ele><time>2022-09-09T02:41:41Z</time></trkpt><trkpt lat="33.8316012" lon="133.2803729"><ele>1774.89</ele><time>2022-09-09T02:42:07Z</time></trkpt><trkpt lat="33.8314177" lon="133.2803745"><ele>1769.82</ele><time>2022-09-09T02:43:39Z</time></trkpt><trkpt lat="33.8312362" lon="133.2803592"><ele>1763.7166666666665</ele><time>2022-09-09T02:44:06Z</time></trkpt><trkpt lat="33.8312174" lon="133.2801342"><ele>1761.6533333333334</ele><time>2022-09-09T02:44:21Z</time></trkpt><trkpt lat="33.8312688" lon="133.2799251"><ele>1759.8733333333332</ele><time>2022-09-09T02:44:37Z</time></trkpt><trkpt lat="33.8313727" lon="133.2797387"><ele>1757.2733333333333</ele><time>2022-09-09T02:44:56Z</time></trkpt><trkpt lat="33.8313067" lon="133.2795343"><ele>1753.956666666667</ele><time>2022-09-09T02:45:10Z</time></trkpt><trkpt lat="33.8312129" lon="133.279344"><ele>1750.0600000000002</ele><time>2022-09-09T02:45:27Z</time></trkpt><trkpt lat="33.8310491" lon="133.2792235"><ele>1750.1833333333334</ele><time>2022-09-09T02:45:45Z</time></trkpt><trkpt lat="33.8309352" lon="133.2790522"><ele>1751.18</ele><time>2022-09-09T02:46:04Z</time></trkpt><trkpt lat="33.8307858" lon="133.2789278"><ele>1754.3566666666666</ele><time>2022-09-09T02:46:30Z</time></trkpt><trkpt lat="33.8306701" lon="133.2787526"><ele>1758.8633333333335</ele><time>2022-09-09T02:47:08Z</time></trkpt><trkpt lat="33.8306086" lon="133.2785406"><ele>1763.34</ele><time>2022-09-09T02:47:33Z</time></trkpt><trkpt lat="33.8304579" lon="133.2784153"><ele>1766.3100000000002</ele><time>2022-09-09T02:47:57Z</time></trkpt><trkpt lat="33.8303472" lon="133.2782434"><ele>1768.17</ele><time>2022-09-09T02:48:32Z</time></trkpt><trkpt lat="33.8303077" lon="133.2780319"><ele>1771.28</ele><time>2022-09-09T02:49:14Z</time></trkpt><trkpt lat="33.8302225" lon="133.2778375"><ele>1775.8266666666668</ele><time>2022-09-09T02:49:58Z</time></trkpt><trkpt lat="33.8303304" lon="133.277661"><ele>1781.4033333333334</ele><time>2022-09-09T02:52:29Z</time></trkpt><trkpt lat="33.8304963" lon="133.2777624"><ele>1785.236666666667</ele><time>2022-09-09T02:52:49Z</time></trkpt><trkpt lat="33.8306794" lon="133.2777304"><ele>1789.4466666666667</ele><time>2022-09-09T02:54:15Z</time></trkpt><trkpt lat="33.8308336" lon="133.2776083"><ele>1794.95</ele><time>2022-09-09T02:55:07Z</time></trkpt><trkpt lat="33.8309816" lon="133.2774846"><ele>1801.3766666666668</ele><time>2022-09-09T02:55:26Z</time></trkpt><trkpt lat="33.8309152" lon="133.2772825"><ele>1806.9799999999998</ele><time>2022-09-09T02:55:43Z</time></trkpt><trkpt lat="33.8307557" lon="133.2771748"><ele>1809.88</ele><time>2022-09-09T02:56:02Z</time></trkpt><trkpt lat="33.8305884" lon="133.2770846"><ele>1812.1933333333334</ele><time>2022-09-09T02:56:24Z</time></trkpt><trkpt lat="33.83045" lon="133.2769445"><ele>1813.9033333333334</ele><time>2022-09-09T02:56:41Z</time></trkpt><trkpt lat="33.8304732" lon="133.2767233"><ele>1815.2833333333335</ele><time>2022-09-09T02:56:52Z</time></trkpt><trkpt lat="33.8302942" lon="133.2766898"><ele>1817.28</ele><time>2022-09-09T02:57:12Z</time></trkpt><trkpt lat="33.8302073" lon="133.2764962"><ele>1819.0733333333335</ele><time>2022-09-09T02:57:28Z</time></trkpt><trkpt lat="33.8300343" lon="133.2764195"><ele>1820.9133333333332</ele><time>2022-09-09T02:57:50Z</time></trkpt><trkpt lat="33.8298776" lon="133.2762896"><ele>1822.0633333333335</ele><time>2022-09-09T02:58:06Z</time></trkpt><trkpt lat="33.8297457" lon="133.2761177"><ele>1823.1533333333334</ele><time>2022-09-09T02:58:20Z</time></trkpt><trkpt lat="33.8295866" lon="133.2759958"><ele>1824.2733333333333</ele><time>2022-09-09T02:58:39Z</time></trkpt><trkpt lat="33.8294789" lon="133.2758061"><ele>1825.4433333333334</ele><time>2022-09-09T02:59:04Z</time></trkpt><trkpt lat="33.8293158" lon="133.2756993"><ele>1826.5133333333333</ele><time>2022-09-09T02:59:35Z</time></trkpt><trkpt lat="33.8292025" lon="133.2755225"><ele>1828.8033333333333</ele><time>2022-09-09T03:00:06Z</time></trkpt><trkpt lat="33.8290777" lon="133.2753605"><ele>1832.3266666666668</ele><time>2022-09-09T03:00:44Z</time></trkpt><trkpt lat="33.8289988" lon="133.2751636"><ele>1837.5</ele><time>2022-09-09T03:01:06Z</time></trkpt><trkpt lat="33.828844" lon="133.2750427"><ele>1842.7300000000002</ele><time>2022-09-09T03:01:45Z</time></trkpt><trkpt lat="33.8286686" lon="133.2749752"><ele>1847.0366666666669</ele><time>2022-09-09T03:02:01Z</time></trkpt><trkpt lat="33.8285509" lon="133.2748097"><ele>1850.4066666666665</ele><time>2022-09-09T03:02:18Z</time></trkpt><trkpt lat="33.8283858" lon="133.2747191"><ele>1852.6833333333334</ele><time>2022-09-09T03:02:35Z</time></trkpt><trkpt lat="33.8282019" lon="133.2747486"><ele>1854.5566666666666</ele><time>2022-09-09T03:03:00Z</time></trkpt><trkpt lat="33.8280681" lon="133.2746003"><ele>1855.9533333333336</ele><time>2022-09-09T03:04:03Z</time></trkpt><trkpt lat="33.827902" lon="133.2746927"><ele>1855.7133333333334</ele><time>2022-09-09T03:06:08Z</time></trkpt><trkpt lat="33.8278251" lon="133.2748931"><ele>1854.2466666666667</ele><time>2022-09-09T03:06:24Z</time></trkpt><trkpt lat="33.8277992" lon="133.2751075"><ele>1850.4833333333333</ele><time>2022-09-09T03:06:44Z</time></trkpt><trkpt lat="33.8277247" lon="133.2753143"><ele>1845.1733333333334</ele><time>2022-09-09T03:07:08Z</time></trkpt><trkpt lat="33.8275454" lon="133.2753695"><ele>1839.1499999999999</ele><time>2022-09-09T03:07:36Z</time></trkpt><trkpt lat="33.8273698" lon="133.2754328"><ele>1833.25</ele><time>2022-09-09T03:07:54Z</time></trkpt><trkpt lat="33.8271917" lon="133.2753699"><ele>1828.5333333333335</ele><time>2022-09-09T03:08:30Z</time></trkpt><trkpt lat="33.8270286" lon="133.2752689"><ele>1823.5233333333335</ele><time>2022-09-09T03:09:13Z</time></trkpt><trkpt lat="33.8268562" lon="133.2753433"><ele>1814.7866666666669</ele><time>2022-09-09T03:10:25Z</time></trkpt><trkpt lat="33.8266773" lon="133.2753737"><ele>1804.7300000000002</ele><time>2022-09-09T03:11:44Z</time></trkpt><trkpt lat="33.8264952" lon="133.2754374"><ele>1791.1333333333334</ele><time>2022-09-09T03:12:07Z</time></trkpt><trkpt lat="33.8263451" lon="133.275574"><ele>1779.7</ele><time>2022-09-09T03:12:33Z</time></trkpt><trkpt lat="33.8261648" lon="133.2755465"><ele>1768.4700000000003</ele><time>2022-09-09T03:13:20Z</time></trkpt><trkpt lat="33.8259846" lon="133.275583"><ele>1758.6533333333336</ele><time>2022-09-09T03:14:15Z</time></trkpt><trkpt lat="33.8258117" lon="133.2756593"><ele>1748.7933333333333</ele><time>2022-09-09T03:14:32Z</time></trkpt><trkpt lat="33.8256302" lon="133.2756977"><ele>1737.64</ele><time>2022-09-09T03:14:47Z</time></trkpt><trkpt lat="33.8255026" lon="133.2758604"><ele>1727.1066666666666</ele><time>2022-09-09T03:15:09Z</time></trkpt><trkpt lat="33.8253442" lon="133.2757535"><ele>1719.1333333333332</ele><time>2022-09-09T03:15:27Z</time></trkpt><trkpt lat="33.8251666" lon="133.2757134"><ele>1713.9300000000003</ele><time>2022-09-09T03:15:56Z</time></trkpt><trkpt lat="33.8249793" lon="133.2757257"><ele>1709.1866666666667</ele><time>2022-09-09T03:16:59Z</time></trkpt><trkpt lat="33.8248048" lon="133.2757861"><ele>1701.0433333333333</ele><time>2022-09-09T03:17:13Z</time></trkpt><trkpt lat="33.8246517" lon="133.2759118"><ele>1690.5466666666669</ele><time>2022-09-09T03:17:41Z</time></trkpt><trkpt lat="33.8244967" lon="133.2760384"><ele>1678.426666666667</ele><time>2022-09-09T03:18:19Z</time></trkpt><trkpt lat="33.8243272" lon="133.2761274"><ele>1668.1633333333332</ele><time>2022-09-09T03:18:37Z</time></trkpt><trkpt lat="33.8241662" lon="133.2762526"><ele>1659.3999999999999</ele><time>2022-09-09T03:19:01Z</time></trkpt><trkpt lat="33.824007" lon="133.2763616"><ele>1651.8033333333333</ele><time>2022-09-09T03:19:17Z</time></trkpt><trkpt lat="33.8238385" lon="133.2764571"><ele>1643.7666666666667</ele><time>2022-09-09T03:19:35Z</time></trkpt><trkpt lat="33.8236658" lon="133.2765418"><ele>1635.3066666666666</ele><time>2022-09-09T03:19:53Z</time></trkpt><trkpt lat="33.8234893" lon="133.2766129"><ele>1627.8100000000002</ele><time>2022-09-09T03:20:11Z</time></trkpt><trkpt lat="33.8233285" lon="133.2767222"><ele>1621.0900000000001</ele><time>2022-09-09T03:20:30Z</time></trkpt><trkpt lat="33.8231603" lon="133.2768216"><ele>1614.8366666666668</ele><time>2022-09-09T03:20:53Z</time></trkpt><trkpt lat="33.8229924" lon="133.2769101"><ele>1608.3366666666668</ele><time>2022-09-09T03:21:20Z</time></trkpt><trkpt lat="33.8228216" lon="133.277002"><ele>1601.1833333333334</ele><time>2022-09-09T03:21:42Z</time></trkpt><trkpt lat="33.8226407" lon="133.2769931"><ele>1592.7933333333333</ele><time>2022-09-09T03:22:18Z</time></trkpt><trkpt lat="33.8225162" lon="133.2768262"><ele>1587.5833333333333</ele><time>2022-09-09T03:22:36Z</time></trkpt><trkpt lat="33.8223349" lon="133.2767956"><ele>1581.7633333333333</ele><time>2022-09-09T03:27:22Z</time></trkpt><trkpt lat="33.822168" lon="133.2769"><ele>1575.2733333333333</ele><time>2022-09-09T03:28:05Z</time></trkpt><trkpt lat="33.8220029" lon="133.2768112"><ele>1565.626666666667</ele><time>2022-09-09T03:29:59Z</time></trkpt><trkpt lat="33.8219204" lon="133.2770156"><ele>1556.47</ele><time>2022-09-09T03:30:11Z</time></trkpt><trkpt lat="33.8218087" lon="133.277188"><ele>1547.29</ele><time>2022-09-09T03:30:26Z</time></trkpt><trkpt lat="33.821643" lon="133.2771005"><ele>1539.3400000000001</ele><time>2022-09-09T03:31:07Z</time></trkpt><trkpt lat="33.8214621" lon="133.2770762"><ele>1532.0433333333333</ele><time>2022-09-09T03:32:13Z</time></trkpt><trkpt lat="33.8212787" lon="133.2771098"><ele>1525.7733333333333</ele><time>2022-09-09T03:32:29Z</time></trkpt><trkpt lat="33.821134" lon="133.2772418"><ele>1518.5166666666667</ele><time>2022-09-09T03:36:11Z</time></trkpt><trkpt lat="33.8209633" lon="133.2773123"><ele>1510.4800000000002</ele><time>2022-09-09T03:36:30Z</time></trkpt><trkpt lat="33.82078" lon="133.2773299"><ele>1502.1266666666668</ele><time>2022-09-09T03:37:03Z</time></trkpt><trkpt lat="33.8205995" lon="133.2772786"><ele>1494.6233333333337</ele><time>2022-09-09T03:37:15Z</time></trkpt><trkpt lat="33.8204188" lon="133.2772357"><ele>1486.4099999999999</ele><time>2022-09-09T03:37:25Z</time></trkpt><trkpt lat="33.8202374" lon="133.277225"><ele>1478.6333333333334</ele><time>2022-09-09T03:37:49Z</time></trkpt><trkpt lat="33.8201002" lon="133.2770789"><ele>1469.8666666666668</ele><time>2022-09-09T03:38:20Z</time></trkpt><trkpt lat="33.8199516" lon="133.2769546"><ele>1462.1733333333334</ele><time>2022-09-09T03:38:39Z</time></trkpt><trkpt lat="33.8197659" lon="133.2769396"><ele>1453.9366666666667</ele><time>2022-09-09T03:39:53Z</time></trkpt><trkpt lat="33.8195833" lon="133.2769241"><ele>1445.25</ele><time>2022-09-09T03:40:18Z</time></trkpt><trkpt lat="33.8194014" lon="133.2769534"><ele>1436.8333333333333</ele><time>2022-09-09T03:40:54Z</time></trkpt><trkpt lat="33.81922" lon="133.2769174"><ele>1429.2833333333335</ele><time>2022-09-09T03:41:19Z</time></trkpt><trkpt lat="33.8190578" lon="133.2770291"><ele>1422.7666666666667</ele><time>2022-09-09T03:42:00Z</time></trkpt><trkpt lat="33.8188868" lon="133.2771182"><ele>1416.243333333333</ele><time>2022-09-09T03:43:56Z</time></trkpt><trkpt lat="33.8187315" lon="133.2772385"><ele>1409.1433333333334</ele><time>2022-09-09T03:44:10Z</time></trkpt><trkpt lat="33.8185505" lon="133.2772643"><ele>1403.1433333333334</ele><time>2022-09-09T03:44:33Z</time></trkpt><trkpt lat="33.8183817" lon="133.277351"><ele>1397.3933333333334</ele><time>2022-09-09T03:44:49Z</time></trkpt><trkpt lat="33.8182133" lon="133.2774339"><ele>1392.5999999999997</ele><time>2022-09-09T03:45:13Z</time></trkpt><trkpt lat="33.8180669" lon="133.2775625"><ele>1386.2333333333333</ele><time>2022-09-09T03:45:28Z</time></trkpt><trkpt lat="33.8179103" lon="133.2776873"><ele>1378.3100000000002</ele><time>2022-09-09T03:45:42Z</time></trkpt><trkpt lat="33.8177838" lon="133.2778419"><ele>1368.9633333333331</ele><time>2022-09-09T03:47:55Z</time></trkpt><trkpt lat="33.817606" lon="133.2779253"><ele>1360.3866666666665</ele><time>2022-09-09T03:48:52Z</time></trkpt><trkpt lat="33.8174296" lon="133.2779753"><ele>1352.9733333333334</ele><time>2022-09-09T03:50:37Z</time></trkpt><trkpt lat="33.8172514" lon="133.2780175"><ele>1345.6533333333334</ele><time>2022-09-09T03:50:53Z</time></trkpt><trkpt lat="33.8171775" lon="133.2782154"><ele>1337.3300000000002</ele><time>2022-09-09T03:51:47Z</time></trkpt><trkpt lat="33.81708" lon="133.2784144"><ele>1327.3466666666666</ele><time>2022-09-09T03:52:27Z</time></trkpt><trkpt lat="33.8169186" lon="133.2785269"><ele>1317.13</ele><time>2022-09-09T03:53:32Z</time></trkpt><trkpt lat="33.8167415" lon="133.2786017"><ele>1306.2933333333333</ele><time>2022-09-09T03:53:42Z</time></trkpt><trkpt lat="33.8165797" lon="133.2787355"><ele>1295.4333333333334</ele><time>2022-09-09T03:53:53Z</time></trkpt><trkpt lat="33.8164001" lon="133.2787136"><ele>1286.4400000000003</ele><time>2022-09-09T03:54:09Z</time></trkpt><trkpt lat="33.8162519" lon="133.2788464"><ele>1277.3133333333335</ele><time>2022-09-09T03:54:44Z</time></trkpt><trkpt lat="33.8160835" lon="133.278961"><ele>1268.28</ele><time>2022-09-09T03:56:12Z</time></trkpt><trkpt lat="33.8159442" lon="133.2791066"><ele>1257.4866666666667</ele><time>2022-09-09T03:57:02Z</time></trkpt><trkpt lat="33.8158281" lon="133.2792728"><ele>1245.39</ele><time>2022-09-09T03:57:21Z</time></trkpt><trkpt lat="33.8156748" lon="133.2793915"><ele>1233.7266666666667</ele><time>2022-09-09T03:57:41Z</time></trkpt><trkpt lat="33.815512" lon="133.2794928"><ele>1221.8633333333335</ele><time>2022-09-09T03:58:51Z</time></trkpt><trkpt lat="33.815329" lon="133.2795322"><ele>1211.2166666666667</ele><time>2022-09-09T03:59:04Z</time></trkpt><trkpt lat="33.8151487" lon="133.2795081"><ele>1202.86</ele><time>2022-09-09T03:59:17Z</time></trkpt><trkpt lat="33.8149779" lon="133.2794352"><ele>1198.4833333333333</ele><time>2022-09-09T03:59:32Z</time></trkpt><trkpt lat="33.8147943" lon="133.2794772"><ele>1194.6066666666668</ele><time>2022-09-09T04:00:01Z</time></trkpt><trkpt lat="33.8146188" lon="133.2795269"><ele>1190.1333333333332</ele><time>2022-09-09T04:00:29Z</time></trkpt><trkpt lat="33.8144912" lon="133.2796827"><ele>1184.3533333333332</ele><time>2022-09-09T04:01:16Z</time></trkpt><trkpt lat="33.8143453" lon="133.2798237"><ele>1179.4266666666665</ele><time>2022-09-09T04:01:30Z</time></trkpt><trkpt lat="33.8141729" lon="133.2799082"><ele>1175.0966666666666</ele><time>2022-09-09T04:01:44Z</time></trkpt><trkpt lat="33.8140069" lon="133.2800043"><ele>1171.0966666666666</ele><time>2022-09-09T04:02:14Z</time></trkpt><trkpt lat="33.8138297" lon="133.2800584"><ele>1166.4233333333334</ele><time>2022-09-09T04:03:14Z</time></trkpt><trkpt lat="33.8136441" lon="133.280039"><ele>1159.2233333333334</ele><time>2022-09-09T04:03:27Z</time></trkpt><trkpt lat="33.8134621" lon="133.280014"><ele>1152.13</ele><time>2022-09-09T04:03:49Z</time></trkpt><trkpt lat="33.8133945" lon="133.2798129"><ele>1147.0533333333333</ele><time>2022-09-09T04:04:51Z</time></trkpt><trkpt lat="33.8134162" lon="133.2795947"><ele>1142.7066666666667</ele><time>2022-09-09T04:05:13Z</time></trkpt><trkpt lat="33.8133381" lon="133.2793974"><ele>1136.28</ele><time>2022-09-09T04:05:43Z</time></trkpt><trkpt lat="33.8133515" lon="133.2791735"><ele>1128.4333333333334</ele><time>2022-09-09T04:06:07Z</time></trkpt><trkpt lat="33.8133237" lon="133.2789468"><ele>1122.7733333333333</ele><time>2022-09-09T04:06:21Z</time></trkpt><trkpt lat="33.8134087" lon="133.2787461"><ele>1120.0566666666666</ele><time>2022-09-09T04:09:18Z</time></trkpt><trkpt lat="33.8133148" lon="133.2785518"><ele>1116.99</ele><time>2022-09-09T04:09:32Z</time></trkpt><trkpt lat="33.8133759" lon="133.2783426"><ele>1114.2366666666667</ele><time>2022-09-09T04:10:06Z</time></trkpt><trkpt lat="33.8133391" lon="133.2781226"><ele>1110.2233333333334</ele><time>2022-09-09T04:10:18Z</time></trkpt><trkpt lat="33.8132834" lon="133.2779066"><ele>1107.19</ele><time>2022-09-09T04:10:30Z</time></trkpt><trkpt lat="33.8132678" lon="133.2776819"><ele>1104.2233333333334</ele><time>2022-09-09T04:10:46Z</time></trkpt><trkpt lat="33.8133599" lon="133.2774783"><ele>1102.7766666666669</ele><time>2022-09-09T04:11:00Z</time></trkpt><trkpt lat="33.813373" lon="133.2772603"><ele>1102.6866666666667</ele><time>2022-09-09T04:11:12Z</time></trkpt><trkpt lat="33.8133715" lon="133.2770368"><ele>1102.61</ele><time>2022-09-09T04:11:28Z</time></trkpt><trkpt lat="33.8134484" lon="133.27684"><ele>1102.4733333333334</ele><time>2022-09-09T04:11:48Z</time></trkpt><trkpt lat="33.8135" lon="133.2766227"><ele>1103.1633333333332</ele><time>2022-09-09T04:12:07Z</time></trkpt><trkpt lat="33.8134607" lon="133.2763999"><ele>1103.45</ele><time>2022-09-09T04:13:54Z</time></trkpt><trkpt lat="33.8135263" lon="133.2761846"><ele>1102.5666666666666</ele><time>2022-09-09T04:14:03Z</time></trkpt><trkpt lat="33.8136027" lon="133.2759668"><ele>1102.0600000000002</ele><time>2022-09-09T04:14:16Z</time></trkpt><trkpt lat="33.813665" lon="133.2757529"><ele>1101.4533333333331</ele><time>2022-09-09T04:14:28Z</time></trkpt><trkpt lat="33.8137705" lon="133.2755661"><ele>1101.6166666666666</ele><time>2022-09-09T04:14:44Z</time></trkpt><trkpt lat="33.8138308" lon="133.2753606"><ele>1100.5233333333333</ele><time>2022-09-09T04:15:00Z</time></trkpt><trkpt lat="33.813882" lon="133.275134"><ele>1097.73</ele><time>2022-09-09T04:15:13Z</time></trkpt><trkpt lat="33.8140305" lon="133.2750022"><ele>1096.6766666666667</ele><time>2022-09-09T04:15:30Z</time></trkpt><trkpt lat="33.8142121" lon="133.2749578"><ele>1096.43</ele><time>2022-09-09T04:15:44Z</time></trkpt><trkpt lat="33.8143282" lon="133.2747918"><ele>1098.2366666666667</ele><time>2022-09-09T04:15:59Z</time></trkpt><trkpt lat="33.8144435" lon="133.274617"><ele>1096.79</ele><time>2022-09-09T04:16:16Z</time></trkpt><trkpt lat="33.8145398" lon="133.2744294"><ele>1095.9233333333334</ele><time>2022-09-09T04:16:28Z</time></trkpt><trkpt lat="33.8146852" lon="133.2742964"><ele>1097.9399999999998</ele><time>2022-09-09T04:16:43Z</time></trkpt><trkpt lat="33.8146763" lon="133.2740659"><ele>1101.0066666666664</ele><time>2022-09-09T04:17:14Z</time></trkpt><trkpt lat="33.8146642" lon="133.2738368"><ele>1099.0433333333333</ele><time>2022-09-09T04:17:25Z</time></trkpt><trkpt lat="33.8147099" lon="133.2736242"><ele>1095.3033333333333</ele><time>2022-09-09T04:17:40Z</time></trkpt><trkpt lat="33.8148479" lon="133.2734726"><ele>1094.1533333333334</ele><time>2022-09-09T04:18:00Z</time></trkpt><trkpt lat="33.8149215" lon="133.2732711"><ele>1097.6233333333332</ele><time>2022-09-09T04:18:16Z</time></trkpt><trkpt lat="33.8149332" lon="133.2730531"><ele>1099.8566666666666</ele><time>2022-09-09T04:18:28Z</time></trkpt><trkpt lat="33.814987" lon="133.2728454"><ele>1100.7833333333333</ele><time>2022-09-09T04:18:45Z</time></trkpt><trkpt lat="33.8150063" lon="133.272628"><ele>1101.1466666666668</ele><time>2022-09-09T04:19:04Z</time></trkpt><trkpt lat="33.8148535" lon="133.2725086"><ele>1101.6933333333334</ele><time>2022-09-09T04:19:59Z</time></trkpt><trkpt lat="33.8146737" lon="133.2725386"><ele>1102.0933333333335</ele><time>2022-09-09T04:20:12Z</time></trkpt><trkpt lat="33.8145706" lon="133.2727168"><ele>1102.5866666666666</ele><time>2022-09-09T04:21:01Z</time></trkpt><trkpt lat="33.8144994" lon="133.2729198"><ele>1103.0766666666666</ele><time>2022-09-09T04:21:17Z</time></trkpt><trkpt lat="33.8143873" lon="133.273099"><ele>1102.5600000000002</ele><time>2022-09-09T04:21:33Z</time></trkpt><trkpt lat="33.8142448" lon="133.2732397"><ele>1102.7666666666667</ele><time>2022-09-09T04:21:50Z</time></trkpt><trkpt lat="33.814074" lon="133.2733173"><ele>1103.61</ele><time>2022-09-09T04:22:03Z</time></trkpt><trkpt lat="33.8138979" lon="133.273369"><ele>1104.0266666666666</ele><time>2022-09-09T04:22:16Z</time></trkpt><trkpt lat="33.8137258" lon="133.273452"><ele>1103.1133333333335</ele><time>2022-09-09T04:22:29Z</time></trkpt><trkpt lat="33.8135448" lon="133.2734146"><ele>1103.3066666666666</ele><time>2022-09-09T04:22:47Z</time></trkpt><trkpt lat="33.8133669" lon="133.2733697"><ele>1105.36</ele><time>2022-09-09T04:23:09Z</time></trkpt><trkpt lat="33.813232" lon="133.2735242"><ele>1106.11</ele><time>2022-09-09T04:23:28Z</time></trkpt><trkpt lat="33.8130542" lon="133.2735679"><ele>1105.7166666666665</ele><time>2022-09-09T04:23:45Z</time></trkpt><trkpt lat="33.8128791" lon="133.2735084"><ele>1104.1766666666665</ele><time>2022-09-09T04:24:01Z</time></trkpt><trkpt lat="33.8127012" lon="133.2734464"><ele>1104.48</ele><time>2022-09-09T04:24:16Z</time></trkpt><trkpt lat="33.8125317" lon="133.2735225"><ele>1104.8766666666668</ele><time>2022-09-09T04:24:37Z</time></trkpt><trkpt lat="33.8124723" lon="133.2737278"><ele>1103.6299999999999</ele><time>2022-09-09T04:24:52Z</time></trkpt><trkpt lat="33.8123176" lon="133.2738546"><ele>1101.72</ele><time>2022-09-09T04:25:08Z</time></trkpt><trkpt lat="33.812147" lon="133.2737588"><ele>1100.96</ele><time>2022-09-09T04:25:20Z</time></trkpt><trkpt lat="33.8120224" lon="133.2735753"><ele>1103.75</ele><time>2022-09-09T04:25:33Z</time></trkpt><trkpt lat="33.8118888" lon="133.2734108"><ele>1108.7666666666667</ele><time>2022-09-09T04:26:57Z</time></trkpt><trkpt lat="33.8117289" lon="133.2732941"><ele>1112.4666666666667</ele><time>2022-09-09T04:27:12Z</time></trkpt><trkpt lat="33.8115538" lon="133.2732102"><ele>1115.0600000000002</ele><time>2022-09-09T04:27:28Z</time></trkpt><trkpt lat="33.8113989" lon="133.2733262"><ele>1115.8566666666668</ele><time>2022-09-09T04:27:48Z</time></trkpt><trkpt lat="33.8112431" lon="133.2734427"><ele>1115.8033333333333</ele><time>2022-09-09T04:28:05Z</time></trkpt><trkpt lat="33.8110877" lon="133.2735581"><ele>1114.2833333333333</ele><time>2022-09-09T04:28:22Z</time></trkpt><trkpt lat="33.8109241" lon="133.2736494"><ele>1111.6333333333332</ele><time>2022-09-09T04:28:36Z</time></trkpt><trkpt lat="33.8107428" lon="133.2736869"><ele>1109.5500000000002</ele><time>2022-09-09T04:28:52Z</time></trkpt><trkpt lat="33.810559" lon="133.2736676"><ele>1107.38</ele><time>2022-09-09T04:29:07Z</time></trkpt><trkpt lat="33.8104618" lon="133.2734806"><ele>1107.0833333333333</ele><time>2022-09-09T04:29:20Z</time></trkpt><trkpt lat="33.8104729" lon="133.2732624"><ele>1107.8133333333333</ele><time>2022-09-09T04:29:33Z</time></trkpt><trkpt lat="33.8105254" lon="133.2730461"><ele>1110.8100000000002</ele><time>2022-09-09T04:29:48Z</time></trkpt><trkpt lat="33.8105358" lon="133.2728166"><ele>1116.05</ele><time>2022-09-09T04:30:02Z</time></trkpt><trkpt lat="33.8104975" lon="133.2726009"><ele>1119.87</ele><time>2022-09-09T04:30:18Z</time></trkpt><trkpt lat="33.8104502" lon="133.272386"><ele>1123.0033333333333</ele><time>2022-09-09T04:30:36Z</time></trkpt><trkpt lat="33.810274" lon="133.2723337"><ele>1123.47</ele><time>2022-09-09T04:32:27Z</time></trkpt><trkpt lat="33.8101156" lon="133.2724629"><ele>1124.7633333333333</ele><time>2022-09-09T04:32:58Z</time></trkpt><trkpt lat="33.8099358" lon="133.2725245"><ele>1127.5733333333335</ele><time>2022-09-09T04:33:09Z</time></trkpt><trkpt lat="33.8097504" lon="133.2725698"><ele>1131.4733333333334</ele><time>2022-09-09T04:33:23Z</time></trkpt><trkpt lat="33.8095997" lon="133.2726899"><ele>1134.8833333333334</ele><time>2022-09-09T04:33:41Z</time></trkpt><trkpt lat="33.8094583" lon="133.2728293"><ele>1135.08</ele><time>2022-09-09T04:33:54Z</time></trkpt><trkpt lat="33.80934" lon="133.2729987"><ele>1134.0866666666666</ele><time>2022-09-09T04:34:18Z</time></trkpt><trkpt lat="33.809263" lon="133.2732019"><ele>1132.6866666666667</ele><time>2022-09-09T04:34:34Z</time></trkpt><trkpt lat="33.8089107" lon="133.2732669"><ele>1131.6200000000001</ele><time>2022-09-09T04:34:59Z</time></trkpt><trkpt lat="33.8087386" lon="133.2731758"><ele>1131.49</ele><time>2022-09-09T04:35:13Z</time></trkpt><trkpt lat="33.8084055" lon="133.2731124"><ele>1133.7333333333333</ele><time>2022-09-09T04:35:43Z</time></trkpt><trkpt lat="33.8082385" lon="133.2732072"><ele>1135.3133333333333</ele><time>2022-09-09T04:35:58Z</time></trkpt><trkpt lat="33.808052" lon="133.2732035"><ele>1136.4066666666665</ele><time>2022-09-09T04:36:13Z</time></trkpt><trkpt lat="33.807884" lon="133.2732908"><ele>1134.256666666667</ele><time>2022-09-09T04:36:32Z</time></trkpt><trkpt lat="33.80773" lon="133.273423"><ele>1131.46</ele><time>2022-09-09T04:36:48Z</time></trkpt><trkpt lat="33.8075504" lon="133.2734702"><ele>1126.7633333333333</ele><time>2022-09-09T04:37:05Z</time></trkpt><trkpt lat="33.8073772" lon="133.2733884"><ele>1122.54</ele><time>2022-09-09T04:37:20Z</time></trkpt><trkpt lat="33.8072318" lon="133.2732552"><ele>1120.6366666666665</ele><time>2022-09-09T04:37:37Z</time></trkpt><trkpt lat="33.8070759" lon="133.2731278"><ele>1119.3966666666668</ele><time>2022-09-09T04:37:55Z</time></trkpt><trkpt lat="33.8069303" lon="133.2729984"><ele>1120.1866666666667</ele><time>2022-09-09T04:38:10Z</time></trkpt><trkpt lat="33.8068456" lon="133.2727928"><ele>1123.9466666666665</ele><time>2022-09-09T04:38:25Z</time></trkpt><trkpt lat="33.8066602" lon="133.2727839"><ele>1129.3033333333333</ele><time>2022-09-09T04:38:40Z</time></trkpt><trkpt lat="33.8065041" lon="133.2728971"><ele>1134.6433333333332</ele><time>2022-09-09T04:38:57Z</time></trkpt><trkpt lat="33.8064002" lon="133.2730814"><ele>1135.61</ele><time>2022-09-09T04:39:23Z</time></trkpt><trkpt lat="33.8062344" lon="133.2731814"><ele>1136.0600000000002</ele><time>2022-09-09T04:39:36Z</time></trkpt><trkpt lat="33.8061183" lon="133.2733512"><ele>1134.5466666666669</ele><time>2022-09-09T04:39:53Z</time></trkpt><trkpt lat="33.8060487" lon="133.2735534"><ele>1132.5966666666666</ele><time>2022-09-09T04:40:10Z</time></trkpt><trkpt lat="33.8058942" lon="133.2736768"><ele>1132.7466666666667</ele><time>2022-09-09T04:40:22Z</time></trkpt><trkpt lat="33.8057112" lon="133.2736982"><ele>1133.99</ele><time>2022-09-09T04:40:35Z</time></trkpt><trkpt lat="33.8055294" lon="133.2736813"><ele>1136.9366666666667</ele><time>2022-09-09T04:40:50Z</time></trkpt><trkpt lat="33.8053426" lon="133.2736564"><ele>1137.2866666666666</ele><time>2022-09-09T04:41:06Z</time></trkpt><trkpt lat="33.8051544" lon="133.2736798"><ele>1138.3266666666668</ele><time>2022-09-09T04:41:22Z</time></trkpt><trkpt lat="33.8050238" lon="133.2735209"><ele>1138.4433333333334</ele><time>2022-09-09T04:41:36Z</time></trkpt><trkpt lat="33.8049714" lon="133.2732989"><ele>1137.2966666666669</ele><time>2022-09-09T04:41:48Z</time></trkpt><trkpt lat="33.8048753" lon="133.273115"><ele>1133.7900000000002</ele><time>2022-09-09T04:42:08Z</time></trkpt><trkpt lat="33.8048271" lon="133.2728981"><ele>1129.13</ele><time>2022-09-09T04:42:20Z</time></trkpt><trkpt lat="33.8048773" lon="133.2726808"><ele>1125.2</ele><time>2022-09-09T04:42:52Z</time></trkpt><trkpt lat="33.8049084" lon="133.2724677"><ele>1122.6933333333334</ele><time>2022-09-09T04:43:05Z</time></trkpt><trkpt lat="33.805034" lon="133.2723102"><ele>1122.0800000000002</ele><time>2022-09-09T04:43:24Z</time></trkpt><trkpt lat="33.8051382" lon="133.2721215"><ele>1123.4666666666667</ele><time>2022-09-09T04:43:39Z</time></trkpt><trkpt lat="33.8051444" lon="133.2718978"><ele>1124.18</ele><time>2022-09-09T04:43:51Z</time></trkpt><trkpt lat="33.8051837" lon="133.2716805"><ele>1124.3999999999999</ele><time>2022-09-09T04:44:31Z</time></trkpt><trkpt lat="33.8053046" lon="133.2715195"><ele>1123.3533333333332</ele><time>2022-09-09T04:44:44Z</time></trkpt><trkpt lat="33.8054031" lon="133.2713347"><ele>1123.5</ele><time>2022-09-09T04:45:00Z</time></trkpt><trkpt lat="33.8053168" lon="133.2711335"><ele>1121.72</ele><time>2022-09-09T04:45:14Z</time></trkpt><trkpt lat="33.8051284" lon="133.2710889"><ele>1121.1333333333334</ele><time>2022-09-09T04:45:27Z</time></trkpt><trkpt lat="33.8049497" lon="133.2711377"><ele>1120.0033333333333</ele><time>2022-09-09T04:45:44Z</time></trkpt><trkpt lat="33.8048272" lon="133.2713017"><ele>1119.1000000000001</ele><time>2022-09-09T04:45:58Z</time></trkpt><trkpt lat="33.8047154" lon="133.2714739"><ele>1114.2766666666666</ele><time>2022-09-09T04:46:14Z</time></trkpt><trkpt lat="33.8045357" lon="133.2715283"><ele>1108.6966666666667</ele><time>2022-09-09T04:46:30Z</time></trkpt><trkpt lat="33.8043453" lon="133.2715225"><ele>1104.7966666666669</ele><time>2022-09-09T04:46:44Z</time></trkpt><trkpt lat="33.8041574" lon="133.2715063"><ele>1103.2466666666667</ele><time>2022-09-09T04:46:58Z</time></trkpt><trkpt lat="33.8039961" lon="133.2714074"><ele>1103.1933333333334</ele><time>2022-09-09T04:47:14Z</time></trkpt><trkpt lat="33.8038172" lon="133.271359"><ele>1100.61</ele><time>2022-09-09T04:47:41Z</time></trkpt><trkpt lat="33.8038121" lon="133.2711367"><ele>1098.1433333333334</ele><time>2022-09-09T04:47:53Z</time></trkpt><trkpt lat="33.8037915" lon="133.2709168"><ele>1093.38</ele><time>2022-09-09T04:48:06Z</time></trkpt><trkpt lat="33.8038996" lon="133.270735"><ele>1095.3633333333335</ele><time>2022-09-09T04:48:23Z</time></trkpt><trkpt lat="33.8039145" lon="133.2705193"><ele>1097.3433333333335</ele><time>2022-09-09T04:48:36Z</time></trkpt><trkpt lat="33.8039491" lon="133.2703031"><ele>1101.5200000000002</ele><time>2022-09-09T04:48:52Z</time></trkpt><trkpt lat="33.8039393" lon="133.2700469"><ele>1102.66</ele><time>2022-09-09T04:49:33Z</time></trkpt><trkpt lat="33.8038356" lon="133.2698622"><ele>1102.3966666666668</ele><time>2022-09-09T04:49:49Z</time></trkpt><trkpt lat="33.8036754" lon="133.2697466"><ele>1101.1366666666665</ele><time>2022-09-09T04:50:03Z</time></trkpt><trkpt lat="33.803512" lon="133.269842"><ele>1098.4766666666667</ele><time>2022-09-09T04:50:19Z</time></trkpt><trkpt lat="33.8033965" lon="133.2700138"><ele>1095.52</ele><time>2022-09-09T04:50:40Z</time></trkpt><trkpt lat="33.8032141" lon="133.2699835"><ele>1095.1233333333334</ele><time>2022-09-09T04:50:55Z</time></trkpt><trkpt lat="33.8030389" lon="133.2700427"><ele>1093.0733333333335</ele><time>2022-09-09T04:51:09Z</time></trkpt><trkpt lat="33.8028564" lon="133.2700353"><ele>1090.7766666666666</ele><time>2022-09-09T04:51:23Z</time></trkpt><trkpt lat="33.8026938" lon="133.2699234"><ele>1086.3866666666665</ele><time>2022-09-09T04:51:37Z</time></trkpt><trkpt lat="33.8025344" lon="133.2698115"><ele>1085.29</ele><time>2022-09-09T04:51:54Z</time></trkpt><trkpt lat="33.8023643" lon="133.2697222"><ele>1086.3733333333332</ele><time>2022-09-09T04:52:10Z</time></trkpt><trkpt lat="33.8021813" lon="133.2697118"><ele>1085.61</ele><time>2022-09-09T04:52:26Z</time></trkpt><trkpt lat="33.8020579" lon="133.2695505"><ele>1084.5066666666664</ele><time>2022-09-09T04:52:43Z</time></trkpt><trkpt lat="33.8020154" lon="133.2693399"><ele>1083.9833333333333</ele><time>2022-09-09T04:52:57Z</time></trkpt><trkpt lat="33.8018671" lon="133.2692149"><ele>1084.716666666667</ele><time>2022-09-09T04:53:11Z</time></trkpt><trkpt lat="33.8017337" lon="133.2690638"><ele>1083.4766666666667</ele><time>2022-09-09T04:53:28Z</time></trkpt><trkpt lat="33.8016504" lon="133.2688661"><ele>1083.1166666666666</ele><time>2022-09-09T04:53:45Z</time></trkpt><trkpt lat="33.8016917" lon="133.2686476"><ele>1085.66</ele><time>2022-09-09T04:54:00Z</time></trkpt><trkpt lat="33.8015606" lon="133.2684746"><ele>1090.53</ele><time>2022-09-09T04:54:18Z</time></trkpt><trkpt lat="33.8014137" lon="133.2686164"><ele>1092.8233333333335</ele><time>2022-09-09T04:54:46Z</time></trkpt><trkpt lat="33.8012786" lon="133.2687737"><ele>1091.3366666666666</ele><time>2022-09-09T04:54:58Z</time></trkpt><trkpt lat="33.8011246" lon="133.2688878"><ele>1087.3866666666665</ele><time>2022-09-09T04:55:09Z</time></trkpt><trkpt lat="33.8009572" lon="133.268798"><ele>1085.1000000000001</ele><time>2022-09-09T04:55:21Z</time></trkpt><trkpt lat="33.8008415" lon="133.2686215"><ele>1086.6333333333332</ele><time>2022-09-09T04:55:33Z</time></trkpt><trkpt lat="33.8007288" lon="133.2684441"><ele>1091.0066666666667</ele><time>2022-09-09T04:55:47Z</time></trkpt><trkpt lat="33.8005825" lon="133.2683016"><ele>1094.8833333333334</ele><time>2022-09-09T04:56:03Z</time></trkpt><trkpt lat="33.8004458" lon="133.2681429"><ele>1096.8333333333333</ele><time>2022-09-09T04:56:22Z</time></trkpt><trkpt lat="33.8003861" lon="133.2679359"><ele>1098.9733333333334</ele><time>2022-09-09T04:56:40Z</time></trkpt><trkpt lat="33.8003005" lon="133.267743"><ele>1101.51</ele><time>2022-09-09T04:56:57Z</time></trkpt><trkpt lat="33.8002125" lon="133.2675518"><ele>1103.83</ele><time>2022-09-09T04:57:11Z</time></trkpt><trkpt lat="33.8001756" lon="133.267337"><ele>1104.8833333333334</ele><time>2022-09-09T04:57:26Z</time></trkpt><trkpt lat="33.8001019" lon="133.2671213"><ele>1105.4233333333332</ele><time>2022-09-09T04:57:46Z</time></trkpt><trkpt lat="33.8000967" lon="133.2668965"><ele>1106.9733333333334</ele><time>2022-09-09T04:57:59Z</time></trkpt></trkseg></trk></gpx>