<?xml version='1.0' encoding='UTF-8'?><gpx creator="Yama Museum Summit Candidate Generator" xsi:schemaLocation="http://www.topografix.com/GPX/1/1 http://www.topografix.com/GPX/1/1/gpx.xsd" version="1.1" xmlns="http://www.topografix.com/GPX/1/1" xmlns:xsi="http://www.w3.org/2001/XMLSchema-instance" xmlns:yama="https://museum-yama-data.moukaeritai.work/ns/yama-data/0.1"><metadata><bounds maxlat="33.8824431" maxlon="133.5829936" minlat="33.8618206" minlon="133.5371867"/><name>大森山・佐々連尾山・三つ足山</name><extensions><yama:source_gpx_basename>yamap_2025-10-11_06_24.gpx</yama:source_gpx_basename><yama:source_gpx_relative_path>data/01_raw/gpx/2026-05-12/yamap_2025-10-11_06_24.gpx</yama:source_gpx_relative_path><yama:detection_parameters>window=5,radius=10,min_prominence=30,merge=100</yama:detection_parameters></extensions></metadata><wpt lat="33.8789795" lon="133.544002"><ele>1426.5633333333335</ele><time>2025-10-10T23:11:21Z</time><name>summit-candidate:565ba3761956d9b3</name><desc>Summit candidate detected at elevation 1426.5633333333335m with prominence 201.56333333333305m.</desc><sym>Summit Candidate</sym><extensions><yama:source_trackpoint_index>98</yama:source_trackpoint_index><yama:valid_elevation_index>98</yama:valid_elevation_index><yama:smoothed_ele>1423.6166666666666</yama:smoothed_ele><yama:prominence>201.56333333333305</yama:prominence><yama:detection_method>local_maxima_with_prominence</yama:detection_method><yama:detection_parameters>window=5,radius=10,min_prominence=30,merge=100</yama:detection_parameters><yama:candidate_status>unresolved</yama:candidate_status></extensions></wpt>
  <wpt lat="33.8677482" lon="133.5827925"><ele>1445.6433333333334</ele><time>2025-10-11T02:16:36Z</time><name>summit-candidate:a80dd0489247a839</name><desc>Summit candidate detected at elevation 1445.6433333333334m with prominence 483.0985000000002m.</desc><sym>Summit Candidate</sym><extensions><yama:source_trackpoint_index>321</yama:source_trackpoint_index><yama:valid_elevation_index>321</yama:valid_elevation_index><yama:smoothed_ele>1443.6793333333335</yama:smoothed_ele><yama:prominence>483.0985000000002</yama:prominence><yama:detection_method>local_maxima_with_prominence</yama:detection_method><yama:detection_parameters>window=5,radius=10,min_prominence=30,merge=100</yama:detection_parameters><yama:candidate_status>unresolved</yama:candidate_status></extensions></wpt>
  <trk><name>大森山・佐々連尾山・三つ足山</name><number>1</number><trkseg><trkpt lat="33.8687093" lon="133.5408625"><ele>962.35</ele><time>2025-10-10T21:24:32Z</time></trkpt><trkpt lat="33.8689135" lon="133.540808"><ele>960.06</ele><time>2025-10-10T21:25:21Z</time></trkpt><trkpt lat="33.8690497" lon="133.5406296"><ele>959.6066666666666</ele><time>2025-10-10T21:25:49Z</time></trkpt><trkpt lat="33.8692504" lon="133.5405958"><ele>960.3066666666667</ele><time>2025-10-10T21:27:40Z</time></trkpt><trkpt lat="33.8694204" lon="133.5404717"><ele>963.8966666666666</ele><time>2025-10-10T21:28:22Z</time></trkpt><trkpt lat="33.869592" lon="133.5403724"><ele>968.2800000000001</ele><time>2025-10-10T21:28:40Z</time></trkpt><trkpt lat="33.8697447" lon="133.5402571"><ele>973.2733333333332</ele><time>2025-10-10T21:29:07Z</time></trkpt><trkpt lat="33.869914" lon="133.5401119"><ele>977.2366666666667</ele><time>2025-10-10T21:29:26Z</time></trkpt><trkpt lat="33.8701036" lon="133.5401414"><ele>979.1533333333333</ele><time>2025-10-10T21:30:24Z</time></trkpt><trkpt lat="33.8703076" lon="133.5401845"><ele>979.5166666666668</ele><time>2025-10-10T21:30:51Z</time></trkpt><trkpt lat="33.8705064" lon="133.5402181"><ele>979.52</ele><time>2025-10-10T21:31:15Z</time></trkpt><trkpt lat="33.870692" lon="133.5402445"><ele>982.0166666666668</ele><time>2025-10-10T21:31:36Z</time></trkpt><trkpt lat="33.8708539" lon="133.5403552"><ele>984.8533333333335</ele><time>2025-10-10T21:31:57Z</time></trkpt><trkpt lat="33.8710284" lon="133.5404441"><ele>988.6199999999999</ele><time>2025-10-10T21:32:30Z</time></trkpt><trkpt lat="33.8711648" lon="133.5405945"><ele>991.0233333333334</ele><time>2025-10-10T21:33:00Z</time></trkpt><trkpt lat="33.8712947" lon="133.540759"><ele>992.56</ele><time>2025-10-10T21:33:39Z</time></trkpt><trkpt lat="33.8714574" lon="133.5408593"><ele>994.7133333333335</ele><time>2025-10-10T21:34:03Z</time></trkpt><trkpt lat="33.8715845" lon="133.5410418"><ele>998.5333333333334</ele><time>2025-10-10T21:34:30Z</time></trkpt><trkpt lat="33.8716688" lon="133.5412565"><ele>1001.4466666666667</ele><time>2025-10-10T21:35:00Z</time></trkpt><trkpt lat="33.8718525" lon="133.5412582"><ele>1008.6733333333333</ele><time>2025-10-10T21:36:51Z</time></trkpt><trkpt lat="33.8719822" lon="133.5411021"><ele>1017.5366666666665</ele><time>2025-10-10T21:37:51Z</time></trkpt><trkpt lat="33.8720613" lon="133.5409024"><ele>1032.0566666666666</ele><time>2025-10-10T21:38:45Z</time></trkpt><trkpt lat="33.872022" lon="133.5406754"><ele>1041.9766666666667</ele><time>2025-10-10T21:39:12Z</time></trkpt><trkpt lat="33.8719623" lon="133.5404644"><ele>1048.9966666666667</ele><time>2025-10-10T21:39:42Z</time></trkpt><trkpt lat="33.8719363" lon="133.5402469"><ele>1052.13</ele><time>2025-10-10T21:40:24Z</time></trkpt><trkpt lat="33.871947" lon="133.5400258"><ele>1054.8566666666666</ele><time>2025-10-10T21:41:00Z</time></trkpt><trkpt lat="33.8719651" lon="133.5397954"><ele>1059.1633333333332</ele><time>2025-10-10T21:42:00Z</time></trkpt><trkpt lat="33.871914" lon="133.5395787"><ele>1065.7233333333331</ele><time>2025-10-10T21:42:42Z</time></trkpt><trkpt lat="33.8718671" lon="133.5393398"><ele>1071.7166666666665</ele><time>2025-10-10T21:43:12Z</time></trkpt><trkpt lat="33.8718534" lon="133.5391081"><ele>1078.1699999999998</ele><time>2025-10-10T21:43:48Z</time></trkpt><trkpt lat="33.8718832" lon="133.5388937"><ele>1083.1166666666666</ele><time>2025-10-10T21:44:27Z</time></trkpt><trkpt lat="33.8718327" lon="133.5386839"><ele>1086.2133333333334</ele><time>2025-10-10T21:45:03Z</time></trkpt><trkpt lat="33.8718066" lon="133.538446"><ele>1087.2366666666667</ele><time>2025-10-10T21:45:48Z</time></trkpt><trkpt lat="33.8719076" lon="133.5382642"><ele>1087.1433333333332</ele><time>2025-10-10T21:46:36Z</time></trkpt><trkpt lat="33.8720817" lon="133.5381468"><ele>1092.1466666666668</ele><time>2025-10-10T21:47:15Z</time></trkpt><trkpt lat="33.8722623" lon="133.5381184"><ele>1098.0500000000002</ele><time>2025-10-10T21:48:42Z</time></trkpt><trkpt lat="33.8724021" lon="133.537981"><ele>1104.8466666666666</ele><time>2025-10-10T21:49:24Z</time></trkpt><trkpt lat="33.8724792" lon="133.5377848"><ele>1112.2133333333334</ele><time>2025-10-10T21:50:21Z</time></trkpt><trkpt lat="33.8724436" lon="133.5375636"><ele>1119.9866666666667</ele><time>2025-10-10T21:51:06Z</time></trkpt><trkpt lat="33.8725845" lon="133.5374052"><ele>1129.0133333333333</ele><time>2025-10-10T21:52:21Z</time></trkpt><trkpt lat="33.8725762" lon="133.5371867"><ele>1134.1966666666667</ele><time>2025-10-10T21:53:00Z</time></trkpt><trkpt lat="33.8726509" lon="133.5374029"><ele>1137.8733333333332</ele><time>2025-10-10T21:54:15Z</time></trkpt><trkpt lat="33.8728012" lon="133.5375445"><ele>1139.5566666666666</ele><time>2025-10-10T21:54:48Z</time></trkpt><trkpt lat="33.8729514" lon="133.5376667"><ele>1141.5900000000001</ele><time>2025-10-10T21:55:21Z</time></trkpt><trkpt lat="33.8731231" lon="133.5377518"><ele>1144.4833333333333</ele><time>2025-10-10T21:55:45Z</time></trkpt><trkpt lat="33.8732664" lon="133.5378855"><ele>1149.4566666666667</ele><time>2025-10-10T21:56:57Z</time></trkpt><trkpt lat="33.873379" lon="133.5380631"><ele>1156.3166666666666</ele><time>2025-10-10T21:57:45Z</time></trkpt><trkpt lat="33.8734327" lon="133.5382874"><ele>1164.4266666666665</ele><time>2025-10-10T21:58:42Z</time></trkpt><trkpt lat="33.8734849" lon="133.5384964"><ele>1173.5633333333335</ele><time>2025-10-10T21:59:33Z</time></trkpt><trkpt lat="33.8736332" lon="133.5386365"><ele>1181.1033333333335</ele><time>2025-10-10T22:00:24Z</time></trkpt><trkpt lat="33.8737063" lon="133.5388441"><ele>1187.9266666666665</ele><time>2025-10-10T22:01:06Z</time></trkpt><trkpt lat="33.8738426" lon="133.5389864"><ele>1190.2633333333333</ele><time>2025-10-10T22:01:45Z</time></trkpt><trkpt lat="33.8739728" lon="133.5391472"><ele>1190.993333333333</ele><time>2025-10-10T22:02:12Z</time></trkpt><trkpt lat="33.8741456" lon="133.5392498"><ele>1188.6233333333334</ele><time>2025-10-10T22:03:39Z</time></trkpt><trkpt lat="33.8742932" lon="133.5393785"><ele>1187.8666666666668</ele><time>2025-10-10T22:04:03Z</time></trkpt><trkpt lat="33.8744391" lon="133.5395128"><ele>1190.9633333333334</ele><time>2025-10-10T22:04:54Z</time></trkpt><trkpt lat="33.8746214" lon="133.5395909"><ele>1197.9366666666667</ele><time>2025-10-10T22:05:36Z</time></trkpt><trkpt lat="33.8747729" lon="133.5397248"><ele>1205.21</ele><time>2025-10-10T22:06:39Z</time></trkpt><trkpt lat="33.8749203" lon="133.5398709"><ele>1210.9333333333334</ele><time>2025-10-10T22:07:33Z</time></trkpt><trkpt lat="33.8750892" lon="133.5399652"><ele>1216.11</ele><time>2025-10-10T22:08:12Z</time></trkpt><trkpt lat="33.8752694" lon="133.5399754"><ele>1223.0600000000002</ele><time>2025-10-10T22:09:45Z</time></trkpt><trkpt lat="33.8754469" lon="133.5400507"><ele>1230.8766666666668</ele><time>2025-10-10T22:12:00Z</time></trkpt><trkpt lat="33.8756284" lon="133.5401074"><ele>1240.5033333333333</ele><time>2025-10-10T22:15:54Z</time></trkpt><trkpt lat="33.8758098" lon="133.54014"><ele>1248.8566666666668</ele><time>2025-10-10T22:16:45Z</time></trkpt><trkpt lat="33.8759746" lon="133.5400361"><ele>1257.0733333333335</ele><time>2025-10-10T22:17:18Z</time></trkpt><trkpt lat="33.8761274" lon="133.5399205"><ele>1264.1766666666665</ele><time>2025-10-10T22:18:27Z</time></trkpt><trkpt lat="33.8763024" lon="133.5398567"><ele>1270.8466666666666</ele><time>2025-10-10T22:20:15Z</time></trkpt><trkpt lat="33.8764883" lon="133.5398991"><ele>1277.14</ele><time>2025-10-10T22:21:06Z</time></trkpt><trkpt lat="33.8766711" lon="133.5398774"><ele>1281.6866666666667</ele><time>2025-10-10T22:21:45Z</time></trkpt><trkpt lat="33.8768542" lon="133.5398349"><ele>1287.2700000000002</ele><time>2025-10-10T22:24:09Z</time></trkpt><trkpt lat="33.8770323" lon="133.539876"><ele>1291.5333333333335</ele><time>2025-10-10T22:25:06Z</time></trkpt><trkpt lat="33.8771621" lon="133.539723"><ele>1298.46</ele><time>2025-10-10T22:26:42Z</time></trkpt><trkpt lat="33.877333" lon="133.5396458"><ele>1307.74</ele><time>2025-10-10T22:30:36Z</time></trkpt><trkpt lat="33.8775031" lon="133.5397288"><ele>1320.68</ele><time>2025-10-10T22:32:03Z</time></trkpt><trkpt lat="33.8776853" lon="133.5397348"><ele>1335.2066666666667</ele><time>2025-10-10T22:40:06Z</time></trkpt><trkpt lat="33.8778681" lon="133.5397422"><ele>1349.0333333333333</ele><time>2025-10-10T22:42:03Z</time></trkpt><trkpt lat="33.8780436" lon="133.5396833"><ele>1363.79</ele><time>2025-10-10T22:43:51Z</time></trkpt><trkpt lat="33.8782033" lon="133.5397994"><ele>1376.74</ele><time>2025-10-10T22:45:33Z</time></trkpt><trkpt lat="33.8783723" lon="133.5398983"><ele>1388.12</ele><time>2025-10-10T22:47:06Z</time></trkpt><trkpt lat="33.8785594" lon="133.5399154"><ele>1397.21</ele><time>2025-10-10T22:48:06Z</time></trkpt><trkpt lat="33.8786706" lon="133.5400924"><ele>1404.3133333333333</ele><time>2025-10-10T22:48:48Z</time></trkpt><trkpt lat="33.8787398" lon="133.5403181"><ele>1408.4899999999998</ele><time>2025-10-10T22:49:33Z</time></trkpt><trkpt lat="33.8788113" lon="133.5405387"><ele>1409.0100000000002</ele><time>2025-10-10T22:50:00Z</time></trkpt><trkpt lat="33.8788697" lon="133.5407628"><ele>1408.9466666666667</ele><time>2025-10-10T22:50:33Z</time></trkpt><trkpt lat="33.8789225" lon="133.5409776"><ele>1409.0733333333335</ele><time>2025-10-10T22:50:54Z</time></trkpt><trkpt lat="33.8790151" lon="133.541168"><ele>1410.006666666667</ele><time>2025-10-10T22:51:15Z</time></trkpt><trkpt lat="33.8791389" lon="133.5413531"><ele>1410.1366666666665</ele><time>2025-10-10T22:51:39Z</time></trkpt><trkpt lat="33.8790989" lon="133.5415825"><ele>1410.3466666666666</ele><time>2025-10-10T22:52:15Z</time></trkpt><trkpt lat="33.879104" lon="133.5418032"><ele>1410.64</ele><time>2025-10-10T22:52:39Z</time></trkpt><trkpt lat="33.8791184" lon="133.5420493"><ele>1411.01</ele><time>2025-10-10T22:53:00Z</time></trkpt><trkpt lat="33.8791094" lon="133.5422664"><ele>1411.3233333333335</ele><time>2025-10-10T22:53:24Z</time></trkpt><trkpt lat="33.8791215" lon="133.5425013"><ele>1411.7700000000002</ele><time>2025-10-10T22:53:48Z</time></trkpt><trkpt lat="33.8790746" lon="133.5427386"><ele>1412.2433333333336</ele><time>2025-10-10T22:54:18Z</time></trkpt><trkpt lat="33.8790661" lon="133.5429743"><ele>1413.4733333333334</ele><time>2025-10-10T22:54:45Z</time></trkpt><trkpt lat="33.8790292" lon="133.5431954"><ele>1415.0466666666669</ele><time>2025-10-10T22:55:09Z</time></trkpt><trkpt lat="33.8789596" lon="133.5434076"><ele>1417.7533333333333</ele><time>2025-10-10T22:55:33Z</time></trkpt><trkpt lat="33.8789156" lon="133.5436392"><ele>1420.5866666666668</ele><time>2025-10-10T22:56:03Z</time></trkpt><trkpt lat="33.8788482" lon="133.5438444"><ele>1424.5433333333333</ele><time>2025-10-10T22:56:45Z</time></trkpt><trkpt lat="33.8789795" lon="133.544002"><ele>1426.5633333333335</ele><time>2025-10-10T23:11:21Z</time></trkpt><trkpt lat="33.8791537" lon="133.5441025"><ele>1425.493333333333</ele><time>2025-10-10T23:12:09Z</time></trkpt><trkpt lat="33.8792751" lon="133.5442835"><ele>1420.8966666666668</ele><time>2025-10-10T23:12:30Z</time></trkpt><trkpt lat="33.8793959" lon="133.544457"><ele>1415.4033333333334</ele><time>2025-10-10T23:12:51Z</time></trkpt><trkpt lat="33.879458" lon="133.5446848"><ele>1410.3566666666666</ele><time>2025-10-10T23:13:18Z</time></trkpt><trkpt lat="33.8795344" lon="133.5449023"><ele>1406.5100000000002</ele><time>2025-10-10T23:15:24Z</time></trkpt><trkpt lat="33.8796118" lon="133.5451247"><ele>1404.28</ele><time>2025-10-10T23:16:00Z</time></trkpt><trkpt lat="33.8797914" lon="133.5452467"><ele>1403.2766666666666</ele><time>2025-10-10T23:16:21Z</time></trkpt><trkpt lat="33.8799376" lon="133.5454032"><ele>1402.29</ele><time>2025-10-10T23:16:42Z</time></trkpt><trkpt lat="33.880006" lon="133.5456081"><ele>1399.6333333333334</ele><time>2025-10-10T23:17:06Z</time></trkpt><trkpt lat="33.8800046" lon="133.5458433"><ele>1396.7666666666667</ele><time>2025-10-10T23:17:30Z</time></trkpt><trkpt lat="33.8799951" lon="133.5460786"><ele>1393.8166666666668</ele><time>2025-10-10T23:18:15Z</time></trkpt><trkpt lat="33.8801144" lon="133.546248"><ele>1392.05</ele><time>2025-10-10T23:19:06Z</time></trkpt><trkpt lat="33.8801917" lon="133.5464548"><ele>1388.6866666666667</ele><time>2025-10-10T23:19:42Z</time></trkpt><trkpt lat="33.8802584" lon="133.5466739"><ele>1382.3366666666668</ele><time>2025-10-10T23:20:27Z</time></trkpt><trkpt lat="33.8802663" lon="133.5469112"><ele>1378.5</ele><time>2025-10-10T23:21:39Z</time></trkpt><trkpt lat="33.8802291" lon="133.547139"><ele>1377.8933333333334</ele><time>2025-10-10T23:22:33Z</time></trkpt><trkpt lat="33.8803288" lon="133.5473263"><ele>1383.6633333333332</ele><time>2025-10-10T23:23:18Z</time></trkpt><trkpt lat="33.8804857" lon="133.5474617"><ele>1387.5233333333333</ele><time>2025-10-10T23:24:06Z</time></trkpt><trkpt lat="33.8806164" lon="133.547623"><ele>1390.28</ele><time>2025-10-10T23:25:06Z</time></trkpt><trkpt lat="33.8806956" lon="133.5478337"><ele>1390.8566666666668</ele><time>2025-10-10T23:25:42Z</time></trkpt><trkpt lat="33.8807282" lon="133.5480486"><ele>1391.5866666666668</ele><time>2025-10-10T23:26:12Z</time></trkpt><trkpt lat="33.8808719" lon="133.5481848"><ele>1392.426666666667</ele><time>2025-10-10T23:27:24Z</time></trkpt><trkpt lat="33.8809262" lon="133.5483998"><ele>1393.096666666667</ele><time>2025-10-10T23:29:06Z</time></trkpt><trkpt lat="33.881022" lon="133.5485935"><ele>1393.4533333333336</ele><time>2025-10-10T23:29:45Z</time></trkpt><trkpt lat="33.881054" lon="133.5488279"><ele>1394.5466666666669</ele><time>2025-10-10T23:30:18Z</time></trkpt><trkpt lat="33.8811413" lon="133.5490181"><ele>1394.5166666666664</ele><time>2025-10-10T23:30:45Z</time></trkpt><trkpt lat="33.8813115" lon="133.5491128"><ele>1394.71</ele><time>2025-10-10T23:31:45Z</time></trkpt><trkpt lat="33.881409" lon="133.5492989"><ele>1396.5466666666669</ele><time>2025-10-10T23:32:48Z</time></trkpt><trkpt lat="33.8815351" lon="133.549456"><ele>1399.2533333333333</ele><time>2025-10-10T23:33:27Z</time></trkpt><trkpt lat="33.8817162" lon="133.5495628"><ele>1402.16</ele><time>2025-10-10T23:34:12Z</time></trkpt><trkpt lat="33.8818623" lon="133.5496962"><ele>1402.2033333333336</ele><time>2025-10-10T23:34:42Z</time></trkpt><trkpt lat="33.8820036" lon="133.5498647"><ele>1401.6966666666667</ele><time>2025-10-10T23:35:09Z</time></trkpt><trkpt lat="33.8820316" lon="133.5500931"><ele>1400.5933333333332</ele><time>2025-10-10T23:35:30Z</time></trkpt><trkpt lat="33.8820805" lon="133.5503045"><ele>1400.03</ele><time>2025-10-10T23:35:57Z</time></trkpt><trkpt lat="33.8821071" lon="133.5505243"><ele>1398.3566666666668</ele><time>2025-10-10T23:36:18Z</time></trkpt><trkpt lat="33.8821655" lon="133.5507429"><ele>1395.89</ele><time>2025-10-10T23:36:54Z</time></trkpt><trkpt lat="33.8822128" lon="133.5509885"><ele>1391.3433333333335</ele><time>2025-10-10T23:37:15Z</time></trkpt><trkpt lat="33.8822524" lon="133.5512188"><ele>1386.95</ele><time>2025-10-10T23:37:36Z</time></trkpt><trkpt lat="33.882284" lon="133.5514392"><ele>1381.8733333333337</ele><time>2025-10-10T23:37:54Z</time></trkpt><trkpt lat="33.8822466" lon="133.5516586"><ele>1377.9666666666665</ele><time>2025-10-10T23:38:12Z</time></trkpt><trkpt lat="33.882191" lon="133.5518786"><ele>1374.7699999999998</ele><time>2025-10-10T23:38:36Z</time></trkpt><trkpt lat="33.8822226" lon="133.552119"><ele>1373.18</ele><time>2025-10-10T23:38:54Z</time></trkpt><trkpt lat="33.8821863" lon="133.5523421"><ele>1372.4666666666665</ele><time>2025-10-10T23:39:12Z</time></trkpt><trkpt lat="33.8821346" lon="133.5525582"><ele>1373.426666666667</ele><time>2025-10-10T23:39:33Z</time></trkpt><trkpt lat="33.8820836" lon="133.5527913"><ele>1376.2133333333334</ele><time>2025-10-10T23:40:06Z</time></trkpt><trkpt lat="33.8820374" lon="133.5530104"><ele>1380.8933333333334</ele><time>2025-10-10T23:40:42Z</time></trkpt><trkpt lat="33.8820392" lon="133.5532369"><ele>1385.4333333333334</ele><time>2025-10-10T23:41:06Z</time></trkpt><trkpt lat="33.8820081" lon="133.5534734"><ele>1388.3366666666668</ele><time>2025-10-10T23:41:30Z</time></trkpt><trkpt lat="33.8819697" lon="133.5537027"><ele>1390.4499999999998</ele><time>2025-10-10T23:41:57Z</time></trkpt><trkpt lat="33.8819348" lon="133.5539199"><ele>1392.9466666666667</ele><time>2025-10-10T23:42:30Z</time></trkpt><trkpt lat="33.8819053" lon="133.5541479"><ele>1396.89</ele><time>2025-10-10T23:52:06Z</time></trkpt><trkpt lat="33.8820478" lon="133.5542851"><ele>1398.2466666666667</ele><time>2025-10-10T23:52:54Z</time></trkpt><trkpt lat="33.8821878" lon="133.5544595"><ele>1397.4866666666667</ele><time>2025-10-10T23:56:33Z</time></trkpt><trkpt lat="33.8822906" lon="133.5546534"><ele>1394.706666666667</ele><time>2025-10-10T23:57:09Z</time></trkpt><trkpt lat="33.8823637" lon="133.5548564"><ele>1393.0866666666668</ele><time>2025-10-10T23:57:42Z</time></trkpt><trkpt lat="33.8824431" lon="133.5550697"><ele>1392.0266666666666</ele><time>2025-10-10T23:58:06Z</time></trkpt><trkpt lat="33.8823363" lon="133.5552723"><ele>1390.6666666666667</ele><time>2025-10-10T23:58:33Z</time></trkpt><trkpt lat="33.8823423" lon="133.5554904"><ele>1388.17</ele><time>2025-10-10T23:59:00Z</time></trkpt><trkpt lat="33.8822737" lon="133.5556919"><ele>1384.8400000000001</ele><time>2025-10-10T23:59:21Z</time></trkpt><trkpt lat="33.8823264" lon="133.5559121"><ele>1380.32</ele><time>2025-10-10T23:59:45Z</time></trkpt><trkpt lat="33.8823095" lon="133.5561275"><ele>1375.33</ele><time>2025-10-11T00:00:12Z</time></trkpt><trkpt lat="33.8823228" lon="133.5563523"><ele>1371.2066666666667</ele><time>2025-10-11T00:00:30Z</time></trkpt><trkpt lat="33.8822713" lon="133.5565765"><ele>1369.1599999999999</ele><time>2025-10-11T00:00:51Z</time></trkpt><trkpt lat="33.8823678" lon="133.5567835"><ele>1369.3766666666668</ele><time>2025-10-11T00:01:51Z</time></trkpt><trkpt lat="33.8824255" lon="133.5569927"><ele>1369.5666666666666</ele><time>2025-10-11T00:02:12Z</time></trkpt><trkpt lat="33.8823636" lon="133.5567554"><ele>1369.9399999999998</ele><time>2025-10-11T00:03:33Z</time></trkpt><trkpt lat="33.8822161" lon="133.5568834"><ele>1368.9866666666667</ele><time>2025-10-11T00:03:57Z</time></trkpt><trkpt lat="33.8820798" lon="133.5570313"><ele>1367.496666666667</ele><time>2025-10-11T00:04:15Z</time></trkpt><trkpt lat="33.8819346" lon="133.5571673"><ele>1364.78</ele><time>2025-10-11T00:04:33Z</time></trkpt><trkpt lat="33.8817801" lon="133.5573265"><ele>1361.5966666666668</ele><time>2025-10-11T00:05:18Z</time></trkpt><trkpt lat="33.8816485" lon="133.557493"><ele>1358.3166666666666</ele><time>2025-10-11T00:05:36Z</time></trkpt><trkpt lat="33.8814708" lon="133.5576256"><ele>1355.5466666666664</ele><time>2025-10-11T00:05:54Z</time></trkpt><trkpt lat="33.8812706" lon="133.5577015"><ele>1354.55</ele><time>2025-10-11T00:06:12Z</time></trkpt><trkpt lat="33.8810741" lon="133.5577279"><ele>1353.743333333333</ele><time>2025-10-11T00:06:36Z</time></trkpt><trkpt lat="33.8809064" lon="133.5578336"><ele>1353.2</ele><time>2025-10-11T00:07:12Z</time></trkpt><trkpt lat="33.8807877" lon="133.5580128"><ele>1351.8466666666666</ele><time>2025-10-11T00:07:33Z</time></trkpt><trkpt lat="33.8806353" lon="133.5581851"><ele>1351.0266666666666</ele><time>2025-10-11T00:07:57Z</time></trkpt><trkpt lat="33.8804901" lon="133.5583175"><ele>1350.5200000000002</ele><time>2025-10-11T00:08:15Z</time></trkpt><trkpt lat="33.8803631" lon="133.5584769"><ele>1350.07</ele><time>2025-10-11T00:08:39Z</time></trkpt><trkpt lat="33.8802068" lon="133.5586139"><ele>1348.5066666666667</ele><time>2025-10-11T00:09:03Z</time></trkpt><trkpt lat="33.8800182" lon="133.5586799"><ele>1344.1900000000003</ele><time>2025-10-11T00:09:27Z</time></trkpt><trkpt lat="33.8798385" lon="133.5587326"><ele>1338.7266666666667</ele><time>2025-10-11T00:10:03Z</time></trkpt><trkpt lat="33.8796241" lon="133.5587281"><ele>1333.1499999999999</ele><time>2025-10-11T00:10:27Z</time></trkpt><trkpt lat="33.8794162" lon="133.5587502"><ele>1331.4866666666667</ele><time>2025-10-11T00:10:48Z</time></trkpt><trkpt lat="33.879306" lon="133.5589477"><ele>1331.9833333333333</ele><time>2025-10-11T00:12:03Z</time></trkpt><trkpt lat="33.8792091" lon="133.5591461"><ele>1333.7833333333333</ele><time>2025-10-11T00:12:42Z</time></trkpt><trkpt lat="33.8791427" lon="133.5593648"><ele>1333.3733333333332</ele><time>2025-10-11T00:13:12Z</time></trkpt><trkpt lat="33.879081" lon="133.5595719"><ele>1332.0</ele><time>2025-10-11T00:13:30Z</time></trkpt><trkpt lat="33.879023" lon="133.5597922"><ele>1330.1000000000001</ele><time>2025-10-11T00:13:51Z</time></trkpt><trkpt lat="33.8789088" lon="133.5599606"><ele>1328.966666666667</ele><time>2025-10-11T00:14:24Z</time></trkpt><trkpt lat="33.8787839" lon="133.5601184"><ele>1328.66</ele><time>2025-10-11T00:14:45Z</time></trkpt><trkpt lat="33.8786463" lon="133.5602733"><ele>1329.95</ele><time>2025-10-11T00:15:03Z</time></trkpt><trkpt lat="33.8784769" lon="133.5604023"><ele>1331.79</ele><time>2025-10-11T00:15:24Z</time></trkpt><trkpt lat="33.8783617" lon="133.5605732"><ele>1333.3999999999999</ele><time>2025-10-11T00:15:51Z</time></trkpt><trkpt lat="33.8782064" lon="133.5606971"><ele>1334.0966666666666</ele><time>2025-10-11T00:16:09Z</time></trkpt><trkpt lat="33.8781557" lon="133.5609137"><ele>1333.6000000000001</ele><time>2025-10-11T00:16:27Z</time></trkpt><trkpt lat="33.8782258" lon="133.5611154"><ele>1332.47</ele><time>2025-10-11T00:16:45Z</time></trkpt><trkpt lat="33.8780388" lon="133.5610851"><ele>1332.1766666666665</ele><time>2025-10-11T00:19:48Z</time></trkpt><trkpt lat="33.8778631" lon="133.5610065"><ele>1333.2433333333333</ele><time>2025-10-11T00:20:12Z</time></trkpt><trkpt lat="33.8776996" lon="133.5608862"><ele>1335.3033333333333</ele><time>2025-10-11T00:20:33Z</time></trkpt><trkpt lat="33.8775298" lon="133.5608003"><ele>1337.2166666666667</ele><time>2025-10-11T00:20:54Z</time></trkpt><trkpt lat="33.8773306" lon="133.5607664"><ele>1338.5933333333332</ele><time>2025-10-11T00:21:18Z</time></trkpt><trkpt lat="33.8771349" lon="133.5608285"><ele>1340.7833333333335</ele><time>2025-10-11T00:21:48Z</time></trkpt><trkpt lat="33.8770011" lon="133.5610009"><ele>1343.4799999999998</ele><time>2025-10-11T00:22:06Z</time></trkpt><trkpt lat="33.8769109" lon="133.561191"><ele>1346.2966666666669</ele><time>2025-10-11T00:22:24Z</time></trkpt><trkpt lat="33.8769323" lon="133.5614239"><ele>1347.2233333333334</ele><time>2025-10-11T00:22:51Z</time></trkpt><trkpt lat="33.876965" lon="133.5616665"><ele>1346.8566666666668</ele><time>2025-10-11T00:23:09Z</time></trkpt><trkpt lat="33.8769624" lon="133.5619077"><ele>1346.0133333333333</ele><time>2025-10-11T00:23:27Z</time></trkpt><trkpt lat="33.8769333" lon="133.5621546"><ele>1344.5500000000002</ele><time>2025-10-11T00:23:45Z</time></trkpt><trkpt lat="33.8768912" lon="133.5623691"><ele>1341.0800000000002</ele><time>2025-10-11T00:24:06Z</time></trkpt><trkpt lat="33.8768433" lon="133.5626137"><ele>1335.26</ele><time>2025-10-11T00:24:30Z</time></trkpt><trkpt lat="33.8767815" lon="133.562831"><ele>1330.07</ele><time>2025-10-11T00:24:51Z</time></trkpt><trkpt lat="33.8766823" lon="133.5630208"><ele>1326.7</ele><time>2025-10-11T00:25:12Z</time></trkpt><trkpt lat="33.8764973" lon="133.5630901"><ele>1325.5233333333335</ele><time>2025-10-11T00:25:36Z</time></trkpt><trkpt lat="33.8763152" lon="133.5631037"><ele>1324.99</ele><time>2025-10-11T00:26:03Z</time></trkpt><trkpt lat="33.8762637" lon="133.5633324"><ele>1322.1233333333337</ele><time>2025-10-11T00:26:57Z</time></trkpt><trkpt lat="33.87636" lon="133.5635341"><ele>1317.5566666666668</ele><time>2025-10-11T00:27:21Z</time></trkpt><trkpt lat="33.8763544" lon="133.5637756"><ele>1310.52</ele><time>2025-10-11T00:27:42Z</time></trkpt><trkpt lat="33.8762415" lon="133.5639528"><ele>1305.54</ele><time>2025-10-11T00:28:03Z</time></trkpt><trkpt lat="33.8760749" lon="133.5640629"><ele>1301.6166666666668</ele><time>2025-10-11T00:28:27Z</time></trkpt><trkpt lat="33.8759072" lon="133.5642373"><ele>1299.1533333333334</ele><time>2025-10-11T00:28:45Z</time></trkpt><trkpt lat="33.8757769" lon="133.5644005"><ele>1296.756666666667</ele><time>2025-10-11T00:29:03Z</time></trkpt><trkpt lat="33.875604" lon="133.5645084"><ele>1296.1533333333334</ele><time>2025-10-11T00:29:36Z</time></trkpt><trkpt lat="33.8754298" lon="133.5646198"><ele>1297.1899999999998</ele><time>2025-10-11T00:29:57Z</time></trkpt><trkpt lat="33.8753321" lon="133.5648356"><ele>1296.97</ele><time>2025-10-11T00:30:15Z</time></trkpt><trkpt lat="33.8752373" lon="133.5650481"><ele>1294.0966666666666</ele><time>2025-10-11T00:30:36Z</time></trkpt><trkpt lat="33.8751681" lon="133.565262"><ele>1288.0633333333335</ele><time>2025-10-11T00:32:21Z</time></trkpt><trkpt lat="33.8751534" lon="133.5655093"><ele>1282.5633333333333</ele><time>2025-10-11T00:32:51Z</time></trkpt><trkpt lat="33.8750054" lon="133.5656373"><ele>1278.5766666666666</ele><time>2025-10-11T00:33:39Z</time></trkpt><trkpt lat="33.8749527" lon="133.5658563"><ele>1278.0900000000001</ele><time>2025-10-11T00:34:09Z</time></trkpt><trkpt lat="33.8748652" lon="133.5660519"><ele>1278.94</ele><time>2025-10-11T00:34:36Z</time></trkpt><trkpt lat="33.8747896" lon="133.5662695"><ele>1280.2166666666667</ele><time>2025-10-11T00:35:06Z</time></trkpt><trkpt lat="33.8747577" lon="133.5664886"><ele>1278.4366666666667</ele><time>2025-10-11T00:35:27Z</time></trkpt><trkpt lat="33.8747161" lon="133.5667363"><ele>1275.8733333333332</ele><time>2025-10-11T00:35:48Z</time></trkpt><trkpt lat="33.8746668" lon="133.5669613"><ele>1273.3000000000002</ele><time>2025-10-11T00:36:06Z</time></trkpt><trkpt lat="33.8745725" lon="133.5671532"><ele>1273.6666666666667</ele><time>2025-10-11T00:36:27Z</time></trkpt><trkpt lat="33.8744203" lon="133.5672974"><ele>1276.1866666666667</ele><time>2025-10-11T00:38:33Z</time></trkpt><trkpt lat="33.8742983" lon="133.5674568"><ele>1278.8066666666666</ele><time>2025-10-11T00:39:00Z</time></trkpt><trkpt lat="33.8741989" lon="133.5676383"><ele>1276.0533333333333</ele><time>2025-10-11T00:40:00Z</time></trkpt><trkpt lat="33.8741186" lon="133.5678319"><ele>1266.4</ele><time>2025-10-11T00:41:06Z</time></trkpt><trkpt lat="33.874023" lon="133.568037"><ele>1252.9366666666667</ele><time>2025-10-11T00:41:36Z</time></trkpt><trkpt lat="33.8739206" lon="133.5682319"><ele>1242.4466666666667</ele><time>2025-10-11T00:42:03Z</time></trkpt><trkpt lat="33.8737916" lon="133.5683914"><ele>1236.0166666666667</ele><time>2025-10-11T00:42:24Z</time></trkpt><trkpt lat="33.8737142" lon="133.5685971"><ele>1232.3266666666666</ele><time>2025-10-11T00:42:54Z</time></trkpt><trkpt lat="33.8736572" lon="133.5688257"><ele>1227.7033333333331</ele><time>2025-10-11T00:43:27Z</time></trkpt><trkpt lat="33.8736065" lon="133.5690524"><ele>1222.8100000000002</ele><time>2025-10-11T00:43:57Z</time></trkpt><trkpt lat="33.8735048" lon="133.5692362"><ele>1219.1133333333335</ele><time>2025-10-11T00:45:45Z</time></trkpt><trkpt lat="33.8733426" lon="133.5693487"><ele>1218.8233333333335</ele><time>2025-10-11T00:46:09Z</time></trkpt><trkpt lat="33.8732023" lon="133.5695141"><ele>1222.3500000000001</ele><time>2025-10-11T00:46:45Z</time></trkpt><trkpt lat="33.8730643" lon="133.5696751"><ele>1227.17</ele><time>2025-10-11T00:47:15Z</time></trkpt><trkpt lat="33.8728879" lon="133.5697239"><ele>1233.1499999999999</ele><time>2025-10-11T00:47:57Z</time></trkpt><trkpt lat="33.8727162" lon="133.5698087"><ele>1237.7766666666666</ele><time>2025-10-11T00:48:42Z</time></trkpt><trkpt lat="33.8726329" lon="133.5700177"><ele>1240.3933333333334</ele><time>2025-10-11T00:49:06Z</time></trkpt><trkpt lat="33.8724705" lon="133.5701183"><ele>1238.09</ele><time>2025-10-11T00:50:33Z</time></trkpt><trkpt lat="33.8724034" lon="133.5703307"><ele>1232.8166666666668</ele><time>2025-10-11T00:51:36Z</time></trkpt><trkpt lat="33.8724009" lon="133.5705676"><ele>1227.49</ele><time>2025-10-11T00:52:06Z</time></trkpt><trkpt lat="33.8723599" lon="133.5707865"><ele>1224.15</ele><time>2025-10-11T00:52:33Z</time></trkpt><trkpt lat="33.8723849" lon="133.5710154"><ele>1223.2233333333334</ele><time>2025-10-11T00:53:54Z</time></trkpt><trkpt lat="33.8722408" lon="133.5711783"><ele>1222.7366666666667</ele><time>2025-10-11T00:54:57Z</time></trkpt><trkpt lat="33.8721407" lon="133.571375"><ele>1223.7266666666667</ele><time>2025-10-11T00:55:21Z</time></trkpt><trkpt lat="33.8722223" lon="133.5715892"><ele>1224.9433333333334</ele><time>2025-10-11T00:55:51Z</time></trkpt><trkpt lat="33.8721745" lon="133.5718119"><ele>1227.38</ele><time>2025-10-11T00:56:18Z</time></trkpt><trkpt lat="33.8721811" lon="133.5720568"><ele>1229.7466666666667</ele><time>2025-10-11T00:56:39Z</time></trkpt><trkpt lat="33.8722076" lon="133.5722712"><ele>1231.2600000000002</ele><time>2025-10-11T00:57:00Z</time></trkpt><trkpt lat="33.8722057" lon="133.5724992"><ele>1232.3866666666665</ele><time>2025-10-11T00:58:03Z</time></trkpt><trkpt lat="33.8721771" lon="133.5727316"><ele>1234.0866666666668</ele><time>2025-10-11T00:58:27Z</time></trkpt><trkpt lat="33.8721565" lon="133.5729471"><ele>1236.0466666666666</ele><time>2025-10-11T00:58:45Z</time></trkpt><trkpt lat="33.8720628" lon="133.573135"><ele>1237.5766666666668</ele><time>2025-10-11T00:59:06Z</time></trkpt><trkpt lat="33.8719281" lon="133.5732876"><ele>1238.9933333333333</ele><time>2025-10-11T00:59:27Z</time></trkpt><trkpt lat="33.871888" lon="133.5735194"><ele>1241.0766666666666</ele><time>2025-10-11T00:59:45Z</time></trkpt><trkpt lat="33.8717742" lon="133.5736885"><ele>1243.7766666666666</ele><time>2025-10-11T01:00:15Z</time></trkpt><trkpt lat="33.8716054" lon="133.5737778"><ele>1247.5633333333335</ele><time>2025-10-11T01:01:15Z</time></trkpt><trkpt lat="33.8714594" lon="133.5739339"><ele>1251.89</ele><time>2025-10-11T01:14:39Z</time></trkpt><trkpt lat="33.871323" lon="133.5740865"><ele>1256.7866666666669</ele><time>2025-10-11T01:15:12Z</time></trkpt><trkpt lat="33.8712259" lon="133.5742764"><ele>1260.3166666666668</ele><time>2025-10-11T01:15:42Z</time></trkpt><trkpt lat="33.8710929" lon="133.5744452"><ele>1264.9566666666667</ele><time>2025-10-11T01:16:15Z</time></trkpt><trkpt lat="33.8709718" lon="133.5746059"><ele>1270.3700000000001</ele><time>2025-10-11T01:16:42Z</time></trkpt><trkpt lat="33.8708467" lon="133.5747722"><ele>1275.68</ele><time>2025-10-11T01:17:12Z</time></trkpt><trkpt lat="33.8707881" lon="133.5749908"><ele>1279.14</ele><time>2025-10-11T01:17:51Z</time></trkpt><trkpt lat="33.8706081" lon="133.5750057"><ele>1282.8966666666668</ele><time>2025-10-11T01:18:54Z</time></trkpt><trkpt lat="33.8704237" lon="133.575047"><ele>1287.0333333333333</ele><time>2025-10-11T01:19:39Z</time></trkpt><trkpt lat="33.8702947" lon="133.5752111"><ele>1291.3466666666666</ele><time>2025-10-11T01:20:36Z</time></trkpt><trkpt lat="33.8702879" lon="133.5754382"><ele>1292.5733333333335</ele><time>2025-10-11T01:21:18Z</time></trkpt><trkpt lat="33.8702805" lon="133.5756778"><ele>1291.8433333333332</ele><time>2025-10-11T01:21:39Z</time></trkpt><trkpt lat="33.8701833" lon="133.5758825"><ele>1292.3666666666666</ele><time>2025-10-11T01:22:03Z</time></trkpt><trkpt lat="33.8701353" lon="133.5761105"><ele>1293.4266666666665</ele><time>2025-10-11T01:22:33Z</time></trkpt><trkpt lat="33.870073" lon="133.5763211"><ele>1296.5133333333333</ele><time>2025-10-11T01:23:15Z</time></trkpt><trkpt lat="33.8699991" lon="133.5765196"><ele>1299.9033333333334</ele><time>2025-10-11T01:23:45Z</time></trkpt><trkpt lat="33.8698415" lon="133.5766387"><ele>1306.3766666666668</ele><time>2025-10-11T01:25:00Z</time></trkpt><trkpt lat="33.8697398" lon="133.5768199"><ele>1312.6466666666665</ele><time>2025-10-11T01:25:51Z</time></trkpt><trkpt lat="33.869677" lon="133.5770265"><ele>1318.16</ele><time>2025-10-11T01:26:27Z</time></trkpt><trkpt lat="33.8696184" lon="133.5772396"><ele>1322.14</ele><time>2025-10-11T01:26:51Z</time></trkpt><trkpt lat="33.8696022" lon="133.5774587"><ele>1325.21</ele><time>2025-10-11T01:27:18Z</time></trkpt><trkpt lat="33.869481" lon="133.5776362"><ele>1329.2266666666667</ele><time>2025-10-11T01:29:06Z</time></trkpt><trkpt lat="33.8693605" lon="133.5778091"><ele>1332.8866666666665</ele><time>2025-10-11T01:30:00Z</time></trkpt><trkpt lat="33.8693062" lon="133.5780288"><ele>1337.7733333333333</ele><time>2025-10-11T01:30:42Z</time></trkpt><trkpt lat="33.8691833" lon="133.578195"><ele>1342.39</ele><time>2025-10-11T01:31:30Z</time></trkpt><trkpt lat="33.8690166" lon="133.5782967"><ele>1348.1633333333334</ele><time>2025-10-11T01:33:03Z</time></trkpt><trkpt lat="33.8689291" lon="133.5784891"><ele>1353.2</ele><time>2025-10-11T01:33:30Z</time></trkpt><trkpt lat="33.868873" lon="133.5787105"><ele>1356.3466666666666</ele><time>2025-10-11T01:34:03Z</time></trkpt><trkpt lat="33.8688749" lon="133.5789445"><ele>1355.8633333333335</ele><time>2025-10-11T01:34:24Z</time></trkpt><trkpt lat="33.8688057" lon="133.5791516"><ele>1354.76</ele><time>2025-10-11T01:35:24Z</time></trkpt><trkpt lat="33.8687429" lon="133.5793739"><ele>1353.6133333333335</ele><time>2025-10-11T01:35:48Z</time></trkpt><trkpt lat="33.8686253" lon="133.5795576"><ele>1353.5</ele><time>2025-10-11T01:36:24Z</time></trkpt><trkpt lat="33.8685891" lon="133.5797879"><ele>1353.5500000000002</ele><time>2025-10-11T01:36:54Z</time></trkpt><trkpt lat="33.8686386" lon="133.5800232"><ele>1353.2966666666669</ele><time>2025-10-11T01:37:24Z</time></trkpt><trkpt lat="33.8687228" lon="133.5802269"><ele>1353.8166666666668</ele><time>2025-10-11T01:37:51Z</time></trkpt><trkpt lat="33.8686893" lon="133.5804468"><ele>1354.996666666667</ele><time>2025-10-11T01:38:45Z</time></trkpt><trkpt lat="33.868635" lon="133.5806628"><ele>1357.9233333333334</ele><time>2025-10-11T01:39:18Z</time></trkpt><trkpt lat="33.8686491" lon="133.5808975"><ele>1364.3233333333335</ele><time>2025-10-11T01:40:24Z</time></trkpt><trkpt lat="33.8685309" lon="133.5810662"><ele>1373.2133333333334</ele><time>2025-10-11T01:41:39Z</time></trkpt><trkpt lat="33.868415" lon="133.5812386"><ele>1381.9166666666667</ele><time>2025-10-11T01:42:48Z</time></trkpt><trkpt lat="33.8684804" lon="133.5814427"><ele>1389.2333333333333</ele><time>2025-10-11T01:44:21Z</time></trkpt><trkpt lat="33.8685497" lon="133.5816506"><ele>1397.256666666667</ele><time>2025-10-11T01:46:33Z</time></trkpt><trkpt lat="33.8684939" lon="133.5818641"><ele>1406.42</ele><time>2025-10-11T01:47:33Z</time></trkpt><trkpt lat="33.8684743" lon="133.5820903"><ele>1416.2666666666667</ele><time>2025-10-11T01:48:36Z</time></trkpt><trkpt lat="33.8683426" lon="133.5822446"><ele>1422.8966666666668</ele><time>2025-10-11T01:49:39Z</time></trkpt><trkpt lat="33.8681899" lon="133.5823646"><ele>1429.1666666666667</ele><time>2025-10-11T01:50:36Z</time></trkpt><trkpt lat="33.8680858" lon="133.5825584"><ele>1434.6666666666667</ele><time>2025-10-11T01:51:48Z</time></trkpt><trkpt lat="33.8679604" lon="133.5827363"><ele>1439.7366666666667</ele><time>2025-10-11T01:52:39Z</time></trkpt><trkpt lat="33.867799" lon="133.5828435"><ele>1442.7266666666667</ele><time>2025-10-11T01:53:09Z</time></trkpt><trkpt lat="33.867662" lon="133.5829936"><ele>1445.7033333333336</ele><time>2025-10-11T01:54:27Z</time></trkpt><trkpt lat="33.8677482" lon="133.5827925"><ele>1445.6433333333334</ele><time>2025-10-11T02:16:36Z</time></trkpt><trkpt lat="33.8679077" lon="133.5826431"><ele>1444.2633333333333</ele><time>2025-10-11T02:19:42Z</time></trkpt><trkpt lat="33.8680487" lon="133.5824919"><ele>1440.0600000000002</ele><time>2025-10-11T02:20:06Z</time></trkpt><trkpt lat="33.8682161" lon="133.5823821"><ele>1437.3666666666668</ele><time>2025-10-11T02:20:33Z</time></trkpt><trkpt lat="33.8683742" lon="133.5822445"><ele>1433.7333333333333</ele><time>2025-10-11T02:21:03Z</time></trkpt><trkpt lat="33.8684632" lon="133.5820275"><ele>1428.4433333333334</ele><time>2025-10-11T02:21:30Z</time></trkpt><trkpt lat="33.8685724" lon="133.5818427"><ele>1421.9366666666665</ele><time>2025-10-11T02:21:54Z</time></trkpt><trkpt lat="33.8686432" lon="133.581623"><ele>1414.4233333333332</ele><time>2025-10-11T02:22:21Z</time></trkpt><trkpt lat="33.8687046" lon="133.5814101"><ele>1406.99</ele><time>2025-10-11T02:22:42Z</time></trkpt><trkpt lat="33.8688189" lon="133.5812307"><ele>1399.6033333333332</ele><time>2025-10-11T02:23:12Z</time></trkpt><trkpt lat="33.8688869" lon="133.5810266"><ele>1389.9233333333332</ele><time>2025-10-11T02:24:33Z</time></trkpt><trkpt lat="33.868844" lon="133.5808038"><ele>1379.8066666666666</ele><time>2025-10-11T02:26:39Z</time></trkpt><trkpt lat="33.8687462" lon="133.5806221"><ele>1369.4800000000002</ele><time>2025-10-11T02:27:18Z</time></trkpt><trkpt lat="33.868752" lon="133.5803833"><ele>1362.9366666666667</ele><time>2025-10-11T02:27:45Z</time></trkpt><trkpt lat="33.8687586" lon="133.5801308"><ele>1357.6000000000001</ele><time>2025-10-11T02:28:06Z</time></trkpt><trkpt lat="33.8686616" lon="133.5799349"><ele>1354.5833333333333</ele><time>2025-10-11T02:28:27Z</time></trkpt><trkpt lat="33.8686184" lon="133.5797113"><ele>1353.4866666666667</ele><time>2025-10-11T02:28:54Z</time></trkpt><trkpt lat="33.8686213" lon="133.5794901"><ele>1353.1633333333332</ele><time>2025-10-11T02:29:18Z</time></trkpt><trkpt lat="33.8686824" lon="133.5792821"><ele>1353.1733333333334</ele><time>2025-10-11T02:29:42Z</time></trkpt><trkpt lat="33.8687674" lon="133.5790752"><ele>1353.35</ele><time>2025-10-11T02:30:21Z</time></trkpt><trkpt lat="33.8689008" lon="133.5789187"><ele>1353.6066666666666</ele><time>2025-10-11T02:30:57Z</time></trkpt><trkpt lat="33.8690095" lon="133.5787301"><ele>1352.7266666666667</ele><time>2025-10-11T02:31:15Z</time></trkpt><trkpt lat="33.8690829" lon="133.5785095"><ele>1350.9833333333333</ele><time>2025-10-11T02:31:36Z</time></trkpt><trkpt lat="33.8691221" lon="133.5782643"><ele>1350.1333333333334</ele><time>2025-10-11T02:32:00Z</time></trkpt><trkpt lat="33.8691494" lon="133.5780468"><ele>1349.3233333333335</ele><time>2025-10-11T02:32:24Z</time></trkpt><trkpt lat="33.869146" lon="133.5778085"><ele>1349.2133333333334</ele><time>2025-10-11T02:32:48Z</time></trkpt><trkpt lat="33.8691434" lon="133.5775733"><ele>1348.5900000000001</ele><time>2025-10-11T02:33:15Z</time></trkpt><trkpt lat="33.8692173" lon="133.5773623"><ele>1346.7833333333335</ele><time>2025-10-11T02:33:45Z</time></trkpt><trkpt lat="33.8692871" lon="133.5771561"><ele>1343.2666666666667</ele><time>2025-10-11T02:34:03Z</time></trkpt><trkpt lat="33.8693486" lon="133.57694"><ele>1338.8033333333333</ele><time>2025-10-11T02:35:21Z</time></trkpt><trkpt lat="33.8693462" lon="133.5767155"><ele>1337.6533333333334</ele><time>2025-10-11T02:36:00Z</time></trkpt><trkpt lat="33.8694135" lon="133.5764997"><ele>1336.7866666666666</ele><time>2025-10-11T02:37:00Z</time></trkpt><trkpt lat="33.8694527" lon="133.5762659"><ele>1335.2566666666664</ele><time>2025-10-11T02:37:39Z</time></trkpt><trkpt lat="33.8695213" lon="133.5760437"><ele>1331.22</ele><time>2025-10-11T02:38:12Z</time></trkpt><trkpt lat="33.8696511" lon="133.5758607"><ele>1326.2033333333331</ele><time>2025-10-11T02:38:45Z</time></trkpt><trkpt lat="33.8697477" lon="133.5756779"><ele>1322.21</ele><time>2025-10-11T02:39:06Z</time></trkpt><trkpt lat="33.8698473" lon="133.5754884"><ele>1317.67</ele><time>2025-10-11T02:39:39Z</time></trkpt><trkpt lat="33.8699681" lon="133.5753005"><ele>1313.76</ele><time>2025-10-11T02:40:12Z</time></trkpt><trkpt lat="33.8700386" lon="133.575082"><ele>1309.3066666666666</ele><time>2025-10-11T02:40:36Z</time></trkpt><trkpt lat="33.8701832" lon="133.5749391"><ele>1304.86</ele><time>2025-10-11T02:41:03Z</time></trkpt><trkpt lat="33.8702907" lon="133.5747593"><ele>1300.95</ele><time>2025-10-11T02:41:39Z</time></trkpt><trkpt lat="33.8704071" lon="133.5745716"><ele>1297.51</ele><time>2025-10-11T02:42:12Z</time></trkpt><trkpt lat="33.8704962" lon="133.574372"><ele>1294.2166666666667</ele><time>2025-10-11T02:42:30Z</time></trkpt><trkpt lat="33.8705848" lon="133.5741836"><ele>1291.0866666666668</ele><time>2025-10-11T02:42:51Z</time></trkpt><trkpt lat="33.8706578" lon="133.5739722"><ele>1288.1433333333334</ele><time>2025-10-11T02:43:15Z</time></trkpt><trkpt lat="33.8707519" lon="133.5737811"><ele>1286.4566666666667</ele><time>2025-10-11T02:44:06Z</time></trkpt><trkpt lat="33.8708699" lon="133.5736137"><ele>1284.2333333333333</ele><time>2025-10-11T02:44:42Z</time></trkpt><trkpt lat="33.8709419" lon="133.5733834"><ele>1282.87</ele><time>2025-10-11T02:45:15Z</time></trkpt><trkpt lat="33.8709952" lon="133.5731607"><ele>1281.6966666666667</ele><time>2025-10-11T02:46:06Z</time></trkpt><trkpt lat="33.8711018" lon="133.572965"><ele>1281.3066666666666</ele><time>2025-10-11T02:46:30Z</time></trkpt><trkpt lat="33.8711822" lon="133.5727448"><ele>1278.9433333333334</ele><time>2025-10-11T02:46:57Z</time></trkpt><trkpt lat="33.8712512" lon="133.5725097"><ele>1274.4133333333334</ele><time>2025-10-11T02:47:24Z</time></trkpt><trkpt lat="33.8713442" lon="133.572318"><ele>1267.3566666666668</ele><time>2025-10-11T02:47:51Z</time></trkpt><trkpt lat="33.8714519" lon="133.5721305"><ele>1259.99</ele><time>2025-10-11T02:48:18Z</time></trkpt><trkpt lat="33.871517" lon="133.5719231"><ele>1252.3366666666666</ele><time>2025-10-11T02:49:03Z</time></trkpt><trkpt lat="33.8716993" lon="133.5718835"><ele>1245.5966666666666</ele><time>2025-10-11T02:49:33Z</time></trkpt><trkpt lat="33.8718426" lon="133.5717439"><ele>1238.32</ele><time>2025-10-11T02:49:57Z</time></trkpt><trkpt lat="33.8719983" lon="133.5715936"><ele>1232.3466666666666</ele><time>2025-10-11T02:50:21Z</time></trkpt><trkpt lat="33.8721211" lon="133.571415"><ele>1227.8566666666668</ele><time>2025-10-11T02:50:39Z</time></trkpt><trkpt lat="33.8723103" lon="133.5713674"><ele>1225.6433333333334</ele><time>2025-10-11T02:51:12Z</time></trkpt><trkpt lat="33.8724506" lon="133.5711744"><ele>1224.2333333333333</ele><time>2025-10-11T02:51:36Z</time></trkpt><trkpt lat="33.8723784" lon="133.5709358"><ele>1223.56</ele><time>2025-10-11T02:51:57Z</time></trkpt><trkpt lat="33.8722973" lon="133.5707269"><ele>1222.2900000000002</ele><time>2025-10-11T02:52:33Z</time></trkpt><trkpt lat="33.8722434" lon="133.5705173"><ele>1220.3100000000002</ele><time>2025-10-11T02:53:45Z</time></trkpt><trkpt lat="33.8720839" lon="133.5706482"><ele>1216.1166666666666</ele><time>2025-10-11T02:54:36Z</time></trkpt><trkpt lat="33.8719555" lon="133.5704888"><ele>1209.34</ele><time>2025-10-11T02:55:42Z</time></trkpt><trkpt lat="33.8719634" lon="133.5702727"><ele>1202.7833333333335</ele><time>2025-10-11T02:56:12Z</time></trkpt><trkpt lat="33.8717513" lon="133.5702518"><ele>1196.3999999999999</ele><time>2025-10-11T02:56:33Z</time></trkpt><trkpt lat="33.8715751" lon="133.5701698"><ele>1192.3233333333335</ele><time>2025-10-11T02:56:57Z</time></trkpt><trkpt lat="33.871399" lon="133.5700744"><ele>1189.0566666666666</ele><time>2025-10-11T02:57:18Z</time></trkpt><trkpt lat="33.8712664" lon="133.5699024"><ele>1185.69</ele><time>2025-10-11T02:57:57Z</time></trkpt><trkpt lat="33.8711147" lon="133.569779"><ele>1182.1066666666668</ele><time>2025-10-11T02:58:15Z</time></trkpt><trkpt lat="33.8710244" lon="133.5695598"><ele>1179.0866666666668</ele><time>2025-10-11T02:59:30Z</time></trkpt><trkpt lat="33.8709812" lon="133.5693291"><ele>1178.45</ele><time>2025-10-11T02:59:48Z</time></trkpt><trkpt lat="33.8709988" lon="133.5690966"><ele>1175.6900000000003</ele><time>2025-10-11T03:00:06Z</time></trkpt><trkpt lat="33.8709471" lon="133.5688558"><ele>1172.5033333333333</ele><time>2025-10-11T03:00:24Z</time></trkpt><trkpt lat="33.870899" lon="133.5686278"><ele>1170.3500000000001</ele><time>2025-10-11T03:00:39Z</time></trkpt><trkpt lat="33.8708899" lon="133.5683839"><ele>1170.0633333333333</ele><time>2025-10-11T03:00:57Z</time></trkpt><trkpt lat="33.870927" lon="133.5681422"><ele>1167.5066666666667</ele><time>2025-10-11T03:01:15Z</time></trkpt><trkpt lat="33.8709244" lon="133.5679105"><ele>1163.033333333333</ele><time>2025-10-11T03:01:33Z</time></trkpt><trkpt lat="33.8708351" lon="133.5677002"><ele>1160.18</ele><time>2025-10-11T03:02:00Z</time></trkpt><trkpt lat="33.8706496" lon="133.5676904"><ele>1159.6333333333332</ele><time>2025-10-11T03:02:18Z</time></trkpt><trkpt lat="33.8708019" lon="133.567538"><ele>1157.5166666666667</ele><time>2025-10-11T03:02:54Z</time></trkpt><trkpt lat="33.8709559" lon="133.5674141"><ele>1153.3933333333334</ele><time>2025-10-11T03:03:12Z</time></trkpt><trkpt lat="33.8710945" lon="133.5675608"><ele>1148.6966666666667</ele><time>2025-10-11T03:03:27Z</time></trkpt><trkpt lat="33.8711303" lon="133.5673387"><ele>1143.5633333333333</ele><time>2025-10-11T03:05:06Z</time></trkpt><trkpt lat="33.8709615" lon="133.5672058"><ele>1139.3766666666668</ele><time>2025-10-11T03:05:27Z</time></trkpt><trkpt lat="33.8707742" lon="133.5672085"><ele>1135.533333333333</ele><time>2025-10-11T03:05:48Z</time></trkpt><trkpt lat="33.8706029" lon="133.5673369"><ele>1135.8766666666668</ele><time>2025-10-11T03:06:36Z</time></trkpt><trkpt lat="33.8704342" lon="133.5672462"><ele>1135.49</ele><time>2025-10-11T03:06:54Z</time></trkpt><trkpt lat="33.8703575" lon="133.5674761"><ele>1137.5033333333333</ele><time>2025-10-11T03:07:12Z</time></trkpt><trkpt lat="33.8702422" lon="133.5676816"><ele>1136.6933333333334</ele><time>2025-10-11T03:07:30Z</time></trkpt><trkpt lat="33.8700374" lon="133.5676637"><ele>1135.1666666666667</ele><time>2025-10-11T03:07:48Z</time></trkpt><trkpt lat="33.8698513" lon="133.5676125"><ele>1128.0366666666669</ele><time>2025-10-11T03:08:03Z</time></trkpt><trkpt lat="33.869646" lon="133.5676365"><ele>1119.8700000000001</ele><time>2025-10-11T03:08:24Z</time></trkpt><trkpt lat="33.869565" lon="133.5678406"><ele>1117.6033333333335</ele><time>2025-10-11T03:08:39Z</time></trkpt><trkpt lat="33.8695417" lon="133.56806"><ele>1120.57</ele><time>2025-10-11T03:09:21Z</time></trkpt><trkpt lat="33.8693845" lon="133.5681812"><ele>1126.1566666666668</ele><time>2025-10-11T03:09:36Z</time></trkpt><trkpt lat="33.8692214" lon="133.5683276"><ele>1127.0133333333335</ele><time>2025-10-11T03:09:54Z</time></trkpt><trkpt lat="33.8690411" lon="133.5682272"><ele>1124.1966666666667</ele><time>2025-10-11T03:10:15Z</time></trkpt><trkpt lat="33.8689756" lon="133.5680153"><ele>1117.6566666666665</ele><time>2025-10-11T03:10:33Z</time></trkpt><trkpt lat="33.8688237" lon="133.5678973"><ele>1107.1766666666665</ele><time>2025-10-11T03:10:51Z</time></trkpt><trkpt lat="33.8686967" lon="133.5680751"><ele>1101.86</ele><time>2025-10-11T03:11:24Z</time></trkpt><trkpt lat="33.8685687" lon="133.5682278"><ele>1103.5700000000002</ele><time>2025-10-11T03:11:57Z</time></trkpt><trkpt lat="33.8683606" lon="133.5682545"><ele>1107.9399999999998</ele><time>2025-10-11T03:12:18Z</time></trkpt><trkpt lat="33.8681804" lon="133.568221"><ele>1107.9733333333334</ele><time>2025-10-11T03:12:33Z</time></trkpt><trkpt lat="33.8680109" lon="133.5683359"><ele>1104.2766666666666</ele><time>2025-10-11T03:12:51Z</time></trkpt><trkpt lat="33.8678368" lon="133.5683929"><ele>1101.7</ele><time>2025-10-11T03:13:18Z</time></trkpt><trkpt lat="33.8679036" lon="133.5681605"><ele>1098.5466666666669</ele><time>2025-10-11T03:13:42Z</time></trkpt><trkpt lat="33.8680965" lon="133.5680448"><ele>1095.92</ele><time>2025-10-11T03:14:00Z</time></trkpt><trkpt lat="33.868292" lon="133.567987"><ele>1093.68</ele><time>2025-10-11T03:14:21Z</time></trkpt><trkpt lat="33.868452" lon="133.5678473"><ele>1091.4133333333334</ele><time>2025-10-11T03:14:36Z</time></trkpt><trkpt lat="33.8685435" lon="133.5676472"><ele>1087.54</ele><time>2025-10-11T03:14:51Z</time></trkpt><trkpt lat="33.8687338" lon="133.5675743"><ele>1085.2433333333333</ele><time>2025-10-11T03:15:06Z</time></trkpt><trkpt lat="33.8689317" lon="133.5675851"><ele>1083.2033333333331</ele><time>2025-10-11T03:15:21Z</time></trkpt><trkpt lat="33.8691305" lon="133.5676358"><ele>1081.3233333333335</ele><time>2025-10-11T03:15:36Z</time></trkpt><trkpt lat="33.8692516" lon="133.5674302"><ele>1077.49</ele><time>2025-10-11T03:15:54Z</time></trkpt><trkpt lat="33.8693706" lon="133.5672125"><ele>1075.01</ele><time>2025-10-11T03:16:12Z</time></trkpt><trkpt lat="33.8695078" lon="133.5670373"><ele>1072.44</ele><time>2025-10-11T03:16:27Z</time></trkpt><trkpt lat="33.8696888" lon="133.5669991"><ele>1070.7366666666667</ele><time>2025-10-11T03:16:42Z</time></trkpt><trkpt lat="33.8697597" lon="133.566792"><ele>1067.3633333333335</ele><time>2025-10-11T03:17:00Z</time></trkpt><trkpt lat="33.8698185" lon="133.5665778"><ele>1065.1000000000001</ele><time>2025-10-11T03:17:15Z</time></trkpt><trkpt lat="33.8699425" lon="133.5663672"><ele>1061.6766666666667</ele><time>2025-10-11T03:17:33Z</time></trkpt><trkpt lat="33.8700889" lon="133.5662213"><ele>1059.21</ele><time>2025-10-11T03:17:48Z</time></trkpt><trkpt lat="33.8702741" lon="133.5661282"><ele>1056.7</ele><time>2025-10-11T03:18:03Z</time></trkpt><trkpt lat="33.870469" lon="133.5660463"><ele>1055.2566666666667</ele><time>2025-10-11T03:18:21Z</time></trkpt><trkpt lat="33.8706504" lon="133.5660063"><ele>1054.87</ele><time>2025-10-11T03:18:36Z</time></trkpt><trkpt lat="33.8706808" lon="133.5657689"><ele>1054.8133333333335</ele><time>2025-10-11T03:19:30Z</time></trkpt><trkpt lat="33.8705394" lon="133.5656228"><ele>1054.6266666666668</ele><time>2025-10-11T03:19:48Z</time></trkpt><trkpt lat="33.8703583" lon="133.5656049"><ele>1053.9733333333334</ele><time>2025-10-11T03:20:06Z</time></trkpt><trkpt lat="33.8701795" lon="133.5656439"><ele>1053.1633333333332</ele><time>2025-10-11T03:20:24Z</time></trkpt><trkpt lat="33.869972" lon="133.5655864"><ele>1053.3733333333332</ele><time>2025-10-11T03:20:42Z</time></trkpt><trkpt lat="33.8697785" lon="133.5655047"><ele>1054.0633333333333</ele><time>2025-10-11T03:21:00Z</time></trkpt><trkpt lat="33.8695844" lon="133.5654496"><ele>1053.8466666666666</ele><time>2025-10-11T03:21:15Z</time></trkpt><trkpt lat="33.8693906" lon="133.5654411"><ele>1053.2566666666664</ele><time>2025-10-11T03:21:30Z</time></trkpt><trkpt lat="33.8691976" lon="133.5654441"><ele>1051.9233333333334</ele><time>2025-10-11T03:21:45Z</time></trkpt><trkpt lat="33.8690512" lon="133.565272"><ele>1051.7233333333334</ele><time>2025-10-11T03:22:00Z</time></trkpt><trkpt lat="33.8689922" lon="133.5650623"><ele>1053.0766666666666</ele><time>2025-10-11T03:22:15Z</time></trkpt><trkpt lat="33.8688538" lon="133.5648998"><ele>1054.7133333333334</ele><time>2025-10-11T03:22:30Z</time></trkpt><trkpt lat="33.8688626" lon="133.5646416"><ele>1056.1166666666666</ele><time>2025-10-11T03:22:48Z</time></trkpt><trkpt lat="33.8687561" lon="133.5644149"><ele>1054.5633333333335</ele><time>2025-10-11T03:23:06Z</time></trkpt><trkpt lat="33.8686695" lon="133.5642011"><ele>1053.8766666666668</ele><time>2025-10-11T03:23:21Z</time></trkpt><trkpt lat="33.8686771" lon="133.5639846"><ele>1053.4366666666667</ele><time>2025-10-11T03:23:36Z</time></trkpt><trkpt lat="33.8685787" lon="133.5638001"><ele>1053.9633333333334</ele><time>2025-10-11T03:23:57Z</time></trkpt><trkpt lat="33.86842" lon="133.5636813"><ele>1054.5866666666668</ele><time>2025-10-11T03:24:15Z</time></trkpt><trkpt lat="33.8682613" lon="133.5635528"><ele>1054.6266666666668</ele><time>2025-10-11T03:24:30Z</time></trkpt><trkpt lat="33.8682044" lon="133.563321"><ele>1054.6933333333334</ele><time>2025-10-11T03:24:48Z</time></trkpt><trkpt lat="33.8681962" lon="133.5630734"><ele>1054.7266666666667</ele><time>2025-10-11T03:25:09Z</time></trkpt><trkpt lat="33.8681317" lon="133.5628649"><ele>1054.8733333333332</ele><time>2025-10-11T03:25:24Z</time></trkpt><trkpt lat="33.8679806" lon="133.5626968"><ele>1054.9166666666667</ele><time>2025-10-11T03:25:42Z</time></trkpt><trkpt lat="33.8678307" lon="133.5625396"><ele>1053.7966666666666</ele><time>2025-10-11T03:25:57Z</time></trkpt><trkpt lat="33.8677999" lon="133.5622958"><ele>1053.7699999999998</ele><time>2025-10-11T03:26:12Z</time></trkpt><trkpt lat="33.8679863" lon="133.5621929"><ele>1053.8566666666668</ele><time>2025-10-11T03:26:30Z</time></trkpt><trkpt lat="33.8681868" lon="133.5621485"><ele>1053.3966666666668</ele><time>2025-10-11T03:26:48Z</time></trkpt><trkpt lat="33.8683688" lon="133.5622109"><ele>1052.6</ele><time>2025-10-11T03:27:03Z</time></trkpt><trkpt lat="33.8685603" lon="133.5622014"><ele>1051.1566666666665</ele><time>2025-10-11T03:27:21Z</time></trkpt><trkpt lat="33.8687659" lon="133.5621399"><ele>1048.8966666666668</ele><time>2025-10-11T03:27:42Z</time></trkpt><trkpt lat="33.8689653" lon="133.5620928"><ele>1047.0433333333333</ele><time>2025-10-11T03:27:57Z</time></trkpt><trkpt lat="33.8691698" lon="133.5620601"><ele>1046.21</ele><time>2025-10-11T03:28:15Z</time></trkpt><trkpt lat="33.8693785" lon="133.5619702"><ele>1047.0600000000002</ele><time>2025-10-11T03:28:30Z</time></trkpt><trkpt lat="33.8695053" lon="133.5617558"><ele>1046.4433333333334</ele><time>2025-10-11T03:28:45Z</time></trkpt><trkpt lat="33.8693919" lon="133.5615737"><ele>1045.3466666666668</ele><time>2025-10-11T03:29:06Z</time></trkpt><trkpt lat="33.8691757" lon="133.5615374"><ele>1044.8833333333334</ele><time>2025-10-11T03:29:27Z</time></trkpt><trkpt lat="33.8689581" lon="133.5614654"><ele>1044.7833333333333</ele><time>2025-10-11T03:29:42Z</time></trkpt><trkpt lat="33.8687958" lon="133.5613485"><ele>1044.5633333333333</ele><time>2025-10-11T03:29:54Z</time></trkpt><trkpt lat="33.8687858" lon="133.5611175"><ele>1044.6533333333334</ele><time>2025-10-11T03:30:09Z</time></trkpt><trkpt lat="33.8688173" lon="133.5609001"><ele>1044.9066666666665</ele><time>2025-10-11T03:30:27Z</time></trkpt><trkpt lat="33.8686318" lon="133.5608207"><ele>1045.6366666666665</ele><time>2025-10-11T03:35:39Z</time></trkpt><trkpt lat="33.8684431" lon="133.5608522"><ele>1045.8</ele><time>2025-10-11T03:36:03Z</time></trkpt><trkpt lat="33.8683061" lon="133.5606656"><ele>1046.5433333333333</ele><time>2025-10-11T03:36:24Z</time></trkpt><trkpt lat="33.868242" lon="133.5604622"><ele>1047.4466666666667</ele><time>2025-10-11T03:36:42Z</time></trkpt><trkpt lat="33.8680832" lon="133.5603366"><ele>1047.4466666666667</ele><time>2025-10-11T03:37:09Z</time></trkpt><trkpt lat="33.8678971" lon="133.5602958"><ele>1046.4133333333332</ele><time>2025-10-11T03:37:27Z</time></trkpt><trkpt lat="33.8677063" lon="133.5602554"><ele>1045.3966666666668</ele><time>2025-10-11T03:37:48Z</time></trkpt><trkpt lat="33.8675397" lon="133.5601144"><ele>1044.3833333333332</ele><time>2025-10-11T03:38:09Z</time></trkpt><trkpt lat="33.867336" lon="133.5601052"><ele>1043.4133333333332</ele><time>2025-10-11T03:38:30Z</time></trkpt><trkpt lat="33.867156" lon="133.560048"><ele>1043.5</ele><time>2025-10-11T03:38:45Z</time></trkpt><trkpt lat="33.8670454" lon="133.5598706"><ele>1044.97</ele><time>2025-10-11T03:39:06Z</time></trkpt><trkpt lat="33.8668379" lon="133.5598372"><ele>1047.3733333333332</ele><time>2025-10-11T03:39:24Z</time></trkpt><trkpt lat="33.8666478" lon="133.5598758"><ele>1047.83</ele><time>2025-10-11T03:39:39Z</time></trkpt><trkpt lat="33.8664618" lon="133.5599748"><ele>1047.5466666666669</ele><time>2025-10-11T03:39:54Z</time></trkpt><trkpt lat="33.866282" lon="133.5598847"><ele>1046.05</ele><time>2025-10-11T03:40:12Z</time></trkpt><trkpt lat="33.8661619" lon="133.5596649"><ele>1046.9533333333331</ele><time>2025-10-11T03:40:30Z</time></trkpt><trkpt lat="33.8660307" lon="133.5595001"><ele>1047.53</ele><time>2025-10-11T03:40:45Z</time></trkpt><trkpt lat="33.8659319" lon="133.5593049"><ele>1049.26</ele><time>2025-10-11T03:41:03Z</time></trkpt><trkpt lat="33.8657461" lon="133.559185"><ele>1047.96</ele><time>2025-10-11T03:41:21Z</time></trkpt><trkpt lat="33.8655965" lon="133.5590437"><ele>1047.5166666666667</ele><time>2025-10-11T03:41:39Z</time></trkpt><trkpt lat="33.8653896" lon="133.5589355"><ele>1045.9233333333334</ele><time>2025-10-11T03:41:54Z</time></trkpt><trkpt lat="33.8653106" lon="133.5587182"><ele>1045.2966666666666</ele><time>2025-10-11T03:42:06Z</time></trkpt><trkpt lat="33.8653298" lon="133.5584765"><ele>1044.2733333333333</ele><time>2025-10-11T03:42:24Z</time></trkpt><trkpt lat="33.8652836" lon="133.5582436"><ele>1042.14</ele><time>2025-10-11T03:42:42Z</time></trkpt><trkpt lat="33.8651213" lon="133.5580774"><ele>1039.2266666666667</ele><time>2025-10-11T03:43:00Z</time></trkpt><trkpt lat="33.8649697" lon="133.5579211"><ele>1035.6933333333334</ele><time>2025-10-11T03:43:15Z</time></trkpt><trkpt lat="33.8648676" lon="133.5577406"><ele>1033.2666666666667</ele><time>2025-10-11T03:43:30Z</time></trkpt><trkpt lat="33.8647475" lon="133.5575364"><ele>1030.3233333333335</ele><time>2025-10-11T03:43:45Z</time></trkpt><trkpt lat="33.8646154" lon="133.557388"><ele>1027.6833333333334</ele><time>2025-10-11T03:44:00Z</time></trkpt><trkpt lat="33.8644572" lon="133.5572575"><ele>1025.0833333333335</ele><time>2025-10-11T03:44:15Z</time></trkpt><trkpt lat="33.8644102" lon="133.5570313"><ele>1024.36</ele><time>2025-10-11T03:44:30Z</time></trkpt><trkpt lat="33.8643106" lon="133.5568236"><ele>1023.3366666666667</ele><time>2025-10-11T03:44:48Z</time></trkpt><trkpt lat="33.8641904" lon="133.5566372"><ele>1020.2433333333335</ele><time>2025-10-11T03:45:03Z</time></trkpt><trkpt lat="33.8641223" lon="133.5564027"><ele>1016.9433333333335</ele><time>2025-10-11T03:45:18Z</time></trkpt><trkpt lat="33.8641073" lon="133.5561541"><ele>1014.84</ele><time>2025-10-11T03:45:33Z</time></trkpt><trkpt lat="33.8640562" lon="133.5559301"><ele>1014.5166666666668</ele><time>2025-10-11T03:45:48Z</time></trkpt><trkpt lat="33.8640029" lon="133.5557118"><ele>1014.5433333333334</ele><time>2025-10-11T03:46:03Z</time></trkpt><trkpt lat="33.8641758" lon="133.5556071"><ele>1012.27</ele><time>2025-10-11T03:46:21Z</time></trkpt><trkpt lat="33.8643618" lon="133.5557026"><ele>1010.3633333333333</ele><time>2025-10-11T03:46:36Z</time></trkpt><trkpt lat="33.8645235" lon="133.5558018"><ele>1008.73</ele><time>2025-10-11T03:46:51Z</time></trkpt><trkpt lat="33.8647304" lon="133.5558653"><ele>1009.04</ele><time>2025-10-11T03:47:12Z</time></trkpt><trkpt lat="33.8648752" lon="133.5557099"><ele>1006.87</ele><time>2025-10-11T03:47:24Z</time></trkpt><trkpt lat="33.8650769" lon="133.5556829"><ele>1004.7966666666667</ele><time>2025-10-11T03:47:39Z</time></trkpt><trkpt lat="33.8652599" lon="133.555712"><ele>1001.9133333333334</ele><time>2025-10-11T03:47:54Z</time></trkpt><trkpt lat="33.8654324" lon="133.5556065"><ele>998.4266666666667</ele><time>2025-10-11T03:48:09Z</time></trkpt><trkpt lat="33.8656309" lon="133.5555749"><ele>994.6566666666668</ele><time>2025-10-11T03:48:24Z</time></trkpt><trkpt lat="33.8658228" lon="133.5556096"><ele>991.3000000000001</ele><time>2025-10-11T03:48:39Z</time></trkpt><trkpt lat="33.8660105" lon="133.5555882"><ele>991.1700000000001</ele><time>2025-10-11T03:48:54Z</time></trkpt><trkpt lat="33.8662097" lon="133.5555456"><ele>989.2333333333332</ele><time>2025-10-11T03:49:09Z</time></trkpt><trkpt lat="33.8663882" lon="133.5554817"><ele>987.5833333333334</ele><time>2025-10-11T03:49:24Z</time></trkpt><trkpt lat="33.8665957" lon="133.5554415"><ele>983.8666666666668</ele><time>2025-10-11T03:49:42Z</time></trkpt><trkpt lat="33.8668101" lon="133.5554286"><ele>982.14</ele><time>2025-10-11T03:49:57Z</time></trkpt><trkpt lat="33.8669932" lon="133.5554794"><ele>981.0433333333334</ele><time>2025-10-11T03:50:09Z</time></trkpt><trkpt lat="33.8671755" lon="133.5556217"><ele>981.0533333333333</ele><time>2025-10-11T03:50:24Z</time></trkpt><trkpt lat="33.8673462" lon="133.5557534"><ele>979.5866666666666</ele><time>2025-10-11T03:50:39Z</time></trkpt><trkpt lat="33.8675109" lon="133.5558795"><ele>976.5566666666667</ele><time>2025-10-11T03:50:54Z</time></trkpt><trkpt lat="33.8676841" lon="133.5559505"><ele>974.42</ele><time>2025-10-11T03:51:09Z</time></trkpt><trkpt lat="33.8678799" lon="133.5560042"><ele>971.8033333333333</ele><time>2025-10-11T03:51:24Z</time></trkpt><trkpt lat="33.86804" lon="133.5561292"><ele>968.89</ele><time>2025-10-11T03:51:42Z</time></trkpt><trkpt lat="33.8681367" lon="133.5563475"><ele>966.4700000000001</ele><time>2025-10-11T03:52:00Z</time></trkpt><trkpt lat="33.868295" lon="133.5564748"><ele>964.7966666666667</ele><time>2025-10-11T03:52:15Z</time></trkpt><trkpt lat="33.8684884" lon="133.5564778"><ele>964.82</ele><time>2025-10-11T03:52:33Z</time></trkpt><trkpt lat="33.8685385" lon="133.5562321"><ele>963.6866666666666</ele><time>2025-10-11T03:52:51Z</time></trkpt><trkpt lat="33.868669" lon="133.5560568"><ele>962.46</ele><time>2025-10-11T03:53:06Z</time></trkpt><trkpt lat="33.8688403" lon="133.5559678"><ele>960.2400000000001</ele><time>2025-10-11T03:53:24Z</time></trkpt><trkpt lat="33.8690587" lon="133.5559475"><ele>960.0600000000001</ele><time>2025-10-11T03:53:39Z</time></trkpt><trkpt lat="33.8691513" lon="133.5557166"><ele>958.5600000000001</ele><time>2025-10-11T03:53:54Z</time></trkpt><trkpt lat="33.8691547" lon="133.5555002"><ele>957.3400000000001</ele><time>2025-10-11T03:54:09Z</time></trkpt><trkpt lat="33.8691683" lon="133.5552794"><ele>955.5233333333334</ele><time>2025-10-11T03:54:24Z</time></trkpt><trkpt lat="33.8691819" lon="133.5550526"><ele>956.1466666666666</ele><time>2025-10-11T03:54:39Z</time></trkpt><trkpt lat="33.8692649" lon="133.5548306"><ele>956.1566666666668</ele><time>2025-10-11T03:54:54Z</time></trkpt><trkpt lat="33.8694011" lon="133.5546551"><ele>956.0</ele><time>2025-10-11T03:55:12Z</time></trkpt><trkpt lat="33.8694946" lon="133.5544495"><ele>957.0266666666666</ele><time>2025-10-11T03:55:27Z</time></trkpt><trkpt lat="33.869562" lon="133.5542028"><ele>958.14</ele><time>2025-10-11T03:55:42Z</time></trkpt><trkpt lat="33.8696515" lon="133.5540035"><ele>957.9033333333333</ele><time>2025-10-11T03:56:00Z</time></trkpt><trkpt lat="33.8698149" lon="133.5539073"><ele>956.25</ele><time>2025-10-11T03:56:18Z</time></trkpt><trkpt lat="33.8699129" lon="133.5536853"><ele>954.7833333333333</ele><time>2025-10-11T03:56:33Z</time></trkpt><trkpt lat="33.870031" lon="133.5534997"><ele>953.1166666666667</ele><time>2025-10-11T03:56:45Z</time></trkpt><trkpt lat="33.8702226" lon="133.5534432"><ele>949.7366666666667</ele><time>2025-10-11T03:57:00Z</time></trkpt><trkpt lat="33.8704113" lon="133.5534066"><ele>945.0166666666668</ele><time>2025-10-11T03:57:15Z</time></trkpt><trkpt lat="33.8706113" lon="133.5534089"><ele>938.8833333333333</ele><time>2025-10-11T03:57:33Z</time></trkpt><trkpt lat="33.8707573" lon="133.5535531"><ele>934.4</ele><time>2025-10-11T03:57:48Z</time></trkpt><trkpt lat="33.8708556" lon="133.553765"><ele>929.2200000000001</ele><time>2025-10-11T03:58:03Z</time></trkpt><trkpt lat="33.8709559" lon="133.553975"><ele>925.7599999999999</ele><time>2025-10-11T03:58:18Z</time></trkpt><trkpt lat="33.8709997" lon="133.5541983"><ele>923.57</ele><time>2025-10-11T03:58:36Z</time></trkpt><trkpt lat="33.8712041" lon="133.5541576"><ele>924.2800000000001</ele><time>2025-10-11T03:58:51Z</time></trkpt><trkpt lat="33.8713186" lon="133.5539554"><ele>926.4466666666667</ele><time>2025-10-11T03:59:09Z</time></trkpt><trkpt lat="33.8714102" lon="133.553739"><ele>927.8633333333333</ele><time>2025-10-11T03:59:24Z</time></trkpt><trkpt lat="33.8714765" lon="133.5535143"><ele>930.7066666666666</ele><time>2025-10-11T03:59:39Z</time></trkpt><trkpt lat="33.8715116" lon="133.5532919"><ele>932.7433333333333</ele><time>2025-10-11T03:59:54Z</time></trkpt><trkpt lat="33.8716242" lon="133.5530806"><ele>936.8699999999999</ele><time>2025-10-11T04:00:12Z</time></trkpt><trkpt lat="33.8716055" lon="133.5528268"><ele>937.43</ele><time>2025-10-11T04:00:30Z</time></trkpt><trkpt lat="33.8716822" lon="133.552607"><ele>938.18</ele><time>2025-10-11T04:00:48Z</time></trkpt><trkpt lat="33.8718056" lon="133.5524127"><ele>934.8333333333334</ele><time>2025-10-11T04:01:06Z</time></trkpt><trkpt lat="33.8720026" lon="133.5525096"><ele>932.69</ele><time>2025-10-11T04:01:27Z</time></trkpt><trkpt lat="33.8720687" lon="133.552748"><ele>931.4066666666668</ele><time>2025-10-11T04:01:45Z</time></trkpt><trkpt lat="33.8722128" lon="133.5529001"><ele>932.46</ele><time>2025-10-11T04:02:00Z</time></trkpt><trkpt lat="33.8723849" lon="133.5528305"><ele>934.2466666666668</ele><time>2025-10-11T04:02:15Z</time></trkpt><trkpt lat="33.8725035" lon="133.5526292"><ele>937.8100000000001</ele><time>2025-10-11T04:02:33Z</time></trkpt><trkpt lat="33.872551" lon="133.5524001"><ele>939.7466666666668</ele><time>2025-10-11T04:02:51Z</time></trkpt><trkpt lat="33.8725583" lon="133.5521682"><ele>940.41</ele><time>2025-10-11T04:03:11Z</time></trkpt><trkpt lat="33.8725488" lon="133.5519247"><ele>934.6066666666667</ele><time>2025-10-11T04:03:29Z</time></trkpt><trkpt lat="33.8726837" lon="133.5517377"><ele>928.2933333333334</ele><time>2025-10-11T04:03:45Z</time></trkpt><trkpt lat="33.8729206" lon="133.5517958"><ele>924.3400000000001</ele><time>2025-10-11T04:04:04Z</time></trkpt><trkpt lat="33.873105" lon="133.5516536"><ele>921.4</ele><time>2025-10-11T04:04:20Z</time></trkpt><trkpt lat="33.8730253" lon="133.5514512"><ele>919.16</ele><time>2025-10-11T04:04:53Z</time></trkpt><trkpt lat="33.8728666" lon="133.5513092"><ele>915.9266666666666</ele><time>2025-10-11T04:05:08Z</time></trkpt><trkpt lat="33.8726672" lon="133.5512852"><ele>914.1366666666667</ele><time>2025-10-11T04:05:29Z</time></trkpt><trkpt lat="33.8724588" lon="133.551277"><ele>909.9200000000001</ele><time>2025-10-11T04:05:44Z</time></trkpt><trkpt lat="33.8722875" lon="133.5511696"><ele>907.14</ele><time>2025-10-11T04:05:59Z</time></trkpt><trkpt lat="33.8720762" lon="133.5511659"><ele>906.0799999999999</ele><time>2025-10-11T04:06:17Z</time></trkpt><trkpt lat="33.8718977" lon="133.5512681"><ele>905.07</ele><time>2025-10-11T04:06:29Z</time></trkpt><trkpt lat="33.8717477" lon="133.5514122"><ele>902.08</ele><time>2025-10-11T04:06:41Z</time></trkpt><trkpt lat="33.871614" lon="133.5515932"><ele>896.7566666666667</ele><time>2025-10-11T04:06:59Z</time></trkpt><trkpt lat="33.871487" lon="133.5517709"><ele>892.1433333333334</ele><time>2025-10-11T04:07:14Z</time></trkpt><trkpt lat="33.8712996" lon="133.5518371"><ele>887.7400000000001</ele><time>2025-10-11T04:07:32Z</time></trkpt><trkpt lat="33.8711177" lon="133.5517978"><ele>885.7833333333333</ele><time>2025-10-11T04:07:47Z</time></trkpt><trkpt lat="33.8709135" lon="133.551763"><ele>885.5966666666667</ele><time>2025-10-11T04:08:05Z</time></trkpt><trkpt lat="33.8707746" lon="133.5515958"><ele>885.8133333333334</ele><time>2025-10-11T04:08:20Z</time></trkpt><trkpt lat="33.870712" lon="133.5513772"><ele>886.2466666666666</ele><time>2025-10-11T04:08:36Z</time></trkpt><trkpt lat="33.8705998" lon="133.5515642"><ele>884.15</ele><time>2025-10-11T04:09:02Z</time></trkpt><trkpt lat="33.8707393" lon="133.5517602"><ele>881.96</ele><time>2025-10-11T04:09:26Z</time></trkpt><trkpt lat="33.8708505" lon="133.5519425"><ele>879.1266666666667</ele><time>2025-10-11T04:09:41Z</time></trkpt><trkpt lat="33.8709127" lon="133.5521496"><ele>874.8800000000001</ele><time>2025-10-11T04:09:57Z</time></trkpt><trkpt lat="33.8707955" lon="133.5523185"><ele>869.39</ele><time>2025-10-11T04:10:36Z</time></trkpt><trkpt lat="33.8705449" lon="133.552343"><ele>862.8600000000001</ele><time>2025-10-11T04:10:52Z</time></trkpt><trkpt lat="33.8703732" lon="133.5522744"><ele>858.8666666666668</ele><time>2025-10-11T04:11:01Z</time></trkpt><trkpt lat="33.8701679" lon="133.5522421"><ele>854.4633333333335</ele><time>2025-10-11T04:11:15Z</time></trkpt><trkpt lat="33.8699397" lon="133.5523088"><ele>850.5300000000001</ele><time>2025-10-11T04:11:31Z</time></trkpt><trkpt lat="33.8697535" lon="133.5524534"><ele>847.43</ele><time>2025-10-11T04:11:48Z</time></trkpt><trkpt lat="33.8697994" lon="133.5522161"><ele>844.5999999999999</ele><time>2025-10-11T04:12:03Z</time></trkpt><trkpt lat="33.8699797" lon="133.5521643"><ele>842.7766666666666</ele><time>2025-10-11T04:12:18Z</time></trkpt><trkpt lat="33.8699175" lon="133.5519455"><ele>841.9699999999999</ele><time>2025-10-11T04:12:37Z</time></trkpt><trkpt lat="33.8696817" lon="133.5520012"><ele>840.2466666666666</ele><time>2025-10-11T04:12:54Z</time></trkpt><trkpt lat="33.8694899" lon="133.5521595"><ele>838.43</ele><time>2025-10-11T04:13:12Z</time></trkpt><trkpt lat="33.8692767" lon="133.5522157"><ele>835.7366666666667</ele><time>2025-10-11T04:13:28Z</time></trkpt><trkpt lat="33.8691224" lon="133.5523406"><ele>833.6866666666666</ele><time>2025-10-11T04:13:43Z</time></trkpt><trkpt lat="33.868968" lon="133.55248"><ele>830.5733333333334</ele><time>2025-10-11T04:13:58Z</time></trkpt><trkpt lat="33.8687897" lon="133.5525918"><ele>827.88</ele><time>2025-10-11T04:14:16Z</time></trkpt><trkpt lat="33.8686148" lon="133.5527065"><ele>825.3566666666667</ele><time>2025-10-11T04:14:31Z</time></trkpt><trkpt lat="33.868479" lon="133.5528831"><ele>823.1533333333333</ele><time>2025-10-11T04:14:46Z</time></trkpt><trkpt lat="33.8682894" lon="133.5529462"><ele>819.98</ele><time>2025-10-11T04:15:01Z</time></trkpt><trkpt lat="33.8680946" lon="133.5528726"><ele>816.41</ele><time>2025-10-11T04:15:16Z</time></trkpt><trkpt lat="33.8678945" lon="133.5529391"><ele>813.8299999999999</ele><time>2025-10-11T04:15:31Z</time></trkpt><trkpt lat="33.8677121" lon="133.5529354"><ele>812.3299999999999</ele><time>2025-10-11T04:15:45Z</time></trkpt><trkpt lat="33.8675546" lon="133.5528292"><ele>811.1866666666666</ele><time>2025-10-11T04:16:00Z</time></trkpt><trkpt lat="33.8673627" lon="133.5529009"><ele>810.4566666666666</ele><time>2025-10-11T04:16:18Z</time></trkpt><trkpt lat="33.8671812" lon="133.5528819"><ele>806.3833333333333</ele><time>2025-10-11T04:16:42Z</time></trkpt><trkpt lat="33.8671505" lon="133.5526252"><ele>804.9666666666667</ele><time>2025-10-11T04:17:01Z</time></trkpt><trkpt lat="33.8669813" lon="133.5525307"><ele>803.0766666666667</ele><time>2025-10-11T04:17:16Z</time></trkpt><trkpt lat="33.8667729" lon="133.5525967"><ele>803.1466666666665</ele><time>2025-10-11T04:18:09Z</time></trkpt><trkpt lat="33.8665939" lon="133.552541"><ele>802.3133333333334</ele><time>2025-10-11T04:18:18Z</time></trkpt><trkpt lat="33.866427" lon="133.552399"><ele>801.8633333333333</ele><time>2025-10-11T04:18:27Z</time></trkpt><trkpt lat="33.8661962" lon="133.552415"><ele>802.79</ele><time>2025-10-11T04:18:40Z</time></trkpt><trkpt lat="33.8659984" lon="133.5524565"><ele>802.87</ele><time>2025-10-11T04:18:52Z</time></trkpt><trkpt lat="33.8658162" lon="133.552348"><ele>802.14</ele><time>2025-10-11T04:19:10Z</time></trkpt><trkpt lat="33.8657173" lon="133.5521554"><ele>802.7433333333333</ele><time>2025-10-11T04:19:25Z</time></trkpt><trkpt lat="33.8656061" lon="133.551925"><ele>803.9033333333333</ele><time>2025-10-11T04:19:41Z</time></trkpt><trkpt lat="33.8654965" lon="133.5517352"><ele>804.71</ele><time>2025-10-11T04:19:55Z</time></trkpt><trkpt lat="33.8654415" lon="133.5515268"><ele>805.5600000000001</ele><time>2025-10-11T04:20:09Z</time></trkpt><trkpt lat="33.8653004" lon="133.5513098"><ele>806.1533333333333</ele><time>2025-10-11T04:20:27Z</time></trkpt><trkpt lat="33.8651865" lon="133.5511265"><ele>806.86</ele><time>2025-10-11T04:20:40Z</time></trkpt><trkpt lat="33.8650566" lon="133.5509611"><ele>806.9833333333332</ele><time>2025-10-11T04:20:59Z</time></trkpt><trkpt lat="33.8648566" lon="133.5510176"><ele>806.0066666666667</ele><time>2025-10-11T04:21:14Z</time></trkpt><trkpt lat="33.86467" lon="133.5510849"><ele>805.63</ele><time>2025-10-11T04:21:30Z</time></trkpt><trkpt lat="33.8644959" lon="133.5510187"><ele>806.4766666666666</ele><time>2025-10-11T04:21:44Z</time></trkpt><trkpt lat="33.86437" lon="133.5508406"><ele>809.8233333333334</ele><time>2025-10-11T04:22:06Z</time></trkpt><trkpt lat="33.8643275" lon="133.5506213"><ele>813.6166666666668</ele><time>2025-10-11T04:22:20Z</time></trkpt><trkpt lat="33.864186" lon="133.5504197"><ele>815.4200000000001</ele><time>2025-10-11T04:22:39Z</time></trkpt><trkpt lat="33.8640009" lon="133.5504317"><ele>815.6633333333333</ele><time>2025-10-11T04:22:54Z</time></trkpt><trkpt lat="33.8638163" lon="133.550475"><ele>815.44</ele><time>2025-10-11T04:23:09Z</time></trkpt><trkpt lat="33.8636295" lon="133.5504567"><ele>815.4033333333333</ele><time>2025-10-11T04:23:27Z</time></trkpt><trkpt lat="33.8634428" lon="133.5503424"><ele>816.2333333333332</ele><time>2025-10-11T04:23:48Z</time></trkpt><trkpt lat="33.8633348" lon="133.5501656"><ele>819.3400000000001</ele><time>2025-10-11T04:24:05Z</time></trkpt><trkpt lat="33.8633267" lon="133.5499318"><ele>824.9133333333334</ele><time>2025-10-11T04:24:23Z</time></trkpt><trkpt lat="33.8632951" lon="133.5496398"><ele>831.5833333333334</ele><time>2025-10-11T04:24:44Z</time></trkpt><trkpt lat="33.863168" lon="133.5494563"><ele>836.1166666666668</ele><time>2025-10-11T04:25:00Z</time></trkpt><trkpt lat="33.8629718" lon="133.5494699"><ele>833.2400000000001</ele><time>2025-10-11T04:25:15Z</time></trkpt><trkpt lat="33.8627889" lon="133.5495259"><ele>830.96</ele><time>2025-10-11T04:25:30Z</time></trkpt><trkpt lat="33.8625839" lon="133.5495684"><ele>829.1999999999999</ele><time>2025-10-11T04:25:47Z</time></trkpt><trkpt lat="33.8625271" lon="133.5493348"><ele>834.3166666666667</ele><time>2025-10-11T04:26:05Z</time></trkpt><trkpt lat="33.862491" lon="133.5491165"><ele>836.1433333333334</ele><time>2025-10-11T04:26:20Z</time></trkpt><trkpt lat="33.8625154" lon="133.5488871"><ele>842.8066666666667</ele><time>2025-10-11T04:26:38Z</time></trkpt><trkpt lat="33.8625394" lon="133.5486398"><ele>849.2599999999999</ele><time>2025-10-11T04:26:56Z</time></trkpt><trkpt lat="33.8623888" lon="133.5484605"><ele>849.3966666666666</ele><time>2025-10-11T04:27:14Z</time></trkpt><trkpt lat="33.8622368" lon="133.5483321"><ele>842.7933333333334</ele><time>2025-10-11T04:27:26Z</time></trkpt><trkpt lat="33.8621173" lon="133.548111"><ele>834.4</ele><time>2025-10-11T04:27:45Z</time></trkpt><trkpt lat="33.861975" lon="133.5479628"><ele>833.7433333333333</ele><time>2025-10-11T04:28:03Z</time></trkpt><trkpt lat="33.8618391" lon="133.5477868"><ele>836.0266666666666</ele><time>2025-10-11T04:28:21Z</time></trkpt><trkpt lat="33.8618511" lon="133.5475694"><ele>842.2966666666666</ele><time>2025-10-11T04:28:33Z</time></trkpt><trkpt lat="33.8618891" lon="133.5472855"><ele>849.3566666666667</ele><time>2025-10-11T04:28:51Z</time></trkpt><trkpt lat="33.8618206" lon="133.5470479"><ele>854.2566666666667</ele><time>2025-10-11T04:29:09Z</time></trkpt><trkpt lat="33.8618474" lon="133.5468142"><ele>855.1300000000001</ele><time>2025-10-11T04:29:27Z</time></trkpt><trkpt lat="33.861959" lon="133.5466023"><ele>856.4433333333333</ele><time>2025-10-11T04:29:48Z</time></trkpt><trkpt lat="33.8619212" lon="133.5463575"><ele>856.7800000000001</ele><time>2025-10-11T04:30:03Z</time></trkpt><trkpt lat="33.8619475" lon="133.546128"><ele>861.33</ele><time>2025-10-11T04:30:23Z</time></trkpt><trkpt lat="33.8620985" lon="133.5458103"><ele>862.8266666666667</ele><time>2025-10-11T04:30:47Z</time></trkpt><trkpt lat="33.8622881" lon="133.5457971"><ele>864.7533333333334</ele><time>2025-10-11T04:31:06Z</time></trkpt><trkpt lat="33.8624978" lon="133.5457738"><ele>863.1333333333332</ele><time>2025-10-11T04:31:24Z</time></trkpt><trkpt lat="33.8626792" lon="133.5457402"><ele>860.68</ele><time>2025-10-11T04:31:36Z</time></trkpt><trkpt lat="33.8628912" lon="133.5458527"><ele>859.98</ele><time>2025-10-11T04:31:57Z</time></trkpt><trkpt lat="33.8631086" lon="133.5458941"><ele>862.5600000000001</ele><time>2025-10-11T04:32:15Z</time></trkpt><trkpt lat="33.863429" lon="133.5458073"><ele>872.7033333333334</ele><time>2025-10-11T04:32:29Z</time></trkpt><trkpt lat="33.8635363" lon="133.5455913"><ele>877.4233333333333</ele><time>2025-10-11T04:32:39Z</time></trkpt><trkpt lat="33.8636296" lon="133.5453992"><ele>876.9566666666666</ele><time>2025-10-11T04:33:12Z</time></trkpt><trkpt lat="33.8638011" lon="133.5453311"><ele>871.1533333333333</ele><time>2025-10-11T04:33:30Z</time></trkpt><trkpt lat="33.8639797" lon="133.5453766"><ele>871.4533333333334</ele><time>2025-10-11T04:33:48Z</time></trkpt><trkpt lat="33.8641522" lon="133.5454476"><ele>876.7700000000001</ele><time>2025-10-11T04:34:03Z</time></trkpt><trkpt lat="33.8643253" lon="133.5453778"><ele>879.5133333333333</ele><time>2025-10-11T04:34:18Z</time></trkpt><trkpt lat="33.8644461" lon="133.5452115"><ele>879.7599999999999</ele><time>2025-10-11T04:34:33Z</time></trkpt><trkpt lat="33.8645808" lon="133.5450315"><ele>875.7400000000001</ele><time>2025-10-11T04:34:48Z</time></trkpt><trkpt lat="33.864791" lon="133.5449944"><ele>873.4333333333334</ele><time>2025-10-11T04:35:09Z</time></trkpt><trkpt lat="33.8649688" lon="133.54504"><ele>873.0</ele><time>2025-10-11T04:35:24Z</time></trkpt><trkpt lat="33.8651389" lon="133.5449672"><ele>874.0600000000001</ele><time>2025-10-11T04:35:49Z</time></trkpt><trkpt lat="33.8652624" lon="133.5447816"><ele>876.6866666666668</ele><time>2025-10-11T04:42:24Z</time></trkpt><trkpt lat="33.8654549" lon="133.5446782"><ele>879.3533333333334</ele><time>2025-10-11T04:42:42Z</time></trkpt><trkpt lat="33.8656657" lon="133.5445794"><ele>879.7333333333332</ele><time>2025-10-11T04:43:12Z</time></trkpt><trkpt lat="33.8658539" lon="133.5446004"><ele>880.02</ele><time>2025-10-11T04:43:25Z</time></trkpt><trkpt lat="33.8660278" lon="133.5446675"><ele>881.63</ele><time>2025-10-11T04:43:58Z</time></trkpt><trkpt lat="33.866161" lon="133.5444837"><ele>885.15</ele><time>2025-10-11T04:44:25Z</time></trkpt><trkpt lat="33.8662421" lon="133.5442595"><ele>889.8033333333333</ele><time>2025-10-11T04:44:40Z</time></trkpt><trkpt lat="33.8663601" lon="133.5440871"><ele>892.2366666666667</ele><time>2025-10-11T04:44:55Z</time></trkpt><trkpt lat="33.8664935" lon="133.5439354"><ele>893.4000000000001</ele><time>2025-10-11T04:45:10Z</time></trkpt><trkpt lat="33.866707" lon="133.5439669"><ele>893.7066666666666</ele><time>2025-10-11T04:45:25Z</time></trkpt><trkpt lat="33.8668448" lon="133.5437997"><ele>893.8433333333334</ele><time>2025-10-11T04:45:44Z</time></trkpt><trkpt lat="33.8670343" lon="133.5436878"><ele>894.4266666666667</ele><time>2025-10-11T04:46:04Z</time></trkpt><trkpt lat="33.8672251" lon="133.5436608"><ele>896.1700000000001</ele><time>2025-10-11T04:46:28Z</time></trkpt><trkpt lat="33.8674241" lon="133.5435899"><ele>899.0733333333334</ele><time>2025-10-11T04:46:49Z</time></trkpt><trkpt lat="33.8675079" lon="133.5433698"><ele>900.7633333333333</ele><time>2025-10-11T04:47:10Z</time></trkpt><trkpt lat="33.8676921" lon="133.5432747"><ele>898.9033333333333</ele><time>2025-10-11T04:47:25Z</time></trkpt><trkpt lat="33.8678816" lon="133.5431933"><ele>896.6566666666668</ele><time>2025-10-11T04:47:40Z</time></trkpt><trkpt lat="33.8679692" lon="133.5429706"><ele>899.1733333333333</ele><time>2025-10-11T04:47:58Z</time></trkpt><trkpt lat="33.8680069" lon="133.5427283"><ele>904.8033333333333</ele><time>2025-10-11T04:48:16Z</time></trkpt><trkpt lat="33.8681704" lon="133.5426016"><ele>910.6733333333333</ele><time>2025-10-11T04:48:34Z</time></trkpt><trkpt lat="33.8683539" lon="133.5425848"><ele>914.9666666666667</ele><time>2025-10-11T04:48:55Z</time></trkpt><trkpt lat="33.8684772" lon="133.5424077"><ele>916.9433333333333</ele><time>2025-10-11T04:49:08Z</time></trkpt><trkpt lat="33.8685958" lon="133.5422237"><ele>919.2566666666667</ele><time>2025-10-11T04:49:25Z</time></trkpt><trkpt lat="33.8687614" lon="133.5421276"><ele>921.2033333333334</ele><time>2025-10-11T04:49:40Z</time></trkpt><trkpt lat="33.8689077" lon="133.5419621"><ele>925.8499999999999</ele><time>2025-10-11T04:49:58Z</time></trkpt><trkpt lat="33.8688416" lon="133.5417595"><ele>926.91</ele><time>2025-10-11T04:50:19Z</time></trkpt><trkpt lat="33.8686514" lon="133.5417363"><ele>927.02</ele><time>2025-10-11T04:50:34Z</time></trkpt><trkpt lat="33.8684633" lon="133.5417766"><ele>924.9633333333335</ele><time>2025-10-11T04:50:49Z</time></trkpt><trkpt lat="33.8682606" lon="133.5417757"><ele>925.79</ele><time>2025-10-11T04:51:07Z</time></trkpt><trkpt lat="33.8680885" lon="133.541858"><ele>925.6966666666667</ele><time>2025-10-11T04:51:22Z</time></trkpt><trkpt lat="33.8679048" lon="133.5418754"><ele>926.0966666666667</ele><time>2025-10-11T04:51:37Z</time></trkpt><trkpt lat="33.8677294" lon="133.5418136"><ele>927.5500000000001</ele><time>2025-10-11T04:51:52Z</time></trkpt><trkpt lat="33.8675155" lon="133.5418238"><ele>929.58</ele><time>2025-10-11T04:52:10Z</time></trkpt><trkpt lat="33.8673286" lon="133.5418736"><ele>933.4866666666667</ele><time>2025-10-11T04:52:25Z</time></trkpt><trkpt lat="33.867113" lon="133.5419727"><ele>935.9833333333332</ele><time>2025-10-11T04:52:49Z</time></trkpt><trkpt lat="33.8669292" lon="133.5420708"><ele>938.3666666666668</ele><time>2025-10-11T04:53:10Z</time></trkpt><trkpt lat="33.8667536" lon="133.5419824"><ele>940.4633333333335</ele><time>2025-10-11T04:53:31Z</time></trkpt><trkpt lat="33.8668863" lon="133.5418341"><ele>942.4000000000001</ele><time>2025-10-11T04:53:49Z</time></trkpt><trkpt lat="33.8670828" lon="133.5417977"><ele>944.38</ele><time>2025-10-11T04:54:07Z</time></trkpt><trkpt lat="33.8672672" lon="133.5416943"><ele>944.46</ele><time>2025-10-11T04:54:28Z</time></trkpt><trkpt lat="33.8674266" lon="133.5415891"><ele>944.0099999999999</ele><time>2025-10-11T04:54:43Z</time></trkpt><trkpt lat="33.8676283" lon="133.5414925"><ele>944.1533333333333</ele><time>2025-10-11T04:55:02Z</time></trkpt><trkpt lat="33.8678222" lon="133.541412"><ele>945.98</ele><time>2025-10-11T04:55:22Z</time></trkpt><trkpt lat="33.8679857" lon="133.541263"><ele>949.9033333333333</ele><time>2025-10-11T04:55:41Z</time></trkpt><trkpt lat="33.8681979" lon="133.5411939"><ele>953.8000000000001</ele><time>2025-10-11T04:55:59Z</time></trkpt><trkpt lat="33.8684286" lon="133.5412543"><ele>954.9133333333333</ele><time>2025-10-11T04:56:25Z</time></trkpt><trkpt lat="33.8686384" lon="133.5412091"><ele>953.8733333333333</ele><time>2025-10-11T04:56:38Z</time></trkpt><trkpt lat="33.8687405" lon="133.5410257"><ele>954.1466666666666</ele><time>2025-10-11T04:56:52Z</time></trkpt><trkpt lat="33.868813" lon="133.5408246"><ele>956.4466666666667</ele><time>2025-10-11T04:57:07Z</time></trkpt></trkseg></trk></gpx>