<?xml version='1.0' encoding='UTF-8'?><gpx creator="Yama Museum Summit Candidate Generator" xsi:schemaLocation="http://www.topografix.com/GPX/1/1 http://www.topografix.com/GPX/1/1/gpx.xsd" version="1.1" xmlns="http://www.topografix.com/GPX/1/1" xmlns:xsi="http://www.w3.org/2001/XMLSchema-instance" xmlns:yama="https://museum-yama-data.moukaeritai.work/ns/yama-data/0.1"><metadata><bounds maxlat="33.9569392" maxlon="133.5926517" minlat="33.9565168" minlon="133.5908978"/><name>平石山</name><extensions><yama:source_gpx_basename>yamap_2022-05-07_14_18.gpx</yama:source_gpx_basename><yama:source_gpx_relative_path>data/01_raw/gpx/2026-05-12/yamap_2022-05-07_14_18.gpx</yama:source_gpx_relative_path><yama:detection_parameters>window=5,radius=10,min_prominence=30,merge=100</yama:detection_parameters></extensions></metadata><trk><name>平石山</name><number>1</number><trkseg><trkpt lat="33.9567236" lon="133.5926517"><ele>807.7529298506798</ele><time>2022-05-07T05:18:00Z</time></trkpt><trkpt lat="33.9566008" lon="133.5924825"><ele>809.1177346046512</ele><time>2022-05-07T05:19:51Z</time></trkpt><trkpt lat="33.9565168" lon="133.5922894"><ele>811.7063464405755</ele><time>2022-05-07T05:20:40Z</time></trkpt><trkpt lat="33.9565992" lon="133.592094"><ele>814.2783917309566</ele><time>2022-05-07T05:21:26Z</time></trkpt><trkpt lat="33.9566782" lon="133.5918944"><ele>815.4124941681847</ele><time>2022-05-07T05:21:49Z</time></trkpt><trkpt lat="33.9565864" lon="133.5917046"><ele>814.3568851822588</ele><time>2022-05-07T05:22:31Z</time></trkpt><trkpt lat="33.956548" lon="133.5914926"><ele>815.900688201155</ele><time>2022-05-07T05:22:54Z</time></trkpt><trkpt lat="33.956537" lon="133.5912741"><ele>820.0792404974331</ele><time>2022-05-07T05:23:48Z</time></trkpt><trkpt lat="33.9565454" lon="133.5910424"><ele>826.2473007292366</ele><time>2022-05-07T05:24:44Z</time></trkpt><trkpt lat="33.9566849" lon="133.5908978"><ele>829.0476343283372</ele><time>2022-05-07T05:26:41Z</time></trkpt><trkpt lat="33.9568722" lon="133.5909035"><ele>824.5064527894941</ele><time>2022-05-07T05:27:42Z</time></trkpt><trkpt lat="33.9568949" lon="133.5911213"><ele>815.1153500636382</ele><time>2022-05-07T05:28:48Z</time></trkpt><trkpt lat="33.9569135" lon="133.59134"><ele>807.0312503193677</ele><time>2022-05-07T05:29:18Z</time></trkpt><trkpt lat="33.9569392" lon="133.5915574"><ele>804.332075191314</ele><time>2022-05-07T05:29:34Z</time></trkpt><trkpt lat="33.9568676" lon="133.591761"><ele>804.891163429972</ele><time>2022-05-07T05:29:56Z</time></trkpt><trkpt lat="33.9568533" lon="133.591979"><ele>805.2172887916698</ele><time>2022-05-07T05:30:17Z</time></trkpt><trkpt lat="33.9568477" lon="133.592197"><ele>806.2170128774428</ele><time>2022-05-07T05:30:34Z</time></trkpt><trkpt lat="33.9567926" lon="133.5924053"><ele>807.2730399318749</ele><time>2022-05-07T05:31:06Z</time></trkpt><trkpt lat="33.956798" lon="133.5926334"><ele>812.2243065919339</ele><time>2022-05-07T05:31:19Z</time></trkpt></trkseg></trk></gpx>