<?xml version='1.0' encoding='UTF-8'?><gpx creator="Yama Museum Summit Candidate Generator" xsi:schemaLocation="http://www.topografix.com/GPX/1/1 http://www.topografix.com/GPX/1/1/gpx.xsd" version="1.1" xmlns="http://www.topografix.com/GPX/1/1" xmlns:xsi="http://www.w3.org/2001/XMLSchema-instance" xmlns:yama="https://museum-yama-data.moukaeritai.work/ns/yama-data/0.1"><metadata><bounds maxlat="33.5434465" maxlon="132.8052263" minlat="33.5408026" minlon="132.8011124"/><name>笹峠山</name><extensions><yama:source_gpx_basename>yamap_2026-03-21_13_44.gpx</yama:source_gpx_basename><yama:source_gpx_relative_path>data/01_raw/gpx/2026-05-12/yamap_2026-03-21_13_44.gpx</yama:source_gpx_relative_path><yama:detection_parameters>window=5,radius=10,min_prominence=30,merge=100</yama:detection_parameters></extensions></metadata><wpt lat="33.5409797" lon="132.8012664"><ele>967.0418485014342</ele><time>2026-03-21T05:06:58Z</time><name>summit-candidate:05007aaf499a4ecc</name><desc>Summit candidate detected at elevation 967.0418485014342m with prominence 102.81045287185066m.</desc><sym>Summit Candidate</sym><extensions><yama:source_trackpoint_index>40</yama:source_trackpoint_index><yama:valid_elevation_index>40</yama:valid_elevation_index><yama:smoothed_ele>965.2871195385175</yama:smoothed_ele><yama:prominence>102.81045287185066</yama:prominence><yama:detection_method>local_maxima_with_prominence</yama:detection_method><yama:detection_parameters>window=5,radius=10,min_prominence=30,merge=100</yama:detection_parameters><yama:candidate_status>unresolved</yama:candidate_status></extensions></wpt>
  <trk><name>笹峠山</name><number>1</number><trkseg><trkpt lat="33.5433622" lon="132.8052263"><ele>861.96</ele><time>2026-03-21T04:44:54Z</time></trkpt><trkpt lat="33.5433024" lon="132.8049972"><ele>862.57</ele><time>2026-03-21T04:45:25Z</time></trkpt><trkpt lat="33.543379" lon="132.8047944"><ele>862.9000000000001</ele><time>2026-03-21T04:45:46Z</time></trkpt><trkpt lat="33.5434465" lon="132.8045797"><ele>864.35</ele><time>2026-03-21T04:46:01Z</time></trkpt><trkpt lat="33.5434032" lon="132.8043644"><ele>868.0466666666667</ele><time>2026-03-21T04:46:16Z</time></trkpt><trkpt lat="33.5432112" lon="132.8043963"><ele>867.82</ele><time>2026-03-21T04:46:31Z</time></trkpt><trkpt lat="33.5430247" lon="132.8044942"><ele>866.2333333333335</ele><time>2026-03-21T04:46:49Z</time></trkpt><trkpt lat="33.5428482" lon="132.8045582"><ele>861.6333333333333</ele><time>2026-03-21T04:47:04Z</time></trkpt><trkpt lat="33.5426353" lon="132.804583"><ele>861.2533333333334</ele><time>2026-03-21T04:47:22Z</time></trkpt><trkpt lat="33.5425411" lon="132.8043901"><ele>863.0133333333333</ele><time>2026-03-21T04:47:43Z</time></trkpt><trkpt lat="33.5424664" lon="132.8041736"><ele>865.4433333333333</ele><time>2026-03-21T04:48:01Z</time></trkpt><trkpt lat="33.5425148" lon="132.8039249"><ele>867.6466666666666</ele><time>2026-03-21T04:48:19Z</time></trkpt><trkpt lat="33.5426528" lon="132.8037804"><ele>870.0033333333334</ele><time>2026-03-21T04:48:34Z</time></trkpt><trkpt lat="33.5427393" lon="132.803568"><ele>874.3633333333333</ele><time>2026-03-21T04:48:52Z</time></trkpt><trkpt lat="33.5427601" lon="132.8033236"><ele>881.9866666666667</ele><time>2026-03-21T04:49:10Z</time></trkpt><trkpt lat="33.5427581" lon="132.8031031"><ele>888.16</ele><time>2026-03-21T04:49:25Z</time></trkpt><trkpt lat="33.5427849" lon="132.8028792"><ele>891.9500000000002</ele><time>2026-03-21T04:49:42Z</time></trkpt><trkpt lat="33.5427826" lon="132.8026514"><ele>893.35</ele><time>2026-03-21T04:50:00Z</time></trkpt><trkpt lat="33.5426837" lon="132.8024616"><ele>896.2666666666668</ele><time>2026-03-21T04:50:15Z</time></trkpt><trkpt lat="33.5425802" lon="132.8022679"><ele>898.9700000000001</ele><time>2026-03-21T04:50:33Z</time></trkpt><trkpt lat="33.5423936" lon="132.8023858"><ele>899.3066666666667</ele><time>2026-03-21T04:50:51Z</time></trkpt><trkpt lat="33.5422332" lon="132.8025179"><ele>897.0133333333333</ele><time>2026-03-21T04:51:06Z</time></trkpt><trkpt lat="33.5420515" lon="132.8024843"><ele>896.5233333333334</ele><time>2026-03-21T04:51:21Z</time></trkpt><trkpt lat="33.5419335" lon="132.8023124"><ele>899.0366666666665</ele><time>2026-03-21T04:51:42Z</time></trkpt><trkpt lat="33.5417507" lon="132.8022546"><ele>901.9433333333333</ele><time>2026-03-21T04:52:12Z</time></trkpt><trkpt lat="33.5419483" lon="132.8022512"><ele>904.7400000000001</ele><time>2026-03-21T04:52:54Z</time></trkpt><trkpt lat="33.5421239" lon="132.8023263"><ele>905.0333333333333</ele><time>2026-03-21T04:53:12Z</time></trkpt><trkpt lat="33.5421808" lon="132.8020851"><ele>908.3100000000001</ele><time>2026-03-21T04:53:30Z</time></trkpt><trkpt lat="33.5422988" lon="132.8019207"><ele>910.6066666666667</ele><time>2026-03-21T04:53:45Z</time></trkpt><trkpt lat="33.5424636" lon="132.8018291"><ele>913.0533333333333</ele><time>2026-03-21T04:54:02Z</time></trkpt><trkpt lat="33.5423325" lon="132.8016742"><ele>913.9000000000001</ele><time>2026-03-21T04:56:02Z</time></trkpt><trkpt lat="33.5421955" lon="132.8015297"><ele>915.4433333333333</ele><time>2026-03-21T04:56:40Z</time></trkpt><trkpt lat="33.5420657" lon="132.8013766"><ele>920.8233333333333</ele><time>2026-03-21T04:57:25Z</time></trkpt><trkpt lat="33.5418986" lon="132.8012828"><ele>927.1533333333333</ele><time>2026-03-21T04:58:10Z</time></trkpt><trkpt lat="33.5417446" lon="132.8011444"><ele>934.6233333333333</ele><time>2026-03-21T04:58:42Z</time></trkpt><trkpt lat="33.5415477" lon="132.8011124"><ele>940.1133333333333</ele><time>2026-03-21T04:59:36Z</time></trkpt><trkpt lat="33.5413495" lon="132.8011393"><ele>948.7637448622258</ele><time>2026-03-21T04:59:56Z</time></trkpt><trkpt lat="33.5411609" lon="132.8011745"><ele>956.0399956987376</ele><time>2026-03-21T05:00:17Z</time></trkpt><trkpt lat="33.5409682" lon="132.8012279"><ele>963.5382349480818</ele><time>2026-03-21T05:00:46Z</time></trkpt><trkpt lat="33.5408026" lon="132.8013191"><ele>965.6967775896352</ele><time>2026-03-21T05:02:01Z</time></trkpt><trkpt lat="33.5409797" lon="132.8012664"><ele>967.0418485014342</ele><time>2026-03-21T05:06:58Z</time></trkpt><trkpt lat="33.541165" lon="132.801239"><ele>965.9516849586265</ele><time>2026-03-21T05:07:22Z</time></trkpt><trkpt lat="33.5413686" lon="132.8011803"><ele>964.2070516948096</ele><time>2026-03-21T05:07:43Z</time></trkpt><trkpt lat="33.5415681" lon="132.8011666"><ele>956.7957299464988</ele><time>2026-03-21T05:08:04Z</time></trkpt><trkpt lat="33.5417481" lon="132.801241"><ele>949.514320906629</ele><time>2026-03-21T05:09:49Z</time></trkpt><trkpt lat="33.5418919" lon="132.8013965"><ele>941.8166666666666</ele><time>2026-03-21T05:10:10Z</time></trkpt><trkpt lat="33.5419611" lon="132.8016128"><ele>938.3133333333334</ele><time>2026-03-21T05:10:28Z</time></trkpt><trkpt lat="33.5420625" lon="132.8018073"><ele>931.7966666666666</ele><time>2026-03-21T05:10:52Z</time></trkpt><trkpt lat="33.5422662" lon="132.8018236"><ele>924.2566666666667</ele><time>2026-03-21T05:11:22Z</time></trkpt><trkpt lat="33.5424578" lon="132.8017861"><ele>917.1566666666668</ele><time>2026-03-21T05:11:43Z</time></trkpt><trkpt lat="33.5423132" lon="132.8019608"><ele>914.3233333333334</ele><time>2026-03-21T05:12:21Z</time></trkpt><trkpt lat="33.5422404" lon="132.8021811"><ele>911.8633333333333</ele><time>2026-03-21T05:12:39Z</time></trkpt><trkpt lat="33.5420505" lon="132.8022728"><ele>910.32</ele><time>2026-03-21T05:12:54Z</time></trkpt><trkpt lat="33.5418759" lon="132.8022013"><ele>908.7033333333333</ele><time>2026-03-21T05:13:09Z</time></trkpt><trkpt lat="33.54197" lon="132.8024038"><ele>906.5033333333332</ele><time>2026-03-21T05:14:00Z</time></trkpt><trkpt lat="33.5421157" lon="132.8025419"><ele>902.8866666666667</ele><time>2026-03-21T05:14:14Z</time></trkpt><trkpt lat="33.5422879" lon="132.8024001"><ele>898.4466666666667</ele><time>2026-03-21T05:14:35Z</time></trkpt><trkpt lat="33.5424765" lon="132.8022857"><ele>897.2266666666668</ele><time>2026-03-21T05:14:56Z</time></trkpt><trkpt lat="33.5426255" lon="132.8024169"><ele>897.4500000000002</ele><time>2026-03-21T05:15:08Z</time></trkpt><trkpt lat="33.5427594" lon="132.8025703"><ele>898.5066666666667</ele><time>2026-03-21T05:15:23Z</time></trkpt><trkpt lat="33.5428049" lon="132.8027797"><ele>896.8033333333333</ele><time>2026-03-21T05:15:38Z</time></trkpt><trkpt lat="33.5427465" lon="132.8030024"><ele>893.4</ele><time>2026-03-21T05:15:53Z</time></trkpt><trkpt lat="33.5427688" lon="132.8032294"><ele>891.0633333333334</ele><time>2026-03-21T05:16:11Z</time></trkpt><trkpt lat="33.5427599" lon="132.8034848"><ele>889.1933333333333</ele><time>2026-03-21T05:16:28Z</time></trkpt><trkpt lat="33.5427162" lon="132.8037024"><ele>885.9666666666667</ele><time>2026-03-21T05:16:43Z</time></trkpt><trkpt lat="33.542555" lon="132.8038496"><ele>878.5066666666667</ele><time>2026-03-21T05:16:58Z</time></trkpt><trkpt lat="33.5424819" lon="132.8040507"><ele>873.0666666666666</ele><time>2026-03-21T05:17:13Z</time></trkpt><trkpt lat="33.5425372" lon="132.8042907"><ele>869.2733333333334</ele><time>2026-03-21T05:17:31Z</time></trkpt><trkpt lat="33.5425382" lon="132.8045207"><ele>866.6233333333333</ele><time>2026-03-21T05:17:46Z</time></trkpt><trkpt lat="33.542719" lon="132.8045835"><ele>863.4933333333332</ele><time>2026-03-21T05:18:01Z</time></trkpt><trkpt lat="33.54292" lon="132.8045561"><ele>860.7800000000001</ele><time>2026-03-21T05:18:19Z</time></trkpt><trkpt lat="33.5431282" lon="132.8045196"><ele>859.7333333333332</ele><time>2026-03-21T05:18:37Z</time></trkpt><trkpt lat="33.543295" lon="132.8043847"><ele>860.4233333333333</ele><time>2026-03-21T05:18:55Z</time></trkpt><trkpt lat="33.5434439" lon="132.8045083"><ele>863.3766666666667</ele><time>2026-03-21T05:19:10Z</time></trkpt><trkpt lat="33.5434214" lon="132.8047418"><ele>865.5100000000001</ele><time>2026-03-21T05:19:28Z</time></trkpt><trkpt lat="33.5433113" lon="132.804941"><ele>865.0933333333334</ele><time>2026-03-21T05:19:46Z</time></trkpt><trkpt lat="33.5433875" lon="132.8051534"><ele>863.2266666666668</ele><time>2026-03-21T05:20:07Z</time></trkpt></trkseg></trk></gpx>