<?xml version='1.0' encoding='UTF-8'?><gpx creator="Yama Museum Summit Candidate Generator" xsi:schemaLocation="http://www.topografix.com/GPX/1/1 http://www.topografix.com/GPX/1/1/gpx.xsd" version="1.1" xmlns="http://www.topografix.com/GPX/1/1" xmlns:xsi="http://www.w3.org/2001/XMLSchema-instance" xmlns:yama="https://museum-yama-data.moukaeritai.work/ns/yama-data/0.1"><metadata><bounds maxlat="33.1703519" maxlon="132.6322939" minlat="33.1326633" minlon="132.6139829"/><name>加塚山</name><extensions><yama:source_gpx_basename>yamap_2025-04-06_08_48.gpx</yama:source_gpx_basename><yama:source_gpx_relative_path>data/01_raw/gpx/2026-05-12/yamap_2025-04-06_08_48.gpx</yama:source_gpx_relative_path><yama:detection_parameters>window=5,radius=10,min_prominence=30,merge=100</yama:detection_parameters></extensions></metadata><wpt lat="33.1538778" lon="132.6270428"><ele>936.75</ele><time>2025-04-06T00:44:44Z</time><name>summit-candidate:18f6f4b086668887</name><desc>Summit candidate detected at elevation 936.75m with prominence 36.97133333333352m.</desc><sym>Summit Candidate</sym><extensions><yama:source_trackpoint_index>112</yama:source_trackpoint_index><yama:valid_elevation_index>112</yama:valid_elevation_index><yama:smoothed_ele>932.8826666666668</yama:smoothed_ele><yama:prominence>36.97133333333352</yama:prominence><yama:detection_method>local_maxima_with_prominence</yama:detection_method><yama:detection_parameters>window=5,radius=10,min_prominence=30,merge=100</yama:detection_parameters><yama:candidate_status>unresolved</yama:candidate_status></extensions></wpt>
  <wpt lat="33.1518363" lon="132.6299101"><ele>959.7999999999998</ele><time>2025-04-06T01:09:31Z</time><name>summit-candidate:6a1baa0667de8a9d</name><desc>Summit candidate detected at elevation 959.7999999999998m with prominence 107.0680000000001m.</desc><sym>Summit Candidate</sym><extensions><yama:source_trackpoint_index>142</yama:source_trackpoint_index><yama:valid_elevation_index>142</yama:valid_elevation_index><yama:smoothed_ele>958.0213333333334</yama:smoothed_ele><yama:prominence>107.0680000000001</yama:prominence><yama:detection_method>local_maxima_with_prominence</yama:detection_method><yama:detection_parameters>window=5,radius=10,min_prominence=30,merge=100</yama:detection_parameters><yama:candidate_status>unresolved</yama:candidate_status></extensions></wpt>
  <wpt lat="33.1328174" lon="132.6290592"><ele>1069.8255484698216</ele><time>2025-04-06T02:34:54Z</time><name>summit-candidate:cdd4a9ba931c816e</name><desc>Summit candidate detected at elevation 1069.8255484698216m with prominence 270.13916391961993m.</desc><sym>Summit Candidate</sym><extensions><yama:source_trackpoint_index>261</yama:source_trackpoint_index><yama:valid_elevation_index>261</yama:valid_elevation_index><yama:smoothed_ele>1067.5038305862865</yama:smoothed_ele><yama:prominence>270.13916391961993</yama:prominence><yama:detection_method>local_maxima_with_prominence</yama:detection_method><yama:detection_parameters>window=5,radius=10,min_prominence=30,merge=100</yama:detection_parameters><yama:candidate_status>unresolved</yama:candidate_status></extensions></wpt>
  <wpt lat="33.1347793" lon="132.6282847"><ele>1005.7346655272108</ele><time>2025-04-06T02:54:36Z</time><name>summit-candidate:f59e1ba73617c383</name><desc>Summit candidate detected at elevation 1005.7346655272108m with prominence 48.06303523799795m.</desc><sym>Summit Candidate</sym><extensions><yama:source_trackpoint_index>294</yama:source_trackpoint_index><yama:valid_elevation_index>294</yama:valid_elevation_index><yama:smoothed_ele>1000.8829183810255</yama:smoothed_ele><yama:prominence>48.06303523799795</yama:prominence><yama:detection_method>local_maxima_with_prominence</yama:detection_method><yama:detection_parameters>window=5,radius=10,min_prominence=30,merge=100</yama:detection_parameters><yama:candidate_status>unresolved</yama:candidate_status></extensions></wpt>
  <wpt lat="33.142538" lon="132.6306376"><ele>921.62</ele><time>2025-04-06T03:39:53Z</time><name>summit-candidate:69da123016e6ad8b</name><desc>Summit candidate detected at elevation 921.62m with prominence 86.48199999999997m.</desc><sym>Summit Candidate</sym><extensions><yama:source_trackpoint_index>357</yama:source_trackpoint_index><yama:valid_elevation_index>357</yama:valid_elevation_index><yama:smoothed_ele>920.8226666666667</yama:smoothed_ele><yama:prominence>86.48199999999997</yama:prominence><yama:detection_method>local_maxima_with_prominence</yama:detection_method><yama:detection_parameters>window=5,radius=10,min_prominence=30,merge=100</yama:detection_parameters><yama:candidate_status>unresolved</yama:candidate_status></extensions></wpt>
  <wpt lat="33.155717" lon="132.6258832"><ele>850.5566666666667</ele><time>2025-04-06T04:26:18Z</time><name>summit-candidate:3f84cc393481fcf2</name><desc>Summit candidate detected at elevation 850.5566666666667m with prominence 52.32599999999991m.</desc><sym>Summit Candidate</sym><extensions><yama:source_trackpoint_index>477</yama:source_trackpoint_index><yama:valid_elevation_index>477</yama:valid_elevation_index><yama:smoothed_ele>850.3533333333332</yama:smoothed_ele><yama:prominence>52.32599999999991</yama:prominence><yama:detection_method>local_maxima_with_prominence</yama:detection_method><yama:detection_parameters>window=5,radius=10,min_prominence=30,merge=100</yama:detection_parameters><yama:candidate_status>unresolved</yama:candidate_status></extensions></wpt>
  <trk><name>加塚山</name><number>1</number><trkseg><trkpt lat="33.1696719" lon="132.6150429"><ele>857.37</ele><time>2025-04-05T23:48:40Z</time></trkpt><trkpt lat="33.1694937" lon="132.6149773"><ele>857.845</ele><time>2025-04-05T23:49:34Z</time></trkpt><trkpt lat="33.169305" lon="132.6149773"><ele>859.1233333333333</ele><time>2025-04-05T23:51:43Z</time></trkpt><trkpt lat="33.1691006" lon="132.6150219"><ele>861.5633333333334</ele><time>2025-04-05T23:52:13Z</time></trkpt><trkpt lat="33.168915" lon="132.6150812"><ele>865.1333333333333</ele><time>2025-04-05T23:52:36Z</time></trkpt><trkpt lat="33.168728" lon="132.6151069"><ele>868.1533333333333</ele><time>2025-04-05T23:53:24Z</time></trkpt><trkpt lat="33.1685269" lon="132.6151522"><ele>869.9366666666666</ele><time>2025-04-05T23:54:45Z</time></trkpt><trkpt lat="33.1683502" lon="132.6152655"><ele>867.8766666666667</ele><time>2025-04-05T23:56:27Z</time></trkpt><trkpt lat="33.1681885" lon="132.6153731"><ele>861.7066666666666</ele><time>2025-04-05T23:56:51Z</time></trkpt><trkpt lat="33.1680341" lon="132.615498"><ele>854.4633333333333</ele><time>2025-04-05T23:57:12Z</time></trkpt><trkpt lat="33.1678766" lon="132.6156279"><ele>847.6733333333333</ele><time>2025-04-05T23:57:33Z</time></trkpt><trkpt lat="33.1677463" lon="132.6157834"><ele>844.2800000000001</ele><time>2025-04-05T23:57:53Z</time></trkpt><trkpt lat="33.1677594" lon="132.6155522"><ele>842.73</ele><time>2025-04-05T23:59:59Z</time></trkpt><trkpt lat="33.1675686" lon="132.6155092"><ele>842.1233333333333</ele><time>2025-04-06T00:00:26Z</time></trkpt><trkpt lat="33.1673732" lon="132.615576"><ele>841.6199999999999</ele><time>2025-04-06T00:01:26Z</time></trkpt><trkpt lat="33.1672101" lon="132.6157232"><ele>841.0633333333332</ele><time>2025-04-06T00:01:47Z</time></trkpt><trkpt lat="33.1670049" lon="132.6157911"><ele>839.7866666666667</ele><time>2025-04-06T00:02:05Z</time></trkpt><trkpt lat="33.1668357" lon="132.6158663"><ele>838.4933333333333</ele><time>2025-04-06T00:02:20Z</time></trkpt><trkpt lat="33.1666399" lon="132.6158877"><ele>835.57</ele><time>2025-04-06T00:02:41Z</time></trkpt><trkpt lat="33.1664548" lon="132.6159239"><ele>832.6366666666667</ele><time>2025-04-06T00:02:56Z</time></trkpt><trkpt lat="33.1662797" lon="132.6158045"><ele>827.8266666666667</ele><time>2025-04-06T00:03:10Z</time></trkpt><trkpt lat="33.16608" lon="132.6157922"><ele>821.7833333333333</ele><time>2025-04-06T00:03:25Z</time></trkpt><trkpt lat="33.1659538" lon="132.6159782"><ele>820.75</ele><time>2025-04-06T00:03:40Z</time></trkpt><trkpt lat="33.1657702" lon="132.616094"><ele>817.9733333333334</ele><time>2025-04-06T00:03:55Z</time></trkpt><trkpt lat="33.165565" lon="132.616092"><ele>815.3933333333333</ele><time>2025-04-06T00:04:10Z</time></trkpt><trkpt lat="33.165365" lon="132.6160229"><ele>807.16</ele><time>2025-04-06T00:04:25Z</time></trkpt><trkpt lat="33.1651892" lon="132.6160732"><ele>805.4733333333334</ele><time>2025-04-06T00:04:37Z</time></trkpt><trkpt lat="33.1650978" lon="132.6162817"><ele>807.86</ele><time>2025-04-06T00:04:52Z</time></trkpt><trkpt lat="33.1650704" lon="132.6165425"><ele>811.3000000000001</ele><time>2025-04-06T00:05:07Z</time></trkpt><trkpt lat="33.1650214" lon="132.6167792"><ele>811.4633333333333</ele><time>2025-04-06T00:05:22Z</time></trkpt><trkpt lat="33.165053" lon="132.6170358"><ele>810.2800000000001</ele><time>2025-04-06T00:05:37Z</time></trkpt><trkpt lat="33.1650136" lon="132.6172666"><ele>812.4666666666667</ele><time>2025-04-06T00:05:52Z</time></trkpt><trkpt lat="33.1649353" lon="132.6174994"><ele>815.7400000000001</ele><time>2025-04-06T00:06:10Z</time></trkpt><trkpt lat="33.1647474" lon="132.6175643"><ele>815.1766666666666</ele><time>2025-04-06T00:06:25Z</time></trkpt><trkpt lat="33.1645669" lon="132.6176802"><ele>811.18</ele><time>2025-04-06T00:07:04Z</time></trkpt><trkpt lat="33.1643611" lon="132.617703"><ele>806.75</ele><time>2025-04-06T00:07:19Z</time></trkpt><trkpt lat="33.1641992" lon="132.6178234"><ele>805.3366666666667</ele><time>2025-04-06T00:07:34Z</time></trkpt><trkpt lat="33.1640061" lon="132.6178685"><ele>805.4833333333332</ele><time>2025-04-06T00:07:49Z</time></trkpt><trkpt lat="33.1638154" lon="132.6179604"><ele>804.4866666666667</ele><time>2025-04-06T00:08:04Z</time></trkpt><trkpt lat="33.1636246" lon="132.618014"><ele>799.5066666666667</ele><time>2025-04-06T00:08:19Z</time></trkpt><trkpt lat="33.1634686" lon="132.6181635"><ele>794.2733333333334</ele><time>2025-04-06T00:08:34Z</time></trkpt><trkpt lat="33.1633804" lon="132.6183957"><ele>791.9433333333333</ele><time>2025-04-06T00:08:49Z</time></trkpt><trkpt lat="33.1632273" lon="132.6185546"><ele>794.8033333333333</ele><time>2025-04-06T00:09:04Z</time></trkpt><trkpt lat="33.1630369" lon="132.6186749"><ele>796.36</ele><time>2025-04-06T00:09:19Z</time></trkpt><trkpt lat="33.1629006" lon="132.6188451"><ele>796.44</ele><time>2025-04-06T00:09:34Z</time></trkpt><trkpt lat="33.1627148" lon="132.6188766"><ele>793.7133333333335</ele><time>2025-04-06T00:09:49Z</time></trkpt><trkpt lat="33.1625088" lon="132.6189434"><ele>792.46</ele><time>2025-04-06T00:10:06Z</time></trkpt><trkpt lat="33.1624288" lon="132.6191485"><ele>794.4066666666668</ele><time>2025-04-06T00:10:21Z</time></trkpt><trkpt lat="33.1624014" lon="132.6193899"><ele>799.0566666666667</ele><time>2025-04-06T00:10:45Z</time></trkpt><trkpt lat="33.1623199" lon="132.6195851"><ele>804.6333333333333</ele><time>2025-04-06T00:11:00Z</time></trkpt><trkpt lat="33.1621785" lon="132.6197481"><ele>803.9866666666667</ele><time>2025-04-06T00:11:15Z</time></trkpt><trkpt lat="33.162142" lon="132.6200014"><ele>805.7933333333334</ele><time>2025-04-06T00:11:30Z</time></trkpt><trkpt lat="33.1621302" lon="132.6202543"><ele>808.3466666666667</ele><time>2025-04-06T00:11:45Z</time></trkpt><trkpt lat="33.1620011" lon="132.6204337"><ele>812.7533333333334</ele><time>2025-04-06T00:12:00Z</time></trkpt><trkpt lat="33.1619323" lon="132.6206636"><ele>814.4833333333335</ele><time>2025-04-06T00:12:15Z</time></trkpt><trkpt lat="33.1617977" lon="132.6208356"><ele>813.4433333333333</ele><time>2025-04-06T00:12:30Z</time></trkpt><trkpt lat="33.1616278" lon="132.6209389"><ele>811.0766666666667</ele><time>2025-04-06T00:12:45Z</time></trkpt><trkpt lat="33.16143" lon="132.6210224"><ele>807.0133333333333</ele><time>2025-04-06T00:13:00Z</time></trkpt><trkpt lat="33.1612664" lon="132.6211738"><ele>805.6999999999999</ele><time>2025-04-06T00:13:15Z</time></trkpt><trkpt lat="33.1611347" lon="132.621356"><ele>806.6999999999999</ele><time>2025-04-06T00:13:30Z</time></trkpt><trkpt lat="33.1609817" lon="132.6215111"><ele>808.98</ele><time>2025-04-06T00:13:45Z</time></trkpt><trkpt lat="33.1607754" lon="132.6215537"><ele>810.1866666666668</ele><time>2025-04-06T00:14:03Z</time></trkpt><trkpt lat="33.1605989" lon="132.6214329"><ele>808.0233333333334</ele><time>2025-04-06T00:14:18Z</time></trkpt><trkpt lat="33.160446" lon="132.6212864"><ele>803.02</ele><time>2025-04-06T00:14:33Z</time></trkpt><trkpt lat="33.1602949" lon="132.6211378"><ele>796.5933333333334</ele><time>2025-04-06T00:14:48Z</time></trkpt><trkpt lat="33.160133" lon="132.6212397"><ele>793.8633333333333</ele><time>2025-04-06T00:15:03Z</time></trkpt><trkpt lat="33.1601253" lon="132.621479"><ele>794.8833333333333</ele><time>2025-04-06T00:16:18Z</time></trkpt><trkpt lat="33.1600263" lon="132.6216774"><ele>795.65</ele><time>2025-04-06T00:16:39Z</time></trkpt><trkpt lat="33.1598425" lon="132.6218156"><ele>795.0733333333334</ele><time>2025-04-06T00:16:57Z</time></trkpt><trkpt lat="33.1597197" lon="132.6220271"><ele>793.6366666666667</ele><time>2025-04-06T00:17:12Z</time></trkpt><trkpt lat="33.1595984" lon="132.6222101"><ele>791.9933333333333</ele><time>2025-04-06T00:17:27Z</time></trkpt><trkpt lat="33.1595634" lon="132.6224365"><ele>792.9233333333333</ele><time>2025-04-06T00:17:42Z</time></trkpt><trkpt lat="33.1595438" lon="132.6226752"><ele>794.2566666666667</ele><time>2025-04-06T00:17:57Z</time></trkpt><trkpt lat="33.1595804" lon="132.622914"><ele>796.9566666666666</ele><time>2025-04-06T00:18:12Z</time></trkpt><trkpt lat="33.1596209" lon="132.6231646"><ele>799.2533333333332</ele><time>2025-04-06T00:18:29Z</time></trkpt><trkpt lat="33.1596582" lon="132.6233756"><ele>799.4833333333332</ele><time>2025-04-06T00:18:44Z</time></trkpt><trkpt lat="33.1595464" lon="132.6235926"><ele>798.2166666666667</ele><time>2025-04-06T00:19:02Z</time></trkpt><trkpt lat="33.1594238" lon="132.6237598"><ele>796.68</ele><time>2025-04-06T00:19:19Z</time></trkpt><trkpt lat="33.1592574" lon="132.6238879"><ele>798.0500000000001</ele><time>2025-04-06T00:19:37Z</time></trkpt><trkpt lat="33.1591479" lon="132.6240983"><ele>801.6366666666667</ele><time>2025-04-06T00:19:55Z</time></trkpt><trkpt lat="33.1589576" lon="132.6241557"><ele>802.1466666666666</ele><time>2025-04-06T00:20:15Z</time></trkpt><trkpt lat="33.1588742" lon="132.6243575"><ele>803.0300000000001</ele><time>2025-04-06T00:20:36Z</time></trkpt><trkpt lat="33.1587314" lon="132.6245217"><ele>805.4433333333333</ele><time>2025-04-06T00:20:56Z</time></trkpt><trkpt lat="33.1585306" lon="132.6245631"><ele>809.6</ele><time>2025-04-06T00:21:16Z</time></trkpt><trkpt lat="33.1583733" lon="132.6246984"><ele>811.9566666666666</ele><time>2025-04-06T00:21:33Z</time></trkpt><trkpt lat="33.1582796" lon="132.624917"><ele>815.43</ele><time>2025-04-06T00:21:57Z</time></trkpt><trkpt lat="33.1581273" lon="132.6250327"><ele>818.14</ele><time>2025-04-06T00:22:39Z</time></trkpt><trkpt lat="33.1581267" lon="132.6252498"><ele>825.5600000000001</ele><time>2025-04-06T00:27:06Z</time></trkpt><trkpt lat="33.1580762" lon="132.6254657"><ele>832.0033333333334</ele><time>2025-04-06T00:27:42Z</time></trkpt><trkpt lat="33.1579571" lon="132.6256516"><ele>841.8966666666666</ele><time>2025-04-06T00:28:42Z</time></trkpt><trkpt lat="33.157777" lon="132.625723"><ele>848.37</ele><time>2025-04-06T00:29:11Z</time></trkpt><trkpt lat="33.1575909" lon="132.6257954"><ele>854.4633333333333</ele><time>2025-04-06T00:29:50Z</time></trkpt><trkpt lat="33.1574018" lon="132.6258454"><ele>860.4233333333333</ele><time>2025-04-06T00:32:59Z</time></trkpt><trkpt lat="33.157239" lon="132.6259692"><ele>868.4133333333334</ele><time>2025-04-06T00:33:38Z</time></trkpt><trkpt lat="33.1570651" lon="132.6260478"><ele>875.73</ele><time>2025-04-06T00:34:06Z</time></trkpt><trkpt lat="33.156905" lon="132.6261578"><ele>881.6866666666666</ele><time>2025-04-06T00:34:33Z</time></trkpt><trkpt lat="33.1567122" lon="132.6261997"><ele>885.1633333333333</ele><time>2025-04-06T00:34:57Z</time></trkpt><trkpt lat="33.1565234" lon="132.6261888"><ele>886.2199999999999</ele><time>2025-04-06T00:35:30Z</time></trkpt><trkpt lat="33.1563204" lon="132.6262352"><ele>884.4</ele><time>2025-04-06T00:35:51Z</time></trkpt><trkpt lat="33.1561552" lon="132.626326"><ele>883.1733333333333</ele><time>2025-04-06T00:37:33Z</time></trkpt><trkpt lat="33.1559726" lon="132.6263497"><ele>882.2833333333333</ele><time>2025-04-06T00:38:18Z</time></trkpt><trkpt lat="33.1558686" lon="132.6265348"><ele>887.61</ele><time>2025-04-06T00:38:47Z</time></trkpt><trkpt lat="33.1557189" lon="132.6266931"><ele>893.34</ele><time>2025-04-06T00:39:29Z</time></trkpt><trkpt lat="33.1555527" lon="132.6268363"><ele>901.4900000000001</ele><time>2025-04-06T00:40:01Z</time></trkpt><trkpt lat="33.1553958" lon="132.6269649"><ele>906.12</ele><time>2025-04-06T00:40:25Z</time></trkpt><trkpt lat="33.1551998" lon="132.6269629"><ele>910.3466666666667</ele><time>2025-04-06T00:40:55Z</time></trkpt><trkpt lat="33.1550133" lon="132.6269452"><ele>913.5733333333334</ele><time>2025-04-06T00:41:19Z</time></trkpt><trkpt lat="33.1548082" lon="132.6269939"><ele>917.5</ele><time>2025-04-06T00:41:42Z</time></trkpt><trkpt lat="33.1546236" lon="132.6270802"><ele>921.3000000000001</ele><time>2025-04-06T00:42:45Z</time></trkpt><trkpt lat="33.1544414" lon="132.6270302"><ele>924.2233333333334</ele><time>2025-04-06T00:43:09Z</time></trkpt><trkpt lat="33.1542506" lon="132.6270784"><ele>927.8866666666667</ele><time>2025-04-06T00:43:33Z</time></trkpt><trkpt lat="33.1540631" lon="132.6270565"><ele>931.84</ele><time>2025-04-06T00:44:02Z</time></trkpt><trkpt lat="33.1538778" lon="132.6270428"><ele>936.75</ele><time>2025-04-06T00:44:44Z</time></trkpt><trkpt lat="33.153801" lon="132.6268287"><ele>936.5033333333334</ele><time>2025-04-06T00:45:17Z</time></trkpt><trkpt lat="33.1536594" lon="132.6266764"><ele>931.4333333333334</ele><time>2025-04-06T00:46:10Z</time></trkpt><trkpt lat="33.1536236" lon="132.6264491"><ele>922.9833333333332</ele><time>2025-04-06T00:46:52Z</time></trkpt><trkpt lat="33.1534621" lon="132.6263307"><ele>915.1366666666667</ele><time>2025-04-06T00:47:16Z</time></trkpt><trkpt lat="33.1533846" lon="132.6261247"><ele>908.0466666666667</ele><time>2025-04-06T00:48:00Z</time></trkpt><trkpt lat="33.1532214" lon="132.6260209"><ele>901.18</ele><time>2025-04-06T00:48:24Z</time></trkpt><trkpt lat="33.1531188" lon="132.6258381"><ele>892.3766666666667</ele><time>2025-04-06T00:49:00Z</time></trkpt><trkpt lat="33.1532425" lon="132.6260201"><ele>890.13</ele><time>2025-04-06T00:50:18Z</time></trkpt><trkpt lat="33.1533738" lon="132.6261874"><ele>893.5333333333333</ele><time>2025-04-06T00:51:30Z</time></trkpt><trkpt lat="33.1534982" lon="132.6263437"><ele>902.3366666666667</ele><time>2025-04-06T00:52:39Z</time></trkpt><trkpt lat="33.153585" lon="132.6265387"><ele>910.2766666666666</ele><time>2025-04-06T00:53:36Z</time></trkpt><trkpt lat="33.1536213" lon="132.6267495"><ele>917.31</ele><time>2025-04-06T00:54:36Z</time></trkpt><trkpt lat="33.1536197" lon="132.6269776"><ele>926.3733333333333</ele><time>2025-04-06T00:55:33Z</time></trkpt><trkpt lat="33.1536109" lon="132.6272034"><ele>933.5400000000001</ele><time>2025-04-06T00:56:54Z</time></trkpt><trkpt lat="33.1534969" lon="132.6273943"><ele>936.7933333333334</ele><time>2025-04-06T01:01:33Z</time></trkpt><trkpt lat="33.1533438" lon="132.6275113"><ele>934.8800000000001</ele><time>2025-04-06T01:02:00Z</time></trkpt><trkpt lat="33.1533034" lon="132.6277397"><ele>929.8233333333334</ele><time>2025-04-06T01:02:30Z</time></trkpt><trkpt lat="33.1532299" lon="132.6279359"><ele>926.3166666666667</ele><time>2025-04-06T01:02:54Z</time></trkpt><trkpt lat="33.1531379" lon="132.6281291"><ele>926.7833333333334</ele><time>2025-04-06T01:03:21Z</time></trkpt><trkpt lat="33.1529832" lon="132.6282496"><ele>930.5466666666667</ele><time>2025-04-06T01:03:53Z</time></trkpt><trkpt lat="33.1528854" lon="132.6284376"><ele>935.4133333333334</ele><time>2025-04-06T01:04:29Z</time></trkpt><trkpt lat="33.1528427" lon="132.6286761"><ele>938.84</ele><time>2025-04-06T01:04:53Z</time></trkpt><trkpt lat="33.1527437" lon="132.628857"><ele>941.5933333333332</ele><time>2025-04-06T01:05:26Z</time></trkpt><trkpt lat="33.1526615" lon="132.6290744"><ele>944.2600000000001</ele><time>2025-04-06T01:06:29Z</time></trkpt><trkpt lat="33.1525768" lon="132.6292731"><ele>947.1133333333333</ele><time>2025-04-06T01:06:53Z</time></trkpt><trkpt lat="33.1524725" lon="132.629452"><ele>950.0300000000001</ele><time>2025-04-06T01:07:23Z</time></trkpt><trkpt lat="33.1523598" lon="132.6296351"><ele>952.59</ele><time>2025-04-06T01:08:01Z</time></trkpt><trkpt lat="33.1522055" lon="132.6297781"><ele>955.3633333333333</ele><time>2025-04-06T01:08:40Z</time></trkpt><trkpt lat="33.1520139" lon="132.6298515"><ele>957.7533333333332</ele><time>2025-04-06T01:09:04Z</time></trkpt><trkpt lat="33.1518363" lon="132.6299101"><ele>959.7999999999998</ele><time>2025-04-06T01:09:31Z</time></trkpt><trkpt lat="33.1516696" lon="132.6300036"><ele>960.0133333333333</ele><time>2025-04-06T01:12:37Z</time></trkpt><trkpt lat="33.1515555" lon="132.6301715"><ele>957.1766666666667</ele><time>2025-04-06T01:13:19Z</time></trkpt><trkpt lat="33.1513749" lon="132.6301538"><ele>950.9466666666667</ele><time>2025-04-06T01:13:58Z</time></trkpt><trkpt lat="33.1514637" lon="132.630348"><ele>946.82</ele><time>2025-04-06T01:14:43Z</time></trkpt><trkpt lat="33.1513758" lon="132.6305382"><ele>943.9966666666666</ele><time>2025-04-06T01:15:03Z</time></trkpt><trkpt lat="33.1512273" lon="132.630664"><ele>941.7266666666668</ele><time>2025-04-06T01:15:45Z</time></trkpt><trkpt lat="33.1510495" lon="132.6307392"><ele>935.8800000000001</ele><time>2025-04-06T01:16:15Z</time></trkpt><trkpt lat="33.1509169" lon="132.6308892"><ele>929.5866666666667</ele><time>2025-04-06T01:16:39Z</time></trkpt><trkpt lat="33.1507302" lon="132.6309708"><ele>924.59</ele><time>2025-04-06T01:17:24Z</time></trkpt><trkpt lat="33.1505456" lon="132.6309562"><ele>918.7866666666667</ele><time>2025-04-06T01:17:42Z</time></trkpt><trkpt lat="33.1503713" lon="132.6310801"><ele>914.8133333333334</ele><time>2025-04-06T01:18:15Z</time></trkpt><trkpt lat="33.150197" lon="132.631185"><ele>910.9733333333334</ele><time>2025-04-06T01:18:36Z</time></trkpt><trkpt lat="33.1501002" lon="132.6313833"><ele>910.89</ele><time>2025-04-06T01:19:09Z</time></trkpt><trkpt lat="33.1500111" lon="132.6315709"><ele>911.1666666666666</ele><time>2025-04-06T01:19:38Z</time></trkpt><trkpt lat="33.1498907" lon="132.6317446"><ele>914.2433333333333</ele><time>2025-04-06T01:20:05Z</time></trkpt><trkpt lat="33.1497736" lon="132.6319211"><ele>918.4533333333334</ele><time>2025-04-06T01:20:56Z</time></trkpt><trkpt lat="33.1495953" lon="132.631978"><ele>924.6966666666667</ele><time>2025-04-06T01:21:37Z</time></trkpt><trkpt lat="33.149453" lon="132.6321285"><ele>931.4866666666667</ele><time>2025-04-06T01:22:07Z</time></trkpt><trkpt lat="33.1493343" lon="132.6322939"><ele>937.2266666666668</ele><time>2025-04-06T01:22:40Z</time></trkpt><trkpt lat="33.1491861" lon="132.6321438"><ele>940.3933333333334</ele><time>2025-04-06T01:23:49Z</time></trkpt><trkpt lat="33.1490134" lon="132.6320619"><ele>940.11</ele><time>2025-04-06T01:25:13Z</time></trkpt><trkpt lat="33.1488174" lon="132.6319679"><ele>936.7766666666666</ele><time>2025-04-06T01:25:58Z</time></trkpt><trkpt lat="33.1486109" lon="132.6319295"><ele>930.5133333333333</ele><time>2025-04-06T01:26:15Z</time></trkpt><trkpt lat="33.1484" lon="132.6319086"><ele>924.5933333333332</ele><time>2025-04-06T01:26:36Z</time></trkpt><trkpt lat="33.1482121" lon="132.6318525"><ele>920.7333333333332</ele><time>2025-04-06T01:26:54Z</time></trkpt><trkpt lat="33.1480138" lon="132.6317256"><ele>917.4933333333333</ele><time>2025-04-06T01:27:21Z</time></trkpt><trkpt lat="33.1478222" lon="132.6316868"><ele>914.3366666666667</ele><time>2025-04-06T01:27:36Z</time></trkpt><trkpt lat="33.147699" lon="132.6314595"><ele>907.5633333333332</ele><time>2025-04-06T01:28:33Z</time></trkpt><trkpt lat="33.1475128" lon="132.6314253"><ele>903.32</ele><time>2025-04-06T01:28:45Z</time></trkpt><trkpt lat="33.1473388" lon="132.631324"><ele>896.7366666666667</ele><time>2025-04-06T01:28:59Z</time></trkpt><trkpt lat="33.147177" lon="132.6311739"><ele>893.8266666666667</ele><time>2025-04-06T01:29:14Z</time></trkpt><trkpt lat="33.1469779" lon="132.6310918"><ele>889.6333333333333</ele><time>2025-04-06T01:29:35Z</time></trkpt><trkpt lat="33.1467871" lon="132.6311307"><ele>888.4066666666668</ele><time>2025-04-06T01:29:55Z</time></trkpt><trkpt lat="33.1466058" lon="132.6312278"><ele>887.5633333333334</ele><time>2025-04-06T01:30:10Z</time></trkpt><trkpt lat="33.1464137" lon="132.6312552"><ele>887.6233333333333</ele><time>2025-04-06T01:30:25Z</time></trkpt><trkpt lat="33.146211" lon="132.6312633"><ele>885.0433333333334</ele><time>2025-04-06T01:30:40Z</time></trkpt><trkpt lat="33.1460122" lon="132.6313267"><ele>880.4200000000001</ele><time>2025-04-06T01:30:55Z</time></trkpt><trkpt lat="33.145806" lon="132.6313877"><ele>875.7533333333334</ele><time>2025-04-06T01:31:10Z</time></trkpt><trkpt lat="33.1456044" lon="132.6313958"><ele>873.0366666666665</ele><time>2025-04-06T01:31:37Z</time></trkpt><trkpt lat="33.1454686" lon="132.6312098"><ele>870.1466666666666</ele><time>2025-04-06T01:31:55Z</time></trkpt><trkpt lat="33.1453328" lon="132.6310394"><ele>866.2766666666666</ele><time>2025-04-06T01:32:09Z</time></trkpt><trkpt lat="33.1452145" lon="132.6308382"><ele>861.89</ele><time>2025-04-06T01:32:24Z</time></trkpt><trkpt lat="33.1451161" lon="132.6306094"><ele>855.36</ele><time>2025-04-06T01:32:39Z</time></trkpt><trkpt lat="33.1449301" lon="132.6304712"><ele>850.2633333333333</ele><time>2025-04-06T01:32:54Z</time></trkpt><trkpt lat="33.1447526" lon="132.6303137"><ele>847.9366666666666</ele><time>2025-04-06T01:33:09Z</time></trkpt><trkpt lat="33.144665" lon="132.6300787"><ele>849.9466666666667</ele><time>2025-04-06T01:33:24Z</time></trkpt><trkpt lat="33.1445601" lon="132.6298794"><ele>851.86</ele><time>2025-04-06T01:33:39Z</time></trkpt><trkpt lat="33.144385" lon="132.6299492"><ele>854.7599999999999</ele><time>2025-04-06T01:34:53Z</time></trkpt><trkpt lat="33.1443524" lon="132.6301638"><ele>861.58</ele><time>2025-04-06T01:36:26Z</time></trkpt><trkpt lat="33.1443299" lon="132.6303821"><ele>870.46</ele><time>2025-04-06T01:37:31Z</time></trkpt><trkpt lat="33.1442415" lon="132.63058"><ele>881.5033333333332</ele><time>2025-04-06T01:38:25Z</time></trkpt><trkpt lat="33.1440562" lon="132.6306613"><ele>892.5033333333334</ele><time>2025-04-06T01:39:31Z</time></trkpt><trkpt lat="33.1438749" lon="132.63063"><ele>902.7833333333333</ele><time>2025-04-06T01:40:00Z</time></trkpt><trkpt lat="33.1436836" lon="132.6305246"><ele>908.48</ele><time>2025-04-06T01:40:26Z</time></trkpt><trkpt lat="33.1435171" lon="132.6304366"><ele>909.9133333333333</ele><time>2025-04-06T01:40:44Z</time></trkpt><trkpt lat="33.1433412" lon="132.6303786"><ele>910.0766666666667</ele><time>2025-04-06T01:41:01Z</time></trkpt><trkpt lat="33.143154" lon="132.6304158"><ele>911.9699999999999</ele><time>2025-04-06T01:41:24Z</time></trkpt><trkpt lat="33.1429856" lon="132.6304937"><ele>914.9699999999999</ele><time>2025-04-06T01:42:30Z</time></trkpt><trkpt lat="33.1428018" lon="132.6305635"><ele>918.1300000000001</ele><time>2025-04-06T01:42:54Z</time></trkpt><trkpt lat="33.1426396" lon="132.6306789"><ele>919.7633333333333</ele><time>2025-04-06T01:43:17Z</time></trkpt><trkpt lat="33.1424627" lon="132.6305929"><ele>920.8366666666667</ele><time>2025-04-06T01:43:37Z</time></trkpt><trkpt lat="33.1423384" lon="132.6304022"><ele>921.4566666666666</ele><time>2025-04-06T01:44:03Z</time></trkpt><trkpt lat="33.1421767" lon="132.6302716"><ele>921.4433333333333</ele><time>2025-04-06T01:44:24Z</time></trkpt><trkpt lat="33.1419885" lon="132.6301753"><ele>920.8633333333333</ele><time>2025-04-06T01:45:23Z</time></trkpt><trkpt lat="33.1418003" lon="132.6302044"><ele>919.0366666666665</ele><time>2025-04-06T01:45:46Z</time></trkpt><trkpt lat="33.1416017" lon="132.630217"><ele>914.5966666666667</ele><time>2025-04-06T01:46:13Z</time></trkpt><trkpt lat="33.1414244" lon="132.630271"><ele>908.9200000000001</ele><time>2025-04-06T01:46:36Z</time></trkpt><trkpt lat="33.1412214" lon="132.6303072"><ele>904.4633333333333</ele><time>2025-04-06T01:47:00Z</time></trkpt><trkpt lat="33.141043" lon="132.6303584"><ele>903.9133333333333</ele><time>2025-04-06T01:47:36Z</time></trkpt><trkpt lat="33.1408868" lon="132.630251"><ele>907.1700000000001</ele><time>2025-04-06T01:48:26Z</time></trkpt><trkpt lat="33.1407291" lon="132.6301409"><ele>911.7233333333334</ele><time>2025-04-06T01:48:56Z</time></trkpt><trkpt lat="33.1405727" lon="132.6300252"><ele>912.7999999999998</ele><time>2025-04-06T01:49:49Z</time></trkpt><trkpt lat="33.1403843" lon="132.6300821"><ele>914.0633333333334</ele><time>2025-04-06T01:50:16Z</time></trkpt><trkpt lat="33.1402129" lon="132.6299752"><ele>911.84</ele><time>2025-04-06T01:50:40Z</time></trkpt><trkpt lat="33.1400203" lon="132.6300331"><ele>910.8266666666668</ele><time>2025-04-06T01:51:25Z</time></trkpt><trkpt lat="33.1398351" lon="132.6300074"><ele>906.4366666666666</ele><time>2025-04-06T01:51:51Z</time></trkpt><trkpt lat="33.1396535" lon="132.6299846"><ele>903.3133333333334</ele><time>2025-04-06T01:52:15Z</time></trkpt><trkpt lat="33.1394612" lon="132.6299543"><ele>901.59</ele><time>2025-04-06T01:52:39Z</time></trkpt><trkpt lat="33.1392549" lon="132.6299786"><ele>898.5033333333334</ele><time>2025-04-06T01:53:24Z</time></trkpt><trkpt lat="33.1390903" lon="132.6300937"><ele>893.8933333333333</ele><time>2025-04-06T01:53:45Z</time></trkpt><trkpt lat="33.1389893" lon="132.6299071"><ele>889.64</ele><time>2025-04-06T01:54:09Z</time></trkpt><trkpt lat="33.1388638" lon="132.6297185"><ele>885.29</ele><time>2025-04-06T01:54:36Z</time></trkpt><trkpt lat="33.1386761" lon="132.6296933"><ele>880.7966666666666</ele><time>2025-04-06T01:55:12Z</time></trkpt><trkpt lat="33.138492" lon="132.6296071"><ele>874.0066666666667</ele><time>2025-04-06T01:55:41Z</time></trkpt><trkpt lat="33.1383179" lon="132.6295194"><ele>866.5066666666667</ele><time>2025-04-06T01:56:08Z</time></trkpt><trkpt lat="33.1381406" lon="132.6294169"><ele>861.1733333333333</ele><time>2025-04-06T01:56:44Z</time></trkpt><trkpt lat="33.1379914" lon="132.6292865"><ele>858.0500000000001</ele><time>2025-04-06T01:57:29Z</time></trkpt><trkpt lat="33.1378635" lon="132.6291289"><ele>860.2800000000001</ele><time>2025-04-06T01:58:17Z</time></trkpt><trkpt lat="33.1377031" lon="132.629006"><ele>865.3833333333333</ele><time>2025-04-06T01:59:56Z</time></trkpt><trkpt lat="33.1375234" lon="132.6289497"><ele>877.0202928046988</ele><time>2025-04-06T02:00:38Z</time></trkpt><trkpt lat="33.13734" lon="132.6289333"><ele>889.3423805883122</ele><time>2025-04-06T02:01:26Z</time></trkpt><trkpt lat="33.1371595" lon="132.6288873"><ele>900.4944079253986</ele><time>2025-04-06T02:07:08Z</time></trkpt><trkpt lat="33.1370072" lon="132.6287627"><ele>905.7684714316329</ele><time>2025-04-06T02:07:41Z</time></trkpt><trkpt lat="33.1368496" lon="132.6286539"><ele>909.6876949415883</ele><time>2025-04-06T02:08:10Z</time></trkpt><trkpt lat="33.1366873" lon="132.6285558"><ele>915.4495922363461</ele><time>2025-04-06T02:09:16Z</time></trkpt><trkpt lat="33.1365061" lon="132.6284995"><ele>923.514913209946</ele><time>2025-04-06T02:10:31Z</time></trkpt><trkpt lat="33.1363433" lon="132.6285918"><ele>933.0320876252785</ele><time>2025-04-06T02:11:07Z</time></trkpt><trkpt lat="33.1361537" lon="132.6285636"><ele>941.0418264827276</ele><time>2025-04-06T02:11:55Z</time></trkpt><trkpt lat="33.135974" lon="132.6285154"><ele>947.1721555161326</ele><time>2025-04-06T02:13:19Z</time></trkpt><trkpt lat="33.1357886" lon="132.6284942"><ele>952.8245956540113</ele><time>2025-04-06T02:13:52Z</time></trkpt><trkpt lat="33.1356109" lon="132.6284219"><ele>960.290729498652</ele><time>2025-04-06T02:14:39Z</time></trkpt><trkpt lat="33.135439" lon="132.6283469"><ele>968.2573419472898</ele><time>2025-04-06T02:15:21Z</time></trkpt><trkpt lat="33.1352492" lon="132.6282889"><ele>975.8640263537221</ele><time>2025-04-06T02:16:03Z</time></trkpt><trkpt lat="33.1350708" lon="132.6283272"><ele>981.813675605995</ele><time>2025-04-06T02:16:36Z</time></trkpt><trkpt lat="33.1348921" lon="132.6283671"><ele>987.9573351037948</ele><time>2025-04-06T02:17:18Z</time></trkpt><trkpt lat="33.1347107" lon="132.6284018"><ele>994.4406200969121</ele><time>2025-04-06T02:18:06Z</time></trkpt><trkpt lat="33.134513" lon="132.6283693"><ele>1002.0095692616502</ele><time>2025-04-06T02:18:48Z</time></trkpt><trkpt lat="33.1343406" lon="132.6283027"><ele>1009.9885640819839</ele><time>2025-04-06T02:19:36Z</time></trkpt><trkpt lat="33.1341653" lon="132.6283786"><ele>1015.988589252405</ele><time>2025-04-06T02:20:06Z</time></trkpt><trkpt lat="33.1339887" lon="132.6284724"><ele>1020.6090247562321</ele><time>2025-04-06T02:20:48Z</time></trkpt><trkpt lat="33.1338185" lon="132.6285501"><ele>1025.5676446319014</ele><time>2025-04-06T02:21:38Z</time></trkpt><trkpt lat="33.1336386" lon="132.6285924"><ele>1032.863825170615</ele><time>2025-04-06T02:22:40Z</time></trkpt><trkpt lat="33.1334846" lon="132.628742"><ele>1039.55212840866</ele><time>2025-04-06T02:23:19Z</time></trkpt><trkpt lat="33.1333474" lon="132.6288821"><ele>1046.0563997005395</ele><time>2025-04-06T02:24:33Z</time></trkpt><trkpt lat="33.1332147" lon="132.6290506"><ele>1052.501072137612</ele><time>2025-04-06T02:25:39Z</time></trkpt><trkpt lat="33.1330339" lon="132.6290936"><ele>1059.377906030316</ele><time>2025-04-06T02:26:18Z</time></trkpt><trkpt lat="33.1328539" lon="132.6291346"><ele>1065.1222997604161</ele><time>2025-04-06T02:26:54Z</time></trkpt><trkpt lat="33.1326633" lon="132.6291729"><ele>1068.9166980634734</ele><time>2025-04-06T02:28:03Z</time></trkpt><trkpt lat="33.1328174" lon="132.6290592"><ele>1069.8255484698216</ele><time>2025-04-06T02:34:54Z</time></trkpt><trkpt lat="33.1330006" lon="132.6291071"><ele>1068.4270610505826</ele><time>2025-04-06T02:35:24Z</time></trkpt><trkpt lat="33.133177" lon="132.6290616"><ele>1065.2275455871384</ele><time>2025-04-06T02:36:57Z</time></trkpt><trkpt lat="33.1333437" lon="132.6289733"><ele>1060.7621093173027</ele><time>2025-04-06T02:37:36Z</time></trkpt><trkpt lat="33.1334618" lon="132.6288101"><ele>1054.1030468321644</ele><time>2025-04-06T02:38:12Z</time></trkpt><trkpt lat="33.1335555" lon="132.6286169"><ele>1046.98568353887</ele><time>2025-04-06T02:38:42Z</time></trkpt><trkpt lat="33.1337147" lon="132.6285092"><ele>1041.896109992628</ele><time>2025-04-06T02:39:03Z</time></trkpt><trkpt lat="33.1339108" lon="132.6285402"><ele>1037.0631887043617</ele><time>2025-04-06T02:39:42Z</time></trkpt><trkpt lat="33.1340819" lon="132.628436"><ele>1030.3908375312121</ele><time>2025-04-06T02:40:24Z</time></trkpt><trkpt lat="33.1342767" lon="132.628414"><ele>1023.3834359765368</ele><time>2025-04-06T02:40:45Z</time></trkpt><trkpt lat="33.1344121" lon="132.6282666"><ele>1018.201574557556</ele><time>2025-04-06T02:41:12Z</time></trkpt><trkpt lat="33.1344459" lon="132.6280381"><ele>1013.9188992733434</ele><time>2025-04-06T02:41:48Z</time></trkpt><trkpt lat="33.1345708" lon="132.6278705"><ele>1007.5082804641906</ele><time>2025-04-06T02:42:12Z</time></trkpt><trkpt lat="33.1345744" lon="132.6276453"><ele>996.6893194590366</ele><time>2025-04-06T02:42:48Z</time></trkpt><trkpt lat="33.1346079" lon="132.6273978"><ele>984.940846581253</ele><time>2025-04-06T02:43:06Z</time></trkpt><trkpt lat="33.1346487" lon="132.6271716"><ele>974.4834416515637</ele><time>2025-04-06T02:43:27Z</time></trkpt><trkpt lat="33.1347091" lon="132.6269503"><ele>967.9853265117117</ele><time>2025-04-06T02:43:53Z</time></trkpt><trkpt lat="33.1347497" lon="132.6267179"><ele>963.3049566149957</ele><time>2025-04-06T02:44:11Z</time></trkpt><trkpt lat="33.1347914" lon="132.6265002"><ele>958.5642156889534</ele><time>2025-04-06T02:44:35Z</time></trkpt><trkpt lat="33.1348398" lon="132.6262934"><ele>955.0765198732341</ele><time>2025-04-06T02:44:55Z</time></trkpt><trkpt lat="33.1348645" lon="132.6260535"><ele>952.5564509138311</ele><time>2025-04-06T02:45:22Z</time></trkpt><trkpt lat="33.1349724" lon="132.6258611"><ele>952.0578049253414</ele><time>2025-04-06T02:45:49Z</time></trkpt><trkpt lat="33.1348516" lon="132.6260346"><ele>952.0873025730945</ele><time>2025-04-06T02:46:52Z</time></trkpt><trkpt lat="33.1347934" lon="132.6262477"><ele>952.9875932689362</ele><time>2025-04-06T02:47:42Z</time></trkpt><trkpt lat="33.1347794" lon="132.6264865"><ele>954.4102640339352</ele><time>2025-04-06T02:48:09Z</time></trkpt><trkpt lat="33.134757" lon="132.6267067"><ele>956.5536061223878</ele><time>2025-04-06T02:48:33Z</time></trkpt><trkpt lat="33.1346839" lon="132.6269087"><ele>960.6678762527935</ele><time>2025-04-06T02:49:15Z</time></trkpt><trkpt lat="33.1346747" lon="132.6271329"><ele>965.9615669303375</ele><time>2025-04-06T02:49:42Z</time></trkpt><trkpt lat="33.1346256" lon="132.6273482"><ele>971.3451115493232</ele><time>2025-04-06T02:50:15Z</time></trkpt><trkpt lat="33.1345841" lon="132.6275681"><ele>976.6696932727046</ele><time>2025-04-06T02:51:06Z</time></trkpt><trkpt lat="33.1345144" lon="132.6277693"><ele>984.4021611687793</ele><time>2025-04-06T02:52:15Z</time></trkpt><trkpt lat="33.1345418" lon="132.627985"><ele>994.7122981178163</ele><time>2025-04-06T02:53:24Z</time></trkpt><trkpt lat="33.1346091" lon="132.628205"><ele>1002.989617790753</ele><time>2025-04-06T02:54:00Z</time></trkpt><trkpt lat="33.1347793" lon="132.6282847"><ele>1005.7346655272108</ele><time>2025-04-06T02:54:36Z</time></trkpt><trkpt lat="33.1349644" lon="132.6283229"><ele>1003.1699859080568</ele><time>2025-04-06T02:54:54Z</time></trkpt><trkpt lat="33.1351479" lon="132.6282853"><ele>997.8080245612906</ele><time>2025-04-06T02:55:15Z</time></trkpt><trkpt lat="33.1353292" lon="132.6283172"><ele>992.1951442310506</ele><time>2025-04-06T02:55:36Z</time></trkpt><trkpt lat="33.1355014" lon="132.6283811"><ele>986.7746652152018</ele><time>2025-04-06T02:55:57Z</time></trkpt><trkpt lat="33.135614" lon="132.6285562"><ele>981.9120381170275</ele><time>2025-04-06T02:56:27Z</time></trkpt><trkpt lat="33.1358043" lon="132.6285086"><ele>976.9280728886597</ele><time>2025-04-06T02:56:47Z</time></trkpt><trkpt lat="33.1359874" lon="132.6285375"><ele>970.7006292711862</ele><time>2025-04-06T02:57:07Z</time></trkpt><trkpt lat="33.1361761" lon="132.628603"><ele>963.9969781945671</ele><time>2025-04-06T02:57:28Z</time></trkpt><trkpt lat="33.1363611" lon="132.6286504"><ele>957.5105537896392</ele><time>2025-04-06T02:57:54Z</time></trkpt><trkpt lat="33.1365314" lon="132.628541"><ele>949.9376470656084</ele><time>2025-04-06T02:58:24Z</time></trkpt><trkpt lat="33.1366667" lon="132.6283572"><ele>941.6326086424478</ele><time>2025-04-06T02:58:44Z</time></trkpt><trkpt lat="33.1367637" lon="132.6281623"><ele>932.6250547236987</ele><time>2025-04-06T02:59:07Z</time></trkpt><trkpt lat="33.136758" lon="132.6284052"><ele>926.7432758127225</ele><time>2025-04-06T03:01:12Z</time></trkpt><trkpt lat="33.1368555" lon="132.6285978"><ele>923.180313048835</ele><time>2025-04-06T03:01:36Z</time></trkpt><trkpt lat="33.1370056" lon="132.6287429"><ele>919.8827440943722</ele><time>2025-04-06T03:02:15Z</time></trkpt><trkpt lat="33.1371583" lon="132.6289049"><ele>915.5124410494186</ele><time>2025-04-06T03:02:33Z</time></trkpt><trkpt lat="33.1373404" lon="132.6289537"><ele>910.0330195129228</ele><time>2025-04-06T03:02:51Z</time></trkpt><trkpt lat="33.1375361" lon="132.6289386"><ele>903.7853034015666</ele><time>2025-04-06T03:03:18Z</time></trkpt><trkpt lat="33.1377303" lon="132.628997"><ele>891.1469196197668</ele><time>2025-04-06T03:03:39Z</time></trkpt><trkpt lat="33.1378851" lon="132.6291113"><ele>877.9907648947141</ele><time>2025-04-06T03:04:11Z</time></trkpt><trkpt lat="33.1380208" lon="132.6292553"><ele>865.8466666666667</ele><time>2025-04-06T03:04:37Z</time></trkpt><trkpt lat="33.1381416" lon="132.6294161"><ele>860.7433333333333</ele><time>2025-04-06T03:04:57Z</time></trkpt><trkpt lat="33.1382755" lon="132.6292507"><ele>856.71</ele><time>2025-04-06T03:05:30Z</time></trkpt><trkpt lat="33.1384614" lon="132.6292533"><ele>854.2433333333333</ele><time>2025-04-06T03:06:06Z</time></trkpt><trkpt lat="33.138641" lon="132.6291134"><ele>851.16</ele><time>2025-04-06T03:06:21Z</time></trkpt><trkpt lat="33.1388099" lon="132.6289881"><ele>847.11</ele><time>2025-04-06T03:06:36Z</time></trkpt><trkpt lat="33.1390153" lon="132.6289082"><ele>842.1466666666666</ele><time>2025-04-06T03:06:50Z</time></trkpt><trkpt lat="33.1392052" lon="132.628885"><ele>838.8633333333333</ele><time>2025-04-06T03:07:05Z</time></trkpt><trkpt lat="33.139416" lon="132.628808"><ele>836.1733333333333</ele><time>2025-04-06T03:07:23Z</time></trkpt><trkpt lat="33.1396034" lon="132.6287979"><ele>833.67</ele><time>2025-04-06T03:07:40Z</time></trkpt><trkpt lat="33.1394187" lon="132.6287557"><ele>832.0166666666668</ele><time>2025-04-06T03:10:18Z</time></trkpt><trkpt lat="33.1392241" lon="132.6288729"><ele>833.6700000000001</ele><time>2025-04-06T03:10:36Z</time></trkpt><trkpt lat="33.1390271" lon="132.6288599"><ele>836.1733333333333</ele><time>2025-04-06T03:10:51Z</time></trkpt><trkpt lat="33.1388611" lon="132.6289886"><ele>838.9366666666666</ele><time>2025-04-06T03:11:06Z</time></trkpt><trkpt lat="33.138679" lon="132.6290428"><ele>840.8933333333333</ele><time>2025-04-06T03:11:30Z</time></trkpt><trkpt lat="33.1385332" lon="132.6291956"><ele>845.8966666666666</ele><time>2025-04-06T03:11:50Z</time></trkpt><trkpt lat="33.13836" lon="132.6292888"><ele>850.9333333333334</ele><time>2025-04-06T03:12:11Z</time></trkpt><trkpt lat="33.1382294" lon="132.6294407"><ele>855.75</ele><time>2025-04-06T03:13:02Z</time></trkpt><trkpt lat="33.1383853" lon="132.6295684"><ele>858.7066666666666</ele><time>2025-04-06T03:23:53Z</time></trkpt><trkpt lat="33.1385636" lon="132.6296382"><ele>863.4699999999999</ele><time>2025-04-06T03:24:29Z</time></trkpt><trkpt lat="33.1387437" lon="132.6296575"><ele>869.1166666666667</ele><time>2025-04-06T03:25:05Z</time></trkpt><trkpt lat="33.1389139" lon="132.6297735"><ele>875.7600000000001</ele><time>2025-04-06T03:25:50Z</time></trkpt><trkpt lat="33.1389942" lon="132.6299768"><ele>880.8966666666669</ele><time>2025-04-06T03:26:44Z</time></trkpt><trkpt lat="33.1391722" lon="132.630035"><ele>886.4566666666666</ele><time>2025-04-06T03:27:20Z</time></trkpt><trkpt lat="33.1393601" lon="132.629941"><ele>892.7366666666667</ele><time>2025-04-06T03:27:49Z</time></trkpt><trkpt lat="33.1395343" lon="132.6298825"><ele>897.7766666666668</ele><time>2025-04-06T03:28:39Z</time></trkpt><trkpt lat="33.1397033" lon="132.6299918"><ele>900.6</ele><time>2025-04-06T03:29:06Z</time></trkpt><trkpt lat="33.139879" lon="132.6300489"><ele>901.0799999999999</ele><time>2025-04-06T03:29:27Z</time></trkpt><trkpt lat="33.1400686" lon="132.6299927"><ele>903.04</ele><time>2025-04-06T03:29:54Z</time></trkpt><trkpt lat="33.1402518" lon="132.6299676"><ele>906.1633333333334</ele><time>2025-04-06T03:30:42Z</time></trkpt><trkpt lat="33.1404199" lon="132.630056"><ele>911.23</ele><time>2025-04-06T03:31:26Z</time></trkpt><trkpt lat="33.1405995" lon="132.6300992"><ele>913.8100000000001</ele><time>2025-04-06T03:32:17Z</time></trkpt><trkpt lat="33.1407647" lon="132.6302314"><ele>916.75</ele><time>2025-04-06T03:32:53Z</time></trkpt><trkpt lat="33.1409492" lon="132.6302482"><ele>914.52</ele><time>2025-04-06T03:33:41Z</time></trkpt><trkpt lat="33.1411317" lon="132.6302712"><ele>911.2466666666666</ele><time>2025-04-06T03:34:26Z</time></trkpt><trkpt lat="33.1413305" lon="132.6302851"><ele>906.1533333333333</ele><time>2025-04-06T03:34:50Z</time></trkpt><trkpt lat="33.1415241" lon="132.6302545"><ele>904.4133333333333</ele><time>2025-04-06T03:35:26Z</time></trkpt><trkpt lat="33.1417183" lon="132.6302107"><ele>905.7933333333334</ele><time>2025-04-06T03:35:59Z</time></trkpt><trkpt lat="33.1419005" lon="132.6301623"><ele>910.9</ele><time>2025-04-06T03:37:56Z</time></trkpt><trkpt lat="33.1420906" lon="132.6301984"><ele>916.0433333333334</ele><time>2025-04-06T03:38:47Z</time></trkpt><trkpt lat="33.142234" lon="132.630353"><ele>920.0333333333334</ele><time>2025-04-06T03:39:08Z</time></trkpt><trkpt lat="33.1423775" lon="132.6305093"><ele>921.1733333333333</ele><time>2025-04-06T03:39:32Z</time></trkpt><trkpt lat="33.142538" lon="132.6306376"><ele>921.62</ele><time>2025-04-06T03:39:53Z</time></trkpt><trkpt lat="33.1427319" lon="132.6305934"><ele>921.3666666666668</ele><time>2025-04-06T03:41:02Z</time></trkpt><trkpt lat="33.1429261" lon="132.6305644"><ele>919.9200000000001</ele><time>2025-04-06T03:41:23Z</time></trkpt><trkpt lat="33.143089" lon="132.6304445"><ele>918.0333333333333</ele><time>2025-04-06T03:41:43Z</time></trkpt><trkpt lat="33.1432781" lon="132.6303756"><ele>915.11</ele><time>2025-04-06T03:42:01Z</time></trkpt><trkpt lat="33.1434621" lon="132.6304349"><ele>912.9766666666668</ele><time>2025-04-06T03:42:19Z</time></trkpt><trkpt lat="33.1436545" lon="132.6305227"><ele>911.4466666666667</ele><time>2025-04-06T03:42:39Z</time></trkpt><trkpt lat="33.143824" lon="132.6306011"><ele>910.8366666666667</ele><time>2025-04-06T03:42:57Z</time></trkpt><trkpt lat="33.1439885" lon="132.630721"><ele>909.7333333333335</ele><time>2025-04-06T03:43:20Z</time></trkpt><trkpt lat="33.1442015" lon="132.6307225"><ele>905.8866666666667</ele><time>2025-04-06T03:43:44Z</time></trkpt><trkpt lat="33.1443753" lon="132.6308088"><ele>901.0500000000001</ele><time>2025-04-06T03:44:05Z</time></trkpt><trkpt lat="33.1445658" lon="132.6308809"><ele>894.4733333333334</ele><time>2025-04-06T03:44:23Z</time></trkpt><trkpt lat="33.1447757" lon="132.6309504"><ele>888.3733333333333</ele><time>2025-04-06T03:44:41Z</time></trkpt><trkpt lat="33.1449721" lon="132.6310255"><ele>882.1300000000001</ele><time>2025-04-06T03:44:55Z</time></trkpt><trkpt lat="33.1451438" lon="132.6311385"><ele>877.8866666666668</ele><time>2025-04-06T03:45:18Z</time></trkpt><trkpt lat="33.1452844" lon="132.6312903"><ele>876.75</ele><time>2025-04-06T03:45:54Z</time></trkpt><trkpt lat="33.1454154" lon="132.6314594"><ele>877.8033333333333</ele><time>2025-04-06T03:46:15Z</time></trkpt><trkpt lat="33.145569" lon="132.6315798"><ele>879.2900000000001</ele><time>2025-04-06T03:46:35Z</time></trkpt><trkpt lat="33.1457758" lon="132.6315765"><ele>880.3566666666667</ele><time>2025-04-06T03:46:56Z</time></trkpt><trkpt lat="33.1459459" lon="132.631457"><ele>880.4433333333333</ele><time>2025-04-06T03:47:20Z</time></trkpt><trkpt lat="33.1461054" lon="132.6312933"><ele>879.6533333333333</ele><time>2025-04-06T03:48:11Z</time></trkpt><trkpt lat="33.1462967" lon="132.6313141"><ele>879.8100000000001</ele><time>2025-04-06T03:48:33Z</time></trkpt><trkpt lat="33.1465044" lon="132.6312965"><ele>883.2466666666668</ele><time>2025-04-06T03:48:51Z</time></trkpt><trkpt lat="33.1466791" lon="132.6311982"><ele>888.1966666666667</ele><time>2025-04-06T03:49:09Z</time></trkpt><trkpt lat="33.1468738" lon="132.6311206"><ele>890.2866666666665</ele><time>2025-04-06T03:49:27Z</time></trkpt><trkpt lat="33.1470754" lon="132.6311423"><ele>888.9833333333332</ele><time>2025-04-06T03:49:47Z</time></trkpt><trkpt lat="33.1472289" lon="132.6312861"><ele>889.6700000000001</ele><time>2025-04-06T03:50:05Z</time></trkpt><trkpt lat="33.147387" lon="132.6313993"><ele>892.8033333333333</ele><time>2025-04-06T03:50:22Z</time></trkpt><trkpt lat="33.1475591" lon="132.6315385"><ele>898.7533333333334</ele><time>2025-04-06T03:50:40Z</time></trkpt><trkpt lat="33.1477473" lon="132.6315326"><ele>902.08</ele><time>2025-04-06T03:50:58Z</time></trkpt><trkpt lat="33.1479355" lon="132.6314614"><ele>902.7433333333333</ele><time>2025-04-06T03:51:19Z</time></trkpt><trkpt lat="33.1481087" lon="132.6315782"><ele>902.5666666666666</ele><time>2025-04-06T03:51:39Z</time></trkpt><trkpt lat="33.1483039" lon="132.6316751"><ele>904.4933333333333</ele><time>2025-04-06T03:51:59Z</time></trkpt><trkpt lat="33.148471" lon="132.6315915"><ele>906.31</ele><time>2025-04-06T03:52:14Z</time></trkpt><trkpt lat="33.1486698" lon="132.631587"><ele>905.9699999999999</ele><time>2025-04-06T03:52:40Z</time></trkpt><trkpt lat="33.1488354" lon="132.6314619"><ele>902.0500000000001</ele><time>2025-04-06T03:53:04Z</time></trkpt><trkpt lat="33.149023" lon="132.6314766"><ele>899.8066666666667</ele><time>2025-04-06T03:53:18Z</time></trkpt><trkpt lat="33.1491847" lon="132.6313481"><ele>896.0733333333334</ele><time>2025-04-06T03:53:33Z</time></trkpt><trkpt lat="33.1493768" lon="132.631436"><ele>896.3533333333335</ele><time>2025-04-06T03:53:51Z</time></trkpt><trkpt lat="33.1495807" lon="132.6314572"><ele>896.8299999999999</ele><time>2025-04-06T03:54:12Z</time></trkpt><trkpt lat="33.1497671" lon="132.6313908"><ele>898.5466666666667</ele><time>2025-04-06T03:54:42Z</time></trkpt><trkpt lat="33.14992" lon="132.631274"><ele>899.8666666666667</ele><time>2025-04-06T03:55:12Z</time></trkpt><trkpt lat="33.1500255" lon="132.6310946"><ele>900.0100000000001</ele><time>2025-04-06T03:55:30Z</time></trkpt><trkpt lat="33.150145" lon="132.6309304"><ele>900.18</ele><time>2025-04-06T03:55:46Z</time></trkpt><trkpt lat="33.1503125" lon="132.6308348"><ele>898.2866666666667</ele><time>2025-04-06T03:56:07Z</time></trkpt><trkpt lat="33.1504376" lon="132.6306712"><ele>895.5100000000001</ele><time>2025-04-06T03:56:24Z</time></trkpt><trkpt lat="33.150535" lon="132.6304386"><ele>891.25</ele><time>2025-04-06T03:57:03Z</time></trkpt><trkpt lat="33.1506188" lon="132.6302174"><ele>887.0966666666667</ele><time>2025-04-06T03:57:20Z</time></trkpt><trkpt lat="33.1507685" lon="132.6300636"><ele>885.7800000000001</ele><time>2025-04-06T03:57:41Z</time></trkpt><trkpt lat="33.1507582" lon="132.6298264"><ele>886.4166666666666</ele><time>2025-04-06T03:57:59Z</time></trkpt><trkpt lat="33.150785" lon="132.6295956"><ele>885.3233333333334</ele><time>2025-04-06T03:58:17Z</time></trkpt><trkpt lat="33.1508588" lon="132.6293788"><ele>882.9933333333333</ele><time>2025-04-06T03:58:37Z</time></trkpt><trkpt lat="33.150871" lon="132.6291311"><ele>880.7866666666667</ele><time>2025-04-06T03:58:58Z</time></trkpt><trkpt lat="33.1507948" lon="132.6288831"><ele>878.2066666666666</ele><time>2025-04-06T03:59:16Z</time></trkpt><trkpt lat="33.150829" lon="132.6286463"><ele>873.9366666666666</ele><time>2025-04-06T03:59:37Z</time></trkpt><trkpt lat="33.1509928" lon="132.6287452"><ele>872.0766666666667</ele><time>2025-04-06T04:00:43Z</time></trkpt><trkpt lat="33.1511684" lon="132.6288234"><ele>874.1700000000001</ele><time>2025-04-06T04:01:03Z</time></trkpt><trkpt lat="33.1513656" lon="132.6287619"><ele>878.46</ele><time>2025-04-06T04:01:21Z</time></trkpt><trkpt lat="33.1515646" lon="132.6288511"><ele>882.5866666666667</ele><time>2025-04-06T04:01:38Z</time></trkpt><trkpt lat="33.1517165" lon="132.6287252"><ele>880.1833333333334</ele><time>2025-04-06T04:01:55Z</time></trkpt><trkpt lat="33.1518996" lon="132.6286726"><ele>879.73</ele><time>2025-04-06T04:02:25Z</time></trkpt><trkpt lat="33.1520487" lon="132.6285399"><ele>879.0566666666667</ele><time>2025-04-06T04:02:57Z</time></trkpt><trkpt lat="33.1520905" lon="132.628325"><ele>881.0066666666667</ele><time>2025-04-06T04:03:21Z</time></trkpt><trkpt lat="33.1522221" lon="132.6281755"><ele>882.7133333333335</ele><time>2025-04-06T04:04:38Z</time></trkpt><trkpt lat="33.1523513" lon="132.6280155"><ele>882.9733333333334</ele><time>2025-04-06T04:05:05Z</time></trkpt><trkpt lat="33.1523641" lon="132.6277797"><ele>883.8833333333333</ele><time>2025-04-06T04:05:38Z</time></trkpt><trkpt lat="33.1525488" lon="132.6277295"><ele>885.63</ele><time>2025-04-06T04:06:07Z</time></trkpt><trkpt lat="33.1527286" lon="132.6277522"><ele>890.2533333333334</ele><time>2025-04-06T04:06:58Z</time></trkpt><trkpt lat="33.1529226" lon="132.627723"><ele>895.7766666666666</ele><time>2025-04-06T04:07:19Z</time></trkpt><trkpt lat="33.1529681" lon="132.6275089"><ele>899.0300000000001</ele><time>2025-04-06T04:07:34Z</time></trkpt><trkpt lat="33.1530068" lon="132.6272833"><ele>898.9666666666667</ele><time>2025-04-06T04:07:48Z</time></trkpt><trkpt lat="33.1530108" lon="132.6270531"><ele>897.5100000000001</ele><time>2025-04-06T04:08:06Z</time></trkpt><trkpt lat="33.1530703" lon="132.6268368"><ele>892.8433333333332</ele><time>2025-04-06T04:08:23Z</time></trkpt><trkpt lat="33.1531178" lon="132.6266279"><ele>888.83</ele><time>2025-04-06T04:08:43Z</time></trkpt><trkpt lat="33.1530952" lon="132.6264088"><ele>886.82</ele><time>2025-04-06T04:09:01Z</time></trkpt><trkpt lat="33.1529561" lon="132.626242"><ele>884.0433333333334</ele><time>2025-04-06T04:09:18Z</time></trkpt><trkpt lat="33.1528848" lon="132.6260395"><ele>879.23</ele><time>2025-04-06T04:10:03Z</time></trkpt><trkpt lat="33.1528172" lon="132.6258272"><ele>872.34</ele><time>2025-04-06T04:10:20Z</time></trkpt><trkpt lat="33.1528354" lon="132.6255965"><ele>868.4466666666667</ele><time>2025-04-06T04:10:38Z</time></trkpt><trkpt lat="33.1527803" lon="132.6253718"><ele>863.5500000000001</ele><time>2025-04-06T04:11:08Z</time></trkpt><trkpt lat="33.1527718" lon="132.625151"><ele>859.0533333333333</ele><time>2025-04-06T04:11:25Z</time></trkpt><trkpt lat="33.1527279" lon="132.6248916"><ele>852.6133333333333</ele><time>2025-04-06T04:11:55Z</time></trkpt><trkpt lat="33.1526768" lon="132.6246425"><ele>848.1533333333333</ele><time>2025-04-06T04:12:25Z</time></trkpt><trkpt lat="33.1525757" lon="132.6244251"><ele>844.0533333333334</ele><time>2025-04-06T04:12:40Z</time></trkpt><trkpt lat="33.1524263" lon="132.624299"><ele>842.46</ele><time>2025-04-06T04:12:52Z</time></trkpt><trkpt lat="33.1523391" lon="132.6240922"><ele>840.5799999999999</ele><time>2025-04-06T04:13:07Z</time></trkpt><trkpt lat="33.1522807" lon="132.6238885"><ele>838.3966666666666</ele><time>2025-04-06T04:13:37Z</time></trkpt><trkpt lat="33.1522832" lon="132.6236531"><ele>835.32</ele><time>2025-04-06T04:13:54Z</time></trkpt><trkpt lat="33.1521465" lon="132.6234884"><ele>831.8066666666667</ele><time>2025-04-06T04:14:14Z</time></trkpt><trkpt lat="33.1521038" lon="132.6232715"><ele>827.3466666666667</ele><time>2025-04-06T04:14:44Z</time></trkpt><trkpt lat="33.1520422" lon="132.6230407"><ele>821.8133333333334</ele><time>2025-04-06T04:14:59Z</time></trkpt><trkpt lat="33.1519351" lon="132.6228422"><ele>816.4733333333334</ele><time>2025-04-06T04:15:13Z</time></trkpt><trkpt lat="33.1519584" lon="132.622618"><ele>812.1733333333335</ele><time>2025-04-06T04:15:31Z</time></trkpt><trkpt lat="33.1521686" lon="132.6226236"><ele>808.52</ele><time>2025-04-06T04:15:52Z</time></trkpt><trkpt lat="33.1523334" lon="132.6227359"><ele>804.7599999999999</ele><time>2025-04-06T04:16:07Z</time></trkpt><trkpt lat="33.1524894" lon="132.6228999"><ele>801.5766666666667</ele><time>2025-04-06T04:16:30Z</time></trkpt><trkpt lat="33.1526443" lon="132.6230594"><ele>797.4499999999999</ele><time>2025-04-06T04:16:57Z</time></trkpt><trkpt lat="33.1527774" lon="132.6232469"><ele>795.0633333333334</ele><time>2025-04-06T04:17:15Z</time></trkpt><trkpt lat="33.1528552" lon="132.6234669"><ele>794.9366666666666</ele><time>2025-04-06T04:17:41Z</time></trkpt><trkpt lat="33.152859" lon="132.6236997"><ele>798.2800000000001</ele><time>2025-04-06T04:17:59Z</time></trkpt><trkpt lat="33.1529414" lon="132.6239076"><ele>801.0933333333334</ele><time>2025-04-06T04:18:17Z</time></trkpt><trkpt lat="33.1530479" lon="132.6240976"><ele>802.4533333333334</ele><time>2025-04-06T04:18:35Z</time></trkpt><trkpt lat="33.153116" lon="132.6243123"><ele>804.3266666666667</ele><time>2025-04-06T04:18:55Z</time></trkpt><trkpt lat="33.1531523" lon="132.6245561"><ele>807.61</ele><time>2025-04-06T04:19:22Z</time></trkpt><trkpt lat="33.1531819" lon="132.6247947"><ele>812.8766666666667</ele><time>2025-04-06T04:20:03Z</time></trkpt><trkpt lat="33.153306" lon="132.6249598"><ele>816.2933333333334</ele><time>2025-04-06T04:20:21Z</time></trkpt><trkpt lat="33.1534937" lon="132.6249274"><ele>818.8633333333333</ele><time>2025-04-06T04:20:39Z</time></trkpt><trkpt lat="33.1536627" lon="132.6248157"><ele>819.0100000000001</ele><time>2025-04-06T04:21:00Z</time></trkpt><trkpt lat="33.1538325" lon="132.6248966"><ele>821.08</ele><time>2025-04-06T04:21:19Z</time></trkpt><trkpt lat="33.1539511" lon="132.6250717"><ele>824.68</ele><time>2025-04-06T04:21:40Z</time></trkpt><trkpt lat="33.1540884" lon="132.6252511"><ele>829.5133333333333</ele><time>2025-04-06T04:22:06Z</time></trkpt><trkpt lat="33.1542004" lon="132.6254432"><ele>834.4766666666668</ele><time>2025-04-06T04:22:27Z</time></trkpt><trkpt lat="33.1543523" lon="132.6255926"><ele>838.75</ele><time>2025-04-06T04:22:57Z</time></trkpt><trkpt lat="33.1545189" lon="132.6257147"><ele>841.8133333333334</ele><time>2025-04-06T04:24:06Z</time></trkpt><trkpt lat="33.1547166" lon="132.6256749"><ele>844.1133333333333</ele><time>2025-04-06T04:24:27Z</time></trkpt><trkpt lat="33.1549036" lon="132.6255888"><ele>843.94</ele><time>2025-04-06T04:24:47Z</time></trkpt><trkpt lat="33.1550557" lon="132.6257172"><ele>844.8866666666667</ele><time>2025-04-06T04:25:06Z</time></trkpt><trkpt lat="33.1552026" lon="132.6258773"><ele>846.9900000000001</ele><time>2025-04-06T04:25:27Z</time></trkpt><trkpt lat="33.1553565" lon="132.6260278"><ele>852.0133333333333</ele><time>2025-04-06T04:25:44Z</time></trkpt><trkpt lat="33.155549" lon="132.6259993"><ele>852.4000000000001</ele><time>2025-04-06T04:26:01Z</time></trkpt><trkpt lat="33.155717" lon="132.6258832"><ele>850.5566666666667</ele><time>2025-04-06T04:26:18Z</time></trkpt><trkpt lat="33.1558809" lon="132.6257516"><ele>848.2433333333333</ele><time>2025-04-06T04:26:38Z</time></trkpt><trkpt lat="33.1560723" lon="132.6257428"><ele>848.5533333333333</ele><time>2025-04-06T04:26:57Z</time></trkpt><trkpt lat="33.1562779" lon="132.6256611"><ele>848.15</ele><time>2025-04-06T04:27:15Z</time></trkpt><trkpt lat="33.1563705" lon="132.6254697"><ele>843.4633333333335</ele><time>2025-04-06T04:27:30Z</time></trkpt><trkpt lat="33.1565417" lon="132.6253868"><ele>838.89</ele><time>2025-04-06T04:27:48Z</time></trkpt><trkpt lat="33.1567417" lon="132.6253814"><ele>834.6833333333334</ele><time>2025-04-06T04:28:06Z</time></trkpt><trkpt lat="33.1568904" lon="132.6252532"><ele>833.5166666666668</ele><time>2025-04-06T04:28:21Z</time></trkpt><trkpt lat="33.1570299" lon="132.6250614"><ele>832.5466666666666</ele><time>2025-04-06T04:28:39Z</time></trkpt><trkpt lat="33.1572092" lon="132.6250049"><ele>831.2666666666668</ele><time>2025-04-06T04:28:56Z</time></trkpt><trkpt lat="33.1573323" lon="132.6251654"><ele>830.68</ele><time>2025-04-06T04:29:11Z</time></trkpt><trkpt lat="33.1575196" lon="132.6252417"><ele>829.7933333333334</ele><time>2025-04-06T04:29:29Z</time></trkpt><trkpt lat="33.1576859" lon="132.6251381"><ele>826.5300000000001</ele><time>2025-04-06T04:29:50Z</time></trkpt><trkpt lat="33.1578967" lon="132.6251162"><ele>823.43</ele><time>2025-04-06T04:30:11Z</time></trkpt><trkpt lat="33.1580793" lon="132.6250969"><ele>821.61</ele><time>2025-04-06T04:30:26Z</time></trkpt><trkpt lat="33.1582276" lon="132.6249667"><ele>821.4699999999999</ele><time>2025-04-06T04:30:41Z</time></trkpt><trkpt lat="33.1583605" lon="132.6247675"><ele>819.57</ele><time>2025-04-06T04:30:59Z</time></trkpt><trkpt lat="33.1584938" lon="132.6246113"><ele>815.83</ele><time>2025-04-06T04:31:14Z</time></trkpt><trkpt lat="33.1586706" lon="132.6245539"><ele>814.6999999999999</ele><time>2025-04-06T04:31:28Z</time></trkpt><trkpt lat="33.1588414" lon="132.6244728"><ele>814.32</ele><time>2025-04-06T04:31:42Z</time></trkpt><trkpt lat="33.1589492" lon="132.6242676"><ele>811.57</ele><time>2025-04-06T04:31:56Z</time></trkpt><trkpt lat="33.1591119" lon="132.6241104"><ele>807.98</ele><time>2025-04-06T04:32:13Z</time></trkpt><trkpt lat="33.1592515" lon="132.6239593"><ele>804.0533333333333</ele><time>2025-04-06T04:32:27Z</time></trkpt><trkpt lat="33.1593785" lon="132.623785"><ele>802.9000000000001</ele><time>2025-04-06T04:32:42Z</time></trkpt><trkpt lat="33.1595438" lon="132.6236892"><ele>800.98</ele><time>2025-04-06T04:32:55Z</time></trkpt><trkpt lat="33.1596816" lon="132.623511"><ele>798.6666666666666</ele><time>2025-04-06T04:33:10Z</time></trkpt><trkpt lat="33.1596552" lon="132.6232729"><ele>798.4733333333334</ele><time>2025-04-06T04:33:24Z</time></trkpt><trkpt lat="33.1595993" lon="132.6230393"><ele>797.8633333333333</ele><time>2025-04-06T04:33:39Z</time></trkpt><trkpt lat="33.1595525" lon="132.6227972"><ele>798.1899999999999</ele><time>2025-04-06T04:33:57Z</time></trkpt><trkpt lat="33.1596058" lon="132.6225742"><ele>797.0633333333334</ele><time>2025-04-06T04:34:11Z</time></trkpt><trkpt lat="33.1596449" lon="132.6223403"><ele>798.5466666666666</ele><time>2025-04-06T04:34:29Z</time></trkpt><trkpt lat="33.1597894" lon="132.6222069"><ele>801.7600000000001</ele><time>2025-04-06T04:34:53Z</time></trkpt><trkpt lat="33.1598987" lon="132.6219975"><ele>804.2033333333334</ele><time>2025-04-06T04:35:08Z</time></trkpt><trkpt lat="33.1600336" lon="132.6218325"><ele>804.8100000000001</ele><time>2025-04-06T04:35:23Z</time></trkpt><trkpt lat="33.1601676" lon="132.6216853"><ele>803.9366666666668</ele><time>2025-04-06T04:35:38Z</time></trkpt><trkpt lat="33.1601881" lon="132.621445"><ele>802.4200000000001</ele><time>2025-04-06T04:35:53Z</time></trkpt><trkpt lat="33.1601882" lon="132.621193"><ele>798.8000000000001</ele><time>2025-04-06T04:36:08Z</time></trkpt><trkpt lat="33.1603734" lon="132.6212295"><ele>795.66</ele><time>2025-04-06T04:36:26Z</time></trkpt><trkpt lat="33.1605175" lon="132.6213904"><ele>797.1300000000001</ele><time>2025-04-06T04:36:43Z</time></trkpt><trkpt lat="33.1606777" lon="132.6215473"><ele>803.77</ele><time>2025-04-06T04:37:00Z</time></trkpt><trkpt lat="33.1608774" lon="132.6216402"><ele>810.7600000000001</ele><time>2025-04-06T04:37:18Z</time></trkpt><trkpt lat="33.1610475" lon="132.6215034"><ele>812.8866666666667</ele><time>2025-04-06T04:37:33Z</time></trkpt><trkpt lat="33.1612004" lon="132.6213475"><ele>812.2233333333334</ele><time>2025-04-06T04:37:48Z</time></trkpt><trkpt lat="33.1613359" lon="132.6211764"><ele>809.4733333333334</ele><time>2025-04-06T04:38:03Z</time></trkpt><trkpt lat="33.1614983" lon="132.621043"><ele>809.6366666666667</ele><time>2025-04-06T04:38:18Z</time></trkpt><trkpt lat="33.1616686" lon="132.6209687"><ele>810.2466666666666</ele><time>2025-04-06T04:38:33Z</time></trkpt><trkpt lat="33.1618408" lon="132.6208724"><ele>814.3966666666666</ele><time>2025-04-06T04:38:48Z</time></trkpt><trkpt lat="33.1619739" lon="132.6207117"><ele>817.2966666666666</ele><time>2025-04-06T04:39:03Z</time></trkpt><trkpt lat="33.162038" lon="132.6204986"><ele>817.5600000000001</ele><time>2025-04-06T04:39:18Z</time></trkpt><trkpt lat="33.1621782" lon="132.620322"><ele>816.6966666666667</ele><time>2025-04-06T04:39:36Z</time></trkpt><trkpt lat="33.1621856" lon="132.6200746"><ele>813.6866666666666</ele><time>2025-04-06T04:39:51Z</time></trkpt><trkpt lat="33.162229" lon="132.6198258"><ele>811.5900000000001</ele><time>2025-04-06T04:40:09Z</time></trkpt><trkpt lat="33.1623578" lon="132.6196545"><ele>809.8266666666667</ele><time>2025-04-06T04:40:27Z</time></trkpt><trkpt lat="33.1624807" lon="132.6194643"><ele>810.4933333333333</ele><time>2025-04-06T04:41:00Z</time></trkpt><trkpt lat="33.1624593" lon="132.619204"><ele>808.83</ele><time>2025-04-06T04:41:17Z</time></trkpt><trkpt lat="33.1625264" lon="132.6189778"><ele>803.21</ele><time>2025-04-06T04:41:32Z</time></trkpt><trkpt lat="33.1627069" lon="132.6188915"><ele>797.9333333333334</ele><time>2025-04-06T04:41:47Z</time></trkpt><trkpt lat="33.1628983" lon="132.6189008"><ele>797.8666666666668</ele><time>2025-04-06T04:42:02Z</time></trkpt><trkpt lat="33.1630615" lon="132.6187476"><ele>799.2466666666666</ele><time>2025-04-06T04:42:20Z</time></trkpt><trkpt lat="33.1632332" lon="132.6186198"><ele>800.1266666666667</ele><time>2025-04-06T04:42:41Z</time></trkpt><trkpt lat="33.1634204" lon="132.6185009"><ele>799.5866666666667</ele><time>2025-04-06T04:43:01Z</time></trkpt><trkpt lat="33.1635194" lon="132.618276"><ele>799.3966666666666</ele><time>2025-04-06T04:43:21Z</time></trkpt><trkpt lat="33.1636303" lon="132.6181045"><ele>798.3633333333333</ele><time>2025-04-06T04:43:38Z</time></trkpt><trkpt lat="33.1638137" lon="132.618069"><ele>800.84</ele><time>2025-04-06T04:43:54Z</time></trkpt><trkpt lat="33.1639765" lon="132.6179552"><ele>803.7733333333334</ele><time>2025-04-06T04:44:11Z</time></trkpt><trkpt lat="33.1641817" lon="132.6178879"><ele>808.6633333333333</ele><time>2025-04-06T04:44:29Z</time></trkpt><trkpt lat="33.164362" lon="132.617799"><ele>809.8866666666667</ele><time>2025-04-06T04:44:44Z</time></trkpt><trkpt lat="33.1645526" lon="132.6177209"><ele>810.6999999999999</ele><time>2025-04-06T04:45:11Z</time></trkpt><trkpt lat="33.1647544" lon="132.6176444"><ele>812.2800000000001</ele><time>2025-04-06T04:45:28Z</time></trkpt><trkpt lat="33.1649438" lon="132.6175226"><ele>816.9</ele><time>2025-04-06T04:45:46Z</time></trkpt><trkpt lat="33.1650382" lon="132.6173127"><ele>819.0633333333334</ele><time>2025-04-06T04:46:01Z</time></trkpt><trkpt lat="33.1650452" lon="132.6170714"><ele>817.7233333333334</ele><time>2025-04-06T04:46:18Z</time></trkpt><trkpt lat="33.1650063" lon="132.6168476"><ele>812.3633333333333</ele><time>2025-04-06T04:46:36Z</time></trkpt><trkpt lat="33.1650845" lon="132.6166505"><ele>812.4333333333334</ele><time>2025-04-06T04:46:55Z</time></trkpt><trkpt lat="33.1651058" lon="132.6164192"><ele>814.4833333333335</ele><time>2025-04-06T04:47:13Z</time></trkpt><trkpt lat="33.1651528" lon="132.6161785"><ele>816.3333333333334</ele><time>2025-04-06T04:47:31Z</time></trkpt><trkpt lat="33.1653235" lon="132.6160676"><ele>813.46</ele><time>2025-04-06T04:55:46Z</time></trkpt><trkpt lat="33.165508" lon="132.6160733"><ele>810.2066666666666</ele><time>2025-04-06T04:56:03Z</time></trkpt><trkpt lat="33.1656717" lon="132.6161637"><ele>811.23</ele><time>2025-04-06T04:56:20Z</time></trkpt><trkpt lat="33.1658582" lon="132.6160924"><ele>815.0466666666666</ele><time>2025-04-06T04:56:38Z</time></trkpt><trkpt lat="33.1660013" lon="132.6159488"><ele>818.8566666666666</ele><time>2025-04-06T04:56:56Z</time></trkpt><trkpt lat="33.1661481" lon="132.6157828"><ele>818.0066666666667</ele><time>2025-04-06T04:57:14Z</time></trkpt><trkpt lat="33.1663304" lon="132.6158423"><ele>818.4933333333333</ele><time>2025-04-06T04:57:31Z</time></trkpt><trkpt lat="33.1664948" lon="132.6159574"><ele>821.5766666666667</ele><time>2025-04-06T04:57:48Z</time></trkpt><trkpt lat="33.1666876" lon="132.6158927"><ele>828.8166666666666</ele><time>2025-04-06T04:58:06Z</time></trkpt><trkpt lat="33.1668746" lon="132.6158994"><ele>835.6566666666668</ele><time>2025-04-06T04:58:23Z</time></trkpt><trkpt lat="33.1670579" lon="132.6158614"><ele>840.2833333333333</ele><time>2025-04-06T04:58:41Z</time></trkpt><trkpt lat="33.1672501" lon="132.6157685"><ele>842.23</ele><time>2025-04-06T04:59:05Z</time></trkpt><trkpt lat="33.1674087" lon="132.6156222"><ele>841.6999999999999</ele><time>2025-04-06T04:59:53Z</time></trkpt><trkpt lat="33.1675936" lon="132.6155515"><ele>842.0533333333333</ele><time>2025-04-06T05:00:10Z</time></trkpt><trkpt lat="33.1677876" lon="132.6155078"><ele>842.1466666666666</ele><time>2025-04-06T05:00:27Z</time></trkpt><trkpt lat="33.1679304" lon="132.6153354"><ele>843.64</ele><time>2025-04-06T05:02:32Z</time></trkpt><trkpt lat="33.1680661" lon="132.6151437"><ele>845.07</ele><time>2025-04-06T05:02:52Z</time></trkpt><trkpt lat="33.1681955" lon="132.6149471"><ele>848.0366666666667</ele><time>2025-04-06T05:03:12Z</time></trkpt><trkpt lat="33.1683269" lon="132.6147858"><ele>851.4666666666667</ele><time>2025-04-06T05:04:33Z</time></trkpt><trkpt lat="33.1682998" lon="132.6145568"><ele>849.73</ele><time>2025-04-06T05:04:48Z</time></trkpt><trkpt lat="33.1684064" lon="132.6143384"><ele>846.25</ele><time>2025-04-06T05:05:06Z</time></trkpt><trkpt lat="33.1685867" lon="132.6143133"><ele>839.7433333333333</ele><time>2025-04-06T05:05:21Z</time></trkpt><trkpt lat="33.1687573" lon="132.6143912"><ele>838.8499999999999</ele><time>2025-04-06T05:05:36Z</time></trkpt><trkpt lat="33.1689079" lon="132.614255"><ele>839.43</ele><time>2025-04-06T05:05:53Z</time></trkpt><trkpt lat="33.1689884" lon="132.6140319"><ele>841.4533333333334</ele><time>2025-04-06T05:06:11Z</time></trkpt><trkpt lat="33.1691722" lon="132.6139829"><ele>839.18</ele><time>2025-04-06T05:06:28Z</time></trkpt><trkpt lat="33.1693079" lon="132.6141572"><ele>836.16</ele><time>2025-04-06T05:06:46Z</time></trkpt><trkpt lat="33.169448" lon="132.6143213"><ele>833.82</ele><time>2025-04-06T05:07:01Z</time></trkpt><trkpt lat="33.1696442" lon="132.6143883"><ele>835.5300000000001</ele><time>2025-04-06T05:07:16Z</time></trkpt><trkpt lat="33.1698353" lon="132.6143353"><ele>835.9566666666666</ele><time>2025-04-06T05:07:33Z</time></trkpt><trkpt lat="33.1700183" lon="132.6143476"><ele>837.1666666666666</ele><time>2025-04-06T05:07:50Z</time></trkpt><trkpt lat="33.1701875" lon="132.6144323"><ele>836.6300000000001</ele><time>2025-04-06T05:08:05Z</time></trkpt><trkpt lat="33.1702831" lon="132.6146195"><ele>838.4966666666666</ele><time>2025-04-06T05:08:35Z</time></trkpt><trkpt lat="33.1703519" lon="132.6148216"><ele>840.6066666666667</ele><time>2025-04-06T05:09:25Z</time></trkpt><trkpt lat="33.1702187" lon="132.6146416"><ele>843.1633333333333</ele><time>2025-04-06T05:09:43Z</time></trkpt><trkpt lat="33.1700382" lon="132.6145175"><ele>844.2166666666667</ele><time>2025-04-06T05:10:01Z</time></trkpt><trkpt lat="33.1698543" lon="132.6144949"><ele>843.8233333333333</ele><time>2025-04-06T05:10:18Z</time></trkpt><trkpt lat="33.1697685" lon="132.6146897"><ele>846.7066666666666</ele><time>2025-04-06T05:10:34Z</time></trkpt><trkpt lat="33.1697608" lon="132.6149086"><ele>850.64</ele><time>2025-04-06T05:10:51Z</time></trkpt><trkpt lat="33.1697823" lon="132.6151377"><ele>855.2800000000001</ele><time>2025-04-06T05:11:11Z</time></trkpt></trkseg></trk></gpx>