<?xml version='1.0' encoding='UTF-8'?><gpx creator="Yama Museum Summit Candidate Generator" xsi:schemaLocation="http://www.topografix.com/GPX/1/1 http://www.topografix.com/GPX/1/1/gpx.xsd" version="1.1" xmlns="http://www.topografix.com/GPX/1/1" xmlns:xsi="http://www.w3.org/2001/XMLSchema-instance" xmlns:yama="https://museum-yama-data.moukaeritai.work/ns/yama-data/0.1"><metadata><bounds maxlat="33.8797412" maxlon="132.6886738" minlat="33.8759389" minlon="132.6821416"/><name>黒崎山</name><extensions><yama:source_gpx_basename>yamap_2022-10-11_15_15.gpx</yama:source_gpx_basename><yama:source_gpx_relative_path>data/01_raw/gpx/2026-05-12/yamap_2022-10-11_15_15.gpx</yama:source_gpx_relative_path><yama:detection_parameters>window=5,radius=10,min_prominence=30,merge=100</yama:detection_parameters></extensions></metadata><wpt lat="33.8763934" lon="132.685607"><ele>89.01666666666667</ele><time>2022-10-11T06:37:16Z</time><name>summit-candidate:541ec86327b86307</name><desc>Summit candidate detected at elevation 89.01666666666667m with prominence 88.02066666666664m.</desc><sym>Summit Candidate</sym><extensions><yama:source_trackpoint_index>48</yama:source_trackpoint_index><yama:valid_elevation_index>48</yama:valid_elevation_index><yama:smoothed_ele>88.53799999999998</yama:smoothed_ele><yama:prominence>88.02066666666664</yama:prominence><yama:detection_method>local_maxima_with_prominence</yama:detection_method><yama:detection_parameters>window=5,radius=10,min_prominence=30,merge=100</yama:detection_parameters><yama:candidate_status>unresolved</yama:candidate_status></extensions></wpt>
  <trk><name>黒崎山</name><number>1</number><trkseg><trkpt lat="33.8797412" lon="132.6822137"><ele>1.04</ele><time>2022-10-11T06:15:18Z</time></trkpt><trkpt lat="33.8796166" lon="132.6823835"><ele>0.67</ele><time>2022-10-11T06:16:59Z</time></trkpt><trkpt lat="33.8795162" lon="132.6825642"><ele>0.61</ele><time>2022-10-11T06:17:09Z</time></trkpt><trkpt lat="33.8794067" lon="132.6827571"><ele>0.38000000000000006</ele><time>2022-10-11T06:17:22Z</time></trkpt><trkpt lat="33.879302" lon="132.6829354"><ele>0.37333333333333335</ele><time>2022-10-11T06:17:35Z</time></trkpt><trkpt lat="33.8792047" lon="132.6831186"><ele>0.2466666666666667</ele><time>2022-10-11T06:17:53Z</time></trkpt><trkpt lat="33.8790798" lon="132.6832778"><ele>0.16333333333333333</ele><time>2022-10-11T06:18:05Z</time></trkpt><trkpt lat="33.8789341" lon="132.6834133"><ele>0.22333333333333336</ele><time>2022-10-11T06:18:21Z</time></trkpt><trkpt lat="33.8787643" lon="132.6833167"><ele>0.7733333333333334</ele><time>2022-10-11T06:18:34Z</time></trkpt><trkpt lat="33.8786029" lon="132.6832155"><ele>1.92</ele><time>2022-10-11T06:18:46Z</time></trkpt><trkpt lat="33.8784451" lon="132.6830935"><ele>3.323333333333333</ele><time>2022-10-11T06:19:02Z</time></trkpt><trkpt lat="33.8782993" lon="132.6829545"><ele>4.576666666666667</ele><time>2022-10-11T06:19:15Z</time></trkpt><trkpt lat="33.8781731" lon="132.6831111"><ele>5.6066666666666665</ele><time>2022-10-11T06:19:42Z</time></trkpt><trkpt lat="33.8781071" lon="132.6833146"><ele>6.416666666666667</ele><time>2022-10-11T06:19:57Z</time></trkpt><trkpt lat="33.8780614" lon="132.6835259"><ele>7.246666666666667</ele><time>2022-10-11T06:20:36Z</time></trkpt><trkpt lat="33.8781184" lon="132.6837331"><ele>7.6433333333333335</ele><time>2022-10-11T06:20:49Z</time></trkpt><trkpt lat="33.878118" lon="132.683967"><ele>8.03</ele><time>2022-10-11T06:21:03Z</time></trkpt><trkpt lat="33.8780389" lon="132.6841829"><ele>9.906666666666666</ele><time>2022-10-11T06:21:16Z</time></trkpt><trkpt lat="33.8780196" lon="132.684399"><ele>14.683333333333332</ele><time>2022-10-11T06:21:31Z</time></trkpt><trkpt lat="33.8781255" lon="132.6845752"><ele>16.96666666666667</ele><time>2022-10-11T06:21:57Z</time></trkpt><trkpt lat="33.8781258" lon="132.6847938"><ele>18.443333333333335</ele><time>2022-10-11T06:22:35Z</time></trkpt><trkpt lat="33.8781064" lon="132.6850102"><ele>19.073333333333334</ele><time>2022-10-11T06:22:48Z</time></trkpt><trkpt lat="33.8781501" lon="132.6852208"><ele>20.16</ele><time>2022-10-11T06:23:02Z</time></trkpt><trkpt lat="33.8782534" lon="132.6854045"><ele>19.89</ele><time>2022-10-11T06:23:20Z</time></trkpt><trkpt lat="33.8781988" lon="132.6856164"><ele>17.763333333333335</ele><time>2022-10-11T06:23:42Z</time></trkpt><trkpt lat="33.878082" lon="132.6857822"><ele>20.896666666666665</ele><time>2022-10-11T06:23:57Z</time></trkpt><trkpt lat="33.8779295" lon="132.685902"><ele>27.236666666666668</ele><time>2022-10-11T06:24:31Z</time></trkpt><trkpt lat="33.877826" lon="132.6861035"><ele>33.75</ele><time>2022-10-11T06:24:44Z</time></trkpt><trkpt lat="33.8776496" lon="132.6862101"><ele>37.336666666666666</ele><time>2022-10-11T06:25:04Z</time></trkpt><trkpt lat="33.8774685" lon="132.6861851"><ele>40.39333333333334</ele><time>2022-10-11T06:25:17Z</time></trkpt><trkpt lat="33.8773365" lon="132.6863423"><ele>43.576666666666675</ele><time>2022-10-11T06:25:33Z</time></trkpt><trkpt lat="33.8772366" lon="132.6865319"><ele>46.24666666666667</ele><time>2022-10-11T06:25:49Z</time></trkpt><trkpt lat="33.8770739" lon="132.6866366"><ele>47.06333333333333</ele><time>2022-10-11T06:26:03Z</time></trkpt><trkpt lat="33.8768786" lon="132.6866317"><ele>48.723333333333336</ele><time>2022-10-11T06:26:19Z</time></trkpt><trkpt lat="33.8766974" lon="132.6866132"><ele>51.14666666666667</ele><time>2022-10-11T06:27:20Z</time></trkpt><trkpt lat="33.8765186" lon="132.6865824"><ele>56.376666666666665</ele><time>2022-10-11T06:28:22Z</time></trkpt><trkpt lat="33.8764001" lon="132.6867459"><ele>59.473333333333336</ele><time>2022-10-11T06:29:08Z</time></trkpt><trkpt lat="33.8762192" lon="132.6867094"><ele>63.38</ele><time>2022-10-11T06:29:24Z</time></trkpt><trkpt lat="33.8761187" lon="132.6865214"><ele>65.71333333333334</ele><time>2022-10-11T06:29:39Z</time></trkpt><trkpt lat="33.8760855" lon="132.686304"><ele>67.68666666666667</ele><time>2022-10-11T06:30:21Z</time></trkpt><trkpt lat="33.8762383" lon="132.6861837"><ele>71.89</ele><time>2022-10-11T06:31:36Z</time></trkpt><trkpt lat="33.8763489" lon="132.6860069"><ele>77.62666666666667</ele><time>2022-10-11T06:32:00Z</time></trkpt><trkpt lat="33.876266" lon="132.6858103"><ele>83.89</ele><time>2022-10-11T06:32:16Z</time></trkpt><trkpt lat="33.87622" lon="132.685598"><ele>83.83333333333333</ele><time>2022-10-11T06:32:56Z</time></trkpt><trkpt lat="33.8763999" lon="132.6855737"><ele>83.05333333333333</ele><time>2022-10-11T06:33:19Z</time></trkpt><trkpt lat="33.8765406" lon="132.6854303"><ele>85.07333333333334</ele><time>2022-10-11T06:34:01Z</time></trkpt><trkpt lat="33.8765699" lon="132.6852166"><ele>89.61333333333334</ele><time>2022-10-11T06:35:03Z</time></trkpt><trkpt lat="33.8764645" lon="132.685405"><ele>90.46666666666665</ele><time>2022-10-11T06:37:05Z</time></trkpt><trkpt lat="33.8763934" lon="132.685607"><ele>89.01666666666667</ele><time>2022-10-11T06:37:16Z</time></trkpt><trkpt lat="33.8763409" lon="132.6858166"><ele>88.27999999999999</ele><time>2022-10-11T06:37:41Z</time></trkpt><trkpt lat="33.8762221" lon="132.6859826"><ele>85.31333333333333</ele><time>2022-10-11T06:38:46Z</time></trkpt><trkpt lat="33.8761159" lon="132.6861642"><ele>78.06666666666666</ele><time>2022-10-11T06:40:15Z</time></trkpt><trkpt lat="33.8761126" lon="132.6863805"><ele>70.83666666666666</ele><time>2022-10-11T06:40:45Z</time></trkpt><trkpt lat="33.8762277" lon="132.6865511"><ele>68.07333333333332</ele><time>2022-10-11T06:41:30Z</time></trkpt><trkpt lat="33.8761108" lon="132.6867246"><ele>68.0</ele><time>2022-10-11T06:41:49Z</time></trkpt><trkpt lat="33.8759389" lon="132.6868252"><ele>65.29</ele><time>2022-10-11T06:41:58Z</time></trkpt><trkpt lat="33.876109" lon="132.6869118"><ele>62.906666666666666</ele><time>2022-10-11T06:43:22Z</time></trkpt><trkpt lat="33.8762199" lon="132.6870868"><ele>61.823333333333345</ele><time>2022-10-11T06:44:03Z</time></trkpt><trkpt lat="33.8763356" lon="132.6872663"><ele>62.36666666666667</ele><time>2022-10-11T06:44:28Z</time></trkpt><trkpt lat="33.8763319" lon="132.6874918"><ele>61.06333333333333</ele><time>2022-10-11T06:45:39Z</time></trkpt><trkpt lat="33.8763776" lon="132.6877026"><ele>59.48333333333334</ele><time>2022-10-11T06:47:45Z</time></trkpt><trkpt lat="33.8764388" lon="132.6879093"><ele>56.75333333333333</ele><time>2022-10-11T06:49:24Z</time></trkpt><trkpt lat="33.8765755" lon="132.6880577"><ele>53.73666666666667</ele><time>2022-10-11T06:50:13Z</time></trkpt><trkpt lat="33.8766255" lon="132.6882676"><ele>50.63333333333333</ele><time>2022-10-11T06:50:48Z</time></trkpt><trkpt lat="33.8765268" lon="132.6884547"><ele>50.53</ele><time>2022-10-11T06:52:16Z</time></trkpt><trkpt lat="33.876541" lon="132.6886738"><ele>51.21666666666667</ele><time>2022-10-11T06:55:41Z</time></trkpt><trkpt lat="33.8767274" lon="132.6885901"><ele>50.68333333333334</ele><time>2022-10-11T06:58:46Z</time></trkpt><trkpt lat="33.8765435" lon="132.6886439"><ele>51.00666666666667</ele><time>2022-10-11T06:58:52Z</time></trkpt><trkpt lat="33.8765799" lon="132.688429"><ele>50.626666666666665</ele><time>2022-10-11T07:02:21Z</time></trkpt><trkpt lat="33.8765933" lon="132.6882037"><ele>52.03333333333334</ele><time>2022-10-11T07:04:40Z</time></trkpt><trkpt lat="33.8765181" lon="132.6879871"><ele>51.46</ele><time>2022-10-11T07:05:05Z</time></trkpt><trkpt lat="33.8765106" lon="132.6877659"><ele>53.04</ele><time>2022-10-11T07:05:51Z</time></trkpt><trkpt lat="33.8764176" lon="132.6875801"><ele>56.129999999999995</ele><time>2022-10-11T07:06:16Z</time></trkpt><trkpt lat="33.8763394" lon="132.6873799"><ele>58.97666666666667</ele><time>2022-10-11T07:08:33Z</time></trkpt><trkpt lat="33.8762277" lon="132.6872078"><ele>60.60333333333333</ele><time>2022-10-11T07:09:17Z</time></trkpt><trkpt lat="33.8761106" lon="132.687036"><ele>60.973333333333336</ele><time>2022-10-11T07:09:51Z</time></trkpt><trkpt lat="33.8761623" lon="132.6868252"><ele>62.553333333333335</ele><time>2022-10-11T07:10:26Z</time></trkpt><trkpt lat="33.8763404" lon="132.6867652"><ele>62.473333333333336</ele><time>2022-10-11T07:10:38Z</time></trkpt><trkpt lat="33.8765061" lon="132.6866636"><ele>61.97666666666667</ele><time>2022-10-11T07:10:58Z</time></trkpt><trkpt lat="33.8766694" lon="132.686565"><ele>59.92000000000001</ele><time>2022-10-11T07:11:42Z</time></trkpt><trkpt lat="33.8768686" lon="132.6865171"><ele>58.873333333333335</ele><time>2022-10-11T07:11:54Z</time></trkpt><trkpt lat="33.8770478" lon="132.6864717"><ele>57.46666666666667</ele><time>2022-10-11T07:12:08Z</time></trkpt><trkpt lat="33.877213" lon="132.686382"><ele>55.343333333333334</ele><time>2022-10-11T07:12:22Z</time></trkpt><trkpt lat="33.8772695" lon="132.6861707"><ele>54.25333333333333</ele><time>2022-10-11T07:12:36Z</time></trkpt><trkpt lat="33.8774508" lon="132.6861486"><ele>52.06333333333333</ele><time>2022-10-11T07:12:45Z</time></trkpt><trkpt lat="33.877643" lon="132.6861543"><ele>48.57333333333333</ele><time>2022-10-11T07:12:57Z</time></trkpt><trkpt lat="33.8778233" lon="132.6861682"><ele>42.77</ele><time>2022-10-11T07:13:16Z</time></trkpt><trkpt lat="33.8779769" lon="132.6860233"><ele>36.02333333333333</ele><time>2022-10-11T07:13:32Z</time></trkpt><trkpt lat="33.8780613" lon="132.6858268"><ele>31.209999999999997</ele><time>2022-10-11T07:13:57Z</time></trkpt><trkpt lat="33.8781462" lon="132.6856291"><ele>26.53</ele><time>2022-10-11T07:14:12Z</time></trkpt><trkpt lat="33.8782897" lon="132.6854829"><ele>21.153333333333332</ele><time>2022-10-11T07:14:27Z</time></trkpt><trkpt lat="33.8781694" lon="132.6853089"><ele>18.586666666666666</ele><time>2022-10-11T07:14:42Z</time></trkpt><trkpt lat="33.8780778" lon="132.6851193"><ele>18.72666666666667</ele><time>2022-10-11T07:14:56Z</time></trkpt><trkpt lat="33.878085" lon="132.6848974"><ele>22.903333333333336</ele><time>2022-10-11T07:15:12Z</time></trkpt><trkpt lat="33.8781251" lon="132.6846849"><ele>21.83666666666667</ele><time>2022-10-11T07:15:40Z</time></trkpt><trkpt lat="33.8780484" lon="132.6844873"><ele>20.60666666666667</ele><time>2022-10-11T07:15:55Z</time></trkpt><trkpt lat="33.8780328" lon="132.6842681"><ele>17.65666666666667</ele><time>2022-10-11T07:16:08Z</time></trkpt><trkpt lat="33.8780175" lon="132.6840491"><ele>15.936666666666667</ele><time>2022-10-11T07:16:24Z</time></trkpt><trkpt lat="33.878176" lon="132.6839451"><ele>12.06</ele><time>2022-10-11T07:16:37Z</time></trkpt><trkpt lat="33.8781434" lon="132.6837305"><ele>9.263333333333334</ele><time>2022-10-11T07:16:48Z</time></trkpt><trkpt lat="33.8780853" lon="132.6835198"><ele>8.03</ele><time>2022-10-11T07:17:45Z</time></trkpt><trkpt lat="33.8780977" lon="132.6832665"><ele>7.6433333333333335</ele><time>2022-10-11T07:18:15Z</time></trkpt><trkpt lat="33.8782067" lon="132.6830782"><ele>7.073333333333333</ele><time>2022-10-11T07:18:30Z</time></trkpt><trkpt lat="33.8783785" lon="132.682999"><ele>6.07</ele><time>2022-10-11T07:18:45Z</time></trkpt><trkpt lat="33.8785537" lon="132.6830808"><ele>4.886666666666667</ele><time>2022-10-11T07:19:00Z</time></trkpt><trkpt lat="33.8787201" lon="132.6831751"><ele>3.7033333333333336</ele><time>2022-10-11T07:19:12Z</time></trkpt><trkpt lat="33.878874" lon="132.6832914"><ele>2.47</ele><time>2022-10-11T07:19:26Z</time></trkpt><trkpt lat="33.8790269" lon="132.6834101"><ele>1.4000000000000001</ele><time>2022-10-11T07:19:43Z</time></trkpt><trkpt lat="33.8790231" lon="132.6831921"><ele>0.7400000000000001</ele><time>2022-10-11T07:19:58Z</time></trkpt><trkpt lat="33.8791447" lon="132.6830244"><ele>0.43</ele><time>2022-10-11T07:20:13Z</time></trkpt><trkpt lat="33.8792575" lon="132.6828437"><ele>0.48</ele><time>2022-10-11T07:20:31Z</time></trkpt><trkpt lat="33.8793613" lon="132.6826576"><ele>0.5233333333333333</ele><time>2022-10-11T07:20:43Z</time></trkpt><trkpt lat="33.8795079" lon="132.6825037"><ele>0.5633333333333334</ele><time>2022-10-11T07:20:57Z</time></trkpt><trkpt lat="33.8795965" lon="132.682313"><ele>0.59</ele><time>2022-10-11T07:21:10Z</time></trkpt><trkpt lat="33.8797148" lon="132.6821416"><ele>1.0266666666666666</ele><time>2022-10-11T07:21:20Z</time></trkpt></trkseg></trk></gpx>