<?xml version='1.0' encoding='UTF-8'?><gpx creator="Yama Museum Summit Candidate Generator" xsi:schemaLocation="http://www.topografix.com/GPX/1/1 http://www.topografix.com/GPX/1/1/gpx.xsd" version="1.1" xmlns="http://www.topografix.com/GPX/1/1" xmlns:xsi="http://www.w3.org/2001/XMLSchema-instance" xmlns:yama="https://museum-yama-data.moukaeritai.work/ns/yama-data/0.1"><metadata><bounds maxlat="33.6223447" maxlon="133.080027" minlat="33.5996342" minlon="133.0358494"/><name>二箆山・西雑誌山</name><extensions><yama:source_gpx_basename>yamap_2024-04-07_06_45.gpx</yama:source_gpx_basename><yama:source_gpx_relative_path>data/01_raw/gpx/2026-05-12/yamap_2024-04-07_06_45.gpx</yama:source_gpx_relative_path><yama:detection_parameters>window=5,radius=10,min_prominence=30,merge=100</yama:detection_parameters></extensions></metadata><wpt lat="33.62142" lon="133.0520358"><ele>1158.3666666666668</ele><time>2024-04-06T23:36:18Z</time><name>summit-candidate:0a89128346167f6e</name><desc>Summit candidate detected at elevation 1158.3666666666668m with prominence 33.93933333333325m.</desc><sym>Summit Candidate</sym><extensions><yama:source_trackpoint_index>152</yama:source_trackpoint_index><yama:valid_elevation_index>152</yama:valid_elevation_index><yama:smoothed_ele>1155.106</yama:smoothed_ele><yama:prominence>33.93933333333325</yama:prominence><yama:detection_method>local_maxima_with_prominence</yama:detection_method><yama:detection_parameters>window=5,radius=10,min_prominence=30,merge=100</yama:detection_parameters><yama:candidate_status>unresolved</yama:candidate_status></extensions></wpt>
  <wpt lat="33.6216493" lon="133.061506"><ele>1190.45</ele><time>2024-04-06T23:55:28Z</time><name>summit-candidate:67df63dc99cf8614</name><desc>Summit candidate detected at elevation 1190.45m with prominence 36.50000000000023m.</desc><sym>Summit Candidate</sym><extensions><yama:source_trackpoint_index>196</yama:source_trackpoint_index><yama:valid_elevation_index>196</yama:valid_elevation_index><yama:smoothed_ele>1189.2493333333334</yama:smoothed_ele><yama:prominence>36.50000000000023</yama:prominence><yama:detection_method>local_maxima_with_prominence</yama:detection_method><yama:detection_parameters>window=5,radius=10,min_prominence=30,merge=100</yama:detection_parameters><yama:candidate_status>unresolved</yama:candidate_status></extensions></wpt>
  <wpt lat="33.6192163" lon="133.0702571"><ele>1252.7733333333333</ele><time>2024-04-07T00:17:52Z</time><name>summit-candidate:ec2a95521eaac250</name><desc>Summit candidate detected at elevation 1252.7733333333333m with prominence 77.2166666666667m.</desc><sym>Summit Candidate</sym><extensions><yama:source_trackpoint_index>239</yama:source_trackpoint_index><yama:valid_elevation_index>239</yama:valid_elevation_index><yama:smoothed_ele>1251.74</yama:smoothed_ele><yama:prominence>77.2166666666667</yama:prominence><yama:detection_method>local_maxima_with_prominence</yama:detection_method><yama:detection_parameters>window=5,radius=10,min_prominence=30,merge=100</yama:detection_parameters><yama:candidate_status>unresolved</yama:candidate_status></extensions></wpt>
  <wpt lat="33.6086175" lon="133.0786503"><ele>1338.5933333333335</ele><time>2024-04-07T01:22:01Z</time><name>summit-candidate:e4172c5503fdcc89</name><desc>Summit candidate detected at elevation 1338.5933333333335m with prominence 103.31466666666688m.</desc><sym>Summit Candidate</sym><extensions><yama:source_trackpoint_index>328</yama:source_trackpoint_index><yama:valid_elevation_index>328</yama:valid_elevation_index><yama:smoothed_ele>1336.4460000000001</yama:smoothed_ele><yama:prominence>103.31466666666688</yama:prominence><yama:detection_method>local_maxima_with_prominence</yama:detection_method><yama:detection_parameters>window=5,radius=10,min_prominence=30,merge=100</yama:detection_parameters><yama:candidate_status>unresolved</yama:candidate_status></extensions></wpt>
  <wpt lat="33.601894" lon="133.0710189"><ele>1347.9433333333334</ele><time>2024-04-07T02:18:28Z</time><name>summit-candidate:aa8ff99fc3bd426d</name><desc>Summit candidate detected at elevation 1347.9433333333334m with prominence 53.52933333333317m.</desc><sym>Summit Candidate</sym><extensions><yama:source_trackpoint_index>387</yama:source_trackpoint_index><yama:valid_elevation_index>387</yama:valid_elevation_index><yama:smoothed_ele>1344.9926666666665</yama:smoothed_ele><yama:prominence>53.52933333333317</yama:prominence><yama:detection_method>local_maxima_with_prominence</yama:detection_method><yama:detection_parameters>window=5,radius=10,min_prominence=30,merge=100</yama:detection_parameters><yama:candidate_status>unresolved</yama:candidate_status></extensions></wpt>
  <wpt lat="33.5997914" lon="133.06404"><ele>1357.4633333333334</ele><time>2024-04-07T02:53:14Z</time><name>summit-candidate:09c1602c02ce7f78</name><desc>Summit candidate detected at elevation 1357.4633333333334m with prominence 686.0611111111112m.</desc><sym>Summit Candidate</sym><extensions><yama:source_trackpoint_index>422</yama:source_trackpoint_index><yama:valid_elevation_index>422</yama:valid_elevation_index><yama:smoothed_ele>1352.5533333333335</yama:smoothed_ele><yama:prominence>686.0611111111112</yama:prominence><yama:detection_method>local_maxima_with_prominence</yama:detection_method><yama:detection_parameters>window=5,radius=10,min_prominence=30,merge=100</yama:detection_parameters><yama:candidate_status>unresolved</yama:candidate_status></extensions></wpt>
  <trk><name>二箆山・西雑誌山</name><number>1</number><trkseg><trkpt lat="33.6058731" lon="133.0360355"><ele>660.1</ele><time>2024-04-06T21:45:15Z</time></trkpt><trkpt lat="33.6060588" lon="133.0360218"><ele>661.98</ele><time>2024-04-06T21:45:54Z</time></trkpt><trkpt lat="33.6062743" lon="133.0360024"><ele>663.22</ele><time>2024-04-06T21:46:11Z</time></trkpt><trkpt lat="33.6064597" lon="133.0359794"><ele>665.9833333333332</ele><time>2024-04-06T21:46:25Z</time></trkpt><trkpt lat="33.6066371" lon="133.0358992"><ele>669.2933333333334</ele><time>2024-04-06T21:46:39Z</time></trkpt><trkpt lat="33.6068402" lon="133.0358558"><ele>672.2033333333333</ele><time>2024-04-06T21:46:58Z</time></trkpt><trkpt lat="33.607022" lon="133.0358693"><ele>674.3266666666667</ele><time>2024-04-06T21:47:13Z</time></trkpt><trkpt lat="33.6072215" lon="133.0359159"><ele>674.99</ele><time>2024-04-06T21:47:27Z</time></trkpt><trkpt lat="33.6074283" lon="133.0358767"><ele>676.0733333333334</ele><time>2024-04-06T21:47:50Z</time></trkpt><trkpt lat="33.6076199" lon="133.0359276"><ele>679.3566666666667</ele><time>2024-04-06T21:48:06Z</time></trkpt><trkpt lat="33.6077246" lon="133.0361065"><ele>680.59</ele><time>2024-04-06T21:48:18Z</time></trkpt><trkpt lat="33.6077408" lon="133.0363279"><ele>679.8000000000001</ele><time>2024-04-06T21:48:34Z</time></trkpt><trkpt lat="33.6078578" lon="133.0365337"><ele>677.4466666666667</ele><time>2024-04-06T21:48:48Z</time></trkpt><trkpt lat="33.6079274" lon="133.0367908"><ele>676.9000000000001</ele><time>2024-04-06T21:49:07Z</time></trkpt><trkpt lat="33.6078667" lon="133.0370163"><ele>676.25</ele><time>2024-04-06T21:49:27Z</time></trkpt><trkpt lat="33.6078877" lon="133.0372685"><ele>675.12</ele><time>2024-04-06T21:49:51Z</time></trkpt><trkpt lat="33.6079894" lon="133.0374782"><ele>677.3133333333334</ele><time>2024-04-06T21:50:03Z</time></trkpt><trkpt lat="33.6080685" lon="133.0377266"><ele>681.9399999999999</ele><time>2024-04-06T21:50:15Z</time></trkpt><trkpt lat="33.6080963" lon="133.0379476"><ele>685.9066666666666</ele><time>2024-04-06T21:50:27Z</time></trkpt><trkpt lat="33.6081363" lon="133.03819"><ele>686.5733333333334</ele><time>2024-04-06T21:50:42Z</time></trkpt><trkpt lat="33.6081818" lon="133.0384005"><ele>685.3733333333333</ele><time>2024-04-06T21:50:57Z</time></trkpt><trkpt lat="33.608312" lon="133.0385783"><ele>685.5799999999999</ele><time>2024-04-06T21:51:16Z</time></trkpt><trkpt lat="33.6084837" lon="133.0387342"><ele>687.3133333333334</ele><time>2024-04-06T21:51:31Z</time></trkpt><trkpt lat="33.6084833" lon="133.0389942"><ele>690.1500000000001</ele><time>2024-04-06T21:51:47Z</time></trkpt><trkpt lat="33.6085259" lon="133.0392491"><ele>692.4766666666666</ele><time>2024-04-06T21:52:03Z</time></trkpt><trkpt lat="33.6086593" lon="133.0394333"><ele>694.1</ele><time>2024-04-06T21:52:18Z</time></trkpt><trkpt lat="33.6087475" lon="133.0396603"><ele>694.8633333333333</ele><time>2024-04-06T21:52:36Z</time></trkpt><trkpt lat="33.6088095" lon="133.0399074"><ele>694.9533333333334</ele><time>2024-04-06T21:52:56Z</time></trkpt><trkpt lat="33.6088991" lon="133.0401231"><ele>694.5200000000001</ele><time>2024-04-06T21:53:18Z</time></trkpt><trkpt lat="33.6090197" lon="133.0402977"><ele>697.2833333333334</ele><time>2024-04-06T21:53:33Z</time></trkpt><trkpt lat="33.6091413" lon="133.0405128"><ele>700.4666666666667</ele><time>2024-04-06T21:53:48Z</time></trkpt><trkpt lat="33.6092019" lon="133.0407357"><ele>703.0500000000001</ele><time>2024-04-06T21:54:00Z</time></trkpt><trkpt lat="33.6092932" lon="133.0409361"><ele>702.5833333333334</ele><time>2024-04-06T21:54:15Z</time></trkpt><trkpt lat="33.6093785" lon="133.0411335"><ele>702.23</ele><time>2024-04-06T21:54:33Z</time></trkpt><trkpt lat="33.6094331" lon="133.041373"><ele>702.4033333333333</ele><time>2024-04-06T21:54:52Z</time></trkpt><trkpt lat="33.60946" lon="133.0416244"><ele>702.8666666666668</ele><time>2024-04-06T21:55:10Z</time></trkpt><trkpt lat="33.6093129" lon="133.0417936"><ele>702.07</ele><time>2024-04-06T21:55:31Z</time></trkpt><trkpt lat="33.6091804" lon="133.0420047"><ele>700.8933333333334</ele><time>2024-04-06T21:55:42Z</time></trkpt><trkpt lat="33.6091534" lon="133.0422445"><ele>701.6666666666666</ele><time>2024-04-06T21:55:58Z</time></trkpt><trkpt lat="33.6090348" lon="133.0424471"><ele>703.1966666666667</ele><time>2024-04-06T21:56:13Z</time></trkpt><trkpt lat="33.6089465" lon="133.0426612"><ele>705.6666666666666</ele><time>2024-04-06T21:56:28Z</time></trkpt><trkpt lat="33.6088258" lon="133.0428448"><ele>707.4233333333333</ele><time>2024-04-06T21:56:45Z</time></trkpt><trkpt lat="33.6087246" lon="133.0430397"><ele>709.8366666666667</ele><time>2024-04-06T21:57:04Z</time></trkpt><trkpt lat="33.608714" lon="133.0432836"><ele>712.5633333333334</ele><time>2024-04-06T21:57:19Z</time></trkpt><trkpt lat="33.6086631" lon="133.0435189"><ele>714.6133333333333</ele><time>2024-04-06T21:57:43Z</time></trkpt><trkpt lat="33.6085746" lon="133.0437238"><ele>716.16</ele><time>2024-04-06T21:57:55Z</time></trkpt><trkpt lat="33.6084928" lon="133.0439609"><ele>716.52</ele><time>2024-04-06T21:58:13Z</time></trkpt><trkpt lat="33.608424" lon="133.0441957"><ele>716.6533333333333</ele><time>2024-04-06T21:58:29Z</time></trkpt><trkpt lat="33.6084954" lon="133.0443981"><ele>718.3966666666666</ele><time>2024-04-06T21:58:42Z</time></trkpt><trkpt lat="33.6086402" lon="133.0445839"><ele>722.7833333333334</ele><time>2024-04-06T21:58:57Z</time></trkpt><trkpt lat="33.6087651" lon="133.0447952"><ele>728.6866666666666</ele><time>2024-04-06T21:59:12Z</time></trkpt><trkpt lat="33.6088248" lon="133.0450201"><ele>732.29</ele><time>2024-04-06T21:59:27Z</time></trkpt><trkpt lat="33.6089169" lon="133.0452173"><ele>734.2733333333334</ele><time>2024-04-06T21:59:42Z</time></trkpt><trkpt lat="33.6089976" lon="133.0454204"><ele>735.1</ele><time>2024-04-06T22:00:00Z</time></trkpt><trkpt lat="33.6091648" lon="133.0455164"><ele>740.3100000000001</ele><time>2024-04-06T22:00:24Z</time></trkpt><trkpt lat="33.6092015" lon="133.045296"><ele>746.9166666666666</ele><time>2024-04-06T22:02:49Z</time></trkpt><trkpt lat="33.6092484" lon="133.0450851"><ele>753.82</ele><time>2024-04-06T22:05:13Z</time></trkpt><trkpt lat="33.6094281" lon="133.0451303"><ele>760.9333333333334</ele><time>2024-04-06T22:06:55Z</time></trkpt><trkpt lat="33.6094967" lon="133.0453414"><ele>766.6700000000001</ele><time>2024-04-06T22:07:16Z</time></trkpt><trkpt lat="33.6096772" lon="133.0453848"><ele>774.0533333333333</ele><time>2024-04-06T22:07:35Z</time></trkpt><trkpt lat="33.6098413" lon="133.0454966"><ele>780.5600000000001</ele><time>2024-04-06T22:08:06Z</time></trkpt><trkpt lat="33.6099858" lon="133.0453632"><ele>788.6833333333334</ele><time>2024-04-06T22:09:11Z</time></trkpt><trkpt lat="33.6101584" lon="133.0451501"><ele>796.3266666666667</ele><time>2024-04-06T22:09:44Z</time></trkpt><trkpt lat="33.610163" lon="133.0453759"><ele>800.5766666666667</ele><time>2024-04-06T22:10:13Z</time></trkpt><trkpt lat="33.6102961" lon="133.0455468"><ele>802.7666666666668</ele><time>2024-04-06T22:10:34Z</time></trkpt><trkpt lat="33.6104167" lon="133.0453771"><ele>804.5833333333334</ele><time>2024-04-06T22:11:05Z</time></trkpt><trkpt lat="33.6105216" lon="133.0451929"><ele>807.9966666666666</ele><time>2024-04-06T22:11:54Z</time></trkpt><trkpt lat="33.6106917" lon="133.0450859"><ele>813.3333333333334</ele><time>2024-04-06T22:12:09Z</time></trkpt><trkpt lat="33.6108252" lon="133.0449151"><ele>818.6166666666667</ele><time>2024-04-06T22:12:33Z</time></trkpt><trkpt lat="33.6108773" lon="133.0451287"><ele>822.5133333333333</ele><time>2024-04-06T22:13:19Z</time></trkpt><trkpt lat="33.6109714" lon="133.044903"><ele>825.6833333333334</ele><time>2024-04-06T22:13:43Z</time></trkpt><trkpt lat="33.6111317" lon="133.0447575"><ele>830.66</ele><time>2024-04-06T22:14:22Z</time></trkpt><trkpt lat="33.6111664" lon="133.0445354"><ele>835.7466666666666</ele><time>2024-04-06T22:15:04Z</time></trkpt><trkpt lat="33.6113495" lon="133.0445481"><ele>841.9466666666667</ele><time>2024-04-06T22:17:11Z</time></trkpt><trkpt lat="33.6114232" lon="133.044749"><ele>846.3000000000001</ele><time>2024-04-06T22:18:18Z</time></trkpt><trkpt lat="33.6115753" lon="133.0448832"><ele>853.1333333333333</ele><time>2024-04-06T22:18:50Z</time></trkpt><trkpt lat="33.6116688" lon="133.0450693"><ele>857.7066666666666</ele><time>2024-04-06T22:19:45Z</time></trkpt><trkpt lat="33.6118352" lon="133.0451709"><ele>865.3433333333332</ele><time>2024-04-06T22:20:47Z</time></trkpt><trkpt lat="33.6119336" lon="133.0449771"><ele>873.4066666666666</ele><time>2024-04-06T22:21:34Z</time></trkpt><trkpt lat="33.6119467" lon="133.0447613"><ele>880.8299999999999</ele><time>2024-04-06T22:22:10Z</time></trkpt><trkpt lat="33.6121292" lon="133.0448047"><ele>887.6366666666667</ele><time>2024-04-06T22:22:55Z</time></trkpt><trkpt lat="33.6122734" lon="133.0449417"><ele>893.2766666666666</ele><time>2024-04-06T22:23:42Z</time></trkpt><trkpt lat="33.6124638" lon="133.0449347"><ele>899.9933333333333</ele><time>2024-04-06T22:24:43Z</time></trkpt><trkpt lat="33.6126568" lon="133.0449264"><ele>904.9233333333333</ele><time>2024-04-06T22:25:21Z</time></trkpt><trkpt lat="33.6128376" lon="133.044939"><ele>911.1133333333333</ele><time>2024-04-06T22:26:51Z</time></trkpt><trkpt lat="33.6130204" lon="133.0449207"><ele>917.83</ele><time>2024-04-06T22:27:34Z</time></trkpt><trkpt lat="33.6131981" lon="133.0449903"><ele>924.7466666666666</ele><time>2024-04-06T22:28:30Z</time></trkpt><trkpt lat="33.6133697" lon="133.0450632"><ele>929.7466666666668</ele><time>2024-04-06T22:29:13Z</time></trkpt><trkpt lat="33.6135308" lon="133.0449505"><ele>934.4133333333334</ele><time>2024-04-06T22:29:40Z</time></trkpt><trkpt lat="33.6137146" lon="133.0448908"><ele>938.4833333333332</ele><time>2024-04-06T22:35:04Z</time></trkpt><trkpt lat="33.6138986" lon="133.0449655"><ele>942.71</ele><time>2024-04-06T22:35:40Z</time></trkpt><trkpt lat="33.6140799" lon="133.0449231"><ele>947.6833333333334</ele><time>2024-04-06T22:36:37Z</time></trkpt><trkpt lat="33.6142611" lon="133.0449596"><ele>952.8400000000001</ele><time>2024-04-06T22:37:33Z</time></trkpt><trkpt lat="33.6143765" lon="133.0447851"><ele>957.7866666666667</ele><time>2024-04-06T22:38:19Z</time></trkpt><trkpt lat="33.6145612" lon="133.0448304"><ele>963.3133333333334</ele><time>2024-04-06T22:39:06Z</time></trkpt><trkpt lat="33.6147462" lon="133.0449"><ele>970.3233333333334</ele><time>2024-04-06T22:40:25Z</time></trkpt><trkpt lat="33.6149174" lon="133.0450032"><ele>980.3833333333333</ele><time>2024-04-06T22:42:01Z</time></trkpt><trkpt lat="33.6151043" lon="133.045011"><ele>989.6166666666667</ele><time>2024-04-06T22:43:03Z</time></trkpt><trkpt lat="33.6152842" lon="133.0450325"><ele>998.1833333333334</ele><time>2024-04-06T22:45:19Z</time></trkpt><trkpt lat="33.615457" lon="133.0451145"><ele>1005.3633333333333</ele><time>2024-04-06T22:48:22Z</time></trkpt><trkpt lat="33.6156061" lon="133.0452509"><ele>1014.4866666666667</ele><time>2024-04-06T22:50:49Z</time></trkpt><trkpt lat="33.6157805" lon="133.0453108"><ele>1024.5766666666668</ele><time>2024-04-06T22:54:04Z</time></trkpt><trkpt lat="33.6159293" lon="133.0454461"><ele>1034.21</ele><time>2024-04-06T22:59:25Z</time></trkpt><trkpt lat="33.6160734" lon="133.0456213"><ele>1042.57</ele><time>2024-04-06T23:01:34Z</time></trkpt><trkpt lat="33.6161631" lon="133.0458158"><ele>1049.0233333333333</ele><time>2024-04-06T23:04:31Z</time></trkpt><trkpt lat="33.6162733" lon="133.0459875"><ele>1053.7866666666666</ele><time>2024-04-06T23:04:58Z</time></trkpt><trkpt lat="33.6163538" lon="133.0462062"><ele>1057.0366666666666</ele><time>2024-04-06T23:05:22Z</time></trkpt><trkpt lat="33.6164795" lon="133.0463958"><ele>1058.8633333333332</ele><time>2024-04-06T23:05:49Z</time></trkpt><trkpt lat="33.6166243" lon="133.0465567"><ele>1061.2700000000002</ele><time>2024-04-06T23:06:09Z</time></trkpt><trkpt lat="33.6166935" lon="133.0467635"><ele>1064.5233333333333</ele><time>2024-04-06T23:06:34Z</time></trkpt><trkpt lat="33.6168587" lon="133.0468668"><ele>1068.3333333333333</ele><time>2024-04-06T23:07:10Z</time></trkpt><trkpt lat="33.6170451" lon="133.0469596"><ele>1071.7299999999998</ele><time>2024-04-06T23:07:30Z</time></trkpt><trkpt lat="33.61719" lon="133.0471172"><ele>1073.8466666666666</ele><time>2024-04-06T23:07:48Z</time></trkpt><trkpt lat="33.6172805" lon="133.047325"><ele>1076.4766666666667</ele><time>2024-04-06T23:08:05Z</time></trkpt><trkpt lat="33.6174333" lon="133.047492"><ele>1079.4233333333332</ele><time>2024-04-06T23:08:23Z</time></trkpt><trkpt lat="33.6175559" lon="133.0476845"><ele>1082.6066666666668</ele><time>2024-04-06T23:08:41Z</time></trkpt><trkpt lat="33.6176046" lon="133.0479238"><ele>1082.5</ele><time>2024-04-06T23:08:59Z</time></trkpt><trkpt lat="33.617521" lon="133.0481356"><ele>1081.7433333333333</ele><time>2024-04-06T23:09:14Z</time></trkpt><trkpt lat="33.6174619" lon="133.0483611"><ele>1080.6000000000001</ele><time>2024-04-06T23:09:32Z</time></trkpt><trkpt lat="33.6174358" lon="133.0485991"><ele>1082.1733333333332</ele><time>2024-04-06T23:09:50Z</time></trkpt><trkpt lat="33.6174199" lon="133.0488468"><ele>1083.0966666666666</ele><time>2024-04-06T23:10:17Z</time></trkpt><trkpt lat="33.6174711" lon="133.0490688"><ele>1083.8266666666666</ele><time>2024-04-06T23:10:56Z</time></trkpt><trkpt lat="33.6176391" lon="133.0491895"><ele>1085.6466666666665</ele><time>2024-04-06T23:11:22Z</time></trkpt><trkpt lat="33.617812" lon="133.0492804"><ele>1089.1866666666667</ele><time>2024-04-06T23:11:46Z</time></trkpt><trkpt lat="33.6180031" lon="133.0492806"><ele>1094.2066666666667</ele><time>2024-04-06T23:12:16Z</time></trkpt><trkpt lat="33.6181941" lon="133.0493244"><ele>1097.7166666666667</ele><time>2024-04-06T23:12:42Z</time></trkpt><trkpt lat="33.6182431" lon="133.0491147"><ele>1099.7766666666666</ele><time>2024-04-06T23:15:03Z</time></trkpt><trkpt lat="33.6183659" lon="133.0489413"><ele>1100.3500000000001</ele><time>2024-04-06T23:15:38Z</time></trkpt><trkpt lat="33.6185086" lon="133.0488076"><ele>1100.43</ele><time>2024-04-06T23:16:17Z</time></trkpt><trkpt lat="33.6186666" lon="133.0489118"><ele>1100.7466666666667</ele><time>2024-04-06T23:16:50Z</time></trkpt><trkpt lat="33.6188064" lon="133.0490806"><ele>1101.2766666666666</ele><time>2024-04-06T23:17:14Z</time></trkpt><trkpt lat="33.6190057" lon="133.0491557"><ele>1102.1133333333332</ele><time>2024-04-06T23:17:37Z</time></trkpt><trkpt lat="33.619182" lon="133.0492262"><ele>1102.7066666666667</ele><time>2024-04-06T23:17:58Z</time></trkpt><trkpt lat="33.6193706" lon="133.0492895"><ele>1103.4</ele><time>2024-04-06T23:18:26Z</time></trkpt><trkpt lat="33.6195222" lon="133.0494088"><ele>1104.4566666666667</ele><time>2024-04-06T23:18:47Z</time></trkpt><trkpt lat="33.6197075" lon="133.0494418"><ele>1106.3000000000002</ele><time>2024-04-06T23:19:14Z</time></trkpt><trkpt lat="33.619899" lon="133.0495129"><ele>1108.6066666666666</ele><time>2024-04-06T23:19:52Z</time></trkpt><trkpt lat="33.6200959" lon="133.0495317"><ele>1112.8100000000002</ele><time>2024-04-06T23:20:19Z</time></trkpt><trkpt lat="33.6202698" lon="133.0496372"><ele>1118.0466666666669</ele><time>2024-04-06T23:21:03Z</time></trkpt><trkpt lat="33.6204609" lon="133.0496244"><ele>1123.2166666666667</ele><time>2024-04-06T23:21:51Z</time></trkpt><trkpt lat="33.6206449" lon="133.0495958"><ele>1126.7033333333336</ele><time>2024-04-06T23:22:46Z</time></trkpt><trkpt lat="33.6207768" lon="133.0497542"><ele>1128.1733333333334</ele><time>2024-04-06T23:23:27Z</time></trkpt><trkpt lat="33.6207903" lon="133.0499816"><ele>1129.67</ele><time>2024-04-06T23:24:10Z</time></trkpt><trkpt lat="33.6208269" lon="133.0502115"><ele>1131.0133333333333</ele><time>2024-04-06T23:24:45Z</time></trkpt><trkpt lat="33.6209083" lon="133.0504151"><ele>1133.0366666666666</ele><time>2024-04-06T23:25:34Z</time></trkpt><trkpt lat="33.6210683" lon="133.0505294"><ele>1133.4033333333334</ele><time>2024-04-06T23:26:00Z</time></trkpt><trkpt lat="33.6210921" lon="133.050755"><ele>1134.45</ele><time>2024-04-06T23:26:25Z</time></trkpt><trkpt lat="33.6212101" lon="133.0509445"><ele>1135.506666666667</ele><time>2024-04-06T23:27:07Z</time></trkpt><trkpt lat="33.6212452" lon="133.0511645"><ele>1139.3933333333334</ele><time>2024-04-06T23:27:48Z</time></trkpt><trkpt lat="33.6212801" lon="133.0513907"><ele>1144.0133333333333</ele><time>2024-04-06T23:28:27Z</time></trkpt><trkpt lat="33.621305" lon="133.0516234"><ele>1150.6933333333334</ele><time>2024-04-06T23:28:55Z</time></trkpt><trkpt lat="33.6213439" lon="133.0518402"><ele>1156.0833333333333</ele><time>2024-04-06T23:29:28Z</time></trkpt><trkpt lat="33.62142" lon="133.0520358"><ele>1158.3666666666668</ele><time>2024-04-06T23:36:18Z</time></trkpt><trkpt lat="33.621508" lon="133.0522351"><ele>1156.99</ele><time>2024-04-06T23:36:42Z</time></trkpt><trkpt lat="33.6215994" lon="133.0524382"><ele>1153.3966666666668</ele><time>2024-04-06T23:36:59Z</time></trkpt><trkpt lat="33.6216323" lon="133.0526504"><ele>1149.0733333333335</ele><time>2024-04-06T23:37:24Z</time></trkpt><trkpt lat="33.6216739" lon="133.0528849"><ele>1144.5866666666668</ele><time>2024-04-06T23:37:45Z</time></trkpt><trkpt lat="33.6216927" lon="133.0531009"><ele>1140.87</ele><time>2024-04-06T23:38:08Z</time></trkpt><trkpt lat="33.6217182" lon="133.0533266"><ele>1136.2933333333333</ele><time>2024-04-06T23:38:30Z</time></trkpt><trkpt lat="33.6217178" lon="133.0535492"><ele>1131.7466666666667</ele><time>2024-04-06T23:38:51Z</time></trkpt><trkpt lat="33.6216747" lon="133.0537858"><ele>1127.4633333333334</ele><time>2024-04-06T23:39:17Z</time></trkpt><trkpt lat="33.6217077" lon="133.0540134"><ele>1124.3733333333332</ele><time>2024-04-06T23:39:44Z</time></trkpt><trkpt lat="33.6217215" lon="133.0542338"><ele>1122.3166666666668</ele><time>2024-04-06T23:40:05Z</time></trkpt><trkpt lat="33.621727" lon="133.0544657"><ele>1120.706666666667</ele><time>2024-04-06T23:40:28Z</time></trkpt><trkpt lat="33.6216887" lon="133.0547007"><ele>1120.8366666666668</ele><time>2024-04-06T23:40:49Z</time></trkpt><trkpt lat="33.6216494" lon="133.0549161"><ele>1121.1966666666667</ele><time>2024-04-06T23:41:06Z</time></trkpt><trkpt lat="33.6216893" lon="133.0551582"><ele>1121.5033333333333</ele><time>2024-04-06T23:41:27Z</time></trkpt><trkpt lat="33.6217309" lon="133.0553914"><ele>1121.59</ele><time>2024-04-06T23:41:45Z</time></trkpt><trkpt lat="33.6219158" lon="133.0554603"><ele>1121.7033333333334</ele><time>2024-04-06T23:42:22Z</time></trkpt><trkpt lat="33.6220618" lon="133.0555929"><ele>1121.7133333333334</ele><time>2024-04-06T23:42:45Z</time></trkpt><trkpt lat="33.6221982" lon="133.0557571"><ele>1121.47</ele><time>2024-04-06T23:43:12Z</time></trkpt><trkpt lat="33.6222893" lon="133.055962"><ele>1121.21</ele><time>2024-04-06T23:43:54Z</time></trkpt><trkpt lat="33.622301" lon="133.0561979"><ele>1121.0966666666666</ele><time>2024-04-06T23:44:14Z</time></trkpt><trkpt lat="33.6223191" lon="133.0564386"><ele>1121.243333333333</ele><time>2024-04-06T23:44:35Z</time></trkpt><trkpt lat="33.622255" lon="133.0566589"><ele>1121.8633333333335</ele><time>2024-04-06T23:44:52Z</time></trkpt><trkpt lat="33.6222748" lon="133.0568808"><ele>1122.8500000000001</ele><time>2024-04-06T23:45:09Z</time></trkpt><trkpt lat="33.6223178" lon="133.0571223"><ele>1124.3700000000001</ele><time>2024-04-06T23:46:03Z</time></trkpt><trkpt lat="33.6223447" lon="133.0573456"><ele>1126.6533333333334</ele><time>2024-04-06T23:46:23Z</time></trkpt><trkpt lat="33.6222783" lon="133.0575689"><ele>1129.8100000000002</ele><time>2024-04-06T23:46:40Z</time></trkpt><trkpt lat="33.6221826" lon="133.057774"><ele>1133.3766666666668</ele><time>2024-04-06T23:46:58Z</time></trkpt><trkpt lat="33.6221288" lon="133.0579924"><ele>1136.8333333333335</ele><time>2024-04-06T23:47:20Z</time></trkpt><trkpt lat="33.6220839" lon="133.0582081"><ele>1140.1766666666667</ele><time>2024-04-06T23:47:40Z</time></trkpt><trkpt lat="33.6220062" lon="133.0584269"><ele>1143.7466666666667</ele><time>2024-04-06T23:48:04Z</time></trkpt><trkpt lat="33.6219795" lon="133.0586527"><ele>1146.99</ele><time>2024-04-06T23:48:30Z</time></trkpt><trkpt lat="33.6220196" lon="133.0588879"><ele>1149.7866666666666</ele><time>2024-04-06T23:49:00Z</time></trkpt><trkpt lat="33.6220014" lon="133.0591246"><ele>1151.7733333333333</ele><time>2024-04-06T23:49:30Z</time></trkpt><trkpt lat="33.6218769" lon="133.0593198"><ele>1154.22</ele><time>2024-04-06T23:50:09Z</time></trkpt><trkpt lat="33.6218015" lon="133.0595205"><ele>1156.8200000000002</ele><time>2024-04-06T23:50:48Z</time></trkpt><trkpt lat="33.621725" lon="133.0597279"><ele>1160.9466666666667</ele><time>2024-04-06T23:51:24Z</time></trkpt><trkpt lat="33.62169" lon="133.0599519"><ele>1165.37</ele><time>2024-04-06T23:52:18Z</time></trkpt><trkpt lat="33.6216719" lon="133.0601665"><ele>1171.2566666666667</ele><time>2024-04-06T23:53:00Z</time></trkpt><trkpt lat="33.6216744" lon="133.0603969"><ele>1176.5233333333335</ele><time>2024-04-06T23:53:38Z</time></trkpt><trkpt lat="33.6216404" lon="133.0606263"><ele>1181.8733333333332</ele><time>2024-04-06T23:54:08Z</time></trkpt><trkpt lat="33.6216511" lon="133.0608455"><ele>1186.0533333333335</ele><time>2024-04-06T23:54:30Z</time></trkpt><trkpt lat="33.6216776" lon="133.0610644"><ele>1189.0866666666668</ele><time>2024-04-06T23:54:53Z</time></trkpt><trkpt lat="33.6216665" lon="133.0612807"><ele>1190.5</ele><time>2024-04-06T23:55:11Z</time></trkpt><trkpt lat="33.6216493" lon="133.061506"><ele>1190.45</ele><time>2024-04-06T23:55:28Z</time></trkpt><trkpt lat="33.6217311" lon="133.0617287"><ele>1189.2666666666667</ele><time>2024-04-06T23:55:49Z</time></trkpt><trkpt lat="33.6217799" lon="133.0619492"><ele>1186.9433333333334</ele><time>2024-04-06T23:56:06Z</time></trkpt><trkpt lat="33.6217435" lon="133.0621725"><ele>1184.5466666666669</ele><time>2024-04-06T23:57:03Z</time></trkpt><trkpt lat="33.6217101" lon="133.0624226"><ele>1181.95</ele><time>2024-04-06T23:57:21Z</time></trkpt><trkpt lat="33.6216865" lon="133.0626649"><ele>1178.6933333333334</ele><time>2024-04-06T23:57:42Z</time></trkpt><trkpt lat="33.6216698" lon="133.0628805"><ele>1174.7666666666667</ele><time>2024-04-06T23:57:57Z</time></trkpt><trkpt lat="33.6216506" lon="133.0630952"><ele>1170.3633333333335</ele><time>2024-04-06T23:58:15Z</time></trkpt><trkpt lat="33.6216214" lon="133.063326"><ele>1166.3833333333334</ele><time>2024-04-06T23:58:36Z</time></trkpt><trkpt lat="33.6216389" lon="133.0635543"><ele>1162.4466666666667</ele><time>2024-04-06T23:58:56Z</time></trkpt><trkpt lat="33.6216657" lon="133.0637955"><ele>1158.78</ele><time>2024-04-06T23:59:18Z</time></trkpt><trkpt lat="33.6216527" lon="133.06404"><ele>1155.4033333333334</ele><time>2024-04-06T23:59:35Z</time></trkpt><trkpt lat="33.6216512" lon="133.0642708"><ele>1153.03</ele><time>2024-04-06T23:59:52Z</time></trkpt><trkpt lat="33.6216068" lon="133.0644903"><ele>1151.8033333333333</ele><time>2024-04-07T00:00:09Z</time></trkpt><trkpt lat="33.6215948" lon="133.0647373"><ele>1152.01</ele><time>2024-04-07T00:00:29Z</time></trkpt><trkpt lat="33.6215594" lon="133.0649637"><ele>1152.6366666666665</ele><time>2024-04-07T00:00:50Z</time></trkpt><trkpt lat="33.6215504" lon="133.0652017"><ele>1154.2666666666667</ele><time>2024-04-07T00:01:14Z</time></trkpt><trkpt lat="33.6215144" lon="133.0654257"><ele>1156.9933333333333</ele><time>2024-04-07T00:01:40Z</time></trkpt><trkpt lat="33.6214812" lon="133.0656617"><ele>1160.6466666666668</ele><time>2024-04-07T00:02:06Z</time></trkpt><trkpt lat="33.6214338" lon="133.0658774"><ele>1164.7166666666665</ele><time>2024-04-07T00:02:57Z</time></trkpt><trkpt lat="33.6213978" lon="133.0660992"><ele>1168.69</ele><time>2024-04-07T00:03:28Z</time></trkpt><trkpt lat="33.6213525" lon="133.0663241"><ele>1172.506666666667</ele><time>2024-04-07T00:03:58Z</time></trkpt><trkpt lat="33.6213533" lon="133.0665513"><ele>1175.9799999999998</ele><time>2024-04-07T00:04:36Z</time></trkpt><trkpt lat="33.6213245" lon="133.0667763"><ele>1180.1333333333334</ele><time>2024-04-07T00:05:17Z</time></trkpt><trkpt lat="33.6212995" lon="133.067001"><ele>1184.4000000000003</ele><time>2024-04-07T00:05:43Z</time></trkpt><trkpt lat="33.6212731" lon="133.0672339"><ele>1188.9966666666667</ele><time>2024-04-07T00:06:14Z</time></trkpt><trkpt lat="33.621136" lon="133.0673924"><ele>1192.71</ele><time>2024-04-07T00:06:50Z</time></trkpt><trkpt lat="33.6209549" lon="133.0674703"><ele>1196.4566666666667</ele><time>2024-04-07T00:07:52Z</time></trkpt><trkpt lat="33.6207971" lon="133.0676127"><ele>1199.9333333333334</ele><time>2024-04-07T00:08:22Z</time></trkpt><trkpt lat="33.6206215" lon="133.0677004"><ele>1203.6233333333332</ele><time>2024-04-07T00:08:52Z</time></trkpt><trkpt lat="33.6204297" lon="133.0677547"><ele>1206.86</ele><time>2024-04-07T00:09:17Z</time></trkpt><trkpt lat="33.6202573" lon="133.0678697"><ele>1212.2</ele><time>2024-04-07T00:09:51Z</time></trkpt><trkpt lat="33.6201057" lon="133.0680218"><ele>1217.1466666666665</ele><time>2024-04-07T00:11:05Z</time></trkpt><trkpt lat="33.6199951" lon="133.0682014"><ele>1222.176666666667</ele><time>2024-04-07T00:11:39Z</time></trkpt><trkpt lat="33.6199264" lon="133.0684206"><ele>1226.0033333333333</ele><time>2024-04-07T00:12:17Z</time></trkpt><trkpt lat="33.6198928" lon="133.0686474"><ele>1230.1000000000001</ele><time>2024-04-07T00:12:52Z</time></trkpt><trkpt lat="33.6198461" lon="133.0688671"><ele>1233.9033333333334</ele><time>2024-04-07T00:13:19Z</time></trkpt><trkpt lat="33.6197666" lon="133.069085"><ele>1237.25</ele><time>2024-04-07T00:13:45Z</time></trkpt><trkpt lat="33.6197156" lon="133.0693174"><ele>1240.45</ele><time>2024-04-07T00:14:11Z</time></trkpt><trkpt lat="33.6196645" lon="133.0695391"><ele>1243.5666666666668</ele><time>2024-04-07T00:14:34Z</time></trkpt><trkpt lat="33.6196298" lon="133.0697736"><ele>1247.4166666666667</ele><time>2024-04-07T00:15:00Z</time></trkpt><trkpt lat="33.6195187" lon="133.0699595"><ele>1250.3866666666665</ele><time>2024-04-07T00:17:15Z</time></trkpt><trkpt lat="33.6193538" lon="133.070098"><ele>1252.8566666666668</ele><time>2024-04-07T00:17:32Z</time></trkpt><trkpt lat="33.6192163" lon="133.0702571"><ele>1252.7733333333333</ele><time>2024-04-07T00:17:52Z</time></trkpt><trkpt lat="33.6190872" lon="133.0704103"><ele>1252.11</ele><time>2024-04-07T00:18:16Z</time></trkpt><trkpt lat="33.618918" lon="133.0704891"><ele>1250.5733333333335</ele><time>2024-04-07T00:18:39Z</time></trkpt><trkpt lat="33.6187128" lon="133.0704649"><ele>1247.2033333333334</ele><time>2024-04-07T00:19:03Z</time></trkpt><trkpt lat="33.6185681" lon="133.0705968"><ele>1243.756666666667</ele><time>2024-04-07T00:19:25Z</time></trkpt><trkpt lat="33.618428" lon="133.0707332"><ele>1241.5600000000002</ele><time>2024-04-07T00:19:54Z</time></trkpt><trkpt lat="33.6182566" lon="133.0708154"><ele>1240.7133333333334</ele><time>2024-04-07T00:20:18Z</time></trkpt><trkpt lat="33.61806" lon="133.0708756"><ele>1238.93</ele><time>2024-04-07T00:20:39Z</time></trkpt><trkpt lat="33.6178506" lon="133.0709323"><ele>1234.3733333333334</ele><time>2024-04-07T00:20:53Z</time></trkpt><trkpt lat="33.6176606" lon="133.071008"><ele>1229.3600000000001</ele><time>2024-04-07T00:21:08Z</time></trkpt><trkpt lat="33.6174582" lon="133.0711112"><ele>1224.5433333333333</ele><time>2024-04-07T00:21:23Z</time></trkpt><trkpt lat="33.6172699" lon="133.0711871"><ele>1219.8833333333334</ele><time>2024-04-07T00:21:38Z</time></trkpt><trkpt lat="33.6170949" lon="133.0712857"><ele>1213.05</ele><time>2024-04-07T00:21:55Z</time></trkpt><trkpt lat="33.6169275" lon="133.0713719"><ele>1205.42</ele><time>2024-04-07T00:22:13Z</time></trkpt><trkpt lat="33.6167562" lon="133.0714994"><ele>1198.3533333333335</ele><time>2024-04-07T00:22:34Z</time></trkpt><trkpt lat="33.6165782" lon="133.0716025"><ele>1193.993333333333</ele><time>2024-04-07T00:22:55Z</time></trkpt><trkpt lat="33.61642" lon="133.0717109"><ele>1190.32</ele><time>2024-04-07T00:23:06Z</time></trkpt><trkpt lat="33.616247" lon="133.0718185"><ele>1187.1166666666666</ele><time>2024-04-07T00:23:36Z</time></trkpt><trkpt lat="33.6160627" lon="133.0718451"><ele>1183.7966666666669</ele><time>2024-04-07T00:24:06Z</time></trkpt><trkpt lat="33.6158875" lon="133.0719544"><ele>1179.5166666666667</ele><time>2024-04-07T00:24:23Z</time></trkpt><trkpt lat="33.615776" lon="133.0721406"><ele>1175.8866666666665</ele><time>2024-04-07T00:27:02Z</time></trkpt><trkpt lat="33.6156032" lon="133.07223"><ele>1172.97</ele><time>2024-04-07T00:27:20Z</time></trkpt><trkpt lat="33.6153936" lon="133.0722504"><ele>1173.4066666666668</ele><time>2024-04-07T00:28:13Z</time></trkpt><trkpt lat="33.6151977" lon="133.0722142"><ele>1174.23</ele><time>2024-04-07T00:28:42Z</time></trkpt><trkpt lat="33.6149844" lon="133.0722371"><ele>1176.1233333333332</ele><time>2024-04-07T00:29:03Z</time></trkpt><trkpt lat="33.614783" lon="133.0722824"><ele>1178.0933333333332</ele><time>2024-04-07T00:29:21Z</time></trkpt><trkpt lat="33.6145994" lon="133.0723793"><ele>1181.6133333333335</ele><time>2024-04-07T00:29:41Z</time></trkpt><trkpt lat="33.6144174" lon="133.0723301"><ele>1184.8433333333335</ele><time>2024-04-07T00:29:59Z</time></trkpt><trkpt lat="33.6142279" lon="133.0723054"><ele>1185.1833333333334</ele><time>2024-04-07T00:30:21Z</time></trkpt><trkpt lat="33.6141018" lon="133.0724844"><ele>1185.4133333333334</ele><time>2024-04-07T00:30:42Z</time></trkpt><trkpt lat="33.6140254" lon="133.0726968"><ele>1186.1433333333334</ele><time>2024-04-07T00:31:08Z</time></trkpt><trkpt lat="33.6140431" lon="133.0729113"><ele>1189.54</ele><time>2024-04-07T00:31:41Z</time></trkpt><trkpt lat="33.6140986" lon="133.0731231"><ele>1194.1566666666668</ele><time>2024-04-07T00:32:10Z</time></trkpt><trkpt lat="33.6140931" lon="133.0733401"><ele>1198.1833333333334</ele><time>2024-04-07T00:32:47Z</time></trkpt><trkpt lat="33.6140513" lon="133.0735744"><ele>1202.33</ele><time>2024-04-07T00:33:16Z</time></trkpt><trkpt lat="33.6139509" lon="133.0737549"><ele>1204.9733333333334</ele><time>2024-04-07T00:33:46Z</time></trkpt><trkpt lat="33.6137966" lon="133.0738884"><ele>1208.7933333333333</ele><time>2024-04-07T00:34:26Z</time></trkpt><trkpt lat="33.6136847" lon="133.0740815"><ele>1212.1366666666668</ele><time>2024-04-07T00:34:53Z</time></trkpt><trkpt lat="33.6137047" lon="133.074315"><ele>1216.4166666666667</ele><time>2024-04-07T00:35:10Z</time></trkpt><trkpt lat="33.6137019" lon="133.0745401"><ele>1219.5266666666666</ele><time>2024-04-07T00:35:27Z</time></trkpt><trkpt lat="33.6136553" lon="133.0747535"><ele>1222.38</ele><time>2024-04-07T00:35:45Z</time></trkpt><trkpt lat="33.6135262" lon="133.074924"><ele>1222.12</ele><time>2024-04-07T00:36:33Z</time></trkpt><trkpt lat="33.6134125" lon="133.0751098"><ele>1221.74</ele><time>2024-04-07T00:37:02Z</time></trkpt><trkpt lat="33.613319" lon="133.0753147"><ele>1219.7366666666667</ele><time>2024-04-07T00:37:19Z</time></trkpt><trkpt lat="33.6132738" lon="133.075561"><ele>1220.7300000000002</ele><time>2024-04-07T00:37:37Z</time></trkpt><trkpt lat="33.6132919" lon="133.075778"><ele>1222.4666666666665</ele><time>2024-04-07T00:37:53Z</time></trkpt><trkpt lat="33.6133211" lon="133.0760276"><ele>1225.45</ele><time>2024-04-07T00:38:11Z</time></trkpt><trkpt lat="33.6133232" lon="133.0762712"><ele>1226.2466666666667</ele><time>2024-04-07T00:38:31Z</time></trkpt><trkpt lat="33.6132889" lon="133.0764907"><ele>1225.6666666666667</ele><time>2024-04-07T00:38:52Z</time></trkpt><trkpt lat="33.6132009" lon="133.0766941"><ele>1224.4399999999998</ele><time>2024-04-07T00:39:15Z</time></trkpt><trkpt lat="33.6131269" lon="133.0769099"><ele>1223.1233333333332</ele><time>2024-04-07T00:39:39Z</time></trkpt><trkpt lat="33.6130405" lon="133.0770997"><ele>1220.8366666666668</ele><time>2024-04-07T00:39:59Z</time></trkpt><trkpt lat="33.6129332" lon="133.0773103"><ele>1218.5033333333333</ele><time>2024-04-07T00:40:23Z</time></trkpt><trkpt lat="33.6128528" lon="133.0775114"><ele>1215.6866666666667</ele><time>2024-04-07T00:40:48Z</time></trkpt><trkpt lat="33.6127271" lon="133.0776916"><ele>1212.5666666666668</ele><time>2024-04-07T00:41:12Z</time></trkpt><trkpt lat="33.6126259" lon="133.0778946"><ele>1209.0133333333333</ele><time>2024-04-07T00:41:37Z</time></trkpt><trkpt lat="33.6126431" lon="133.0781098"><ele>1205.3233333333335</ele><time>2024-04-07T00:41:58Z</time></trkpt><trkpt lat="33.6126013" lon="133.0783301"><ele>1203.67</ele><time>2024-04-07T00:42:20Z</time></trkpt><trkpt lat="33.6125085" lon="133.0785191"><ele>1204.7433333333333</ele><time>2024-04-07T00:42:51Z</time></trkpt><trkpt lat="33.6123539" lon="133.0783996"><ele>1207.2133333333334</ele><time>2024-04-07T00:43:18Z</time></trkpt><trkpt lat="33.6121631" lon="133.0784673"><ele>1212.5133333333333</ele><time>2024-04-07T00:43:57Z</time></trkpt><trkpt lat="33.6122087" lon="133.078681"><ele>1217.4733333333334</ele><time>2024-04-07T00:44:36Z</time></trkpt><trkpt lat="33.6120288" lon="133.0786513"><ele>1223.8166666666666</ele><time>2024-04-07T00:46:14Z</time></trkpt><trkpt lat="33.6118484" lon="133.0786029"><ele>1227.9633333333334</ele><time>2024-04-07T00:46:43Z</time></trkpt><trkpt lat="33.6116803" lon="133.0787265"><ele>1232.3100000000002</ele><time>2024-04-07T00:47:20Z</time></trkpt><trkpt lat="33.6115353" lon="133.0788812"><ele>1236.5600000000002</ele><time>2024-04-07T00:47:55Z</time></trkpt><trkpt lat="33.6114391" lon="133.0790789"><ele>1241.9333333333334</ele><time>2024-04-07T00:48:25Z</time></trkpt><trkpt lat="33.611365" lon="133.0792756"><ele>1246.2333333333336</ele><time>2024-04-07T00:48:48Z</time></trkpt><trkpt lat="33.6111816" lon="133.0793364"><ele>1248.4666666666667</ele><time>2024-04-07T00:49:09Z</time></trkpt><trkpt lat="33.6109908" lon="133.0792965"><ele>1247.7433333333333</ele><time>2024-04-07T00:49:30Z</time></trkpt><trkpt lat="33.6108081" lon="133.079312"><ele>1245.3400000000001</ele><time>2024-04-07T00:49:54Z</time></trkpt><trkpt lat="33.6106257" lon="133.0793939"><ele>1243.5966666666666</ele><time>2024-04-07T00:50:23Z</time></trkpt><trkpt lat="33.6104502" lon="133.0794899"><ele>1244.1633333333336</ele><time>2024-04-07T00:58:26Z</time></trkpt><trkpt lat="33.6102787" lon="133.0795904"><ele>1247.5833333333335</ele><time>2024-04-07T00:59:08Z</time></trkpt><trkpt lat="33.6101031" lon="133.0796539"><ele>1253.96</ele><time>2024-04-07T01:00:12Z</time></trkpt><trkpt lat="33.6099186" lon="133.0796698"><ele>1260.1966666666667</ele><time>2024-04-07T01:01:36Z</time></trkpt><trkpt lat="33.6097305" lon="133.0796508"><ele>1266.97</ele><time>2024-04-07T01:02:27Z</time></trkpt><trkpt lat="33.609539" lon="133.0796864"><ele>1272.7066666666667</ele><time>2024-04-07T01:03:42Z</time></trkpt><trkpt lat="33.6093506" lon="133.0796868"><ele>1278.9733333333334</ele><time>2024-04-07T01:04:51Z</time></trkpt><trkpt lat="33.6091528" lon="133.0796795"><ele>1286.9166666666667</ele><time>2024-04-07T01:06:03Z</time></trkpt><trkpt lat="33.6089745" lon="133.079744"><ele>1295.0</ele><time>2024-04-07T01:07:15Z</time></trkpt><trkpt lat="33.6088113" lon="133.0798557"><ele>1306.7666666666667</ele><time>2024-04-07T01:08:06Z</time></trkpt><trkpt lat="33.608684" lon="133.080027"><ele>1315.82</ele><time>2024-04-07T01:10:17Z</time></trkpt><trkpt lat="33.6085048" lon="133.0799988"><ele>1323.4633333333334</ele><time>2024-04-07T01:11:54Z</time></trkpt><trkpt lat="33.6085424" lon="133.079767"><ele>1326.21</ele><time>2024-04-07T01:18:39Z</time></trkpt><trkpt lat="33.6085573" lon="133.0795418"><ele>1329.2133333333334</ele><time>2024-04-07T01:19:09Z</time></trkpt><trkpt lat="33.6085445" lon="133.0793156"><ele>1332.3066666666666</ele><time>2024-04-07T01:19:38Z</time></trkpt><trkpt lat="33.6086108" lon="133.0791126"><ele>1335.2166666666667</ele><time>2024-04-07T01:20:07Z</time></trkpt><trkpt lat="33.6086175" lon="133.0788843"><ele>1337.66</ele><time>2024-04-07T01:20:31Z</time></trkpt><trkpt lat="33.6086175" lon="133.0786503"><ele>1338.5933333333335</ele><time>2024-04-07T01:22:01Z</time></trkpt><trkpt lat="33.6085612" lon="133.0784393"><ele>1337.51</ele><time>2024-04-07T01:23:09Z</time></trkpt><trkpt lat="33.6084726" lon="133.0782454"><ele>1333.25</ele><time>2024-04-07T01:23:36Z</time></trkpt><trkpt lat="33.6085096" lon="133.0780262"><ele>1327.64</ele><time>2024-04-07T01:24:00Z</time></trkpt><trkpt lat="33.6085278" lon="133.0778101"><ele>1321.3999999999999</ele><time>2024-04-07T01:24:24Z</time></trkpt><trkpt lat="33.6084927" lon="133.077593"><ele>1316.2766666666669</ele><time>2024-04-07T01:24:45Z</time></trkpt><trkpt lat="33.6084804" lon="133.0773537"><ele>1312.5933333333335</ele><time>2024-04-07T01:25:26Z</time></trkpt><trkpt lat="33.6085868" lon="133.0771656"><ele>1310.0533333333333</ele><time>2024-04-07T01:25:51Z</time></trkpt><trkpt lat="33.6085156" lon="133.0769383"><ele>1306.9633333333334</ele><time>2024-04-07T01:26:29Z</time></trkpt><trkpt lat="33.6083683" lon="133.0768122"><ele>1302.9033333333334</ele><time>2024-04-07T01:27:06Z</time></trkpt><trkpt lat="33.6082073" lon="133.0767145"><ele>1297.0166666666667</ele><time>2024-04-07T01:27:39Z</time></trkpt><trkpt lat="33.6080234" lon="133.0766576"><ele>1289.2266666666667</ele><time>2024-04-07T01:28:11Z</time></trkpt><trkpt lat="33.6078899" lon="133.0764995"><ele>1277.9833333333333</ele><time>2024-04-07T01:28:59Z</time></trkpt><trkpt lat="33.6077679" lon="133.0766582"><ele>1270.4366666666665</ele><time>2024-04-07T01:29:51Z</time></trkpt><trkpt lat="33.6077005" lon="133.0768801"><ele>1266.7033333333336</ele><time>2024-04-07T01:30:15Z</time></trkpt><trkpt lat="33.6075848" lon="133.0770961"><ele>1265.7766666666666</ele><time>2024-04-07T01:30:36Z</time></trkpt><trkpt lat="33.6074412" lon="133.0769181"><ele>1261.2466666666667</ele><time>2024-04-07T01:31:38Z</time></trkpt><trkpt lat="33.6073043" lon="133.0771055"><ele>1255.0800000000002</ele><time>2024-04-07T01:31:53Z</time></trkpt><trkpt lat="33.607154" lon="133.0769833"><ele>1247.8766666666668</ele><time>2024-04-07T01:32:30Z</time></trkpt><trkpt lat="33.6069893" lon="133.0770983"><ele>1241.4133333333332</ele><time>2024-04-07T01:32:48Z</time></trkpt><trkpt lat="33.6067911" lon="133.0770659"><ele>1235.11</ele><time>2024-04-07T01:33:34Z</time></trkpt><trkpt lat="33.6066139" lon="133.0769883"><ele>1232.32</ele><time>2024-04-07T01:34:09Z</time></trkpt><trkpt lat="33.6064322" lon="133.076899"><ele>1233.27</ele><time>2024-04-07T01:34:34Z</time></trkpt><trkpt lat="33.6062954" lon="133.0767494"><ele>1237.1266666666668</ele><time>2024-04-07T01:35:07Z</time></trkpt><trkpt lat="33.606178" lon="133.0765842"><ele>1241.4666666666665</ele><time>2024-04-07T01:35:46Z</time></trkpt><trkpt lat="33.6060526" lon="133.0764215"><ele>1244.5033333333333</ele><time>2024-04-07T01:36:39Z</time></trkpt><trkpt lat="33.6059218" lon="133.0762346"><ele>1247.0866666666668</ele><time>2024-04-07T01:37:24Z</time></trkpt><trkpt lat="33.6058165" lon="133.0760508"><ele>1249.51</ele><time>2024-04-07T01:37:56Z</time></trkpt><trkpt lat="33.6057603" lon="133.0758152"><ele>1250.6166666666666</ele><time>2024-04-07T01:38:32Z</time></trkpt><trkpt lat="33.6056334" lon="133.0756373"><ele>1249.4633333333334</ele><time>2024-04-07T01:38:56Z</time></trkpt><trkpt lat="33.6054727" lon="133.0755235"><ele>1245.2433333333333</ele><time>2024-04-07T01:39:20Z</time></trkpt><trkpt lat="33.6052885" lon="133.0754722"><ele>1240.0966666666666</ele><time>2024-04-07T01:39:46Z</time></trkpt><trkpt lat="33.6051443" lon="133.0753394"><ele>1235.6933333333334</ele><time>2024-04-07T01:40:06Z</time></trkpt><trkpt lat="33.6050117" lon="133.0751667"><ele>1233.2766666666669</ele><time>2024-04-07T01:40:30Z</time></trkpt><trkpt lat="33.6048747" lon="133.0750158"><ele>1232.76</ele><time>2024-04-07T01:40:59Z</time></trkpt><trkpt lat="33.6047153" lon="133.0748867"><ele>1232.7033333333331</ele><time>2024-04-07T01:41:21Z</time></trkpt><trkpt lat="33.604572" lon="133.0747288"><ele>1232.9866666666667</ele><time>2024-04-07T01:42:05Z</time></trkpt><trkpt lat="33.6044384" lon="133.0745755"><ele>1233.93</ele><time>2024-04-07T01:42:32Z</time></trkpt><trkpt lat="33.604321" lon="133.0743814"><ele>1237.72</ele><time>2024-04-07T01:43:21Z</time></trkpt><trkpt lat="33.6042342" lon="133.0741856"><ele>1243.3500000000001</ele><time>2024-04-07T01:44:20Z</time></trkpt><trkpt lat="33.6042134" lon="133.0739682"><ele>1249.46</ele><time>2024-04-07T01:45:17Z</time></trkpt><trkpt lat="33.604205" lon="133.0737489"><ele>1253.7266666666667</ele><time>2024-04-07T01:46:21Z</time></trkpt><trkpt lat="33.6040567" lon="133.0736261"><ele>1257.8</ele><time>2024-04-07T01:47:02Z</time></trkpt><trkpt lat="33.6039098" lon="133.0734988"><ele>1262.3266666666666</ele><time>2024-04-07T01:47:51Z</time></trkpt><trkpt lat="33.6037338" lon="133.0734172"><ele>1267.9399999999998</ele><time>2024-04-07T01:49:20Z</time></trkpt><trkpt lat="33.6035949" lon="133.0732517"><ele>1273.4433333333334</ele><time>2024-04-07T01:50:24Z</time></trkpt><trkpt lat="33.603467" lon="133.073092"><ele>1278.96</ele><time>2024-04-07T01:51:32Z</time></trkpt><trkpt lat="33.6033975" lon="133.0728903"><ele>1282.8500000000001</ele><time>2024-04-07T01:52:44Z</time></trkpt><trkpt lat="33.6032529" lon="133.0727354"><ele>1287.5100000000002</ele><time>2024-04-07T01:54:52Z</time></trkpt><trkpt lat="33.6031064" lon="133.0725984"><ele>1291.38</ele><time>2024-04-07T01:55:53Z</time></trkpt><trkpt lat="33.6029737" lon="133.0724441"><ele>1295.7433333333333</ele><time>2024-04-07T01:57:23Z</time></trkpt><trkpt lat="33.6028035" lon="133.0723669"><ele>1299.65</ele><time>2024-04-07T01:58:41Z</time></trkpt><trkpt lat="33.6026789" lon="133.0722086"><ele>1305.2633333333333</ele><time>2024-04-07T02:00:20Z</time></trkpt><trkpt lat="33.6025739" lon="133.0720285"><ele>1311.14</ele><time>2024-04-07T02:10:07Z</time></trkpt><trkpt lat="33.6024224" lon="133.071907"><ele>1318.4333333333334</ele><time>2024-04-07T02:12:37Z</time></trkpt><trkpt lat="33.6022631" lon="133.0717875"><ele>1326.6666666666667</ele><time>2024-04-07T02:15:04Z</time></trkpt><trkpt lat="33.6021307" lon="133.0716407"><ele>1336.1066666666668</ele><time>2024-04-07T02:16:34Z</time></trkpt><trkpt lat="33.6021078" lon="133.0714118"><ele>1343.73</ele><time>2024-04-07T02:17:07Z</time></trkpt><trkpt lat="33.6020063" lon="133.0711988"><ele>1348.0</ele><time>2024-04-07T02:18:01Z</time></trkpt><trkpt lat="33.601894" lon="133.0710189"><ele>1347.9433333333334</ele><time>2024-04-07T02:18:28Z</time></trkpt><trkpt lat="33.6017544" lon="133.0708614"><ele>1344.7766666666666</ele><time>2024-04-07T02:19:04Z</time></trkpt><trkpt lat="33.6016763" lon="133.0706636"><ele>1340.5133333333333</ele><time>2024-04-07T02:19:36Z</time></trkpt><trkpt lat="33.6015943" lon="133.0704528"><ele>1336.6133333333332</ele><time>2024-04-07T02:20:04Z</time></trkpt><trkpt lat="33.6014457" lon="133.0703236"><ele>1332.8999999999999</ele><time>2024-04-07T02:20:40Z</time></trkpt><trkpt lat="33.6013409" lon="133.0701375"><ele>1328.0466666666664</ele><time>2024-04-07T02:21:15Z</time></trkpt><trkpt lat="33.6012411" lon="133.0699574"><ele>1323.59</ele><time>2024-04-07T02:21:48Z</time></trkpt><trkpt lat="33.6010901" lon="133.0698158"><ele>1320.756666666667</ele><time>2024-04-07T02:22:42Z</time></trkpt><trkpt lat="33.601013" lon="133.0696176"><ele>1319.9833333333333</ele><time>2024-04-07T02:23:12Z</time></trkpt><trkpt lat="33.6009786" lon="133.0693911"><ele>1319.11</ele><time>2024-04-07T02:23:35Z</time></trkpt><trkpt lat="33.6009717" lon="133.0691757"><ele>1317.0133333333333</ele><time>2024-04-07T02:23:57Z</time></trkpt><trkpt lat="33.6009075" lon="133.0689501"><ele>1315.4466666666667</ele><time>2024-04-07T02:24:17Z</time></trkpt><trkpt lat="33.6008409" lon="133.0687342"><ele>1315.17</ele><time>2024-04-07T02:24:38Z</time></trkpt><trkpt lat="33.6008443" lon="133.0685092"><ele>1314.45</ele><time>2024-04-07T02:25:00Z</time></trkpt><trkpt lat="33.6007882" lon="133.0682914"><ele>1313.1333333333334</ele><time>2024-04-07T02:25:29Z</time></trkpt><trkpt lat="33.6007832" lon="133.0680437"><ele>1311.2366666666667</ele><time>2024-04-07T02:26:05Z</time></trkpt><trkpt lat="33.6007326" lon="133.0678248"><ele>1307.97</ele><time>2024-04-07T02:26:38Z</time></trkpt><trkpt lat="33.6007363" lon="133.0675966"><ele>1301.49</ele><time>2024-04-07T02:27:13Z</time></trkpt><trkpt lat="33.6006687" lon="133.0673941"><ele>1294.7233333333334</ele><time>2024-04-07T02:28:02Z</time></trkpt><trkpt lat="33.6005759" lon="133.0671913"><ele>1290.8799999999999</ele><time>2024-04-07T02:28:43Z</time></trkpt><trkpt lat="33.6004829" lon="133.066999"><ele>1290.0166666666667</ele><time>2024-04-07T02:29:50Z</time></trkpt><trkpt lat="33.6004788" lon="133.0667743"><ele>1289.94</ele><time>2024-04-07T02:31:01Z</time></trkpt><trkpt lat="33.6004798" lon="133.0665553"><ele>1291.756666666667</ele><time>2024-04-07T02:32:35Z</time></trkpt><trkpt lat="33.6004228" lon="133.0663499"><ele>1297.61</ele><time>2024-04-07T02:34:35Z</time></trkpt><trkpt lat="33.6004166" lon="133.0661302"><ele>1306.1733333333334</ele><time>2024-04-07T02:36:20Z</time></trkpt><trkpt lat="33.6003578" lon="133.0659219"><ele>1314.2633333333333</ele><time>2024-04-07T02:37:10Z</time></trkpt><trkpt lat="33.6002397" lon="133.0657561"><ele>1318.9399999999998</ele><time>2024-04-07T02:39:04Z</time></trkpt><trkpt lat="33.6000936" lon="133.0656129"><ele>1321.05</ele><time>2024-04-07T02:40:11Z</time></trkpt><trkpt lat="33.5999394" lon="133.0654748"><ele>1322.57</ele><time>2024-04-07T02:41:44Z</time></trkpt><trkpt lat="33.5998576" lon="133.0652762"><ele>1324.6866666666667</ele><time>2024-04-07T02:42:53Z</time></trkpt><trkpt lat="33.5997205" lon="133.0651238"><ele>1328.6633333333332</ele><time>2024-04-07T02:44:20Z</time></trkpt><trkpt lat="33.5996795" lon="133.0649083"><ele>1333.9166666666667</ele><time>2024-04-07T02:45:56Z</time></trkpt><trkpt lat="33.5997104" lon="133.0646939"><ele>1340.6233333333332</ele><time>2024-04-07T02:47:20Z</time></trkpt><trkpt lat="33.5997393" lon="133.0644749"><ele>1348.5433333333333</ele><time>2024-04-07T02:48:23Z</time></trkpt><trkpt lat="33.5997682" lon="133.0642553"><ele>1354.493333333333</ele><time>2024-04-07T02:49:08Z</time></trkpt><trkpt lat="33.5997914" lon="133.06404"><ele>1357.4633333333334</ele><time>2024-04-07T02:53:14Z</time></trkpt><trkpt lat="33.5999332" lon="133.0639001"><ele>1354.1266666666668</ele><time>2024-04-07T03:08:20Z</time></trkpt><trkpt lat="33.6000289" lon="133.0637022"><ele>1348.14</ele><time>2024-04-07T03:09:11Z</time></trkpt><trkpt lat="33.5998902" lon="133.0635464"><ele>1341.01</ele><time>2024-04-07T03:09:52Z</time></trkpt><trkpt lat="33.5998414" lon="133.0633344"><ele>1334.0866666666668</ele><time>2024-04-07T03:10:40Z</time></trkpt><trkpt lat="33.5999319" lon="133.0631418"><ele>1326.9766666666667</ele><time>2024-04-07T03:11:15Z</time></trkpt><trkpt lat="33.6000355" lon="133.0629483"><ele>1319.6933333333334</ele><time>2024-04-07T03:11:45Z</time></trkpt><trkpt lat="33.6002028" lon="133.0628423"><ele>1314.1166666666668</ele><time>2024-04-07T03:12:12Z</time></trkpt><trkpt lat="33.6003746" lon="133.0627519"><ele>1309.7733333333333</ele><time>2024-04-07T03:12:32Z</time></trkpt><trkpt lat="33.6005111" lon="133.0625937"><ele>1306.4466666666667</ele><time>2024-04-07T03:12:54Z</time></trkpt><trkpt lat="33.6006814" lon="133.062488"><ele>1302.6033333333332</ele><time>2024-04-07T03:13:15Z</time></trkpt><trkpt lat="33.6008235" lon="133.0622903"><ele>1299.0633333333335</ele><time>2024-04-07T03:20:17Z</time></trkpt><trkpt lat="33.6010106" lon="133.0622082"><ele>1295.76</ele><time>2024-04-07T03:20:41Z</time></trkpt><trkpt lat="33.6011797" lon="133.0621214"><ele>1294.0533333333333</ele><time>2024-04-07T03:21:05Z</time></trkpt><trkpt lat="33.6013545" lon="133.0620591"><ele>1292.6633333333332</ele><time>2024-04-07T03:21:26Z</time></trkpt><trkpt lat="33.6015417" lon="133.0620251"><ele>1289.45</ele><time>2024-04-07T03:21:51Z</time></trkpt><trkpt lat="33.6016171" lon="133.0618285"><ele>1282.5433333333333</ele><time>2024-04-07T03:23:08Z</time></trkpt><trkpt lat="33.6014509" lon="133.0617378"><ele>1275.3733333333332</ele><time>2024-04-07T03:24:11Z</time></trkpt><trkpt lat="33.6012826" lon="133.0616353"><ele>1269.21</ele><time>2024-04-07T03:25:06Z</time></trkpt><trkpt lat="33.601259" lon="133.0614095"><ele>1259.9166666666667</ele><time>2024-04-07T03:27:00Z</time></trkpt><trkpt lat="33.6010785" lon="133.0614444"><ele>1255.2733333333333</ele><time>2024-04-07T03:28:03Z</time></trkpt><trkpt lat="33.6010028" lon="133.0612383"><ele>1247.8533333333332</ele><time>2024-04-07T03:29:17Z</time></trkpt><trkpt lat="33.6009593" lon="133.0610122"><ele>1245.1766666666667</ele><time>2024-04-07T03:29:52Z</time></trkpt><trkpt lat="33.6008241" lon="133.0608386"><ele>1235.2266666666667</ele><time>2024-04-07T03:30:43Z</time></trkpt><trkpt lat="33.600838" lon="133.060617"><ele>1224.14</ele><time>2024-04-07T03:31:56Z</time></trkpt><trkpt lat="33.6007534" lon="133.0604087"><ele>1213.8333333333333</ele><time>2024-04-07T03:32:31Z</time></trkpt><trkpt lat="33.6005763" lon="133.0603363"><ele>1207.1000000000001</ele><time>2024-04-07T03:33:34Z</time></trkpt><trkpt lat="33.6004261" lon="133.060213"><ele>1199.89</ele><time>2024-04-07T03:36:45Z</time></trkpt><trkpt lat="33.6003462" lon="133.0600134"><ele>1188.6233333333332</ele><time>2024-04-07T03:37:51Z</time></trkpt><trkpt lat="33.6001938" lon="133.0598682"><ele>1171.1233333333332</ele><time>2024-04-07T03:39:43Z</time></trkpt><trkpt lat="33.6000474" lon="133.059727"><ele>1154.7966666666669</ele><time>2024-04-07T03:40:55Z</time></trkpt><trkpt lat="33.6000982" lon="133.0595171"><ele>1141.8933333333334</ele><time>2024-04-07T03:43:15Z</time></trkpt><trkpt lat="33.6002323" lon="133.0593645"><ele>1136.4933333333333</ele><time>2024-04-07T03:44:43Z</time></trkpt><trkpt lat="33.6001402" lon="133.0591726"><ele>1131.8333333333333</ele><time>2024-04-07T03:45:33Z</time></trkpt><trkpt lat="33.599977" lon="133.0590593"><ele>1124.6833333333332</ele><time>2024-04-07T03:47:30Z</time></trkpt><trkpt lat="33.5998017" lon="133.0589815"><ele>1109.9099999999999</ele><time>2024-04-07T03:49:08Z</time></trkpt><trkpt lat="33.5996342" lon="133.0588564"><ele>1095.3966666666665</ele><time>2024-04-07T03:56:48Z</time></trkpt><trkpt lat="33.5997074" lon="133.0586534"><ele>1083.0600000000002</ele><time>2024-04-07T03:57:15Z</time></trkpt><trkpt lat="33.599717" lon="133.0584271"><ele>1075.4533333333331</ele><time>2024-04-07T03:57:54Z</time></trkpt><trkpt lat="33.599729" lon="133.0582089"><ele>1068.68</ele><time>2024-04-07T03:58:30Z</time></trkpt><trkpt lat="33.5997804" lon="133.0579934"><ele>1062.6299999999999</ele><time>2024-04-07T04:00:59Z</time></trkpt><trkpt lat="33.5998886" lon="133.0578122"><ele>1056.3233333333335</ele><time>2024-04-07T04:01:48Z</time></trkpt><trkpt lat="33.5999881" lon="133.057606"><ele>1050.4433333333334</ele><time>2024-04-07T04:02:15Z</time></trkpt><trkpt lat="33.600147" lon="133.0574828"><ele>1045.29</ele><time>2024-04-07T04:02:48Z</time></trkpt><trkpt lat="33.6003212" lon="133.0573837"><ele>1038.5566666666666</ele><time>2024-04-07T04:03:17Z</time></trkpt><trkpt lat="33.6003437" lon="133.0571547"><ele>1030.46</ele><time>2024-04-07T04:05:14Z</time></trkpt><trkpt lat="33.6003834" lon="133.0569439"><ele>1020.6033333333334</ele><time>2024-04-07T04:06:12Z</time></trkpt><trkpt lat="33.6005407" lon="133.0568234"><ele>1011.3433333333334</ele><time>2024-04-07T04:07:48Z</time></trkpt><trkpt lat="33.6007351" lon="133.0568616"><ele>1003.5833333333334</ele><time>2024-04-07T04:08:35Z</time></trkpt><trkpt lat="33.6009298" lon="133.0568681"><ele>996.8633333333333</ele><time>2024-04-07T04:09:04Z</time></trkpt><trkpt lat="33.6011069" lon="133.0568007"><ele>992.2733333333334</ele><time>2024-04-07T04:09:44Z</time></trkpt><trkpt lat="33.6012459" lon="133.0566586"><ele>987.8233333333334</ele><time>2024-04-07T04:10:07Z</time></trkpt><trkpt lat="33.6014156" lon="133.0565412"><ele>985.4333333333334</ele><time>2024-04-07T04:11:26Z</time></trkpt><trkpt lat="33.601548" lon="133.0563616"><ele>982.1633333333333</ele><time>2024-04-07T04:11:52Z</time></trkpt><trkpt lat="33.6016834" lon="133.056213"><ele>980.5133333333333</ele><time>2024-04-07T04:12:10Z</time></trkpt><trkpt lat="33.6018057" lon="133.0560445"><ele>975.4066666666668</ele><time>2024-04-07T04:13:00Z</time></trkpt><trkpt lat="33.6018714" lon="133.0558324"><ele>969.8833333333333</ele><time>2024-04-07T04:13:30Z</time></trkpt><trkpt lat="33.6018703" lon="133.0556051"><ele>962.82</ele><time>2024-04-07T04:14:37Z</time></trkpt><trkpt lat="33.6018681" lon="133.0553688"><ele>955.0600000000001</ele><time>2024-04-07T04:15:58Z</time></trkpt><trkpt lat="33.6018411" lon="133.0551543"><ele>947.2166666666667</ele><time>2024-04-07T04:17:10Z</time></trkpt><trkpt lat="33.6019522" lon="133.0549721"><ele>939.7566666666667</ele><time>2024-04-07T04:18:01Z</time></trkpt><trkpt lat="33.6020382" lon="133.0547824"><ele>934.4433333333333</ele><time>2024-04-07T04:18:37Z</time></trkpt><trkpt lat="33.6021726" lon="133.0546186"><ele>930.1233333333333</ele><time>2024-04-07T04:19:22Z</time></trkpt><trkpt lat="33.6023038" lon="133.0544608"><ele>926.98</ele><time>2024-04-07T04:20:10Z</time></trkpt><trkpt lat="33.60241" lon="133.0542584"><ele>924.9566666666666</ele><time>2024-04-07T04:20:46Z</time></trkpt><trkpt lat="33.602466" lon="133.0540328"><ele>920.1566666666668</ele><time>2024-04-07T04:21:16Z</time></trkpt><trkpt lat="33.6025973" lon="133.0538718"><ele>913.5633333333334</ele><time>2024-04-07T04:24:49Z</time></trkpt><trkpt lat="33.6026853" lon="133.0536811"><ele>905.4366666666668</ele><time>2024-04-07T04:27:27Z</time></trkpt><trkpt lat="33.6028466" lon="133.053534"><ele>900.1166666666668</ele><time>2024-04-07T04:28:10Z</time></trkpt><trkpt lat="33.6029878" lon="133.0533758"><ele>895.4733333333334</ele><time>2024-04-07T04:28:42Z</time></trkpt><trkpt lat="33.6031764" lon="133.0533345"><ele>892.7066666666666</ele><time>2024-04-07T04:29:18Z</time></trkpt><trkpt lat="33.6033235" lon="133.0531851"><ele>890.48</ele><time>2024-04-07T04:30:27Z</time></trkpt><trkpt lat="33.6034999" lon="133.053082"><ele>891.2166666666667</ele><time>2024-04-07T04:30:51Z</time></trkpt><trkpt lat="33.6036831" lon="133.0530468"><ele>893.8766666666667</ele><time>2024-04-07T04:31:08Z</time></trkpt><trkpt lat="33.6038673" lon="133.0530736"><ele>897.9233333333333</ele><time>2024-04-07T04:31:25Z</time></trkpt><trkpt lat="33.6040222" lon="133.0529536"><ele>900.2933333333334</ele><time>2024-04-07T04:31:41Z</time></trkpt><trkpt lat="33.6041474" lon="133.0527972"><ele>899.1233333333333</ele><time>2024-04-07T04:31:55Z</time></trkpt><trkpt lat="33.6042666" lon="133.052632"><ele>893.9066666666668</ele><time>2024-04-07T04:32:10Z</time></trkpt><trkpt lat="33.604465" lon="133.0527075"><ele>888.0600000000001</ele><time>2024-04-07T04:32:27Z</time></trkpt><trkpt lat="33.6046666" lon="133.0527017"><ele>882.7600000000001</ele><time>2024-04-07T04:32:48Z</time></trkpt><trkpt lat="33.6048044" lon="133.0525367"><ele>879.5</ele><time>2024-04-07T04:33:06Z</time></trkpt><trkpt lat="33.6050084" lon="133.052576"><ele>878.82</ele><time>2024-04-07T04:33:23Z</time></trkpt><trkpt lat="33.6052146" lon="133.0525541"><ele>879.3566666666666</ele><time>2024-04-07T04:33:41Z</time></trkpt><trkpt lat="33.6054151" lon="133.0524637"><ele>877.39</ele><time>2024-04-07T04:33:58Z</time></trkpt><trkpt lat="33.6056014" lon="133.052474"><ele>872.9366666666666</ele><time>2024-04-07T04:34:13Z</time></trkpt><trkpt lat="33.6057997" lon="133.0525021"><ele>870.3033333333333</ele><time>2024-04-07T04:34:30Z</time></trkpt><trkpt lat="33.6059956" lon="133.0525425"><ele>868.5766666666667</ele><time>2024-04-07T04:34:45Z</time></trkpt><trkpt lat="33.6061751" lon="133.052599"><ele>868.1866666666668</ele><time>2024-04-07T04:35:00Z</time></trkpt><trkpt lat="33.6062948" lon="133.0523916"><ele>862.3100000000001</ele><time>2024-04-07T04:35:18Z</time></trkpt><trkpt lat="33.6064771" lon="133.0524469"><ele>858.27</ele><time>2024-04-07T04:35:36Z</time></trkpt><trkpt lat="33.6066065" lon="133.0526096"><ele>854.9133333333334</ele><time>2024-04-07T04:35:54Z</time></trkpt><trkpt lat="33.6067754" lon="133.0527111"><ele>852.5733333333334</ele><time>2024-04-07T04:36:15Z</time></trkpt><trkpt lat="33.6069104" lon="133.0528864"><ele>851.2599999999999</ele><time>2024-04-07T04:36:42Z</time></trkpt><trkpt lat="33.6070955" lon="133.0529184"><ele>847.8433333333334</ele><time>2024-04-07T04:37:06Z</time></trkpt><trkpt lat="33.6072627" lon="133.0528148"><ele>844.3366666666667</ele><time>2024-04-07T04:37:22Z</time></trkpt><trkpt lat="33.607451" lon="133.0527431"><ele>838.5833333333334</ele><time>2024-04-07T04:37:36Z</time></trkpt><trkpt lat="33.6076461" lon="133.0527428"><ele>833.0466666666666</ele><time>2024-04-07T04:37:51Z</time></trkpt><trkpt lat="33.6078555" lon="133.0527866"><ele>827.6366666666667</ele><time>2024-04-07T04:38:06Z</time></trkpt><trkpt lat="33.6078283" lon="133.0530278"><ele>826.29</ele><time>2024-04-07T04:38:27Z</time></trkpt><trkpt lat="33.6078231" lon="133.0532521"><ele>825.0633333333334</ele><time>2024-04-07T04:38:44Z</time></trkpt><trkpt lat="33.6078438" lon="133.0534764"><ele>822.8966666666666</ele><time>2024-04-07T04:38:59Z</time></trkpt><trkpt lat="33.6077944" lon="133.0536963"><ele>820.63</ele><time>2024-04-07T04:39:15Z</time></trkpt><trkpt lat="33.607882" lon="133.0538898"><ele>815.3866666666667</ele><time>2024-04-07T04:39:29Z</time></trkpt><trkpt lat="33.6078195" lon="133.0541093"><ele>814.9366666666666</ele><time>2024-04-07T04:39:44Z</time></trkpt><trkpt lat="33.6077664" lon="133.0543336"><ele>811.4633333333333</ele><time>2024-04-07T04:40:00Z</time></trkpt><trkpt lat="33.6078173" lon="133.0545485"><ele>811.2599999999999</ele><time>2024-04-07T04:40:14Z</time></trkpt><trkpt lat="33.607851" lon="133.0547871"><ele>809.4833333333332</ele><time>2024-04-07T04:40:38Z</time></trkpt><trkpt lat="33.6079469" lon="133.054989"><ele>808.46</ele><time>2024-04-07T04:40:53Z</time></trkpt><trkpt lat="33.608056" lon="133.0551738"><ele>806.09</ele><time>2024-04-07T04:41:09Z</time></trkpt><trkpt lat="33.6080971" lon="133.0554081"><ele>804.89</ele><time>2024-04-07T04:41:27Z</time></trkpt><trkpt lat="33.6080627" lon="133.0556245"><ele>805.5066666666667</ele><time>2024-04-07T04:42:08Z</time></trkpt><trkpt lat="33.6082385" lon="133.0557095"><ele>805.4200000000001</ele><time>2024-04-07T04:42:17Z</time></trkpt><trkpt lat="33.6083401" lon="133.0558883"><ele>802.8499999999999</ele><time>2024-04-07T04:42:32Z</time></trkpt><trkpt lat="33.6084898" lon="133.0560643"><ele>798.0799999999999</ele><time>2024-04-07T04:42:49Z</time></trkpt><trkpt lat="33.6086504" lon="133.0562311"><ele>796.0633333333334</ele><time>2024-04-07T04:43:07Z</time></trkpt><trkpt lat="33.6088261" lon="133.0563209"><ele>794.8033333333334</ele><time>2024-04-07T04:43:22Z</time></trkpt><trkpt lat="33.6089953" lon="133.0561928"><ele>792.5866666666667</ele><time>2024-04-07T04:43:37Z</time></trkpt><trkpt lat="33.6091445" lon="133.0560222"><ele>791.7433333333333</ele><time>2024-04-07T04:43:53Z</time></trkpt><trkpt lat="33.6092337" lon="133.055813"><ele>794.2333333333335</ele><time>2024-04-07T04:44:09Z</time></trkpt><trkpt lat="33.6091998" lon="133.0555835"><ele>798.0133333333333</ele><time>2024-04-07T04:44:26Z</time></trkpt><trkpt lat="33.6091842" lon="133.055325"><ele>799.46</ele><time>2024-04-07T04:45:05Z</time></trkpt><trkpt lat="33.6091439" lon="133.0550743"><ele>798.4399999999999</ele><time>2024-04-07T04:45:19Z</time></trkpt><trkpt lat="33.6091186" lon="133.0548421"><ele>797.9366666666666</ele><time>2024-04-07T04:45:35Z</time></trkpt><trkpt lat="33.6091218" lon="133.0545864"><ele>798.0300000000001</ele><time>2024-04-07T04:45:53Z</time></trkpt><trkpt lat="33.6091239" lon="133.0543367"><ele>798.1233333333334</ele><time>2024-04-07T04:46:07Z</time></trkpt><trkpt lat="33.6091166" lon="133.0540794"><ele>797.6100000000001</ele><time>2024-04-07T04:46:22Z</time></trkpt><trkpt lat="33.6091483" lon="133.0538346"><ele>794.0500000000001</ele><time>2024-04-07T04:46:38Z</time></trkpt><trkpt lat="33.6092099" lon="133.0536112"><ele>789.9766666666666</ele><time>2024-04-07T04:46:53Z</time></trkpt><trkpt lat="33.6092519" lon="133.0533837"><ele>785.5466666666667</ele><time>2024-04-07T04:47:08Z</time></trkpt><trkpt lat="33.6094354" lon="133.0533197"><ele>783.7666666666668</ele><time>2024-04-07T04:47:22Z</time></trkpt><trkpt lat="33.6096032" lon="133.0532155"><ele>781.0866666666667</ele><time>2024-04-07T04:47:38Z</time></trkpt><trkpt lat="33.6097726" lon="133.053094"><ele>778.5066666666667</ele><time>2024-04-07T04:47:52Z</time></trkpt><trkpt lat="33.6099552" lon="133.0529922"><ele>777.0433333333334</ele><time>2024-04-07T04:48:10Z</time></trkpt><trkpt lat="33.6099482" lon="133.0527285"><ele>777.2033333333334</ele><time>2024-04-07T04:48:26Z</time></trkpt><trkpt lat="33.6099194" lon="133.0524877"><ele>778.6266666666667</ele><time>2024-04-07T04:48:49Z</time></trkpt><trkpt lat="33.6098843" lon="133.0522635"><ele>778.8933333333333</ele><time>2024-04-07T04:49:07Z</time></trkpt><trkpt lat="33.6098099" lon="133.0520395"><ele>778.3066666666667</ele><time>2024-04-07T04:49:24Z</time></trkpt><trkpt lat="33.6098606" lon="133.0517943"><ele>777.7333333333335</ele><time>2024-04-07T04:49:48Z</time></trkpt><trkpt lat="33.6098582" lon="133.0515634"><ele>777.9466666666667</ele><time>2024-04-07T04:50:03Z</time></trkpt><trkpt lat="33.6097924" lon="133.0513556"><ele>778.0799999999999</ele><time>2024-04-07T04:50:19Z</time></trkpt><trkpt lat="33.6097053" lon="133.0511533"><ele>776.1300000000001</ele><time>2024-04-07T04:50:33Z</time></trkpt><trkpt lat="33.6096288" lon="133.0509437"><ele>771.7066666666666</ele><time>2024-04-07T04:50:48Z</time></trkpt><trkpt lat="33.6097414" lon="133.0507437"><ele>767.3733333333333</ele><time>2024-04-07T04:51:45Z</time></trkpt><trkpt lat="33.6099062" lon="133.050629"><ele>765.3233333333334</ele><time>2024-04-07T04:52:00Z</time></trkpt><trkpt lat="33.6100278" lon="133.0504499"><ele>763.4633333333333</ele><time>2024-04-07T04:52:16Z</time></trkpt><trkpt lat="33.6101354" lon="133.0502307"><ele>761.5600000000001</ele><time>2024-04-07T04:52:37Z</time></trkpt><trkpt lat="33.6102349" lon="133.0500474"><ele>759.16</ele><time>2024-04-07T04:52:49Z</time></trkpt><trkpt lat="33.6102681" lon="133.0497856"><ele>759.2033333333334</ele><time>2024-04-07T04:53:00Z</time></trkpt><trkpt lat="33.6103101" lon="133.0495335"><ele>759.63</ele><time>2024-04-07T04:53:25Z</time></trkpt><trkpt lat="33.6102964" lon="133.0492827"><ele>760.86</ele><time>2024-04-07T04:53:42Z</time></trkpt><trkpt lat="33.610235" lon="133.0490345"><ele>762.3333333333334</ele><time>2024-04-07T04:53:58Z</time></trkpt><trkpt lat="33.610129" lon="133.0488229"><ele>763.5566666666667</ele><time>2024-04-07T04:54:12Z</time></trkpt><trkpt lat="33.6100259" lon="133.0486046"><ele>762.8000000000001</ele><time>2024-04-07T04:54:28Z</time></trkpt><trkpt lat="33.6099182" lon="133.0483819"><ele>762.2966666666666</ele><time>2024-04-07T04:54:45Z</time></trkpt><trkpt lat="33.6097047" lon="133.048367"><ele>757.87</ele><time>2024-04-07T04:55:00Z</time></trkpt><trkpt lat="33.609572" lon="133.0481704"><ele>754.0666666666666</ele><time>2024-04-07T04:55:15Z</time></trkpt><trkpt lat="33.6094497" lon="133.0479904"><ele>749.37</ele><time>2024-04-07T04:55:30Z</time></trkpt><trkpt lat="33.609313" lon="133.0478095"><ele>749.6666666666666</ele><time>2024-04-07T04:55:46Z</time></trkpt><trkpt lat="33.6091564" lon="133.047649"><ele>751.85</ele><time>2024-04-07T04:56:00Z</time></trkpt><trkpt lat="33.608967" lon="133.0475364"><ele>752.0966666666667</ele><time>2024-04-07T04:56:15Z</time></trkpt><trkpt lat="33.6088156" lon="133.0473762"><ele>751.12</ele><time>2024-04-07T04:56:30Z</time></trkpt><trkpt lat="33.6086941" lon="133.0471908"><ele>748.4166666666666</ele><time>2024-04-07T04:56:45Z</time></trkpt><trkpt lat="33.6086446" lon="133.0469651"><ele>746.7133333333335</ele><time>2024-04-07T04:57:01Z</time></trkpt><trkpt lat="33.6086128" lon="133.0467333"><ele>742.4266666666666</ele><time>2024-04-07T04:57:15Z</time></trkpt><trkpt lat="33.6086213" lon="133.0464917"><ele>738.7066666666666</ele><time>2024-04-07T04:57:30Z</time></trkpt><trkpt lat="33.6087012" lon="133.0462668"><ele>736.04</ele><time>2024-04-07T04:57:46Z</time></trkpt><trkpt lat="33.608783" lon="133.0460416"><ele>735.9666666666667</ele><time>2024-04-07T04:58:00Z</time></trkpt><trkpt lat="33.6088838" lon="133.0458138"><ele>735.09</ele><time>2024-04-07T04:58:16Z</time></trkpt><trkpt lat="33.6089915" lon="133.0455893"><ele>734.8733333333334</ele><time>2024-04-07T04:58:31Z</time></trkpt><trkpt lat="33.6089558" lon="133.0453594"><ele>734.85</ele><time>2024-04-07T04:58:45Z</time></trkpt><trkpt lat="33.6088851" lon="133.0451372"><ele>734.9966666666666</ele><time>2024-04-07T04:59:00Z</time></trkpt><trkpt lat="33.6088307" lon="133.0448999"><ele>734.9866666666667</ele><time>2024-04-07T04:59:15Z</time></trkpt><trkpt lat="33.6087211" lon="133.0446752"><ele>734.3666666666667</ele><time>2024-04-07T04:59:31Z</time></trkpt><trkpt lat="33.608608" lon="133.0444555"><ele>731.5600000000001</ele><time>2024-04-07T04:59:45Z</time></trkpt><trkpt lat="33.6085136" lon="133.0442466"><ele>725.7333333333332</ele><time>2024-04-07T05:00:00Z</time></trkpt><trkpt lat="33.6084797" lon="133.0440112"><ele>720.4033333333333</ele><time>2024-04-07T05:00:18Z</time></trkpt><trkpt lat="33.6086013" lon="133.0438495"><ele>717.9733333333334</ele><time>2024-04-07T05:01:16Z</time></trkpt><trkpt lat="33.608622" lon="133.0436124"><ele>717.54</ele><time>2024-04-07T05:06:37Z</time></trkpt><trkpt lat="33.6087174" lon="133.0433789"><ele>717.4233333333333</ele><time>2024-04-07T05:06:54Z</time></trkpt><trkpt lat="33.6087799" lon="133.0431469"><ele>717.0233333333334</ele><time>2024-04-07T05:07:09Z</time></trkpt><trkpt lat="33.6088132" lon="133.0428934"><ele>715.4766666666666</ele><time>2024-04-07T05:07:25Z</time></trkpt><trkpt lat="33.6088793" lon="133.0426757"><ele>711.61</ele><time>2024-04-07T05:07:39Z</time></trkpt><trkpt lat="33.6089544" lon="133.042473"><ele>707.2833333333333</ele><time>2024-04-07T05:07:54Z</time></trkpt><trkpt lat="33.609091" lon="133.0423114"><ele>704.6566666666668</ele><time>2024-04-07T05:08:09Z</time></trkpt><trkpt lat="33.6092297" lon="133.0421392"><ele>704.6633333333334</ele><time>2024-04-07T05:08:24Z</time></trkpt><trkpt lat="33.6093482" lon="133.0419395"><ele>704.4333333333334</ele><time>2024-04-07T05:08:39Z</time></trkpt><trkpt lat="33.6094776" lon="133.0417659"><ele>704.4033333333333</ele><time>2024-04-07T05:08:54Z</time></trkpt><trkpt lat="33.6095067" lon="133.0415518"><ele>704.3666666666667</ele><time>2024-04-07T05:09:10Z</time></trkpt><trkpt lat="33.6094308" lon="133.0413496"><ele>704.46</ele><time>2024-04-07T05:09:24Z</time></trkpt><trkpt lat="33.6093879" lon="133.0411011"><ele>703.64</ele><time>2024-04-07T05:09:42Z</time></trkpt><trkpt lat="33.6093424" lon="133.0408738"><ele>703.6700000000001</ele><time>2024-04-07T05:09:58Z</time></trkpt><trkpt lat="33.6092357" lon="133.0406486"><ele>703.9699999999999</ele><time>2024-04-07T05:10:12Z</time></trkpt><trkpt lat="33.6091288" lon="133.0404569"><ele>704.7466666666666</ele><time>2024-04-07T05:10:24Z</time></trkpt><trkpt lat="33.6090218" lon="133.040263"><ele>703.9466666666667</ele><time>2024-04-07T05:10:39Z</time></trkpt><trkpt lat="33.6088706" lon="133.0400833"><ele>700.89</ele><time>2024-04-07T05:10:54Z</time></trkpt><trkpt lat="33.6087413" lon="133.039881"><ele>696.8100000000001</ele><time>2024-04-07T05:11:09Z</time></trkpt><trkpt lat="33.6087566" lon="133.0396393"><ele>694.0466666666667</ele><time>2024-04-07T05:13:19Z</time></trkpt><trkpt lat="33.6086966" lon="133.0393989"><ele>695.4466666666667</ele><time>2024-04-07T05:13:33Z</time></trkpt><trkpt lat="33.6085572" lon="133.0392385"><ele>696.79</ele><time>2024-04-07T05:13:48Z</time></trkpt><trkpt lat="33.6085082" lon="133.0390109"><ele>696.0266666666666</ele><time>2024-04-07T05:14:03Z</time></trkpt><trkpt lat="33.6084616" lon="133.0387769"><ele>691.8833333333333</ele><time>2024-04-07T05:14:18Z</time></trkpt><trkpt lat="33.6083736" lon="133.0385624"><ele>689.6766666666667</ele><time>2024-04-07T05:14:33Z</time></trkpt><trkpt lat="33.6082377" lon="133.0384104"><ele>687.9633333333335</ele><time>2024-04-07T05:14:48Z</time></trkpt><trkpt lat="33.6081606" lon="133.0382014"><ele>687.7833333333333</ele><time>2024-04-07T05:15:03Z</time></trkpt><trkpt lat="33.6080671" lon="133.0379818"><ele>686.4966666666666</ele><time>2024-04-07T05:15:19Z</time></trkpt><trkpt lat="33.6080082" lon="133.0377653"><ele>685.71</ele><time>2024-04-07T05:15:33Z</time></trkpt><trkpt lat="33.6079819" lon="133.0375379"><ele>685.1666666666666</ele><time>2024-04-07T05:15:48Z</time></trkpt><trkpt lat="33.6079636" lon="133.0373067"><ele>682.4833333333333</ele><time>2024-04-07T05:16:03Z</time></trkpt><trkpt lat="33.6079669" lon="133.0370904"><ele>679.5</ele><time>2024-04-07T05:16:16Z</time></trkpt><trkpt lat="33.6079615" lon="133.0368724"><ele>676.9666666666667</ele><time>2024-04-07T05:16:28Z</time></trkpt><trkpt lat="33.607898" lon="133.0366301"><ele>676.3066666666667</ele><time>2024-04-07T05:16:41Z</time></trkpt><trkpt lat="33.6078001" lon="133.036399"><ele>676.48</ele><time>2024-04-07T05:16:56Z</time></trkpt><trkpt lat="33.6077061" lon="133.0361732"><ele>676.6633333333333</ele><time>2024-04-07T05:17:11Z</time></trkpt><trkpt lat="33.6075995" lon="133.0359868"><ele>677.18</ele><time>2024-04-07T05:17:27Z</time></trkpt><trkpt lat="33.6074342" lon="133.0358797"><ele>677.6666666666667</ele><time>2024-04-07T05:17:41Z</time></trkpt><trkpt lat="33.6072303" lon="133.0358715"><ele>677.0133333333334</ele><time>2024-04-07T05:17:56Z</time></trkpt><trkpt lat="33.6070339" lon="133.0359184"><ele>676.0733333333334</ele><time>2024-04-07T05:18:11Z</time></trkpt><trkpt lat="33.6068297" lon="133.0359924"><ele>674.06</ele><time>2024-04-07T05:18:29Z</time></trkpt><trkpt lat="33.6066227" lon="133.0359434"><ele>672.7566666666667</ele><time>2024-04-07T05:18:44Z</time></trkpt><trkpt lat="33.6064233" lon="133.0358742"><ele>671.1266666666667</ele><time>2024-04-07T05:18:59Z</time></trkpt><trkpt lat="33.6062245" lon="133.0359071"><ele>669.3366666666667</ele><time>2024-04-07T05:19:13Z</time></trkpt><trkpt lat="33.6060373" lon="133.0359154"><ele>666.5366666666666</ele><time>2024-04-07T05:19:28Z</time></trkpt><trkpt lat="33.6058632" lon="133.0358494"><ele>663.6033333333334</ele><time>2024-04-07T05:19:43Z</time></trkpt></trkseg></trk></gpx>