<?xml version='1.0' encoding='UTF-8'?><gpx creator="Yama Museum Summit Candidate Generator" xsi:schemaLocation="http://www.topografix.com/GPX/1/1 http://www.topografix.com/GPX/1/1/gpx.xsd" version="1.1" xmlns="http://www.topografix.com/GPX/1/1" xmlns:xsi="http://www.w3.org/2001/XMLSchema-instance" xmlns:yama="https://museum-yama-data.moukaeritai.work/ns/yama-data/0.1"><metadata><bounds maxlat="33.9460335" maxlon="132.8532414" minlat="33.9295428" minlon="132.8456367"/><name>大月山・高縄山</name><extensions><yama:source_gpx_basename>yamap_2022-04-09_14_44.gpx</yama:source_gpx_basename><yama:source_gpx_relative_path>data/01_raw/gpx/2026-05-12/yamap_2022-04-09_14_44.gpx</yama:source_gpx_relative_path><yama:detection_parameters>window=5,radius=10,min_prominence=30,merge=100</yama:detection_parameters></extensions></metadata><wpt lat="33.92961" lon="132.8476038"><ele>950.6066666666666</ele><time>2022-04-09T06:28:57Z</time><name>summit-candidate:9a68e7a3a97831ff</name><desc>Summit candidate detected at elevation 950.6066666666666m with prominence 121.524m.</desc><sym>Summit Candidate</sym><extensions><yama:source_trackpoint_index>126</yama:source_trackpoint_index><yama:valid_elevation_index>126</yama:valid_elevation_index><yama:smoothed_ele>947.8386666666665</yama:smoothed_ele><yama:prominence>121.524</yama:prominence><yama:detection_method>local_maxima_with_prominence</yama:detection_method><yama:detection_parameters>window=5,radius=10,min_prominence=30,merge=100</yama:detection_parameters><yama:candidate_status>unresolved</yama:candidate_status></extensions></wpt>
  <wpt lat="33.9456945" lon="132.8499533"><ele>981.3100000000001</ele><time>2022-04-09T07:10:52Z</time><name>summit-candidate:6ba0d3c6b0fb6b96</name><desc>Summit candidate detected at elevation 981.3100000000001m with prominence 59.94155555555574m.</desc><sym>Summit Candidate</sym><extensions><yama:source_trackpoint_index>265</yama:source_trackpoint_index><yama:valid_elevation_index>265</yama:valid_elevation_index><yama:smoothed_ele>980.4326666666668</yama:smoothed_ele><yama:prominence>59.94155555555574</yama:prominence><yama:detection_method>local_maxima_with_prominence</yama:detection_method><yama:detection_parameters>window=5,radius=10,min_prominence=30,merge=100</yama:detection_parameters><yama:candidate_status>unresolved</yama:candidate_status></extensions></wpt>
  <trk><name>大月山・高縄山</name><number>1</number><trkseg><trkpt lat="33.945175" lon="132.8521323"><ele>922.94</ele><time>2022-04-09T05:44:41Z</time></trkpt><trkpt lat="33.9453591" lon="132.8521874"><ele>923.98</ele><time>2022-04-09T05:46:18Z</time></trkpt><trkpt lat="33.945422" lon="132.8523991"><ele>923.6633333333333</ele><time>2022-04-09T05:46:33Z</time></trkpt><trkpt lat="33.9453646" lon="132.8526084"><ele>922.7066666666666</ele><time>2022-04-09T05:46:44Z</time></trkpt><trkpt lat="33.9452693" lon="132.8528036"><ele>920.7833333333333</ele><time>2022-04-09T05:46:59Z</time></trkpt><trkpt lat="33.9451058" lon="132.8529093"><ele>919.2066666666668</ele><time>2022-04-09T05:47:26Z</time></trkpt><trkpt lat="33.9449705" lon="132.8530551"><ele>917.9766666666668</ele><time>2022-04-09T05:47:43Z</time></trkpt><trkpt lat="33.9447873" lon="132.8531373"><ele>916.8866666666667</ele><time>2022-04-09T05:47:54Z</time></trkpt><trkpt lat="33.9446155" lon="132.8532205"><ele>916.0366666666667</ele><time>2022-04-09T05:48:04Z</time></trkpt><trkpt lat="33.9444286" lon="132.8532414"><ele>914.84</ele><time>2022-04-09T05:48:19Z</time></trkpt><trkpt lat="33.9442572" lon="132.853136"><ele>912.3866666666667</ele><time>2022-04-09T05:48:30Z</time></trkpt><trkpt lat="33.944092" lon="132.8530319"><ele>909.1199999999999</ele><time>2022-04-09T05:48:40Z</time></trkpt><trkpt lat="33.9439124" lon="132.8529893"><ele>905.7333333333335</ele><time>2022-04-09T05:48:49Z</time></trkpt><trkpt lat="33.9437288" lon="132.8529632"><ele>903.4266666666666</ele><time>2022-04-09T05:49:02Z</time></trkpt><trkpt lat="33.9435672" lon="132.8528371"><ele>902.16</ele><time>2022-04-09T05:49:14Z</time></trkpt><trkpt lat="33.9433967" lon="132.8527629"><ele>901.9499999999999</ele><time>2022-04-09T05:49:40Z</time></trkpt><trkpt lat="33.9433885" lon="132.8525448"><ele>901.6366666666667</ele><time>2022-04-09T05:49:58Z</time></trkpt><trkpt lat="33.9434897" lon="132.8523645"><ele>900.0133333333333</ele><time>2022-04-09T05:50:29Z</time></trkpt><trkpt lat="33.9436734" lon="132.8523635"><ele>898.62</ele><time>2022-04-09T05:50:47Z</time></trkpt><trkpt lat="33.9438494" lon="132.8522782"><ele>896.4533333333333</ele><time>2022-04-09T05:51:44Z</time></trkpt><trkpt lat="33.9440111" lon="132.8521814"><ele>893.8866666666667</ele><time>2022-04-09T05:52:25Z</time></trkpt><trkpt lat="33.9440619" lon="132.8519695"><ele>888.16</ele><time>2022-04-09T05:52:44Z</time></trkpt><trkpt lat="33.9439289" lon="132.8518192"><ele>881.1999999999999</ele><time>2022-04-09T05:53:04Z</time></trkpt><trkpt lat="33.9437559" lon="132.8519121"><ele>875.6733333333333</ele><time>2022-04-09T05:53:21Z</time></trkpt><trkpt lat="33.9435828" lon="132.851983"><ele>874.2633333333333</ele><time>2022-04-09T05:53:35Z</time></trkpt><trkpt lat="33.9434033" lon="132.8520113"><ele>876.2733333333332</ele><time>2022-04-09T05:53:50Z</time></trkpt><trkpt lat="33.9432234" lon="132.8520879"><ele>879.4266666666666</ele><time>2022-04-09T05:54:06Z</time></trkpt><trkpt lat="33.9430728" lon="132.8522207"><ele>881.3066666666667</ele><time>2022-04-09T05:54:20Z</time></trkpt><trkpt lat="33.9428769" lon="132.8522021"><ele>881.1433333333334</ele><time>2022-04-09T05:54:32Z</time></trkpt><trkpt lat="33.9427051" lon="132.8521042"><ele>877.0400000000001</ele><time>2022-04-09T05:54:45Z</time></trkpt><trkpt lat="33.9425709" lon="132.8519571"><ele>871.4666666666667</ele><time>2022-04-09T05:54:57Z</time></trkpt><trkpt lat="33.9423929" lon="132.8518645"><ele>866.5</ele><time>2022-04-09T05:55:09Z</time></trkpt><trkpt lat="33.9422364" lon="132.8517394"><ele>861.4966666666666</ele><time>2022-04-09T05:55:22Z</time></trkpt><trkpt lat="33.9421265" lon="132.851557"><ele>856.2733333333332</ele><time>2022-04-09T05:55:35Z</time></trkpt><trkpt lat="33.941945" lon="132.8515645"><ele>851.56</ele><time>2022-04-09T05:55:54Z</time></trkpt><trkpt lat="33.9417572" lon="132.8516053"><ele>851.1633333333333</ele><time>2022-04-09T05:56:08Z</time></trkpt><trkpt lat="33.9415871" lon="132.8515292"><ele>851.39</ele><time>2022-04-09T05:56:18Z</time></trkpt><trkpt lat="33.9414438" lon="132.8513874"><ele>849.4633333333333</ele><time>2022-04-09T05:56:31Z</time></trkpt><trkpt lat="33.941282" lon="132.8512866"><ele>846.6733333333333</ele><time>2022-04-09T05:56:48Z</time></trkpt><trkpt lat="33.9411005" lon="132.8512613"><ele>846.0366666666667</ele><time>2022-04-09T05:57:00Z</time></trkpt><trkpt lat="33.9409552" lon="132.8511327"><ele>846.8000000000001</ele><time>2022-04-09T05:57:12Z</time></trkpt><trkpt lat="33.9408146" lon="132.8509969"><ele>846.1066666666667</ele><time>2022-04-09T05:57:24Z</time></trkpt><trkpt lat="33.9407028" lon="132.8508197"><ele>843.1166666666667</ele><time>2022-04-09T05:57:34Z</time></trkpt><trkpt lat="33.940592" lon="132.8506463"><ele>839.61</ele><time>2022-04-09T05:57:47Z</time></trkpt><trkpt lat="33.9403237" lon="132.8507671"><ele>837.4833333333332</ele><time>2022-04-09T05:58:14Z</time></trkpt><trkpt lat="33.9402322" lon="132.8509604"><ele>837.37</ele><time>2022-04-09T05:58:27Z</time></trkpt><trkpt lat="33.9401044" lon="132.8511279"><ele>838.37</ele><time>2022-04-09T05:58:43Z</time></trkpt><trkpt lat="33.9399699" lon="132.8512736"><ele>839.12</ele><time>2022-04-09T05:58:58Z</time></trkpt><trkpt lat="33.9398215" lon="132.8511428"><ele>837.8766666666667</ele><time>2022-04-09T05:59:10Z</time></trkpt><trkpt lat="33.9397164" lon="132.8509549"><ele>835.8100000000001</ele><time>2022-04-09T05:59:21Z</time></trkpt><trkpt lat="33.9396365" lon="132.8507516"><ele>832.5633333333334</ele><time>2022-04-09T05:59:36Z</time></trkpt><trkpt lat="33.9394935" lon="132.8505989"><ele>829.0966666666667</ele><time>2022-04-09T05:59:49Z</time></trkpt><trkpt lat="33.9393317" lon="132.8504983"><ele>825.25</ele><time>2022-04-09T06:00:36Z</time></trkpt><trkpt lat="33.9392209" lon="132.8503211"><ele>823.5099999999999</ele><time>2022-04-09T06:01:06Z</time></trkpt><trkpt lat="33.9390661" lon="132.8502071"><ele>825.0</ele><time>2022-04-09T06:01:29Z</time></trkpt><trkpt lat="33.9389288" lon="132.8500575"><ele>828.7166666666666</ele><time>2022-04-09T06:02:04Z</time></trkpt><trkpt lat="33.9388935" lon="132.8498287"><ele>832.8766666666667</ele><time>2022-04-09T06:02:30Z</time></trkpt><trkpt lat="33.9388709" lon="132.8495965"><ele>836.5300000000001</ele><time>2022-04-09T06:02:43Z</time></trkpt><trkpt lat="33.938824" lon="132.8493843"><ele>839.0</ele><time>2022-04-09T06:02:53Z</time></trkpt><trkpt lat="33.9386998" lon="132.8492146"><ele>841.2066666666666</ele><time>2022-04-09T06:03:07Z</time></trkpt><trkpt lat="33.9385784" lon="132.8490451"><ele>843.5066666666667</ele><time>2022-04-09T06:03:21Z</time></trkpt><trkpt lat="33.9384307" lon="132.8489188"><ele>845.9466666666667</ele><time>2022-04-09T06:03:36Z</time></trkpt><trkpt lat="33.9382537" lon="132.8488472"><ele>846.1633333333333</ele><time>2022-04-09T06:03:52Z</time></trkpt><trkpt lat="33.9380868" lon="132.8489358"><ele>841.8800000000001</ele><time>2022-04-09T06:04:05Z</time></trkpt><trkpt lat="33.9380163" lon="132.8487343"><ele>840.29</ele><time>2022-04-09T06:04:29Z</time></trkpt><trkpt lat="33.9378774" lon="132.8485941"><ele>838.71</ele><time>2022-04-09T06:04:41Z</time></trkpt><trkpt lat="33.9376988" lon="132.8485418"><ele>838.8533333333334</ele><time>2022-04-09T06:04:54Z</time></trkpt><trkpt lat="33.9375608" lon="132.8483981"><ele>835.1166666666668</ele><time>2022-04-09T06:05:23Z</time></trkpt><trkpt lat="33.9373808" lon="132.8483464"><ele>833.2399999999999</ele><time>2022-04-09T06:05:39Z</time></trkpt><trkpt lat="33.9372074" lon="132.8484199"><ele>833.6700000000001</ele><time>2022-04-09T06:05:53Z</time></trkpt><trkpt lat="33.9370318" lon="132.8484865"><ele>835.4466666666667</ele><time>2022-04-09T06:06:25Z</time></trkpt><trkpt lat="33.9368597" lon="132.8484142"><ele>840.5666666666667</ele><time>2022-04-09T06:06:38Z</time></trkpt><trkpt lat="33.9366794" lon="132.848403"><ele>845.63</ele><time>2022-04-09T06:06:56Z</time></trkpt><trkpt lat="33.9365537" lon="132.8482342"><ele>854.4200000000001</ele><time>2022-04-09T06:07:35Z</time></trkpt><trkpt lat="33.9364774" lon="132.8480371"><ele>863.4900000000001</ele><time>2022-04-09T06:07:57Z</time></trkpt><trkpt lat="33.9364107" lon="132.8478332"><ele>872.8266666666667</ele><time>2022-04-09T06:08:33Z</time></trkpt><trkpt lat="33.9363252" lon="132.8476385"><ele>878.4499999999999</ele><time>2022-04-09T06:08:46Z</time></trkpt><trkpt lat="33.9362298" lon="132.8474464"><ele>878.9699999999999</ele><time>2022-04-09T06:08:58Z</time></trkpt><trkpt lat="33.9361521" lon="132.8472439"><ele>879.2166666666667</ele><time>2022-04-09T06:09:13Z</time></trkpt><trkpt lat="33.9360912" lon="132.8470382"><ele>879.9666666666667</ele><time>2022-04-09T06:09:27Z</time></trkpt><trkpt lat="33.9360371" lon="132.8468308"><ele>883.02</ele><time>2022-04-09T06:09:47Z</time></trkpt><trkpt lat="33.9360207" lon="132.8465954"><ele>885.0933333333334</ele><time>2022-04-09T06:10:06Z</time></trkpt><trkpt lat="33.9358848" lon="132.8464341"><ele>886.6433333333334</ele><time>2022-04-09T06:10:20Z</time></trkpt><trkpt lat="33.9357745" lon="132.8462623"><ele>886.1199999999999</ele><time>2022-04-09T06:10:32Z</time></trkpt><trkpt lat="33.9356852" lon="132.8460732"><ele>887.63</ele><time>2022-04-09T06:10:46Z</time></trkpt><trkpt lat="33.9355094" lon="132.8460225"><ele>887.0733333333333</ele><time>2022-04-09T06:11:03Z</time></trkpt><trkpt lat="33.9353633" lon="132.8461521"><ele>887.8666666666667</ele><time>2022-04-09T06:11:43Z</time></trkpt><trkpt lat="33.935182" lon="132.8461472"><ele>888.1166666666667</ele><time>2022-04-09T06:12:14Z</time></trkpt><trkpt lat="33.9350006" lon="132.8461019"><ele>892.7833333333333</ele><time>2022-04-09T06:12:45Z</time></trkpt><trkpt lat="33.9348193" lon="132.8460662"><ele>897.9066666666668</ele><time>2022-04-09T06:13:28Z</time></trkpt><trkpt lat="33.9346499" lon="132.8459817"><ele>904.7866666666667</ele><time>2022-04-09T06:13:43Z</time></trkpt><trkpt lat="33.9345161" lon="132.8458199"><ele>911.1266666666667</ele><time>2022-04-09T06:14:11Z</time></trkpt><trkpt lat="33.9344009" lon="132.845651"><ele>916.8733333333333</ele><time>2022-04-09T06:14:26Z</time></trkpt><trkpt lat="33.9342169" lon="132.8456367"><ele>920.0</ele><time>2022-04-09T06:14:46Z</time></trkpt><trkpt lat="33.9341094" lon="132.8458124"><ele>921.1766666666667</ele><time>2022-04-09T06:15:01Z</time></trkpt><trkpt lat="33.9340287" lon="132.8460105"><ele>921.21</ele><time>2022-04-09T06:15:23Z</time></trkpt><trkpt lat="33.9338918" lon="132.8461662"><ele>919.66</ele><time>2022-04-09T06:16:42Z</time></trkpt><trkpt lat="33.9337306" lon="132.8462886"><ele>916.0099999999999</ele><time>2022-04-09T06:16:58Z</time></trkpt><trkpt lat="33.9335406" lon="132.8462162"><ele>913.2033333333334</ele><time>2022-04-09T06:17:08Z</time></trkpt><trkpt lat="33.9333617" lon="132.8461602"><ele>911.5833333333334</ele><time>2022-04-09T06:17:22Z</time></trkpt><trkpt lat="33.9331841" lon="132.8461227"><ele>911.8000000000001</ele><time>2022-04-09T06:17:36Z</time></trkpt><trkpt lat="33.9330008" lon="132.8460334"><ele>911.6666666666666</ele><time>2022-04-09T06:17:53Z</time></trkpt><trkpt lat="33.9328119" lon="132.8460506"><ele>911.8966666666666</ele><time>2022-04-09T06:18:12Z</time></trkpt><trkpt lat="33.9326371" lon="132.8461155"><ele>912.3133333333334</ele><time>2022-04-09T06:18:28Z</time></trkpt><trkpt lat="33.9324778" lon="132.846227"><ele>912.6733333333333</ele><time>2022-04-09T06:18:46Z</time></trkpt><trkpt lat="33.9323012" lon="132.8461588"><ele>911.7233333333334</ele><time>2022-04-09T06:19:08Z</time></trkpt><trkpt lat="33.9321236" lon="132.846116"><ele>910.6033333333335</ele><time>2022-04-09T06:19:20Z</time></trkpt><trkpt lat="33.9319387" lon="132.846119"><ele>910.8966666666666</ele><time>2022-04-09T06:19:28Z</time></trkpt><trkpt lat="33.9317552" lon="132.8461296"><ele>913.9866666666667</ele><time>2022-04-09T06:19:40Z</time></trkpt><trkpt lat="33.9315734" lon="132.8461465"><ele>917.0966666666667</ele><time>2022-04-09T06:20:13Z</time></trkpt><trkpt lat="33.9314094" lon="132.8460465"><ele>919.2833333333334</ele><time>2022-04-09T06:20:30Z</time></trkpt><trkpt lat="33.9312908" lon="132.8458693"><ele>922.5333333333334</ele><time>2022-04-09T06:20:46Z</time></trkpt><trkpt lat="33.9311083" lon="132.8458759"><ele>926.2600000000001</ele><time>2022-04-09T06:21:03Z</time></trkpt><trkpt lat="33.9309379" lon="132.8459492"><ele>927.9266666666667</ele><time>2022-04-09T06:21:20Z</time></trkpt><trkpt lat="33.9307563" lon="132.8460271"><ele>925.7133333333335</ele><time>2022-04-09T06:21:38Z</time></trkpt><trkpt lat="33.9305817" lon="132.8461021"><ele>922.1300000000001</ele><time>2022-04-09T06:21:51Z</time></trkpt><trkpt lat="33.9304263" lon="132.8462293"><ele>918.9733333333334</ele><time>2022-04-09T06:22:05Z</time></trkpt><trkpt lat="33.93026" lon="132.8463169"><ele>917.6566666666666</ele><time>2022-04-09T06:22:37Z</time></trkpt><trkpt lat="33.9300897" lon="132.8464014"><ele>919.4733333333334</ele><time>2022-04-09T06:23:04Z</time></trkpt><trkpt lat="33.929968" lon="132.8465639"><ele>922.93</ele><time>2022-04-09T06:23:18Z</time></trkpt><trkpt lat="33.9298936" lon="132.8467636"><ele>926.3066666666667</ele><time>2022-04-09T06:23:32Z</time></trkpt><trkpt lat="33.9298059" lon="132.846966"><ele>929.0266666666666</ele><time>2022-04-09T06:24:26Z</time></trkpt><trkpt lat="33.9296797" lon="132.8471349"><ele>933.3766666666667</ele><time>2022-04-09T06:24:37Z</time></trkpt><trkpt lat="33.9296167" lon="132.8473442"><ele>937.8533333333335</ele><time>2022-04-09T06:24:54Z</time></trkpt><trkpt lat="33.9296782" lon="132.8475696"><ele>943.7833333333333</ele><time>2022-04-09T06:25:11Z</time></trkpt><trkpt lat="33.9297007" lon="132.8477911"><ele>947.5933333333332</ele><time>2022-04-09T06:25:31Z</time></trkpt><trkpt lat="33.92961" lon="132.8476038"><ele>950.6066666666666</ele><time>2022-04-09T06:28:57Z</time></trkpt><trkpt lat="33.9295533" lon="132.8473671"><ele>949.9200000000001</ele><time>2022-04-09T06:29:08Z</time></trkpt><trkpt lat="33.9295428" lon="132.8471456"><ele>947.29</ele><time>2022-04-09T06:29:18Z</time></trkpt><trkpt lat="33.9296172" lon="132.846936"><ele>941.58</ele><time>2022-04-09T06:29:29Z</time></trkpt><trkpt lat="33.9297849" lon="132.8468076"><ele>935.86</ele><time>2022-04-09T06:29:42Z</time></trkpt><trkpt lat="33.9299261" lon="132.8466629"><ele>930.5966666666667</ele><time>2022-04-09T06:29:54Z</time></trkpt><trkpt lat="33.9300489" lon="132.8464987"><ele>927.4033333333333</ele><time>2022-04-09T06:30:06Z</time></trkpt><trkpt lat="33.9300898" lon="132.8462868"><ele>924.9166666666666</ele><time>2022-04-09T06:30:22Z</time></trkpt><trkpt lat="33.9302589" lon="132.8461998"><ele>922.0033333333334</ele><time>2022-04-09T06:30:36Z</time></trkpt><trkpt lat="33.9304294" lon="132.846276"><ele>918.75</ele><time>2022-04-09T06:30:53Z</time></trkpt><trkpt lat="33.9305592" lon="132.8461171"><ele>917.1766666666666</ele><time>2022-04-09T06:31:09Z</time></trkpt><trkpt lat="33.930672" lon="132.8459388"><ele>918.34</ele><time>2022-04-09T06:31:22Z</time></trkpt><trkpt lat="33.9308241" lon="132.8458226"><ele>921.37</ele><time>2022-04-09T06:31:40Z</time></trkpt><trkpt lat="33.9310082" lon="132.8458121"><ele>924.5466666666667</ele><time>2022-04-09T06:31:55Z</time></trkpt><trkpt lat="33.9311906" lon="132.8458016"><ele>927.38</ele><time>2022-04-09T06:32:16Z</time></trkpt><trkpt lat="33.9313536" lon="132.8459061"><ele>928.4900000000001</ele><time>2022-04-09T06:32:28Z</time></trkpt><trkpt lat="33.9315298" lon="132.8459732"><ele>925.3800000000001</ele><time>2022-04-09T06:32:38Z</time></trkpt><trkpt lat="33.9316914" lon="132.8458566"><ele>920.0833333333334</ele><time>2022-04-09T06:32:47Z</time></trkpt><trkpt lat="33.9318623" lon="132.8459422"><ele>914.9466666666667</ele><time>2022-04-09T06:33:07Z</time></trkpt><trkpt lat="33.9320063" lon="132.8460739"><ele>911.32</ele><time>2022-04-09T06:33:19Z</time></trkpt><trkpt lat="33.932109" lon="132.8462666"><ele>911.4200000000001</ele><time>2022-04-09T06:33:32Z</time></trkpt><trkpt lat="33.9322994" lon="132.8462911"><ele>911.9933333333333</ele><time>2022-04-09T06:33:43Z</time></trkpt><trkpt lat="33.932456" lon="132.8461729"><ele>913.5566666666667</ele><time>2022-04-09T06:33:55Z</time></trkpt><trkpt lat="33.9326356" lon="132.8460923"><ele>912.7800000000001</ele><time>2022-04-09T06:34:08Z</time></trkpt><trkpt lat="33.9328173" lon="132.8461163"><ele>912.2366666666667</ele><time>2022-04-09T06:34:22Z</time></trkpt><trkpt lat="33.9329995" lon="132.8461162"><ele>911.2366666666667</ele><time>2022-04-09T06:34:35Z</time></trkpt><trkpt lat="33.9331919" lon="132.8461705"><ele>909.9566666666666</ele><time>2022-04-09T06:34:49Z</time></trkpt><trkpt lat="33.9333732" lon="132.8461772"><ele>909.5866666666667</ele><time>2022-04-09T06:35:04Z</time></trkpt><trkpt lat="33.9335426" lon="132.8462665"><ele>910.0633333333334</ele><time>2022-04-09T06:35:18Z</time></trkpt><trkpt lat="33.9337207" lon="132.8463262"><ele>910.71</ele><time>2022-04-09T06:35:31Z</time></trkpt><trkpt lat="33.933889" lon="132.846421"><ele>910.2666666666668</ele><time>2022-04-09T06:35:47Z</time></trkpt><trkpt lat="33.933981" lon="132.8466242"><ele>907.9666666666667</ele><time>2022-04-09T06:36:00Z</time></trkpt><trkpt lat="33.9341785" lon="132.8466019"><ele>904.3733333333333</ele><time>2022-04-09T06:36:17Z</time></trkpt><trkpt lat="33.9343472" lon="132.8465157"><ele>900.8166666666666</ele><time>2022-04-09T06:36:30Z</time></trkpt><trkpt lat="33.934508" lon="132.8464092"><ele>900.8766666666667</ele><time>2022-04-09T06:36:47Z</time></trkpt><trkpt lat="33.9346594" lon="132.8465344"><ele>900.4200000000001</ele><time>2022-04-09T06:37:01Z</time></trkpt><trkpt lat="33.9348323" lon="132.8464626"><ele>899.2400000000001</ele><time>2022-04-09T06:37:12Z</time></trkpt><trkpt lat="33.9349852" lon="132.8463407"><ele>895.5933333333332</ele><time>2022-04-09T06:37:26Z</time></trkpt><trkpt lat="33.9351352" lon="132.8464635"><ele>892.1266666666667</ele><time>2022-04-09T06:37:38Z</time></trkpt><trkpt lat="33.9353003" lon="132.8463706"><ele>889.2633333333333</ele><time>2022-04-09T06:37:50Z</time></trkpt><trkpt lat="33.9354345" lon="132.8462206"><ele>886.36</ele><time>2022-04-09T06:38:02Z</time></trkpt><trkpt lat="33.9355819" lon="132.8460877"><ele>885.5066666666667</ele><time>2022-04-09T06:38:14Z</time></trkpt><trkpt lat="33.9357228" lon="132.8462263"><ele>885.5533333333333</ele><time>2022-04-09T06:38:29Z</time></trkpt><trkpt lat="33.9358703" lon="132.8463521"><ele>885.7433333333333</ele><time>2022-04-09T06:38:39Z</time></trkpt><trkpt lat="33.9360018" lon="132.8465018"><ele>887.3299999999999</ele><time>2022-04-09T06:38:53Z</time></trkpt><trkpt lat="33.9360894" lon="132.8467017"><ele>887.96</ele><time>2022-04-09T06:39:07Z</time></trkpt><trkpt lat="33.9361369" lon="132.846916"><ele>889.2033333333334</ele><time>2022-04-09T06:39:17Z</time></trkpt><trkpt lat="33.936224" lon="132.8471118"><ele>888.0066666666668</ele><time>2022-04-09T06:39:30Z</time></trkpt><trkpt lat="33.936179" lon="132.8473239"><ele>885.5533333333334</ele><time>2022-04-09T06:39:43Z</time></trkpt><trkpt lat="33.9362591" lon="132.8475333"><ele>882.39</ele><time>2022-04-09T06:39:58Z</time></trkpt><trkpt lat="33.9363806" lon="132.8476938"><ele>880.0933333333334</ele><time>2022-04-09T06:40:08Z</time></trkpt><trkpt lat="33.9364689" lon="132.8478828"><ele>879.62</ele><time>2022-04-09T06:40:24Z</time></trkpt><trkpt lat="33.9364462" lon="132.8481178"><ele>876.63</ele><time>2022-04-09T06:40:38Z</time></trkpt><trkpt lat="33.9365926" lon="132.848251"><ele>871.0066666666667</ele><time>2022-04-09T06:40:54Z</time></trkpt><trkpt lat="33.9367645" lon="132.848333"><ele>862.5833333333334</ele><time>2022-04-09T06:41:05Z</time></trkpt><trkpt lat="33.9369042" lon="132.8484734"><ele>854.62</ele><time>2022-04-09T06:41:20Z</time></trkpt><trkpt lat="33.937071" lon="132.848361"><ele>848.8366666666667</ele><time>2022-04-09T06:41:37Z</time></trkpt><trkpt lat="33.937163" lon="132.8481725"><ele>847.6933333333333</ele><time>2022-04-09T06:41:46Z</time></trkpt><trkpt lat="33.9373442" lon="132.8482187"><ele>844.4733333333334</ele><time>2022-04-09T06:41:59Z</time></trkpt><trkpt lat="33.937499" lon="132.8483429"><ele>839.86</ele><time>2022-04-09T06:42:14Z</time></trkpt><trkpt lat="33.9376722" lon="132.8484116"><ele>833.5166666666668</ele><time>2022-04-09T06:42:29Z</time></trkpt><trkpt lat="33.9378086" lon="132.8485631"><ele>832.7866666666667</ele><time>2022-04-09T06:42:50Z</time></trkpt><trkpt lat="33.9379134" lon="132.8487564"><ele>835.8400000000001</ele><time>2022-04-09T06:43:39Z</time></trkpt><trkpt lat="33.9380863" lon="132.8488417"><ele>838.1199999999999</ele><time>2022-04-09T06:43:48Z</time></trkpt><trkpt lat="33.9382495" lon="132.8489454"><ele>840.0266666666666</ele><time>2022-04-09T06:44:01Z</time></trkpt><trkpt lat="33.9384332" lon="132.8489647"><ele>842.1300000000001</ele><time>2022-04-09T06:44:15Z</time></trkpt><trkpt lat="33.938589" lon="132.8490748"><ele>844.9833333333335</ele><time>2022-04-09T06:44:27Z</time></trkpt><trkpt lat="33.9387124" lon="132.8492342"><ele>845.9466666666667</ele><time>2022-04-09T06:44:42Z</time></trkpt><trkpt lat="33.9388354" lon="132.8493961"><ele>843.5066666666667</ele><time>2022-04-09T06:44:56Z</time></trkpt><trkpt lat="33.9389427" lon="132.8495707"><ele>840.0433333333334</ele><time>2022-04-09T06:45:11Z</time></trkpt><trkpt lat="33.9389671" lon="132.8498119"><ele>836.8100000000001</ele><time>2022-04-09T06:45:26Z</time></trkpt><trkpt lat="33.9389734" lon="132.850035"><ele>834.4766666666668</ele><time>2022-04-09T06:45:36Z</time></trkpt><trkpt lat="33.9390083" lon="132.8502662"><ele>831.59</ele><time>2022-04-09T06:45:48Z</time></trkpt><trkpt lat="33.9391346" lon="132.8504236"><ele>828.5033333333334</ele><time>2022-04-09T06:46:00Z</time></trkpt><trkpt lat="33.9393266" lon="132.8504278"><ele>824.7700000000001</ele><time>2022-04-09T06:46:11Z</time></trkpt><trkpt lat="33.9395064" lon="132.8504852"><ele>823.0666666666666</ele><time>2022-04-09T06:46:27Z</time></trkpt><trkpt lat="33.9396127" lon="132.8506614"><ele>823.7199999999999</ele><time>2022-04-09T06:46:45Z</time></trkpt><trkpt lat="33.9396721" lon="132.8508791"><ele>826.6700000000001</ele><time>2022-04-09T06:47:01Z</time></trkpt><trkpt lat="33.9397025" lon="132.851093"><ele>831.2766666666666</ele><time>2022-04-09T06:47:13Z</time></trkpt><trkpt lat="33.9398168" lon="132.8512927"><ele>835.4866666666667</ele><time>2022-04-09T06:47:29Z</time></trkpt><trkpt lat="33.939997" lon="132.8512627"><ele>838.4966666666666</ele><time>2022-04-09T06:47:49Z</time></trkpt><trkpt lat="33.9401014" lon="132.8510682"><ele>839.1266666666667</ele><time>2022-04-09T06:48:03Z</time></trkpt><trkpt lat="33.9402163" lon="132.8508993"><ele>838.4066666666668</ele><time>2022-04-09T06:48:22Z</time></trkpt><trkpt lat="33.9403423" lon="132.8507437"><ele>837.6566666666666</ele><time>2022-04-09T06:48:36Z</time></trkpt><trkpt lat="33.9405195" lon="132.8507006"><ele>836.96</ele><time>2022-04-09T06:48:48Z</time></trkpt><trkpt lat="33.9406528" lon="132.8505467"><ele>835.9366666666666</ele><time>2022-04-09T06:49:26Z</time></trkpt><trkpt lat="33.9408033" lon="132.8506718"><ele>832.9433333333333</ele><time>2022-04-09T06:49:39Z</time></trkpt><trkpt lat="33.9408306" lon="132.8508923"><ele>833.68</ele><time>2022-04-09T06:49:53Z</time></trkpt><trkpt lat="33.9409751" lon="132.8510334"><ele>836.9666666666667</ele><time>2022-04-09T06:50:08Z</time></trkpt><trkpt lat="33.9411262" lon="132.8511649"><ele>842.9366666666666</ele><time>2022-04-09T06:50:23Z</time></trkpt><trkpt lat="33.9413061" lon="132.8511875"><ele>844.0466666666667</ele><time>2022-04-09T06:50:38Z</time></trkpt><trkpt lat="33.9414671" lon="132.8512953"><ele>843.4766666666668</ele><time>2022-04-09T06:50:53Z</time></trkpt><trkpt lat="33.9415975" lon="132.8514484"><ele>843.7033333333334</ele><time>2022-04-09T06:51:06Z</time></trkpt><trkpt lat="33.9417727" lon="132.8515173"><ele>846.7133333333333</ele><time>2022-04-09T06:51:25Z</time></trkpt><trkpt lat="33.9419264" lon="132.8516371"><ele>850.6</ele><time>2022-04-09T06:51:42Z</time></trkpt><trkpt lat="33.9420686" lon="132.8514837"><ele>849.7233333333334</ele><time>2022-04-09T06:51:58Z</time></trkpt><trkpt lat="33.9422492" lon="132.8514914"><ele>848.6333333333333</ele><time>2022-04-09T06:52:14Z</time></trkpt><trkpt lat="33.9423599" lon="132.8516657"><ele>849.2666666666668</ele><time>2022-04-09T06:52:30Z</time></trkpt><trkpt lat="33.9424646" lon="132.8518702"><ele>855.6999999999999</ele><time>2022-04-09T06:52:42Z</time></trkpt><trkpt lat="33.9425857" lon="132.8520437"><ele>862.1433333333333</ele><time>2022-04-09T06:52:56Z</time></trkpt><trkpt lat="33.9427302" lon="132.8521794"><ele>868.8066666666667</ele><time>2022-04-09T06:53:13Z</time></trkpt><trkpt lat="33.9429109" lon="132.8522096"><ele>873.98</ele><time>2022-04-09T06:53:26Z</time></trkpt><trkpt lat="33.9430907" lon="132.8522716"><ele>881.0900000000001</ele><time>2022-04-09T06:53:40Z</time></trkpt><trkpt lat="33.9432537" lon="132.8521709"><ele>883.3733333333333</ele><time>2022-04-09T06:53:54Z</time></trkpt><trkpt lat="33.9433701" lon="132.8519971"><ele>882.6066666666667</ele><time>2022-04-09T06:54:09Z</time></trkpt><trkpt lat="33.9437139" lon="132.8518149"><ele>876.3366666666667</ele><time>2022-04-09T06:54:44Z</time></trkpt><trkpt lat="33.9438972" lon="132.8518695"><ele>874.0966666666667</ele><time>2022-04-09T06:54:59Z</time></trkpt><trkpt lat="33.9440705" lon="132.8519591"><ele>875.4366666666666</ele><time>2022-04-09T06:55:12Z</time></trkpt><trkpt lat="33.9442447" lon="132.8518993"><ele>878.8733333333333</ele><time>2022-04-09T06:56:28Z</time></trkpt><trkpt lat="33.94417" lon="132.8517016"><ele>881.3100000000001</ele><time>2022-04-09T06:56:58Z</time></trkpt><trkpt lat="33.9443136" lon="132.8515684"><ele>887.1366666666667</ele><time>2022-04-09T06:58:41Z</time></trkpt><trkpt lat="33.9444082" lon="132.8513833"><ele>897.3733333333333</ele><time>2022-04-09T06:59:57Z</time></trkpt><trkpt lat="33.9445368" lon="132.851217"><ele>910.8733333333334</ele><time>2022-04-09T07:00:52Z</time></trkpt><trkpt lat="33.9447" lon="132.8511206"><ele>921.41</ele><time>2022-04-09T07:01:29Z</time></trkpt><trkpt lat="33.9448317" lon="132.8509604"><ele>930.1600000000002</ele><time>2022-04-09T07:01:50Z</time></trkpt><trkpt lat="33.9449557" lon="132.8507998"><ele>935.91</ele><time>2022-04-09T07:02:25Z</time></trkpt><trkpt lat="33.9449771" lon="132.8505703"><ele>941.4966666666666</ele><time>2022-04-09T07:02:38Z</time></trkpt><trkpt lat="33.9449518" lon="132.8503459"><ele>945.1566666666668</ele><time>2022-04-09T07:02:54Z</time></trkpt><trkpt lat="33.9447901" lon="132.8502495"><ele>946.4900000000001</ele><time>2022-04-09T07:03:29Z</time></trkpt><trkpt lat="33.9446151" lon="132.8501848"><ele>944.27</ele><time>2022-04-09T07:03:45Z</time></trkpt><trkpt lat="33.944497" lon="132.8500166"><ele>941.6266666666667</ele><time>2022-04-09T07:04:15Z</time></trkpt><trkpt lat="33.9443513" lon="132.8498889"><ele>939.1066666666666</ele><time>2022-04-09T07:04:32Z</time></trkpt><trkpt lat="33.9442547" lon="132.8496984"><ele>940.6166666666667</ele><time>2022-04-09T07:04:48Z</time></trkpt><trkpt lat="33.9443353" lon="132.8495037"><ele>944.59</ele><time>2022-04-09T07:05:25Z</time></trkpt><trkpt lat="33.9445198" lon="132.8495799"><ele>950.0733333333334</ele><time>2022-04-09T07:05:49Z</time></trkpt><trkpt lat="33.9446823" lon="132.8496933"><ele>952.85</ele><time>2022-04-09T07:06:04Z</time></trkpt><trkpt lat="33.944858" lon="132.8497546"><ele>955.59</ele><time>2022-04-09T07:06:21Z</time></trkpt><trkpt lat="33.9450386" lon="132.8497542"><ele>958.5500000000001</ele><time>2022-04-09T07:06:35Z</time></trkpt><trkpt lat="33.9452037" lon="132.8496613"><ele>961.1333333333333</ele><time>2022-04-09T07:06:50Z</time></trkpt><trkpt lat="33.9453864" lon="132.8496748"><ele>962.2300000000001</ele><time>2022-04-09T07:07:13Z</time></trkpt><trkpt lat="33.9455609" lon="132.8496107"><ele>963.29</ele><time>2022-04-09T07:07:31Z</time></trkpt><trkpt lat="33.9457404" lon="132.8495598"><ele>963.7433333333333</ele><time>2022-04-09T07:07:50Z</time></trkpt><trkpt lat="33.9459184" lon="132.8496209"><ele>964.3000000000001</ele><time>2022-04-09T07:08:09Z</time></trkpt><trkpt lat="33.946028" lon="132.8498118"><ele>966.6500000000001</ele><time>2022-04-09T07:08:30Z</time></trkpt><trkpt lat="33.9460335" lon="132.8500349"><ele>971.5733333333334</ele><time>2022-04-09T07:08:46Z</time></trkpt><trkpt lat="33.9459189" lon="132.8502196"><ele>976.4566666666666</ele><time>2022-04-09T07:09:00Z</time></trkpt><trkpt lat="33.9457592" lon="132.8503272"><ele>977.2233333333334</ele><time>2022-04-09T07:09:15Z</time></trkpt><trkpt lat="33.9455885" lon="132.8502522"><ele>977.8266666666667</ele><time>2022-04-09T07:09:40Z</time></trkpt><trkpt lat="33.9455295" lon="132.8500431"><ele>978.2566666666667</ele><time>2022-04-09T07:09:58Z</time></trkpt><trkpt lat="33.9456945" lon="132.8499533"><ele>981.3100000000001</ele><time>2022-04-09T07:10:52Z</time></trkpt><trkpt lat="33.945663" lon="132.8501711"><ele>984.2633333333333</ele><time>2022-04-09T07:21:00Z</time></trkpt><trkpt lat="33.9455382" lon="132.8503314"><ele>980.5066666666667</ele><time>2022-04-09T07:21:42Z</time></trkpt><trkpt lat="33.9453814" lon="132.8504435"><ele>973.0633333333334</ele><time>2022-04-09T07:21:58Z</time></trkpt><trkpt lat="33.9453646" lon="132.8506659"><ele>960.1366666666667</ele><time>2022-04-09T07:22:15Z</time></trkpt><trkpt lat="33.9452364" lon="132.8508358"><ele>949.36</ele><time>2022-04-09T07:22:39Z</time></trkpt><trkpt lat="33.9451451" lon="132.8510243"><ele>940.4833333333335</ele><time>2022-04-09T07:22:59Z</time></trkpt><trkpt lat="33.9451232" lon="132.8512496"><ele>934.6266666666667</ele><time>2022-04-09T07:24:19Z</time></trkpt><trkpt lat="33.9450329" lon="132.8514539"><ele>929.54</ele><time>2022-04-09T07:24:45Z</time></trkpt><trkpt lat="33.945023" lon="132.8516743"><ele>923.66</ele><time>2022-04-09T07:25:08Z</time></trkpt><trkpt lat="33.9450375" lon="132.8518924"><ele>918.91</ele><time>2022-04-09T07:25:29Z</time></trkpt><trkpt lat="33.9451926" lon="132.8520056"><ele>918.9033333333333</ele><time>2022-04-09T07:25:55Z</time></trkpt></trkseg></trk></gpx>