<?xml version='1.0' encoding='UTF-8'?><gpx creator="Yama Museum Summit Candidate Generator" xsi:schemaLocation="http://www.topografix.com/GPX/1/1 http://www.topografix.com/GPX/1/1/gpx.xsd" version="1.1" xmlns="http://www.topografix.com/GPX/1/1" xmlns:xsi="http://www.w3.org/2001/XMLSchema-instance" xmlns:yama="https://museum-yama-data.moukaeritai.work/ns/yama-data/0.1"><metadata><bounds maxlat="33.4532322" maxlon="132.7170271" minlat="33.4525469" minlon="132.715696"/><name>一ヶ森</name><extensions><yama:source_gpx_basename>yamap_2025-03-30_09_12.gpx</yama:source_gpx_basename><yama:source_gpx_relative_path>data/01_raw/gpx/2026-05-12/yamap_2025-03-30_09_12.gpx</yama:source_gpx_relative_path><yama:detection_parameters>window=5,radius=10,min_prominence=30,merge=100</yama:detection_parameters></extensions></metadata><wpt lat="33.4530897" lon="132.7168465"><ele>605.2468947172716</ele><time>2025-03-30T00:25:11Z</time><name>summit-candidate:5f3f2f47d84464c4</name><desc>Summit candidate detected at elevation 605.2468947172716m with prominence 44.65225892194508m.</desc><sym>Summit Candidate</sym><extensions><yama:source_trackpoint_index>14</yama:source_trackpoint_index><yama:valid_elevation_index>14</yama:valid_elevation_index><yama:smoothed_ele>603.4472958877797</yama:smoothed_ele><yama:prominence>44.65225892194508</yama:prominence><yama:detection_method>local_maxima_with_prominence</yama:detection_method><yama:detection_parameters>window=5,radius=9,min_prominence=30,merge=100</yama:detection_parameters><yama:candidate_status>unresolved</yama:candidate_status></extensions></wpt>
  <trk><name>一ヶ森</name><number>1</number><trkseg><trkpt lat="33.4526347" lon="132.7168517"><ele>560.1308785834008</ele><time>2025-03-30T00:12:35Z</time></trkpt><trkpt lat="33.4527211" lon="132.7166503"><ele>558.4374123837121</ele><time>2025-03-30T00:13:55Z</time></trkpt><trkpt lat="33.4526705" lon="132.7164048"><ele>557.8168199303908</ele><time>2025-03-30T00:14:07Z</time></trkpt><trkpt lat="33.4525753" lon="132.7161866"><ele>558.8859763992288</ele><time>2025-03-30T00:15:38Z</time></trkpt><trkpt lat="33.4526115" lon="132.7159552"><ele>561.9751257707176</ele><time>2025-03-30T00:16:09Z</time></trkpt><trkpt lat="33.4525469" lon="132.715696"><ele>565.214050573181</ele><time>2025-03-30T00:16:24Z</time></trkpt><trkpt lat="33.4527258" lon="132.7158173"><ele>567.7965574356812</ele><time>2025-03-30T00:17:34Z</time></trkpt><trkpt lat="33.4528404" lon="132.7159903"><ele>570.7891321268659</ele><time>2025-03-30T00:17:52Z</time></trkpt><trkpt lat="33.4530056" lon="132.7160767"><ele>577.4562603833914</ele><time>2025-03-30T00:19:00Z</time></trkpt><trkpt lat="33.4531435" lon="132.7162271"><ele>584.9566092670732</ele><time>2025-03-30T00:19:45Z</time></trkpt><trkpt lat="33.4532322" lon="132.7164295"><ele>593.1673928156398</ele><time>2025-03-30T00:20:17Z</time></trkpt><trkpt lat="33.4531146" lon="132.7166219"><ele>598.3860167275199</ele><time>2025-03-30T00:20:52Z</time></trkpt><trkpt lat="33.4530951" lon="132.7168602"><ele>601.8825071823783</ele><time>2025-03-30T00:21:13Z</time></trkpt><trkpt lat="33.4532183" lon="132.7170271"><ele>604.5717088958373</ele><time>2025-03-30T00:23:07Z</time></trkpt><trkpt lat="33.4530897" lon="132.7168465"><ele>605.2468947172716</ele><time>2025-03-30T00:25:11Z</time></trkpt><trkpt lat="33.4530654" lon="132.7165946"><ele>604.0681469618306</ele><time>2025-03-30T00:25:29Z</time></trkpt><trkpt lat="33.4531998" lon="132.7164214"><ele>601.4672216815802</ele><time>2025-03-30T00:26:07Z</time></trkpt><trkpt lat="33.4530645" lon="132.7162492"><ele>596.7427060157888</ele><time>2025-03-30T00:26:40Z</time></trkpt><trkpt lat="33.4529363" lon="132.7160924"><ele>590.2079594082444</ele><time>2025-03-30T00:27:04Z</time></trkpt><trkpt lat="33.452764" lon="132.7159836"><ele>581.3484441143333</ele><time>2025-03-30T00:27:40Z</time></trkpt><trkpt lat="33.4527099" lon="132.715758"><ele>573.8564111191889</ele><time>2025-03-30T00:28:02Z</time></trkpt><trkpt lat="33.4526287" lon="132.7159725"><ele>567.3876309669696</ele><time>2025-03-30T00:28:49Z</time></trkpt><trkpt lat="33.4527633" lon="132.7161175"><ele>563.1042791413826</ele><time>2025-03-30T00:29:04Z</time></trkpt><trkpt lat="33.452771" lon="132.7163484"><ele>560.5083765474055</ele><time>2025-03-30T00:29:19Z</time></trkpt><trkpt lat="33.4528262" lon="132.7165575"><ele>558.9129227668976</ele><time>2025-03-30T00:29:34Z</time></trkpt><trkpt lat="33.452837" lon="132.716794"><ele>557.5371258021189</ele><time>2025-03-30T00:29:55Z</time></trkpt><trkpt lat="33.4527534" lon="132.7170177"><ele>556.8857997368608</ele><time>2025-03-30T00:30:13Z</time></trkpt></trkseg></trk></gpx>