<?xml version='1.0' encoding='UTF-8'?><gpx creator="Yama Museum Summit Candidate Generator" xsi:schemaLocation="http://www.topografix.com/GPX/1/1 http://www.topografix.com/GPX/1/1/gpx.xsd" version="1.1" xmlns="http://www.topografix.com/GPX/1/1" xmlns:xsi="http://www.w3.org/2001/XMLSchema-instance" xmlns:yama="https://museum-yama-data.moukaeritai.work/ns/yama-data/0.1"><metadata><bounds maxlat="33.5178113" maxlon="132.7259615" minlat="33.5119358" minlon="132.7186714"/><name>大森山</name><extensions><yama:source_gpx_basename>yamap_2026-02-22_06_23.gpx</yama:source_gpx_basename><yama:source_gpx_relative_path>data/01_raw/gpx/2026-05-12/yamap_2026-02-22_06_23.gpx</yama:source_gpx_relative_path><yama:detection_parameters>window=5,radius=10,min_prominence=30,merge=100</yama:detection_parameters></extensions></metadata><wpt lat="33.5171137" lon="132.7257366"><ele>737.4383606793477</ele><time>2026-02-21T21:51:10Z</time><name>summit-candidate:b3cf76c035511afe</name><desc>Summit candidate detected at elevation 737.4383606793477m with prominence 66.97658594002019m.</desc><sym>Summit Candidate</sym><extensions><yama:source_trackpoint_index>55</yama:source_trackpoint_index><yama:valid_elevation_index>55</yama:valid_elevation_index><yama:smoothed_ele>734.9700943958876</yama:smoothed_ele><yama:prominence>66.97658594002019</yama:prominence><yama:detection_method>local_maxima_with_prominence</yama:detection_method><yama:detection_parameters>window=5,radius=10,min_prominence=30,merge=100</yama:detection_parameters><yama:candidate_status>unresolved</yama:candidate_status></extensions></wpt>
  <trk><name>大森山</name><number>1</number><trkseg><trkpt lat="33.5120548" lon="132.7190633"><ele>676.0097097177797</ele><time>2026-02-21T21:23:50Z</time></trkpt><trkpt lat="33.5121314" lon="132.7188533"><ele>666.7765011003683</ele><time>2026-02-21T21:26:52Z</time></trkpt><trkpt lat="33.5123141" lon="132.7189264"><ele>665.8107616579174</ele><time>2026-02-21T21:27:53Z</time></trkpt><trkpt lat="33.5124555" lon="132.7187767"><ele>664.3692944716302</ele><time>2026-02-21T21:28:48Z</time></trkpt><trkpt lat="33.5124888" lon="132.7189959"><ele>669.7209696982262</ele><time>2026-02-21T21:29:11Z</time></trkpt><trkpt lat="33.5125552" lon="132.7192206"><ele>673.2900153511952</ele><time>2026-02-21T21:29:35Z</time></trkpt><trkpt lat="33.5126501" lon="132.7194097"><ele>674.5026097423062</ele><time>2026-02-21T21:29:54Z</time></trkpt><trkpt lat="33.5127707" lon="132.7195818"><ele>675.2973517449323</ele><time>2026-02-21T21:30:08Z</time></trkpt><trkpt lat="33.5128526" lon="132.7197743"><ele>676.1906028293407</ele><time>2026-02-21T21:30:22Z</time></trkpt><trkpt lat="33.5128532" lon="132.7199991"><ele>677.3358172091026</ele><time>2026-02-21T21:30:39Z</time></trkpt><trkpt lat="33.5128549" lon="132.720229"><ele>678.6455164650791</ele><time>2026-02-21T21:30:57Z</time></trkpt><trkpt lat="33.5129209" lon="132.7204497"><ele>679.9774051798184</ele><time>2026-02-21T21:31:14Z</time></trkpt><trkpt lat="33.5130426" lon="132.7206518"><ele>681.3445348260726</ele><time>2026-02-21T21:31:34Z</time></trkpt><trkpt lat="33.5131705" lon="132.7208039"><ele>682.7322317147788</ele><time>2026-02-21T21:31:54Z</time></trkpt><trkpt lat="33.5133239" lon="132.7209548"><ele>683.515456651831</ele><time>2026-02-21T21:32:11Z</time></trkpt><trkpt lat="33.5134372" lon="132.7211585"><ele>683.8690519185126</ele><time>2026-02-21T21:32:28Z</time></trkpt><trkpt lat="33.5136012" lon="132.7212682"><ele>684.0349227251901</ele><time>2026-02-21T21:32:49Z</time></trkpt><trkpt lat="33.5138136" lon="132.7213007"><ele>683.7517171267154</ele><time>2026-02-21T21:33:10Z</time></trkpt><trkpt lat="33.5140084" lon="132.7213897"><ele>683.0144562597726</ele><time>2026-02-21T21:33:30Z</time></trkpt><trkpt lat="33.5141664" lon="132.7215257"><ele>681.8792986826256</ele><time>2026-02-21T21:33:45Z</time></trkpt><trkpt lat="33.5143188" lon="132.7216511"><ele>681.3999785030779</ele><time>2026-02-21T21:33:58Z</time></trkpt><trkpt lat="33.5144855" lon="132.7217717"><ele>681.7332612118396</ele><time>2026-02-21T21:34:12Z</time></trkpt><trkpt lat="33.5146925" lon="132.72185"><ele>682.4660666978219</ele><time>2026-02-21T21:34:30Z</time></trkpt><trkpt lat="33.5148782" lon="132.7219652"><ele>683.6611493039333</ele><time>2026-02-21T21:34:48Z</time></trkpt><trkpt lat="33.5150649" lon="132.7220632"><ele>684.6756158950539</ele><time>2026-02-21T21:35:13Z</time></trkpt><trkpt lat="33.5152745" lon="132.7221487"><ele>685.4791690418566</ele><time>2026-02-21T21:35:28Z</time></trkpt><trkpt lat="33.5154574" lon="132.7221532"><ele>685.5020889223648</ele><time>2026-02-21T21:35:55Z</time></trkpt><trkpt lat="33.5156526" lon="132.7221991"><ele>684.9686300810887</ele><time>2026-02-21T21:36:10Z</time></trkpt><trkpt lat="33.5156957" lon="132.7224133"><ele>684.7975003599364</ele><time>2026-02-21T21:36:32Z</time></trkpt><trkpt lat="33.5159082" lon="132.722417"><ele>684.5287088836727</ele><time>2026-02-21T21:36:46Z</time></trkpt><trkpt lat="33.5161076" lon="132.7224069"><ele>685.0507137274608</ele><time>2026-02-21T21:37:04Z</time></trkpt><trkpt lat="33.5162914" lon="132.7225126"><ele>685.7945473054934</ele><time>2026-02-21T21:37:21Z</time></trkpt><trkpt lat="33.5163897" lon="132.7227107"><ele>687.1980702995011</ele><time>2026-02-21T21:37:38Z</time></trkpt><trkpt lat="33.5164777" lon="132.7229316"><ele>688.6339356147786</ele><time>2026-02-21T21:37:54Z</time></trkpt><trkpt lat="33.5164883" lon="132.7231509"><ele>689.0923287430256</ele><time>2026-02-21T21:38:09Z</time></trkpt><trkpt lat="33.5167015" lon="132.7231998"><ele>689.8438257638787</ele><time>2026-02-21T21:38:37Z</time></trkpt><trkpt lat="33.5169065" lon="132.7232347"><ele>690.2287297022666</ele><time>2026-02-21T21:38:52Z</time></trkpt><trkpt lat="33.5170922" lon="132.7232782"><ele>691.2178291583514</ele><time>2026-02-21T21:39:10Z</time></trkpt><trkpt lat="33.517312" lon="132.7233032"><ele>692.2035008681511</ele><time>2026-02-21T21:39:27Z</time></trkpt><trkpt lat="33.5175149" lon="132.7233054"><ele>694.0047200314526</ele><time>2026-02-21T21:39:44Z</time></trkpt><trkpt lat="33.5176392" lon="132.7234909"><ele>696.138995093968</ele><time>2026-02-21T21:40:01Z</time></trkpt><trkpt lat="33.5178113" lon="132.7233775"><ele>698.7769231165163</ele><time>2026-02-21T21:40:19Z</time></trkpt><trkpt lat="33.5177962" lon="132.7236002"><ele>702.5329310718448</ele><time>2026-02-21T21:40:46Z</time></trkpt><trkpt lat="33.5176515" lon="132.7237691"><ele>707.3262856674534</ele><time>2026-02-21T21:41:12Z</time></trkpt><trkpt lat="33.5174703" lon="132.7237577"><ele>711.8298740948253</ele><time>2026-02-21T21:41:30Z</time></trkpt><trkpt lat="33.517397" lon="132.7239802"><ele>716.3971566732084</ele><time>2026-02-21T21:42:12Z</time></trkpt><trkpt lat="33.5173165" lon="132.7242194"><ele>719.728988955877</ele><time>2026-02-21T21:42:30Z</time></trkpt><trkpt lat="33.5172634" lon="132.7244598"><ele>722.7464787444965</ele><time>2026-02-21T21:42:48Z</time></trkpt><trkpt lat="33.5173123" lon="132.7246766"><ele>723.76020326029</ele><time>2026-02-21T21:43:08Z</time></trkpt><trkpt lat="33.5173477" lon="132.7249017"><ele>724.1963022938138</ele><time>2026-02-21T21:43:25Z</time></trkpt><trkpt lat="33.5174009" lon="132.7251233"><ele>724.8239933407568</ele><time>2026-02-21T21:43:44Z</time></trkpt><trkpt lat="33.5173522" lon="132.7253715"><ele>725.8325454420974</ele><time>2026-02-21T21:44:05Z</time></trkpt><trkpt lat="33.5172577" lon="132.7255555"><ele>729.0800476903032</ele><time>2026-02-21T21:44:54Z</time></trkpt><trkpt lat="33.5171725" lon="132.7257604"><ele>732.8272153669708</ele><time>2026-02-21T21:45:21Z</time></trkpt><trkpt lat="33.5170767" lon="132.7259615"><ele>736.6881671684902</ele><time>2026-02-21T21:45:48Z</time></trkpt><trkpt lat="33.5171137" lon="132.7257366"><ele>737.4383606793477</ele><time>2026-02-21T21:51:10Z</time></trkpt><trkpt lat="33.5173002" lon="132.7256031"><ele>735.5313643461712</ele><time>2026-02-21T21:51:22Z</time></trkpt><trkpt lat="33.5173643" lon="132.7253907"><ele>732.3653644184584</ele><time>2026-02-21T21:51:34Z</time></trkpt><trkpt lat="33.5173673" lon="132.7251684"><ele>729.1384769713119</ele><time>2026-02-21T21:51:52Z</time></trkpt><trkpt lat="33.5173532" lon="132.7249264"><ele>726.4928797785765</ele><time>2026-02-21T21:52:16Z</time></trkpt><trkpt lat="33.517356" lon="132.7246774"><ele>723.8221536309557</ele><time>2026-02-21T21:52:38Z</time></trkpt><trkpt lat="33.5173015" lon="132.7244539"><ele>722.6749541059116</ele><time>2026-02-21T21:52:55Z</time></trkpt><trkpt lat="33.5173974" lon="132.7242478"><ele>721.8711751539144</ele><time>2026-02-21T21:53:52Z</time></trkpt><trkpt lat="33.5174761" lon="132.7240277"><ele>721.155097478906</ele><time>2026-02-21T21:54:04Z</time></trkpt><trkpt lat="33.51752" lon="132.7238054"><ele>719.3488280122989</ele><time>2026-02-21T21:54:16Z</time></trkpt><trkpt lat="33.5176386" lon="132.7236093"><ele>716.6435116893781</ele><time>2026-02-21T21:54:34Z</time></trkpt><trkpt lat="33.5177708" lon="132.7234549"><ele>712.9088814050542</ele><time>2026-02-21T21:54:49Z</time></trkpt><trkpt lat="33.5175473" lon="132.7234411"><ele>706.0690730631408</ele><time>2026-02-21T21:55:31Z</time></trkpt><trkpt lat="33.5173857" lon="132.7232764"><ele>700.7863497532447</ele><time>2026-02-21T21:55:49Z</time></trkpt><trkpt lat="33.517202" lon="132.7232317"><ele>695.6620523568212</ele><time>2026-02-21T21:56:04Z</time></trkpt><trkpt lat="33.5170204" lon="132.7232427"><ele>694.2374065261065</ele><time>2026-02-21T21:56:19Z</time></trkpt><trkpt lat="33.5168301" lon="132.7232082"><ele>691.9091471492126</ele><time>2026-02-21T21:56:52Z</time></trkpt><trkpt lat="33.5166191" lon="132.7231786"><ele>690.0791995004232</ele><time>2026-02-21T21:57:07Z</time></trkpt><trkpt lat="33.5164539" lon="132.7230347"><ele>688.4751753645982</ele><time>2026-02-21T21:57:25Z</time></trkpt><trkpt lat="33.5163706" lon="132.7228064"><ele>687.0507250111917</ele><time>2026-02-21T21:57:43Z</time></trkpt><trkpt lat="33.5163079" lon="132.7225866"><ele>686.928853801603</ele><time>2026-02-21T21:57:58Z</time></trkpt><trkpt lat="33.5161635" lon="132.7223995"><ele>685.8242536991812</ele><time>2026-02-21T21:58:16Z</time></trkpt><trkpt lat="33.5159822" lon="132.7223299"><ele>685.5366864601398</ele><time>2026-02-21T21:58:31Z</time></trkpt><trkpt lat="33.5157942" lon="132.72235"><ele>683.9103796086374</ele><time>2026-02-21T21:58:46Z</time></trkpt><trkpt lat="33.5155938" lon="132.7223395"><ele>682.8535659866997</ele><time>2026-02-21T21:59:03Z</time></trkpt><trkpt lat="33.5154071" lon="132.7222653"><ele>681.7917921123302</ele><time>2026-02-21T21:59:20Z</time></trkpt><trkpt lat="33.5152327" lon="132.7221334"><ele>682.1219317527276</ele><time>2026-02-21T21:59:46Z</time></trkpt><trkpt lat="33.5150454" lon="132.722079"><ele>682.6058744686568</ele><time>2026-02-21T22:00:01Z</time></trkpt><trkpt lat="33.5148644" lon="132.721936"><ele>682.8422966861696</ele><time>2026-02-21T22:00:18Z</time></trkpt><trkpt lat="33.5147063" lon="132.7218318"><ele>681.7057774914631</ele><time>2026-02-21T22:00:30Z</time></trkpt><trkpt lat="33.514515" lon="132.721711"><ele>680.387993401926</ele><time>2026-02-21T22:00:46Z</time></trkpt><trkpt lat="33.5143104" lon="132.7216223"><ele>678.8081651339568</ele><time>2026-02-21T22:01:04Z</time></trkpt><trkpt lat="33.514136" lon="132.7215011"><ele>678.0828640403171</ele><time>2026-02-21T22:01:19Z</time></trkpt><trkpt lat="33.5139633" lon="132.7214349"><ele>678.2004968103631</ele><time>2026-02-21T22:01:33Z</time></trkpt><trkpt lat="33.5137751" lon="132.7213786"><ele>678.732628444022</ele><time>2026-02-21T22:01:50Z</time></trkpt><trkpt lat="33.5135847" lon="132.7213437"><ele>679.4440700380783</ele><time>2026-02-21T22:02:08Z</time></trkpt><trkpt lat="33.5134325" lon="132.7211971"><ele>680.9065480271576</ele><time>2026-02-21T22:02:28Z</time></trkpt><trkpt lat="33.5132896" lon="132.7210355"><ele>681.870911141207</ele><time>2026-02-21T22:02:45Z</time></trkpt><trkpt lat="33.5131522" lon="132.7208855"><ele>682.7138612897297</ele><time>2026-02-21T22:03:03Z</time></trkpt><trkpt lat="33.5130174" lon="132.7206977"><ele>681.1812983467308</ele><time>2026-02-21T22:03:20Z</time></trkpt><trkpt lat="33.5128962" lon="132.7204902"><ele>679.8789027572867</ele><time>2026-02-21T22:03:37Z</time></trkpt><trkpt lat="33.5128702" lon="132.7202763"><ele>677.6806921541719</ele><time>2026-02-21T22:03:51Z</time></trkpt><trkpt lat="33.5128178" lon="132.7200344"><ele>676.0990884425236</ele><time>2026-02-21T22:04:09Z</time></trkpt><trkpt lat="33.5127299" lon="132.7198015"><ele>674.0312189086222</ele><time>2026-02-21T22:04:26Z</time></trkpt><trkpt lat="33.5126796" lon="132.7195597"><ele>672.3040736266001</ele><time>2026-02-21T22:04:43Z</time></trkpt><trkpt lat="33.5125846" lon="132.7193504"><ele>670.7178200899067</ele><time>2026-02-21T22:05:00Z</time></trkpt><trkpt lat="33.5125367" lon="132.7191015"><ele>669.3619446214417</ele><time>2026-02-21T22:05:17Z</time></trkpt><trkpt lat="33.5124614" lon="132.7188998"><ele>668.2070723898228</ele><time>2026-02-21T22:05:32Z</time></trkpt><trkpt lat="33.5123983" lon="132.7186714"><ele>666.4503369007407</ele><time>2026-02-21T22:05:47Z</time></trkpt><trkpt lat="33.5122741" lon="132.7188672"><ele>663.9488361404484</ele><time>2026-02-21T22:07:31Z</time></trkpt><trkpt lat="33.5121019" lon="132.718756"><ele>659.0867622413884</ele><time>2026-02-21T22:08:01Z</time></trkpt><trkpt lat="33.5119358" lon="132.7188554"><ele>653.9647714715353</ele><time>2026-02-21T22:08:16Z</time></trkpt><trkpt lat="33.5119795" lon="132.7190679"><ele>649.1717667345571</ele><time>2026-02-21T22:08:37Z</time></trkpt></trkseg></trk></gpx>