<?xml version='1.0' encoding='UTF-8'?><gpx creator="Yama Museum Summit Candidate Generator" xsi:schemaLocation="http://www.topografix.com/GPX/1/1 http://www.topografix.com/GPX/1/1/gpx.xsd" version="1.1" xmlns="http://www.topografix.com/GPX/1/1" xmlns:xsi="http://www.w3.org/2001/XMLSchema-instance" xmlns:yama="https://museum-yama-data.moukaeritai.work/ns/yama-data/0.1"><metadata><bounds maxlat="33.5011491" maxlon="132.5639835" minlat="33.4830298" minlon="132.557373"/><name>梁瀬山・紅葉山</name><extensions><yama:source_gpx_basename>yamap_2025-12-14_08_56.gpx</yama:source_gpx_basename><yama:source_gpx_relative_path>data/01_raw/gpx/2026-05-12/yamap_2025-12-14_08_56.gpx</yama:source_gpx_relative_path><yama:detection_parameters>window=5,radius=10,min_prominence=30,merge=100</yama:detection_parameters></extensions></metadata><wpt lat="33.4832129" lon="132.5575289"><ele>373.03999999999996</ele><time>2025-12-14T01:37:34Z</time><name>summit-candidate:d663a75e24f23530</name><desc>Summit candidate detected at elevation 373.03999999999996m with prominence 352.62600000000003m.</desc><sym>Summit Candidate</sym><extensions><yama:source_trackpoint_index>137</yama:source_trackpoint_index><yama:valid_elevation_index>137</yama:valid_elevation_index><yama:smoothed_ele>370.9626666666667</yama:smoothed_ele><yama:prominence>352.62600000000003</yama:prominence><yama:detection_method>local_maxima_with_prominence</yama:detection_method><yama:detection_parameters>window=5,radius=10,min_prominence=30,merge=100</yama:detection_parameters><yama:candidate_status>unresolved</yama:candidate_status></extensions></wpt>
  <wpt lat="33.4920833" lon="132.5614224"><ele>371.28</ele><time>2025-12-14T02:00:29Z</time><name>summit-candidate:6b62cbb916ef874d</name><desc>Summit candidate detected at elevation 371.28m with prominence 88.38266666666664m.</desc><sym>Summit Candidate</sym><extensions><yama:source_trackpoint_index>192</yama:source_trackpoint_index><yama:valid_elevation_index>192</yama:valid_elevation_index><yama:smoothed_ele>370.7606666666667</yama:smoothed_ele><yama:prominence>88.38266666666664</yama:prominence><yama:detection_method>local_maxima_with_prominence</yama:detection_method><yama:detection_parameters>window=5,radius=10,min_prominence=30,merge=100</yama:detection_parameters><yama:candidate_status>unresolved</yama:candidate_status></extensions></wpt>
  <trk><name>梁瀬山・紅葉山</name><number>1</number><trkseg><trkpt lat="33.5010807" lon="132.5613037"><ele>17.86</ele><time>2025-12-13T23:56:50Z</time></trkpt><trkpt lat="33.5009025" lon="132.561406"><ele>17.82</ele><time>2025-12-13T23:57:13Z</time></trkpt><trkpt lat="33.5007268" lon="132.5614645"><ele>18.103333333333335</ele><time>2025-12-13T23:57:37Z</time></trkpt><trkpt lat="33.5005713" lon="132.561577"><ele>19.243333333333336</ele><time>2025-12-13T23:58:19Z</time></trkpt><trkpt lat="33.5004531" lon="132.5617601"><ele>21.883333333333336</ele><time>2025-12-13T23:58:40Z</time></trkpt><trkpt lat="33.5004604" lon="132.5619758"><ele>23.786666666666665</ele><time>2025-12-13T23:58:57Z</time></trkpt><trkpt lat="33.5006009" lon="132.5621315"><ele>24.7</ele><time>2025-12-13T23:59:15Z</time></trkpt><trkpt lat="33.5006303" lon="132.5623482"><ele>24.73</ele><time>2025-12-13T23:59:35Z</time></trkpt><trkpt lat="33.5005137" lon="132.5625148"><ele>27.263333333333335</ele><time>2025-12-13T23:59:56Z</time></trkpt><trkpt lat="33.5003702" lon="132.5623726"><ele>30.959999999999997</ele><time>2025-12-14T00:00:33Z</time></trkpt><trkpt lat="33.5001822" lon="132.5624052"><ele>35.77666666666667</ele><time>2025-12-14T00:01:03Z</time></trkpt><trkpt lat="33.5002532" lon="132.5626065"><ele>38.13999999999999</ele><time>2025-12-14T00:02:44Z</time></trkpt><trkpt lat="33.5000742" lon="132.5626524"><ele>41.54666666666667</ele><time>2025-12-14T00:03:44Z</time></trkpt><trkpt lat="33.4998971" lon="132.5626051"><ele>45.25666666666667</ele><time>2025-12-14T00:05:09Z</time></trkpt><trkpt lat="33.4997072" lon="132.562539"><ele>53.199999999999996</ele><time>2025-12-14T00:06:54Z</time></trkpt><trkpt lat="33.4995239" lon="132.5625354"><ele>62.823333333333345</ele><time>2025-12-14T00:07:30Z</time></trkpt><trkpt lat="33.4993312" lon="132.5624697"><ele>72.67666666666666</ele><time>2025-12-14T00:08:50Z</time></trkpt><trkpt lat="33.499135" lon="132.5624586"><ele>83.74666666666667</ele><time>2025-12-14T00:09:27Z</time></trkpt><trkpt lat="33.498955" lon="132.5625083"><ele>95.22000000000001</ele><time>2025-12-14T00:10:33Z</time></trkpt><trkpt lat="33.4987832" lon="132.5624416"><ele>107.38666666666667</ele><time>2025-12-14T00:11:54Z</time></trkpt><trkpt lat="33.4986378" lon="132.5622865"><ele>116.94333333333334</ele><time>2025-12-14T00:12:42Z</time></trkpt><trkpt lat="33.4985085" lon="132.56212"><ele>125.15333333333335</ele><time>2025-12-14T00:13:13Z</time></trkpt><trkpt lat="33.4983701" lon="132.5619759"><ele>132.71666666666667</ele><time>2025-12-14T00:13:40Z</time></trkpt><trkpt lat="33.4981915" lon="132.5618656"><ele>139.5</ele><time>2025-12-14T00:14:12Z</time></trkpt><trkpt lat="33.4980143" lon="132.5619404"><ele>146.04333333333332</ele><time>2025-12-14T00:15:06Z</time></trkpt><trkpt lat="33.4978532" lon="132.5620474"><ele>151.63</ele><time>2025-12-14T00:15:51Z</time></trkpt><trkpt lat="33.4976379" lon="132.5620624"><ele>156.03666666666666</ele><time>2025-12-14T00:16:47Z</time></trkpt><trkpt lat="33.4974568" lon="132.5620154"><ele>158.9466666666667</ele><time>2025-12-14T00:17:05Z</time></trkpt><trkpt lat="33.4973039" lon="132.5618741"><ele>160.83666666666667</ele><time>2025-12-14T00:17:32Z</time></trkpt><trkpt lat="33.4971497" lon="132.5616993"><ele>163.04666666666665</ele><time>2025-12-14T00:19:31Z</time></trkpt><trkpt lat="33.4969759" lon="132.5615997"><ele>165.33333333333334</ele><time>2025-12-14T00:20:28Z</time></trkpt><trkpt lat="33.4968144" lon="132.5617027"><ele>168.67999999999998</ele><time>2025-12-14T00:28:57Z</time></trkpt><trkpt lat="33.4967398" lon="132.5619113"><ele>173.06333333333336</ele><time>2025-12-14T00:29:34Z</time></trkpt><trkpt lat="33.4966848" lon="132.5621332"><ele>177.45333333333335</ele><time>2025-12-14T00:30:10Z</time></trkpt><trkpt lat="33.4966256" lon="132.562342"><ele>183.35999999999999</ele><time>2025-12-14T00:30:43Z</time></trkpt><trkpt lat="33.4967462" lon="132.5625315"><ele>186.6266666666667</ele><time>2025-12-14T00:31:35Z</time></trkpt><trkpt lat="33.4967425" lon="132.5627603"><ele>191.41</ele><time>2025-12-14T00:31:54Z</time></trkpt><trkpt lat="33.4966752" lon="132.5629787"><ele>195.19333333333336</ele><time>2025-12-14T00:32:23Z</time></trkpt><trkpt lat="33.4965293" lon="132.5631101"><ele>202.92999999999998</ele><time>2025-12-14T00:32:58Z</time></trkpt><trkpt lat="33.4963407" lon="132.5631581"><ele>210.07333333333335</ele><time>2025-12-14T00:34:04Z</time></trkpt><trkpt lat="33.4961563" lon="132.5631809"><ele>217.56333333333336</ele><time>2025-12-14T00:34:32Z</time></trkpt><trkpt lat="33.4959942" lon="132.563293"><ele>226.15</ele><time>2025-12-14T00:35:08Z</time></trkpt><trkpt lat="33.4958733" lon="132.5630982"><ele>233.52666666666664</ele><time>2025-12-14T00:37:54Z</time></trkpt><trkpt lat="33.4957039" lon="132.5629903"><ele>239.60333333333335</ele><time>2025-12-14T00:38:18Z</time></trkpt><trkpt lat="33.4955021" lon="132.5629705"><ele>244.8066666666667</ele><time>2025-12-14T00:38:45Z</time></trkpt><trkpt lat="33.4953126" lon="132.563048"><ele>251.98333333333335</ele><time>2025-12-14T00:39:25Z</time></trkpt><trkpt lat="33.4951104" lon="132.5631136"><ele>261.21000000000004</ele><time>2025-12-14T00:40:02Z</time></trkpt><trkpt lat="33.4949471" lon="132.5632096"><ele>269.29333333333335</ele><time>2025-12-14T00:40:53Z</time></trkpt><trkpt lat="33.4947937" lon="132.5633379"><ele>276.9166666666667</ele><time>2025-12-14T00:42:21Z</time></trkpt><trkpt lat="33.4948253" lon="132.5635507"><ele>283.0833333333333</ele><time>2025-12-14T00:43:42Z</time></trkpt><trkpt lat="33.4947816" lon="132.5637627"><ele>288.99333333333334</ele><time>2025-12-14T00:44:09Z</time></trkpt><trkpt lat="33.4948651" lon="132.5639574"><ele>290.69666666666666</ele><time>2025-12-14T00:44:33Z</time></trkpt><trkpt lat="33.4950446" lon="132.5639835"><ele>288.94</ele><time>2025-12-14T00:45:44Z</time></trkpt><trkpt lat="33.4949003" lon="132.5638328"><ele>286.0466666666666</ele><time>2025-12-14T00:46:47Z</time></trkpt><trkpt lat="33.4947871" lon="132.5636368"><ele>287.57</ele><time>2025-12-14T00:47:48Z</time></trkpt><trkpt lat="33.4946013" lon="132.5636484"><ele>293.06666666666666</ele><time>2025-12-14T00:48:12Z</time></trkpt><trkpt lat="33.4944052" lon="132.5636329"><ele>300.05333333333334</ele><time>2025-12-14T00:50:11Z</time></trkpt><trkpt lat="33.4942052" lon="132.563663"><ele>306.8433333333333</ele><time>2025-12-14T00:50:38Z</time></trkpt><trkpt lat="33.4940404" lon="132.5635643"><ele>313.6466666666667</ele><time>2025-12-14T00:51:47Z</time></trkpt><trkpt lat="33.4938636" lon="132.563492"><ele>321.0966666666667</ele><time>2025-12-14T00:52:26Z</time></trkpt><trkpt lat="33.4937041" lon="132.56335"><ele>326.35999999999996</ele><time>2025-12-14T00:53:26Z</time></trkpt><trkpt lat="33.4935424" lon="132.5632213"><ele>332.41</ele><time>2025-12-14T00:53:47Z</time></trkpt><trkpt lat="33.4933939" lon="132.5630914"><ele>337.81333333333333</ele><time>2025-12-14T00:54:51Z</time></trkpt><trkpt lat="33.4931983" lon="132.5630116"><ele>345.9266666666667</ele><time>2025-12-14T00:55:30Z</time></trkpt><trkpt lat="33.4930391" lon="132.5629053"><ele>352.8</ele><time>2025-12-14T00:55:58Z</time></trkpt><trkpt lat="33.4928637" lon="132.5629702"><ele>358.6566666666667</ele><time>2025-12-14T00:56:55Z</time></trkpt><trkpt lat="33.4928791" lon="132.5631911"><ele>362.50666666666666</ele><time>2025-12-14T00:57:22Z</time></trkpt><trkpt lat="33.4929764" lon="132.5633857"><ele>365.48333333333335</ele><time>2025-12-14T00:57:43Z</time></trkpt><trkpt lat="33.4930702" lon="132.563573"><ele>367.81666666666666</ele><time>2025-12-14T00:58:05Z</time></trkpt><trkpt lat="33.4931589" lon="132.5637608"><ele>369.45666666666665</ele><time>2025-12-14T00:58:30Z</time></trkpt><trkpt lat="33.493089" lon="132.5635297"><ele>370.1333333333334</ele><time>2025-12-14T01:03:36Z</time></trkpt><trkpt lat="33.4929887" lon="132.5633505"><ele>369.56333333333333</ele><time>2025-12-14T01:03:54Z</time></trkpt><trkpt lat="33.4928562" lon="132.5631607"><ele>367.0833333333333</ele><time>2025-12-14T01:04:15Z</time></trkpt><trkpt lat="33.4928729" lon="132.5629457"><ele>364.75</ele><time>2025-12-14T01:04:54Z</time></trkpt><trkpt lat="33.4928206" lon="132.5627379"><ele>363.06</ele><time>2025-12-14T01:05:15Z</time></trkpt><trkpt lat="33.4926813" lon="132.5625748"><ele>362.94666666666666</ele><time>2025-12-14T01:05:30Z</time></trkpt><trkpt lat="33.4925662" lon="132.5623944"><ele>362.7966666666667</ele><time>2025-12-14T01:05:45Z</time></trkpt><trkpt lat="33.4924713" lon="132.5621796"><ele>364.40000000000003</ele><time>2025-12-14T01:06:06Z</time></trkpt><trkpt lat="33.4923345" lon="132.5620076"><ele>366.6933333333333</ele><time>2025-12-14T01:06:36Z</time></trkpt><trkpt lat="33.4921739" lon="132.5618804"><ele>369.16</ele><time>2025-12-14T01:06:55Z</time></trkpt><trkpt lat="33.492098" lon="132.561653"><ele>369.75666666666666</ele><time>2025-12-14T01:07:12Z</time></trkpt><trkpt lat="33.4920062" lon="132.5614479"><ele>369.3966666666667</ele><time>2025-12-14T01:07:27Z</time></trkpt><trkpt lat="33.4919719" lon="132.5612172"><ele>369.84666666666664</ele><time>2025-12-14T01:07:48Z</time></trkpt><trkpt lat="33.4919597" lon="132.5609873"><ele>370.71999999999997</ele><time>2025-12-14T01:08:06Z</time></trkpt><trkpt lat="33.4919121" lon="132.5607649"><ele>371.21999999999997</ele><time>2025-12-14T01:08:27Z</time></trkpt><trkpt lat="33.4917599" lon="132.5606125"><ele>368.5366666666667</ele><time>2025-12-14T01:08:46Z</time></trkpt><trkpt lat="33.4916404" lon="132.5604163"><ele>364.55</ele><time>2025-12-14T01:09:10Z</time></trkpt><trkpt lat="33.4914365" lon="132.5603986"><ele>359.8966666666667</ele><time>2025-12-14T01:09:24Z</time></trkpt><trkpt lat="33.4912525" lon="132.5603375"><ele>356.5933333333333</ele><time>2025-12-14T01:09:42Z</time></trkpt><trkpt lat="33.491071" lon="132.560242"><ele>352.24</ele><time>2025-12-14T01:10:03Z</time></trkpt><trkpt lat="33.4909306" lon="132.5600925"><ele>346.3333333333333</ele><time>2025-12-14T01:10:26Z</time></trkpt><trkpt lat="33.4907942" lon="132.5599478"><ele>339.81666666666666</ele><time>2025-12-14T01:10:45Z</time></trkpt><trkpt lat="33.4905819" lon="132.55996"><ele>333.31666666666666</ele><time>2025-12-14T01:11:12Z</time></trkpt><trkpt lat="33.490376" lon="132.5598859"><ele>329.3533333333333</ele><time>2025-12-14T01:12:00Z</time></trkpt><trkpt lat="33.4901948" lon="132.5598057"><ele>326.26</ele><time>2025-12-14T01:12:15Z</time></trkpt><trkpt lat="33.490014" lon="132.5596717"><ele>323.9766666666667</ele><time>2025-12-14T01:12:33Z</time></trkpt><trkpt lat="33.4898493" lon="132.5595389"><ele>322.81</ele><time>2025-12-14T01:12:50Z</time></trkpt><trkpt lat="33.4896751" lon="132.5594363"><ele>322.1066666666666</ele><time>2025-12-14T01:13:09Z</time></trkpt><trkpt lat="33.4894807" lon="132.5594298"><ele>322.13000000000005</ele><time>2025-12-14T01:13:30Z</time></trkpt><trkpt lat="33.4892931" lon="132.5594634"><ele>320.58666666666664</ele><time>2025-12-14T01:13:48Z</time></trkpt><trkpt lat="33.4890888" lon="132.559568"><ele>318.0733333333333</ele><time>2025-12-14T01:14:15Z</time></trkpt><trkpt lat="33.4888842" lon="132.5596323"><ele>315.31666666666666</ele><time>2025-12-14T01:14:32Z</time></trkpt><trkpt lat="33.4887033" lon="132.5595952"><ele>311.63666666666666</ele><time>2025-12-14T01:14:47Z</time></trkpt><trkpt lat="33.4885481" lon="132.5594832"><ele>308.18666666666667</ele><time>2025-12-14T01:15:02Z</time></trkpt><trkpt lat="33.4883877" lon="132.5593624"><ele>304.84999999999997</ele><time>2025-12-14T01:15:18Z</time></trkpt><trkpt lat="33.4882036" lon="132.5593202"><ele>301.5133333333334</ele><time>2025-12-14T01:15:33Z</time></trkpt><trkpt lat="33.4880206" lon="132.5593654"><ele>297.8966666666667</ele><time>2025-12-14T01:15:48Z</time></trkpt><trkpt lat="33.4878111" lon="132.5593632"><ele>293.5</ele><time>2025-12-14T01:16:06Z</time></trkpt><trkpt lat="33.4876298" lon="132.5594487"><ele>289.69</ele><time>2025-12-14T01:16:23Z</time></trkpt><trkpt lat="33.4874437" lon="132.5593703"><ele>287.1466666666667</ele><time>2025-12-14T01:16:39Z</time></trkpt><trkpt lat="33.4872459" lon="132.5593022"><ele>285.8966666666667</ele><time>2025-12-14T01:16:56Z</time></trkpt><trkpt lat="33.4871021" lon="132.5591702"><ele>285.5366666666667</ele><time>2025-12-14T01:17:11Z</time></trkpt><trkpt lat="33.4869146" lon="132.5590089"><ele>284.25333333333333</ele><time>2025-12-14T01:17:33Z</time></trkpt><trkpt lat="33.4867511" lon="132.5589024"><ele>283.3333333333333</ele><time>2025-12-14T01:17:57Z</time></trkpt><trkpt lat="33.4866168" lon="132.5587282"><ele>282.51</ele><time>2025-12-14T01:18:09Z</time></trkpt><trkpt lat="33.4864139" lon="132.5586051"><ele>282.1933333333333</ele><time>2025-12-14T01:18:25Z</time></trkpt><trkpt lat="33.4862363" lon="132.5586533"><ele>282.50666666666666</ele><time>2025-12-14T01:18:40Z</time></trkpt><trkpt lat="33.4860238" lon="132.5586267"><ele>283.58666666666664</ele><time>2025-12-14T01:18:58Z</time></trkpt><trkpt lat="33.4858406" lon="132.5585931"><ele>287.12333333333333</ele><time>2025-12-14T01:19:22Z</time></trkpt><trkpt lat="33.485675" lon="132.5584601"><ele>290.4766666666667</ele><time>2025-12-14T01:20:21Z</time></trkpt><trkpt lat="33.4855176" lon="132.5583277"><ele>294.77</ele><time>2025-12-14T01:20:42Z</time></trkpt><trkpt lat="33.4854409" lon="132.5585277"><ele>299.7966666666666</ele><time>2025-12-14T01:21:18Z</time></trkpt><trkpt lat="33.4852592" lon="132.5585211"><ele>306.19666666666666</ele><time>2025-12-14T01:22:18Z</time></trkpt><trkpt lat="33.4850608" lon="132.5585097"><ele>313.06333333333333</ele><time>2025-12-14T01:23:03Z</time></trkpt><trkpt lat="33.4848693" lon="132.5585704"><ele>318.31333333333333</ele><time>2025-12-14T01:23:18Z</time></trkpt><trkpt lat="33.4847102" lon="132.558433"><ele>321.81666666666666</ele><time>2025-12-14T01:23:33Z</time></trkpt><trkpt lat="33.4845149" lon="132.5584627"><ele>324.7</ele><time>2025-12-14T01:24:00Z</time></trkpt><trkpt lat="33.4843352" lon="132.5584047"><ele>329.1433333333334</ele><time>2025-12-14T01:24:29Z</time></trkpt><trkpt lat="33.4841508" lon="132.5584618"><ele>335.32666666666665</ele><time>2025-12-14T01:26:08Z</time></trkpt><trkpt lat="33.4839696" lon="132.5584377"><ele>342.7633333333333</ele><time>2025-12-14T01:26:31Z</time></trkpt><trkpt lat="33.4838296" lon="132.5582985"><ele>349.43</ele><time>2025-12-14T01:27:43Z</time></trkpt><trkpt lat="33.4836385" lon="132.5582571"><ele>356.01</ele><time>2025-12-14T01:28:29Z</time></trkpt><trkpt lat="33.4835035" lon="132.558092"><ele>360.1233333333334</ele><time>2025-12-14T01:28:59Z</time></trkpt><trkpt lat="33.4833533" lon="132.5578948"><ele>362.7966666666667</ele><time>2025-12-14T01:29:20Z</time></trkpt><trkpt lat="33.4832267" lon="132.5577386"><ele>365.2833333333333</ele><time>2025-12-14T01:29:41Z</time></trkpt><trkpt lat="33.4831041" lon="132.5575794"><ele>369.03333333333336</ele><time>2025-12-14T01:30:11Z</time></trkpt><trkpt lat="33.4830298" lon="132.557373"><ele>371.94000000000005</ele><time>2025-12-14T01:30:59Z</time></trkpt><trkpt lat="33.4832129" lon="132.5575289"><ele>373.03999999999996</ele><time>2025-12-14T01:37:34Z</time></trkpt><trkpt lat="33.4832068" lon="132.5577467"><ele>371.8533333333333</ele><time>2025-12-14T01:37:46Z</time></trkpt><trkpt lat="33.4833449" lon="132.5579051"><ele>368.9466666666667</ele><time>2025-12-14T01:38:10Z</time></trkpt><trkpt lat="33.4834888" lon="132.5580507"><ele>364.95</ele><time>2025-12-14T01:38:34Z</time></trkpt><trkpt lat="33.4836391" lon="132.5582325"><ele>362.27</ele><time>2025-12-14T01:39:34Z</time></trkpt><trkpt lat="33.4838193" lon="132.5583384"><ele>359.59666666666664</ele><time>2025-12-14T01:39:52Z</time></trkpt><trkpt lat="33.4840137" lon="132.5584183"><ele>355.27333333333337</ele><time>2025-12-14T01:40:09Z</time></trkpt><trkpt lat="33.4841991" lon="132.5585094"><ele>348.6933333333333</ele><time>2025-12-14T01:40:39Z</time></trkpt><trkpt lat="33.484403" lon="132.5584462"><ele>340.7566666666667</ele><time>2025-12-14T01:40:59Z</time></trkpt><trkpt lat="33.484589" lon="132.5584003"><ele>333.19000000000005</ele><time>2025-12-14T01:41:22Z</time></trkpt><trkpt lat="33.4847659" lon="132.5584946"><ele>327.17</ele><time>2025-12-14T01:41:43Z</time></trkpt><trkpt lat="33.4849591" lon="132.5585426"><ele>323.2966666666667</ele><time>2025-12-14T01:42:03Z</time></trkpt><trkpt lat="33.4851643" lon="132.5585386"><ele>320.0733333333333</ele><time>2025-12-14T01:42:21Z</time></trkpt><trkpt lat="33.4853484" lon="132.5585833"><ele>316.24</ele><time>2025-12-14T01:42:44Z</time></trkpt><trkpt lat="33.4855728" lon="132.5585687"><ele>311.2</ele><time>2025-12-14T01:43:05Z</time></trkpt><trkpt lat="33.485753" lon="132.5585566"><ele>304.3533333333333</ele><time>2025-12-14T01:43:22Z</time></trkpt><trkpt lat="33.4859095" lon="132.5586638"><ele>296.94</ele><time>2025-12-14T01:43:43Z</time></trkpt><trkpt lat="33.4861097" lon="132.5586506"><ele>290.55333333333334</ele><time>2025-12-14T01:44:01Z</time></trkpt><trkpt lat="33.4863086" lon="132.5586206"><ele>286.2066666666667</ele><time>2025-12-14T01:44:16Z</time></trkpt><trkpt lat="33.4864655" lon="132.5587421"><ele>283.68333333333334</ele><time>2025-12-14T01:44:31Z</time></trkpt><trkpt lat="33.4866546" lon="132.5587886"><ele>282.2366666666667</ele><time>2025-12-14T01:44:45Z</time></trkpt><trkpt lat="33.486823" lon="132.5588947"><ele>282.68666666666667</ele><time>2025-12-14T01:45:00Z</time></trkpt><trkpt lat="33.4869459" lon="132.5590879"><ele>282.2266666666667</ele><time>2025-12-14T01:45:14Z</time></trkpt><trkpt lat="33.4870493" lon="132.559275"><ele>281.9433333333333</ele><time>2025-12-14T01:45:30Z</time></trkpt><trkpt lat="33.4872491" lon="132.5592919"><ele>282.7966666666666</ele><time>2025-12-14T01:45:51Z</time></trkpt><trkpt lat="33.4874274" lon="132.5593506"><ele>283.92333333333335</ele><time>2025-12-14T01:46:13Z</time></trkpt><trkpt lat="33.4875951" lon="132.5594334"><ele>285.57</ele><time>2025-12-14T01:46:34Z</time></trkpt><trkpt lat="33.487804" lon="132.5594678"><ele>285.68333333333334</ele><time>2025-12-14T01:46:52Z</time></trkpt><trkpt lat="33.4879867" lon="132.5594076"><ele>286.80333333333334</ele><time>2025-12-14T01:47:10Z</time></trkpt><trkpt lat="33.4881741" lon="132.5593947"><ele>290.61333333333334</ele><time>2025-12-14T01:47:51Z</time></trkpt><trkpt lat="33.4883627" lon="132.5594528"><ele>294.85</ele><time>2025-12-14T01:48:12Z</time></trkpt><trkpt lat="33.4885392" lon="132.55956"><ele>299.37666666666667</ele><time>2025-12-14T01:48:32Z</time></trkpt><trkpt lat="33.4887017" lon="132.5597059"><ele>302.0833333333333</ele><time>2025-12-14T01:48:52Z</time></trkpt><trkpt lat="33.4888848" lon="132.559653"><ele>306.71666666666664</ele><time>2025-12-14T01:49:46Z</time></trkpt><trkpt lat="33.4890706" lon="132.5595821"><ele>310.99333333333334</ele><time>2025-12-14T01:50:01Z</time></trkpt><trkpt lat="33.4892628" lon="132.559586"><ele>315.45</ele><time>2025-12-14T01:50:28Z</time></trkpt><trkpt lat="33.4894527" lon="132.559521"><ele>318.31333333333333</ele><time>2025-12-14T01:51:01Z</time></trkpt><trkpt lat="33.489622" lon="132.5594293"><ele>320.6766666666667</ele><time>2025-12-14T01:51:37Z</time></trkpt><trkpt lat="33.4898156" lon="132.5595163"><ele>322.0733333333333</ele><time>2025-12-14T01:52:00Z</time></trkpt><trkpt lat="33.4899779" lon="132.5596573"><ele>322.77</ele><time>2025-12-14T01:52:15Z</time></trkpt><trkpt lat="33.4901493" lon="132.5597608"><ele>322.89000000000004</ele><time>2025-12-14T01:52:31Z</time></trkpt><trkpt lat="33.4903282" lon="132.5598446"><ele>323.7633333333333</ele><time>2025-12-14T01:52:54Z</time></trkpt><trkpt lat="33.4904915" lon="132.5599435"><ele>324.6333333333334</ele><time>2025-12-14T01:53:15Z</time></trkpt><trkpt lat="33.4906888" lon="132.5599929"><ele>327.91</ele><time>2025-12-14T01:53:49Z</time></trkpt><trkpt lat="33.4908752" lon="132.5600415"><ele>332.00666666666666</ele><time>2025-12-14T01:54:44Z</time></trkpt><trkpt lat="33.4910548" lon="132.5599991"><ele>336.48333333333335</ele><time>2025-12-14T01:55:59Z</time></trkpt><trkpt lat="33.4910907" lon="132.5602284"><ele>342.3433333333333</ele><time>2025-12-14T01:56:02Z</time></trkpt><trkpt lat="33.4912774" lon="132.5603011"><ele>347.43666666666667</ele><time>2025-12-14T01:56:26Z</time></trkpt><trkpt lat="33.4914536" lon="132.5604062"><ele>353.4266666666667</ele><time>2025-12-14T01:57:07Z</time></trkpt><trkpt lat="33.4916421" lon="132.5604392"><ele>356.88000000000005</ele><time>2025-12-14T01:57:35Z</time></trkpt><trkpt lat="33.4918088" lon="132.5603424"><ele>359.98</ele><time>2025-12-14T01:57:56Z</time></trkpt><trkpt lat="33.491882" lon="132.5605574"><ele>363.78000000000003</ele><time>2025-12-14T01:58:14Z</time></trkpt><trkpt lat="33.4919103" lon="132.5607919"><ele>367.42333333333335</ele><time>2025-12-14T01:58:29Z</time></trkpt><trkpt lat="33.4919596" lon="132.5610045"><ele>370.69000000000005</ele><time>2025-12-14T01:58:43Z</time></trkpt><trkpt lat="33.4919542" lon="132.5612496"><ele>371.47</ele><time>2025-12-14T02:00:08Z</time></trkpt><trkpt lat="33.4920833" lon="132.5614224"><ele>371.28</ele><time>2025-12-14T02:00:29Z</time></trkpt><trkpt lat="33.4921214" lon="132.561658"><ele>370.4066666666667</ele><time>2025-12-14T02:00:48Z</time></trkpt><trkpt lat="33.4921989" lon="132.5618754"><ele>369.95666666666665</ele><time>2025-12-14T02:01:13Z</time></trkpt><trkpt lat="33.4923193" lon="132.5620602"><ele>369.75666666666666</ele><time>2025-12-14T02:01:31Z</time></trkpt><trkpt lat="33.4924263" lon="132.5622347"><ele>368.85999999999996</ele><time>2025-12-14T02:01:49Z</time></trkpt><trkpt lat="33.4926137" lon="132.5623277"><ele>366.62000000000006</ele><time>2025-12-14T02:02:07Z</time></trkpt><trkpt lat="33.4927" lon="132.5625273"><ele>364.32666666666665</ele><time>2025-12-14T02:02:22Z</time></trkpt><trkpt lat="33.492793" lon="132.5627158"><ele>362.71333333333337</ele><time>2025-12-14T02:02:40Z</time></trkpt><trkpt lat="33.4928897" lon="132.5629192"><ele>362.55333333333334</ele><time>2025-12-14T02:03:03Z</time></trkpt><trkpt lat="33.4930595" lon="132.5630343"><ele>362.01666666666665</ele><time>2025-12-14T02:03:49Z</time></trkpt><trkpt lat="33.4932441" lon="132.5630599"><ele>358.1433333333334</ele><time>2025-12-14T02:04:04Z</time></trkpt><trkpt lat="33.4934183" lon="132.5631697"><ele>352.8433333333333</ele><time>2025-12-14T02:04:18Z</time></trkpt><trkpt lat="33.4935263" lon="132.5633506"><ele>345.45</ele><time>2025-12-14T02:04:37Z</time></trkpt><trkpt lat="33.4937063" lon="132.5633894"><ele>339.6166666666666</ele><time>2025-12-14T02:04:55Z</time></trkpt><trkpt lat="33.4939007" lon="132.5634312"><ele>332.05</ele><time>2025-12-14T02:05:12Z</time></trkpt><trkpt lat="33.4940531" lon="132.5635659"><ele>325.7633333333333</ele><time>2025-12-14T02:05:51Z</time></trkpt><trkpt lat="33.494234" lon="132.5634702"><ele>318.8866666666667</ele><time>2025-12-14T02:06:09Z</time></trkpt><trkpt lat="33.4943308" lon="132.5636573"><ele>313.86</ele><time>2025-12-14T02:06:29Z</time></trkpt><trkpt lat="33.4945214" lon="132.5636877"><ele>308.6966666666667</ele><time>2025-12-14T02:06:43Z</time></trkpt><trkpt lat="33.4947078" lon="132.5636675"><ele>303.47</ele><time>2025-12-14T02:06:58Z</time></trkpt><trkpt lat="33.4948866" lon="132.5636019"><ele>295.5566666666667</ele><time>2025-12-14T02:07:13Z</time></trkpt><trkpt lat="33.4947204" lon="132.5634387"><ele>291.0833333333333</ele><time>2025-12-14T02:07:31Z</time></trkpt><trkpt lat="33.4947915" lon="132.5632138"><ele>286.41333333333336</ele><time>2025-12-14T02:08:29Z</time></trkpt><trkpt lat="33.4949713" lon="132.563178"><ele>282.3966666666667</ele><time>2025-12-14T02:08:50Z</time></trkpt><trkpt lat="33.4951457" lon="132.5630482"><ele>274.53000000000003</ele><time>2025-12-14T02:09:08Z</time></trkpt><trkpt lat="33.4953266" lon="132.5629801"><ele>266.36333333333334</ele><time>2025-12-14T02:09:29Z</time></trkpt><trkpt lat="33.4955161" lon="132.5630051"><ele>259.47333333333336</ele><time>2025-12-14T02:09:49Z</time></trkpt><trkpt lat="33.4957159" lon="132.5630399"><ele>252.11333333333334</ele><time>2025-12-14T02:10:06Z</time></trkpt><trkpt lat="33.4958348" lon="132.5632707"><ele>247.40666666666667</ele><time>2025-12-14T02:10:27Z</time></trkpt><trkpt lat="33.4960294" lon="132.5633032"><ele>241.23000000000002</ele><time>2025-12-14T02:10:44Z</time></trkpt><trkpt lat="33.4962051" lon="132.5632246"><ele>234.42</ele><time>2025-12-14T02:11:02Z</time></trkpt><trkpt lat="33.4964038" lon="132.5632075"><ele>225.63</ele><time>2025-12-14T02:11:20Z</time></trkpt><trkpt lat="33.4965925" lon="132.5632593"><ele>218.67666666666665</ele><time>2025-12-14T02:11:46Z</time></trkpt><trkpt lat="33.4966956" lon="132.5630394"><ele>211.59666666666666</ele><time>2025-12-14T02:12:04Z</time></trkpt><trkpt lat="33.4966621" lon="132.5628227"><ele>205.1</ele><time>2025-12-14T02:12:19Z</time></trkpt><trkpt lat="33.496695" lon="132.5625917"><ele>198.02333333333334</ele><time>2025-12-14T02:12:43Z</time></trkpt><trkpt lat="33.4967619" lon="132.5623646"><ele>191.78666666666666</ele><time>2025-12-14T02:13:07Z</time></trkpt><trkpt lat="33.4967306" lon="132.562116"><ele>186.24333333333334</ele><time>2025-12-14T02:13:28Z</time></trkpt><trkpt lat="33.4967378" lon="132.5618565"><ele>181.20000000000002</ele><time>2025-12-14T02:13:46Z</time></trkpt><trkpt lat="33.4969077" lon="132.5617484"><ele>176.08</ele><time>2025-12-14T02:14:10Z</time></trkpt><trkpt lat="33.4967886" lon="132.5615492"><ele>173.7266666666667</ele><time>2025-12-14T02:14:29Z</time></trkpt><trkpt lat="33.4969829" lon="132.5615142"><ele>171.75</ele><time>2025-12-14T02:15:06Z</time></trkpt><trkpt lat="33.4970871" lon="132.5617056"><ele>170.59666666666666</ele><time>2025-12-14T02:16:00Z</time></trkpt><trkpt lat="33.4972355" lon="132.5618625"><ele>167.15666666666667</ele><time>2025-12-14T02:16:19Z</time></trkpt><trkpt lat="33.4973705" lon="132.5620257"><ele>164.49666666666667</ele><time>2025-12-14T02:16:39Z</time></trkpt><trkpt lat="33.497546" lon="132.56197"><ele>161.70333333333335</ele><time>2025-12-14T02:17:15Z</time></trkpt><trkpt lat="33.4977386" lon="132.5620141"><ele>159.65333333333334</ele><time>2025-12-14T02:17:36Z</time></trkpt><trkpt lat="33.4979461" lon="132.5619305"><ele>156.78666666666666</ele><time>2025-12-14T02:17:55Z</time></trkpt><trkpt lat="33.4981468" lon="132.561949"><ele>153.75666666666666</ele><time>2025-12-14T02:18:19Z</time></trkpt><trkpt lat="33.4982055" lon="132.5621633"><ele>149.88666666666666</ele><time>2025-12-14T02:18:40Z</time></trkpt><trkpt lat="33.4984062" lon="132.5621401"><ele>144.51</ele><time>2025-12-14T02:19:03Z</time></trkpt><trkpt lat="33.4985552" lon="132.5622878"><ele>137.94333333333336</ele><time>2025-12-14T02:19:18Z</time></trkpt><trkpt lat="33.4987216" lon="132.5623943"><ele>129.65333333333334</ele><time>2025-12-14T02:19:35Z</time></trkpt><trkpt lat="33.4988585" lon="132.5625828"><ele>120.93</ele><time>2025-12-14T02:19:53Z</time></trkpt><trkpt lat="33.4990152" lon="132.5624433"><ele>112.78666666666668</ele><time>2025-12-14T02:20:15Z</time></trkpt><trkpt lat="33.4991981" lon="132.5625084"><ele>102.73333333333335</ele><time>2025-12-14T02:21:02Z</time></trkpt><trkpt lat="33.4993847" lon="132.562553"><ele>92.62333333333333</ele><time>2025-12-14T02:21:35Z</time></trkpt><trkpt lat="33.4995867" lon="132.5625522"><ele>81.31</ele><time>2025-12-14T02:22:21Z</time></trkpt><trkpt lat="33.4997646" lon="132.5624537"><ele>70.26</ele><time>2025-12-14T02:22:56Z</time></trkpt><trkpt lat="33.4999656" lon="132.5624489"><ele>59.44</ele><time>2025-12-14T02:23:17Z</time></trkpt><trkpt lat="33.4999836" lon="132.5626814"><ele>51.669999999999995</ele><time>2025-12-14T02:23:25Z</time></trkpt><trkpt lat="33.5001764" lon="132.5626787"><ele>46.19333333333333</ele><time>2025-12-14T02:24:14Z</time></trkpt><trkpt lat="33.5002241" lon="132.5624555"><ele>43.660000000000004</ele><time>2025-12-14T02:24:38Z</time></trkpt><trkpt lat="33.5003994" lon="132.5624001"><ele>38.67</ele><time>2025-12-14T02:26:10Z</time></trkpt><trkpt lat="33.5005829" lon="132.5624762"><ele>34.36000000000001</ele><time>2025-12-14T02:26:36Z</time></trkpt><trkpt lat="33.5007155" lon="132.5623242"><ele>28.416666666666668</ele><time>2025-12-14T02:27:07Z</time></trkpt><trkpt lat="33.5006115" lon="132.5621016"><ele>24.97666666666667</ele><time>2025-12-14T02:27:22Z</time></trkpt><trkpt lat="33.5005111" lon="132.5619132"><ele>22.78333333333333</ele><time>2025-12-14T02:27:37Z</time></trkpt><trkpt lat="33.5006198" lon="132.5617044"><ele>21.193333333333335</ele><time>2025-12-14T02:28:01Z</time></trkpt><trkpt lat="33.500775" lon="132.5615443"><ele>19.810000000000002</ele><time>2025-12-14T02:28:19Z</time></trkpt><trkpt lat="33.5009623" lon="132.5614692"><ele>18.03333333333333</ele><time>2025-12-14T02:28:36Z</time></trkpt><trkpt lat="33.5011491" lon="132.5613844"><ele>17.166666666666668</ele><time>2025-12-14T02:28:54Z</time></trkpt></trkseg></trk></gpx>