<?xml version='1.0' encoding='UTF-8'?><gpx creator="Yama Museum Summit Candidate Generator" xsi:schemaLocation="http://www.topografix.com/GPX/1/1 http://www.topografix.com/GPX/1/1/gpx.xsd" version="1.1" xmlns="http://www.topografix.com/GPX/1/1" xmlns:xsi="http://www.w3.org/2001/XMLSchema-instance" xmlns:yama="https://museum-yama-data.moukaeritai.work/ns/yama-data/0.1"><metadata><bounds maxlat="33.4561622" maxlon="132.806976" minlat="33.4529497" minlon="132.8014735"/><name>雨包山</name><extensions><yama:source_gpx_basename>yamap_2022-04-22_14_13.gpx</yama:source_gpx_basename><yama:source_gpx_relative_path>data/01_raw/gpx/2026-05-12/yamap_2022-04-22_14_13.gpx</yama:source_gpx_relative_path><yama:detection_parameters>window=5,radius=10,min_prominence=30,merge=100</yama:detection_parameters></extensions></metadata><wpt lat="33.4536468" lon="132.8065716"><ele>1117.4867674520622</ele><time>2022-04-22T05:40:34Z</time><name>summit-candidate:6198ad7009d86ec2</name><desc>Summit candidate detected at elevation 1117.4867674520622m with prominence 123.89425535913199m.</desc><sym>Summit Candidate</sym><extensions><yama:source_trackpoint_index>68</yama:source_trackpoint_index><yama:valid_elevation_index>68</yama:valid_elevation_index><yama:smoothed_ele>1115.4109183043774</yama:smoothed_ele><yama:prominence>123.89425535913199</yama:prominence><yama:detection_method>local_maxima_with_prominence</yama:detection_method><yama:detection_parameters>window=5,radius=10,min_prominence=30,merge=100</yama:detection_parameters><yama:candidate_status>unresolved</yama:candidate_status></extensions></wpt>
  <trk><name>雨包山</name><number>1</number><trkseg><trkpt lat="33.4550417" lon="132.8014735"><ele>995.5757315664707</ele><time>2022-04-22T05:13:47Z</time></trkpt><trkpt lat="33.4550007" lon="132.8016882"><ele>988.3116113067229</ele><time>2022-04-22T05:15:26Z</time></trkpt><trkpt lat="33.4550092" lon="132.8019106"><ele>990.6626459625428</ele><time>2022-04-22T05:15:59Z</time></trkpt><trkpt lat="33.4550175" lon="132.8021357"><ele>994.0635654980101</ele><time>2022-04-22T05:16:21Z</time></trkpt><trkpt lat="33.4551533" lon="132.8022879"><ele>1002.1502806016077</ele><time>2022-04-22T05:16:26Z</time></trkpt><trkpt lat="33.4552355" lon="132.8024843"><ele>1006.2233192958814</ele><time>2022-04-22T05:16:37Z</time></trkpt><trkpt lat="33.4552537" lon="132.8026987"><ele>1005.1071966455438</ele><time>2022-04-22T05:16:49Z</time></trkpt><trkpt lat="33.4553027" lon="132.8029124"><ele>1008.3298853175</ele><time>2022-04-22T05:17:06Z</time></trkpt><trkpt lat="33.4555249" lon="132.8029731"><ele>1011.0837428770559</ele><time>2022-04-22T05:17:41Z</time></trkpt><trkpt lat="33.4556037" lon="132.8031727"><ele>1016.0233823917301</ele><time>2022-04-22T05:17:53Z</time></trkpt><trkpt lat="33.4557065" lon="132.8033822"><ele>1018.067296870437</ele><time>2022-04-22T05:18:05Z</time></trkpt><trkpt lat="33.4557405" lon="132.8036036"><ele>1020.1022834633773</ele><time>2022-04-22T05:18:20Z</time></trkpt><trkpt lat="33.4557508" lon="132.8038365"><ele>1023.7776506822162</ele><time>2022-04-22T05:18:35Z</time></trkpt><trkpt lat="33.4558409" lon="132.8040481"><ele>1026.9316958434351</ele><time>2022-04-22T05:18:52Z</time></trkpt><trkpt lat="33.4559623" lon="132.8042192"><ele>1030.3544371770186</ele><time>2022-04-22T05:19:06Z</time></trkpt><trkpt lat="33.4561002" lon="132.8043634"><ele>1032.0334027956576</ele><time>2022-04-22T05:19:23Z</time></trkpt><trkpt lat="33.4561622" lon="132.8045668"><ele>1033.1826836374892</ele><time>2022-04-22T05:20:10Z</time></trkpt><trkpt lat="33.4561512" lon="132.8047835"><ele>1035.511731120657</ele><time>2022-04-22T05:20:28Z</time></trkpt><trkpt lat="33.4560842" lon="132.8049959"><ele>1037.3191378981312</ele><time>2022-04-22T05:20:46Z</time></trkpt><trkpt lat="33.4560184" lon="132.8052019"><ele>1039.8932597929015</ele><time>2022-04-22T05:21:02Z</time></trkpt><trkpt lat="33.4559542" lon="132.805404"><ele>1042.074263361974</ele><time>2022-04-22T05:21:19Z</time></trkpt><trkpt lat="33.4559321" lon="132.8056219"><ele>1046.0621234801604</ele><time>2022-04-22T05:21:37Z</time></trkpt><trkpt lat="33.4558165" lon="132.8057882"><ele>1050.6520404576022</ele><time>2022-04-22T05:22:04Z</time></trkpt><trkpt lat="33.4556544" lon="132.8059055"><ele>1054.5910087876875</ele><time>2022-04-22T05:22:16Z</time></trkpt><trkpt lat="33.4554697" lon="132.8059478"><ele>1058.4145771413423</ele><time>2022-04-22T05:22:48Z</time></trkpt><trkpt lat="33.4553394" lon="132.8057929"><ele>1061.012052440072</ele><time>2022-04-22T05:23:03Z</time></trkpt><trkpt lat="33.4553138" lon="132.8055712"><ele>1064.036617985545</ele><time>2022-04-22T05:23:18Z</time></trkpt><trkpt lat="33.455248" lon="132.8053585"><ele>1066.4396036433056</ele><time>2022-04-22T05:23:31Z</time></trkpt><trkpt lat="33.455236" lon="132.8051424"><ele>1068.965246659991</ele><time>2022-04-22T05:23:48Z</time></trkpt><trkpt lat="33.4553151" lon="132.8049417"><ele>1070.834909550378</ele><time>2022-04-22T05:24:01Z</time></trkpt><trkpt lat="33.4552052" lon="132.8047697"><ele>1072.6241330704195</ele><time>2022-04-22T05:24:22Z</time></trkpt><trkpt lat="33.4551518" lon="132.8049792"><ele>1076.278707136388</ele><time>2022-04-22T05:24:53Z</time></trkpt><trkpt lat="33.4551723" lon="132.8051942"><ele>1081.161563430199</ele><time>2022-04-22T05:25:13Z</time></trkpt><trkpt lat="33.4549885" lon="132.8052488"><ele>1084.6903844651763</ele><time>2022-04-22T05:25:19Z</time></trkpt><trkpt lat="33.4548267" lon="132.8053689"><ele>1087.86562822455</ele><time>2022-04-22T05:25:34Z</time></trkpt><trkpt lat="33.4547228" lon="132.805553"><ele>1084.248572376373</ele><time>2022-04-22T05:26:20Z</time></trkpt><trkpt lat="33.4546192" lon="132.8057316"><ele>1082.5980040332217</ele><time>2022-04-22T05:26:38Z</time></trkpt><trkpt lat="33.4544891" lon="132.8055818"><ele>1081.3504943210376</ele><time>2022-04-22T05:27:19Z</time></trkpt><trkpt lat="33.4543507" lon="132.805441"><ele>1085.0220395879578</ele><time>2022-04-22T05:27:34Z</time></trkpt><trkpt lat="33.4542403" lon="132.8052706"><ele>1090.817642786097</ele><time>2022-04-22T05:28:00Z</time></trkpt><trkpt lat="33.4540653" lon="132.8051819"><ele>1094.9661724596624</ele><time>2022-04-22T05:29:26Z</time></trkpt><trkpt lat="33.4542235" lon="132.8052888"><ele>1097.3048879686235</ele><time>2022-04-22T05:29:56Z</time></trkpt><trkpt lat="33.4541159" lon="132.805462"><ele>1096.2134372656963</ele><time>2022-04-22T05:30:10Z</time></trkpt><trkpt lat="33.4539858" lon="132.8056221"><ele>1094.8345230753732</ele><time>2022-04-22T05:30:23Z</time></trkpt><trkpt lat="33.4539107" lon="132.8058202"><ele>1095.1885066687453</ele><time>2022-04-22T05:30:39Z</time></trkpt><trkpt lat="33.4537345" lon="132.8059013"><ele>1096.2840682411304</ele><time>2022-04-22T05:30:54Z</time></trkpt><trkpt lat="33.4535534" lon="132.8059297"><ele>1096.4890662873065</ele><time>2022-04-22T05:31:07Z</time></trkpt><trkpt lat="33.4533879" lon="132.8060302"><ele>1097.4851892229235</ele><time>2022-04-22T05:31:22Z</time></trkpt><trkpt lat="33.4532388" lon="132.8061598"><ele>1097.2752578738694</ele><time>2022-04-22T05:31:35Z</time></trkpt><trkpt lat="33.4531147" lon="132.8063201"><ele>1097.776725197732</ele><time>2022-04-22T05:31:50Z</time></trkpt><trkpt lat="33.4530839" lon="132.8065381"><ele>1097.4372590013297</ele><time>2022-04-22T05:32:05Z</time></trkpt><trkpt lat="33.4530441" lon="132.8067579"><ele>1097.0719029202144</ele><time>2022-04-22T05:32:21Z</time></trkpt><trkpt lat="33.4530227" lon="132.806976"><ele>1096.3809424447159</ele><time>2022-04-22T05:32:33Z</time></trkpt><trkpt lat="33.4529497" lon="132.8067723"><ele>1095.5405090716067</ele><time>2022-04-22T05:33:07Z</time></trkpt><trkpt lat="33.4530618" lon="132.8065957"><ele>1095.3870887296225</ele><time>2022-04-22T05:33:19Z</time></trkpt><trkpt lat="33.4530814" lon="132.8063741"><ele>1092.4092684319726</ele><time>2022-04-22T05:33:32Z</time></trkpt><trkpt lat="33.4531519" lon="132.8061738"><ele>1093.0310487192412</ele><time>2022-04-22T05:33:45Z</time></trkpt><trkpt lat="33.45329" lon="132.8060245"><ele>1093.1598981008708</ele><time>2022-04-22T05:33:58Z</time></trkpt><trkpt lat="33.4534668" lon="132.8059716"><ele>1097.175238470579</ele><time>2022-04-22T05:34:10Z</time></trkpt><trkpt lat="33.4536399" lon="132.8058855"><ele>1097.692095975248</ele><time>2022-04-22T05:34:24Z</time></trkpt><trkpt lat="33.4538264" lon="132.8058556"><ele>1097.976738789075</ele><time>2022-04-22T05:34:37Z</time></trkpt><trkpt lat="33.4540081" lon="132.8058387"><ele>1097.5690241582518</ele><time>2022-04-22T05:34:54Z</time></trkpt><trkpt lat="33.4541737" lon="132.8059401"><ele>1098.5545088244517</ele><time>2022-04-22T05:35:07Z</time></trkpt><trkpt lat="33.4540521" lon="132.806118"><ele>1101.0668846813098</ele><time>2022-04-22T05:35:27Z</time></trkpt><trkpt lat="33.4539285" lon="132.8062788"><ele>1105.802199166222</ele><time>2022-04-22T05:36:31Z</time></trkpt><trkpt lat="33.4537997" lon="132.8064329"><ele>1109.8392857133229</ele><time>2022-04-22T05:36:48Z</time></trkpt><trkpt lat="33.4536511" lon="132.8065625"><ele>1113.7837826186012</ele><time>2022-04-22T05:37:06Z</time></trkpt><trkpt lat="33.4536239" lon="132.8067861"><ele>1116.24573663103</ele><time>2022-04-22T05:37:18Z</time></trkpt><trkpt lat="33.4536468" lon="132.8065716"><ele>1117.4867674520622</ele><time>2022-04-22T05:40:34Z</time></trkpt><trkpt lat="33.4537663" lon="132.80641"><ele>1116.1893112309215</ele><time>2022-04-22T05:41:08Z</time></trkpt><trkpt lat="33.4538931" lon="132.8062489"><ele>1113.3489935892721</ele><time>2022-04-22T05:42:06Z</time></trkpt><trkpt lat="33.453905" lon="132.8060342"><ele>1109.2929914752096</ele><time>2022-04-22T05:42:17Z</time></trkpt><trkpt lat="33.4539732" lon="132.8058276"><ele>1104.5159709165503</ele><time>2022-04-22T05:42:31Z</time></trkpt><trkpt lat="33.4540901" lon="132.8056555"><ele>1099.3908825723886</ele><time>2022-04-22T05:42:44Z</time></trkpt><trkpt lat="33.454136" lon="132.8054422"><ele>1096.8015990178321</ele><time>2022-04-22T05:43:24Z</time></trkpt><trkpt lat="33.4541907" lon="132.8052332"><ele>1095.9185355367904</ele><time>2022-04-22T05:44:34Z</time></trkpt><trkpt lat="33.4543644" lon="132.8051746"><ele>1094.1300787748562</ele><time>2022-04-22T05:44:55Z</time></trkpt><trkpt lat="33.4545471" lon="132.8051393"><ele>1090.8840929951418</ele><time>2022-04-22T05:45:16Z</time></trkpt><trkpt lat="33.4546901" lon="132.8049866"><ele>1086.7190978700085</ele><time>2022-04-22T05:45:32Z</time></trkpt><trkpt lat="33.4548775" lon="132.8050229"><ele>1081.2011271663716</ele><time>2022-04-22T05:46:18Z</time></trkpt><trkpt lat="33.4550583" lon="132.8049986"><ele>1073.964080706133</ele><time>2022-04-22T05:46:34Z</time></trkpt><trkpt lat="33.4552139" lon="132.8048763"><ele>1066.9740704624721</ele><time>2022-04-22T05:46:56Z</time></trkpt><trkpt lat="33.4553105" lon="132.8046847"><ele>1059.9765183306602</ele><time>2022-04-22T05:47:43Z</time></trkpt><trkpt lat="33.4552434" lon="132.8044759"><ele>1055.1962729667096</ele><time>2022-04-22T05:48:00Z</time></trkpt><trkpt lat="33.4551854" lon="132.8042711"><ele>1049.5470567901955</ele><time>2022-04-22T05:48:28Z</time></trkpt><trkpt lat="33.4552927" lon="132.804075"><ele>1046.8048414798066</ele><time>2022-04-22T05:48:42Z</time></trkpt><trkpt lat="33.455334" lon="132.8038585"><ele>1042.2383216471635</ele><time>2022-04-22T05:48:57Z</time></trkpt><trkpt lat="33.4551725" lon="132.8037573"><ele>1037.5668367884807</ele><time>2022-04-22T05:49:30Z</time></trkpt><trkpt lat="33.4549966" lon="132.8038466"><ele>1031.7008618246794</ele><time>2022-04-22T05:49:43Z</time></trkpt><trkpt lat="33.4549644" lon="132.8036304"><ele>1027.3025400798833</ele><time>2022-04-22T05:50:00Z</time></trkpt><trkpt lat="33.4550531" lon="132.8034351"><ele>1026.9971658626177</ele><time>2022-04-22T05:50:09Z</time></trkpt><trkpt lat="33.4551574" lon="132.8032594"><ele>1024.4543755158381</ele><time>2022-04-22T05:50:19Z</time></trkpt><trkpt lat="33.4552252" lon="132.8030564"><ele>1020.0940954387479</ele><time>2022-04-22T05:51:38Z</time></trkpt><trkpt lat="33.455066" lon="132.8029538"><ele>1010.6432738657846</ele><time>2022-04-22T05:51:58Z</time></trkpt><trkpt lat="33.4551309" lon="132.8027504"><ele>1002.3824405603119</ele><time>2022-04-22T05:52:24Z</time></trkpt><trkpt lat="33.4550032" lon="132.8025936"><ele>995.6165656383691</ele><time>2022-04-22T05:52:48Z</time></trkpt><trkpt lat="33.4550403" lon="132.8023767"><ele>992.4616277098048</ele><time>2022-04-22T05:52:59Z</time></trkpt><trkpt lat="33.4550452" lon="132.8021481"><ele>989.6062720695637</ele><time>2022-04-22T05:53:10Z</time></trkpt><trkpt lat="33.454999" lon="132.8019378"><ele>986.8790745337515</ele><time>2022-04-22T05:53:27Z</time></trkpt><trkpt lat="33.4549807" lon="132.8016977"><ele>982.5304421100435</ele><time>2022-04-22T05:53:44Z</time></trkpt></trkseg></trk></gpx>