<?xml version='1.0' encoding='UTF-8'?><gpx creator="Yama Museum Summit Candidate Generator" xsi:schemaLocation="http://www.topografix.com/GPX/1/1 http://www.topografix.com/GPX/1/1/gpx.xsd" version="1.1" xmlns="http://www.topografix.com/GPX/1/1" xmlns:xsi="http://www.w3.org/2001/XMLSchema-instance" xmlns:yama="https://museum-yama-data.moukaeritai.work/ns/yama-data/0.1"><metadata><bounds maxlat="33.9195042" maxlon="132.6938966" minlat="33.9167756" minlon="132.6900765"/><name>犬吠山</name><extensions><yama:source_gpx_basename>yamap_2022-10-14_13_01.gpx</yama:source_gpx_basename><yama:source_gpx_relative_path>data/01_raw/gpx/2026-05-12/yamap_2022-10-14_13_01.gpx</yama:source_gpx_relative_path><yama:detection_parameters>window=5,radius=10,min_prominence=30,merge=100</yama:detection_parameters></extensions></metadata><wpt lat="33.9183794" lon="132.6903824"><ele>120.40666666666665</ele><time>2022-10-14T04:21:38Z</time><name>summit-candidate:cc3fbb2358d0d4fc</name><desc>Summit candidate detected at elevation 120.40666666666665m with prominence 106.43266666666666m.</desc><sym>Summit Candidate</sym><extensions><yama:source_trackpoint_index>32</yama:source_trackpoint_index><yama:valid_elevation_index>32</yama:valid_elevation_index><yama:smoothed_ele>118.02933333333333</yama:smoothed_ele><yama:prominence>106.43266666666666</yama:prominence><yama:detection_method>local_maxima_with_prominence</yama:detection_method><yama:detection_parameters>window=5,radius=10,min_prominence=30,merge=100</yama:detection_parameters><yama:candidate_status>unresolved</yama:candidate_status></extensions></wpt>
  <trk><name>犬吠山</name><number>1</number><trkseg><trkpt lat="33.9169334" lon="132.6938536"><ele>7.15</ele><time>2022-10-14T04:01:28Z</time></trkpt><trkpt lat="33.9170994" lon="132.693768"><ele>9.04</ele><time>2022-10-14T04:02:21Z</time></trkpt><trkpt lat="33.9172814" lon="132.6938152"><ele>10.426666666666668</ele><time>2022-10-14T04:02:36Z</time></trkpt><trkpt lat="33.9174583" lon="132.6938612"><ele>14.293333333333335</ele><time>2022-10-14T04:02:52Z</time></trkpt><trkpt lat="33.9176513" lon="132.6938268"><ele>19.136666666666667</ele><time>2022-10-14T04:03:10Z</time></trkpt><trkpt lat="33.9178356" lon="132.6938178"><ele>25.106666666666666</ele><time>2022-10-14T04:03:48Z</time></trkpt><trkpt lat="33.9180078" lon="132.6937254"><ele>28.926666666666666</ele><time>2022-10-14T04:04:01Z</time></trkpt><trkpt lat="33.9181289" lon="132.6935623"><ele>30.426666666666666</ele><time>2022-10-14T04:04:15Z</time></trkpt><trkpt lat="33.9182998" lon="132.6934715"><ele>31.123333333333335</ele><time>2022-10-14T04:04:30Z</time></trkpt><trkpt lat="33.9184816" lon="132.6934322"><ele>33.18666666666667</ele><time>2022-10-14T04:04:48Z</time></trkpt><trkpt lat="33.918649" lon="132.6933355"><ele>36.56333333333333</ele><time>2022-10-14T04:05:06Z</time></trkpt><trkpt lat="33.9187981" lon="132.6932106"><ele>40.050000000000004</ele><time>2022-10-14T04:05:22Z</time></trkpt><trkpt lat="33.9189099" lon="132.6930373"><ele>43.14666666666667</ele><time>2022-10-14T04:05:38Z</time></trkpt><trkpt lat="33.9190327" lon="132.6928724"><ele>45.666666666666664</ele><time>2022-10-14T04:05:58Z</time></trkpt><trkpt lat="33.919153" lon="132.6927039"><ele>47.61000000000001</ele><time>2022-10-14T04:06:16Z</time></trkpt><trkpt lat="33.919258" lon="132.6925222"><ele>49.59</ele><time>2022-10-14T04:06:35Z</time></trkpt><trkpt lat="33.9193261" lon="132.6923044"><ele>52.27333333333333</ele><time>2022-10-14T04:06:50Z</time></trkpt><trkpt lat="33.9193604" lon="132.6920915"><ele>55.37666666666667</ele><time>2022-10-14T04:07:19Z</time></trkpt><trkpt lat="33.9192774" lon="132.691898"><ele>58.879999999999995</ele><time>2022-10-14T04:07:32Z</time></trkpt><trkpt lat="33.9191475" lon="132.6917317"><ele>62.843333333333334</ele><time>2022-10-14T04:09:43Z</time></trkpt><trkpt lat="33.9192636" lon="132.6915629"><ele>66.41333333333334</ele><time>2022-10-14T04:10:55Z</time></trkpt><trkpt lat="33.9192137" lon="132.6913458"><ele>70.81</ele><time>2022-10-14T04:11:10Z</time></trkpt><trkpt lat="33.9191623" lon="132.6911382"><ele>75.91666666666667</ele><time>2022-10-14T04:11:24Z</time></trkpt><trkpt lat="33.9190232" lon="132.6909916"><ele>81.58666666666666</ele><time>2022-10-14T04:11:46Z</time></trkpt><trkpt lat="33.9191874" lon="132.6909001"><ele>85.55333333333334</ele><time>2022-10-14T04:12:14Z</time></trkpt><trkpt lat="33.9192308" lon="132.6906896"><ele>89.25</ele><time>2022-10-14T04:13:19Z</time></trkpt><trkpt lat="33.9191117" lon="132.6905241"><ele>92.64333333333333</ele><time>2022-10-14T04:13:39Z</time></trkpt><trkpt lat="33.9189444" lon="132.6904423"><ele>96.87666666666667</ele><time>2022-10-14T04:14:01Z</time></trkpt><trkpt lat="33.9187617" lon="132.6904568"><ele>101.00666666666666</ele><time>2022-10-14T04:16:32Z</time></trkpt><trkpt lat="33.9187018" lon="132.690249"><ele>107.31</ele><time>2022-10-14T04:17:56Z</time></trkpt><trkpt lat="33.9185914" lon="132.6900765"><ele>114.08333333333333</ele><time>2022-10-14T04:18:13Z</time></trkpt><trkpt lat="33.9184284" lon="132.6901738"><ele>119.27</ele><time>2022-10-14T04:19:52Z</time></trkpt><trkpt lat="33.9183794" lon="132.6903824"><ele>120.40666666666665</ele><time>2022-10-14T04:21:38Z</time></trkpt><trkpt lat="33.9185615" lon="132.6903779"><ele>120.31333333333333</ele><time>2022-10-14T04:23:38Z</time></trkpt><trkpt lat="33.9187403" lon="132.6903258"><ele>116.07333333333334</ele><time>2022-10-14T04:24:03Z</time></trkpt><trkpt lat="33.9188926" lon="132.6904744"><ele>109.27333333333333</ele><time>2022-10-14T04:26:28Z</time></trkpt><trkpt lat="33.9190724" lon="132.690569"><ele>101.01666666666667</ele><time>2022-10-14T04:26:30Z</time></trkpt><trkpt lat="33.9192188" lon="132.6907078"><ele>95.94</ele><time>2022-10-14T04:26:43Z</time></trkpt><trkpt lat="33.9193139" lon="132.6908949"><ele>93.42333333333333</ele><time>2022-10-14T04:26:54Z</time></trkpt><trkpt lat="33.9191342" lon="132.690876"><ele>91.34666666666665</ele><time>2022-10-14T04:27:20Z</time></trkpt><trkpt lat="33.918956" lon="132.6909297"><ele>89.98333333333335</ele><time>2022-10-14T04:27:32Z</time></trkpt><trkpt lat="33.9189326" lon="132.6911494"><ele>89.70666666666666</ele><time>2022-10-14T04:27:44Z</time></trkpt><trkpt lat="33.9190644" lon="132.6912979"><ele>87.23666666666666</ele><time>2022-10-14T04:27:57Z</time></trkpt><trkpt lat="33.919199" lon="132.69145"><ele>81.63000000000001</ele><time>2022-10-14T04:28:11Z</time></trkpt><trkpt lat="33.9193029" lon="132.6916336"><ele>73.91333333333334</ele><time>2022-10-14T04:28:26Z</time></trkpt><trkpt lat="33.9194103" lon="132.69181"><ele>67.45666666666666</ele><time>2022-10-14T04:28:42Z</time></trkpt><trkpt lat="33.9195042" lon="132.6920005"><ele>63.29666666666666</ele><time>2022-10-14T04:29:00Z</time></trkpt><trkpt lat="33.9193869" lon="132.692184"><ele>60.06666666666667</ele><time>2022-10-14T04:29:12Z</time></trkpt><trkpt lat="33.9193871" lon="132.6924085"><ele>57.93333333333333</ele><time>2022-10-14T04:29:40Z</time></trkpt><trkpt lat="33.9192827" lon="132.6925887"><ele>54.61333333333334</ele><time>2022-10-14T04:29:54Z</time></trkpt><trkpt lat="33.9191896" lon="132.6927818"><ele>51.97666666666667</ele><time>2022-10-14T04:30:07Z</time></trkpt><trkpt lat="33.9190583" lon="132.692934"><ele>49.26333333333333</ele><time>2022-10-14T04:30:19Z</time></trkpt><trkpt lat="33.918974" lon="132.693126"><ele>48.02333333333333</ele><time>2022-10-14T04:30:30Z</time></trkpt><trkpt lat="33.9188673" lon="132.6933088"><ele>47.43333333333334</ele><time>2022-10-14T04:30:43Z</time></trkpt><trkpt lat="33.9187168" lon="132.6934311"><ele>45.27</ele><time>2022-10-14T04:30:54Z</time></trkpt><trkpt lat="33.9185355" lon="132.6935026"><ele>42.64666666666667</ele><time>2022-10-14T04:31:08Z</time></trkpt><trkpt lat="33.9183602" lon="132.6935837"><ele>38.669999999999995</ele><time>2022-10-14T04:31:25Z</time></trkpt><trkpt lat="33.918224" lon="132.6937315"><ele>37.986666666666665</ele><time>2022-10-14T04:31:41Z</time></trkpt><trkpt lat="33.9180742" lon="132.6938537"><ele>37.120000000000005</ele><time>2022-10-14T04:31:56Z</time></trkpt><trkpt lat="33.9178946" lon="132.6938145"><ele>35.12</ele><time>2022-10-14T04:32:13Z</time></trkpt><trkpt lat="33.9177272" lon="132.6938966"><ele>32.03333333333333</ele><time>2022-10-14T04:32:28Z</time></trkpt><trkpt lat="33.9175434" lon="132.6938677"><ele>27.163333333333338</ele><time>2022-10-14T04:32:40Z</time></trkpt><trkpt lat="33.9173527" lon="132.6938277"><ele>22.083333333333332</ele><time>2022-10-14T04:32:53Z</time></trkpt><trkpt lat="33.917131" lon="132.6938674"><ele>15.440000000000003</ele><time>2022-10-14T04:33:33Z</time></trkpt><trkpt lat="33.9169554" lon="132.6938106"><ele>11.156666666666666</ele><time>2022-10-14T04:33:43Z</time></trkpt><trkpt lat="33.9167756" lon="132.693828"><ele>8.193333333333333</ele><time>2022-10-14T04:33:57Z</time></trkpt></trkseg></trk></gpx>