<?xml version='1.0' encoding='UTF-8'?><gpx creator="Yama Museum Summit Candidate Generator" xsi:schemaLocation="http://www.topografix.com/GPX/1/1 http://www.topografix.com/GPX/1/1/gpx.xsd" version="1.1" xmlns="http://www.topografix.com/GPX/1/1" xmlns:xsi="http://www.w3.org/2001/XMLSchema-instance" xmlns:yama="https://museum-yama-data.moukaeritai.work/ns/yama-data/0.1"><metadata><bounds maxlat="33.6917499" maxlon="132.7676111" minlat="33.684721" minlon="132.7599891"/><name>階上山</name><extensions><yama:source_gpx_basename>yamap_2025-03-02_13_17.gpx</yama:source_gpx_basename><yama:source_gpx_relative_path>data/01_raw/gpx/2026-05-12/yamap_2025-03-02_13_17.gpx</yama:source_gpx_relative_path><yama:detection_parameters>window=5,radius=10,min_prominence=30,merge=100</yama:detection_parameters></extensions></metadata><wpt lat="33.6859182" lon="132.7609047"><ele>893.9066666666668</ele><time>2025-03-02T05:06:51Z</time><name>summit-candidate:276fed5ecb7b3eb4</name><desc>Summit candidate detected at elevation 893.9066666666668m with prominence 317.0822222222224m.</desc><sym>Summit Candidate</sym><extensions><yama:source_trackpoint_index>79</yama:source_trackpoint_index><yama:valid_elevation_index>79</yama:valid_elevation_index><yama:smoothed_ele>892.9533333333335</yama:smoothed_ele><yama:prominence>317.0822222222224</yama:prominence><yama:detection_method>local_maxima_with_prominence</yama:detection_method><yama:detection_parameters>window=5,radius=10,min_prominence=30,merge=100</yama:detection_parameters><yama:candidate_status>unresolved</yama:candidate_status></extensions></wpt>
  <trk><name>階上山</name><number>1</number><trkseg><trkpt lat="33.6912251" lon="132.7647744"><ele>569.52</ele><time>2025-03-02T04:17:33Z</time></trkpt><trkpt lat="33.6910878" lon="132.7649163"><ele>569.7850000000001</ele><time>2025-03-02T04:18:18Z</time></trkpt><trkpt lat="33.6908832" lon="132.7649339"><ele>573.33</ele><time>2025-03-02T04:18:36Z</time></trkpt><trkpt lat="33.6907652" lon="132.7651037"><ele>577.2800000000001</ele><time>2025-03-02T04:19:00Z</time></trkpt><trkpt lat="33.6905939" lon="132.7651822"><ele>582.2666666666667</ele><time>2025-03-02T04:19:16Z</time></trkpt><trkpt lat="33.6904073" lon="132.7652529"><ele>585.4233333333333</ele><time>2025-03-02T04:19:35Z</time></trkpt><trkpt lat="33.6902116" lon="132.7652423"><ele>588.7233333333334</ele><time>2025-03-02T04:19:55Z</time></trkpt><trkpt lat="33.6900282" lon="132.7653361"><ele>591.7366666666667</ele><time>2025-03-02T04:20:12Z</time></trkpt><trkpt lat="33.6898974" lon="132.7654915"><ele>595.4133333333334</ele><time>2025-03-02T04:20:32Z</time></trkpt><trkpt lat="33.6897848" lon="132.7656716"><ele>599.0366666666667</ele><time>2025-03-02T04:20:49Z</time></trkpt><trkpt lat="33.6896055" lon="132.7655975"><ele>604.1266666666667</ele><time>2025-03-02T04:21:06Z</time></trkpt><trkpt lat="33.6894207" lon="132.7655371"><ele>609.1466666666666</ele><time>2025-03-02T04:21:25Z</time></trkpt><trkpt lat="33.6892789" lon="132.7656832"><ele>612.9500000000002</ele><time>2025-03-02T04:21:46Z</time></trkpt><trkpt lat="33.6893533" lon="132.7658818"><ele>612.5600000000001</ele><time>2025-03-02T04:22:08Z</time></trkpt><trkpt lat="33.6892955" lon="132.7661073"><ele>610.6566666666666</ele><time>2025-03-02T04:22:25Z</time></trkpt><trkpt lat="33.6891949" lon="132.7662979"><ele>612.2400000000001</ele><time>2025-03-02T04:22:42Z</time></trkpt><trkpt lat="33.6891247" lon="132.7665338"><ele>616.2566666666668</ele><time>2025-03-02T04:22:58Z</time></trkpt><trkpt lat="33.6890068" lon="132.7667232"><ele>619.1733333333333</ele><time>2025-03-02T04:23:18Z</time></trkpt><trkpt lat="33.6888156" lon="132.7666676"><ele>621.9966666666667</ele><time>2025-03-02T04:23:44Z</time></trkpt><trkpt lat="33.6887092" lon="132.76648"><ele>626.48</ele><time>2025-03-02T04:24:05Z</time></trkpt><trkpt lat="33.6885945" lon="132.7662776"><ele>633.75</ele><time>2025-03-02T04:24:25Z</time></trkpt><trkpt lat="33.6883929" lon="132.7662357"><ele>639.57</ele><time>2025-03-02T04:24:42Z</time></trkpt><trkpt lat="33.6883941" lon="132.7664822"><ele>641.07</ele><time>2025-03-02T04:24:59Z</time></trkpt><trkpt lat="33.688418" lon="132.7667061"><ele>639.2600000000001</ele><time>2025-03-02T04:25:18Z</time></trkpt><trkpt lat="33.6883217" lon="132.7669168"><ele>637.8566666666667</ele><time>2025-03-02T04:25:35Z</time></trkpt><trkpt lat="33.6881753" lon="132.7670494"><ele>640.7766666666666</ele><time>2025-03-02T04:25:52Z</time></trkpt><trkpt lat="33.6880113" lon="132.7671405"><ele>644.4599999999999</ele><time>2025-03-02T04:26:11Z</time></trkpt><trkpt lat="33.6878662" lon="132.7670117"><ele>649.6533333333333</ele><time>2025-03-02T04:26:31Z</time></trkpt><trkpt lat="33.6876972" lon="132.7669029"><ele>654.21</ele><time>2025-03-02T04:26:53Z</time></trkpt><trkpt lat="33.6875068" lon="132.7668706"><ele>658.4933333333333</ele><time>2025-03-02T04:27:07Z</time></trkpt><trkpt lat="33.6873065" lon="132.7668653"><ele>659.34</ele><time>2025-03-02T04:27:24Z</time></trkpt><trkpt lat="33.6871227" lon="132.7668519"><ele>660.9466666666667</ele><time>2025-03-02T04:27:41Z</time></trkpt><trkpt lat="33.6869468" lon="132.7669566"><ele>662.9866666666667</ele><time>2025-03-02T04:27:58Z</time></trkpt><trkpt lat="33.686762" lon="132.7670398"><ele>671.4266666666666</ele><time>2025-03-02T04:28:22Z</time></trkpt><trkpt lat="33.6865996" lon="132.7671593"><ele>680.3433333333334</ele><time>2025-03-02T04:28:44Z</time></trkpt><trkpt lat="33.6864917" lon="132.7673451"><ele>689.2533333333334</ele><time>2025-03-02T04:29:01Z</time></trkpt><trkpt lat="33.6863946" lon="132.7675606"><ele>688.7133333333333</ele><time>2025-03-02T04:29:21Z</time></trkpt><trkpt lat="33.6862049" lon="132.7676111"><ele>685.0166666666668</ele><time>2025-03-02T04:29:41Z</time></trkpt><trkpt lat="33.6861257" lon="132.7674021"><ele>682.38</ele><time>2025-03-02T04:30:14Z</time></trkpt><trkpt lat="33.6860269" lon="132.7672023"><ele>683.8400000000001</ele><time>2025-03-02T04:30:32Z</time></trkpt><trkpt lat="33.6860501" lon="132.7669883"><ele>687.8800000000001</ele><time>2025-03-02T04:30:49Z</time></trkpt><trkpt lat="33.6859348" lon="132.7667922"><ele>691.2633333333333</ele><time>2025-03-02T04:31:07Z</time></trkpt><trkpt lat="33.6858132" lon="132.7665772"><ele>694.3000000000001</ele><time>2025-03-02T04:31:24Z</time></trkpt><trkpt lat="33.6856966" lon="132.7663845"><ele>694.9133333333333</ele><time>2025-03-02T04:31:40Z</time></trkpt><trkpt lat="33.6855357" lon="132.7662448"><ele>695.9466666666667</ele><time>2025-03-02T04:31:55Z</time></trkpt><trkpt lat="33.6853691" lon="132.7663685"><ele>695.2233333333334</ele><time>2025-03-02T04:32:15Z</time></trkpt><trkpt lat="33.685183" lon="132.766339"><ele>695.1833333333334</ele><time>2025-03-02T04:32:27Z</time></trkpt><trkpt lat="33.6851355" lon="132.7661219"><ele>697.38</ele><time>2025-03-02T04:32:48Z</time></trkpt><trkpt lat="33.6849876" lon="132.765949"><ele>705.21</ele><time>2025-03-02T04:33:05Z</time></trkpt><trkpt lat="33.6848005" lon="132.7659583"><ele>710.8266666666667</ele><time>2025-03-02T04:33:18Z</time></trkpt><trkpt lat="33.6849573" lon="132.7657979"><ele>718.3833333333333</ele><time>2025-03-02T04:34:42Z</time></trkpt><trkpt lat="33.6851206" lon="132.7659013"><ele>721.1166666666667</ele><time>2025-03-02T04:35:30Z</time></trkpt><trkpt lat="33.6850385" lon="132.7656829"><ele>727.9699999999999</ele><time>2025-03-02T04:36:52Z</time></trkpt><trkpt lat="33.6849425" lon="132.7654995"><ele>731.9766666666668</ele><time>2025-03-02T04:37:40Z</time></trkpt><trkpt lat="33.685066" lon="132.76534"><ele>740.2133333333333</ele><time>2025-03-02T04:38:58Z</time></trkpt><trkpt lat="33.6852479" lon="132.7653282"><ele>746.9399999999999</ele><time>2025-03-02T04:39:45Z</time></trkpt><trkpt lat="33.6851152" lon="132.7651448"><ele>755.6466666666666</ele><time>2025-03-02T04:40:54Z</time></trkpt><trkpt lat="33.6849809" lon="132.7649935"><ele>763.0533333333333</ele><time>2025-03-02T04:41:33Z</time></trkpt><trkpt lat="33.6848993" lon="132.7647771"><ele>772.4566666666666</ele><time>2025-03-02T04:42:02Z</time></trkpt><trkpt lat="33.6850166" lon="132.7646075"><ele>780.6366666666667</ele><time>2025-03-02T04:45:46Z</time></trkpt><trkpt lat="33.6851033" lon="132.7644017"><ele>789.0033333333334</ele><time>2025-03-02T04:46:40Z</time></trkpt><trkpt lat="33.6849578" lon="132.7642301"><ele>796.1466666666666</ele><time>2025-03-02T04:47:17Z</time></trkpt><trkpt lat="33.6850589" lon="132.7640494"><ele>802.6933333333333</ele><time>2025-03-02T04:50:51Z</time></trkpt><trkpt lat="33.6850579" lon="132.7638258"><ele>810.7666666666668</ele><time>2025-03-02T04:52:54Z</time></trkpt><trkpt lat="33.685013" lon="132.7636167"><ele>819.9200000000001</ele><time>2025-03-02T04:54:24Z</time></trkpt><trkpt lat="33.6848898" lon="132.7634412"><ele>829.4266666666667</ele><time>2025-03-02T04:55:03Z</time></trkpt><trkpt lat="33.6847709" lon="132.7632471"><ele>838.52</ele><time>2025-03-02T04:55:24Z</time></trkpt><trkpt lat="33.684721" lon="132.7630154"><ele>847.0066666666667</ele><time>2025-03-02T04:56:42Z</time></trkpt><trkpt lat="33.6847263" lon="132.7627977"><ele>854.9933333333333</ele><time>2025-03-02T04:57:58Z</time></trkpt><trkpt lat="33.684926" lon="132.7627511"><ele>862.7433333333333</ele><time>2025-03-02T05:00:09Z</time></trkpt><trkpt lat="33.6850715" lon="132.7626075"><ele>869.7633333333333</ele><time>2025-03-02T05:01:09Z</time></trkpt><trkpt lat="33.6852385" lon="132.7624777"><ele>876.1333333333333</ele><time>2025-03-02T05:01:31Z</time></trkpt><trkpt lat="33.6853656" lon="132.7623234"><ele>879.1833333333334</ele><time>2025-03-02T05:02:05Z</time></trkpt><trkpt lat="33.6854042" lon="132.7621061"><ele>882.7199999999999</ele><time>2025-03-02T05:03:12Z</time></trkpt><trkpt lat="33.6855183" lon="132.7619353"><ele>885.5666666666666</ele><time>2025-03-02T05:03:45Z</time></trkpt><trkpt lat="33.6855744" lon="132.7617223"><ele>888.6666666666666</ele><time>2025-03-02T05:04:15Z</time></trkpt><trkpt lat="33.68562" lon="132.7615042"><ele>890.4700000000001</ele><time>2025-03-02T05:04:43Z</time></trkpt><trkpt lat="33.6856633" lon="132.7612932"><ele>891.5833333333334</ele><time>2025-03-02T05:05:47Z</time></trkpt><trkpt lat="33.6857818" lon="132.7610924"><ele>892.7966666666667</ele><time>2025-03-02T05:06:15Z</time></trkpt><trkpt lat="33.6859182" lon="132.7609047"><ele>893.9066666666668</ele><time>2025-03-02T05:06:51Z</time></trkpt><trkpt lat="33.6860453" lon="132.7607349"><ele>894.0033333333334</ele><time>2025-03-02T05:09:36Z</time></trkpt><trkpt lat="33.6861032" lon="132.760503"><ele>892.4766666666666</ele><time>2025-03-02T05:16:45Z</time></trkpt><trkpt lat="33.6861353" lon="132.760281"><ele>889.2933333333334</ele><time>2025-03-02T05:17:09Z</time></trkpt><trkpt lat="33.6863258" lon="132.7603805"><ele>884.73</ele><time>2025-03-02T05:17:35Z</time></trkpt><trkpt lat="33.686455" lon="132.7605918"><ele>880.9</ele><time>2025-03-02T05:17:49Z</time></trkpt><trkpt lat="33.6865287" lon="132.7603649"><ele>875.98</ele><time>2025-03-02T05:18:36Z</time></trkpt><trkpt lat="33.6866846" lon="132.760185"><ele>869.9200000000001</ele><time>2025-03-02T05:19:00Z</time></trkpt><trkpt lat="33.6867619" lon="132.7599891"><ele>860.9166666666666</ele><time>2025-03-02T05:19:11Z</time></trkpt><trkpt lat="33.6867952" lon="132.7602113"><ele>854.77</ele><time>2025-03-02T05:19:34Z</time></trkpt><trkpt lat="33.6869118" lon="132.7604195"><ele>851.86</ele><time>2025-03-02T05:19:49Z</time></trkpt><trkpt lat="33.6871326" lon="132.7604216"><ele>848.87</ele><time>2025-03-02T05:20:04Z</time></trkpt><trkpt lat="33.6873209" lon="132.7603298"><ele>838.4433333333333</ele><time>2025-03-02T05:20:19Z</time></trkpt><trkpt lat="33.6875065" lon="132.7604167"><ele>825.5600000000001</ele><time>2025-03-02T05:20:33Z</time></trkpt><trkpt lat="33.6875322" lon="132.760647"><ele>818.8533333333335</ele><time>2025-03-02T05:21:05Z</time></trkpt><trkpt lat="33.6875851" lon="132.7608716"><ele>818.79</ele><time>2025-03-02T05:21:29Z</time></trkpt><trkpt lat="33.687741" lon="132.7609906"><ele>819.0799999999999</ele><time>2025-03-02T05:21:43Z</time></trkpt><trkpt lat="33.6879401" lon="132.761023"><ele>813.5633333333334</ele><time>2025-03-02T05:21:55Z</time></trkpt><trkpt lat="33.6881536" lon="132.7609944"><ele>804.7133333333335</ele><time>2025-03-02T05:22:10Z</time></trkpt><trkpt lat="33.6883438" lon="132.761102"><ele>797.46</ele><time>2025-03-02T05:22:25Z</time></trkpt><trkpt lat="33.6884257" lon="132.7612964"><ele>792.8033333333333</ele><time>2025-03-02T05:22:37Z</time></trkpt><trkpt lat="33.6884113" lon="132.7615234"><ele>791.8566666666667</ele><time>2025-03-02T05:22:55Z</time></trkpt><trkpt lat="33.6885961" lon="132.7616039"><ele>788.0633333333334</ele><time>2025-03-02T05:23:13Z</time></trkpt><trkpt lat="33.6887838" lon="132.7614568"><ele>780.5433333333334</ele><time>2025-03-02T05:23:28Z</time></trkpt><trkpt lat="33.6888791" lon="132.7611843"><ele>770.6700000000001</ele><time>2025-03-02T05:23:41Z</time></trkpt><trkpt lat="33.6889041" lon="132.7609706"><ele>763.5666666666666</ele><time>2025-03-02T05:23:49Z</time></trkpt><trkpt lat="33.6890487" lon="132.7607742"><ele>756.8933333333334</ele><time>2025-03-02T05:24:00Z</time></trkpt><trkpt lat="33.6889457" lon="132.7609764"><ele>754.5500000000001</ele><time>2025-03-02T05:24:39Z</time></trkpt><trkpt lat="33.6889737" lon="132.7612189"><ele>753.9699999999999</ele><time>2025-03-02T05:24:54Z</time></trkpt><trkpt lat="33.6890842" lon="132.7613924"><ele>754.1866666666666</ele><time>2025-03-02T05:25:03Z</time></trkpt><trkpt lat="33.6891549" lon="132.7616382"><ele>750.7200000000001</ele><time>2025-03-02T05:25:18Z</time></trkpt><trkpt lat="33.6892223" lon="132.7618575"><ele>744.4933333333333</ele><time>2025-03-02T05:25:33Z</time></trkpt><trkpt lat="33.6892449" lon="132.762108"><ele>740.93</ele><time>2025-03-02T05:25:48Z</time></trkpt><trkpt lat="33.6892854" lon="132.7623662"><ele>736.5866666666667</ele><time>2025-03-02T05:26:02Z</time></trkpt><trkpt lat="33.6892274" lon="132.7625891"><ele>733.43</ele><time>2025-03-02T05:26:20Z</time></trkpt><trkpt lat="33.6891988" lon="132.7628068"><ele>730.0733333333334</ele><time>2025-03-02T05:26:33Z</time></trkpt><trkpt lat="33.6890903" lon="132.7630403"><ele>726.69</ele><time>2025-03-02T05:26:48Z</time></trkpt><trkpt lat="33.6892884" lon="132.7630822"><ele>721.6233333333333</ele><time>2025-03-02T05:27:13Z</time></trkpt><trkpt lat="33.6894438" lon="132.7631924"><ele>713.5</ele><time>2025-03-02T05:27:25Z</time></trkpt><trkpt lat="33.6896213" lon="132.7631208"><ele>705.7266666666668</ele><time>2025-03-02T05:27:36Z</time></trkpt><trkpt lat="33.689751" lon="132.7629195"><ele>698.6866666666666</ele><time>2025-03-02T05:27:45Z</time></trkpt><trkpt lat="33.6898869" lon="132.7627649"><ele>693.6633333333334</ele><time>2025-03-02T05:27:59Z</time></trkpt><trkpt lat="33.6900481" lon="132.7626197"><ele>689.1433333333334</ele><time>2025-03-02T05:28:14Z</time></trkpt><trkpt lat="33.6901916" lon="132.7624829"><ele>683.9866666666667</ele><time>2025-03-02T05:28:28Z</time></trkpt><trkpt lat="33.6903725" lon="132.7623408"><ele>678.8133333333334</ele><time>2025-03-02T05:28:43Z</time></trkpt><trkpt lat="33.6905324" lon="132.7621996"><ele>673.3933333333333</ele><time>2025-03-02T05:28:58Z</time></trkpt><trkpt lat="33.6907208" lon="132.7622189"><ele>665.4966666666668</ele><time>2025-03-02T05:29:16Z</time></trkpt><trkpt lat="33.6908951" lon="132.7622858"><ele>656.6466666666666</ele><time>2025-03-02T05:29:31Z</time></trkpt><trkpt lat="33.6907335" lon="132.7623883"><ele>651.9666666666667</ele><time>2025-03-02T05:29:46Z</time></trkpt><trkpt lat="33.690538" lon="132.7624893"><ele>654.8066666666667</ele><time>2025-03-02T05:30:13Z</time></trkpt><trkpt lat="33.6904759" lon="132.7627431"><ele>658.9900000000001</ele><time>2025-03-02T05:30:22Z</time></trkpt><trkpt lat="33.6903116" lon="132.7629257"><ele>661.2433333333333</ele><time>2025-03-02T05:30:38Z</time></trkpt><trkpt lat="33.6904625" lon="132.76306"><ele>657.82</ele><time>2025-03-02T05:30:58Z</time></trkpt><trkpt lat="33.6906132" lon="132.7629237"><ele>654.2466666666666</ele><time>2025-03-02T05:31:10Z</time></trkpt><trkpt lat="33.6907979" lon="132.7627891"><ele>648.11</ele><time>2025-03-02T05:31:25Z</time></trkpt><trkpt lat="33.6909956" lon="132.7628125"><ele>641.9699999999999</ele><time>2025-03-02T05:31:37Z</time></trkpt><trkpt lat="33.691193" lon="132.7627982"><ele>635.9433333333333</ele><time>2025-03-02T05:31:55Z</time></trkpt><trkpt lat="33.691085" lon="132.7629929"><ele>630.8966666666666</ele><time>2025-03-02T05:32:06Z</time></trkpt><trkpt lat="33.690903" lon="132.7629979"><ele>629.07</ele><time>2025-03-02T05:32:30Z</time></trkpt><trkpt lat="33.6909811" lon="132.7632303"><ele>625.1700000000001</ele><time>2025-03-02T05:32:59Z</time></trkpt><trkpt lat="33.691171" lon="132.7632218"><ele>621.4266666666667</ele><time>2025-03-02T05:33:14Z</time></trkpt><trkpt lat="33.6913646" lon="132.7631811"><ele>614.48</ele><time>2025-03-02T05:33:31Z</time></trkpt><trkpt lat="33.6914916" lon="132.7630154"><ele>610.6733333333333</ele><time>2025-03-02T05:33:48Z</time></trkpt><trkpt lat="33.6914605" lon="132.7627922"><ele>607.0</ele><time>2025-03-02T05:34:03Z</time></trkpt><trkpt lat="33.6916081" lon="132.7626682"><ele>603.4200000000001</ele><time>2025-03-02T05:34:27Z</time></trkpt><trkpt lat="33.6916175" lon="132.7629059"><ele>600.3000000000001</ele><time>2025-03-02T05:34:55Z</time></trkpt><trkpt lat="33.6916725" lon="132.7631398"><ele>596.6366666666667</ele><time>2025-03-02T05:35:10Z</time></trkpt><trkpt lat="33.6917499" lon="132.7633661"><ele>593.49</ele><time>2025-03-02T05:35:25Z</time></trkpt><trkpt lat="33.6916515" lon="132.7635789"><ele>589.4666666666666</ele><time>2025-03-02T05:35:42Z</time></trkpt><trkpt lat="33.691461" lon="132.763623"><ele>586.25</ele><time>2025-03-02T05:35:54Z</time></trkpt><trkpt lat="33.6913557" lon="132.7638163"><ele>583.6533333333333</ele><time>2025-03-02T05:36:09Z</time></trkpt><trkpt lat="33.6912755" lon="132.7640255"><ele>581.6333333333333</ele><time>2025-03-02T05:36:25Z</time></trkpt><trkpt lat="33.6912409" lon="132.7642409"><ele>579.17</ele><time>2025-03-02T05:36:43Z</time></trkpt><trkpt lat="33.6914009" lon="132.7643936"><ele>575.9533333333334</ele><time>2025-03-02T05:36:55Z</time></trkpt><trkpt lat="33.691308" lon="132.7645795"><ele>572.4899999999999</ele><time>2025-03-02T05:37:06Z</time></trkpt></trkseg></trk></gpx>