<?xml version='1.0' encoding='UTF-8'?><gpx creator="Yama Museum Summit Candidate Generator" xsi:schemaLocation="http://www.topografix.com/GPX/1/1 http://www.topografix.com/GPX/1/1/gpx.xsd" version="1.1" xmlns="http://www.topografix.com/GPX/1/1" xmlns:xsi="http://www.w3.org/2001/XMLSchema-instance" xmlns:yama="https://museum-yama-data.moukaeritai.work/ns/yama-data/0.1"><metadata><bounds maxlat="33.9027022" maxlon="132.9725346" minlat="33.8693577" minlon="132.9451721"/><name>東三方ヶ森</name><extensions><yama:source_gpx_basename>yamap_2022-04-16_07_39.gpx</yama:source_gpx_basename><yama:source_gpx_relative_path>data/01_raw/gpx/2026-05-12/yamap_2022-04-16_07_39.gpx</yama:source_gpx_relative_path><yama:detection_parameters>window=5,radius=10,min_prominence=30,merge=100</yama:detection_parameters></extensions></metadata><wpt lat="33.887339" lon="132.9480065"><ele>628.7666666666668</ele><time>2022-04-15T23:18:55Z</time><name>summit-candidate:8e8035372e25eb9d</name><desc>Summit candidate detected at elevation 628.7666666666668m with prominence 31.553333333333285m.</desc><sym>Summit Candidate</sym><extensions><yama:source_trackpoint_index>129</yama:source_trackpoint_index><yama:valid_elevation_index>129</yama:valid_elevation_index><yama:smoothed_ele>622.1993333333334</yama:smoothed_ele><yama:prominence>31.553333333333285</yama:prominence><yama:detection_method>local_maxima_with_prominence</yama:detection_method><yama:detection_parameters>window=5,radius=10,min_prominence=30,merge=100</yama:detection_parameters><yama:candidate_status>unresolved</yama:candidate_status></extensions></wpt>
  <wpt lat="33.8997373" lon="132.9587422"><ele>1199.216666666667</ele><time>2022-04-16T01:00:28Z</time><name>summit-candidate:77bb5774f7fa012e</name><desc>Summit candidate detected at elevation 1199.216666666667m with prominence 32.6866666666665m.</desc><sym>Summit Candidate</sym><extensions><yama:source_trackpoint_index>238</yama:source_trackpoint_index><yama:valid_elevation_index>238</yama:valid_elevation_index><yama:smoothed_ele>1195.4166666666667</yama:smoothed_ele><yama:prominence>32.6866666666665</yama:prominence><yama:detection_method>local_maxima_with_prominence</yama:detection_method><yama:detection_parameters>window=5,radius=10,min_prominence=30,merge=100</yama:detection_parameters><yama:candidate_status>unresolved</yama:candidate_status></extensions></wpt>
  <wpt lat="33.9025981" lon="132.959899"><ele>1229.5033333333333</ele><time>2022-04-16T01:40:36Z</time><name>summit-candidate:d06b9d5365beffaa</name><desc>Summit candidate detected at elevation 1229.5033333333333m with prominence 854.519222222222m.</desc><sym>Summit Candidate</sym><extensions><yama:source_trackpoint_index>258</yama:source_trackpoint_index><yama:valid_elevation_index>258</yama:valid_elevation_index><yama:smoothed_ele>1225.4919999999997</yama:smoothed_ele><yama:prominence>854.519222222222</yama:prominence><yama:detection_method>local_maxima_with_prominence</yama:detection_method><yama:detection_parameters>window=5,radius=10,min_prominence=30,merge=100</yama:detection_parameters><yama:candidate_status>unresolved</yama:candidate_status></extensions></wpt>
  <wpt lat="33.8761667" lon="132.9651395"><ele>598.0666666666667</ele><time>2022-04-16T03:14:24Z</time><name>summit-candidate:b6f296c230c1891d</name><desc>Summit candidate detected at elevation 598.0666666666667m with prominence 43.085333333333324m.</desc><sym>Summit Candidate</sym><extensions><yama:source_trackpoint_index>454</yama:source_trackpoint_index><yama:valid_elevation_index>454</yama:valid_elevation_index><yama:smoothed_ele>596.3646666666667</yama:smoothed_ele><yama:prominence>43.085333333333324</yama:prominence><yama:detection_method>local_maxima_with_prominence</yama:detection_method><yama:detection_parameters>window=5,radius=10,min_prominence=30,merge=100</yama:detection_parameters><yama:candidate_status>unresolved</yama:candidate_status></extensions></wpt>
  <trk><name>東三方ヶ森</name><number>1</number><trkseg><trkpt lat="33.8708298" lon="132.9476726"><ele>370.15000000000003</ele><time>2022-04-15T22:39:39Z</time></trkpt><trkpt lat="33.870952" lon="132.9478323"><ele>370.725</ele><time>2022-04-15T22:39:58Z</time></trkpt><trkpt lat="33.8710854" lon="132.9479982"><ele>372.04333333333335</ele><time>2022-04-15T22:40:15Z</time></trkpt><trkpt lat="33.8711713" lon="132.948189"><ele>374.57</ele><time>2022-04-15T22:40:32Z</time></trkpt><trkpt lat="33.8712989" lon="132.948361"><ele>380.6366666666667</ele><time>2022-04-15T22:41:05Z</time></trkpt><trkpt lat="33.8714658" lon="132.9484452"><ele>391.31666666666666</ele><time>2022-04-15T22:41:19Z</time></trkpt><trkpt lat="33.8716327" lon="132.9483495"><ele>404.18</ele><time>2022-04-15T22:41:32Z</time></trkpt><trkpt lat="33.8717634" lon="132.9481924"><ele>410.17</ele><time>2022-04-15T22:41:43Z</time></trkpt><trkpt lat="33.8719374" lon="132.9481201"><ele>408.19</ele><time>2022-04-15T22:41:58Z</time></trkpt><trkpt lat="33.8721222" lon="132.9481295"><ele>402.1266666666667</ele><time>2022-04-15T22:42:17Z</time></trkpt><trkpt lat="33.8723001" lon="132.9481702"><ele>400.25</ele><time>2022-04-15T22:42:38Z</time></trkpt><trkpt lat="33.8724828" lon="132.9482158"><ele>400.0733333333333</ele><time>2022-04-15T22:42:51Z</time></trkpt><trkpt lat="33.8726621" lon="132.9482406"><ele>404.1433333333334</ele><time>2022-04-15T22:43:03Z</time></trkpt><trkpt lat="33.8728498" lon="132.9482369"><ele>407.2033333333334</ele><time>2022-04-15T22:43:16Z</time></trkpt><trkpt lat="33.8730225" lon="132.9481545"><ele>408.4666666666667</ele><time>2022-04-15T22:43:27Z</time></trkpt><trkpt lat="33.8731879" lon="132.9480428"><ele>402.98</ele><time>2022-04-15T22:43:39Z</time></trkpt><trkpt lat="33.8733432" lon="132.9479246"><ele>398.41</ele><time>2022-04-15T22:43:51Z</time></trkpt><trkpt lat="33.8734923" lon="132.9477911"><ele>397.02666666666664</ele><time>2022-04-15T22:44:05Z</time></trkpt><trkpt lat="33.8736638" lon="132.947702"><ele>398.48</ele><time>2022-04-15T22:44:20Z</time></trkpt><trkpt lat="33.8738417" lon="132.9476258"><ele>404.18</ele><time>2022-04-15T22:44:33Z</time></trkpt><trkpt lat="33.8740004" lon="132.9475151"><ele>408.8866666666667</ele><time>2022-04-15T22:44:46Z</time></trkpt><trkpt lat="33.8741025" lon="132.9473276"><ele>411.0733333333333</ele><time>2022-04-15T22:45:00Z</time></trkpt><trkpt lat="33.8742071" lon="132.9471451"><ele>406.8833333333334</ele><time>2022-04-15T22:45:13Z</time></trkpt><trkpt lat="33.8743469" lon="132.9469932"><ele>402.4666666666667</ele><time>2022-04-15T22:45:25Z</time></trkpt><trkpt lat="33.8744232" lon="132.9467874"><ele>400.34</ele><time>2022-04-15T22:45:37Z</time></trkpt><trkpt lat="33.8744601" lon="132.9465741"><ele>398.11666666666673</ele><time>2022-04-15T22:45:48Z</time></trkpt><trkpt lat="33.8746225" lon="132.9464715"><ele>397.1766666666667</ele><time>2022-04-15T22:46:04Z</time></trkpt><trkpt lat="33.8747625" lon="132.9463288"><ele>396.84</ele><time>2022-04-15T22:46:21Z</time></trkpt><trkpt lat="33.8749158" lon="132.9462108"><ele>398.25333333333333</ele><time>2022-04-15T22:46:36Z</time></trkpt><trkpt lat="33.8750613" lon="132.9460793"><ele>399.56</ele><time>2022-04-15T22:46:49Z</time></trkpt><trkpt lat="33.8751881" lon="132.9459193"><ele>400.34</ele><time>2022-04-15T22:47:02Z</time></trkpt><trkpt lat="33.8753657" lon="132.9458401"><ele>402.5933333333333</ele><time>2022-04-15T22:47:15Z</time></trkpt><trkpt lat="33.8755369" lon="132.9457548"><ele>405.5466666666667</ele><time>2022-04-15T22:47:28Z</time></trkpt><trkpt lat="33.8756964" lon="132.9456368"><ele>409.49333333333334</ele><time>2022-04-15T22:47:42Z</time></trkpt><trkpt lat="33.8758653" lon="132.9455469"><ele>412.17333333333335</ele><time>2022-04-15T22:47:54Z</time></trkpt><trkpt lat="33.8759986" lon="132.9453949"><ele>413.93666666666667</ele><time>2022-04-15T22:48:09Z</time></trkpt><trkpt lat="33.8760239" lon="132.9451721"><ele>412.10999999999996</ele><time>2022-04-15T22:48:20Z</time></trkpt><trkpt lat="33.8762058" lon="132.9451784"><ele>410.09999999999997</ele><time>2022-04-15T22:50:51Z</time></trkpt><trkpt lat="33.8763911" lon="132.945174"><ele>407.8233333333333</ele><time>2022-04-15T22:51:07Z</time></trkpt><trkpt lat="33.8765589" lon="132.9452745"><ele>410.05333333333334</ele><time>2022-04-15T22:51:19Z</time></trkpt><trkpt lat="33.8766964" lon="132.9454273"><ele>413.76</ele><time>2022-04-15T22:51:31Z</time></trkpt><trkpt lat="33.876826" lon="132.9455783"><ele>418.73</ele><time>2022-04-15T22:51:44Z</time></trkpt><trkpt lat="33.8769777" lon="132.9457142"><ele>421.95000000000005</ele><time>2022-04-15T22:51:59Z</time></trkpt><trkpt lat="33.8771" lon="132.9458843"><ele>423.4533333333334</ele><time>2022-04-15T22:52:14Z</time></trkpt><trkpt lat="33.8772097" lon="132.9460576"><ele>424.3566666666666</ele><time>2022-04-15T22:52:28Z</time></trkpt><trkpt lat="33.8773857" lon="132.9461281"><ele>426.60999999999996</ele><time>2022-04-15T22:52:46Z</time></trkpt><trkpt lat="33.8775763" lon="132.9461437"><ele>428.8033333333333</ele><time>2022-04-15T22:53:06Z</time></trkpt><trkpt lat="33.8777669" lon="132.94617"><ele>433.1266666666667</ele><time>2022-04-15T22:53:23Z</time></trkpt><trkpt lat="33.8779302" lon="132.9462707"><ele>439.64333333333326</ele><time>2022-04-15T22:53:38Z</time></trkpt><trkpt lat="33.8781165" lon="132.9462704"><ele>441.78</ele><time>2022-04-15T22:53:52Z</time></trkpt><trkpt lat="33.8782354" lon="132.9464375"><ele>442.59</ele><time>2022-04-15T22:54:08Z</time></trkpt><trkpt lat="33.8783332" lon="132.9466239"><ele>438.6266666666667</ele><time>2022-04-15T22:54:21Z</time></trkpt><trkpt lat="33.878422" lon="132.9468124"><ele>438.60999999999996</ele><time>2022-04-15T22:54:35Z</time></trkpt><trkpt lat="33.8784291" lon="132.9470321"><ele>440.66333333333336</ele><time>2022-04-15T22:54:49Z</time></trkpt><trkpt lat="33.8784731" lon="132.9472499"><ele>446.35666666666674</ele><time>2022-04-15T22:55:05Z</time></trkpt><trkpt lat="33.8786068" lon="132.9473986"><ele>454.0733333333333</ele><time>2022-04-15T22:55:23Z</time></trkpt><trkpt lat="33.8787837" lon="132.9473439"><ele>455.7366666666667</ele><time>2022-04-15T22:55:36Z</time></trkpt><trkpt lat="33.8789569" lon="132.9472815"><ele>456.30333333333334</ele><time>2022-04-15T22:55:49Z</time></trkpt><trkpt lat="33.8791377" lon="132.94732"><ele>455.98</ele><time>2022-04-15T22:56:06Z</time></trkpt><trkpt lat="33.879335" lon="132.9473372"><ele>459.55</ele><time>2022-04-15T22:56:21Z</time></trkpt><trkpt lat="33.8795101" lon="132.9472765"><ele>462.73333333333335</ele><time>2022-04-15T22:56:33Z</time></trkpt><trkpt lat="33.8796773" lon="132.947187"><ele>458.4533333333334</ele><time>2022-04-15T22:56:49Z</time></trkpt><trkpt lat="33.8798098" lon="132.9473441"><ele>454.49666666666667</ele><time>2022-04-15T22:57:02Z</time></trkpt><trkpt lat="33.8799202" lon="132.9475184"><ele>452.18333333333334</ele><time>2022-04-15T22:57:16Z</time></trkpt><trkpt lat="33.8800201" lon="132.9477085"><ele>463.9666666666667</ele><time>2022-04-15T22:57:30Z</time></trkpt><trkpt lat="33.8801821" lon="132.9478222"><ele>472.6433333333334</ele><time>2022-04-15T22:57:44Z</time></trkpt><trkpt lat="33.8803531" lon="132.9479047"><ele>481.58</ele><time>2022-04-15T22:58:01Z</time></trkpt><trkpt lat="33.8805364" lon="132.9478802"><ele>483.3433333333333</ele><time>2022-04-15T22:58:17Z</time></trkpt><trkpt lat="33.8806729" lon="132.9477148"><ele>480.9066666666667</ele><time>2022-04-15T22:58:28Z</time></trkpt><trkpt lat="33.880817" lon="132.9475784"><ele>474.55</ele><time>2022-04-15T22:58:40Z</time></trkpt><trkpt lat="33.8809208" lon="132.9473898"><ele>468.67333333333335</ele><time>2022-04-15T22:58:57Z</time></trkpt><trkpt lat="33.8809176" lon="132.9471654"><ele>465.5133333333333</ele><time>2022-04-15T22:59:11Z</time></trkpt><trkpt lat="33.8810963" lon="132.9471159"><ele>468.19</ele><time>2022-04-15T22:59:32Z</time></trkpt><trkpt lat="33.8812792" lon="132.9470649"><ele>471.37000000000006</ele><time>2022-04-15T22:59:47Z</time></trkpt><trkpt lat="33.8814608" lon="132.947032"><ele>477.59</ele><time>2022-04-15T23:00:04Z</time></trkpt><trkpt lat="33.8816329" lon="132.9470991"><ele>478.3333333333333</ele><time>2022-04-15T23:00:19Z</time></trkpt><trkpt lat="33.8817919" lon="132.9472206"><ele>481.28999999999996</ele><time>2022-04-15T23:00:36Z</time></trkpt><trkpt lat="33.8819734" lon="132.9472526"><ele>487.51666666666665</ele><time>2022-04-15T23:00:52Z</time></trkpt><trkpt lat="33.8821546" lon="132.9472061"><ele>496.3966666666667</ele><time>2022-04-15T23:01:11Z</time></trkpt><trkpt lat="33.8822453" lon="132.9470079"><ele>500.2666666666667</ele><time>2022-04-15T23:01:22Z</time></trkpt><trkpt lat="33.8822538" lon="132.9467906"><ele>499.43</ele><time>2022-04-15T23:01:33Z</time></trkpt><trkpt lat="33.8823426" lon="132.9465947"><ele>497.35999999999996</ele><time>2022-04-15T23:01:51Z</time></trkpt><trkpt lat="33.8825114" lon="132.9465122"><ele>498.2366666666667</ele><time>2022-04-15T23:02:05Z</time></trkpt><trkpt lat="33.8826509" lon="132.9463626"><ele>499.14000000000004</ele><time>2022-04-15T23:02:19Z</time></trkpt><trkpt lat="33.8828356" lon="132.9463505"><ele>503.30333333333334</ele><time>2022-04-15T23:02:41Z</time></trkpt><trkpt lat="33.8830182" lon="132.9463741"><ele>507.4866666666667</ele><time>2022-04-15T23:02:55Z</time></trkpt><trkpt lat="33.8831724" lon="132.9462488"><ele>512.5366666666667</ele><time>2022-04-15T23:03:07Z</time></trkpt><trkpt lat="33.8833383" lon="132.9461535"><ele>513.0433333333334</ele><time>2022-04-15T23:03:24Z</time></trkpt><trkpt lat="33.8832137" lon="132.9463179"><ele>512.9833333333332</ele><time>2022-04-15T23:03:59Z</time></trkpt><trkpt lat="33.8833557" lon="132.9464526"><ele>519.7233333333334</ele><time>2022-04-15T23:04:44Z</time></trkpt><trkpt lat="33.8835264" lon="132.9463611"><ele>529.7466666666667</ele><time>2022-04-15T23:04:58Z</time></trkpt><trkpt lat="33.8836065" lon="132.9461659"><ele>538.6866666666666</ele><time>2022-04-15T23:05:10Z</time></trkpt><trkpt lat="33.8837051" lon="132.9459782"><ele>538.1033333333334</ele><time>2022-04-15T23:05:27Z</time></trkpt><trkpt lat="33.8838569" lon="132.945857"><ele>534.44</ele><time>2022-04-15T23:06:02Z</time></trkpt><trkpt lat="33.8839227" lon="132.9460651"><ele>533.2</ele><time>2022-04-15T23:06:20Z</time></trkpt><trkpt lat="33.8840573" lon="132.9462145"><ele>538.0166666666667</ele><time>2022-04-15T23:06:40Z</time></trkpt><trkpt lat="33.8842377" lon="132.9462315"><ele>544.7366666666667</ele><time>2022-04-15T23:06:59Z</time></trkpt><trkpt lat="33.8844035" lon="132.9461404"><ele>548.5133333333333</ele><time>2022-04-15T23:07:12Z</time></trkpt><trkpt lat="33.8845702" lon="132.9460521"><ele>548.11</ele><time>2022-04-15T23:07:26Z</time></trkpt><trkpt lat="33.8846186" lon="132.9462606"><ele>551.5100000000001</ele><time>2022-04-15T23:08:17Z</time></trkpt><trkpt lat="33.8844481" lon="132.9463399"><ele>556.1533333333333</ele><time>2022-04-15T23:08:47Z</time></trkpt><trkpt lat="33.8842754" lon="132.946404"><ele>561.0133333333333</ele><time>2022-04-15T23:09:05Z</time></trkpt><trkpt lat="33.8840962" lon="132.9464472"><ele>562.91</ele><time>2022-04-15T23:09:22Z</time></trkpt><trkpt lat="33.8839168" lon="132.946402"><ele>562.0233333333334</ele><time>2022-04-15T23:09:36Z</time></trkpt><trkpt lat="33.8840985" lon="132.9464371"><ele>563.75</ele><time>2022-04-15T23:10:35Z</time></trkpt><trkpt lat="33.8842784" lon="132.9464634"><ele>563.7566666666667</ele><time>2022-04-15T23:11:01Z</time></trkpt><trkpt lat="33.8844616" lon="132.9465002"><ele>566.7166666666667</ele><time>2022-04-15T23:11:18Z</time></trkpt><trkpt lat="33.8846437" lon="132.9465399"><ele>570.0733333333333</ele><time>2022-04-15T23:11:34Z</time></trkpt><trkpt lat="33.8846833" lon="132.9467577"><ele>578.0433333333334</ele><time>2022-04-15T23:12:03Z</time></trkpt><trkpt lat="33.8847479" lon="132.9469627"><ele>591.4</ele><time>2022-04-15T23:12:19Z</time></trkpt><trkpt lat="33.8849237" lon="132.9469074"><ele>598.2133333333333</ele><time>2022-04-15T23:12:30Z</time></trkpt><trkpt lat="33.8850451" lon="132.9467407"><ele>594.48</ele><time>2022-04-15T23:12:41Z</time></trkpt><trkpt lat="33.8852021" lon="132.946614"><ele>583.72</ele><time>2022-04-15T23:12:53Z</time></trkpt><trkpt lat="33.8853814" lon="132.9465745"><ele>579.4066666666666</ele><time>2022-04-15T23:13:14Z</time></trkpt><trkpt lat="33.885551" lon="132.9464887"><ele>578.85</ele><time>2022-04-15T23:13:41Z</time></trkpt><trkpt lat="33.8855949" lon="132.9467012"><ele>580.28</ele><time>2022-04-15T23:14:02Z</time></trkpt><trkpt lat="33.8855406" lon="132.946913"><ele>581.0</ele><time>2022-04-15T23:14:23Z</time></trkpt><trkpt lat="33.8855116" lon="132.9471305"><ele>584.3533333333334</ele><time>2022-04-15T23:14:39Z</time></trkpt><trkpt lat="33.8855666" lon="132.947339"><ele>586.5933333333334</ele><time>2022-04-15T23:15:01Z</time></trkpt><trkpt lat="33.8856316" lon="132.9475442"><ele>592.48</ele><time>2022-04-15T23:15:21Z</time></trkpt><trkpt lat="33.8858138" lon="132.947567"><ele>597.5866666666667</ele><time>2022-04-15T23:15:39Z</time></trkpt><trkpt lat="33.8859982" lon="132.9475641"><ele>602.65</ele><time>2022-04-15T23:15:56Z</time></trkpt><trkpt lat="33.8861761" lon="132.9476127"><ele>602.1033333333334</ele><time>2022-04-15T23:16:11Z</time></trkpt><trkpt lat="33.8863579" lon="132.94763"><ele>605.2766666666668</ele><time>2022-04-15T23:16:34Z</time></trkpt><trkpt lat="33.8865409" lon="132.9476127"><ele>608.1333333333333</ele><time>2022-04-15T23:16:53Z</time></trkpt><trkpt lat="33.8867298" lon="132.9475749"><ele>611.5133333333333</ele><time>2022-04-15T23:17:17Z</time></trkpt><trkpt lat="33.8869093" lon="132.9476045"><ele>611.4766666666667</ele><time>2022-04-15T23:17:32Z</time></trkpt><trkpt lat="33.8870744" lon="132.9477181"><ele>616.5033333333334</ele><time>2022-04-15T23:17:57Z</time></trkpt><trkpt lat="33.8871823" lon="132.9478927"><ele>623.5100000000001</ele><time>2022-04-15T23:18:18Z</time></trkpt><trkpt lat="33.887339" lon="132.9480065"><ele>628.7666666666668</ele><time>2022-04-15T23:18:55Z</time></trkpt><trkpt lat="33.8875016" lon="132.9481114"><ele>625.96</ele><time>2022-04-15T23:19:17Z</time></trkpt><trkpt lat="33.8876773" lon="132.9481604"><ele>616.2566666666667</ele><time>2022-04-15T23:19:39Z</time></trkpt><trkpt lat="33.8878033" lon="132.9483151"><ele>608.5033333333333</ele><time>2022-04-15T23:20:14Z</time></trkpt><trkpt lat="33.8878295" lon="132.9485291"><ele>606.9133333333334</ele><time>2022-04-15T23:20:33Z</time></trkpt><trkpt lat="33.8879623" lon="132.948684"><ele>608.8133333333334</ele><time>2022-04-15T23:21:05Z</time></trkpt><trkpt lat="33.8881433" lon="132.9487174"><ele>607.8133333333334</ele><time>2022-04-15T23:21:21Z</time></trkpt><trkpt lat="33.8883122" lon="132.9486299"><ele>599.0566666666667</ele><time>2022-04-15T23:21:49Z</time></trkpt><trkpt lat="33.8884656" lon="132.9487461"><ele>592.32</ele><time>2022-04-15T23:22:15Z</time></trkpt><trkpt lat="33.8886465" lon="132.9487789"><ele>587.8433333333334</ele><time>2022-04-15T23:22:47Z</time></trkpt><trkpt lat="33.8888175" lon="132.9488483"><ele>588.9966666666668</ele><time>2022-04-15T23:23:04Z</time></trkpt><trkpt lat="33.8889781" lon="132.948962"><ele>590.4966666666668</ele><time>2022-04-15T23:23:26Z</time></trkpt><trkpt lat="33.8891549" lon="132.9490231"><ele>593.5733333333334</ele><time>2022-04-15T23:23:44Z</time></trkpt><trkpt lat="33.8893278" lon="132.9491064"><ele>597.3566666666667</ele><time>2022-04-15T23:24:20Z</time></trkpt><trkpt lat="33.889508" lon="132.9491415"><ele>600.07</ele><time>2022-04-15T23:24:36Z</time></trkpt><trkpt lat="33.8896884" lon="132.949152"><ele>601.0500000000001</ele><time>2022-04-15T23:24:56Z</time></trkpt><trkpt lat="33.8898385" lon="132.9492753"><ele>600.8666666666667</ele><time>2022-04-15T23:25:35Z</time></trkpt><trkpt lat="33.8900253" lon="132.9492815"><ele>600.0533333333333</ele><time>2022-04-15T23:25:57Z</time></trkpt><trkpt lat="33.890182" lon="132.9493917"><ele>599.9933333333333</ele><time>2022-04-15T23:26:16Z</time></trkpt><trkpt lat="33.8903433" lon="132.9494944"><ele>600.33</ele><time>2022-04-15T23:26:35Z</time></trkpt><trkpt lat="33.8905268" lon="132.9494797"><ele>601.5933333333332</ele><time>2022-04-15T23:26:55Z</time></trkpt><trkpt lat="33.890702" lon="132.9495386"><ele>603.4966666666667</ele><time>2022-04-15T23:27:23Z</time></trkpt><trkpt lat="33.8908454" lon="132.9496881"><ele>606.4033333333333</ele><time>2022-04-15T23:27:42Z</time></trkpt><trkpt lat="33.8910131" lon="132.9497813"><ele>610.0666666666667</ele><time>2022-04-15T23:28:00Z</time></trkpt><trkpt lat="33.8911952" lon="132.9498143"><ele>612.3366666666667</ele><time>2022-04-15T23:28:22Z</time></trkpt><trkpt lat="33.891356" lon="132.9499201"><ele>613.78</ele><time>2022-04-15T23:28:47Z</time></trkpt><trkpt lat="33.8915355" lon="132.9499584"><ele>615.3366666666667</ele><time>2022-04-15T23:29:02Z</time></trkpt><trkpt lat="33.8917148" lon="132.9499926"><ele>617.2833333333333</ele><time>2022-04-15T23:30:32Z</time></trkpt><trkpt lat="33.8918687" lon="132.9501063"><ele>622.6</ele><time>2022-04-15T23:32:16Z</time></trkpt><trkpt lat="33.8917172" lon="132.9499818"><ele>622.4633333333333</ele><time>2022-04-15T23:34:06Z</time></trkpt><trkpt lat="33.891815" lon="132.9497978"><ele>622.8433333333334</ele><time>2022-04-15T23:36:23Z</time></trkpt><trkpt lat="33.8919781" lon="132.949704"><ele>620.2666666666668</ele><time>2022-04-15T23:37:51Z</time></trkpt><trkpt lat="33.8921495" lon="132.9496361"><ele>624.0066666666667</ele><time>2022-04-15T23:38:26Z</time></trkpt><trkpt lat="33.8923154" lon="132.9495505"><ele>628.8366666666667</ele><time>2022-04-15T23:38:54Z</time></trkpt><trkpt lat="33.8924934" lon="132.9495158"><ele>633.2366666666667</ele><time>2022-04-15T23:39:59Z</time></trkpt><trkpt lat="33.8926751" lon="132.9494793"><ele>637.9066666666666</ele><time>2022-04-15T23:40:24Z</time></trkpt><trkpt lat="33.8928472" lon="132.9494125"><ele>642.9</ele><time>2022-04-15T23:40:45Z</time></trkpt><trkpt lat="33.8930165" lon="132.9493376"><ele>651.03</ele><time>2022-04-15T23:46:52Z</time></trkpt><trkpt lat="33.8931779" lon="132.9492373"><ele>659.0666666666667</ele><time>2022-04-15T23:48:42Z</time></trkpt><trkpt lat="33.8933575" lon="132.9492104"><ele>668.8266666666667</ele><time>2022-04-15T23:49:37Z</time></trkpt><trkpt lat="33.8935394" lon="132.9491595"><ele>676.8666666666667</ele><time>2022-04-15T23:51:02Z</time></trkpt><trkpt lat="33.893637" lon="132.9489728"><ele>680.0466666666666</ele><time>2022-04-15T23:51:25Z</time></trkpt><trkpt lat="33.8938029" lon="132.9488797"><ele>682.8166666666667</ele><time>2022-04-15T23:52:28Z</time></trkpt><trkpt lat="33.893967" lon="132.9487793"><ele>684.5866666666667</ele><time>2022-04-15T23:52:59Z</time></trkpt><trkpt lat="33.8941247" lon="132.9486602"><ele>690.5600000000001</ele><time>2022-04-15T23:53:10Z</time></trkpt><trkpt lat="33.8942934" lon="132.9485722"><ele>696.61</ele><time>2022-04-15T23:54:00Z</time></trkpt><trkpt lat="33.8944746" lon="132.9485687"><ele>704.5733333333333</ele><time>2022-04-15T23:54:39Z</time></trkpt><trkpt lat="33.8946551" lon="132.9485629"><ele>715.4000000000001</ele><time>2022-04-15T23:56:07Z</time></trkpt><trkpt lat="33.8948317" lon="132.9485119"><ele>725.5133333333333</ele><time>2022-04-15T23:56:50Z</time></trkpt><trkpt lat="33.8950052" lon="132.9484498"><ele>737.8566666666667</ele><time>2022-04-15T23:58:05Z</time></trkpt><trkpt lat="33.8951864" lon="132.9484604"><ele>752.0</ele><time>2022-04-15T23:59:02Z</time></trkpt><trkpt lat="33.8953667" lon="132.9484636"><ele>772.2966666666667</ele><time>2022-04-16T00:00:42Z</time></trkpt><trkpt lat="33.8955515" lon="132.9484727"><ele>790.3433333333334</ele><time>2022-04-16T00:01:30Z</time></trkpt><trkpt lat="33.8956586" lon="132.9486493"><ele>807.6833333333334</ele><time>2022-04-16T00:03:29Z</time></trkpt><trkpt lat="33.895795" lon="132.9487925"><ele>820.4699999999999</ele><time>2022-04-16T00:04:54Z</time></trkpt><trkpt lat="33.8958177" lon="132.9490138"><ele>832.8433333333334</ele><time>2022-04-16T00:06:51Z</time></trkpt><trkpt lat="33.8959591" lon="132.9491509"><ele>844.8933333333334</ele><time>2022-04-16T00:07:32Z</time></trkpt><trkpt lat="33.8960946" lon="132.9492966"><ele>858.5533333333333</ele><time>2022-04-16T00:09:10Z</time></trkpt><trkpt lat="33.8962724" lon="132.9493486"><ele>871.6933333333333</ele><time>2022-04-16T00:11:01Z</time></trkpt><trkpt lat="33.8962803" lon="132.9495657"><ele>882.65</ele><time>2022-04-16T00:11:59Z</time></trkpt><trkpt lat="33.8963538" lon="132.9497644"><ele>894.0433333333334</ele><time>2022-04-16T00:12:18Z</time></trkpt><trkpt lat="33.8964395" lon="132.9499565"><ele>906.3566666666667</ele><time>2022-04-16T00:14:02Z</time></trkpt><trkpt lat="33.8965196" lon="132.9501533"><ele>918.6166666666667</ele><time>2022-04-16T00:14:27Z</time></trkpt><trkpt lat="33.8966204" lon="132.9503341"><ele>927.4133333333334</ele><time>2022-04-16T00:15:13Z</time></trkpt><trkpt lat="33.8967347" lon="132.9505019"><ele>937.4233333333333</ele><time>2022-04-16T00:16:36Z</time></trkpt><trkpt lat="33.8968892" lon="132.9506209"><ele>947.3066666666667</ele><time>2022-04-16T00:17:28Z</time></trkpt><trkpt lat="33.8970458" lon="132.9507386"><ele>956.9533333333334</ele><time>2022-04-16T00:18:22Z</time></trkpt><trkpt lat="33.8972075" lon="132.9508424"><ele>965.86</ele><time>2022-04-16T00:19:12Z</time></trkpt><trkpt lat="33.8973687" lon="132.950942"><ele>973.9700000000001</ele><time>2022-04-16T00:21:35Z</time></trkpt><trkpt lat="33.8975394" lon="132.9510186"><ele>980.8933333333334</ele><time>2022-04-16T00:22:22Z</time></trkpt><trkpt lat="33.8977123" lon="132.9510841"><ele>986.54</ele><time>2022-04-16T00:23:21Z</time></trkpt><trkpt lat="33.8978848" lon="132.9511657"><ele>991.9100000000002</ele><time>2022-04-16T00:23:55Z</time></trkpt><trkpt lat="33.8980061" lon="132.9513331"><ele>999.4033333333333</ele><time>2022-04-16T00:24:23Z</time></trkpt><trkpt lat="33.8981705" lon="132.9514402"><ele>1005.5300000000001</ele><time>2022-04-16T00:25:05Z</time></trkpt><trkpt lat="33.8982184" lon="132.9516577"><ele>1009.9266666666667</ele><time>2022-04-16T00:25:51Z</time></trkpt><trkpt lat="33.8982864" lon="132.9518725"><ele>1009.6733333333333</ele><time>2022-04-16T00:28:47Z</time></trkpt><trkpt lat="33.8984211" lon="132.9520313"><ele>1006.7000000000002</ele><time>2022-04-16T00:29:21Z</time></trkpt><trkpt lat="33.8985181" lon="132.9522225"><ele>1003.1</ele><time>2022-04-16T00:29:39Z</time></trkpt><trkpt lat="33.8986739" lon="132.9523556"><ele>998.6233333333333</ele><time>2022-04-16T00:30:02Z</time></trkpt><trkpt lat="33.898815" lon="132.9525011"><ele>993.62</ele><time>2022-04-16T00:30:18Z</time></trkpt><trkpt lat="33.8989038" lon="132.9526992"><ele>988.0100000000001</ele><time>2022-04-16T00:30:36Z</time></trkpt><trkpt lat="33.8989142" lon="132.9529194"><ele>984.4366666666666</ele><time>2022-04-16T00:30:49Z</time></trkpt><trkpt lat="33.898887" lon="132.9531339"><ele>986.08</ele><time>2022-04-16T00:31:52Z</time></trkpt><trkpt lat="33.8989063" lon="132.9533513"><ele>991.6366666666667</ele><time>2022-04-16T00:33:48Z</time></trkpt><trkpt lat="33.8990646" lon="132.9539637"><ele>1001.2966666666666</ele><time>2022-04-16T00:35:25Z</time></trkpt><trkpt lat="33.8989949" lon="132.9537604"><ele>1006.5733333333334</ele><time>2022-04-16T00:35:56Z</time></trkpt><trkpt lat="33.8988776" lon="132.9539274"><ele>1013.88</ele><time>2022-04-16T00:37:19Z</time></trkpt><trkpt lat="33.8989542" lon="132.954126"><ele>1019.1233333333333</ele><time>2022-04-16T00:38:31Z</time></trkpt><trkpt lat="33.8989658" lon="132.954345"><ele>1029.5199999999998</ele><time>2022-04-16T00:40:00Z</time></trkpt><trkpt lat="33.898978" lon="132.9545649"><ele>1037.6633333333332</ele><time>2022-04-16T00:40:37Z</time></trkpt><trkpt lat="33.8990152" lon="132.9547794"><ele>1048.12</ele><time>2022-04-16T00:41:58Z</time></trkpt><trkpt lat="33.8990793" lon="132.954982"><ele>1058.1533333333334</ele><time>2022-04-16T00:43:31Z</time></trkpt><trkpt lat="33.8991363" lon="132.955189"><ele>1070.5433333333333</ele><time>2022-04-16T00:46:07Z</time></trkpt><trkpt lat="33.8991679" lon="132.9554096"><ele>1081.6933333333334</ele><time>2022-04-16T00:46:37Z</time></trkpt><trkpt lat="33.8991328" lon="132.9556238"><ele>1094.0066666666667</ele><time>2022-04-16T00:47:41Z</time></trkpt><trkpt lat="33.8991772" lon="132.9558387"><ele>1105.61</ele><time>2022-04-16T00:49:50Z</time></trkpt><trkpt lat="33.8992119" lon="132.9560524"><ele>1118.3500000000001</ele><time>2022-04-16T00:50:31Z</time></trkpt><trkpt lat="33.8992768" lon="132.9562615"><ele>1128.18</ele><time>2022-04-16T00:50:54Z</time></trkpt><trkpt lat="33.8993734" lon="132.9564471"><ele>1135.0400000000002</ele><time>2022-04-16T00:51:19Z</time></trkpt><trkpt lat="33.8993246" lon="132.9566707"><ele>1139.3133333333335</ele><time>2022-04-16T00:51:53Z</time></trkpt><trkpt lat="33.8992897" lon="132.9568839"><ele>1142.8066666666666</ele><time>2022-04-16T00:53:20Z</time></trkpt><trkpt lat="33.8993692" lon="132.9570812"><ele>1147.1833333333334</ele><time>2022-04-16T00:53:56Z</time></trkpt><trkpt lat="33.8994259" lon="132.9572963"><ele>1151.5366666666666</ele><time>2022-04-16T00:54:21Z</time></trkpt><trkpt lat="33.8994744" lon="132.9575055"><ele>1158.7866666666666</ele><time>2022-04-16T00:54:30Z</time></trkpt><trkpt lat="33.8994775" lon="132.9577262"><ele>1165.8066666666666</ele><time>2022-04-16T00:56:19Z</time></trkpt><trkpt lat="33.8994791" lon="132.9579458"><ele>1174.05</ele><time>2022-04-16T00:57:24Z</time></trkpt><trkpt lat="33.8995747" lon="132.9581363"><ele>1181.9099999999999</ele><time>2022-04-16T00:58:02Z</time></trkpt><trkpt lat="33.8996888" lon="132.9583063"><ele>1190.0033333333333</ele><time>2022-04-16T00:58:27Z</time></trkpt><trkpt lat="33.8997143" lon="132.9585269"><ele>1196.63</ele><time>2022-04-16T00:59:19Z</time></trkpt><trkpt lat="33.8997373" lon="132.9587422"><ele>1199.216666666667</ele><time>2022-04-16T01:00:28Z</time></trkpt><trkpt lat="33.8999097" lon="132.9586658"><ele>1199.0666666666668</ele><time>2022-04-16T01:01:31Z</time></trkpt><trkpt lat="33.9000195" lon="132.958839"><ele>1192.1666666666667</ele><time>2022-04-16T01:03:16Z</time></trkpt><trkpt lat="33.9001913" lon="132.9589068"><ele>1182.0633333333333</ele><time>2022-04-16T01:05:33Z</time></trkpt><trkpt lat="33.9003331" lon="132.9590407"><ele>1169.28</ele><time>2022-04-16T01:07:46Z</time></trkpt><trkpt lat="33.9005086" lon="132.9591157"><ele>1160.14</ele><time>2022-04-16T01:08:23Z</time></trkpt><trkpt lat="33.900558" lon="132.9593332"><ele>1158.83</ele><time>2022-04-16T01:09:07Z</time></trkpt><trkpt lat="33.9006608" lon="132.9595144"><ele>1162.1166666666668</ele><time>2022-04-16T01:10:38Z</time></trkpt><trkpt lat="33.9007995" lon="132.9596613"><ele>1166.4533333333334</ele><time>2022-04-16T01:11:13Z</time></trkpt><trkpt lat="33.9009801" lon="132.9596722"><ele>1166.1100000000001</ele><time>2022-04-16T01:12:33Z</time></trkpt><trkpt lat="33.9011661" lon="132.95963"><ele>1162.5366666666666</ele><time>2022-04-16T01:14:32Z</time></trkpt><trkpt lat="33.9013311" lon="132.959732"><ele>1162.0033333333333</ele><time>2022-04-16T01:18:13Z</time></trkpt><trkpt lat="33.9014987" lon="132.959823"><ele>1165.6266666666668</ele><time>2022-04-16T01:21:29Z</time></trkpt><trkpt lat="33.9016777" lon="132.9598548"><ele>1172.6200000000001</ele><time>2022-04-16T01:22:27Z</time></trkpt><trkpt lat="33.9018611" lon="132.9597923"><ele>1180.5066666666667</ele><time>2022-04-16T01:23:52Z</time></trkpt><trkpt lat="33.9020268" lon="132.9597069"><ele>1188.32</ele><time>2022-04-16T01:24:35Z</time></trkpt><trkpt lat="33.9021971" lon="132.9597787"><ele>1199.3999999999999</ele><time>2022-04-16T01:26:23Z</time></trkpt><trkpt lat="33.9023556" lon="132.9598824"><ele>1210.5733333333335</ele><time>2022-04-16T01:27:24Z</time></trkpt><trkpt lat="33.9025297" lon="132.959808"><ele>1220.8266666666668</ele><time>2022-04-16T01:29:19Z</time></trkpt><trkpt lat="33.9026884" lon="132.9597051"><ele>1226.8833333333334</ele><time>2022-04-16T01:29:35Z</time></trkpt><trkpt lat="33.9025981" lon="132.959899"><ele>1229.5033333333333</ele><time>2022-04-16T01:40:36Z</time></trkpt><trkpt lat="33.9025273" lon="132.9601053"><ele>1227.5433333333333</ele><time>2022-04-16T01:41:45Z</time></trkpt><trkpt lat="33.9025118" lon="132.9603228"><ele>1222.7033333333334</ele><time>2022-04-16T01:41:59Z</time></trkpt><trkpt lat="33.9025267" lon="132.9605418"><ele>1217.1566666666665</ele><time>2022-04-16T01:43:32Z</time></trkpt><trkpt lat="33.9025581" lon="132.9607562"><ele>1213.38</ele><time>2022-04-16T01:45:19Z</time></trkpt><trkpt lat="33.9027022" lon="132.9609112"><ele>1212.2133333333334</ele><time>2022-04-16T01:45:40Z</time></trkpt><trkpt lat="33.9025381" lon="132.9608176"><ele>1211.0866666666666</ele><time>2022-04-16T01:48:38Z</time></trkpt><trkpt lat="33.9023742" lon="132.9607214"><ele>1207.9766666666667</ele><time>2022-04-16T01:49:31Z</time></trkpt><trkpt lat="33.9021968" lon="132.9607769"><ele>1200.8933333333332</ele><time>2022-04-16T01:50:31Z</time></trkpt><trkpt lat="33.9021255" lon="132.960977"><ele>1190.5666666666666</ele><time>2022-04-16T01:51:42Z</time></trkpt><trkpt lat="33.9020303" lon="132.961162"><ele>1178.6899999999998</ele><time>2022-04-16T01:52:40Z</time></trkpt><trkpt lat="33.9019345" lon="132.9613496"><ele>1170.7233333333334</ele><time>2022-04-16T01:53:36Z</time></trkpt><trkpt lat="33.9018676" lon="132.9615535"><ele>1166.49</ele><time>2022-04-16T01:54:12Z</time></trkpt><trkpt lat="33.9017666" lon="132.9617616"><ele>1165.33</ele><time>2022-04-16T01:55:12Z</time></trkpt><trkpt lat="33.9017333" lon="132.961978"><ele>1162.3866666666665</ele><time>2022-04-16T01:55:28Z</time></trkpt><trkpt lat="33.9015655" lon="132.9620695"><ele>1158.4499999999998</ele><time>2022-04-16T01:56:12Z</time></trkpt><trkpt lat="33.9014494" lon="132.9622525"><ele>1152.53</ele><time>2022-04-16T01:56:57Z</time></trkpt><trkpt lat="33.9012819" lon="132.9623397"><ele>1146.3633333333335</ele><time>2022-04-16T01:57:17Z</time></trkpt><trkpt lat="33.9011715" lon="132.9625138"><ele>1140.5366666666666</ele><time>2022-04-16T01:57:43Z</time></trkpt><trkpt lat="33.9010328" lon="132.9626763"><ele>1136.75</ele><time>2022-04-16T01:57:59Z</time></trkpt><trkpt lat="33.9009319" lon="132.9628652"><ele>1134.9233333333334</ele><time>2022-04-16T01:58:12Z</time></trkpt><trkpt lat="33.9008272" lon="132.9630426"><ele>1133.72</ele><time>2022-04-16T01:58:47Z</time></trkpt><trkpt lat="33.9007581" lon="132.9632476"><ele>1132.8733333333332</ele><time>2022-04-16T01:59:53Z</time></trkpt><trkpt lat="33.9006227" lon="132.9634087"><ele>1131.7533333333333</ele><time>2022-04-16T02:00:07Z</time></trkpt><trkpt lat="33.900517" lon="132.9635942"><ele>1129.0233333333333</ele><time>2022-04-16T02:00:22Z</time></trkpt><trkpt lat="33.9004045" lon="132.9637738"><ele>1124.4333333333334</ele><time>2022-04-16T02:00:46Z</time></trkpt><trkpt lat="33.9004105" lon="132.96399"><ele>1118.9433333333334</ele><time>2022-04-16T02:01:10Z</time></trkpt><trkpt lat="33.9003954" lon="132.9642058"><ele>1113.4533333333331</ele><time>2022-04-16T02:01:31Z</time></trkpt><trkpt lat="33.9003501" lon="132.9644169"><ele>1108.5166666666667</ele><time>2022-04-16T02:02:39Z</time></trkpt><trkpt lat="33.9002951" lon="132.9646262"><ele>1104.3999999999999</ele><time>2022-04-16T02:02:51Z</time></trkpt><trkpt lat="33.9002188" lon="132.9648228"><ele>1102.4833333333333</ele><time>2022-04-16T02:03:22Z</time></trkpt><trkpt lat="33.9001825" lon="132.9650433"><ele>1102.9733333333334</ele><time>2022-04-16T02:04:46Z</time></trkpt><trkpt lat="33.9001386" lon="132.9652603"><ele>1103.98</ele><time>2022-04-16T02:05:41Z</time></trkpt><trkpt lat="33.9000077" lon="132.9654175"><ele>1104.3833333333332</ele><time>2022-04-16T02:06:15Z</time></trkpt><trkpt lat="33.8998391" lon="132.9655032"><ele>1103.2833333333335</ele><time>2022-04-16T02:06:32Z</time></trkpt><trkpt lat="33.8996602" lon="132.9655396"><ele>1102.1566666666665</ele><time>2022-04-16T02:06:53Z</time></trkpt><trkpt lat="33.8994868" lon="132.9656014"><ele>1101.0366666666666</ele><time>2022-04-16T02:07:27Z</time></trkpt><trkpt lat="33.8993218" lon="132.9656907"><ele>1100.1233333333332</ele><time>2022-04-16T02:07:51Z</time></trkpt><trkpt lat="33.8992246" lon="132.9658738"><ele>1097.26</ele><time>2022-04-16T02:08:07Z</time></trkpt><trkpt lat="33.8990544" lon="132.9659481"><ele>1093.6566666666668</ele><time>2022-04-16T02:08:20Z</time></trkpt><trkpt lat="33.898994" lon="132.9661635"><ele>1085.6333333333334</ele><time>2022-04-16T02:08:35Z</time></trkpt><trkpt lat="33.8988696" lon="132.9663478"><ele>1077.24</ele><time>2022-04-16T02:08:50Z</time></trkpt><trkpt lat="33.8987835" lon="132.9665432"><ele>1067.8166666666666</ele><time>2022-04-16T02:09:27Z</time></trkpt><trkpt lat="33.8986439" lon="132.9666992"><ele>1060.9233333333334</ele><time>2022-04-16T02:09:41Z</time></trkpt><trkpt lat="33.8984808" lon="132.9667981"><ele>1056.1433333333334</ele><time>2022-04-16T02:09:57Z</time></trkpt><trkpt lat="33.8983175" lon="132.9668926"><ele>1053.3466666666666</ele><time>2022-04-16T02:10:15Z</time></trkpt><trkpt lat="33.8981807" lon="132.9670356"><ele>1052.1233333333332</ele><time>2022-04-16T02:10:31Z</time></trkpt><trkpt lat="33.8980231" lon="132.9671465"><ele>1051.5</ele><time>2022-04-16T02:10:48Z</time></trkpt><trkpt lat="33.8980108" lon="132.9673669"><ele>1049.9733333333334</ele><time>2022-04-16T02:11:11Z</time></trkpt><trkpt lat="33.8978567" lon="132.9674799"><ele>1047.3833333333332</ele><time>2022-04-16T02:12:08Z</time></trkpt><trkpt lat="33.8976975" lon="132.96759"><ele>1041.7366666666667</ele><time>2022-04-16T02:12:23Z</time></trkpt><trkpt lat="33.897503" lon="132.9676207"><ele>1035.8500000000001</ele><time>2022-04-16T02:13:37Z</time></trkpt><trkpt lat="33.8973247" lon="132.9676569"><ele>1031.92</ele><time>2022-04-16T02:14:22Z</time></trkpt><trkpt lat="33.8971437" lon="132.9676444"><ele>1030.7333333333333</ele><time>2022-04-16T02:15:29Z</time></trkpt><trkpt lat="33.8969634" lon="132.9676412"><ele>1031.2099999999998</ele><time>2022-04-16T02:16:22Z</time></trkpt><trkpt lat="33.8967851" lon="132.9676736"><ele>1031.7533333333333</ele><time>2022-04-16T02:18:35Z</time></trkpt><trkpt lat="33.8966026" lon="132.9676618"><ele>1032.4133333333334</ele><time>2022-04-16T02:19:30Z</time></trkpt><trkpt lat="33.8964177" lon="132.9676509"><ele>1033.5566666666666</ele><time>2022-04-16T02:19:40Z</time></trkpt><trkpt lat="33.8962597" lon="132.9677602"><ele>1033.9833333333333</ele><time>2022-04-16T02:20:17Z</time></trkpt><trkpt lat="33.8961131" lon="132.9678939"><ele>1030.0900000000001</ele><time>2022-04-16T02:20:45Z</time></trkpt><trkpt lat="33.8959185" lon="132.9679387"><ele>1026.0933333333335</ele><time>2022-04-16T02:20:55Z</time></trkpt><trkpt lat="33.8957341" lon="132.9679685"><ele>1022.04</ele><time>2022-04-16T02:21:15Z</time></trkpt><trkpt lat="33.8956295" lon="132.9681535"><ele>1020.23</ele><time>2022-04-16T02:21:28Z</time></trkpt><trkpt lat="33.8955387" lon="132.9683484"><ele>1016.2933333333334</ele><time>2022-04-16T02:21:38Z</time></trkpt><trkpt lat="33.8953868" lon="132.9684677"><ele>1011.2933333333334</ele><time>2022-04-16T02:21:50Z</time></trkpt><trkpt lat="33.8951903" lon="132.9684498"><ele>1005.6866666666666</ele><time>2022-04-16T02:22:01Z</time></trkpt><trkpt lat="33.8950179" lon="132.9685604"><ele>997.6666666666666</ele><time>2022-04-16T02:22:11Z</time></trkpt><trkpt lat="33.8948523" lon="132.9686575"><ele>988.4933333333333</ele><time>2022-04-16T02:22:33Z</time></trkpt><trkpt lat="33.8946623" lon="132.9686915"><ele>981.7133333333333</ele><time>2022-04-16T02:22:51Z</time></trkpt><trkpt lat="33.894496" lon="132.9688246"><ele>974.9933333333333</ele><time>2022-04-16T02:23:32Z</time></trkpt><trkpt lat="33.8943323" lon="132.9689158"><ele>969.71</ele><time>2022-04-16T02:23:56Z</time></trkpt><trkpt lat="33.8941432" lon="132.9689228"><ele>963.08</ele><time>2022-04-16T02:24:36Z</time></trkpt><trkpt lat="33.8939708" lon="132.9690165"><ele>956.7166666666667</ele><time>2022-04-16T02:26:29Z</time></trkpt><trkpt lat="33.8938112" lon="132.9691237"><ele>950.0033333333334</ele><time>2022-04-16T02:26:42Z</time></trkpt><trkpt lat="33.8937093" lon="132.969304"><ele>941.7366666666667</ele><time>2022-04-16T02:26:56Z</time></trkpt><trkpt lat="33.8935275" lon="132.9692935"><ele>936.7800000000001</ele><time>2022-04-16T02:28:12Z</time></trkpt><trkpt lat="33.8933739" lon="132.9694108"><ele>932.6500000000001</ele><time>2022-04-16T02:28:34Z</time></trkpt><trkpt lat="33.8932233" lon="132.9692802"><ele>931.7966666666666</ele><time>2022-04-16T02:28:54Z</time></trkpt><trkpt lat="33.8930421" lon="132.9692938"><ele>929.6333333333333</ele><time>2022-04-16T02:29:43Z</time></trkpt><trkpt lat="33.8928791" lon="132.9691903"><ele>926.8233333333334</ele><time>2022-04-16T02:30:02Z</time></trkpt><trkpt lat="33.8927156" lon="132.9690878"><ele>920.1566666666668</ele><time>2022-04-16T02:30:45Z</time></trkpt><trkpt lat="33.8925209" lon="132.9691008"><ele>913.5300000000001</ele><time>2022-04-16T02:30:54Z</time></trkpt><trkpt lat="33.8923506" lon="132.969015"><ele>904.3933333333333</ele><time>2022-04-16T02:31:08Z</time></trkpt><trkpt lat="33.8922" lon="132.9688959"><ele>894.71</ele><time>2022-04-16T02:31:21Z</time></trkpt><trkpt lat="33.8921043" lon="132.968707"><ele>885.3866666666667</ele><time>2022-04-16T02:31:35Z</time></trkpt><trkpt lat="33.8919518" lon="132.9685891"><ele>878.92</ele><time>2022-04-16T02:31:53Z</time></trkpt><trkpt lat="33.8917684" lon="132.968596"><ele>874.85</ele><time>2022-04-16T02:32:09Z</time></trkpt><trkpt lat="33.8915921" lon="132.9685227"><ele>869.64</ele><time>2022-04-16T02:32:30Z</time></trkpt><trkpt lat="33.8914206" lon="132.9686066"><ele>861.8533333333334</ele><time>2022-04-16T02:33:00Z</time></trkpt><trkpt lat="33.8912464" lon="132.9685379"><ele>854.48</ele><time>2022-04-16T02:33:34Z</time></trkpt><trkpt lat="33.8910649" lon="132.96858"><ele>843.7533333333334</ele><time>2022-04-16T02:33:49Z</time></trkpt><trkpt lat="33.8908933" lon="132.9686546"><ele>833.13</ele><time>2022-04-16T02:34:24Z</time></trkpt><trkpt lat="33.8907119" lon="132.9686387"><ele>821.7866666666667</ele><time>2022-04-16T02:35:11Z</time></trkpt><trkpt lat="33.890531" lon="132.9686253"><ele>813.9766666666666</ele><time>2022-04-16T02:35:41Z</time></trkpt><trkpt lat="33.8903477" lon="132.968689"><ele>804.9433333333333</ele><time>2022-04-16T02:36:20Z</time></trkpt><trkpt lat="33.8901739" lon="132.9687473"><ele>794.1933333333333</ele><time>2022-04-16T02:36:38Z</time></trkpt><trkpt lat="33.8899931" lon="132.9687391"><ele>781.1466666666666</ele><time>2022-04-16T02:37:06Z</time></trkpt><trkpt lat="33.8898141" lon="132.9686901"><ele>770.79</ele><time>2022-04-16T02:37:52Z</time></trkpt><trkpt lat="33.889646" lon="132.9686084"><ele>759.65</ele><time>2022-04-16T02:38:37Z</time></trkpt><trkpt lat="33.8894624" lon="132.968595"><ele>749.1233333333333</ele><time>2022-04-16T02:38:59Z</time></trkpt><trkpt lat="33.8893055" lon="132.9687134"><ele>737.5433333333334</ele><time>2022-04-16T02:39:27Z</time></trkpt><trkpt lat="33.8891295" lon="132.9686545"><ele>725.9433333333333</ele><time>2022-04-16T02:39:39Z</time></trkpt><trkpt lat="33.8889501" lon="132.9687005"><ele>715.3466666666667</ele><time>2022-04-16T02:44:10Z</time></trkpt><trkpt lat="33.8887768" lon="132.9687612"><ele>702.5500000000001</ele><time>2022-04-16T02:44:49Z</time></trkpt><trkpt lat="33.8886232" lon="132.9686444"><ele>692.59</ele><time>2022-04-16T02:45:22Z</time></trkpt><trkpt lat="33.8884477" lon="132.9686951"><ele>681.42</ele><time>2022-04-16T02:45:58Z</time></trkpt><trkpt lat="33.8882676" lon="132.968684"><ele>671.44</ele><time>2022-04-16T02:46:30Z</time></trkpt><trkpt lat="33.8881453" lon="132.9688441"><ele>658.8000000000001</ele><time>2022-04-16T02:46:59Z</time></trkpt><trkpt lat="33.8879697" lon="132.9688952"><ele>650.2666666666667</ele><time>2022-04-16T02:47:14Z</time></trkpt><trkpt lat="33.8877916" lon="132.9688519"><ele>643.9666666666667</ele><time>2022-04-16T02:47:31Z</time></trkpt><trkpt lat="33.8876122" lon="132.9688804"><ele>637.8466666666667</ele><time>2022-04-16T02:48:16Z</time></trkpt><trkpt lat="33.8874523" lon="132.9687804"><ele>626.9033333333333</ele><time>2022-04-16T02:48:39Z</time></trkpt><trkpt lat="33.8874166" lon="132.9685682"><ele>617.1433333333333</ele><time>2022-04-16T02:49:41Z</time></trkpt><trkpt lat="33.8873513" lon="132.9687739"><ele>609.1733333333333</ele><time>2022-04-16T02:49:53Z</time></trkpt><trkpt lat="33.8871857" lon="132.968893"><ele>604.04</ele><time>2022-04-16T02:50:40Z</time></trkpt><trkpt lat="33.8870103" lon="132.968963"><ele>599.3433333333334</ele><time>2022-04-16T02:50:54Z</time></trkpt><trkpt lat="33.8868439" lon="132.9690565"><ele>596.4466666666667</ele><time>2022-04-16T02:51:17Z</time></trkpt><trkpt lat="33.8866314" lon="132.9690208"><ele>595.3233333333333</ele><time>2022-04-16T02:52:31Z</time></trkpt><trkpt lat="33.8864549" lon="132.9689613"><ele>594.54</ele><time>2022-04-16T02:53:00Z</time></trkpt><trkpt lat="33.886472" lon="132.9687451"><ele>594.94</ele><time>2022-04-16T02:53:21Z</time></trkpt><trkpt lat="33.886385" lon="132.9685429"><ele>594.02</ele><time>2022-04-16T02:53:29Z</time></trkpt><trkpt lat="33.8862727" lon="132.9683613"><ele>592.6366666666667</ele><time>2022-04-16T02:53:39Z</time></trkpt><trkpt lat="33.8861911" lon="132.9681683"><ele>590.18</ele><time>2022-04-16T02:53:51Z</time></trkpt><trkpt lat="33.8862064" lon="132.9679499"><ele>589.1633333333334</ele><time>2022-04-16T02:54:02Z</time></trkpt><trkpt lat="33.8861082" lon="132.9677596"><ele>589.7833333333334</ele><time>2022-04-16T02:54:19Z</time></trkpt><trkpt lat="33.8859142" lon="132.9677497"><ele>590.3433333333332</ele><time>2022-04-16T02:54:31Z</time></trkpt><trkpt lat="33.8857668" lon="132.967892"><ele>589.7666666666668</ele><time>2022-04-16T02:54:42Z</time></trkpt><trkpt lat="33.8857007" lon="132.9680977"><ele>589.36</ele><time>2022-04-16T02:54:53Z</time></trkpt><trkpt lat="33.8855133" lon="132.9680839"><ele>588.9133333333334</ele><time>2022-04-16T02:55:10Z</time></trkpt><trkpt lat="33.8853357" lon="132.9679987"><ele>588.37</ele><time>2022-04-16T02:55:22Z</time></trkpt><trkpt lat="33.8851619" lon="132.9680578"><ele>586.8266666666667</ele><time>2022-04-16T02:55:33Z</time></trkpt><trkpt lat="33.8849801" lon="132.9680173"><ele>585.14</ele><time>2022-04-16T02:55:49Z</time></trkpt><trkpt lat="33.8847968" lon="132.9680434"><ele>584.38</ele><time>2022-04-16T02:56:02Z</time></trkpt><trkpt lat="33.8846276" lon="132.9681202"><ele>586.19</ele><time>2022-04-16T02:56:15Z</time></trkpt><trkpt lat="33.8845846" lon="132.9679056"><ele>585.7333333333332</ele><time>2022-04-16T02:56:35Z</time></trkpt><trkpt lat="33.8845073" lon="132.9676982"><ele>583.8533333333334</ele><time>2022-04-16T02:56:50Z</time></trkpt><trkpt lat="33.8843434" lon="132.9676065"><ele>579.0033333333333</ele><time>2022-04-16T02:57:01Z</time></trkpt><trkpt lat="33.8841843" lon="132.9677425"><ele>576.2333333333332</ele><time>2022-04-16T02:57:29Z</time></trkpt><trkpt lat="33.8840362" lon="132.9678864"><ele>575.3033333333333</ele><time>2022-04-16T02:57:44Z</time></trkpt><trkpt lat="33.8838592" lon="132.9679401"><ele>572.88</ele><time>2022-04-16T02:57:54Z</time></trkpt><trkpt lat="33.8836691" lon="132.9679432"><ele>570.4066666666666</ele><time>2022-04-16T02:58:09Z</time></trkpt><trkpt lat="33.8834911" lon="132.9679858"><ele>568.15</ele><time>2022-04-16T02:58:23Z</time></trkpt><trkpt lat="33.8833443" lon="132.9678478"><ele>565.3166666666666</ele><time>2022-04-16T02:58:34Z</time></trkpt><trkpt lat="33.8831588" lon="132.9678605"><ele>562.8566666666667</ele><time>2022-04-16T02:58:49Z</time></trkpt><trkpt lat="33.8830025" lon="132.9677425"><ele>559.5166666666667</ele><time>2022-04-16T02:59:11Z</time></trkpt><trkpt lat="33.8829568" lon="132.9675326"><ele>556.6333333333333</ele><time>2022-04-16T02:59:30Z</time></trkpt><trkpt lat="33.8827774" lon="132.9675015"><ele>553.9566666666666</ele><time>2022-04-16T02:59:48Z</time></trkpt><trkpt lat="33.8826091" lon="132.9675845"><ele>553.0933333333332</ele><time>2022-04-16T02:59:59Z</time></trkpt><trkpt lat="33.8824537" lon="132.9674725"><ele>553.82</ele><time>2022-04-16T03:00:27Z</time></trkpt><trkpt lat="33.8822755" lon="132.9675262"><ele>555.0266666666666</ele><time>2022-04-16T03:00:53Z</time></trkpt><trkpt lat="33.8821092" lon="132.9674177"><ele>554.0100000000001</ele><time>2022-04-16T03:01:05Z</time></trkpt><trkpt lat="33.8819292" lon="132.9674656"><ele>553.2366666666667</ele><time>2022-04-16T03:01:19Z</time></trkpt><trkpt lat="33.8818022" lon="132.9676327"><ele>552.6800000000001</ele><time>2022-04-16T03:01:41Z</time></trkpt><trkpt lat="33.8816343" lon="132.9677379"><ele>552.7766666666666</ele><time>2022-04-16T03:02:03Z</time></trkpt><trkpt lat="33.8815443" lon="132.9679343"><ele>553.6933333333333</ele><time>2022-04-16T03:02:14Z</time></trkpt><trkpt lat="33.8814828" lon="132.9681394"><ele>557.3333333333334</ele><time>2022-04-16T03:02:23Z</time></trkpt><trkpt lat="33.8813265" lon="132.9682646"><ele>562.8299999999999</ele><time>2022-04-16T03:02:35Z</time></trkpt><trkpt lat="33.8811632" lon="132.9681629"><ele>566.2433333333333</ele><time>2022-04-16T03:02:51Z</time></trkpt><trkpt lat="33.8809827" lon="132.9681522"><ele>567.7800000000001</ele><time>2022-04-16T03:03:04Z</time></trkpt><trkpt lat="33.8808002" lon="132.9681173"><ele>567.3100000000001</ele><time>2022-04-16T03:03:13Z</time></trkpt><trkpt lat="33.8806578" lon="132.9679728"><ele>569.7066666666666</ele><time>2022-04-16T03:03:35Z</time></trkpt><trkpt lat="33.8804988" lon="132.967864"><ele>569.56</ele><time>2022-04-16T03:03:52Z</time></trkpt><trkpt lat="33.8803765" lon="132.9676987"><ele>569.0699999999999</ele><time>2022-04-16T03:05:23Z</time></trkpt><trkpt lat="33.8801941" lon="132.9676743"><ele>569.6</ele><time>2022-04-16T03:05:32Z</time></trkpt><trkpt lat="33.8800071" lon="132.9676312"><ele>575.66</ele><time>2022-04-16T03:05:45Z</time></trkpt><trkpt lat="33.8798644" lon="132.9674897"><ele>579.3733333333333</ele><time>2022-04-16T03:05:59Z</time></trkpt><trkpt lat="33.8796923" lon="132.9674009"><ele>580.1633333333333</ele><time>2022-04-16T03:06:14Z</time></trkpt><trkpt lat="33.8795339" lon="132.9672925"><ele>578.1066666666667</ele><time>2022-04-16T03:06:30Z</time></trkpt><trkpt lat="33.8795204" lon="132.9670765"><ele>577.4</ele><time>2022-04-16T03:06:53Z</time></trkpt><trkpt lat="33.8795323" lon="132.9668469"><ele>576.3666666666667</ele><time>2022-04-16T03:07:10Z</time></trkpt><trkpt lat="33.879485" lon="132.9666368"><ele>573.0633333333334</ele><time>2022-04-16T03:07:25Z</time></trkpt><trkpt lat="33.8793802" lon="132.9664594"><ele>572.3833333333333</ele><time>2022-04-16T03:07:39Z</time></trkpt><trkpt lat="33.8792001" lon="132.9664435"><ele>571.8466666666667</ele><time>2022-04-16T03:07:55Z</time></trkpt><trkpt lat="33.8791236" lon="132.9666393"><ele>573.2600000000001</ele><time>2022-04-16T03:08:12Z</time></trkpt><trkpt lat="33.8790005" lon="132.9668006"><ele>574.8566666666667</ele><time>2022-04-16T03:08:29Z</time></trkpt><trkpt lat="33.8788219" lon="132.9668659"><ele>579.6999999999999</ele><time>2022-04-16T03:08:49Z</time></trkpt><trkpt lat="33.8786419" lon="132.966803"><ele>582.3133333333334</ele><time>2022-04-16T03:09:07Z</time></trkpt><trkpt lat="33.8785061" lon="132.9666413"><ele>580.47</ele><time>2022-04-16T03:09:23Z</time></trkpt><trkpt lat="33.8783237" lon="132.9666397"><ele>577.73</ele><time>2022-04-16T03:09:34Z</time></trkpt><trkpt lat="33.8781429" lon="132.9666165"><ele>577.1633333333333</ele><time>2022-04-16T03:09:49Z</time></trkpt><trkpt lat="33.8779654" lon="132.9665287"><ele>582.0266666666666</ele><time>2022-04-16T03:10:09Z</time></trkpt><trkpt lat="33.8778187" lon="132.9663879"><ele>585.4866666666667</ele><time>2022-04-16T03:10:25Z</time></trkpt><trkpt lat="33.877717" lon="132.9662049"><ele>587.2633333333333</ele><time>2022-04-16T03:10:40Z</time></trkpt><trkpt lat="33.8775937" lon="132.9660425"><ele>588.1633333333333</ele><time>2022-04-16T03:10:56Z</time></trkpt><trkpt lat="33.8774393" lon="132.9659124"><ele>590.4499999999999</ele><time>2022-04-16T03:11:25Z</time></trkpt><trkpt lat="33.8773101" lon="132.9657556"><ele>594.1833333333334</ele><time>2022-04-16T03:11:39Z</time></trkpt><trkpt lat="33.8771937" lon="132.965578"><ele>594.8866666666668</ele><time>2022-04-16T03:11:53Z</time></trkpt><trkpt lat="33.8770453" lon="132.9654465"><ele>592.33</ele><time>2022-04-16T03:12:07Z</time></trkpt><trkpt lat="33.8768638" lon="132.9654299"><ele>590.91</ele><time>2022-04-16T03:12:22Z</time></trkpt><trkpt lat="33.8767044" lon="132.9653254"><ele>590.6166666666667</ele><time>2022-04-16T03:12:46Z</time></trkpt><trkpt lat="33.8766066" lon="132.9651351"><ele>591.2133333333333</ele><time>2022-04-16T03:12:58Z</time></trkpt><trkpt lat="33.8764926" lon="132.9649647"><ele>588.77</ele><time>2022-04-16T03:13:11Z</time></trkpt><trkpt lat="33.8763247" lon="132.964865"><ele>589.5166666666667</ele><time>2022-04-16T03:13:25Z</time></trkpt><trkpt lat="33.8761598" lon="132.9647596"><ele>591.4</ele><time>2022-04-16T03:13:40Z</time></trkpt><trkpt lat="33.8759774" lon="132.964761"><ele>594.8000000000001</ele><time>2022-04-16T03:13:54Z</time></trkpt><trkpt lat="33.8760477" lon="132.9649698"><ele>597.3833333333333</ele><time>2022-04-16T03:14:07Z</time></trkpt><trkpt lat="33.8761667" lon="132.9651395"><ele>598.0666666666667</ele><time>2022-04-16T03:14:24Z</time></trkpt><trkpt lat="33.8762819" lon="132.9653107"><ele>597.3733333333333</ele><time>2022-04-16T03:14:40Z</time></trkpt><trkpt lat="33.876378" lon="132.9654985"><ele>594.2</ele><time>2022-04-16T03:14:55Z</time></trkpt><trkpt lat="33.8765555" lon="132.9655514"><ele>592.9466666666667</ele><time>2022-04-16T03:15:11Z</time></trkpt><trkpt lat="33.8767223" lon="132.965652"><ele>592.9</ele><time>2022-04-16T03:15:26Z</time></trkpt><trkpt lat="33.8769003" lon="132.9657293"><ele>594.3566666666667</ele><time>2022-04-16T03:15:41Z</time></trkpt><trkpt lat="33.876953" lon="132.9659406"><ele>595.1766666666667</ele><time>2022-04-16T03:15:57Z</time></trkpt><trkpt lat="33.876978" lon="132.9661614"><ele>595.0</ele><time>2022-04-16T03:16:12Z</time></trkpt><trkpt lat="33.8770326" lon="132.9663776"><ele>593.2199999999999</ele><time>2022-04-16T03:16:27Z</time></trkpt><trkpt lat="33.8770901" lon="132.9665854"><ele>592.4699999999999</ele><time>2022-04-16T03:16:41Z</time></trkpt><trkpt lat="33.8771374" lon="132.9667981"><ele>593.5233333333334</ele><time>2022-04-16T03:16:56Z</time></trkpt><trkpt lat="33.8770637" lon="132.9670001"><ele>594.44</ele><time>2022-04-16T03:17:13Z</time></trkpt><trkpt lat="33.8770757" lon="132.9672314"><ele>594.37</ele><time>2022-04-16T03:17:29Z</time></trkpt><trkpt lat="33.8769797" lon="132.9674233"><ele>590.6733333333333</ele><time>2022-04-16T03:17:46Z</time></trkpt><trkpt lat="33.8769703" lon="132.9676411"><ele>585.34</ele><time>2022-04-16T03:18:01Z</time></trkpt><trkpt lat="33.8769891" lon="132.9678676"><ele>580.2166666666667</ele><time>2022-04-16T03:18:15Z</time></trkpt><trkpt lat="33.8769522" lon="132.968086"><ele>577.2733333333334</ele><time>2022-04-16T03:18:34Z</time></trkpt><trkpt lat="33.8768898" lon="132.9682948"><ele>576.8766666666667</ele><time>2022-04-16T03:18:47Z</time></trkpt><trkpt lat="33.8767906" lon="132.9684754"><ele>575.87</ele><time>2022-04-16T03:19:00Z</time></trkpt><trkpt lat="33.8766691" lon="132.9686432"><ele>574.0033333333334</ele><time>2022-04-16T03:19:15Z</time></trkpt><trkpt lat="33.8765071" lon="132.9687567"><ele>574.86</ele><time>2022-04-16T03:19:33Z</time></trkpt><trkpt lat="33.8763173" lon="132.9687415"><ele>572.7366666666667</ele><time>2022-04-16T03:19:46Z</time></trkpt><trkpt lat="33.8761603" lon="132.9688624"><ele>571.8966666666666</ele><time>2022-04-16T03:19:59Z</time></trkpt><trkpt lat="33.8759726" lon="132.9688281"><ele>567.25</ele><time>2022-04-16T03:20:14Z</time></trkpt><trkpt lat="33.8758753" lon="132.9690275"><ele>566.0833333333334</ele><time>2022-04-16T03:20:30Z</time></trkpt><trkpt lat="33.8758237" lon="132.969235"><ele>564.6566666666666</ele><time>2022-04-16T03:20:43Z</time></trkpt><trkpt lat="33.8757672" lon="132.9694412"><ele>565.0033333333333</ele><time>2022-04-16T03:21:09Z</time></trkpt><trkpt lat="33.8757637" lon="132.9696619"><ele>565.4466666666667</ele><time>2022-04-16T03:21:24Z</time></trkpt><trkpt lat="33.8757498" lon="132.9698781"><ele>564.8133333333334</ele><time>2022-04-16T03:21:39Z</time></trkpt><trkpt lat="33.8759143" lon="132.9700796"><ele>567.5666666666667</ele><time>2022-04-16T03:21:53Z</time></trkpt><trkpt lat="33.8760077" lon="132.970272"><ele>570.6466666666666</ele><time>2022-04-16T03:22:05Z</time></trkpt><trkpt lat="33.8759881" lon="132.9705025"><ele>572.83</ele><time>2022-04-16T03:22:20Z</time></trkpt><trkpt lat="33.876023" lon="132.9707205"><ele>571.9833333333333</ele><time>2022-04-16T03:22:38Z</time></trkpt><trkpt lat="33.8761404" lon="132.9708869"><ele>573.0</ele><time>2022-04-16T03:22:55Z</time></trkpt><trkpt lat="33.8761543" lon="132.9711173"><ele>576.3733333333333</ele><time>2022-04-16T03:23:12Z</time></trkpt><trkpt lat="33.8760928" lon="132.9713321"><ele>578.0133333333333</ele><time>2022-04-16T03:23:25Z</time></trkpt><trkpt lat="33.8761491" lon="132.9715433"><ele>578.14</ele><time>2022-04-16T03:23:40Z</time></trkpt><trkpt lat="33.8760751" lon="132.9717472"><ele>576.8066666666667</ele><time>2022-04-16T03:24:08Z</time></trkpt><trkpt lat="33.8760919" lon="132.9719645"><ele>576.81</ele><time>2022-04-16T03:24:19Z</time></trkpt><trkpt lat="33.8760293" lon="132.9721768"><ele>575.1700000000001</ele><time>2022-04-16T03:24:35Z</time></trkpt><trkpt lat="33.8759172" lon="132.9723579"><ele>573.7166666666667</ele><time>2022-04-16T03:24:49Z</time></trkpt><trkpt lat="33.8758086" lon="132.9725346"><ele>572.2866666666667</ele><time>2022-04-16T03:25:07Z</time></trkpt><trkpt lat="33.8757122" lon="132.9723481"><ele>575.2233333333334</ele><time>2022-04-16T03:25:27Z</time></trkpt><trkpt lat="33.8758256" lon="132.9721617"><ele>577.3033333333333</ele><time>2022-04-16T03:25:40Z</time></trkpt><trkpt lat="33.8759008" lon="132.9719626"><ele>577.1066666666667</ele><time>2022-04-16T03:25:55Z</time></trkpt><trkpt lat="33.8758528" lon="132.9717495"><ele>572.57</ele><time>2022-04-16T03:26:12Z</time></trkpt><trkpt lat="33.8757427" lon="132.9715717"><ele>572.5966666666667</ele><time>2022-04-16T03:26:39Z</time></trkpt><trkpt lat="33.8757209" lon="132.9713493"><ele>571.02</ele><time>2022-04-16T03:26:52Z</time></trkpt><trkpt lat="33.8757989" lon="132.9711437"><ele>569.7733333333334</ele><time>2022-04-16T03:27:06Z</time></trkpt><trkpt lat="33.8757203" lon="132.9709463"><ele>564.0600000000001</ele><time>2022-04-16T03:27:19Z</time></trkpt><trkpt lat="33.8756212" lon="132.9707625"><ele>561.4233333333333</ele><time>2022-04-16T03:27:34Z</time></trkpt><trkpt lat="33.8755518" lon="132.9705596"><ele>557.6233333333333</ele><time>2022-04-16T03:27:52Z</time></trkpt><trkpt lat="33.8753715" lon="132.9705049"><ele>552.9233333333333</ele><time>2022-04-16T03:28:05Z</time></trkpt><trkpt lat="33.8751938" lon="132.9705648"><ele>549.4733333333332</ele><time>2022-04-16T03:28:19Z</time></trkpt><trkpt lat="33.8750385" lon="132.9706827"><ele>553.04</ele><time>2022-04-16T03:28:33Z</time></trkpt><trkpt lat="33.8748547" lon="132.9706423"><ele>559.5</ele><time>2022-04-16T03:28:49Z</time></trkpt><trkpt lat="33.8746943" lon="132.9705347"><ele>561.8366666666667</ele><time>2022-04-16T03:29:03Z</time></trkpt><trkpt lat="33.874835" lon="132.970398"><ele>555.9833333333332</ele><time>2022-04-16T03:29:32Z</time></trkpt><trkpt lat="33.8750234" lon="132.9704378"><ele>549.16</ele><time>2022-04-16T03:29:50Z</time></trkpt><trkpt lat="33.8752063" lon="132.9703573"><ele>544.2633333333333</ele><time>2022-04-16T03:30:03Z</time></trkpt><trkpt lat="33.8752817" lon="132.9701431"><ele>541.6533333333333</ele><time>2022-04-16T03:30:15Z</time></trkpt><trkpt lat="33.8752682" lon="132.9699231"><ele>540.1933333333333</ele><time>2022-04-16T03:30:27Z</time></trkpt><trkpt lat="33.8752688" lon="132.9697007"><ele>540.5466666666666</ele><time>2022-04-16T03:30:41Z</time></trkpt><trkpt lat="33.8752207" lon="132.9694906"><ele>543.4433333333333</ele><time>2022-04-16T03:30:54Z</time></trkpt><trkpt lat="33.8753103" lon="132.9693016"><ele>544.6166666666667</ele><time>2022-04-16T03:31:12Z</time></trkpt><trkpt lat="33.8753765" lon="132.9690945"><ele>544.5366666666667</ele><time>2022-04-16T03:31:31Z</time></trkpt><trkpt lat="33.8754264" lon="132.9688744"><ele>541.9766666666667</ele><time>2022-04-16T03:31:44Z</time></trkpt><trkpt lat="33.875468" lon="132.9686515"><ele>541.8233333333333</ele><time>2022-04-16T03:31:56Z</time></trkpt><trkpt lat="33.8755685" lon="132.9684662"><ele>542.39</ele><time>2022-04-16T03:32:10Z</time></trkpt><trkpt lat="33.8757075" lon="132.9683247"><ele>542.6633333333333</ele><time>2022-04-16T03:32:24Z</time></trkpt><trkpt lat="33.8758906" lon="132.9683459"><ele>539.8</ele><time>2022-04-16T03:32:38Z</time></trkpt><trkpt lat="33.876075" lon="132.9683259"><ele>535.85</ele><time>2022-04-16T03:32:53Z</time></trkpt><trkpt lat="33.8762111" lon="132.9681753"><ele>531.9333333333333</ele><time>2022-04-16T03:33:05Z</time></trkpt><trkpt lat="33.8762561" lon="132.9679623"><ele>530.86</ele><time>2022-04-16T03:33:18Z</time></trkpt><trkpt lat="33.8763137" lon="132.9677508"><ele>530.0</ele><time>2022-04-16T03:33:33Z</time></trkpt><trkpt lat="33.8763535" lon="132.967535"><ele>529.1933333333333</ele><time>2022-04-16T03:33:48Z</time></trkpt><trkpt lat="33.8763182" lon="132.9673166"><ele>528.61</ele><time>2022-04-16T03:34:01Z</time></trkpt><trkpt lat="33.8762469" lon="132.9671149"><ele>530.2833333333333</ele><time>2022-04-16T03:34:14Z</time></trkpt><trkpt lat="33.8762789" lon="132.9668953"><ele>531.1133333333333</ele><time>2022-04-16T03:34:30Z</time></trkpt><trkpt lat="33.8763006" lon="132.9666757"><ele>529.5300000000001</ele><time>2022-04-16T03:34:47Z</time></trkpt><trkpt lat="33.8761989" lon="132.9664841"><ele>524.5400000000001</ele><time>2022-04-16T03:35:07Z</time></trkpt><trkpt lat="33.8760122" lon="132.9664741"><ele>521.68</ele><time>2022-04-16T03:35:23Z</time></trkpt><trkpt lat="33.8758308" lon="132.9664446"><ele>520.9566666666666</ele><time>2022-04-16T03:46:09Z</time></trkpt><trkpt lat="33.8756409" lon="132.9663867"><ele>520.19</ele><time>2022-04-16T03:46:21Z</time></trkpt><trkpt lat="33.8754129" lon="132.9660564"><ele>514.3933333333333</ele><time>2022-04-16T03:56:30Z</time></trkpt><trkpt lat="33.8752462" lon="132.965962"><ele>507.5566666666667</ele><time>2022-04-16T03:56:40Z</time></trkpt><trkpt lat="33.8751511" lon="132.965771"><ele>501.81</ele><time>2022-04-16T03:56:52Z</time></trkpt><trkpt lat="33.8749937" lon="132.965643"><ele>501.17333333333335</ele><time>2022-04-16T03:57:05Z</time></trkpt><trkpt lat="33.8748834" lon="132.9654708"><ele>502.1366666666667</ele><time>2022-04-16T03:57:17Z</time></trkpt><trkpt lat="33.8747981" lon="132.9652744"><ele>504.2633333333333</ele><time>2022-04-16T03:57:31Z</time></trkpt><trkpt lat="33.8748526" lon="132.9650633"><ele>503.8</ele><time>2022-04-16T03:57:44Z</time></trkpt><trkpt lat="33.8747759" lon="132.9648609"><ele>501.5266666666667</ele><time>2022-04-16T03:57:58Z</time></trkpt><trkpt lat="33.8746057" lon="132.9647783"><ele>500.37000000000006</ele><time>2022-04-16T03:58:25Z</time></trkpt><trkpt lat="33.8745718" lon="132.9645643"><ele>500.64000000000004</ele><time>2022-04-16T03:58:39Z</time></trkpt><trkpt lat="33.8745692" lon="132.9643403"><ele>501.47</ele><time>2022-04-16T03:58:53Z</time></trkpt><trkpt lat="33.8746186" lon="132.9641249"><ele>500.97333333333336</ele><time>2022-04-16T03:59:06Z</time></trkpt><trkpt lat="33.8745927" lon="132.9639073"><ele>502.27</ele><time>2022-04-16T03:59:18Z</time></trkpt><trkpt lat="33.8746984" lon="132.9637231"><ele>499.47</ele><time>2022-04-16T03:59:30Z</time></trkpt><trkpt lat="33.8747287" lon="132.9635024"><ele>496.65333333333336</ele><time>2022-04-16T03:59:44Z</time></trkpt><trkpt lat="33.8747056" lon="132.9632827"><ele>491.0366666666667</ele><time>2022-04-16T04:00:02Z</time></trkpt><trkpt lat="33.8745413" lon="132.9631695"><ele>491.3766666666667</ele><time>2022-04-16T04:00:15Z</time></trkpt><trkpt lat="33.8743864" lon="132.9630408"><ele>496.23333333333335</ele><time>2022-04-16T04:00:27Z</time></trkpt><trkpt lat="33.8743248" lon="132.9628375"><ele>501.0233333333333</ele><time>2022-04-16T04:00:42Z</time></trkpt><trkpt lat="33.874316" lon="132.9626136"><ele>501.49666666666667</ele><time>2022-04-16T04:00:56Z</time></trkpt><trkpt lat="33.8742765" lon="132.9623984"><ele>494.24666666666667</ele><time>2022-04-16T04:01:10Z</time></trkpt><trkpt lat="33.8741614" lon="132.9622243"><ele>493.79333333333335</ele><time>2022-04-16T04:01:26Z</time></trkpt><trkpt lat="33.874058" lon="132.9620404"><ele>494.67333333333335</ele><time>2022-04-16T04:01:40Z</time></trkpt><trkpt lat="33.8741172" lon="132.9618334"><ele>496.79333333333335</ele><time>2022-04-16T04:01:54Z</time></trkpt><trkpt lat="33.8741564" lon="132.9616083"><ele>489.75333333333333</ele><time>2022-04-16T04:02:07Z</time></trkpt><trkpt lat="33.8742277" lon="132.9614058"><ele>481.86000000000007</ele><time>2022-04-16T04:02:21Z</time></trkpt><trkpt lat="33.8743327" lon="132.9612198"><ele>473.6233333333333</ele><time>2022-04-16T04:02:34Z</time></trkpt><trkpt lat="33.8742302" lon="132.9610281"><ele>468.97333333333336</ele><time>2022-04-16T04:02:48Z</time></trkpt><trkpt lat="33.8741082" lon="132.9608647"><ele>470.78999999999996</ele><time>2022-04-16T04:03:01Z</time></trkpt><trkpt lat="33.8740516" lon="132.9606543"><ele>474.82</ele><time>2022-04-16T04:03:17Z</time></trkpt><trkpt lat="33.874063" lon="132.9604328"><ele>477.90000000000003</ele><time>2022-04-16T04:03:30Z</time></trkpt><trkpt lat="33.8741282" lon="132.9602222"><ele>475.8733333333333</ele><time>2022-04-16T04:03:42Z</time></trkpt><trkpt lat="33.8742218" lon="132.960037"><ele>471.6266666666667</ele><time>2022-04-16T04:03:55Z</time></trkpt><trkpt lat="33.8743258" lon="132.9598583"><ele>465.9633333333333</ele><time>2022-04-16T04:04:10Z</time></trkpt><trkpt lat="33.8742348" lon="132.9596583"><ele>465.0933333333333</ele><time>2022-04-16T04:04:25Z</time></trkpt><trkpt lat="33.8742763" lon="132.9594469"><ele>462.22333333333336</ele><time>2022-04-16T04:04:40Z</time></trkpt><trkpt lat="33.874346" lon="132.9592418"><ele>458.0566666666667</ele><time>2022-04-16T04:04:54Z</time></trkpt><trkpt lat="33.8742187" lon="132.9590811"><ele>450.90333333333336</ele><time>2022-04-16T04:05:09Z</time></trkpt><trkpt lat="33.8740501" lon="132.9589861"><ele>452.18666666666667</ele><time>2022-04-16T04:05:23Z</time></trkpt><trkpt lat="33.8739532" lon="132.9588028"><ele>457.89000000000004</ele><time>2022-04-16T04:05:42Z</time></trkpt><trkpt lat="33.8740466" lon="132.9586038"><ele>456.9066666666667</ele><time>2022-04-16T04:05:55Z</time></trkpt><trkpt lat="33.8740681" lon="132.9583795"><ele>448.59999999999997</ele><time>2022-04-16T04:06:09Z</time></trkpt><trkpt lat="33.8739738" lon="132.9581932"><ele>441.2</ele><time>2022-04-16T04:07:09Z</time></trkpt><trkpt lat="33.8738976" lon="132.9579951"><ele>438.83</ele><time>2022-04-16T04:07:26Z</time></trkpt><trkpt lat="33.8738589" lon="132.9577768"><ele>438.74666666666667</ele><time>2022-04-16T04:07:39Z</time></trkpt><trkpt lat="33.8738082" lon="132.9575685"><ele>437.74</ele><time>2022-04-16T04:07:53Z</time></trkpt><trkpt lat="33.8738557" lon="132.9573534"><ele>436.26</ele><time>2022-04-16T04:08:07Z</time></trkpt><trkpt lat="33.8739611" lon="132.9571744"><ele>435.3966666666667</ele><time>2022-04-16T04:08:20Z</time></trkpt><trkpt lat="33.8740528" lon="132.9569867"><ele>434.1966666666667</ele><time>2022-04-16T04:08:33Z</time></trkpt><trkpt lat="33.8741494" lon="132.9567954"><ele>433.97333333333336</ele><time>2022-04-16T04:08:47Z</time></trkpt><trkpt lat="33.8742572" lon="132.9566198"><ele>433.8966666666667</ele><time>2022-04-16T04:09:18Z</time></trkpt><trkpt lat="33.8743621" lon="132.9564386"><ele>431.82666666666665</ele><time>2022-04-16T04:09:33Z</time></trkpt><trkpt lat="33.8745275" lon="132.9563178"><ele>429.03333333333336</ele><time>2022-04-16T04:11:45Z</time></trkpt><trkpt lat="33.8746011" lon="132.9560767"><ele>426.40666666666675</ele><time>2022-04-16T04:12:05Z</time></trkpt><trkpt lat="33.8746129" lon="132.9558519"><ele>426.20666666666665</ele><time>2022-04-16T04:12:12Z</time></trkpt><trkpt lat="33.8745947" lon="132.9556347"><ele>426.6566666666667</ele><time>2022-04-16T04:12:24Z</time></trkpt><trkpt lat="33.8745339" lon="132.9554221"><ele>425.05333333333334</ele><time>2022-04-16T04:12:43Z</time></trkpt><trkpt lat="33.8744017" lon="132.9552636"><ele>430.24666666666667</ele><time>2022-04-16T04:12:57Z</time></trkpt><trkpt lat="33.8742879" lon="132.9550901"><ele>435.77666666666664</ele><time>2022-04-16T04:13:10Z</time></trkpt><trkpt lat="33.8741898" lon="132.9548965"><ele>445.85999999999996</ele><time>2022-04-16T04:13:23Z</time></trkpt><trkpt lat="33.8741372" lon="132.9546807"><ele>442.84666666666675</ele><time>2022-04-16T04:13:34Z</time></trkpt><trkpt lat="33.8741053" lon="132.9544642"><ele>439.4066666666667</ele><time>2022-04-16T04:13:46Z</time></trkpt><trkpt lat="33.8740872" lon="132.9542425"><ele>428.7866666666667</ele><time>2022-04-16T04:13:59Z</time></trkpt><trkpt lat="33.8740491" lon="132.9540305"><ele>424.54</ele><time>2022-04-16T04:14:11Z</time></trkpt><trkpt lat="33.874025" lon="132.9538064"><ele>419.24333333333334</ele><time>2022-04-16T04:14:27Z</time></trkpt><trkpt lat="33.8738992" lon="132.9536462"><ele>419.03999999999996</ele><time>2022-04-16T04:14:40Z</time></trkpt><trkpt lat="33.873738" lon="132.9535338"><ele>417.97333333333336</ele><time>2022-04-16T04:14:54Z</time></trkpt><trkpt lat="33.8735625" lon="132.9534752"><ele>419.91333333333336</ele><time>2022-04-16T04:15:06Z</time></trkpt><trkpt lat="33.8734072" lon="132.9533623"><ele>418.7966666666667</ele><time>2022-04-16T04:15:23Z</time></trkpt><trkpt lat="33.8733383" lon="132.9531581"><ele>415.68666666666667</ele><time>2022-04-16T04:15:38Z</time></trkpt><trkpt lat="33.8733832" lon="132.952945"><ele>410.26666666666665</ele><time>2022-04-16T04:15:53Z</time></trkpt><trkpt lat="33.8734232" lon="132.9527171"><ele>407.16</ele><time>2022-04-16T04:16:09Z</time></trkpt><trkpt lat="33.8733211" lon="132.9525344"><ele>404.92</ele><time>2022-04-16T04:18:36Z</time></trkpt><trkpt lat="33.8733642" lon="132.9523116"><ele>402.33</ele><time>2022-04-16T04:19:21Z</time></trkpt><trkpt lat="33.8732606" lon="132.9521258"><ele>399.85666666666674</ele><time>2022-04-16T04:19:34Z</time></trkpt><trkpt lat="33.8730983" lon="132.9520191"><ele>398.68</ele><time>2022-04-16T04:19:52Z</time></trkpt><trkpt lat="33.8729135" lon="132.9520423"><ele>398.42333333333335</ele><time>2022-04-16T04:20:07Z</time></trkpt><trkpt lat="33.8727254" lon="132.952036"><ele>398.52666666666664</ele><time>2022-04-16T04:20:22Z</time></trkpt><trkpt lat="33.8726198" lon="132.9518594"><ele>398.00333333333333</ele><time>2022-04-16T04:20:35Z</time></trkpt><trkpt lat="33.8725241" lon="132.9516739"><ele>396.8833333333334</ele><time>2022-04-16T04:20:51Z</time></trkpt><trkpt lat="33.872334" lon="132.9516487"><ele>395.19000000000005</ele><time>2022-04-16T04:21:04Z</time></trkpt><trkpt lat="33.8721841" lon="132.9517779"><ele>393.4766666666667</ele><time>2022-04-16T04:21:16Z</time></trkpt><trkpt lat="33.8719986" lon="132.9518294"><ele>391.97333333333336</ele><time>2022-04-16T04:21:32Z</time></trkpt><trkpt lat="33.8718158" lon="132.9518109"><ele>390.3966666666667</ele><time>2022-04-16T04:21:47Z</time></trkpt><trkpt lat="33.8716352" lon="132.9517852"><ele>389.49</ele><time>2022-04-16T04:21:59Z</time></trkpt><trkpt lat="33.8714559" lon="132.9517421"><ele>391.37000000000006</ele><time>2022-04-16T04:22:13Z</time></trkpt><trkpt lat="33.8712865" lon="132.9516569"><ele>392.74</ele><time>2022-04-16T04:22:28Z</time></trkpt><trkpt lat="33.8711433" lon="132.9515195"><ele>393.6566666666667</ele><time>2022-04-16T04:22:45Z</time></trkpt><trkpt lat="33.870964" lon="132.9515661"><ele>395.76</ele><time>2022-04-16T04:23:08Z</time></trkpt><trkpt lat="33.8709134" lon="132.9513469"><ele>397.8533333333333</ele><time>2022-04-16T04:23:21Z</time></trkpt><trkpt lat="33.870933" lon="132.9511313"><ele>397.9433333333333</ele><time>2022-04-16T04:23:33Z</time></trkpt><trkpt lat="33.8709666" lon="132.9509176"><ele>394.5133333333333</ele><time>2022-04-16T04:23:46Z</time></trkpt><trkpt lat="33.8709239" lon="132.9507"><ele>392.79333333333335</ele><time>2022-04-16T04:23:59Z</time></trkpt><trkpt lat="33.8707428" lon="132.9506545"><ele>395.99666666666667</ele><time>2022-04-16T04:24:16Z</time></trkpt><trkpt lat="33.8706361" lon="132.9504798"><ele>396.09999999999997</ele><time>2022-04-16T04:27:21Z</time></trkpt><trkpt lat="33.8705664" lon="132.9502752"><ele>392.91</ele><time>2022-04-16T04:27:45Z</time></trkpt><trkpt lat="33.8704421" lon="132.9501167"><ele>387.59666666666664</ele><time>2022-04-16T04:27:56Z</time></trkpt><trkpt lat="33.8703472" lon="132.9499301"><ele>384.5466666666666</ele><time>2022-04-16T04:28:13Z</time></trkpt><trkpt lat="33.8702298" lon="132.9497561"><ele>384.74333333333334</ele><time>2022-04-16T04:28:33Z</time></trkpt><trkpt lat="33.8701561" lon="132.9495425"><ele>385.1966666666667</ele><time>2022-04-16T04:28:47Z</time></trkpt><trkpt lat="33.8702606" lon="132.9493643"><ele>385.71000000000004</ele><time>2022-04-16T04:29:49Z</time></trkpt><trkpt lat="33.8702772" lon="132.9491386"><ele>385.16</ele><time>2022-04-16T04:30:04Z</time></trkpt><trkpt lat="33.8703217" lon="132.9489282"><ele>383.99</ele><time>2022-04-16T04:30:15Z</time></trkpt><trkpt lat="33.8703546" lon="132.9487139"><ele>382.58</ele><time>2022-04-16T04:30:27Z</time></trkpt><trkpt lat="33.8701721" lon="132.9486914"><ele>381.1566666666667</ele><time>2022-04-16T04:30:48Z</time></trkpt><trkpt lat="33.8700078" lon="132.9485986"><ele>378.2366666666667</ele><time>2022-04-16T04:33:04Z</time></trkpt><trkpt lat="33.8698296" lon="132.948548"><ele>376.0333333333333</ele><time>2022-04-16T04:33:39Z</time></trkpt><trkpt lat="33.8696543" lon="132.9484651"><ele>373.24666666666667</ele><time>2022-04-16T04:33:56Z</time></trkpt><trkpt lat="33.8695044" lon="132.9483408"><ele>372.27</ele><time>2022-04-16T04:34:48Z</time></trkpt><trkpt lat="33.869412" lon="132.9481481"><ele>372.8566666666666</ele><time>2022-04-16T04:35:08Z</time></trkpt><trkpt lat="33.8693577" lon="132.9479382"><ele>374.2833333333333</ele><time>2022-04-16T04:35:24Z</time></trkpt><trkpt lat="33.8694484" lon="132.9477483"><ele>374.51</ele><time>2022-04-16T04:35:43Z</time></trkpt><trkpt lat="33.8695902" lon="132.9476105"><ele>371.56333333333333</ele><time>2022-04-16T04:36:01Z</time></trkpt><trkpt lat="33.8696668" lon="132.9474054"><ele>368.4166666666667</ele><time>2022-04-16T04:36:17Z</time></trkpt><trkpt lat="33.8696041" lon="132.9472021"><ele>366.6466666666667</ele><time>2022-04-16T04:36:30Z</time></trkpt><trkpt lat="33.8695607" lon="132.946989"><ele>366.6166666666666</ele><time>2022-04-16T04:36:45Z</time></trkpt><trkpt lat="33.8696735" lon="132.9468166"><ele>366.55</ele><time>2022-04-16T04:37:01Z</time></trkpt></trkseg></trk></gpx>