<?xml version='1.0' encoding='UTF-8'?><gpx creator="Yama Museum Summit Candidate Generator" xsi:schemaLocation="http://www.topografix.com/GPX/1/1 http://www.topografix.com/GPX/1/1/gpx.xsd" version="1.1" xmlns="http://www.topografix.com/GPX/1/1" xmlns:xsi="http://www.w3.org/2001/XMLSchema-instance" xmlns:yama="https://museum-yama-data.moukaeritai.work/ns/yama-data/0.1"><metadata><bounds maxlat="34.2696951" maxlon="132.9800697" minlat="34.262944" minlon="132.971744"/><name>鏡山</name><extensions><yama:source_gpx_basename>yamap_2022-09-26_14_04.gpx</yama:source_gpx_basename><yama:source_gpx_relative_path>data/01_raw/gpx/2026-05-12/yamap_2022-09-26_14_04.gpx</yama:source_gpx_relative_path><yama:detection_parameters>window=5,radius=10,min_prominence=30,merge=100</yama:detection_parameters></extensions></metadata><wpt lat="34.2634531" lon="132.9718171"><ele>201.48000000000002</ele><time>2022-09-26T05:36:26Z</time><name>summit-candidate:588c967023117267</name><desc>Summit candidate detected at elevation 201.48000000000002m with prominence 195.856m.</desc><sym>Summit Candidate</sym><extensions><yama:source_trackpoint_index>67</yama:source_trackpoint_index><yama:valid_elevation_index>67</yama:valid_elevation_index><yama:smoothed_ele>203.47933333333333</yama:smoothed_ele><yama:prominence>195.856</yama:prominence><yama:detection_method>local_maxima_with_prominence</yama:detection_method><yama:detection_parameters>window=5,radius=10,min_prominence=30,merge=100</yama:detection_parameters><yama:candidate_status>unresolved</yama:candidate_status></extensions></wpt>
  <trk><name>鏡山</name><number>1</number><trkseg><trkpt lat="34.2696951" lon="132.9800513"><ele>6.19</ele><time>2022-09-26T05:05:05Z</time></trkpt><trkpt lat="34.2696107" lon="132.9798578"><ele>6.625</ele><time>2022-09-26T05:05:24Z</time></trkpt><trkpt lat="34.2694896" lon="132.9796946"><ele>7.003333333333333</ele><time>2022-09-26T05:05:50Z</time></trkpt><trkpt lat="34.2693984" lon="132.9794959"><ele>7.973333333333334</ele><time>2022-09-26T05:06:25Z</time></trkpt><trkpt lat="34.2692384" lon="132.9793906"><ele>8.956666666666665</ele><time>2022-09-26T05:06:37Z</time></trkpt><trkpt lat="34.2691065" lon="132.9792363"><ele>9.513333333333334</ele><time>2022-09-26T05:06:51Z</time></trkpt><trkpt lat="34.2690471" lon="132.9790262"><ele>9.29</ele><time>2022-09-26T05:07:04Z</time></trkpt><trkpt lat="34.2689535" lon="132.9788355"><ele>8.576666666666666</ele><time>2022-09-26T05:07:18Z</time></trkpt><trkpt lat="34.2687964" lon="132.9786987"><ele>8.116666666666667</ele><time>2022-09-26T05:07:33Z</time></trkpt><trkpt lat="34.2686381" lon="132.9785669"><ele>7.996666666666667</ele><time>2022-09-26T05:07:48Z</time></trkpt><trkpt lat="34.2684559" lon="132.9785555"><ele>8.176666666666668</ele><time>2022-09-26T05:08:02Z</time></trkpt><trkpt lat="34.2682646" lon="132.9785655"><ele>8.42</ele><time>2022-09-26T05:08:17Z</time></trkpt><trkpt lat="34.26809" lon="132.9784733"><ele>8.776666666666666</ele><time>2022-09-26T05:08:31Z</time></trkpt><trkpt lat="34.2679467" lon="132.978323"><ele>9.13</ele><time>2022-09-26T05:08:45Z</time></trkpt><trkpt lat="34.267809" lon="132.9781794"><ele>9.426666666666668</ele><time>2022-09-26T05:08:59Z</time></trkpt><trkpt lat="34.2676413" lon="132.9780616"><ele>9.673333333333334</ele><time>2022-09-26T05:09:13Z</time></trkpt><trkpt lat="34.2674799" lon="132.9779475"><ele>9.91</ele><time>2022-09-26T05:09:30Z</time></trkpt><trkpt lat="34.2673305" lon="132.9778239"><ele>10.653333333333334</ele><time>2022-09-26T05:09:48Z</time></trkpt><trkpt lat="34.2671504" lon="132.9777819"><ele>12.626666666666665</ele><time>2022-09-26T05:10:09Z</time></trkpt><trkpt lat="34.2670884" lon="132.9775686"><ele>14.573333333333332</ele><time>2022-09-26T05:10:24Z</time></trkpt><trkpt lat="34.26697" lon="132.9773747"><ele>16.25</ele><time>2022-09-26T05:10:37Z</time></trkpt><trkpt lat="34.2668356" lon="132.9772134"><ele>16.823333333333334</ele><time>2022-09-26T05:11:12Z</time></trkpt><trkpt lat="34.2666506" lon="132.9772226"><ele>18.21</ele><time>2022-09-26T05:11:25Z</time></trkpt><trkpt lat="34.2664541" lon="132.9771971"><ele>20.71666666666667</ele><time>2022-09-26T05:11:39Z</time></trkpt><trkpt lat="34.2662813" lon="132.9771272"><ele>23.889999999999997</ele><time>2022-09-26T05:11:53Z</time></trkpt><trkpt lat="34.2661117" lon="132.9770057"><ele>26.543333333333333</ele><time>2022-09-26T05:12:10Z</time></trkpt><trkpt lat="34.2659497" lon="132.9769068"><ele>28.623333333333335</ele><time>2022-09-26T05:12:25Z</time></trkpt><trkpt lat="34.2658117" lon="132.9767537"><ele>29.21666666666667</ele><time>2022-09-26T05:12:40Z</time></trkpt><trkpt lat="34.2656205" lon="132.976726"><ele>29.55666666666667</ele><time>2022-09-26T05:13:07Z</time></trkpt><trkpt lat="34.2654582" lon="132.9766233"><ele>29.183333333333337</ele><time>2022-09-26T05:13:17Z</time></trkpt><trkpt lat="34.2652999" lon="132.9764922"><ele>29.96666666666667</ele><time>2022-09-26T05:13:27Z</time></trkpt><trkpt lat="34.2652003" lon="132.9763008"><ele>30.86</ele><time>2022-09-26T05:13:40Z</time></trkpt><trkpt lat="34.2650958" lon="132.9761148"><ele>32.45333333333334</ele><time>2022-09-26T05:13:55Z</time></trkpt><trkpt lat="34.2649122" lon="132.9760875"><ele>34.373333333333335</ele><time>2022-09-26T05:14:06Z</time></trkpt><trkpt lat="34.2648324" lon="132.9758903"><ele>36.96</ele><time>2022-09-26T05:14:27Z</time></trkpt><trkpt lat="34.2648195" lon="132.9756721"><ele>39.72666666666667</ele><time>2022-09-26T05:14:47Z</time></trkpt><trkpt lat="34.2648352" lon="132.9754528"><ele>42.46666666666667</ele><time>2022-09-26T05:15:03Z</time></trkpt><trkpt lat="34.2648904" lon="132.9752364"><ele>45.449999999999996</ele><time>2022-09-26T05:15:19Z</time></trkpt><trkpt lat="34.2648204" lon="132.975026"><ele>48.156666666666666</ele><time>2022-09-26T05:15:37Z</time></trkpt><trkpt lat="34.2646832" lon="132.9748781"><ele>52.07333333333333</ele><time>2022-09-26T05:16:13Z</time></trkpt><trkpt lat="34.2646369" lon="132.9746603"><ele>56.97666666666667</ele><time>2022-09-26T05:16:23Z</time></trkpt><trkpt lat="34.2645936" lon="132.9744468"><ele>64.57</ele><time>2022-09-26T05:16:37Z</time></trkpt><trkpt lat="34.2646124" lon="132.9742293"><ele>69.27333333333333</ele><time>2022-09-26T05:16:57Z</time></trkpt><trkpt lat="34.2647875" lon="132.9741684"><ele>70.65333333333334</ele><time>2022-09-26T05:17:58Z</time></trkpt><trkpt lat="34.2649673" lon="132.9741222"><ele>70.48666666666668</ele><time>2022-09-26T05:19:00Z</time></trkpt><trkpt lat="34.265003" lon="132.9738977"><ele>72.35333333333334</ele><time>2022-09-26T05:19:14Z</time></trkpt><trkpt lat="34.2651598" lon="132.9737818"><ele>78.71666666666665</ele><time>2022-09-26T05:20:01Z</time></trkpt><trkpt lat="34.2652567" lon="132.9735957"><ele>86.88666666666666</ele><time>2022-09-26T05:20:20Z</time></trkpt><trkpt lat="34.2652383" lon="132.9733692"><ele>95.58999999999999</ele><time>2022-09-26T05:21:02Z</time></trkpt><trkpt lat="34.2650565" lon="132.9733357"><ele>100.33999999999999</ele><time>2022-09-26T05:21:18Z</time></trkpt><trkpt lat="34.2648769" lon="132.973283"><ele>99.29666666666667</ele><time>2022-09-26T05:21:35Z</time></trkpt><trkpt lat="34.2647238" lon="132.9731631"><ele>98.79</ele><time>2022-09-26T05:21:55Z</time></trkpt><trkpt lat="34.2646224" lon="132.9729822"><ele>102.62666666666667</ele><time>2022-09-26T05:22:34Z</time></trkpt><trkpt lat="34.2644636" lon="132.9728776"><ele>109.22666666666667</ele><time>2022-09-26T05:23:13Z</time></trkpt><trkpt lat="34.2644059" lon="132.9726573"><ele>120.14</ele><time>2022-09-26T05:23:50Z</time></trkpt><trkpt lat="34.2643554" lon="132.972441"><ele>131.82666666666668</ele><time>2022-09-26T05:24:42Z</time></trkpt><trkpt lat="34.2642067" lon="132.9723143"><ele>147.66666666666666</ele><time>2022-09-26T05:26:19Z</time></trkpt><trkpt lat="34.2640267" lon="132.9723823"><ele>157.62333333333333</ele><time>2022-09-26T05:26:58Z</time></trkpt><trkpt lat="34.2639307" lon="132.9721924"><ele>169.73333333333335</ele><time>2022-09-26T05:29:48Z</time></trkpt><trkpt lat="34.2637482" lon="132.9722254"><ele>179.55333333333337</ele><time>2022-09-26T05:30:27Z</time></trkpt><trkpt lat="34.2636391" lon="132.972042"><ele>192.66666666666666</ele><time>2022-09-26T05:31:07Z</time></trkpt><trkpt lat="34.2634669" lon="132.9719253"><ele>198.74666666666667</ele><time>2022-09-26T05:32:13Z</time></trkpt><trkpt lat="34.263294" lon="132.9718565"><ele>201.69999999999996</ele><time>2022-09-26T05:32:30Z</time></trkpt><trkpt lat="34.2631117" lon="132.9718418"><ele>200.24333333333334</ele><time>2022-09-26T05:32:49Z</time></trkpt><trkpt lat="34.262944" lon="132.971744"><ele>202.34333333333333</ele><time>2022-09-26T05:33:14Z</time></trkpt><trkpt lat="34.2631236" lon="132.9717843"><ele>202.83</ele><time>2022-09-26T05:34:51Z</time></trkpt><trkpt lat="34.2632826" lon="132.9718924"><ele>203.26</ele><time>2022-09-26T05:35:10Z</time></trkpt><trkpt lat="34.2634531" lon="132.9718171"><ele>201.48000000000002</ele><time>2022-09-26T05:36:26Z</time></trkpt><trkpt lat="34.2636265" lon="132.9718953"><ele>204.42999999999998</ele><time>2022-09-26T05:36:43Z</time></trkpt><trkpt lat="34.2637692" lon="132.9720385"><ele>205.39666666666668</ele><time>2022-09-26T05:43:47Z</time></trkpt><trkpt lat="34.2639494" lon="132.9720788"><ele>200.33666666666667</ele><time>2022-09-26T05:47:01Z</time></trkpt><trkpt lat="34.2641169" lon="132.9721718"><ele>186.71666666666667</ele><time>2022-09-26T05:47:26Z</time></trkpt><trkpt lat="34.2642668" lon="132.9722982"><ele>171.46666666666667</ele><time>2022-09-26T05:49:05Z</time></trkpt><trkpt lat="34.264197" lon="132.9724998"><ele>159.12333333333333</ele><time>2022-09-26T05:49:50Z</time></trkpt><trkpt lat="34.2643709" lon="132.9724183"><ele>152.94000000000003</ele><time>2022-09-26T05:50:18Z</time></trkpt><trkpt lat="34.264442" lon="132.9726251"><ele>145.18</ele><time>2022-09-26T05:50:53Z</time></trkpt><trkpt lat="34.2645668" lon="132.9727859"><ele>135.78333333333333</ele><time>2022-09-26T05:51:26Z</time></trkpt><trkpt lat="34.2646338" lon="132.9729941"><ele>122.87666666666667</ele><time>2022-09-26T05:51:53Z</time></trkpt><trkpt lat="34.2646483" lon="132.9732195"><ele>110.00333333333333</ele><time>2022-09-26T05:52:13Z</time></trkpt><trkpt lat="34.2647814" lon="132.9733751"><ele>98.77</ele><time>2022-09-26T05:52:32Z</time></trkpt><trkpt lat="34.2649443" lon="132.9734809"><ele>90.64333333333333</ele><time>2022-09-26T05:52:45Z</time></trkpt><trkpt lat="34.2650564" lon="132.9736569"><ele>87.10666666666668</ele><time>2022-09-26T05:53:02Z</time></trkpt><trkpt lat="34.2650875" lon="132.9738719"><ele>84.49000000000001</ele><time>2022-09-26T05:53:27Z</time></trkpt><trkpt lat="34.2651149" lon="132.9740881"><ele>80.41333333333334</ele><time>2022-09-26T05:53:50Z</time></trkpt><trkpt lat="34.2649835" lon="132.9742461"><ele>74.84333333333333</ele><time>2022-09-26T05:54:11Z</time></trkpt><trkpt lat="34.2648031" lon="132.9742033"><ele>70.34666666666666</ele><time>2022-09-26T05:54:33Z</time></trkpt><trkpt lat="34.2646237" lon="132.9742341"><ele>68.80333333333334</ele><time>2022-09-26T05:54:49Z</time></trkpt><trkpt lat="34.2646987" lon="132.9744373"><ele>67.87</ele><time>2022-09-26T05:55:03Z</time></trkpt><trkpt lat="34.2648077" lon="132.9746168"><ele>64.58</ele><time>2022-09-26T05:55:17Z</time></trkpt><trkpt lat="34.2648373" lon="132.9748363"><ele>58.77666666666667</ele><time>2022-09-26T05:55:32Z</time></trkpt><trkpt lat="34.2648677" lon="132.9750537"><ele>53.96666666666667</ele><time>2022-09-26T05:55:49Z</time></trkpt><trkpt lat="34.264928" lon="132.9752593"><ele>50.803333333333335</ele><time>2022-09-26T05:56:05Z</time></trkpt><trkpt lat="34.2648655" lon="132.9754694"><ele>47.98666666666667</ele><time>2022-09-26T05:56:20Z</time></trkpt><trkpt lat="34.2648431" lon="132.9756872"><ele>44.916666666666664</ele><time>2022-09-26T05:56:35Z</time></trkpt><trkpt lat="34.2648622" lon="132.975907"><ele>42.10333333333333</ele><time>2022-09-26T05:56:51Z</time></trkpt><trkpt lat="34.2649586" lon="132.9760906"><ele>39.13666666666666</ele><time>2022-09-26T05:57:04Z</time></trkpt><trkpt lat="34.2650635" lon="132.9762748"><ele>36.91</ele><time>2022-09-26T05:57:20Z</time></trkpt><trkpt lat="34.2652115" lon="132.9764014"><ele>34.526666666666664</ele><time>2022-09-26T05:57:35Z</time></trkpt><trkpt lat="34.2653912" lon="132.9764322"><ele>32.223333333333336</ele><time>2022-09-26T05:59:01Z</time></trkpt><trkpt lat="34.2655613" lon="132.9765182"><ele>30.12666666666667</ele><time>2022-09-26T05:59:13Z</time></trkpt><trkpt lat="34.2657144" lon="132.9766379"><ele>28.743333333333336</ele><time>2022-09-26T05:59:24Z</time></trkpt><trkpt lat="34.265861" lon="132.9767656"><ele>28.570000000000004</ele><time>2022-09-26T05:59:38Z</time></trkpt><trkpt lat="34.2660135" lon="132.976887"><ele>28.580000000000002</ele><time>2022-09-26T05:59:52Z</time></trkpt><trkpt lat="34.2661997" lon="132.9769561"><ele>27.77</ele><time>2022-09-26T06:01:06Z</time></trkpt><trkpt lat="34.266362" lon="132.9770568"><ele>26.75666666666667</ele><time>2022-09-26T06:01:20Z</time></trkpt><trkpt lat="34.2665461" lon="132.9770661"><ele>24.27666666666667</ele><time>2022-09-26T06:01:31Z</time></trkpt><trkpt lat="34.2667195" lon="132.9771465"><ele>22.02</ele><time>2022-09-26T06:01:45Z</time></trkpt><trkpt lat="34.2668948" lon="132.9772273"><ele>19.133333333333336</ele><time>2022-09-26T06:02:01Z</time></trkpt><trkpt lat="34.2670379" lon="132.977369"><ele>17.396666666666665</ele><time>2022-09-26T06:02:17Z</time></trkpt><trkpt lat="34.2670796" lon="132.9775907"><ele>16.423333333333336</ele><time>2022-09-26T06:02:30Z</time></trkpt><trkpt lat="34.2671137" lon="132.9778085"><ele>16.45</ele><time>2022-09-26T06:02:46Z</time></trkpt><trkpt lat="34.2671923" lon="132.9780125"><ele>16.58</ele><time>2022-09-26T06:03:01Z</time></trkpt><trkpt lat="34.2673346" lon="132.9781459"><ele>16.53</ele><time>2022-09-26T06:03:17Z</time></trkpt><trkpt lat="34.2674874" lon="132.9782654"><ele>16.69</ele><time>2022-09-26T06:03:31Z</time></trkpt><trkpt lat="34.2676347" lon="132.9784081"><ele>16.346666666666668</ele><time>2022-09-26T06:03:46Z</time></trkpt><trkpt lat="34.2677989" lon="132.9785094"><ele>14.426666666666668</ele><time>2022-09-26T06:04:01Z</time></trkpt><trkpt lat="34.2678182" lon="132.9787292"><ele>11.806666666666667</ele><time>2022-09-26T06:04:17Z</time></trkpt><trkpt lat="34.2677932" lon="132.9789477"><ele>9.963333333333333</ele><time>2022-09-26T06:04:31Z</time></trkpt><trkpt lat="34.2679766" lon="132.9789957"><ele>9.9</ele><time>2022-09-26T06:04:45Z</time></trkpt><trkpt lat="34.2681624" lon="132.9789283"><ele>9.76</ele><time>2022-09-26T06:04:57Z</time></trkpt><trkpt lat="34.2683507" lon="132.9788864"><ele>9.653333333333334</ele><time>2022-09-26T06:05:12Z</time></trkpt><trkpt lat="34.268534" lon="132.978949"><ele>9.413333333333334</ele><time>2022-09-26T06:05:27Z</time></trkpt><trkpt lat="34.2686968" lon="132.9788542"><ele>9.11</ele><time>2022-09-26T06:05:41Z</time></trkpt><trkpt lat="34.2688813" lon="132.9788187"><ele>8.623333333333333</ele><time>2022-09-26T06:05:58Z</time></trkpt><trkpt lat="34.2690488" lon="132.9789092"><ele>8.2</ele><time>2022-09-26T06:06:16Z</time></trkpt><trkpt lat="34.269169" lon="132.9790957"><ele>8.253333333333332</ele><time>2022-09-26T06:06:32Z</time></trkpt><trkpt lat="34.2691943" lon="132.9793112"><ele>8.806666666666667</ele><time>2022-09-26T06:06:48Z</time></trkpt><trkpt lat="34.2693082" lon="132.9794904"><ele>9.296666666666667</ele><time>2022-09-26T06:07:03Z</time></trkpt><trkpt lat="34.2694964" lon="132.979437"><ele>9.0</ele><time>2022-09-26T06:07:42Z</time></trkpt><trkpt lat="34.2695225" lon="132.9796656"><ele>8.36</ele><time>2022-09-26T06:09:08Z</time></trkpt><trkpt lat="34.2695932" lon="132.9798854"><ele>7.526666666666666</ele><time>2022-09-26T06:09:23Z</time></trkpt><trkpt lat="34.2696939" lon="132.9800697"><ele>6.983333333333333</ele><time>2022-09-26T06:09:39Z</time></trkpt></trkseg></trk></gpx>