<?xml version='1.0' encoding='UTF-8'?><gpx creator="Yama Museum Summit Candidate Generator" xsi:schemaLocation="http://www.topografix.com/GPX/1/1 http://www.topografix.com/GPX/1/1/gpx.xsd" version="1.1" xmlns="http://www.topografix.com/GPX/1/1" xmlns:xsi="http://www.w3.org/2001/XMLSchema-instance" xmlns:yama="https://museum-yama-data.moukaeritai.work/ns/yama-data/0.1"><metadata><bounds maxlat="34.1205214" maxlon="133.0355525" minlat="34.1188965" minlon="133.0329329"/><name>亀老山</name><extensions><yama:source_gpx_basename>yamap_2023-06-18_10_45.gpx</yama:source_gpx_basename><yama:source_gpx_relative_path>data/01_raw/gpx/2026-05-12/yamap_2023-06-18_10_45.gpx</yama:source_gpx_relative_path><yama:detection_parameters>window=5,radius=10,min_prominence=30,merge=100</yama:detection_parameters></extensions></metadata><trk><name>亀老山</name><number>1</number><trkseg><trkpt lat="34.1203433" lon="133.0339404"><ele>298.55</ele><time>2023-06-18T01:45:04Z</time></trkpt><trkpt lat="34.1201954" lon="133.033769"><ele>298.9</ele><time>2023-06-18T01:51:40Z</time></trkpt><trkpt lat="34.120017" lon="133.0338068"><ele>297.43666666666667</ele><time>2023-06-18T01:52:56Z</time></trkpt><trkpt lat="34.1198357" lon="133.0337774"><ele>297.67</ele><time>2023-06-18T01:53:11Z</time></trkpt><trkpt lat="34.1196854" lon="133.0339132"><ele>294.90000000000003</ele><time>2023-06-18T01:53:36Z</time></trkpt><trkpt lat="34.1197561" lon="133.0337134"><ele>296.25333333333333</ele><time>2023-06-18T01:55:16Z</time></trkpt><trkpt lat="34.1198076" lon="133.0335028"><ele>296.4433333333333</ele><time>2023-06-18T01:55:39Z</time></trkpt><trkpt lat="34.1199746" lon="133.0334061"><ele>299.5466666666667</ele><time>2023-06-18T01:55:56Z</time></trkpt><trkpt lat="34.1198752" lon="133.0335914"><ele>300.12999999999994</ele><time>2023-06-18T02:02:03Z</time></trkpt><trkpt lat="34.1197969" lon="133.0337924"><ele>299.09999999999997</ele><time>2023-06-18T02:02:55Z</time></trkpt><trkpt lat="34.1196641" lon="133.0336435"><ele>298.3566666666666</ele><time>2023-06-18T02:03:19Z</time></trkpt><trkpt lat="34.1198369" lon="133.0335662"><ele>298.3566666666666</ele><time>2023-06-18T02:03:42Z</time></trkpt><trkpt lat="34.1199988" lon="133.0334681"><ele>299.65999999999997</ele><time>2023-06-18T02:04:00Z</time></trkpt><trkpt lat="34.1201374" lon="133.0336153"><ele>300.56666666666666</ele><time>2023-06-18T02:04:29Z</time></trkpt><trkpt lat="34.1202271" lon="133.0338075"><ele>299.14000000000004</ele><time>2023-06-18T02:05:27Z</time></trkpt><trkpt lat="34.1203317" lon="133.0339931"><ele>297.7366666666667</ele><time>2023-06-18T02:13:56Z</time></trkpt><trkpt lat="34.1205214" lon="133.033914"><ele>297.48333333333335</ele><time>2023-06-18T02:28:32Z</time></trkpt><trkpt lat="34.1204448" lon="133.0336599"><ele>298.83</ele><time>2023-06-18T02:28:39Z</time></trkpt><trkpt lat="34.120217" lon="133.0333729"><ele>300.0233333333333</ele><time>2023-06-18T02:28:45Z</time></trkpt><trkpt lat="34.1200908" lon="133.0332061"><ele>298.29999999999995</ele><time>2023-06-18T02:28:48Z</time></trkpt><trkpt lat="34.1199123" lon="133.0329329"><ele>292.15</ele><time>2023-06-18T02:28:52Z</time></trkpt><trkpt lat="34.1197415" lon="133.0330293"><ele>282.5833333333333</ele><time>2023-06-18T02:28:58Z</time></trkpt><trkpt lat="34.1195587" lon="133.0332001"><ele>275.02333333333337</ele><time>2023-06-18T02:29:01Z</time></trkpt><trkpt lat="34.119324" lon="133.0333011"><ele>271.8466666666667</ele><time>2023-06-18T02:29:04Z</time></trkpt><trkpt lat="34.1191395" lon="133.0332812"><ele>270.34999999999997</ele><time>2023-06-18T02:29:06Z</time></trkpt><trkpt lat="34.1189377" lon="133.0333065"><ele>267.4866666666667</ele><time>2023-06-18T02:29:09Z</time></trkpt><trkpt lat="34.1188965" lon="133.0337175"><ele>264.4766666666667</ele><time>2023-06-18T02:29:15Z</time></trkpt><trkpt lat="34.1190784" lon="133.0339848"><ele>259.84</ele><time>2023-06-18T02:29:19Z</time></trkpt><trkpt lat="34.1192503" lon="133.0343645"><ele>256.28000000000003</ele><time>2023-06-18T02:29:24Z</time></trkpt><trkpt lat="34.1193965" lon="133.0346289"><ele>252.03666666666666</ele><time>2023-06-18T02:29:28Z</time></trkpt><trkpt lat="34.1195663" lon="133.0347076"><ele>251.44333333333336</ele><time>2023-06-18T02:29:31Z</time></trkpt><trkpt lat="34.1196466" lon="133.0350378"><ele>249.08</ele><time>2023-06-18T02:29:36Z</time></trkpt><trkpt lat="34.1197483" lon="133.0353747"><ele>244.55666666666664</ele><time>2023-06-18T02:29:40Z</time></trkpt><trkpt lat="34.1199228" lon="133.0355525"><ele>240.83666666666667</ele><time>2023-06-18T02:29:43Z</time></trkpt></trkseg></trk></gpx>