<?xml version='1.0' encoding='UTF-8'?><gpx creator="Yama Museum Summit Candidate Generator" xsi:schemaLocation="http://www.topografix.com/GPX/1/1 http://www.topografix.com/GPX/1/1/gpx.xsd" version="1.1" xmlns="http://www.topografix.com/GPX/1/1" xmlns:xsi="http://www.w3.org/2001/XMLSchema-instance" xmlns:yama="https://museum-yama-data.moukaeritai.work/ns/yama-data/0.1"><metadata><bounds maxlat="34.1155636" maxlon="132.9180161" minlat="34.1137577" minlon="132.9155265"/><name>高山</name><extensions><yama:source_gpx_basename>yamap_2022-12-25_10_09.gpx</yama:source_gpx_basename><yama:source_gpx_relative_path>data/01_raw/gpx/2026-05-12/yamap_2022-12-25_10_09.gpx</yama:source_gpx_relative_path><yama:detection_parameters>window=5,radius=10,min_prominence=30,merge=100</yama:detection_parameters></extensions></metadata><wpt lat="34.1144302" lon="132.9156361"><ele>131.66666666666666</ele><time>2022-12-25T01:23:17Z</time><name>summit-candidate:101c1b0635c0bec0</name><desc>Summit candidate detected at elevation 131.66666666666666m with prominence 72.68422222222222m.</desc><sym>Summit Candidate</sym><extensions><yama:source_trackpoint_index>33</yama:source_trackpoint_index><yama:valid_elevation_index>33</yama:valid_elevation_index><yama:smoothed_ele>131.382</yama:smoothed_ele><yama:prominence>72.68422222222222</yama:prominence><yama:detection_method>local_maxima_with_prominence</yama:detection_method><yama:detection_parameters>window=5,radius=10,min_prominence=30,merge=100</yama:detection_parameters><yama:candidate_status>unresolved</yama:candidate_status></extensions></wpt>
  <trk><name>高山</name><number>1</number><trkseg><trkpt lat="34.1138668" lon="132.9175946"><ele>57.59</ele><time>2022-12-25T01:09:50Z</time></trkpt><trkpt lat="34.1138434" lon="132.9178279"><ele>56.415000000000006</ele><time>2022-12-25T01:10:25Z</time></trkpt><trkpt lat="34.1140141" lon="132.9179254"><ele>58.46333333333334</ele><time>2022-12-25T01:10:53Z</time></trkpt><trkpt lat="34.1141294" lon="132.9177469"><ele>61.67333333333334</ele><time>2022-12-25T01:11:10Z</time></trkpt><trkpt lat="34.1141228" lon="132.9175212"><ele>67.41666666666667</ele><time>2022-12-25T01:11:20Z</time></trkpt><trkpt lat="34.114256" lon="132.9173651"><ele>75.07</ele><time>2022-12-25T01:11:33Z</time></trkpt><trkpt lat="34.1144246" lon="132.9174609"><ele>80.87</ele><time>2022-12-25T01:11:44Z</time></trkpt><trkpt lat="34.114571" lon="132.9173224"><ele>85.34999999999998</ele><time>2022-12-25T01:13:07Z</time></trkpt><trkpt lat="34.1146516" lon="132.9171183"><ele>85.58666666666666</ele><time>2022-12-25T01:13:22Z</time></trkpt><trkpt lat="34.1148135" lon="132.9170215"><ele>86.50666666666666</ele><time>2022-12-25T01:13:39Z</time></trkpt><trkpt lat="34.1149917" lon="132.9170778"><ele>86.72000000000001</ele><time>2022-12-25T01:13:57Z</time></trkpt><trkpt lat="34.1151678" lon="132.9170186"><ele>89.16333333333334</ele><time>2022-12-25T01:14:12Z</time></trkpt><trkpt lat="34.1153415" lon="132.917091"><ele>89.87666666666667</ele><time>2022-12-25T01:14:27Z</time></trkpt><trkpt lat="34.1155236" lon="132.9170883"><ele>88.69666666666666</ele><time>2022-12-25T01:14:42Z</time></trkpt><trkpt lat="34.1154451" lon="132.9168886"><ele>86.65666666666668</ele><time>2022-12-25T01:14:56Z</time></trkpt><trkpt lat="34.1153484" lon="132.9167001"><ele>89.07333333333332</ele><time>2022-12-25T01:15:13Z</time></trkpt><trkpt lat="34.1153824" lon="132.9164848"><ele>93.33</ele><time>2022-12-25T01:15:42Z</time></trkpt><trkpt lat="34.1154648" lon="132.9162799"><ele>96.76333333333334</ele><time>2022-12-25T01:15:54Z</time></trkpt><trkpt lat="34.1154887" lon="132.9160639"><ele>97.91000000000001</ele><time>2022-12-25T01:16:06Z</time></trkpt><trkpt lat="34.1154636" lon="132.9158471"><ele>98.94666666666667</ele><time>2022-12-25T01:16:23Z</time></trkpt><trkpt lat="34.1152981" lon="132.9157463"><ele>100.59000000000002</ele><time>2022-12-25T01:16:45Z</time></trkpt><trkpt lat="34.115152" lon="132.9156089"><ele>102.51333333333334</ele><time>2022-12-25T01:17:10Z</time></trkpt><trkpt lat="34.115231" lon="132.915804"><ele>105.53000000000002</ele><time>2022-12-25T01:18:13Z</time></trkpt><trkpt lat="34.1152664" lon="132.9160274"><ele>108.23666666666668</ele><time>2022-12-25T01:18:33Z</time></trkpt><trkpt lat="34.1151934" lon="132.9162285"><ele>109.98333333333335</ele><time>2022-12-25T01:18:43Z</time></trkpt><trkpt lat="34.1150339" lon="132.9163332"><ele>112.26333333333332</ele><time>2022-12-25T01:19:01Z</time></trkpt><trkpt lat="34.1148631" lon="132.9162451"><ele>115.18666666666667</ele><time>2022-12-25T01:19:11Z</time></trkpt><trkpt lat="34.1147318" lon="132.9160781"><ele>120.42666666666666</ele><time>2022-12-25T01:19:25Z</time></trkpt><trkpt lat="34.1145629" lon="132.9159855"><ele>125.80333333333333</ele><time>2022-12-25T01:19:40Z</time></trkpt><trkpt lat="34.1143767" lon="132.915968"><ele>129.23666666666668</ele><time>2022-12-25T01:19:55Z</time></trkpt><trkpt lat="34.114379" lon="132.9157437"><ele>130.79999999999998</ele><time>2022-12-25T01:20:53Z</time></trkpt><trkpt lat="34.1144408" lon="132.9155265"><ele>130.94333333333336</ele><time>2022-12-25T01:21:00Z</time></trkpt><trkpt lat="34.1146124" lon="132.9156111"><ele>131.69000000000003</ele><time>2022-12-25T01:21:23Z</time></trkpt><trkpt lat="34.1144302" lon="132.9156361"><ele>131.66666666666666</ele><time>2022-12-25T01:23:17Z</time></trkpt><trkpt lat="34.1144327" lon="132.9158624"><ele>131.5533333333333</ele><time>2022-12-25T01:23:46Z</time></trkpt><trkpt lat="34.1145903" lon="132.91599"><ele>131.05666666666667</ele><time>2022-12-25T01:25:22Z</time></trkpt><trkpt lat="34.1147712" lon="132.9159397"><ele>130.43333333333334</ele><time>2022-12-25T01:25:40Z</time></trkpt><trkpt lat="34.1149164" lon="132.9160787"><ele>127.86000000000001</ele><time>2022-12-25T01:26:00Z</time></trkpt><trkpt lat="34.1151084" lon="132.9161049"><ele>122.96333333333332</ele><time>2022-12-25T01:26:10Z</time></trkpt><trkpt lat="34.1152822" lon="132.916047"><ele>116.69333333333333</ele><time>2022-12-25T01:26:21Z</time></trkpt><trkpt lat="34.1152317" lon="132.9158338"><ele>111.58</ele><time>2022-12-25T01:26:37Z</time></trkpt><trkpt lat="34.1150571" lon="132.9157644"><ele>111.08666666666666</ele><time>2022-12-25T01:26:54Z</time></trkpt><trkpt lat="34.1152187" lon="132.9156552"><ele>108.38</ele><time>2022-12-25T01:27:10Z</time></trkpt><trkpt lat="34.1154016" lon="132.9156546"><ele>104.63666666666666</ele><time>2022-12-25T01:27:45Z</time></trkpt><trkpt lat="34.1155148" lon="132.9158374"><ele>98.23666666666668</ele><time>2022-12-25T01:27:58Z</time></trkpt><trkpt lat="34.1155598" lon="132.9160644"><ele>96.32666666666667</ele><time>2022-12-25T01:28:08Z</time></trkpt><trkpt lat="34.1155302" lon="132.9162846"><ele>95.80999999999999</ele><time>2022-12-25T01:28:50Z</time></trkpt><trkpt lat="34.1154375" lon="132.9164806"><ele>94.84666666666668</ele><time>2022-12-25T01:29:03Z</time></trkpt><trkpt lat="34.1154646" lon="132.9167287"><ele>91.83</ele><time>2022-12-25T01:29:14Z</time></trkpt><trkpt lat="34.1155636" lon="132.91691"><ele>88.04666666666667</ele><time>2022-12-25T01:29:24Z</time></trkpt><trkpt lat="34.1154299" lon="132.9170599"><ele>86.29333333333334</ele><time>2022-12-25T01:29:49Z</time></trkpt><trkpt lat="34.1152543" lon="132.91697"><ele>88.75333333333333</ele><time>2022-12-25T01:30:03Z</time></trkpt><trkpt lat="34.1150771" lon="132.9170639"><ele>90.58</ele><time>2022-12-25T01:30:11Z</time></trkpt><trkpt lat="34.114889" lon="132.9170877"><ele>89.80666666666667</ele><time>2022-12-25T01:30:24Z</time></trkpt><trkpt lat="34.1147066" lon="132.9170495"><ele>88.08333333333333</ele><time>2022-12-25T01:30:36Z</time></trkpt><trkpt lat="34.1145414" lon="132.9171642"><ele>87.92666666666666</ele><time>2022-12-25T01:30:47Z</time></trkpt><trkpt lat="34.1145512" lon="132.9173902"><ele>88.30666666666666</ele><time>2022-12-25T01:30:59Z</time></trkpt><trkpt lat="34.1144173" lon="132.9175367"><ele>85.13333333333334</ele><time>2022-12-25T01:31:20Z</time></trkpt><trkpt lat="34.1142512" lon="132.9176657"><ele>79.44666666666666</ele><time>2022-12-25T01:31:32Z</time></trkpt><trkpt lat="34.1141527" lon="132.9178507"><ele>72.55333333333334</ele><time>2022-12-25T01:31:46Z</time></trkpt><trkpt lat="34.1140332" lon="132.9180161"><ele>66.83</ele><time>2022-12-25T01:32:00Z</time></trkpt><trkpt lat="34.1138615" lon="132.9179414"><ele>61.30333333333334</ele><time>2022-12-25T01:32:15Z</time></trkpt><trkpt lat="34.1138948" lon="132.9177274"><ele>58.57</ele><time>2022-12-25T01:32:25Z</time></trkpt><trkpt lat="34.1137577" lon="132.9175658"><ele>56.220000000000006</ele><time>2022-12-25T01:32:42Z</time></trkpt></trkseg></trk></gpx>