<?xml version='1.0' encoding='UTF-8'?><gpx creator="YAMAP - https://yamap.com" xsi:schemaLocation="http://www.topografix.com/GPX/1/1 http://www.topografix.com/GPX/1/1/gpx.xsd" version="1.1" xmlns="http://www.topografix.com/GPX/1/1" xmlns:xsi="http://www.w3.org/2001/XMLSchema-instance"><metadata><bounds maxlat="33.9578198" maxlon="132.9789674" minlat="33.9409504" minlon="132.9612004"/></metadata><trk><name>五葉が森</name><number>1</number><trkseg><trkpt lat="33.9572229" lon="132.9614719"><ele>373.29</ele><time>2023-06-11T02:57:51Z</time></trkpt><trkpt lat="33.9572626" lon="132.9616835"><ele>373.53</ele><time>2023-06-11T02:58:07Z</time></trkpt><trkpt lat="33.9572675" lon="132.9619089"><ele>373.83</ele><time>2023-06-11T02:58:25Z</time></trkpt><trkpt lat="33.9571969" lon="132.9621109"><ele>374.2633333333333</ele><time>2023-06-11T02:58:39Z</time></trkpt><trkpt lat="33.9570453" lon="132.9622357"><ele>374.71999999999997</ele><time>2023-06-11T02:59:02Z</time></trkpt><trkpt lat="33.956919" lon="132.9623941"><ele>375.1666666666667</ele><time>2023-06-11T02:59:16Z</time></trkpt><trkpt lat="33.9568087" lon="132.9625673"><ele>375.59666666666664</ele><time>2023-06-11T02:59:32Z</time></trkpt><trkpt lat="33.9566417" lon="132.9626737"><ele>376.03666666666663</ele><time>2023-06-11T02:59:50Z</time></trkpt><trkpt lat="33.9564746" lon="132.962756"><ele>376.43333333333334</ele><time>2023-06-11T03:00:02Z</time></trkpt><trkpt lat="33.9562935" lon="132.9628296"><ele>377.0533333333333</ele><time>2023-06-11T03:00:16Z</time></trkpt><trkpt lat="33.9561001" lon="132.9628048"><ele>377.99</ele><time>2023-06-11T03:00:36Z</time></trkpt><trkpt lat="33.9559163" lon="132.9627686"><ele>378.81</ele><time>2023-06-11T03:00:49Z</time></trkpt><trkpt lat="33.9557353" lon="132.9627734"><ele>379.39000000000004</ele><time>2023-06-11T03:01:02Z</time></trkpt><trkpt lat="33.9555522" lon="132.9628001"><ele>379.5933333333334</ele><time>2023-06-11T03:01:14Z</time></trkpt><trkpt lat="33.9553816" lon="132.9627221"><ele>380.0833333333333</ele><time>2023-06-11T03:01:30Z</time></trkpt><trkpt lat="33.9552095" lon="132.9626467"><ele>380.44666666666666</ele><time>2023-06-11T03:01:43Z</time></trkpt><trkpt lat="33.9550784" lon="132.9624844"><ele>381.9466666666667</ele><time>2023-06-11T03:01:55Z</time></trkpt><trkpt lat="33.9549018" lon="132.962421"><ele>383.8533333333333</ele><time>2023-06-11T03:02:15Z</time></trkpt><trkpt lat="33.9550382" lon="132.9625751"><ele>384.41</ele><time>2023-06-11T03:03:55Z</time></trkpt><trkpt lat="33.9551526" lon="132.9627495"><ele>382.88000000000005</ele><time>2023-06-11T03:04:07Z</time></trkpt><trkpt lat="33.9552737" lon="132.9629156"><ele>380.5833333333333</ele><time>2023-06-11T03:04:18Z</time></trkpt><trkpt lat="33.9554241" lon="132.9630552"><ele>379.5366666666667</ele><time>2023-06-11T03:04:28Z</time></trkpt><trkpt lat="33.9555552" lon="132.9632207"><ele>379.46000000000004</ele><time>2023-06-11T03:04:40Z</time></trkpt><trkpt lat="33.9556451" lon="132.9634142"><ele>381.92333333333335</ele><time>2023-06-11T03:04:52Z</time></trkpt><trkpt lat="33.9556842" lon="132.9636338"><ele>385.99</ele><time>2023-06-11T03:05:05Z</time></trkpt><trkpt lat="33.9558682" lon="132.9636043"><ele>390.09</ele><time>2023-06-11T03:05:18Z</time></trkpt><trkpt lat="33.9560199" lon="132.9634789"><ele>389.17666666666673</ele><time>2023-06-11T03:05:31Z</time></trkpt><trkpt lat="33.9561994" lon="132.9634069"><ele>386.21333333333337</ele><time>2023-06-11T03:05:46Z</time></trkpt><trkpt lat="33.9563788" lon="132.9634762"><ele>384.44666666666666</ele><time>2023-06-11T03:06:01Z</time></trkpt><trkpt lat="33.9565026" lon="132.9636357"><ele>386.52333333333337</ele><time>2023-06-11T03:06:15Z</time></trkpt><trkpt lat="33.956566" lon="132.9638388"><ele>390.97</ele><time>2023-06-11T03:06:26Z</time></trkpt><trkpt lat="33.9566438" lon="132.964049"><ele>394.85666666666674</ele><time>2023-06-11T03:06:38Z</time></trkpt><trkpt lat="33.9567145" lon="132.9642598"><ele>397.7966666666667</ele><time>2023-06-11T03:06:49Z</time></trkpt><trkpt lat="33.9567866" lon="132.9644664"><ele>399.23333333333335</ele><time>2023-06-11T03:07:03Z</time></trkpt><trkpt lat="33.9568344" lon="132.9646888"><ele>400.23</ele><time>2023-06-11T03:07:16Z</time></trkpt><trkpt lat="33.9569022" lon="132.9648968"><ele>403.07666666666665</ele><time>2023-06-11T03:07:29Z</time></trkpt><trkpt lat="33.9569579" lon="132.9651133"><ele>407.2033333333334</ele><time>2023-06-11T03:07:42Z</time></trkpt><trkpt lat="33.9570127" lon="132.9653252"><ele>413.0833333333333</ele><time>2023-06-11T03:07:58Z</time></trkpt><trkpt lat="33.956822" lon="132.965341"><ele>415.18333333333334</ele><time>2023-06-11T03:08:21Z</time></trkpt><trkpt lat="33.9566634" lon="132.9652159"><ele>418.78000000000003</ele><time>2023-06-11T03:08:35Z</time></trkpt><trkpt lat="33.9565512" lon="132.9650287"><ele>420.74</ele><time>2023-06-11T03:08:51Z</time></trkpt><trkpt lat="33.95642" lon="132.9648736"><ele>426.25</ele><time>2023-06-11T03:09:05Z</time></trkpt><trkpt lat="33.9563756" lon="132.9646542"><ele>428.06333333333333</ele><time>2023-06-11T03:09:21Z</time></trkpt><trkpt lat="33.9562346" lon="132.964516"><ele>429.50333333333333</ele><time>2023-06-11T03:09:48Z</time></trkpt><trkpt lat="33.9563801" lon="132.9646524"><ele>428.7966666666667</ele><time>2023-06-11T03:10:18Z</time></trkpt><trkpt lat="33.9564609" lon="132.9648543"><ele>427.74333333333334</ele><time>2023-06-11T03:10:32Z</time></trkpt><trkpt lat="33.9565559" lon="132.9650538"><ele>426.71000000000004</ele><time>2023-06-11T03:10:47Z</time></trkpt><trkpt lat="33.956582" lon="132.9652793"><ele>426.2833333333333</ele><time>2023-06-11T03:10:58Z</time></trkpt><trkpt lat="33.9565141" lon="132.9654868"><ele>427.52</ele><time>2023-06-11T03:11:15Z</time></trkpt><trkpt lat="33.956537" lon="132.9657032"><ele>428.00333333333333</ele><time>2023-06-11T03:11:27Z</time></trkpt><trkpt lat="33.9566404" lon="132.9658993"><ele>427.74333333333334</ele><time>2023-06-11T03:11:40Z</time></trkpt><trkpt lat="33.9566294" lon="132.9661177"><ele>427.42333333333335</ele><time>2023-06-11T03:11:53Z</time></trkpt><trkpt lat="33.9565206" lon="132.9662909"><ele>432.37999999999994</ele><time>2023-06-11T03:12:08Z</time></trkpt><trkpt lat="33.9564811" lon="132.9665032"><ele>438.47333333333336</ele><time>2023-06-11T03:12:22Z</time></trkpt><trkpt lat="33.9564625" lon="132.9667214"><ele>443.65000000000003</ele><time>2023-06-11T03:12:39Z</time></trkpt><trkpt lat="33.9564574" lon="132.9669462"><ele>445.54</ele><time>2023-06-11T03:12:53Z</time></trkpt><trkpt lat="33.956579" lon="132.9671093"><ele>443.49666666666667</ele><time>2023-06-11T03:13:06Z</time></trkpt><trkpt lat="33.956593" lon="132.9673285"><ele>442.1566666666667</ele><time>2023-06-11T03:13:20Z</time></trkpt><trkpt lat="33.9565338" lon="132.9675395"><ele>439.9066666666667</ele><time>2023-06-11T03:13:50Z</time></trkpt><trkpt lat="33.9566307" lon="132.9677293"><ele>439.82</ele><time>2023-06-11T03:14:11Z</time></trkpt><trkpt lat="33.9566074" lon="132.9679443"><ele>439.77666666666664</ele><time>2023-06-11T03:14:25Z</time></trkpt><trkpt lat="33.956537" lon="132.9681522"><ele>440.6066666666666</ele><time>2023-06-11T03:14:37Z</time></trkpt><trkpt lat="33.9565298" lon="132.9683722"><ele>444.0833333333333</ele><time>2023-06-11T03:14:50Z</time></trkpt><trkpt lat="33.9565278" lon="132.96859"><ele>448.16</ele><time>2023-06-11T03:15:05Z</time></trkpt><trkpt lat="33.9564338" lon="132.9687885"><ele>454.0233333333333</ele><time>2023-06-11T03:15:18Z</time></trkpt><trkpt lat="33.9562897" lon="132.9689349"><ele>461.92333333333335</ele><time>2023-06-11T03:15:30Z</time></trkpt><trkpt lat="33.9562561" lon="132.9691564"><ele>468.78999999999996</ele><time>2023-06-11T03:15:44Z</time></trkpt><trkpt lat="33.9563226" lon="132.9693655"><ele>471.83666666666664</ele><time>2023-06-11T03:15:56Z</time></trkpt><trkpt lat="33.9561796" lon="132.9695052"><ele>473.87000000000006</ele><time>2023-06-11T03:16:14Z</time></trkpt><trkpt lat="33.9559953" lon="132.9694908"><ele>478.3966666666667</ele><time>2023-06-11T03:16:26Z</time></trkpt><trkpt lat="33.955804" lon="132.9694963"><ele>485.0466666666666</ele><time>2023-06-11T03:16:40Z</time></trkpt><trkpt lat="33.9557866" lon="132.969723"><ele>487.33666666666676</ele><time>2023-06-11T03:16:54Z</time></trkpt><trkpt lat="33.9559369" lon="132.9698462"><ele>487.07666666666665</ele><time>2023-06-11T03:17:27Z</time></trkpt><trkpt lat="33.9561056" lon="132.9699552"><ele>486.25666666666666</ele><time>2023-06-11T03:17:45Z</time></trkpt><trkpt lat="33.9562927" lon="132.9699838"><ele>486.49666666666667</ele><time>2023-06-11T03:18:04Z</time></trkpt><trkpt lat="33.9564323" lon="132.9698448"><ele>484.06333333333333</ele><time>2023-06-11T03:18:17Z</time></trkpt><trkpt lat="33.9565038" lon="132.9700511"><ele>482.14000000000004</ele><time>2023-06-11T03:18:28Z</time></trkpt><trkpt lat="33.9565812" lon="132.9702506"><ele>482.14000000000004</ele><time>2023-06-11T03:18:41Z</time></trkpt><trkpt lat="33.9566034" lon="132.9704686"><ele>487.9766666666667</ele><time>2023-06-11T03:18:56Z</time></trkpt><trkpt lat="33.9564892" lon="132.9706504"><ele>491.9666666666667</ele><time>2023-06-11T03:19:10Z</time></trkpt><trkpt lat="33.9564014" lon="132.9708414"><ele>495.63000000000005</ele><time>2023-06-11T03:19:23Z</time></trkpt><trkpt lat="33.9562262" lon="132.970925"><ele>495.4766666666667</ele><time>2023-06-11T03:19:37Z</time></trkpt><trkpt lat="33.9560913" lon="132.9710753"><ele>496.2966666666667</ele><time>2023-06-11T03:19:55Z</time></trkpt><trkpt lat="33.9561317" lon="132.9712881"><ele>497.1566666666667</ele><time>2023-06-11T03:20:09Z</time></trkpt><trkpt lat="33.9560085" lon="132.971456"><ele>498.85999999999996</ele><time>2023-06-11T03:20:26Z</time></trkpt><trkpt lat="33.9558653" lon="132.9715899"><ele>500.1433333333334</ele><time>2023-06-11T03:20:40Z</time></trkpt><trkpt lat="33.9557581" lon="132.9717734"><ele>501.45</ele><time>2023-06-11T03:20:54Z</time></trkpt><trkpt lat="33.9556565" lon="132.9719597"><ele>503.65000000000003</ele><time>2023-06-11T03:21:08Z</time></trkpt><trkpt lat="33.9556204" lon="132.9721746"><ele>506.4433333333333</ele><time>2023-06-11T03:21:24Z</time></trkpt><trkpt lat="33.9556657" lon="132.972385"><ele>508.7</ele><time>2023-06-11T03:21:36Z</time></trkpt><trkpt lat="33.9557076" lon="132.9725966"><ele>512.8833333333333</ele><time>2023-06-11T03:22:00Z</time></trkpt><trkpt lat="33.9557238" lon="132.9728206"><ele>516.6033333333334</ele><time>2023-06-11T03:22:20Z</time></trkpt><trkpt lat="33.9557436" lon="132.9730442"><ele>520.9366666666666</ele><time>2023-06-11T03:22:32Z</time></trkpt><trkpt lat="33.9558678" lon="132.9732017"><ele>523.4900000000001</ele><time>2023-06-11T03:22:47Z</time></trkpt><trkpt lat="33.9560428" lon="132.9732765"><ele>526.9666666666667</ele><time>2023-06-11T03:23:25Z</time></trkpt><trkpt lat="33.956212" lon="132.9733628"><ele>530.7166666666667</ele><time>2023-06-11T03:23:41Z</time></trkpt><trkpt lat="33.9563112" lon="132.9735472"><ele>532.6233333333333</ele><time>2023-06-11T03:23:55Z</time></trkpt><trkpt lat="33.9564192" lon="132.9737319"><ele>534.04</ele><time>2023-06-11T03:24:22Z</time></trkpt><trkpt lat="33.9565843" lon="132.9738873"><ele>534.4933333333333</ele><time>2023-06-11T03:24:32Z</time></trkpt><trkpt lat="33.9567068" lon="132.9740527"><ele>536.4300000000001</ele><time>2023-06-11T03:24:41Z</time></trkpt><trkpt lat="33.9567635" lon="132.9742615"><ele>537.9166666666666</ele><time>2023-06-11T03:24:57Z</time></trkpt><trkpt lat="33.9568398" lon="132.9740582"><ele>540.0333333333333</ele><time>2023-06-11T03:25:46Z</time></trkpt><trkpt lat="33.9568481" lon="132.9738374"><ele>541.7833333333334</ele><time>2023-06-11T03:26:00Z</time></trkpt><trkpt lat="33.9569054" lon="132.9736217"><ele>544.6033333333334</ele><time>2023-06-11T03:26:18Z</time></trkpt><trkpt lat="33.9570308" lon="132.973782"><ele>547.9866666666667</ele><time>2023-06-11T03:27:08Z</time></trkpt><trkpt lat="33.9570728" lon="132.9739994"><ele>550.5300000000001</ele><time>2023-06-11T03:27:21Z</time></trkpt><trkpt lat="33.9571329" lon="132.9742293"><ele>552.1466666666666</ele><time>2023-06-11T03:27:29Z</time></trkpt><trkpt lat="33.9572056" lon="132.9744568"><ele>553.18</ele><time>2023-06-11T03:27:33Z</time></trkpt><trkpt lat="33.9572723" lon="132.9746599"><ele>556.32</ele><time>2023-06-11T03:27:42Z</time></trkpt><trkpt lat="33.9574213" lon="132.974788"><ele>561.4733333333334</ele><time>2023-06-11T03:27:58Z</time></trkpt><trkpt lat="33.9576036" lon="132.9748348"><ele>569.2600000000001</ele><time>2023-06-11T03:28:27Z</time></trkpt><trkpt lat="33.9576836" lon="132.9750304"><ele>576.2199999999999</ele><time>2023-06-11T03:29:25Z</time></trkpt><trkpt lat="33.9578198" lon="132.9751732"><ele>584.46</ele><time>2023-06-11T03:29:56Z</time></trkpt><trkpt lat="33.9577859" lon="132.9754018"><ele>589.12</ele><time>2023-06-11T03:31:59Z</time></trkpt><trkpt lat="33.957652" lon="132.9755532"><ele>592.5600000000001</ele><time>2023-06-11T03:32:33Z</time></trkpt><trkpt lat="33.9574749" lon="132.9755041"><ele>592.1899999999999</ele><time>2023-06-11T03:32:56Z</time></trkpt><trkpt lat="33.9572909" lon="132.9755734"><ele>592.0466666666667</ele><time>2023-06-11T03:33:44Z</time></trkpt><trkpt lat="33.9571177" lon="132.9756665"><ele>593.9</ele><time>2023-06-11T03:33:49Z</time></trkpt><trkpt lat="33.956951" lon="132.9757596"><ele>598.39</ele><time>2023-06-11T03:34:02Z</time></trkpt><trkpt lat="33.9567933" lon="132.9758758"><ele>603.9933333333333</ele><time>2023-06-11T03:34:16Z</time></trkpt><trkpt lat="33.9567263" lon="132.9760808"><ele>608.1833333333334</ele><time>2023-06-11T03:34:35Z</time></trkpt><trkpt lat="33.9566022" lon="132.9762415"><ele>610.6866666666667</ele><time>2023-06-11T03:35:19Z</time></trkpt><trkpt lat="33.9564821" lon="132.9764107"><ele>611.4333333333334</ele><time>2023-06-11T03:35:39Z</time></trkpt><trkpt lat="33.9562973" lon="132.9765144"><ele>615.2033333333334</ele><time>2023-06-11T03:37:36Z</time></trkpt><trkpt lat="33.9561689" lon="132.9766693"><ele>619.8733333333333</ele><time>2023-06-11T03:38:15Z</time></trkpt><trkpt lat="33.9561301" lon="132.9768878"><ele>624.61</ele><time>2023-06-11T03:38:51Z</time></trkpt><trkpt lat="33.9560377" lon="132.9770747"><ele>629.2233333333334</ele><time>2023-06-11T03:39:00Z</time></trkpt><trkpt lat="33.955882" lon="132.9771905"><ele>636.61</ele><time>2023-06-11T03:39:30Z</time></trkpt><trkpt lat="33.9557163" lon="132.9772768"><ele>646.9833333333332</ele><time>2023-06-11T03:41:15Z</time></trkpt><trkpt lat="33.9555778" lon="132.9774296"><ele>656.4866666666667</ele><time>2023-06-11T03:41:47Z</time></trkpt><trkpt lat="33.9553403" lon="132.9774786"><ele>663.8266666666667</ele><time>2023-06-11T03:43:02Z</time></trkpt><trkpt lat="33.9555289" lon="132.9774447"><ele>667.41</ele><time>2023-06-11T03:43:07Z</time></trkpt><trkpt lat="33.9553482" lon="132.9774651"><ele>669.7033333333334</ele><time>2023-06-11T03:51:35Z</time></trkpt><trkpt lat="33.9551691" lon="132.9774127"><ele>668.4533333333334</ele><time>2023-06-11T03:51:55Z</time></trkpt><trkpt lat="33.9550026" lon="132.9775083"><ele>666.4699999999999</ele><time>2023-06-11T03:52:25Z</time></trkpt><trkpt lat="33.9548401" lon="132.9776152"><ele>663.2233333333334</ele><time>2023-06-11T03:52:40Z</time></trkpt><trkpt lat="33.9546542" lon="132.9776699"><ele>661.7733333333333</ele><time>2023-06-11T03:52:55Z</time></trkpt><trkpt lat="33.9544661" lon="132.9776482"><ele>663.2666666666668</ele><time>2023-06-11T03:53:10Z</time></trkpt><trkpt lat="33.9542961" lon="132.9777283"><ele>663.5033333333334</ele><time>2023-06-11T03:53:30Z</time></trkpt><trkpt lat="33.9541248" lon="132.977656"><ele>665.0966666666667</ele><time>2023-06-11T03:53:46Z</time></trkpt><trkpt lat="33.9539652" lon="132.9777632"><ele>667.02</ele><time>2023-06-11T03:56:30Z</time></trkpt><trkpt lat="33.9538375" lon="132.9779171"><ele>671.3066666666667</ele><time>2023-06-11T03:57:02Z</time></trkpt><trkpt lat="33.9536609" lon="132.9779693"><ele>678.6866666666666</ele><time>2023-06-11T03:58:24Z</time></trkpt><trkpt lat="33.9535048" lon="132.978079"><ele>685.5500000000001</ele><time>2023-06-11T03:59:17Z</time></trkpt><trkpt lat="33.9533395" lon="132.9779915"><ele>693.3566666666667</ele><time>2023-06-11T03:59:40Z</time></trkpt><trkpt lat="33.9531962" lon="132.9778555"><ele>697.5566666666667</ele><time>2023-06-11T04:00:06Z</time></trkpt><trkpt lat="33.9530011" lon="132.9778452"><ele>701.4466666666667</ele><time>2023-06-11T04:00:21Z</time></trkpt><trkpt lat="33.9528197" lon="132.9778355"><ele>703.9666666666667</ele><time>2023-06-11T04:00:42Z</time></trkpt><trkpt lat="33.9526636" lon="132.9776574"><ele>706.9366666666668</ele><time>2023-06-11T04:01:17Z</time></trkpt><trkpt lat="33.9525128" lon="132.9775362"><ele>710.5733333333334</ele><time>2023-06-11T04:01:30Z</time></trkpt><trkpt lat="33.9523463" lon="132.9774491"><ele>714.8066666666667</ele><time>2023-06-11T04:02:19Z</time></trkpt><trkpt lat="33.9521662" lon="132.9775021"><ele>717.9333333333334</ele><time>2023-06-11T04:02:40Z</time></trkpt><trkpt lat="33.9519856" lon="132.977496"><ele>720.3133333333334</ele><time>2023-06-11T04:02:48Z</time></trkpt><trkpt lat="33.9518037" lon="132.9774906"><ele>723.7566666666667</ele><time>2023-06-11T04:03:15Z</time></trkpt><trkpt lat="33.9516409" lon="132.9775855"><ele>727.04</ele><time>2023-06-11T04:03:47Z</time></trkpt><trkpt lat="33.9514812" lon="132.9776945"><ele>730.1833333333334</ele><time>2023-06-11T04:04:10Z</time></trkpt><trkpt lat="33.9513221" lon="132.9778043"><ele>733.35</ele><time>2023-06-11T04:04:25Z</time></trkpt><trkpt lat="33.9511575" lon="132.9779206"><ele>735.66</ele><time>2023-06-11T04:05:00Z</time></trkpt><trkpt lat="33.9509842" lon="132.9779943"><ele>738.4666666666667</ele><time>2023-06-11T04:05:24Z</time></trkpt><trkpt lat="33.9508005" lon="132.9780191"><ele>739.8800000000001</ele><time>2023-06-11T04:05:47Z</time></trkpt><trkpt lat="33.9506232" lon="132.9779693"><ele>744.2833333333333</ele><time>2023-06-11T04:06:34Z</time></trkpt><trkpt lat="33.9504489" lon="132.9779084"><ele>751.5300000000001</ele><time>2023-06-11T04:07:43Z</time></trkpt><trkpt lat="33.9502831" lon="132.9778149"><ele>761.2999999999998</ele><time>2023-06-11T04:08:22Z</time></trkpt><trkpt lat="33.9501285" lon="132.9776971"><ele>772.07</ele><time>2023-06-11T04:08:42Z</time></trkpt><trkpt lat="33.9500178" lon="132.977519"><ele>782.8933333333333</ele><time>2023-06-11T04:10:51Z</time></trkpt><trkpt lat="33.9498366" lon="132.9774958"><ele>793.3533333333334</ele><time>2023-06-11T04:11:08Z</time></trkpt><trkpt lat="33.9496772" lon="132.977603"><ele>800.0666666666666</ele><time>2023-06-11T04:11:48Z</time></trkpt><trkpt lat="33.9495242" lon="132.9777286"><ele>802.4966666666666</ele><time>2023-06-11T04:12:14Z</time></trkpt><trkpt lat="33.9493632" lon="132.9778324"><ele>801.41</ele><time>2023-06-11T04:12:31Z</time></trkpt><trkpt lat="33.9492049" lon="132.9779405"><ele>800.6466666666666</ele><time>2023-06-11T04:13:06Z</time></trkpt><trkpt lat="33.9490996" lon="132.9781201"><ele>799.8100000000001</ele><time>2023-06-11T04:13:25Z</time></trkpt><trkpt lat="33.948937" lon="132.9782187"><ele>801.3233333333334</ele><time>2023-06-11T04:13:37Z</time></trkpt><trkpt lat="33.9488246" lon="132.9783892"><ele>805.86</ele><time>2023-06-11T04:13:52Z</time></trkpt><trkpt lat="33.9487236" lon="132.9785728"><ele>815.9884547160668</ele><time>2023-06-11T04:15:10Z</time></trkpt><trkpt lat="33.9486102" lon="132.9787436"><ele>827.3159879221553</ele><time>2023-06-11T04:16:09Z</time></trkpt><trkpt lat="33.9484307" lon="132.9787191"><ele>837.190260529338</ele><time>2023-06-11T04:24:12Z</time></trkpt><trkpt lat="33.9483028" lon="132.9785604"><ele>837.212880782981</ele><time>2023-06-11T04:25:02Z</time></trkpt><trkpt lat="33.9482033" lon="132.9783731"><ele>835.8153475768927</ele><time>2023-06-11T04:25:49Z</time></trkpt><trkpt lat="33.9480605" lon="132.9782299"><ele>827.5244083030431</ele><time>2023-06-11T04:26:23Z</time></trkpt><trkpt lat="33.9481083" lon="132.9780211"><ele>821.4466666666667</ele><time>2023-06-11T04:26:44Z</time></trkpt><trkpt lat="33.9480387" lon="132.9778204"><ele>808.5766666666667</ele><time>2023-06-11T04:27:37Z</time></trkpt><trkpt lat="33.9478924" lon="132.9776846"><ele>798.52</ele><time>2023-06-11T04:27:58Z</time></trkpt><trkpt lat="33.9478643" lon="132.9774685"><ele>785.6266666666667</ele><time>2023-06-11T04:29:12Z</time></trkpt><trkpt lat="33.9479466" lon="132.9776624"><ele>783.7833333333334</ele><time>2023-06-11T04:32:22Z</time></trkpt><trkpt lat="33.9480992" lon="132.97778"><ele>786.1700000000001</ele><time>2023-06-11T04:33:01Z</time></trkpt><trkpt lat="33.9481076" lon="132.977998"><ele>797.41</ele><time>2023-06-11T04:33:45Z</time></trkpt><trkpt lat="33.9480553" lon="132.9782052"><ele>806.0533333333333</ele><time>2023-06-11T04:35:06Z</time></trkpt><trkpt lat="33.9480502" lon="132.9784226"><ele>813.9699999999999</ele><time>2023-06-11T04:35:34Z</time></trkpt><trkpt lat="33.9478745" lon="132.9785327"><ele>814.5063458308974</ele><time>2023-06-11T04:36:04Z</time></trkpt><trkpt lat="33.9477208" lon="132.9786699"><ele>809.674889834413</ele><time>2023-06-11T04:36:58Z</time></trkpt><trkpt lat="33.9475501" lon="132.9787441"><ele>802.1341360750545</ele><time>2023-06-11T04:37:12Z</time></trkpt><trkpt lat="33.9473618" lon="132.9786952"><ele>798.0990184454513</ele><time>2023-06-11T04:37:48Z</time></trkpt><trkpt lat="33.9471849" lon="132.978751"><ele>796.2761048602218</ele><time>2023-06-11T04:38:22Z</time></trkpt><trkpt lat="33.9470299" lon="132.9788677"><ele>797.4121856057367</ele><time>2023-06-11T04:38:52Z</time></trkpt><trkpt lat="33.946867" lon="132.9789674"><ele>798.4770585393343</ele><time>2023-06-11T04:39:46Z</time></trkpt><trkpt lat="33.94682" lon="132.978753"><ele>799.9964912928572</ele><time>2023-06-11T04:42:40Z</time></trkpt><trkpt lat="33.9469927" lon="132.9788181"><ele>799.4033406483137</ele><time>2023-06-11T04:43:28Z</time></trkpt><trkpt lat="33.9471592" lon="132.9787246"><ele>798.7747709127228</ele><time>2023-06-11T04:43:58Z</time></trkpt><trkpt lat="33.9469987" lon="132.9788282"><ele>799.1826737650955</ele><time>2023-06-11T04:45:02Z</time></trkpt><trkpt lat="33.9468439" lon="132.9789392"><ele>799.7842502016365</ele><time>2023-06-11T04:46:11Z</time></trkpt><trkpt lat="33.9467371" lon="132.9787618"><ele>797.8054890948541</ele><time>2023-06-11T04:47:13Z</time></trkpt><trkpt lat="33.9465874" lon="132.9786306"><ele>789.2970572637796</ele><time>2023-06-11T04:48:22Z</time></trkpt><trkpt lat="33.9464947" lon="132.9784442"><ele>779.3599711522919</ele><time>2023-06-11T04:49:10Z</time></trkpt><trkpt lat="33.9463305" lon="132.9783451"><ele>769.6945341931068</ele><time>2023-06-11T04:49:48Z</time></trkpt><trkpt lat="33.94616" lon="132.9782652"><ele>763.1133333333333</ele><time>2023-06-11T04:50:01Z</time></trkpt><trkpt lat="33.946008" lon="132.9781395"><ele>757.71</ele><time>2023-06-11T04:50:22Z</time></trkpt><trkpt lat="33.9459683" lon="132.9779269"><ele>754.62</ele><time>2023-06-11T04:50:42Z</time></trkpt><trkpt lat="33.9458352" lon="132.9777776"><ele>752.7800000000001</ele><time>2023-06-11T04:51:01Z</time></trkpt><trkpt lat="33.9456903" lon="132.9776331"><ele>750.8666666666667</ele><time>2023-06-11T04:51:15Z</time></trkpt><trkpt lat="33.9455184" lon="132.9775575"><ele>749.3133333333334</ele><time>2023-06-11T04:52:44Z</time></trkpt><trkpt lat="33.9453389" lon="132.9775141"><ele>748.34</ele><time>2023-06-11T04:52:56Z</time></trkpt><trkpt lat="33.9451632" lon="132.9774532"><ele>746.54</ele><time>2023-06-11T04:53:11Z</time></trkpt><trkpt lat="33.9450306" lon="132.977293"><ele>744.0600000000001</ele><time>2023-06-11T04:53:42Z</time></trkpt><trkpt lat="33.9448797" lon="132.9771738"><ele>742.2966666666667</ele><time>2023-06-11T04:54:05Z</time></trkpt><trkpt lat="33.9447738" lon="132.9773582"><ele>744.21</ele><time>2023-06-11T04:54:55Z</time></trkpt><trkpt lat="33.9446535" lon="132.9775288"><ele>745.9533333333333</ele><time>2023-06-11T04:55:16Z</time></trkpt><trkpt lat="33.9444862" lon="132.977626"><ele>747.7333333333332</ele><time>2023-06-11T04:55:47Z</time></trkpt><trkpt lat="33.9443365" lon="132.9777547"><ele>745.0100000000001</ele><time>2023-06-11T04:56:22Z</time></trkpt><trkpt lat="33.9441938" lon="132.9778873"><ele>742.6433333333334</ele><time>2023-06-11T04:56:55Z</time></trkpt><trkpt lat="33.9440161" lon="132.9779418"><ele>739.8533333333334</ele><time>2023-06-11T04:57:14Z</time></trkpt><trkpt lat="33.9438361" lon="132.9779549"><ele>741.4733333333334</ele><time>2023-06-11T04:57:29Z</time></trkpt><trkpt lat="33.943655" lon="132.9779493"><ele>745.1833333333334</ele><time>2023-06-11T04:57:43Z</time></trkpt><trkpt lat="33.9434712" lon="132.9779415"><ele>750.37</ele><time>2023-06-11T04:58:13Z</time></trkpt><trkpt lat="33.9433112" lon="132.977828"><ele>755.6966666666667</ele><time>2023-06-11T04:59:11Z</time></trkpt><trkpt lat="33.9431307" lon="132.9777977"><ele>760.6899999999999</ele><time>2023-06-11T04:59:28Z</time></trkpt><trkpt lat="33.9429427" lon="132.9778062"><ele>764.93</ele><time>2023-06-11T04:59:55Z</time></trkpt><trkpt lat="33.942762" lon="132.9778076"><ele>768.3233333333334</ele><time>2023-06-11T05:00:09Z</time></trkpt><trkpt lat="33.9425763" lon="132.9778182"><ele>772.68</ele><time>2023-06-11T05:00:50Z</time></trkpt><trkpt lat="33.9424089" lon="132.9778991"><ele>776.5799999999999</ele><time>2023-06-11T05:01:17Z</time></trkpt><trkpt lat="33.9422285" lon="132.9779374"><ele>778.4133333333334</ele><time>2023-06-11T05:01:40Z</time></trkpt><trkpt lat="33.9420742" lon="132.9780532"><ele>774.9766666666668</ele><time>2023-06-11T05:01:57Z</time></trkpt><trkpt lat="33.941929" lon="132.9779005"><ele>769.82</ele><time>2023-06-11T05:02:55Z</time></trkpt><trkpt lat="33.9420504" lon="132.9777402"><ele>765.4133333333334</ele><time>2023-06-11T05:03:22Z</time></trkpt><trkpt lat="33.9421688" lon="132.9775757"><ele>764.8866666666667</ele><time>2023-06-11T05:03:36Z</time></trkpt><trkpt lat="33.9422146" lon="132.9773659"><ele>761.0833333333334</ele><time>2023-06-11T05:03:51Z</time></trkpt><trkpt lat="33.9420567" lon="132.9774818"><ele>756.82</ele><time>2023-06-11T05:04:24Z</time></trkpt><trkpt lat="33.9419403" lon="132.9776541"><ele>753.43</ele><time>2023-06-11T05:04:44Z</time></trkpt><trkpt lat="33.9417544" lon="132.977691"><ele>753.0100000000001</ele><time>2023-06-11T05:05:01Z</time></trkpt><trkpt lat="33.9415816" lon="132.9777694"><ele>752.4866666666667</ele><time>2023-06-11T05:05:18Z</time></trkpt><trkpt lat="33.9414016" lon="132.9778133"><ele>747.3333333333334</ele><time>2023-06-11T05:05:35Z</time></trkpt><trkpt lat="33.9414563" lon="132.9776026"><ele>742.25</ele><time>2023-06-11T05:05:58Z</time></trkpt><trkpt lat="33.9415447" lon="132.9774098"><ele>736.4466666666667</ele><time>2023-06-11T05:06:16Z</time></trkpt><trkpt lat="33.9416613" lon="132.9772322"><ele>733.1700000000001</ele><time>2023-06-11T05:06:32Z</time></trkpt><trkpt lat="33.9417826" lon="132.9770604"><ele>730.1666666666666</ele><time>2023-06-11T05:06:48Z</time></trkpt><trkpt lat="33.9418685" lon="132.9768687"><ele>725.6866666666666</ele><time>2023-06-11T05:07:10Z</time></trkpt><trkpt lat="33.9419748" lon="132.9766879"><ele>719.4066666666666</ele><time>2023-06-11T05:07:28Z</time></trkpt><trkpt lat="33.9418677" lon="132.9768758"><ele>716.6633333333333</ele><time>2023-06-11T05:09:17Z</time></trkpt><trkpt lat="33.9418393" lon="132.9770908"><ele>720.1899999999999</ele><time>2023-06-11T05:09:29Z</time></trkpt><trkpt lat="33.9416616" lon="132.9771579"><ele>725.44</ele><time>2023-06-11T05:09:47Z</time></trkpt><trkpt lat="33.9414755" lon="132.9771712"><ele>725.7033333333333</ele><time>2023-06-11T05:09:58Z</time></trkpt><trkpt lat="33.9412949" lon="132.9771809"><ele>718.6733333333333</ele><time>2023-06-11T05:10:16Z</time></trkpt><trkpt lat="33.9411271" lon="132.9772771"><ele>711.4533333333333</ele><time>2023-06-11T05:10:39Z</time></trkpt><trkpt lat="33.9409504" lon="132.9772279"><ele>702.8833333333332</ele><time>2023-06-11T05:10:52Z</time></trkpt><trkpt lat="33.9410345" lon="132.9770302"><ele>696.02</ele><time>2023-06-11T05:11:06Z</time></trkpt><trkpt lat="33.9410503" lon="132.9768093"><ele>687.44</ele><time>2023-06-11T05:11:21Z</time></trkpt><trkpt lat="33.9411808" lon="132.9766581"><ele>683.0033333333334</ele><time>2023-06-11T05:11:35Z</time></trkpt><trkpt lat="33.9413599" lon="132.976708"><ele>682.93</ele><time>2023-06-11T05:11:46Z</time></trkpt><trkpt lat="33.9414953" lon="132.9765635"><ele>686.2233333333334</ele><time>2023-06-11T05:12:53Z</time></trkpt><trkpt lat="33.9414837" lon="132.9763358"><ele>685.3233333333334</ele><time>2023-06-11T05:14:05Z</time></trkpt><trkpt lat="33.9416001" lon="132.9761579"><ele>679.22</ele><time>2023-06-11T05:14:15Z</time></trkpt><trkpt lat="33.9415864" lon="132.9759398"><ele>667.3933333333333</ele><time>2023-06-11T05:14:31Z</time></trkpt><trkpt lat="33.9416703" lon="132.9757413"><ele>656.5933333333332</ele><time>2023-06-11T05:14:53Z</time></trkpt><trkpt lat="33.9418062" lon="132.9755873"><ele>645.9066666666666</ele><time>2023-06-11T05:15:06Z</time></trkpt><trkpt lat="33.9419072" lon="132.9754037"><ele>637.7066666666668</ele><time>2023-06-11T05:15:17Z</time></trkpt><trkpt lat="33.9420773" lon="132.9754819"><ele>634.61</ele><time>2023-06-11T05:15:30Z</time></trkpt><trkpt lat="33.9422281" lon="132.9756072"><ele>639.61</ele><time>2023-06-11T05:15:50Z</time></trkpt><trkpt lat="33.9423419" lon="132.9757889"><ele>650.1333333333333</ele><time>2023-06-11T05:16:52Z</time></trkpt><trkpt lat="33.9424803" lon="132.9756491"><ele>658.38</ele><time>2023-06-11T05:18:28Z</time></trkpt><trkpt lat="33.9424218" lon="132.9754442"><ele>657.82</ele><time>2023-06-11T05:18:42Z</time></trkpt><trkpt lat="33.9424287" lon="132.9752222"><ele>649.9899999999999</ele><time>2023-06-11T05:18:57Z</time></trkpt><trkpt lat="33.9425208" lon="132.9750234"><ele>640.39</ele><time>2023-06-11T05:19:12Z</time></trkpt><trkpt lat="33.9426454" lon="132.974864"><ele>632.0400000000001</ele><time>2023-06-11T05:19:27Z</time></trkpt><trkpt lat="33.9428203" lon="132.9748013"><ele>628.5233333333334</ele><time>2023-06-11T05:19:44Z</time></trkpt><trkpt lat="33.9429437" lon="132.9746371"><ele>626.9733333333334</ele><time>2023-06-11T05:19:58Z</time></trkpt><trkpt lat="33.9430268" lon="132.9744431"><ele>626.75</ele><time>2023-06-11T05:20:13Z</time></trkpt><trkpt lat="33.9431181" lon="132.9742562"><ele>624.73</ele><time>2023-06-11T05:20:36Z</time></trkpt><trkpt lat="33.9431998" lon="132.9740458"><ele>620.21</ele><time>2023-06-11T05:21:02Z</time></trkpt><trkpt lat="33.9433144" lon="132.9738661"><ele>614.6166666666667</ele><time>2023-06-11T05:21:12Z</time></trkpt><trkpt lat="33.9433923" lon="132.9736637"><ele>607.5866666666667</ele><time>2023-06-11T05:21:21Z</time></trkpt><trkpt lat="33.9433659" lon="132.9734495"><ele>601.3366666666667</ele><time>2023-06-11T05:21:40Z</time></trkpt><trkpt lat="33.9433481" lon="132.9736738"><ele>599.8266666666667</ele><time>2023-06-11T05:22:36Z</time></trkpt><trkpt lat="33.9432343" lon="132.9738422"><ele>602.4766666666666</ele><time>2023-06-11T05:22:47Z</time></trkpt><trkpt lat="33.9431521" lon="132.9740379"><ele>608.7266666666666</ele><time>2023-06-11T05:23:01Z</time></trkpt><trkpt lat="33.9430144" lon="132.9741943"><ele>612.3633333333333</ele><time>2023-06-11T05:23:22Z</time></trkpt><trkpt lat="33.9428342" lon="132.9742422"><ele>610.6700000000001</ele><time>2023-06-11T05:24:02Z</time></trkpt><trkpt lat="33.9426557" lon="132.9743131"><ele>605.9066666666666</ele><time>2023-06-11T05:24:24Z</time></trkpt><trkpt lat="33.9424963" lon="132.974437"><ele>600.6533333333333</ele><time>2023-06-11T05:24:39Z</time></trkpt><trkpt lat="33.9423789" lon="132.9746057"><ele>602.37</ele><time>2023-06-11T05:24:52Z</time></trkpt><trkpt lat="33.9422054" lon="132.9745448"><ele>601.57</ele><time>2023-06-11T05:25:21Z</time></trkpt><trkpt lat="33.9420542" lon="132.9744251"><ele>598.1066666666667</ele><time>2023-06-11T05:26:32Z</time></trkpt><trkpt lat="33.9421903" lon="132.9742809"><ele>589.4599999999999</ele><time>2023-06-11T05:26:52Z</time></trkpt><trkpt lat="33.942376" lon="132.9742811"><ele>586.26</ele><time>2023-06-11T05:27:04Z</time></trkpt><trkpt lat="33.9425595" lon="132.9741954"><ele>585.6866666666666</ele><time>2023-06-11T05:27:16Z</time></trkpt><trkpt lat="33.9425981" lon="132.9739732"><ele>584.8800000000001</ele><time>2023-06-11T05:27:25Z</time></trkpt><trkpt lat="33.9425864" lon="132.9737518"><ele>579.27</ele><time>2023-06-11T05:27:34Z</time></trkpt><trkpt lat="33.9425562" lon="132.9735326"><ele>574.84</ele><time>2023-06-11T05:27:44Z</time></trkpt><trkpt lat="33.9426213" lon="132.9733258"><ele>570.9499999999999</ele><time>2023-06-11T05:27:57Z</time></trkpt><trkpt lat="33.9426312" lon="132.9731096"><ele>570.0600000000001</ele><time>2023-06-11T05:28:09Z</time></trkpt><trkpt lat="33.942657" lon="132.9728913"><ele>567.69</ele><time>2023-06-11T05:28:25Z</time></trkpt><trkpt lat="33.9428353" lon="132.9728162"><ele>566.11</ele><time>2023-06-11T05:28:41Z</time></trkpt><trkpt lat="33.9429993" lon="132.9727184"><ele>563.9233333333333</ele><time>2023-06-11T05:28:54Z</time></trkpt><trkpt lat="33.9431037" lon="132.9725384"><ele>560.13</ele><time>2023-06-11T05:29:09Z</time></trkpt><trkpt lat="33.943132" lon="132.9723216"><ele>561.9033333333333</ele><time>2023-06-11T05:29:21Z</time></trkpt><trkpt lat="33.9433072" lon="132.9722187"><ele>560.8433333333334</ele><time>2023-06-11T05:29:32Z</time></trkpt><trkpt lat="33.9435034" lon="132.9722244"><ele>558.42</ele><time>2023-06-11T05:29:42Z</time></trkpt><trkpt lat="33.9436508" lon="132.9720991"><ele>549.59</ele><time>2023-06-11T05:29:55Z</time></trkpt><trkpt lat="33.9437343" lon="132.971906"><ele>546.1999999999999</ele><time>2023-06-11T05:30:24Z</time></trkpt><trkpt lat="33.9438973" lon="132.9717978"><ele>544.52</ele><time>2023-06-11T05:30:39Z</time></trkpt><trkpt lat="33.9440531" lon="132.9716678"><ele>542.9433333333334</ele><time>2023-06-11T05:30:50Z</time></trkpt><trkpt lat="33.944036" lon="132.971442"><ele>540.99</ele><time>2023-06-11T05:31:04Z</time></trkpt><trkpt lat="33.9438918" lon="132.9712953"><ele>542.31</ele><time>2023-06-11T05:31:16Z</time></trkpt><trkpt lat="33.9437188" lon="132.9712084"><ele>545.8766666666667</ele><time>2023-06-11T05:31:26Z</time></trkpt><trkpt lat="33.9435797" lon="132.9710633"><ele>548.88</ele><time>2023-06-11T05:31:38Z</time></trkpt><trkpt lat="33.9435172" lon="132.9708507"><ele>549.5133333333333</ele><time>2023-06-11T05:31:49Z</time></trkpt><trkpt lat="33.9436366" lon="132.9706806"><ele>549.0133333333333</ele><time>2023-06-11T05:32:04Z</time></trkpt><trkpt lat="33.9437721" lon="132.9708502"><ele>546.1366666666668</ele><time>2023-06-11T05:32:16Z</time></trkpt><trkpt lat="33.9439563" lon="132.9708694"><ele>542.9866666666667</ele><time>2023-06-11T05:32:27Z</time></trkpt><trkpt lat="33.9440975" lon="132.9707217"><ele>539.4466666666667</ele><time>2023-06-11T05:32:39Z</time></trkpt><trkpt lat="33.9442152" lon="132.9705543"><ele>536.7466666666667</ele><time>2023-06-11T05:32:51Z</time></trkpt><trkpt lat="33.9443196" lon="132.9703647"><ele>535.7766666666666</ele><time>2023-06-11T05:33:06Z</time></trkpt><trkpt lat="33.944338" lon="132.9701436"><ele>537.6533333333333</ele><time>2023-06-11T05:33:20Z</time></trkpt><trkpt lat="33.9444489" lon="132.9699708"><ele>538.9166666666666</ele><time>2023-06-11T05:33:33Z</time></trkpt><trkpt lat="33.9445619" lon="132.969793"><ele>539.79</ele><time>2023-06-11T05:33:46Z</time></trkpt><trkpt lat="33.9447073" lon="132.9696552"><ele>537.8366666666667</ele><time>2023-06-11T05:33:59Z</time></trkpt><trkpt lat="33.9448533" lon="132.9695209"><ele>535.07</ele><time>2023-06-11T05:34:20Z</time></trkpt><trkpt lat="33.9450026" lon="132.9693931"><ele>530.9033333333333</ele><time>2023-06-11T05:34:34Z</time></trkpt><trkpt lat="33.945165" lon="132.9692943"><ele>527.0533333333333</ele><time>2023-06-11T05:35:00Z</time></trkpt><trkpt lat="33.945279" lon="132.9691194"><ele>526.1933333333333</ele><time>2023-06-11T05:35:15Z</time></trkpt><trkpt lat="33.9453825" lon="132.9689408"><ele>525.5266666666666</ele><time>2023-06-11T05:35:29Z</time></trkpt><trkpt lat="33.9455662" lon="132.9689643"><ele>523.4499999999999</ele><time>2023-06-11T05:35:42Z</time></trkpt><trkpt lat="33.9457451" lon="132.9690219"><ele>518.5500000000001</ele><time>2023-06-11T05:35:54Z</time></trkpt><trkpt lat="33.9459163" lon="132.9689529"><ele>515.0366666666667</ele><time>2023-06-11T05:36:08Z</time></trkpt><trkpt lat="33.9460337" lon="132.9687828"><ele>513.3733333333333</ele><time>2023-06-11T05:36:20Z</time></trkpt><trkpt lat="33.9461463" lon="132.9686085"><ele>513.9166666666666</ele><time>2023-06-11T05:36:32Z</time></trkpt><trkpt lat="33.9463207" lon="132.9685387"><ele>512.32</ele><time>2023-06-11T05:36:45Z</time></trkpt><trkpt lat="33.9464998" lon="132.9684553"><ele>506.9333333333334</ele><time>2023-06-11T05:36:59Z</time></trkpt><trkpt lat="33.9465889" lon="132.9682667"><ele>500.99666666666667</ele><time>2023-06-11T05:37:09Z</time></trkpt><trkpt lat="33.9466789" lon="132.9680632"><ele>496.83666666666664</ele><time>2023-06-11T05:37:22Z</time></trkpt><trkpt lat="33.9467624" lon="132.9678695"><ele>493.1933333333334</ele><time>2023-06-11T05:37:37Z</time></trkpt><trkpt lat="33.9466609" lon="132.9676804"><ele>491.30333333333334</ele><time>2023-06-11T05:37:56Z</time></trkpt><trkpt lat="33.9465074" lon="132.9675459"><ele>494.31666666666666</ele><time>2023-06-11T05:38:12Z</time></trkpt><trkpt lat="33.9463979" lon="132.9673625"><ele>502.95000000000005</ele><time>2023-06-11T05:38:26Z</time></trkpt><trkpt lat="33.9464388" lon="132.9671449"><ele>504.1266666666667</ele><time>2023-06-11T05:38:47Z</time></trkpt><trkpt lat="33.9465341" lon="132.9669551"><ele>497.97</ele><time>2023-06-11T05:39:01Z</time></trkpt><trkpt lat="33.9465345" lon="132.9667303"><ele>489.0366666666667</ele><time>2023-06-11T05:39:12Z</time></trkpt><trkpt lat="33.9464963" lon="132.9665125"><ele>486.09666666666664</ele><time>2023-06-11T05:39:23Z</time></trkpt><trkpt lat="33.946444" lon="132.9662891"><ele>485.7266666666667</ele><time>2023-06-11T05:39:36Z</time></trkpt><trkpt lat="33.9463024" lon="132.9661524"><ele>486.09666666666664</ele><time>2023-06-11T05:39:51Z</time></trkpt><trkpt lat="33.9461739" lon="132.9659954"><ele>486.9666666666667</ele><time>2023-06-11T05:40:30Z</time></trkpt><trkpt lat="33.9463184" lon="132.9658446"><ele>486.85666666666674</ele><time>2023-06-11T05:40:50Z</time></trkpt><trkpt lat="33.9464583" lon="132.9656992"><ele>486.6366666666667</ele><time>2023-06-11T05:41:03Z</time></trkpt><trkpt lat="33.9466251" lon="132.9655791"><ele>484.01666666666665</ele><time>2023-06-11T05:41:16Z</time></trkpt><trkpt lat="33.9468058" lon="132.9655966"><ele>480.0733333333333</ele><time>2023-06-11T05:41:29Z</time></trkpt><trkpt lat="33.9469677" lon="132.9654975"><ele>475.6966666666667</ele><time>2023-06-11T05:41:41Z</time></trkpt><trkpt lat="33.9470297" lon="132.965288"><ele>473.75666666666666</ele><time>2023-06-11T05:41:52Z</time></trkpt><trkpt lat="33.9471132" lon="132.9650907"><ele>474.3</ele><time>2023-06-11T05:42:09Z</time></trkpt><trkpt lat="33.9472696" lon="132.9649826"><ele>472.97333333333336</ele><time>2023-06-11T05:42:24Z</time></trkpt><trkpt lat="33.9474129" lon="132.9648385"><ele>470.2766666666667</ele><time>2023-06-11T05:42:36Z</time></trkpt><trkpt lat="33.9474577" lon="132.964625"><ele>467.07</ele><time>2023-06-11T05:42:53Z</time></trkpt><trkpt lat="33.9473572" lon="132.9644344"><ele>466.7266666666667</ele><time>2023-06-11T05:43:03Z</time></trkpt><trkpt lat="33.9472496" lon="132.9642573"><ele>467.1566666666667</ele><time>2023-06-11T05:43:18Z</time></trkpt><trkpt lat="33.9471475" lon="132.9640762"><ele>467.0</ele><time>2023-06-11T05:43:33Z</time></trkpt><trkpt lat="33.9471219" lon="132.9638552"><ele>465.73</ele><time>2023-06-11T05:43:49Z</time></trkpt><trkpt lat="33.9471476" lon="132.9636196"><ele>461.8866666666667</ele><time>2023-06-11T05:44:02Z</time></trkpt><trkpt lat="33.9471072" lon="132.9633951"><ele>457.83</ele><time>2023-06-11T05:44:13Z</time></trkpt><trkpt lat="33.9470589" lon="132.963182"><ele>454.73</ele><time>2023-06-11T05:44:24Z</time></trkpt><trkpt lat="33.9470683" lon="132.9629634"><ele>451.59999999999997</ele><time>2023-06-11T05:44:37Z</time></trkpt><trkpt lat="33.9469203" lon="132.9628176"><ele>452.60666666666674</ele><time>2023-06-11T05:44:50Z</time></trkpt><trkpt lat="33.9468943" lon="132.9626015"><ele>453.3833333333334</ele><time>2023-06-11T05:45:02Z</time></trkpt><trkpt lat="33.9469339" lon="132.9623868"><ele>453.7166666666667</ele><time>2023-06-11T05:45:13Z</time></trkpt><trkpt lat="33.9468441" lon="132.9621861"><ele>450.82</ele><time>2023-06-11T05:45:26Z</time></trkpt><trkpt lat="33.9466934" lon="132.9620525"><ele>447.20666666666665</ele><time>2023-06-11T05:45:38Z</time></trkpt><trkpt lat="33.9465934" lon="132.9618662"><ele>443.25333333333333</ele><time>2023-06-11T05:45:49Z</time></trkpt><trkpt lat="33.9465969" lon="132.9616432"><ele>440.6566666666667</ele><time>2023-06-11T05:46:00Z</time></trkpt><trkpt lat="33.9467458" lon="132.9615126"><ele>439.7866666666667</ele><time>2023-06-11T05:46:12Z</time></trkpt><trkpt lat="33.9469236" lon="132.9614633"><ele>442.34666666666664</ele><time>2023-06-11T05:46:22Z</time></trkpt><trkpt lat="33.9470915" lon="132.9613549"><ele>444.2166666666667</ele><time>2023-06-11T05:46:34Z</time></trkpt><trkpt lat="33.9472313" lon="132.9612004"><ele>446.17</ele><time>2023-06-11T05:46:49Z</time></trkpt><trkpt lat="33.9473695" lon="132.9613646"><ele>447.1233333333334</ele><time>2023-06-11T05:47:16Z</time></trkpt><trkpt lat="33.9474829" lon="132.9615411"><ele>446.6266666666667</ele><time>2023-06-11T05:47:24Z</time></trkpt><trkpt lat="33.9475142" lon="132.9617656"><ele>444.59999999999997</ele><time>2023-06-11T05:47:56Z</time></trkpt><trkpt lat="33.9475054" lon="132.9619892"><ele>442.65333333333336</ele><time>2023-06-11T05:48:07Z</time></trkpt><trkpt lat="33.9475288" lon="132.9622216"><ele>440.15333333333336</ele><time>2023-06-11T05:48:19Z</time></trkpt><trkpt lat="33.9476568" lon="132.9623908"><ele>437.7866666666667</ele><time>2023-06-11T05:48:31Z</time></trkpt><trkpt lat="33.9477762" lon="132.9625547"><ele>436.49333333333334</ele><time>2023-06-11T05:48:44Z</time></trkpt><trkpt lat="33.9479184" lon="132.9626891"><ele>437.98333333333335</ele><time>2023-06-11T05:49:07Z</time></trkpt><trkpt lat="33.9479627" lon="132.9629087"><ele>435.95666666666665</ele><time>2023-06-11T05:49:21Z</time></trkpt><trkpt lat="33.9480074" lon="132.96312"><ele>433.24333333333334</ele><time>2023-06-11T05:49:32Z</time></trkpt><trkpt lat="33.9480928" lon="132.9633227"><ele>429.1433333333334</ele><time>2023-06-11T05:49:43Z</time></trkpt><trkpt lat="33.948244" lon="132.9634468"><ele>428.60999999999996</ele><time>2023-06-11T05:49:54Z</time></trkpt><trkpt lat="33.9483299" lon="132.9636499"><ele>428.3566666666666</ele><time>2023-06-11T05:50:06Z</time></trkpt><trkpt lat="33.9484434" lon="132.9638225"><ele>427.81666666666666</ele><time>2023-06-11T05:50:23Z</time></trkpt><trkpt lat="33.9486146" lon="132.9637507"><ele>427.59</ele><time>2023-06-11T05:50:41Z</time></trkpt><trkpt lat="33.9487541" lon="132.9636097"><ele>427.7366666666667</ele><time>2023-06-11T05:50:54Z</time></trkpt><trkpt lat="33.9489384" lon="132.9636395"><ele>427.6933333333333</ele><time>2023-06-11T05:51:07Z</time></trkpt><trkpt lat="33.9490132" lon="132.9638532"><ele>425.1766666666667</ele><time>2023-06-11T05:51:17Z</time></trkpt><trkpt lat="33.9491068" lon="132.9640418"><ele>421.8533333333333</ele><time>2023-06-11T05:51:25Z</time></trkpt><trkpt lat="33.9492154" lon="132.9642215"><ele>418.77</ele><time>2023-06-11T05:51:33Z</time></trkpt><trkpt lat="33.9493921" lon="132.9642938"><ele>417.19666666666666</ele><time>2023-06-11T05:51:46Z</time></trkpt><trkpt lat="33.949501" lon="132.9641197"><ele>416.53999999999996</ele><time>2023-06-11T05:51:57Z</time></trkpt><trkpt lat="33.9495672" lon="132.9639131"><ele>417.03666666666663</ele><time>2023-06-11T05:52:10Z</time></trkpt><trkpt lat="33.9495623" lon="132.963686"><ele>419.9833333333333</ele><time>2023-06-11T05:52:24Z</time></trkpt><trkpt lat="33.94972" lon="132.9635674"><ele>422.92</ele><time>2023-06-11T05:52:43Z</time></trkpt><trkpt lat="33.9498975" lon="132.9635258"><ele>422.65000000000003</ele><time>2023-06-11T05:52:56Z</time></trkpt><trkpt lat="33.9500561" lon="132.9634153"><ele>419.73</ele><time>2023-06-11T05:53:11Z</time></trkpt><trkpt lat="33.9502353" lon="132.9633506"><ele>417.1466666666667</ele><time>2023-06-11T05:53:33Z</time></trkpt><trkpt lat="33.9502779" lon="132.9635725"><ele>414.50333333333333</ele><time>2023-06-11T05:53:51Z</time></trkpt><trkpt lat="33.9503537" lon="132.9637735"><ele>412.40000000000003</ele><time>2023-06-11T05:54:10Z</time></trkpt><trkpt lat="33.9505239" lon="132.9638551"><ele>409.7133333333333</ele><time>2023-06-11T05:54:20Z</time></trkpt><trkpt lat="33.9506948" lon="132.9639418"><ele>409.47</ele><time>2023-06-11T05:54:30Z</time></trkpt><trkpt lat="33.9508845" lon="132.9639189"><ele>409.56</ele><time>2023-06-11T05:54:42Z</time></trkpt><trkpt lat="33.9510695" lon="132.9638555"><ele>407.77333333333337</ele><time>2023-06-11T05:54:58Z</time></trkpt><trkpt lat="33.9511716" lon="132.9636713"><ele>404.9266666666667</ele><time>2023-06-11T05:55:12Z</time></trkpt><trkpt lat="33.9511249" lon="132.9634601"><ele>403.37000000000006</ele><time>2023-06-11T05:55:29Z</time></trkpt><trkpt lat="33.9511747" lon="132.9632394"><ele>405.16333333333336</ele><time>2023-06-11T05:55:44Z</time></trkpt><trkpt lat="33.951334" lon="132.9631169"><ele>407.09666666666664</ele><time>2023-06-11T05:55:53Z</time></trkpt><trkpt lat="33.9514838" lon="132.9629831"><ele>404.86666666666673</ele><time>2023-06-11T05:56:02Z</time></trkpt><trkpt lat="33.9516264" lon="132.9628367"><ele>401.4633333333333</ele><time>2023-06-11T05:56:12Z</time></trkpt><trkpt lat="33.9517464" lon="132.9626582"><ele>402.01</ele><time>2023-06-11T05:56:24Z</time></trkpt><trkpt lat="33.9519377" lon="132.9626381"><ele>403.07666666666665</ele><time>2023-06-11T05:56:34Z</time></trkpt><trkpt lat="33.9521094" lon="132.962559"><ele>403.7866666666667</ele><time>2023-06-11T05:56:48Z</time></trkpt><trkpt lat="33.9522635" lon="132.9624397"><ele>402.7066666666667</ele><time>2023-06-11T05:57:01Z</time></trkpt><trkpt lat="33.9524379" lon="132.9624982"><ele>401.16</ele><time>2023-06-11T05:57:35Z</time></trkpt><trkpt lat="33.9526172" lon="132.9624457"><ele>400.22</ele><time>2023-06-11T05:58:02Z</time></trkpt><trkpt lat="33.9527999" lon="132.9624561"><ele>398.5133333333333</ele><time>2023-06-11T05:58:14Z</time></trkpt><trkpt lat="33.9529666" lon="132.9625528"><ele>397.4666666666667</ele><time>2023-06-11T05:58:27Z</time></trkpt><trkpt lat="33.9531362" lon="132.9626389"><ele>394.98333333333335</ele><time>2023-06-11T05:58:38Z</time></trkpt><trkpt lat="33.9533177" lon="132.9626096"><ele>393.10999999999996</ele><time>2023-06-11T05:58:50Z</time></trkpt><trkpt lat="33.9535003" lon="132.9626359"><ele>392.12000000000006</ele><time>2023-06-11T05:59:00Z</time></trkpt><trkpt lat="33.9536829" lon="132.9626775"><ele>391.18000000000006</ele><time>2023-06-11T05:59:11Z</time></trkpt><trkpt lat="33.9538716" lon="132.9626247"><ele>389.3666666666666</ele><time>2023-06-11T05:59:25Z</time></trkpt><trkpt lat="33.9540562" lon="132.9625826"><ele>388.56333333333333</ele><time>2023-06-11T05:59:38Z</time></trkpt><trkpt lat="33.9542106" lon="132.9624686"><ele>389.25333333333333</ele><time>2023-06-11T05:59:59Z</time></trkpt><trkpt lat="33.9542236" lon="132.9622475"><ele>393.67</ele><time>2023-06-11T06:00:13Z</time></trkpt><trkpt lat="33.9543924" lon="132.962157"><ele>399.18</ele><time>2023-06-11T06:00:29Z</time></trkpt><trkpt lat="33.9545737" lon="132.9621795"><ele>403.1333333333334</ele><time>2023-06-11T06:00:39Z</time></trkpt><trkpt lat="33.9547372" lon="132.9620874"><ele>403.9166666666667</ele><time>2023-06-11T06:00:51Z</time></trkpt><trkpt lat="33.9549194" lon="132.9621143"><ele>403.3966666666667</ele><time>2023-06-11T06:01:03Z</time></trkpt><trkpt lat="33.9550052" lon="132.9623056"><ele>398.84666666666664</ele><time>2023-06-11T06:01:16Z</time></trkpt><trkpt lat="33.9551554" lon="132.9624288"><ele>392.92333333333335</ele><time>2023-06-11T06:01:25Z</time></trkpt><trkpt lat="33.9553265" lon="132.9625191"><ele>386.81666666666666</ele><time>2023-06-11T06:01:36Z</time></trkpt><trkpt lat="33.9555056" lon="132.9625543"><ele>385.10999999999996</ele><time>2023-06-11T06:01:46Z</time></trkpt><trkpt lat="33.9556929" lon="132.9626083"><ele>383.45</ele><time>2023-06-11T06:01:58Z</time></trkpt><trkpt lat="33.955869" lon="132.9626684"><ele>381.77333333333337</ele><time>2023-06-11T06:02:10Z</time></trkpt><trkpt lat="33.9560396" lon="132.96275"><ele>380.3333333333333</ele><time>2023-06-11T06:02:23Z</time></trkpt><trkpt lat="33.9562075" lon="132.9628335"><ele>379.2133333333333</ele><time>2023-06-11T06:02:37Z</time></trkpt><trkpt lat="33.956339" lon="132.9626659"><ele>378.7133333333333</ele><time>2023-06-11T06:02:46Z</time></trkpt><trkpt lat="33.9565102" lon="132.9625825"><ele>378.45</ele><time>2023-06-11T06:02:59Z</time></trkpt><trkpt lat="33.9566859" lon="132.9625184"><ele>378.1466666666667</ele><time>2023-06-11T06:03:13Z</time></trkpt><trkpt lat="33.9568065" lon="132.9623543"><ele>377.98</ele><time>2023-06-11T06:03:27Z</time></trkpt><trkpt lat="33.956931" lon="132.9621772"><ele>377.71333333333337</ele><time>2023-06-11T06:03:40Z</time></trkpt><trkpt lat="33.9570641" lon="132.9620284"><ele>377.27666666666664</ele><time>2023-06-11T06:03:52Z</time></trkpt><trkpt lat="33.9571224" lon="132.9618123"><ele>376.18666666666667</ele><time>2023-06-11T06:04:05Z</time></trkpt><trkpt lat="33.9570218" lon="132.9616294"><ele>376.08666666666676</ele><time>2023-06-11T06:04:20Z</time></trkpt><trkpt lat="33.9570603" lon="132.9614144"><ele>375.8233333333333</ele><time>2023-06-11T06:04:37Z</time></trkpt></trkseg></trk></gpx>