<?xml version='1.0' encoding='UTF-8'?><gpx creator="YAMAP - https://yamap.com" xsi:schemaLocation="http://www.topografix.com/GPX/1/1 http://www.topografix.com/GPX/1/1/gpx.xsd" version="1.1" xmlns="http://www.topografix.com/GPX/1/1" xmlns:xsi="http://www.w3.org/2001/XMLSchema-instance"><metadata><bounds maxlat="33.9899834" maxlon="133.0414064" minlat="33.9772636" minlon="133.0307727"/></metadata><trk><name>世田山・笠松山</name><number>1</number><trkseg><trkpt lat="33.9897078" lon="133.0336587"><ele>88.79220345830849</ele><time>2022-08-25T23:45:46Z</time></trkpt><trkpt lat="33.9895384" lon="133.0337536"><ele>91.14564354163295</ele><time>2022-08-25T23:46:05Z</time></trkpt><trkpt lat="33.9894229" lon="133.0339263"><ele>91.65415604245</ele><time>2022-08-25T23:46:19Z</time></trkpt><trkpt lat="33.9893628" lon="133.0341334"><ele>94.98552821999924</ele><time>2022-08-25T23:46:34Z</time></trkpt><trkpt lat="33.9892296" lon="133.0342897"><ele>95.84089833491976</ele><time>2022-08-25T23:46:51Z</time></trkpt><trkpt lat="33.9890526" lon="133.0343355"><ele>97.8567148846402</ele><time>2022-08-25T23:47:06Z</time></trkpt><trkpt lat="33.9889099" lon="133.0344766"><ele>98.82886664920314</ele><time>2022-08-25T23:47:28Z</time></trkpt><trkpt lat="33.9887829" lon="133.0346328"><ele>102.00811646768311</ele><time>2022-08-25T23:48:09Z</time></trkpt><trkpt lat="33.9886939" lon="133.0348331"><ele>104.15313615846264</ele><time>2022-08-25T23:48:24Z</time></trkpt><trkpt lat="33.9886296" lon="133.0350355"><ele>107.70743531052737</ele><time>2022-08-25T23:48:36Z</time></trkpt><trkpt lat="33.9884899" lon="133.0351739"><ele>108.9759954331749</ele><time>2022-08-25T23:48:49Z</time></trkpt><trkpt lat="33.9883559" lon="133.0353195"><ele>110.80080641079996</ele><time>2022-08-25T23:49:04Z</time></trkpt><trkpt lat="33.9881847" lon="133.0354053"><ele>110.23755332462865</ele><time>2022-08-25T23:49:19Z</time></trkpt><trkpt lat="33.9880225" lon="133.035512"><ele>111.4842916164605</ele><time>2022-08-25T23:49:31Z</time></trkpt><trkpt lat="33.9879267" lon="133.035697"><ele>112.76783195146398</ele><time>2022-08-25T23:49:46Z</time></trkpt><trkpt lat="33.9878521" lon="133.0359027"><ele>113.8980555329354</ele><time>2022-08-25T23:50:01Z</time></trkpt><trkpt lat="33.9878976" lon="133.0361251"><ele>115.09052546053128</ele><time>2022-08-25T23:50:16Z</time></trkpt><trkpt lat="33.9878166" lon="133.036325"><ele>116.0221247374012</ele><time>2022-08-25T23:50:36Z</time></trkpt><trkpt lat="33.9876568" lon="133.0364321"><ele>118.01619489025643</ele><time>2022-08-25T23:50:48Z</time></trkpt><trkpt lat="33.9874967" lon="133.0365407"><ele>120.78162299193475</ele><time>2022-08-25T23:51:15Z</time></trkpt><trkpt lat="33.9874064" lon="133.0367369"><ele>122.4017184983647</ele><time>2022-08-25T23:51:26Z</time></trkpt><trkpt lat="33.9872318" lon="133.0368494"><ele>124.48903742595121</ele><time>2022-08-25T23:51:42Z</time></trkpt><trkpt lat="33.9870594" lon="133.0369153"><ele>126.24483626889514</ele><time>2022-08-25T23:51:57Z</time></trkpt><trkpt lat="33.986879" lon="133.0368615"><ele>129.64239476943843</ele><time>2022-08-25T23:52:15Z</time></trkpt><trkpt lat="33.9866972" lon="133.0368614"><ele>131.2481581036612</ele><time>2022-08-25T23:53:05Z</time></trkpt><trkpt lat="33.9865123" lon="133.036876"><ele>132.03112243179905</ele><time>2022-08-25T23:53:17Z</time></trkpt><trkpt lat="33.986358" lon="133.0367467"><ele>133.5376562942201</ele><time>2022-08-25T23:53:34Z</time></trkpt><trkpt lat="33.9861888" lon="133.0366598"><ele>135.97534037672582</ele><time>2022-08-25T23:53:51Z</time></trkpt><trkpt lat="33.9860189" lon="133.0367514"><ele>137.56831545407456</ele><time>2022-08-25T23:54:03Z</time></trkpt><trkpt lat="33.9858504" lon="133.036852"><ele>137.28459781858865</ele><time>2022-08-25T23:54:16Z</time></trkpt><trkpt lat="33.9857304" lon="133.0370193"><ele>138.66570201442994</ele><time>2022-08-25T23:54:29Z</time></trkpt><trkpt lat="33.9855691" lon="133.0371185"><ele>141.34129999172615</ele><time>2022-08-25T23:54:43Z</time></trkpt><trkpt lat="33.9853873" lon="133.0370843"><ele>144.68270263165957</ele><time>2022-08-25T23:54:57Z</time></trkpt><trkpt lat="33.9852261" lon="133.0369742"><ele>147.68475593333483</ele><time>2022-08-25T23:55:13Z</time></trkpt><trkpt lat="33.9850637" lon="133.0368762"><ele>149.84947112978804</ele><time>2022-08-25T23:55:29Z</time></trkpt><trkpt lat="33.9848954" lon="133.0367895"><ele>151.95045312808986</ele><time>2022-08-25T23:55:44Z</time></trkpt><trkpt lat="33.9847139" lon="133.0367212"><ele>154.81966503589783</ele><time>2022-08-25T23:56:02Z</time></trkpt><trkpt lat="33.9845319" lon="133.0367024"><ele>158.2588732217815</ele><time>2022-08-25T23:56:24Z</time></trkpt><trkpt lat="33.9843568" lon="133.036772"><ele>162.2967719034875</ele><time>2022-08-25T23:56:37Z</time></trkpt><trkpt lat="33.9841748" lon="133.0367973"><ele>165.1171723916542</ele><time>2022-08-25T23:57:26Z</time></trkpt><trkpt lat="33.9840062" lon="133.0368897"><ele>168.50275448878747</ele><time>2022-08-25T23:57:41Z</time></trkpt><trkpt lat="33.9838439" lon="133.037002"><ele>172.65024298324542</ele><time>2022-08-25T23:57:55Z</time></trkpt><trkpt lat="33.9836809" lon="133.0371361"><ele>175.52740792977139</ele><time>2022-08-25T23:58:10Z</time></trkpt><trkpt lat="33.983514" lon="133.0372248"><ele>177.7200078762953</ele><time>2022-08-25T23:58:36Z</time></trkpt><trkpt lat="33.9833334" lon="133.0372638"><ele>180.33171387773697</ele><time>2022-08-25T23:58:54Z</time></trkpt><trkpt lat="33.9831642" lon="133.0373539"><ele>183.06184963092076</ele><time>2022-08-25T23:59:09Z</time></trkpt><trkpt lat="33.9829859" lon="133.0373958"><ele>187.0556415697453</ele><time>2022-08-25T23:59:24Z</time></trkpt><trkpt lat="33.9827982" lon="133.0374322"><ele>190.60694646720177</ele><time>2022-08-25T23:59:50Z</time></trkpt><trkpt lat="33.9826175" lon="133.0374394"><ele>194.74619603771302</ele><time>2022-08-26T00:00:13Z</time></trkpt><trkpt lat="33.9824432" lon="133.0374991"><ele>196.0499471398238</ele><time>2022-08-26T00:00:34Z</time></trkpt><trkpt lat="33.982265" lon="133.0375336"><ele>201.15138404977404</ele><time>2022-08-26T00:00:57Z</time></trkpt><trkpt lat="33.9820914" lon="133.0375925"><ele>210.30541493766296</ele><time>2022-08-26T00:01:25Z</time></trkpt><trkpt lat="33.981908" lon="133.0375882"><ele>217.3134792623882</ele><time>2022-08-26T00:01:42Z</time></trkpt><trkpt lat="33.9817991" lon="133.0377617"><ele>221.84842088026065</ele><time>2022-08-26T00:02:16Z</time></trkpt><trkpt lat="33.981617" lon="133.0378046"><ele>222.2854157529886</ele><time>2022-08-26T00:02:35Z</time></trkpt><trkpt lat="33.9814409" lon="133.0378517"><ele>227.5598409359734</ele><time>2022-08-26T00:02:53Z</time></trkpt><trkpt lat="33.9812758" lon="133.0379462"><ele>230.09764359151973</ele><time>2022-08-26T00:03:14Z</time></trkpt><trkpt lat="33.9810972" lon="133.0379119"><ele>232.0791403385191</ele><time>2022-08-26T00:03:30Z</time></trkpt><trkpt lat="33.9809167" lon="133.0379513"><ele>235.94264532694123</ele><time>2022-08-26T00:04:04Z</time></trkpt><trkpt lat="33.9807593" lon="133.0380598"><ele>241.5528722738919</ele><time>2022-08-26T00:04:26Z</time></trkpt><trkpt lat="33.9806705" lon="133.0378707"><ele>249.58338789727682</ele><time>2022-08-26T00:05:04Z</time></trkpt><trkpt lat="33.9804901" lon="133.037869"><ele>255.0889796206026</ele><time>2022-08-26T00:05:37Z</time></trkpt><trkpt lat="33.9803256" lon="133.0379582"><ele>261.1020489302219</ele><time>2022-08-26T00:06:05Z</time></trkpt><trkpt lat="33.9802222" lon="133.0381356"><ele>269.3745742055546</ele><time>2022-08-26T00:07:20Z</time></trkpt><trkpt lat="33.9802215" lon="133.0383542"><ele>277.73802793274825</ele><time>2022-08-26T00:07:38Z</time></trkpt><trkpt lat="33.9800353" lon="133.0383268"><ele>286.4032725028688</ele><time>2022-08-26T00:08:12Z</time></trkpt><trkpt lat="33.9799412" lon="133.038519"><ele>295.3524077248116</ele><time>2022-08-26T00:10:25Z</time></trkpt><trkpt lat="33.9799714" lon="133.0387477"><ele>304.8283929668109</ele><time>2022-08-26T00:10:45Z</time></trkpt><trkpt lat="33.979931" lon="133.0389626"><ele>309.9717050728171</ele><time>2022-08-26T00:11:00Z</time></trkpt><trkpt lat="33.9798116" lon="133.0391329"><ele>316.3881348797698</ele><time>2022-08-26T00:12:23Z</time></trkpt><trkpt lat="33.979705" lon="133.0393081"><ele>321.5638865094472</ele><time>2022-08-26T00:12:36Z</time></trkpt><trkpt lat="33.9795963" lon="133.0394892"><ele>328.20673666600374</ele><time>2022-08-26T00:12:50Z</time></trkpt><trkpt lat="33.9794479" lon="133.0396161"><ele>332.49454159388915</ele><time>2022-08-26T00:13:07Z</time></trkpt><trkpt lat="33.9793792" lon="133.0398174"><ele>337.3409002117512</ele><time>2022-08-26T00:13:38Z</time></trkpt><trkpt lat="33.9792461" lon="133.039971"><ele>343.74318790721804</ele><time>2022-08-26T00:14:24Z</time></trkpt><trkpt lat="33.9790875" lon="133.0400872"><ele>344.90053511105526</ele><time>2022-08-26T00:14:42Z</time></trkpt><trkpt lat="33.9789052" lon="133.0401243"><ele>348.77691730338466</ele><time>2022-08-26T00:15:07Z</time></trkpt><trkpt lat="33.9787433" lon="133.0402551"><ele>349.63213366652343</ele><time>2022-08-26T00:15:21Z</time></trkpt><trkpt lat="33.9785887" lon="133.0403756"><ele>351.25417420183385</ele><time>2022-08-26T00:15:35Z</time></trkpt><trkpt lat="33.9784101" lon="133.0404459"><ele>345.63292618728</ele><time>2022-08-26T00:16:41Z</time></trkpt><trkpt lat="33.9782648" lon="133.0405766"><ele>337.90197024618095</ele><time>2022-08-26T00:17:22Z</time></trkpt><trkpt lat="33.9781014" lon="133.040689"><ele>335.6549794934021</ele><time>2022-08-26T00:17:39Z</time></trkpt><trkpt lat="33.9779384" lon="133.0407874"><ele>334.9310859661467</ele><time>2022-08-26T00:17:52Z</time></trkpt><trkpt lat="33.9778767" lon="133.0410037"><ele>340.652664110188</ele><time>2022-08-26T00:18:08Z</time></trkpt><trkpt lat="33.9778074" lon="133.0412079"><ele>342.2850488406444</ele><time>2022-08-26T00:18:23Z</time></trkpt><trkpt lat="33.9776454" lon="133.0413187"><ele>346.69261768226414</ele><time>2022-08-26T00:23:23Z</time></trkpt><trkpt lat="33.9774575" lon="133.0413836"><ele>349.25485473850244</ele><time>2022-08-26T00:23:40Z</time></trkpt><trkpt lat="33.9772636" lon="133.0413748"><ele>351.9784520142605</ele><time>2022-08-26T00:24:40Z</time></trkpt><trkpt lat="33.9774434" lon="133.0414064"><ele>352.3598925921601</ele><time>2022-08-26T00:30:33Z</time></trkpt><trkpt lat="33.9776267" lon="133.041376"><ele>353.21128626674636</ele><time>2022-08-26T00:30:44Z</time></trkpt><trkpt lat="33.9777576" lon="133.0412217"><ele>352.2236164152334</ele><time>2022-08-26T00:30:57Z</time></trkpt><trkpt lat="33.9778125" lon="133.0410033"><ele>350.83810986002226</ele><time>2022-08-26T00:31:17Z</time></trkpt><trkpt lat="33.9779806" lon="133.040917"><ele>346.8184087225972</ele><time>2022-08-26T00:31:39Z</time></trkpt><trkpt lat="33.9781318" lon="133.0407924"><ele>343.39531208418094</ele><time>2022-08-26T00:31:54Z</time></trkpt><trkpt lat="33.9782438" lon="133.0406181"><ele>341.2984873930161</ele><time>2022-08-26T00:32:06Z</time></trkpt><trkpt lat="33.9784214" lon="133.0405695"><ele>341.9116287915649</ele><time>2022-08-26T00:32:18Z</time></trkpt><trkpt lat="33.9785768" lon="133.0404518"><ele>340.83783077444383</ele><time>2022-08-26T00:32:40Z</time></trkpt><trkpt lat="33.9787477" lon="133.0403797"><ele>346.51034741930533</ele><time>2022-08-26T00:33:10Z</time></trkpt><trkpt lat="33.978888" lon="133.0402318"><ele>351.64456935242816</ele><time>2022-08-26T00:33:38Z</time></trkpt><trkpt lat="33.9790404" lon="133.0400955"><ele>359.2792395611976</ele><time>2022-08-26T00:33:57Z</time></trkpt><trkpt lat="33.9792013" lon="133.0399959"><ele>358.53636352214227</ele><time>2022-08-26T00:34:14Z</time></trkpt><trkpt lat="33.9792546" lon="133.0397832"><ele>356.6686284540569</ele><time>2022-08-26T00:34:41Z</time></trkpt><trkpt lat="33.9793816" lon="133.0396268"><ele>353.7093285003991</ele><time>2022-08-26T00:34:59Z</time></trkpt><trkpt lat="33.9795523" lon="133.039541"><ele>353.3324370897382</ele><time>2022-08-26T00:35:17Z</time></trkpt><trkpt lat="33.9796891" lon="133.0393815"><ele>351.17077025267344</ele><time>2022-08-26T00:35:32Z</time></trkpt><trkpt lat="33.9798547" lon="133.0392733"><ele>347.35607679347004</ele><time>2022-08-26T00:35:47Z</time></trkpt><trkpt lat="33.9798772" lon="133.0390537"><ele>341.85528091469445</ele><time>2022-08-26T00:36:14Z</time></trkpt><trkpt lat="33.9798119" lon="133.0388476"><ele>334.7068205632356</ele><time>2022-08-26T00:36:41Z</time></trkpt><trkpt lat="33.9799202" lon="133.0386617"><ele>329.79005657140766</ele><time>2022-08-26T00:36:53Z</time></trkpt><trkpt lat="33.9800194" lon="133.0384683"><ele>321.80659669646514</ele><time>2022-08-26T00:37:17Z</time></trkpt><trkpt lat="33.9798843" lon="133.0383217"><ele>315.7581041991363</ele><time>2022-08-26T00:37:47Z</time></trkpt><trkpt lat="33.9797431" lon="133.0381667"><ele>311.66047422587735</ele><time>2022-08-26T00:38:03Z</time></trkpt><trkpt lat="33.9797629" lon="133.0379489"><ele>314.6038224550697</ele><time>2022-08-26T00:38:46Z</time></trkpt><trkpt lat="33.9797817" lon="133.0377208"><ele>323.8297993820466</ele><time>2022-08-26T00:39:28Z</time></trkpt><trkpt lat="33.9797691" lon="133.0374998"><ele>331.0243223140368</ele><time>2022-08-26T00:39:51Z</time></trkpt><trkpt lat="33.9798609" lon="133.0373133"><ele>335.6929548484541</ele><time>2022-08-26T00:40:04Z</time></trkpt><trkpt lat="33.9800463" lon="133.0373354"><ele>335.3470250756882</ele><time>2022-08-26T00:40:37Z</time></trkpt><trkpt lat="33.9801522" lon="133.0371411"><ele>334.31771675886756</ele><time>2022-08-26T00:40:49Z</time></trkpt><trkpt lat="33.980159" lon="133.0369158"><ele>333.53970347084936</ele><time>2022-08-26T00:41:01Z</time></trkpt><trkpt lat="33.9802091" lon="133.0367032"><ele>334.1216772024013</ele><time>2022-08-26T00:41:14Z</time></trkpt><trkpt lat="33.980374" lon="133.0366026"><ele>335.3039507842131</ele><time>2022-08-26T00:42:16Z</time></trkpt><trkpt lat="33.9805135" lon="133.0364626"><ele>334.0202568923273</ele><time>2022-08-26T00:42:33Z</time></trkpt><trkpt lat="33.9805816" lon="133.0362563"><ele>334.196713348755</ele><time>2022-08-26T00:42:53Z</time></trkpt><trkpt lat="33.9806762" lon="133.036054"><ele>332.4961818691194</ele><time>2022-08-26T00:43:22Z</time></trkpt><trkpt lat="33.9808573" lon="133.0359976"><ele>333.7615386336647</ele><time>2022-08-26T00:43:29Z</time></trkpt><trkpt lat="33.9809646" lon="133.0358103"><ele>334.17280296379283</ele><time>2022-08-26T00:43:39Z</time></trkpt><trkpt lat="33.9809334" lon="133.0355901"><ele>336.4787756657765</ele><time>2022-08-26T00:43:52Z</time></trkpt><trkpt lat="33.981048" lon="133.0354151"><ele>337.5750018009076</ele><time>2022-08-26T00:44:06Z</time></trkpt><trkpt lat="33.9811527" lon="133.0352282"><ele>337.7010394717017</ele><time>2022-08-26T00:44:19Z</time></trkpt><trkpt lat="33.9813105" lon="133.0351217"><ele>338.9758171633809</ele><time>2022-08-26T00:44:39Z</time></trkpt><trkpt lat="33.981491" lon="133.0350083"><ele>342.5735542707387</ele><time>2022-08-26T00:45:05Z</time></trkpt><trkpt lat="33.9814532" lon="133.0347825"><ele>345.1898644922885</ele><time>2022-08-26T00:45:20Z</time></trkpt><trkpt lat="33.9816376" lon="133.0347373"><ele>348.1893775730303</ele><time>2022-08-26T00:45:35Z</time></trkpt><trkpt lat="33.9816785" lon="133.0345204"><ele>349.01045755279944</ele><time>2022-08-26T00:45:55Z</time></trkpt><trkpt lat="33.9817208" lon="133.0343096"><ele>351.8055747019428</ele><time>2022-08-26T00:46:11Z</time></trkpt><trkpt lat="33.9818175" lon="133.0341229"><ele>263.97481425426366</ele><time>2022-08-26T00:46:26Z</time></trkpt><trkpt lat="33.9818492" lon="133.033909"><ele>264.1256253148751</ele><time>2022-08-26T00:46:45Z</time></trkpt><trkpt lat="33.9817517" lon="133.0337198"><ele>263.72204843032546</ele><time>2022-08-26T00:47:02Z</time></trkpt><trkpt lat="33.9818563" lon="133.033541"><ele>355.22258104715</ele><time>2022-08-26T00:47:30Z</time></trkpt><trkpt lat="33.9820168" lon="133.0334388"><ele>358.42324155743967</ele><time>2022-08-26T00:47:51Z</time></trkpt><trkpt lat="33.9821643" lon="133.0333086"><ele>360.61048094906045</ele><time>2022-08-26T00:50:11Z</time></trkpt><trkpt lat="33.9820913" lon="133.0331067"><ele>355.3311102734934</ele><time>2022-08-26T00:50:43Z</time></trkpt><trkpt lat="33.9821619" lon="133.0329068"><ele>350.9544372139601</ele><time>2022-08-26T00:51:10Z</time></trkpt><trkpt lat="33.9823572" lon="133.0328603"><ele>346.89426276944397</ele><time>2022-08-26T00:51:33Z</time></trkpt><trkpt lat="33.9821898" lon="133.0327734"><ele>346.30961538545154</ele><time>2022-08-26T00:51:57Z</time></trkpt><trkpt lat="33.9821794" lon="133.0325477"><ele>343.91105995410817</ele><time>2022-08-26T00:52:15Z</time></trkpt><trkpt lat="33.9822109" lon="133.0323301"><ele>341.4778485870974</ele><time>2022-08-26T00:52:32Z</time></trkpt><trkpt lat="33.9822258" lon="133.0321128"><ele>340.1452637859491</ele><time>2022-08-26T00:52:46Z</time></trkpt><trkpt lat="33.9822164" lon="133.0318906"><ele>290.99990777740464</ele><time>2022-08-26T00:53:01Z</time></trkpt><trkpt lat="33.9823487" lon="133.0317327"><ele>291.36601624108755</ele><time>2022-08-26T00:53:17Z</time></trkpt><trkpt lat="33.9825138" lon="133.0316419"><ele>291.51376271723524</ele><time>2022-08-26T00:53:33Z</time></trkpt><trkpt lat="33.9826945" lon="133.0315951"><ele>339.3325901527316</ele><time>2022-08-26T00:53:48Z</time></trkpt><trkpt lat="33.9828685" lon="133.0315264"><ele>337.99507715719574</ele><time>2022-08-26T00:54:04Z</time></trkpt><trkpt lat="33.9830494" lon="133.0314844"><ele>334.59640898233687</ele><time>2022-08-26T00:54:20Z</time></trkpt><trkpt lat="33.9832274" lon="133.0314436"><ele>331.60955659150005</ele><time>2022-08-26T00:54:43Z</time></trkpt><trkpt lat="33.9833899" lon="133.031542"><ele>324.1547450115243</ele><time>2022-08-26T00:55:47Z</time></trkpt><trkpt lat="33.9835666" lon="133.0314701"><ele>314.5771545856323</ele><time>2022-08-26T00:56:08Z</time></trkpt><trkpt lat="33.9837121" lon="133.0313422"><ele>306.52046672422847</ele><time>2022-08-26T00:56:27Z</time></trkpt><trkpt lat="33.9838414" lon="133.0311877"><ele>302.2045164784911</ele><time>2022-08-26T00:56:42Z</time></trkpt><trkpt lat="33.9840201" lon="133.0312609"><ele>300.75470076151646</ele><time>2022-08-26T00:56:56Z</time></trkpt><trkpt lat="33.9842019" lon="133.031266"><ele>298.14264962554427</ele><time>2022-08-26T00:57:12Z</time></trkpt><trkpt lat="33.9843288" lon="133.0311011"><ele>293.1899854872068</ele><time>2022-08-26T00:57:26Z</time></trkpt><trkpt lat="33.9845084" lon="133.0310368"><ele>288.43760529317615</ele><time>2022-08-26T00:57:47Z</time></trkpt><trkpt lat="33.9846842" lon="133.0310883"><ele>282.20728371705496</ele><time>2022-08-26T00:58:11Z</time></trkpt><trkpt lat="33.9848257" lon="133.0309527"><ele>275.9515698547421</ele><time>2022-08-26T00:58:32Z</time></trkpt><trkpt lat="33.9849737" lon="133.0308288"><ele>269.18324094349117</ele><time>2022-08-26T00:58:54Z</time></trkpt><trkpt lat="33.9851575" lon="133.0307775"><ele>262.7173729967285</ele><time>2022-08-26T00:59:09Z</time></trkpt><trkpt lat="33.9853393" lon="133.0307727"><ele>257.5687542707808</ele><time>2022-08-26T00:59:20Z</time></trkpt><trkpt lat="33.9855191" lon="133.0308181"><ele>253.20639093164755</ele><time>2022-08-26T00:59:33Z</time></trkpt><trkpt lat="33.9855204" lon="133.0310433"><ele>248.44442560747117</ele><time>2022-08-26T01:00:31Z</time></trkpt><trkpt lat="33.9856625" lon="133.0311806"><ele>243.66047622122156</ele><time>2022-08-26T01:00:39Z</time></trkpt><trkpt lat="33.9858299" lon="133.0312773"><ele>240.5523775636982</ele><time>2022-08-26T01:00:43Z</time></trkpt><trkpt lat="33.9859212" lon="133.0314696"><ele>239.2152770749799</ele><time>2022-08-26T01:00:58Z</time></trkpt><trkpt lat="33.9861004" lon="133.0314949"><ele>235.3352390973769</ele><time>2022-08-26T01:01:17Z</time></trkpt><trkpt lat="33.9862736" lon="133.0315649"><ele>230.47946595749605</ele><time>2022-08-26T01:01:42Z</time></trkpt><trkpt lat="33.9863309" lon="133.0317714"><ele>226.0973989055582</ele><time>2022-08-26T01:01:56Z</time></trkpt><trkpt lat="33.9864094" lon="133.0319718"><ele>224.71459275943496</ele><time>2022-08-26T01:02:10Z</time></trkpt><trkpt lat="33.9865273" lon="133.0321509"><ele>222.85972243708412</ele><time>2022-08-26T01:02:24Z</time></trkpt><trkpt lat="33.986561" lon="133.0323702"><ele>220.7273034913967</ele><time>2022-08-26T01:02:44Z</time></trkpt><trkpt lat="33.9867412" lon="133.032336"><ele>215.61003926154467</ele><time>2022-08-26T01:03:00Z</time></trkpt><trkpt lat="33.9869061" lon="133.0324242"><ele>211.92979183071782</ele><time>2022-08-26T01:03:14Z</time></trkpt><trkpt lat="33.9869836" lon="133.0326222"><ele>203.26823140104293</ele><time>2022-08-26T01:04:02Z</time></trkpt><trkpt lat="33.986978" lon="133.0328418"><ele>197.18304286541505</ele><time>2022-08-26T01:04:21Z</time></trkpt><trkpt lat="33.9869676" lon="133.033067"><ele>187.93153972871792</ele><time>2022-08-26T01:04:35Z</time></trkpt><trkpt lat="33.9869915" lon="133.0333022"><ele>183.14741721806388</ele><time>2022-08-26T01:04:47Z</time></trkpt><trkpt lat="33.9871665" lon="133.0333926"><ele>179.64784746692666</ele><time>2022-08-26T01:05:02Z</time></trkpt><trkpt lat="33.9872808" lon="133.0335649"><ele>171.66639953467032</ele><time>2022-08-26T01:06:07Z</time></trkpt><trkpt lat="33.9874105" lon="133.0337217"><ele>163.38344263161005</ele><time>2022-08-26T01:06:33Z</time></trkpt><trkpt lat="33.9875628" lon="133.033865"><ele>148.03487095871574</ele><time>2022-08-26T01:07:46Z</time></trkpt><trkpt lat="33.9877512" lon="133.033875"><ele>140.94492062850279</ele><time>2022-08-26T01:07:57Z</time></trkpt><trkpt lat="33.9879282" lon="133.0339171"><ele>133.29157066510106</ele><time>2022-08-26T01:08:08Z</time></trkpt><trkpt lat="33.9881047" lon="133.0339801"><ele>132.07912303541477</ele><time>2022-08-26T01:08:22Z</time></trkpt><trkpt lat="33.9882879" lon="133.0339606"><ele>127.80015646718732</ele><time>2022-08-26T01:09:10Z</time></trkpt><trkpt lat="33.9884853" lon="133.0339088"><ele>125.07243133026158</ele><time>2022-08-26T01:11:16Z</time></trkpt><trkpt lat="33.9886792" lon="133.0339424"><ele>122.84992967873738</ele><time>2022-08-26T01:11:29Z</time></trkpt><trkpt lat="33.9888601" lon="133.033972"><ele>121.93965054938121</ele><time>2022-08-26T01:11:49Z</time></trkpt><trkpt lat="33.9890139" lon="133.0340947"><ele>120.26785281878547</ele><time>2022-08-26T01:12:03Z</time></trkpt><trkpt lat="33.9891967" lon="133.0340291"><ele>117.43635399133753</ele><time>2022-08-26T01:12:15Z</time></trkpt><trkpt lat="33.9893764" lon="133.033971"><ele>114.55658233280684</ele><time>2022-08-26T01:12:28Z</time></trkpt><trkpt lat="33.9895019" lon="133.0338081"><ele>111.48875385453374</ele><time>2022-08-26T01:12:43Z</time></trkpt><trkpt lat="33.9896158" lon="133.0336267"><ele>108.9616378363193</ele><time>2022-08-26T01:12:57Z</time></trkpt><trkpt lat="33.9897976" lon="133.0335614"><ele>105.38007449284088</ele><time>2022-08-26T01:13:09Z</time></trkpt><trkpt lat="33.9899834" lon="133.0336183"><ele>102.61523674618121</ele><time>2022-08-26T01:13:21Z</time></trkpt><trkpt lat="33.9897642" lon="133.0336125"><ele>103.81691440165658</ele><time>2022-08-26T01:13:40Z</time></trkpt></trkseg></trk></gpx>