<?xml version='1.0' encoding='UTF-8'?><gpx creator="YAMAP - https://yamap.com" xsi:schemaLocation="http://www.topografix.com/GPX/1/1 http://www.topografix.com/GPX/1/1/gpx.xsd" version="1.1" xmlns="http://www.topografix.com/GPX/1/1" xmlns:xsi="http://www.w3.org/2001/XMLSchema-instance"><metadata><bounds maxlat="33.3656369" maxlon="132.7913512" minlat="33.3427963" minlon="132.7533313"/></metadata><trk><name>御在所山</name><number>1</number><trkseg><trkpt lat="33.3649597" lon="132.7913512"><ele>190.67189429979214</ele><time>2022-04-27T01:31:14Z</time></trkpt><trkpt lat="33.3651367" lon="132.7912866"><ele>190.67197804417194</ele><time>2022-04-27T01:31:31Z</time></trkpt><trkpt lat="33.3652715" lon="132.7911304"><ele>190.67214263077435</ele><time>2022-04-27T01:31:44Z</time></trkpt><trkpt lat="33.3653534" lon="132.7909387"><ele>190.63916808602747</ele><time>2022-04-27T01:32:12Z</time></trkpt><trkpt lat="33.3654404" lon="132.7907426"><ele>190.60631013988453</ele><time>2022-04-27T01:32:25Z</time></trkpt><trkpt lat="33.3655323" lon="132.7905568"><ele>190.20681552487972</ele><time>2022-04-27T01:32:37Z</time></trkpt><trkpt lat="33.3655442" lon="132.7903402"><ele>190.24067775210833</ele><time>2022-04-27T01:32:50Z</time></trkpt><trkpt lat="33.3655501" lon="132.7901253"><ele>189.74122151220186</ele><time>2022-04-27T01:33:02Z</time></trkpt><trkpt lat="33.3653958" lon="132.789994"><ele>189.60838012702172</ele><time>2022-04-27T01:33:13Z</time></trkpt><trkpt lat="33.3652219" lon="132.7899154"><ele>189.48343710079448</ele><time>2022-04-27T01:33:27Z</time></trkpt><trkpt lat="33.3651247" lon="132.7897332"><ele>189.53865338091146</ele><time>2022-04-27T01:33:42Z</time></trkpt><trkpt lat="33.3650368" lon="132.7895402"><ele>190.21071030007735</ele><time>2022-04-27T01:33:55Z</time></trkpt><trkpt lat="33.3649719" lon="132.789338"><ele>189.80319496380653</ele><time>2022-04-27T01:34:09Z</time></trkpt><trkpt lat="33.3649142" lon="132.7891272"><ele>189.74885046628006</ele><time>2022-04-27T01:34:22Z</time></trkpt><trkpt lat="33.3648731" lon="132.7889044"><ele>189.07774512697776</ele><time>2022-04-27T01:34:36Z</time></trkpt><trkpt lat="33.3648444" lon="132.7886904"><ele>189.07831088716762</ele><time>2022-04-27T01:34:50Z</time></trkpt><trkpt lat="33.3648502" lon="132.7884751"><ele>189.89951941752807</ele><time>2022-04-27T01:35:04Z</time></trkpt><trkpt lat="33.3648722" lon="132.7882551"><ele>191.13929125239792</ele><time>2022-04-27T01:35:17Z</time></trkpt><trkpt lat="33.3649164" lon="132.7880416"><ele>193.105463220695</ele><time>2022-04-27T01:35:31Z</time></trkpt><trkpt lat="33.3649905" lon="132.7878413"><ele>194.87339096470274</ele><time>2022-04-27T01:35:45Z</time></trkpt><trkpt lat="33.3650472" lon="132.7876328"><ele>196.46807019310754</ele><time>2022-04-27T01:36:00Z</time></trkpt><trkpt lat="33.3650132" lon="132.7874058"><ele>197.33636056307319</ele><time>2022-04-27T01:36:14Z</time></trkpt><trkpt lat="33.3648434" lon="132.7873272"><ele>199.02272472610593</ele><time>2022-04-27T01:36:28Z</time></trkpt><trkpt lat="33.3646902" lon="132.7874567"><ele>201.72713091437595</ele><time>2022-04-27T01:36:47Z</time></trkpt><trkpt lat="33.3645106" lon="132.7874087"><ele>205.0845980534032</ele><time>2022-04-27T01:37:06Z</time></trkpt><trkpt lat="33.3646012" lon="132.7872224"><ele>208.43975042889656</ele><time>2022-04-27T01:37:20Z</time></trkpt><trkpt lat="33.3646897" lon="132.7870302"><ele>208.92533947197276</ele><time>2022-04-27T01:37:32Z</time></trkpt><trkpt lat="33.3646948" lon="132.7868098"><ele>211.4110208474275</ele><time>2022-04-27T01:37:46Z</time></trkpt><trkpt lat="33.3647445" lon="132.7866013"><ele>213.35982626948473</ele><time>2022-04-27T01:38:01Z</time></trkpt><trkpt lat="33.3648418" lon="132.7864146"><ele>216.1962852224725</ele><time>2022-04-27T01:38:18Z</time></trkpt><trkpt lat="33.3649524" lon="132.7862303"><ele>217.46175019028303</ele><time>2022-04-27T01:38:32Z</time></trkpt><trkpt lat="33.3650415" lon="132.7860408"><ele>218.728322889732</ele><time>2022-04-27T01:38:52Z</time></trkpt><trkpt lat="33.3648477" lon="132.7860358"><ele>221.06707362078487</ele><time>2022-04-27T01:39:18Z</time></trkpt><trkpt lat="33.3646701" lon="132.7859924"><ele>222.48207830225292</ele><time>2022-04-27T01:39:32Z</time></trkpt><trkpt lat="33.3644946" lon="132.7859036"><ele>225.29728519776867</ele><time>2022-04-27T01:39:46Z</time></trkpt><trkpt lat="33.3643209" lon="132.7858358"><ele>227.30886623383506</ele><time>2022-04-27T01:39:58Z</time></trkpt><trkpt lat="33.3641536" lon="132.7857506"><ele>230.53893316190803</ele><time>2022-04-27T01:40:13Z</time></trkpt><trkpt lat="33.3639787" lon="132.7856753"><ele>231.17592341086527</ele><time>2022-04-27T01:40:29Z</time></trkpt><trkpt lat="33.3638492" lon="132.7855233"><ele>233.22107865232724</ele><time>2022-04-27T01:40:42Z</time></trkpt><trkpt lat="33.3636732" lon="132.7854662"><ele>233.76450699965162</ele><time>2022-04-27T01:40:56Z</time></trkpt><trkpt lat="33.3635352" lon="132.7853264"><ele>235.13608349049414</ele><time>2022-04-27T01:41:12Z</time></trkpt><trkpt lat="33.3634988" lon="132.7851102"><ele>222.94962742262973</ele><time>2022-04-27T01:41:23Z</time></trkpt><trkpt lat="33.3634969" lon="132.7848822"><ele>224.72321757004056</ele><time>2022-04-27T01:41:35Z</time></trkpt><trkpt lat="33.3636748" lon="132.7847957"><ele>224.90797127524948</ele><time>2022-04-27T01:43:35Z</time></trkpt><trkpt lat="33.3638086" lon="132.7846423"><ele>239.70203142736193</ele><time>2022-04-27T01:43:55Z</time></trkpt><trkpt lat="33.3638812" lon="132.7844389"><ele>238.45871376455807</ele><time>2022-04-27T01:44:12Z</time></trkpt><trkpt lat="33.3637082" lon="132.7845097"><ele>241.46921247083552</ele><time>2022-04-27T01:45:19Z</time></trkpt><trkpt lat="33.3635912" lon="132.7846754"><ele>243.06667647444303</ele><time>2022-04-27T01:45:34Z</time></trkpt><trkpt lat="33.3634455" lon="132.7848144"><ele>247.49523467891012</ele><time>2022-04-27T01:45:47Z</time></trkpt><trkpt lat="33.3632674" lon="132.7848787"><ele>250.43666770761095</ele><time>2022-04-27T01:46:03Z</time></trkpt><trkpt lat="33.3630911" lon="132.7848189"><ele>251.41703643329367</ele><time>2022-04-27T01:46:13Z</time></trkpt><trkpt lat="33.3629702" lon="132.784994"><ele>251.92023821115035</ele><time>2022-04-27T01:46:27Z</time></trkpt><trkpt lat="33.3629866" lon="132.7852143"><ele>252.67122283097265</ele><time>2022-04-27T01:46:39Z</time></trkpt><trkpt lat="33.363114" lon="132.7853829"><ele>254.17487657434495</ele><time>2022-04-27T01:46:54Z</time></trkpt><trkpt lat="33.3632234" lon="132.7855573"><ele>256.0940814391087</ele><time>2022-04-27T01:47:09Z</time></trkpt><trkpt lat="33.3632034" lon="132.7857816"><ele>257.9922585340459</ele><time>2022-04-27T01:47:24Z</time></trkpt><trkpt lat="33.3630243" lon="132.785836"><ele>259.315193557201</ele><time>2022-04-27T01:47:37Z</time></trkpt><trkpt lat="33.3628716" lon="132.7857112"><ele>260.6512187294311</ele><time>2022-04-27T01:47:47Z</time></trkpt><trkpt lat="33.3628045" lon="132.7855109"><ele>258.6531006819389</ele><time>2022-04-27T01:47:58Z</time></trkpt><trkpt lat="33.3627166" lon="132.7853202"><ele>259.8787831234127</ele><time>2022-04-27T01:48:13Z</time></trkpt><trkpt lat="33.3626138" lon="132.7851412"><ele>260.22371095018656</ele><time>2022-04-27T01:48:26Z</time></trkpt><trkpt lat="33.3625062" lon="132.7849681"><ele>261.4644214973123</ele><time>2022-04-27T01:48:40Z</time></trkpt><trkpt lat="33.3624824" lon="132.7847515"><ele>261.4309094429373</ele><time>2022-04-27T01:48:54Z</time></trkpt><trkpt lat="33.3625804" lon="132.7845653"><ele>262.4705908448827</ele><time>2022-04-27T01:49:17Z</time></trkpt><trkpt lat="33.3624078" lon="132.7844772"><ele>265.4534156813692</ele><time>2022-04-27T01:49:42Z</time></trkpt><trkpt lat="33.3622705" lon="132.7843346"><ele>270.0567861676074</ele><time>2022-04-27T01:50:16Z</time></trkpt><trkpt lat="33.3620945" lon="132.7842841"><ele>278.1835172646167</ele><time>2022-04-27T01:50:56Z</time></trkpt><trkpt lat="33.3619213" lon="132.7842132"><ele>286.6959948999814</ele><time>2022-04-27T01:51:25Z</time></trkpt><trkpt lat="33.3617378" lon="132.7841587"><ele>293.91948528507305</ele><time>2022-04-27T01:51:59Z</time></trkpt><trkpt lat="33.3615574" lon="132.7841252"><ele>297.9666394223186</ele><time>2022-04-27T01:52:26Z</time></trkpt><trkpt lat="33.3614134" lon="132.7839903"><ele>300.49307392831804</ele><time>2022-04-27T01:52:53Z</time></trkpt><trkpt lat="33.3614729" lon="132.7837837"><ele>305.2595207147888</ele><time>2022-04-27T01:53:17Z</time></trkpt><trkpt lat="33.3615919" lon="132.7836115"><ele>309.428488938896</ele><time>2022-04-27T01:53:56Z</time></trkpt><trkpt lat="33.361649" lon="132.783395"><ele>313.52869105001463</ele><time>2022-04-27T01:54:13Z</time></trkpt><trkpt lat="33.3616965" lon="132.7831859"><ele>316.30159295176605</ele><time>2022-04-27T01:54:37Z</time></trkpt><trkpt lat="33.3618014" lon="132.7829973"><ele>318.83648867977445</ele><time>2022-04-27T01:55:04Z</time></trkpt><trkpt lat="33.3619205" lon="132.7828305"><ele>324.0384779972715</ele><time>2022-04-27T01:55:19Z</time></trkpt><trkpt lat="33.3619374" lon="132.7826121"><ele>326.8917992752008</ele><time>2022-04-27T01:56:09Z</time></trkpt><trkpt lat="33.3620888" lon="132.7824936"><ele>331.1119314897613</ele><time>2022-04-27T01:56:42Z</time></trkpt><trkpt lat="33.3620903" lon="132.7822705"><ele>331.04311881814584</ele><time>2022-04-27T01:56:53Z</time></trkpt><trkpt lat="33.3621194" lon="132.7820477"><ele>334.65105977371013</ele><time>2022-04-27T01:57:07Z</time></trkpt><trkpt lat="33.3620919" lon="132.7818197"><ele>337.9584255632221</ele><time>2022-04-27T01:57:24Z</time></trkpt><trkpt lat="33.3619888" lon="132.7819964"><ele>343.4619857442292</ele><time>2022-04-27T01:58:24Z</time></trkpt><trkpt lat="33.3618503" lon="132.7821468"><ele>346.80598960838756</ele><time>2022-04-27T01:58:39Z</time></trkpt><trkpt lat="33.3617454" lon="132.781966"><ele>350.61908078287814</ele><time>2022-04-27T01:59:02Z</time></trkpt><trkpt lat="33.361607" lon="132.7818252"><ele>357.8537897573494</ele><time>2022-04-27T01:59:40Z</time></trkpt><trkpt lat="33.3615296" lon="132.7816294"><ele>362.7195521978677</ele><time>2022-04-27T01:59:57Z</time></trkpt><trkpt lat="33.3614859" lon="132.781418"><ele>366.4536606373584</ele><time>2022-04-27T02:00:14Z</time></trkpt><trkpt lat="33.361381" lon="132.7812383"><ele>368.07511879857833</ele><time>2022-04-27T02:00:52Z</time></trkpt><trkpt lat="33.3613034" lon="132.7810265"><ele>370.4794614056694</ele><time>2022-04-27T02:01:09Z</time></trkpt><trkpt lat="33.361291" lon="132.7808077"><ele>374.04407440144615</ele><time>2022-04-27T02:01:26Z</time></trkpt><trkpt lat="33.3613595" lon="132.7806089"><ele>376.0830208663201</ele><time>2022-04-27T02:01:53Z</time></trkpt><trkpt lat="33.3614833" lon="132.7804459"><ele>381.1069796405261</ele><time>2022-04-27T02:02:15Z</time></trkpt><trkpt lat="33.3613077" lon="132.7803887"><ele>385.4071920041246</ele><time>2022-04-27T02:03:00Z</time></trkpt><trkpt lat="33.3611373" lon="132.7804957"><ele>390.6479743778182</ele><time>2022-04-27T02:03:32Z</time></trkpt><trkpt lat="33.3609956" lon="132.7806345"><ele>394.96897072469375</ele><time>2022-04-27T02:04:00Z</time></trkpt><trkpt lat="33.3609964" lon="132.7808537"><ele>398.94010484595833</ele><time>2022-04-27T02:04:14Z</time></trkpt><trkpt lat="33.3611177" lon="132.7810192"><ele>401.7338930940876</ele><time>2022-04-27T02:04:27Z</time></trkpt><trkpt lat="33.3611512" lon="132.7812311"><ele>402.2886087549402</ele><time>2022-04-27T02:04:43Z</time></trkpt><trkpt lat="33.3610017" lon="132.781359"><ele>404.6759280276437</ele><time>2022-04-27T02:04:56Z</time></trkpt><trkpt lat="33.3609282" lon="132.7815664"><ele>407.43289764240484</ele><time>2022-04-27T02:05:13Z</time></trkpt><trkpt lat="33.3608954" lon="132.781783"><ele>410.169304553988</ele><time>2022-04-27T02:05:33Z</time></trkpt><trkpt lat="33.3607176" lon="132.781845"><ele>412.8441078946649</ele><time>2022-04-27T02:05:50Z</time></trkpt><trkpt lat="33.3606505" lon="132.7816452"><ele>415.91556678436297</ele><time>2022-04-27T02:06:04Z</time></trkpt><trkpt lat="33.3606766" lon="132.7814322"><ele>421.70650793078534</ele><time>2022-04-27T02:07:36Z</time></trkpt><trkpt lat="33.3605926" lon="132.781234"><ele>425.11180919280895</ele><time>2022-04-27T02:07:46Z</time></trkpt><trkpt lat="33.3605409" lon="132.7810182"><ele>427.92868263307173</ele><time>2022-04-27T02:08:00Z</time></trkpt><trkpt lat="33.3604637" lon="132.7808191"><ele>430.0379844182706</ele><time>2022-04-27T02:08:41Z</time></trkpt><trkpt lat="33.3604053" lon="132.780615"><ele>432.66128485113796</ele><time>2022-04-27T02:08:58Z</time></trkpt><trkpt lat="33.3604577" lon="132.7804017"><ele>434.8717499022421</ele><time>2022-04-27T02:09:12Z</time></trkpt><trkpt lat="33.3605394" lon="132.7802082"><ele>436.75085831906154</ele><time>2022-04-27T02:09:26Z</time></trkpt><trkpt lat="33.360479" lon="132.7800001"><ele>438.1964007284364</ele><time>2022-04-27T02:09:41Z</time></trkpt><trkpt lat="33.3603256" lon="132.779887"><ele>440.4144128425458</ele><time>2022-04-27T02:09:56Z</time></trkpt><trkpt lat="33.3601684" lon="132.7797793"><ele>441.9443204322124</ele><time>2022-04-27T02:10:13Z</time></trkpt><trkpt lat="33.3600059" lon="132.7796758"><ele>444.2856002879796</ele><time>2022-04-27T02:10:26Z</time></trkpt><trkpt lat="33.3599032" lon="132.7794966"><ele>446.9956876774456</ele><time>2022-04-27T02:10:48Z</time></trkpt><trkpt lat="33.3598819" lon="132.7797125"><ele>450.34563207660466</ele><time>2022-04-27T02:11:36Z</time></trkpt><trkpt lat="33.360008" lon="132.7798747"><ele>455.01469984418213</ele><time>2022-04-27T02:12:01Z</time></trkpt><trkpt lat="33.3600515" lon="132.7800885"><ele>458.5973335463462</ele><time>2022-04-27T02:12:15Z</time></trkpt><trkpt lat="33.3599855" lon="132.7803013"><ele>461.24273987520587</ele><time>2022-04-27T02:12:31Z</time></trkpt><trkpt lat="33.3599701" lon="132.7805191"><ele>462.9348583941951</ele><time>2022-04-27T02:12:46Z</time></trkpt><trkpt lat="33.3597906" lon="132.7805586"><ele>464.8644689796234</ele><time>2022-04-27T02:13:10Z</time></trkpt><trkpt lat="33.3597399" lon="132.7803519"><ele>467.33923032166354</ele><time>2022-04-27T02:13:39Z</time></trkpt><trkpt lat="33.3596655" lon="132.7801519"><ele>470.12464437319863</ele><time>2022-04-27T02:13:57Z</time></trkpt><trkpt lat="33.3595564" lon="132.7799797"><ele>473.20763350017836</ele><time>2022-04-27T02:14:13Z</time></trkpt><trkpt lat="33.3594754" lon="132.779773"><ele>475.5361938512984</ele><time>2022-04-27T02:14:29Z</time></trkpt><trkpt lat="33.3593601" lon="132.7796065"><ele>477.25186558613177</ele><time>2022-04-27T02:14:45Z</time></trkpt><trkpt lat="33.3594058" lon="132.7793937"><ele>478.26666731369477</ele><time>2022-04-27T02:15:01Z</time></trkpt><trkpt lat="33.3594808" lon="132.7791944"><ele>480.18868782413136</ele><time>2022-04-27T02:15:17Z</time></trkpt><trkpt lat="33.3593549" lon="132.7793509"><ele>482.9376871173386</ele><time>2022-04-27T02:15:57Z</time></trkpt><trkpt lat="33.3592678" lon="132.7795418"><ele>486.7562753210456</ele><time>2022-04-27T02:16:12Z</time></trkpt><trkpt lat="33.3592441" lon="132.779769"><ele>489.41053889010544</ele><time>2022-04-27T02:16:29Z</time></trkpt><trkpt lat="33.3592366" lon="132.7799965"><ele>490.8480866442733</ele><time>2022-04-27T02:16:44Z</time></trkpt><trkpt lat="33.3590676" lon="132.7799122"><ele>493.4092127297581</ele><time>2022-04-27T02:17:08Z</time></trkpt><trkpt lat="33.3589341" lon="132.7797552"><ele>496.1675889724268</ele><time>2022-04-27T02:17:23Z</time></trkpt><trkpt lat="33.358878" lon="132.7795508"><ele>497.5686972549651</ele><time>2022-04-27T02:17:39Z</time></trkpt><trkpt lat="33.3588931" lon="132.7793309"><ele>499.1847891444807</ele><time>2022-04-27T02:17:53Z</time></trkpt><trkpt lat="33.3589272" lon="132.779108"><ele>501.2834516175133</ele><time>2022-04-27T02:18:08Z</time></trkpt><trkpt lat="33.3590473" lon="132.7789245"><ele>503.83025573998594</ele><time>2022-04-27T02:18:22Z</time></trkpt><trkpt lat="33.3591612" lon="132.7787508"><ele>504.94724258048035</ele><time>2022-04-27T02:18:37Z</time></trkpt><trkpt lat="33.3593125" lon="132.778604"><ele>506.379709632185</ele><time>2022-04-27T02:18:52Z</time></trkpt><trkpt lat="33.3591624" lon="132.7787347"><ele>507.88451225422085</ele><time>2022-04-27T02:19:39Z</time></trkpt><trkpt lat="33.3589816" lon="132.7787083"><ele>509.7931473056339</ele><time>2022-04-27T02:19:57Z</time></trkpt><trkpt lat="33.3588471" lon="132.7788578"><ele>513.544272152153</ele><time>2022-04-27T02:20:42Z</time></trkpt><trkpt lat="33.3587307" lon="132.7790226"><ele>518.1907351787451</ele><time>2022-04-27T02:24:56Z</time></trkpt><trkpt lat="33.3585508" lon="132.7790543"><ele>523.5849303643282</ele><time>2022-04-27T02:27:13Z</time></trkpt><trkpt lat="33.3583707" lon="132.7790955"><ele>529.5815934797102</ele><time>2022-04-27T02:27:54Z</time></trkpt><trkpt lat="33.3582159" lon="132.7792133"><ele>539.7022450767096</ele><time>2022-04-27T02:29:10Z</time></trkpt><trkpt lat="33.3580718" lon="132.7793426"><ele>550.2532296258199</ele><time>2022-04-27T02:29:41Z</time></trkpt><trkpt lat="33.3579803" lon="132.7795282"><ele>562.7684044114658</ele><time>2022-04-27T02:32:07Z</time></trkpt><trkpt lat="33.3578304" lon="132.7796521"><ele>572.9872747466671</ele><time>2022-04-27T02:32:39Z</time></trkpt><trkpt lat="33.3576845" lon="132.7797826"><ele>579.7688320818215</ele><time>2022-04-27T02:33:02Z</time></trkpt><trkpt lat="33.3575052" lon="132.7798277"><ele>584.2914647466323</ele><time>2022-04-27T02:33:34Z</time></trkpt><trkpt lat="33.3573229" lon="132.7798011"><ele>587.3562998891736</ele><time>2022-04-27T02:33:58Z</time></trkpt><trkpt lat="33.3571562" lon="132.7797071"><ele>591.2716754270635</ele><time>2022-04-27T02:34:44Z</time></trkpt><trkpt lat="33.3569664" lon="132.7798045"><ele>593.2803959585277</ele><time>2022-04-27T02:36:09Z</time></trkpt><trkpt lat="33.3567764" lon="132.7798346"><ele>594.3334716685412</ele><time>2022-04-27T02:36:31Z</time></trkpt><trkpt lat="33.3566249" lon="132.7799609"><ele>596.2475239510958</ele><time>2022-04-27T02:36:51Z</time></trkpt><trkpt lat="33.356457" lon="132.7800395"><ele>597.1358763960076</ele><time>2022-04-27T02:37:13Z</time></trkpt><trkpt lat="33.3563074" lon="132.7801756"><ele>598.0886180121116</ele><time>2022-04-27T02:37:49Z</time></trkpt><trkpt lat="33.3561443" lon="132.7800794"><ele>598.3759566066605</ele><time>2022-04-27T02:38:16Z</time></trkpt><trkpt lat="33.356003" lon="132.7799412"><ele>599.7418768839672</ele><time>2022-04-27T02:38:38Z</time></trkpt><trkpt lat="33.3558225" lon="132.7798955"><ele>600.6346693935594</ele><time>2022-04-27T02:40:01Z</time></trkpt><trkpt lat="33.3556415" lon="132.7798998"><ele>598.2964850709728</ele><time>2022-04-27T02:40:34Z</time></trkpt><trkpt lat="33.3554682" lon="132.7799623"><ele>594.553869227167</ele><time>2022-04-27T02:40:52Z</time></trkpt><trkpt lat="33.3552877" lon="132.7799838"><ele>593.249997792996</ele><time>2022-04-27T02:41:15Z</time></trkpt><trkpt lat="33.3551302" lon="132.7798515"><ele>595.3822657259864</ele><time>2022-04-27T02:41:42Z</time></trkpt><trkpt lat="33.3549566" lon="132.7797714"><ele>599.1293835222701</ele><time>2022-04-27T02:41:52Z</time></trkpt><trkpt lat="33.3548196" lon="132.7796308"><ele>601.1536686854243</ele><time>2022-04-27T02:42:06Z</time></trkpt><trkpt lat="33.3546647" lon="132.7795144"><ele>603.0537372523034</ele><time>2022-04-27T02:42:24Z</time></trkpt><trkpt lat="33.3545988" lon="132.779309"><ele>603.9204524646071</ele><time>2022-04-27T02:42:54Z</time></trkpt><trkpt lat="33.3544717" lon="132.7791497"><ele>608.447030195839</ele><time>2022-04-27T02:43:09Z</time></trkpt><trkpt lat="33.354366" lon="132.7789729"><ele>609.6817113794807</ele><time>2022-04-27T02:44:12Z</time></trkpt><trkpt lat="33.3542275" lon="132.778834"><ele>612.129550294616</ele><time>2022-04-27T02:44:26Z</time></trkpt><trkpt lat="33.354146" lon="132.7786334"><ele>611.9393992698609</ele><time>2022-04-27T02:44:42Z</time></trkpt><trkpt lat="33.3541417" lon="132.7784182"><ele>615.3829057250638</ele><time>2022-04-27T02:44:56Z</time></trkpt><trkpt lat="33.3540857" lon="132.7782097"><ele>616.7144652032555</ele><time>2022-04-27T02:45:13Z</time></trkpt><trkpt lat="33.3539393" lon="132.7780753"><ele>615.8594553868069</ele><time>2022-04-27T02:45:28Z</time></trkpt><trkpt lat="33.3538433" lon="132.7778838"><ele>614.0715077529062</ele><time>2022-04-27T02:45:46Z</time></trkpt><trkpt lat="33.353782" lon="132.7776813"><ele>615.2410571937176</ele><time>2022-04-27T02:46:07Z</time></trkpt><trkpt lat="33.3537147" lon="132.7774745"><ele>615.2945610783377</ele><time>2022-04-27T02:46:26Z</time></trkpt><trkpt lat="33.3536353" lon="132.7772783"><ele>616.0315606546678</ele><time>2022-04-27T02:46:42Z</time></trkpt><trkpt lat="33.3535709" lon="132.7770745"><ele>614.6439617966281</ele><time>2022-04-27T02:47:00Z</time></trkpt><trkpt lat="33.3535148" lon="132.7768611"><ele>614.849257163886</ele><time>2022-04-27T02:47:16Z</time></trkpt><trkpt lat="33.3535064" lon="132.776645"><ele>618.1930138854656</ele><time>2022-04-27T02:47:43Z</time></trkpt><trkpt lat="33.3533319" lon="132.7765766"><ele>621.9791667472306</ele><time>2022-04-27T02:48:20Z</time></trkpt><trkpt lat="33.35319" lon="132.7764309"><ele>626.4520902858303</ele><time>2022-04-27T02:49:54Z</time></trkpt><trkpt lat="33.3530499" lon="132.7762896"><ele>626.2356111631638</ele><time>2022-04-27T02:50:15Z</time></trkpt><trkpt lat="33.3528855" lon="132.7761798"><ele>625.2599793562357</ele><time>2022-04-27T02:50:30Z</time></trkpt><trkpt lat="33.3527115" lon="132.7760703"><ele>622.3624326223309</ele><time>2022-04-27T02:50:44Z</time></trkpt><trkpt lat="33.3525532" lon="132.7759515"><ele>620.7963578557884</ele><time>2022-04-27T02:51:00Z</time></trkpt><trkpt lat="33.3524321" lon="132.7757734"><ele>619.0013923713858</ele><time>2022-04-27T02:51:19Z</time></trkpt><trkpt lat="33.3523454" lon="132.7755847"><ele>618.3504380214698</ele><time>2022-04-27T02:51:36Z</time></trkpt><trkpt lat="33.3522601" lon="132.7753905"><ele>615.5799003561395</ele><time>2022-04-27T02:51:50Z</time></trkpt><trkpt lat="33.3522076" lon="132.7751815"><ele>615.203937530883</ele><time>2022-04-27T02:52:26Z</time></trkpt><trkpt lat="33.3520684" lon="132.7750068"><ele>617.1407516979187</ele><time>2022-04-27T02:52:46Z</time></trkpt><trkpt lat="33.3519336" lon="132.7748522"><ele>620.9326499518471</ele><time>2022-04-27T02:52:54Z</time></trkpt><trkpt lat="33.3518211" lon="132.7746821"><ele>621.6179173932029</ele><time>2022-04-27T02:53:15Z</time></trkpt><trkpt lat="33.3516795" lon="132.7745418"><ele>620.7754526762916</ele><time>2022-04-27T02:53:42Z</time></trkpt><trkpt lat="33.3515052" lon="132.774486"><ele>620.9982786157021</ele><time>2022-04-27T02:53:57Z</time></trkpt><trkpt lat="33.3513348" lon="132.7744029"><ele>622.7033491596106</ele><time>2022-04-27T02:54:14Z</time></trkpt><trkpt lat="33.3511876" lon="132.7742754"><ele>627.4701228214363</ele><time>2022-04-27T02:55:12Z</time></trkpt><trkpt lat="33.3510362" lon="132.7741585"><ele>633.4675805273</ele><time>2022-04-27T02:55:50Z</time></trkpt><trkpt lat="33.3508737" lon="132.7740523"><ele>642.6517009411256</ele><time>2022-04-27T02:56:35Z</time></trkpt><trkpt lat="33.3507208" lon="132.7739268"><ele>648.7891306668711</ele><time>2022-04-27T02:57:19Z</time></trkpt><trkpt lat="33.3507058" lon="132.77371"><ele>658.4744586761207</ele><time>2022-04-27T02:59:15Z</time></trkpt><trkpt lat="33.3506515" lon="132.7735051"><ele>665.0144256224394</ele><time>2022-04-27T02:59:52Z</time></trkpt><trkpt lat="33.3506364" lon="132.7732706"><ele>673.4057986964709</ele><time>2022-04-27T03:00:27Z</time></trkpt><trkpt lat="33.350659" lon="132.7730535"><ele>675.9051482189433</ele><time>2022-04-27T03:00:45Z</time></trkpt><trkpt lat="33.3505824" lon="132.772858"><ele>678.6852660324158</ele><time>2022-04-27T03:01:16Z</time></trkpt><trkpt lat="33.3504709" lon="132.7726817"><ele>677.7636652727191</ele><time>2022-04-27T03:01:34Z</time></trkpt><trkpt lat="33.3504843" lon="132.7724556"><ele>671.9015519083381</ele><time>2022-04-27T03:02:21Z</time></trkpt><trkpt lat="33.3504181" lon="132.7722397"><ele>665.8487276175753</ele><time>2022-04-27T03:02:33Z</time></trkpt><trkpt lat="33.3503563" lon="132.7720345"><ele>660.5327347706367</ele><time>2022-04-27T03:03:02Z</time></trkpt><trkpt lat="33.3502719" lon="132.7718373"><ele>661.2229413060963</ele><time>2022-04-27T03:03:26Z</time></trkpt><trkpt lat="33.3501443" lon="132.7716791"><ele>662.1632119244036</ele><time>2022-04-27T03:03:39Z</time></trkpt><trkpt lat="33.3500655" lon="132.7714826"><ele>663.596662435409</ele><time>2022-04-27T03:03:53Z</time></trkpt><trkpt lat="33.3500418" lon="132.7712683"><ele>672.3852482953176</ele><time>2022-04-27T03:04:42Z</time></trkpt><trkpt lat="33.3500497" lon="132.7710516"><ele>677.6572459822487</ele><time>2022-04-27T03:05:00Z</time></trkpt><trkpt lat="33.3501308" lon="132.7708566"><ele>682.790245458788</ele><time>2022-04-27T03:05:14Z</time></trkpt><trkpt lat="33.3501136" lon="132.7706425"><ele>678.9780108219874</ele><time>2022-04-27T03:05:38Z</time></trkpt><trkpt lat="33.3500807" lon="132.7704284"><ele>685.9464027014496</ele><time>2022-04-27T03:08:16Z</time></trkpt><trkpt lat="33.3500523" lon="132.7702149"><ele>695.5626298177591</ele><time>2022-04-27T03:09:06Z</time></trkpt><trkpt lat="33.3500102" lon="132.7700055"><ele>705.0130542420648</ele><time>2022-04-27T03:09:45Z</time></trkpt><trkpt lat="33.3500257" lon="132.7697909"><ele>714.1410042275699</ele><time>2022-04-27T03:10:44Z</time></trkpt><trkpt lat="33.3500299" lon="132.7695741"><ele>721.7423426912155</ele><time>2022-04-27T03:11:26Z</time></trkpt><trkpt lat="33.350002" lon="132.7693617"><ele>730.422968389631</ele><time>2022-04-27T03:11:56Z</time></trkpt><trkpt lat="33.3499107" lon="132.7691646"><ele>731.128929108762</ele><time>2022-04-27T03:12:14Z</time></trkpt><trkpt lat="33.3499634" lon="132.7689569"><ele>727.6144017710916</ele><time>2022-04-27T03:12:41Z</time></trkpt><trkpt lat="33.3497988" lon="132.768866"><ele>723.3452993074546</ele><time>2022-04-27T03:13:34Z</time></trkpt><trkpt lat="33.3497058" lon="132.7686813"><ele>718.8799770222499</ele><time>2022-04-27T03:13:48Z</time></trkpt><trkpt lat="33.3496407" lon="132.7684782"><ele>719.7459898640822</ele><time>2022-04-27T03:15:36Z</time></trkpt><trkpt lat="33.3494711" lon="132.7684017"><ele>724.1160149892676</ele><time>2022-04-27T03:16:46Z</time></trkpt><trkpt lat="33.3493448" lon="132.7682318"><ele>731.162006429151</ele><time>2022-04-27T03:17:19Z</time></trkpt><trkpt lat="33.3492379" lon="132.7680549"><ele>737.283229041807</ele><time>2022-04-27T03:17:35Z</time></trkpt><trkpt lat="33.3491532" lon="132.7678547"><ele>741.6992977213353</ele><time>2022-04-27T03:18:03Z</time></trkpt><trkpt lat="33.3490647" lon="132.7676487"><ele>744.9529377435555</ele><time>2022-04-27T03:18:26Z</time></trkpt><trkpt lat="33.3489645" lon="132.7674697"><ele>747.6651444024752</ele><time>2022-04-27T03:18:52Z</time></trkpt><trkpt lat="33.3488354" lon="132.7673146"><ele>748.922114992155</ele><time>2022-04-27T03:19:17Z</time></trkpt><trkpt lat="33.3487336" lon="132.7671342"><ele>749.5927387049202</ele><time>2022-04-27T03:19:29Z</time></trkpt><trkpt lat="33.3486183" lon="132.7669647"><ele>751.1662652600932</ele><time>2022-04-27T03:19:47Z</time></trkpt><trkpt lat="33.3485249" lon="132.7667805"><ele>750.7587836319516</ele><time>2022-04-27T03:20:13Z</time></trkpt><trkpt lat="33.3485281" lon="132.7665605"><ele>752.2788306746302</ele><time>2022-04-27T03:20:34Z</time></trkpt><trkpt lat="33.3485136" lon="132.7663415"><ele>751.2995502667745</ele><time>2022-04-27T03:21:15Z</time></trkpt><trkpt lat="33.3484132" lon="132.7661591"><ele>752.9173249240365</ele><time>2022-04-27T03:21:31Z</time></trkpt><trkpt lat="33.3483734" lon="132.7659492"><ele>752.2108628894706</ele><time>2022-04-27T03:21:56Z</time></trkpt><trkpt lat="33.3483231" lon="132.7657422"><ele>753.5852108366811</ele><time>2022-04-27T03:22:37Z</time></trkpt><trkpt lat="33.3483408" lon="132.765524"><ele>757.1154861283707</ele><time>2022-04-27T03:22:59Z</time></trkpt><trkpt lat="33.3483933" lon="132.7653129"><ele>761.3737096443023</ele><time>2022-04-27T03:23:23Z</time></trkpt><trkpt lat="33.3483814" lon="132.7650841"><ele>764.8672840390531</ele><time>2022-04-27T03:23:43Z</time></trkpt><trkpt lat="33.3483763" lon="132.764868"><ele>761.9957087628122</ele><time>2022-04-27T03:24:04Z</time></trkpt><trkpt lat="33.34831" lon="132.7646681"><ele>762.710768603868</ele><time>2022-04-27T03:24:30Z</time></trkpt><trkpt lat="33.3482399" lon="132.764466"><ele>761.9333899306135</ele><time>2022-04-27T03:24:52Z</time></trkpt><trkpt lat="33.3481836" lon="132.7642601"><ele>767.3652503255502</ele><time>2022-04-27T03:25:22Z</time></trkpt><trkpt lat="33.3481563" lon="132.7640463"><ele>768.7318252224454</ele><time>2022-04-27T03:25:44Z</time></trkpt><trkpt lat="33.3481217" lon="132.763835"><ele>775.181763626838</ele><time>2022-04-27T03:26:25Z</time></trkpt><trkpt lat="33.3481282" lon="132.763616"><ele>781.3230834321189</ele><time>2022-04-27T03:27:08Z</time></trkpt><trkpt lat="33.3480891" lon="132.763391"><ele>788.7870074182206</ele><time>2022-04-27T03:27:23Z</time></trkpt><trkpt lat="33.34804" lon="132.7631832"><ele>792.9601160330191</ele><time>2022-04-27T03:27:57Z</time></trkpt><trkpt lat="33.3479533" lon="132.7629904"><ele>794.8954521505215</ele><time>2022-04-27T03:28:13Z</time></trkpt><trkpt lat="33.3479024" lon="132.7627769"><ele>794.6839351885591</ele><time>2022-04-27T03:28:27Z</time></trkpt><trkpt lat="33.3478346" lon="132.7625748"><ele>792.6771639836397</ele><time>2022-04-27T03:28:45Z</time></trkpt><trkpt lat="33.3478276" lon="132.7623524"><ele>787.8850383317734</ele><time>2022-04-27T03:29:07Z</time></trkpt><trkpt lat="33.3477356" lon="132.76216"><ele>783.210618242207</ele><time>2022-04-27T03:29:29Z</time></trkpt><trkpt lat="33.3476959" lon="132.7619471"><ele>777.8331494286616</ele><time>2022-04-27T03:30:01Z</time></trkpt><trkpt lat="33.347648" lon="132.7617324"><ele>779.3719054114125</ele><time>2022-04-27T03:30:16Z</time></trkpt><trkpt lat="33.3475594" lon="132.76154"><ele>777.9088266952571</ele><time>2022-04-27T03:30:31Z</time></trkpt><trkpt lat="33.3474602" lon="132.7613578"><ele>779.6147428690664</ele><time>2022-04-27T03:30:50Z</time></trkpt><trkpt lat="33.3473556" lon="132.7611788"><ele>777.7254268932337</ele><time>2022-04-27T03:31:08Z</time></trkpt><trkpt lat="33.347239" lon="132.7610121"><ele>779.9635161541174</ele><time>2022-04-27T03:31:30Z</time></trkpt><trkpt lat="33.3472578" lon="132.7607907"><ele>785.4802311833228</ele><time>2022-04-27T03:31:52Z</time></trkpt><trkpt lat="33.3472582" lon="132.7605726"><ele>791.3493591703058</ele><time>2022-04-27T03:32:11Z</time></trkpt><trkpt lat="33.3471887" lon="132.7603623"><ele>797.0224184901945</ele><time>2022-04-27T03:34:17Z</time></trkpt><trkpt lat="33.3470492" lon="132.7601896"><ele>799.8734821342687</ele><time>2022-04-27T03:34:33Z</time></trkpt><trkpt lat="33.3469331" lon="132.7599933"><ele>801.940559527328</ele><time>2022-04-27T03:34:48Z</time></trkpt><trkpt lat="33.3468355" lon="132.7598066"><ele>805.4613907073968</ele><time>2022-04-27T03:35:12Z</time></trkpt><trkpt lat="33.346768" lon="132.7596055"><ele>812.0059365053844</ele><time>2022-04-27T03:36:23Z</time></trkpt><trkpt lat="33.3466787" lon="132.7594171"><ele>817.206051173945</ele><time>2022-04-27T03:36:55Z</time></trkpt><trkpt lat="33.3466504" lon="132.7591961"><ele>821.2126452335284</ele><time>2022-04-27T03:37:18Z</time></trkpt><trkpt lat="33.3465618" lon="132.7590086"><ele>820.7588596095644</ele><time>2022-04-27T03:38:18Z</time></trkpt><trkpt lat="33.3464938" lon="132.7587997"><ele>821.9665954038129</ele><time>2022-04-27T03:38:59Z</time></trkpt><trkpt lat="33.3463419" lon="132.7586141"><ele>822.863518279166</ele><time>2022-04-27T03:39:15Z</time></trkpt><trkpt lat="33.3461908" lon="132.7584769"><ele>823.8805723682955</ele><time>2022-04-27T03:39:32Z</time></trkpt><trkpt lat="33.3460672" lon="132.7583164"><ele>822.3576962254743</ele><time>2022-04-27T03:40:00Z</time></trkpt><trkpt lat="33.3459733" lon="132.758125"><ele>820.856193674742</ele><time>2022-04-27T03:40:32Z</time></trkpt><trkpt lat="33.3459438" lon="132.7579036"><ele>819.1161105234083</ele><time>2022-04-27T03:40:46Z</time></trkpt><trkpt lat="33.3460531" lon="132.7577175"><ele>819.4150655086631</ele><time>2022-04-27T03:41:02Z</time></trkpt><trkpt lat="33.3459932" lon="132.7575044"><ele>819.5235061438366</ele><time>2022-04-27T03:41:17Z</time></trkpt><trkpt lat="33.3458169" lon="132.757451"><ele>819.2149297410184</ele><time>2022-04-27T03:41:32Z</time></trkpt><trkpt lat="33.3458315" lon="132.7572331"><ele>819.1680821194929</ele><time>2022-04-27T03:41:47Z</time></trkpt><trkpt lat="33.3458326" lon="132.7570007"><ele>818.7069449566558</ele><time>2022-04-27T03:42:02Z</time></trkpt><trkpt lat="33.3457736" lon="132.7567748"><ele>818.2723679985497</ele><time>2022-04-27T03:42:17Z</time></trkpt><trkpt lat="33.345851" lon="132.7565742"><ele>817.897173861336</ele><time>2022-04-27T03:42:31Z</time></trkpt><trkpt lat="33.3459261" lon="132.7563748"><ele>817.6468477066295</ele><time>2022-04-27T03:42:45Z</time></trkpt><trkpt lat="33.345772" lon="132.7562542"><ele>818.0018839145281</ele><time>2022-04-27T03:43:16Z</time></trkpt><trkpt lat="33.3456213" lon="132.7561352"><ele>819.0434274677241</ele><time>2022-04-27T03:43:33Z</time></trkpt><trkpt lat="33.3455132" lon="132.7559551"><ele>821.862008173247</ele><time>2022-04-27T03:44:03Z</time></trkpt><trkpt lat="33.3454109" lon="132.7557713"><ele>822.1917422973593</ele><time>2022-04-27T03:45:18Z</time></trkpt><trkpt lat="33.3454641" lon="132.7555609"><ele>824.8039671808207</ele><time>2022-04-27T03:45:32Z</time></trkpt><trkpt lat="33.3455916" lon="132.7554063"><ele>825.0100039663388</ele><time>2022-04-27T03:45:45Z</time></trkpt><trkpt lat="33.3455641" lon="132.7551898"><ele>830.993937584145</ele><time>2022-04-27T03:46:16Z</time></trkpt><trkpt lat="33.3454241" lon="132.7550428"><ele>834.2767830421423</ele><time>2022-04-27T03:46:51Z</time></trkpt><trkpt lat="33.3453631" lon="132.754835"><ele>838.8163717040553</ele><time>2022-04-27T03:47:07Z</time></trkpt><trkpt lat="33.3452322" lon="132.7546807"><ele>839.6023367514453</ele><time>2022-04-27T03:47:23Z</time></trkpt><trkpt lat="33.3451379" lon="132.7544929"><ele>839.5071675345376</ele><time>2022-04-27T03:47:39Z</time></trkpt><trkpt lat="33.3450783" lon="132.7542814"><ele>841.293621557849</ele><time>2022-04-27T03:47:58Z</time></trkpt><trkpt lat="33.3450043" lon="132.754071"><ele>844.7306423056622</ele><time>2022-04-27T03:48:15Z</time></trkpt><trkpt lat="33.3448442" lon="132.7539663"><ele>851.1456389272612</ele><time>2022-04-27T03:48:58Z</time></trkpt><trkpt lat="33.3446927" lon="132.7538401"><ele>855.1325350826368</ele><time>2022-04-27T03:49:14Z</time></trkpt><trkpt lat="33.3446092" lon="132.7536448"><ele>859.1139515867736</ele><time>2022-04-27T03:49:33Z</time></trkpt><trkpt lat="33.3444306" lon="132.7535697"><ele>861.0405958714417</ele><time>2022-04-27T03:49:50Z</time></trkpt><trkpt lat="33.3442929" lon="132.7534244"><ele>863.5600767095306</ele><time>2022-04-27T03:50:06Z</time></trkpt><trkpt lat="33.3441277" lon="132.7533313"><ele>865.2981711664794</ele><time>2022-04-27T03:50:36Z</time></trkpt><trkpt lat="33.34421" lon="132.753523"><ele>868.734272850213</ele><time>2022-04-27T03:51:59Z</time></trkpt><trkpt lat="33.3443395" lon="132.7536773"><ele>871.8743197503069</ele><time>2022-04-27T03:52:13Z</time></trkpt><trkpt lat="33.3443906" lon="132.7538851"><ele>874.4097266904813</ele><time>2022-04-27T03:52:30Z</time></trkpt><trkpt lat="33.3445302" lon="132.7540243"><ele>875.020647652521</ele><time>2022-04-27T03:52:45Z</time></trkpt><trkpt lat="33.3446059" lon="132.7542324"><ele>875.8029833025361</ele><time>2022-04-27T03:53:01Z</time></trkpt><trkpt lat="33.3444257" lon="132.7541887"><ele>876.7768680912965</ele><time>2022-04-27T03:53:46Z</time></trkpt><trkpt lat="33.3442472" lon="132.7542395"><ele>882.2966713477571</ele><time>2022-04-27T03:55:28Z</time></trkpt><trkpt lat="33.3440809" lon="132.7543365"><ele>888.3711870339599</ele><time>2022-04-27T03:55:52Z</time></trkpt><trkpt lat="33.343927" lon="132.7544521"><ele>896.597146015642</ele><time>2022-04-27T03:56:44Z</time></trkpt><trkpt lat="33.343832" lon="132.7546377"><ele>900.2451504852888</ele><time>2022-04-27T03:57:12Z</time></trkpt><trkpt lat="33.3436552" lon="132.754592"><ele>902.2483774149492</ele><time>2022-04-27T03:57:51Z</time></trkpt><trkpt lat="33.343502" lon="132.7544664"><ele>902.2384677769322</ele><time>2022-04-27T03:58:10Z</time></trkpt><trkpt lat="33.3433319" lon="132.7543908"><ele>902.0117698934308</ele><time>2022-04-27T03:58:33Z</time></trkpt><trkpt lat="33.3431586" lon="132.7543297"><ele>904.3553613321782</ele><time>2022-04-27T03:58:51Z</time></trkpt><trkpt lat="33.3429696" lon="132.7542678"><ele>907.290819718832</ele><time>2022-04-27T03:59:12Z</time></trkpt><trkpt lat="33.3427963" lon="132.7541963"><ele>910.9227527345702</ele><time>2022-04-27T03:59:31Z</time></trkpt><trkpt lat="33.3429793" lon="132.7542508"><ele>912.3594852241375</ele><time>2022-04-27T04:07:42Z</time></trkpt><trkpt lat="33.343153" lon="132.7543291"><ele>911.994109388735</ele><time>2022-04-27T04:08:00Z</time></trkpt><trkpt lat="33.3433362" lon="132.7543258"><ele>909.609245723605</ele><time>2022-04-27T04:08:14Z</time></trkpt><trkpt lat="33.3434742" lon="132.7544705"><ele>907.3462827774514</ele><time>2022-04-27T04:08:32Z</time></trkpt><trkpt lat="33.3435679" lon="132.7546597"><ele>905.8611947477017</ele><time>2022-04-27T04:08:45Z</time></trkpt><trkpt lat="33.3436879" lon="132.7548261"><ele>905.4829790701101</ele><time>2022-04-27T04:09:01Z</time></trkpt><trkpt lat="33.3437367" lon="132.7550392"><ele>906.0292830078656</ele><time>2022-04-27T04:09:16Z</time></trkpt><trkpt lat="33.3436845" lon="132.7552492"><ele>906.8876178960932</ele><time>2022-04-27T04:09:43Z</time></trkpt><trkpt lat="33.3436975" lon="132.7554703"><ele>908.5789345977691</ele><time>2022-04-27T04:10:05Z</time></trkpt><trkpt lat="33.3436925" lon="132.7556876"><ele>909.9193471863236</ele><time>2022-04-27T04:10:20Z</time></trkpt><trkpt lat="33.3437336" lon="132.7558989"><ele>911.0086442051662</ele><time>2022-04-27T04:10:38Z</time></trkpt><trkpt lat="33.3438869" lon="132.7560391"><ele>911.8788921966252</ele><time>2022-04-27T04:10:55Z</time></trkpt><trkpt lat="33.3440164" lon="132.7561914"><ele>912.3308518065938</ele><time>2022-04-27T04:11:44Z</time></trkpt><trkpt lat="33.3440872" lon="132.7563908"><ele>911.4916855627317</ele><time>2022-04-27T04:12:11Z</time></trkpt><trkpt lat="33.3442106" lon="132.7565599"><ele>909.0788703611648</ele><time>2022-04-27T04:12:50Z</time></trkpt><trkpt lat="33.3443225" lon="132.7567438"><ele>905.1449928415755</ele><time>2022-04-27T04:13:02Z</time></trkpt><trkpt lat="33.3444607" lon="132.7568879"><ele>902.2096460928011</ele><time>2022-04-27T04:13:14Z</time></trkpt><trkpt lat="33.3445751" lon="132.7570588"><ele>897.6189050992367</ele><time>2022-04-27T04:13:29Z</time></trkpt><trkpt lat="33.3447506" lon="132.7571128"><ele>891.2506752154662</ele><time>2022-04-27T04:13:52Z</time></trkpt><trkpt lat="33.3449501" lon="132.757143"><ele>883.0796896896869</ele><time>2022-04-27T04:14:02Z</time></trkpt><trkpt lat="33.3450942" lon="132.7572758"><ele>876.8784797344057</ele><time>2022-04-27T04:14:19Z</time></trkpt><trkpt lat="33.3452414" lon="132.7574063"><ele>871.9938313052385</ele><time>2022-04-27T04:14:34Z</time></trkpt><trkpt lat="33.3454027" lon="132.7575072"><ele>864.4746039156053</ele><time>2022-04-27T04:15:14Z</time></trkpt><trkpt lat="33.3455887" lon="132.7575651"><ele>856.3290459367222</ele><time>2022-04-27T04:15:26Z</time></trkpt><trkpt lat="33.3457705" lon="132.7576114"><ele>848.4796564812592</ele><time>2022-04-27T04:15:36Z</time></trkpt><trkpt lat="33.3458772" lon="132.757786"><ele>842.2901907064062</ele><time>2022-04-27T04:15:50Z</time></trkpt><trkpt lat="33.3459228" lon="132.7579963"><ele>836.2950308166114</ele><time>2022-04-27T04:16:02Z</time></trkpt><trkpt lat="33.3459699" lon="132.7582063"><ele>830.6674207610982</ele><time>2022-04-27T04:16:11Z</time></trkpt><trkpt lat="33.3460253" lon="132.7584131"><ele>826.7466301258464</ele><time>2022-04-27T04:16:27Z</time></trkpt><trkpt lat="33.3459685" lon="132.7586186"><ele>823.5097442568593</ele><time>2022-04-27T04:17:16Z</time></trkpt><trkpt lat="33.3459756" lon="132.7588395"><ele>818.752883970676</ele><time>2022-04-27T04:17:50Z</time></trkpt><trkpt lat="33.3459958" lon="132.759061"><ele>815.9980057730542</ele><time>2022-04-27T04:18:10Z</time></trkpt><trkpt lat="33.3461606" lon="132.7591526"><ele>813.5622050425328</ele><time>2022-04-27T04:18:41Z</time></trkpt><trkpt lat="33.3463374" lon="132.759205"><ele>813.2867135221968</ele><time>2022-04-27T04:19:01Z</time></trkpt><trkpt lat="33.3464037" lon="132.7594139"><ele>811.4850126475434</ele><time>2022-04-27T04:19:21Z</time></trkpt><trkpt lat="33.3463392" lon="132.7596271"><ele>809.2339291327359</ele><time>2022-04-27T04:19:41Z</time></trkpt><trkpt lat="33.3462073" lon="132.7597742"><ele>806.4427432910425</ele><time>2022-04-27T04:20:11Z</time></trkpt><trkpt lat="33.3461138" lon="132.7599585"><ele>804.0842798763978</ele><time>2022-04-27T04:20:27Z</time></trkpt><trkpt lat="33.3462372" lon="132.7601306"><ele>801.4592605825968</ele><time>2022-04-27T04:20:40Z</time></trkpt><trkpt lat="33.3464091" lon="132.7602004"><ele>801.8371519998946</ele><time>2022-04-27T04:22:29Z</time></trkpt><trkpt lat="33.3465837" lon="132.7602958"><ele>799.5629041815432</ele><time>2022-04-27T04:22:49Z</time></trkpt><trkpt lat="33.3464306" lon="132.7604243"><ele>798.9174756393915</ele><time>2022-04-27T04:23:15Z</time></trkpt><trkpt lat="33.3466054" lon="132.7604844"><ele>793.332122023687</ele><time>2022-04-27T04:24:50Z</time></trkpt><trkpt lat="33.3467851" lon="132.7604542"><ele>789.5223481667257</ele><time>2022-04-27T04:25:18Z</time></trkpt><trkpt lat="33.3469245" lon="132.7605987"><ele>786.4219439580397</ele><time>2022-04-27T04:26:06Z</time></trkpt><trkpt lat="33.3470715" lon="132.7607781"><ele>786.323011695198</ele><time>2022-04-27T04:26:17Z</time></trkpt><trkpt lat="33.3471787" lon="132.7609558"><ele>786.5879279548282</ele><time>2022-04-27T04:26:27Z</time></trkpt><trkpt lat="33.3473509" lon="132.7610443"><ele>785.573670894973</ele><time>2022-04-27T04:26:41Z</time></trkpt><trkpt lat="33.3474598" lon="132.7612325"><ele>785.1764229519973</ele><time>2022-04-27T04:28:00Z</time></trkpt><trkpt lat="33.347602" lon="132.7613722"><ele>783.6429649246044</ele><time>2022-04-27T04:28:14Z</time></trkpt><trkpt lat="33.3476879" lon="132.7615695"><ele>783.657021589636</ele><time>2022-04-27T04:28:27Z</time></trkpt><trkpt lat="33.3476935" lon="132.7617935"><ele>782.858282233847</ele><time>2022-04-27T04:28:42Z</time></trkpt><trkpt lat="33.3477522" lon="132.7619992"><ele>783.6157990787502</ele><time>2022-04-27T04:28:56Z</time></trkpt><trkpt lat="33.3478133" lon="132.7622085"><ele>782.2877925625004</ele><time>2022-04-27T04:29:12Z</time></trkpt><trkpt lat="33.3478877" lon="132.7624075"><ele>783.6348080075</ele><time>2022-04-27T04:29:26Z</time></trkpt><trkpt lat="33.3478395" lon="132.7626191"><ele>788.2302433074246</ele><time>2022-04-27T04:30:27Z</time></trkpt><trkpt lat="33.3478577" lon="132.7628362"><ele>793.9352842684663</ele><time>2022-04-27T04:30:41Z</time></trkpt><trkpt lat="33.3479462" lon="132.7630326"><ele>797.2272449126472</ele><time>2022-04-27T04:30:54Z</time></trkpt><trkpt lat="33.3480031" lon="132.7632486"><ele>796.91619977993</ele><time>2022-04-27T04:31:06Z</time></trkpt><trkpt lat="33.3480891" lon="132.7634402"><ele>794.429417192845</ele><time>2022-04-27T04:31:19Z</time></trkpt><trkpt lat="33.3481147" lon="132.7636563"><ele>790.6570978781486</ele><time>2022-04-27T04:31:29Z</time></trkpt><trkpt lat="33.3482178" lon="132.7638326"><ele>785.4910604600273</ele><time>2022-04-27T04:31:42Z</time></trkpt><trkpt lat="33.348243" lon="132.764056"><ele>779.7098477438235</ele><time>2022-04-27T04:32:04Z</time></trkpt><trkpt lat="33.3483162" lon="132.7642553"><ele>774.3482156527211</ele><time>2022-04-27T04:32:14Z</time></trkpt><trkpt lat="33.3484029" lon="132.7644469"><ele>771.291857014275</ele><time>2022-04-27T04:32:49Z</time></trkpt><trkpt lat="33.3483951" lon="132.7646617"><ele>769.4126465096782</ele><time>2022-04-27T04:33:03Z</time></trkpt><trkpt lat="33.3484133" lon="132.7648759"><ele>767.8587079081659</ele><time>2022-04-27T04:33:17Z</time></trkpt><trkpt lat="33.348433" lon="132.7650954"><ele>766.8881385199393</ele><time>2022-04-27T04:33:40Z</time></trkpt><trkpt lat="33.3484529" lon="132.7653131"><ele>764.1848517625064</ele><time>2022-04-27T04:33:59Z</time></trkpt><trkpt lat="33.3484615" lon="132.7655319"><ele>758.7404199850125</ele><time>2022-04-27T04:34:14Z</time></trkpt><trkpt lat="33.3483861" lon="132.7657292"><ele>755.9117189522748</ele><time>2022-04-27T04:34:45Z</time></trkpt><trkpt lat="33.3484369" lon="132.7659397"><ele>755.6262737681446</ele><time>2022-04-27T04:35:19Z</time></trkpt><trkpt lat="33.3485508" lon="132.7661173"><ele>756.6152798475147</ele><time>2022-04-27T04:35:35Z</time></trkpt><trkpt lat="33.3486255" lon="132.7663169"><ele>756.3914195309426</ele><time>2022-04-27T04:35:51Z</time></trkpt><trkpt lat="33.3486298" lon="132.7665338"><ele>756.435702383792</ele><time>2022-04-27T04:36:25Z</time></trkpt><trkpt lat="33.3487551" lon="132.76669"><ele>757.8680454797476</ele><time>2022-04-27T04:36:34Z</time></trkpt><trkpt lat="33.3488414" lon="132.7668788"><ele>756.4085209440964</ele><time>2022-04-27T04:36:42Z</time></trkpt><trkpt lat="33.3488817" lon="132.7670909"><ele>754.8290099696333</ele><time>2022-04-27T04:36:51Z</time></trkpt><trkpt lat="33.3489807" lon="132.7672732"><ele>753.652981593135</ele><time>2022-04-27T04:37:08Z</time></trkpt><trkpt lat="33.3490632" lon="132.76749"><ele>752.712243629378</ele><time>2022-04-27T04:37:21Z</time></trkpt><trkpt lat="33.3491798" lon="132.7676634"><ele>751.512932019794</ele><time>2022-04-27T04:37:36Z</time></trkpt><trkpt lat="33.3492996" lon="132.7678348"><ele>749.0885800364632</ele><time>2022-04-27T04:37:50Z</time></trkpt><trkpt lat="33.3493559" lon="132.7680482"><ele>746.7008393199103</ele><time>2022-04-27T04:38:03Z</time></trkpt><trkpt lat="33.3493791" lon="132.7682653"><ele>744.601447726247</ele><time>2022-04-27T04:38:16Z</time></trkpt><trkpt lat="33.3492564" lon="132.7684515"><ele>742.4605209443898</ele><time>2022-04-27T04:38:53Z</time></trkpt><trkpt lat="33.3491654" lon="132.768641"><ele>737.104914953186</ele><time>2022-04-27T04:39:21Z</time></trkpt><trkpt lat="33.3490864" lon="132.7688499"><ele>733.4812763661847</ele><time>2022-04-27T04:39:55Z</time></trkpt><trkpt lat="33.3489529" lon="132.7690051"><ele>729.8179863732094</ele><time>2022-04-27T04:40:16Z</time></trkpt><trkpt lat="33.3490295" lon="132.7688065"><ele>733.0546713336189</ele><time>2022-04-27T04:41:36Z</time></trkpt><trkpt lat="33.3492116" lon="132.768721"><ele>734.8849200708883</ele><time>2022-04-27T04:41:56Z</time></trkpt><trkpt lat="33.349363" lon="132.7685973"><ele>738.5775764474193</ele><time>2022-04-27T04:42:15Z</time></trkpt><trkpt lat="33.3495454" lon="132.7686107"><ele>736.3751950739767</ele><time>2022-04-27T04:42:51Z</time></trkpt><trkpt lat="33.3497318" lon="132.7686735"><ele>731.8294033977431</ele><time>2022-04-27T04:43:14Z</time></trkpt><trkpt lat="33.3498887" lon="132.7687871"><ele>732.0844456260702</ele><time>2022-04-27T04:43:55Z</time></trkpt><trkpt lat="33.3499177" lon="132.7690107"><ele>733.86430998309</ele><time>2022-04-27T04:44:23Z</time></trkpt><trkpt lat="33.3499701" lon="132.7692231"><ele>738.4521041030843</ele><time>2022-04-27T04:44:37Z</time></trkpt><trkpt lat="33.3500892" lon="132.7693908"><ele>737.1939495174041</ele><time>2022-04-27T04:44:55Z</time></trkpt><trkpt lat="33.3501094" lon="132.7696044"><ele>735.365985794571</ele><time>2022-04-27T04:45:13Z</time></trkpt><trkpt lat="33.3500784" lon="132.7698164"><ele>728.8781017746896</ele><time>2022-04-27T04:45:39Z</time></trkpt><trkpt lat="33.3500885" lon="132.7700341"><ele>717.3506780898324</ele><time>2022-04-27T04:47:31Z</time></trkpt><trkpt lat="33.3501468" lon="132.7702475"><ele>703.9038975905632</ele><time>2022-04-27T04:47:48Z</time></trkpt><trkpt lat="33.3502536" lon="132.7704217"><ele>693.7413180748946</ele><time>2022-04-27T04:48:07Z</time></trkpt><trkpt lat="33.3502707" lon="132.7706366"><ele>688.3373824275362</ele><time>2022-04-27T04:48:23Z</time></trkpt><trkpt lat="33.3502644" lon="132.7708552"><ele>687.0471563910169</ele><time>2022-04-27T04:48:37Z</time></trkpt><trkpt lat="33.3501939" lon="132.7710534"><ele>686.3648465664874</ele><time>2022-04-27T04:48:50Z</time></trkpt><trkpt lat="33.3501614" lon="132.7712714"><ele>684.0505333078421</ele><time>2022-04-27T04:49:41Z</time></trkpt><trkpt lat="33.3502549" lon="132.7714595"><ele>678.8113918393101</ele><time>2022-04-27T04:50:41Z</time></trkpt><trkpt lat="33.3504107" lon="132.7715861"><ele>673.3490551926492</ele><time>2022-04-27T04:50:52Z</time></trkpt><trkpt lat="33.3504417" lon="132.7718268"><ele>669.7768812775254</ele><time>2022-04-27T04:51:00Z</time></trkpt><trkpt lat="33.3504738" lon="132.7720401"><ele>669.4920504957807</ele><time>2022-04-27T04:51:12Z</time></trkpt><trkpt lat="33.3505433" lon="132.7722412"><ele>670.0437867520992</ele><time>2022-04-27T04:51:29Z</time></trkpt><trkpt lat="33.3505997" lon="132.7724454"><ele>673.4310378821777</ele><time>2022-04-27T04:52:14Z</time></trkpt><trkpt lat="33.3506065" lon="132.7726657"><ele>678.4910363809846</ele><time>2022-04-27T04:52:54Z</time></trkpt><trkpt lat="33.3506374" lon="132.7728847"><ele>683.6535428070816</ele><time>2022-04-27T04:53:24Z</time></trkpt><trkpt lat="33.350638" lon="132.7731045"><ele>684.8552357743674</ele><time>2022-04-27T04:53:44Z</time></trkpt><trkpt lat="33.3506928" lon="132.7733124"><ele>680.4433147129423</ele><time>2022-04-27T04:54:17Z</time></trkpt><trkpt lat="33.3507162" lon="132.7735343"><ele>673.5790921089583</ele><time>2022-04-27T04:54:33Z</time></trkpt><trkpt lat="33.3507709" lon="132.7737449"><ele>666.1345258305652</ele><time>2022-04-27T04:54:50Z</time></trkpt><trkpt lat="33.3507662" lon="132.7739597"><ele>660.4513328163187</ele><time>2022-04-27T04:55:04Z</time></trkpt><trkpt lat="33.3507373" lon="132.7741721"><ele>654.7414803555621</ele><time>2022-04-27T04:55:17Z</time></trkpt><trkpt lat="33.3507474" lon="132.774387"><ele>649.6885518701023</ele><time>2022-04-27T04:55:32Z</time></trkpt><trkpt lat="33.3509188" lon="132.7743046"><ele>644.8769708470245</ele><time>2022-04-27T04:58:04Z</time></trkpt><trkpt lat="33.3510857" lon="132.7741926"><ele>640.2618176629322</ele><time>2022-04-27T04:58:14Z</time></trkpt><trkpt lat="33.351265" lon="132.7741587"><ele>635.7951637076858</ele><time>2022-04-27T04:58:25Z</time></trkpt><trkpt lat="33.3514387" lon="132.7742622"><ele>631.2897701524121</ele><time>2022-04-27T04:58:35Z</time></trkpt><trkpt lat="33.3515952" lon="132.7743787"><ele>627.8288361616085</ele><time>2022-04-27T04:58:47Z</time></trkpt><trkpt lat="33.351717" lon="132.7745413"><ele>625.0893021270522</ele><time>2022-04-27T04:58:57Z</time></trkpt><trkpt lat="33.3518712" lon="132.774656"><ele>624.8842566657167</ele><time>2022-04-27T04:59:15Z</time></trkpt><trkpt lat="33.3520536" lon="132.7747"><ele>626.0031671464284</ele><time>2022-04-27T04:59:31Z</time></trkpt><trkpt lat="33.3521539" lon="132.7748819"><ele>626.5727290266786</ele><time>2022-04-27T04:59:47Z</time></trkpt><trkpt lat="33.3521679" lon="132.775097"><ele>624.2928091916223</ele><time>2022-04-27T05:00:01Z</time></trkpt><trkpt lat="33.3522541" lon="132.7752948"><ele>620.0343798809528</ele><time>2022-04-27T05:00:15Z</time></trkpt><trkpt lat="33.3523348" lon="132.7754952"><ele>620.2219927121397</ele><time>2022-04-27T05:00:43Z</time></trkpt><trkpt lat="33.3524317" lon="132.7757042"><ele>620.5924158618408</ele><time>2022-04-27T05:00:55Z</time></trkpt><trkpt lat="33.3525816" lon="132.7758268"><ele>623.373017444723</ele><time>2022-04-27T05:01:08Z</time></trkpt><trkpt lat="33.3527629" lon="132.7758175"><ele>619.8672121967346</ele><time>2022-04-27T05:01:24Z</time></trkpt><trkpt lat="33.3528797" lon="132.7759909"><ele>622.1368415443125</ele><time>2022-04-27T05:01:42Z</time></trkpt><trkpt lat="33.3529482" lon="132.7761997"><ele>625.1975886459351</ele><time>2022-04-27T05:02:10Z</time></trkpt><trkpt lat="33.3530802" lon="132.7763542"><ele>631.3460080446963</ele><time>2022-04-27T05:02:27Z</time></trkpt><trkpt lat="33.3532604" lon="132.7763229"><ele>632.6324475902193</ele><time>2022-04-27T05:02:45Z</time></trkpt><trkpt lat="33.3533696" lon="132.7764939"><ele>632.058582791848</ele><time>2022-04-27T05:03:24Z</time></trkpt><trkpt lat="33.3535547" lon="132.7764503"><ele>630.0905713254231</ele><time>2022-04-27T05:03:55Z</time></trkpt><trkpt lat="33.3536436" lon="132.7766408"><ele>627.6020266459104</ele><time>2022-04-27T05:05:27Z</time></trkpt><trkpt lat="33.3536544" lon="132.7768725"><ele>622.8046930068779</ele><time>2022-04-27T05:05:55Z</time></trkpt><trkpt lat="33.3537287" lon="132.7770694"><ele>620.1041135598755</ele><time>2022-04-27T05:06:09Z</time></trkpt><trkpt lat="33.353762" lon="132.7772814"><ele>617.753699886092</ele><time>2022-04-27T05:06:21Z</time></trkpt><trkpt lat="33.3538337" lon="132.7774796"><ele>617.7761470585536</ele><time>2022-04-27T05:06:36Z</time></trkpt><trkpt lat="33.3539799" lon="132.7776089"><ele>617.7483321993182</ele><time>2022-04-27T05:06:51Z</time></trkpt><trkpt lat="33.3540489" lon="132.7778085"><ele>617.9049103044525</ele><time>2022-04-27T05:07:12Z</time></trkpt><trkpt lat="33.3541157" lon="132.7780266"><ele>618.3920794286919</ele><time>2022-04-27T05:07:30Z</time></trkpt><trkpt lat="33.3541831" lon="132.7782345"><ele>618.565674788429</ele><time>2022-04-27T05:07:43Z</time></trkpt><trkpt lat="33.3542478" lon="132.7784399"><ele>619.1292066841621</ele><time>2022-04-27T05:07:57Z</time></trkpt><trkpt lat="33.3543951" lon="132.7785812"><ele>617.6170181263197</ele><time>2022-04-27T05:08:15Z</time></trkpt><trkpt lat="33.3544213" lon="132.7787998"><ele>615.3374759537486</ele><time>2022-04-27T05:08:32Z</time></trkpt><trkpt lat="33.3544508" lon="132.7790172"><ele>612.5342837251739</ele><time>2022-04-27T05:08:49Z</time></trkpt><trkpt lat="33.3545928" lon="132.7791558"><ele>610.473229372271</ele><time>2022-04-27T05:09:03Z</time></trkpt><trkpt lat="33.3546878" lon="132.7793427"><ele>609.603210440892</ele><time>2022-04-27T05:09:19Z</time></trkpt><trkpt lat="33.3548056" lon="132.7795084"><ele>608.4960808303459</ele><time>2022-04-27T05:10:14Z</time></trkpt><trkpt lat="33.3549229" lon="132.7796842"><ele>607.4166764377823</ele><time>2022-04-27T05:10:27Z</time></trkpt><trkpt lat="33.3550513" lon="132.7798407"><ele>607.398730781924</ele><time>2022-04-27T05:10:47Z</time></trkpt><trkpt lat="33.3552113" lon="132.7799472"><ele>605.6534614743587</ele><time>2022-04-27T05:11:21Z</time></trkpt><trkpt lat="33.3553908" lon="132.7799196"><ele>603.1976480087445</ele><time>2022-04-27T05:11:46Z</time></trkpt><trkpt lat="33.3555689" lon="132.779875"><ele>599.4823571224807</ele><time>2022-04-27T05:12:07Z</time></trkpt><trkpt lat="33.3557508" lon="132.7798845"><ele>600.6836678012769</ele><time>2022-04-27T05:12:43Z</time></trkpt><trkpt lat="33.3559356" lon="132.7798902"><ele>604.3717415352525</ele><time>2022-04-27T05:13:34Z</time></trkpt><trkpt lat="33.3561098" lon="132.7799714"><ele>606.7943065237633</ele><time>2022-04-27T05:13:50Z</time></trkpt><trkpt lat="33.3562933" lon="132.779981"><ele>606.7551575025864</ele><time>2022-04-27T05:17:20Z</time></trkpt><trkpt lat="33.3564783" lon="132.779984"><ele>605.7254572739117</ele><time>2022-04-27T05:18:13Z</time></trkpt><trkpt lat="33.3566503" lon="132.7799047"><ele>604.9615620532819</ele><time>2022-04-27T05:18:41Z</time></trkpt><trkpt lat="33.3568092" lon="132.7797988"><ele>604.2792973272489</ele><time>2022-04-27T05:19:18Z</time></trkpt><trkpt lat="33.3569792" lon="132.7797127"><ele>601.0289218994926</ele><time>2022-04-27T05:20:10Z</time></trkpt><trkpt lat="33.357101" lon="132.7795456"><ele>597.7144308441108</ele><time>2022-04-27T05:20:22Z</time></trkpt><trkpt lat="33.357216" lon="132.7793729"><ele>593.2496834942364</ele><time>2022-04-27T05:20:33Z</time></trkpt><trkpt lat="33.3573771" lon="132.7792625"><ele>589.6291042100528</ele><time>2022-04-27T05:20:46Z</time></trkpt><trkpt lat="33.3575024" lon="132.7790975"><ele>586.1140899259302</ele><time>2022-04-27T05:20:59Z</time></trkpt><trkpt lat="33.3576845" lon="132.7790664"><ele>582.0387952691334</ele><time>2022-04-27T05:21:16Z</time></trkpt><trkpt lat="33.3578651" lon="132.7790706"><ele>577.4578519736516</ele><time>2022-04-27T05:21:40Z</time></trkpt><trkpt lat="33.3580329" lon="132.7791728"><ele>569.49684837962</ele><time>2022-04-27T05:23:21Z</time></trkpt><trkpt lat="33.3582081" lon="132.7792354"><ele>562.1893675456427</ele><time>2022-04-27T05:23:36Z</time></trkpt><trkpt lat="33.3583894" lon="132.7791876"><ele>554.1419246188871</ele><time>2022-04-27T05:24:05Z</time></trkpt><trkpt lat="33.3585355" lon="132.7790594"><ele>545.4056607598067</ele><time>2022-04-27T05:24:56Z</time></trkpt><trkpt lat="33.3587" lon="132.7789455"><ele>536.9440213851061</ele><time>2022-04-27T05:25:09Z</time></trkpt><trkpt lat="33.3588782" lon="132.7788391"><ele>530.1603037047844</ele><time>2022-04-27T05:25:19Z</time></trkpt><trkpt lat="33.3590581" lon="132.7787756"><ele>526.5832829986994</ele><time>2022-04-27T05:25:35Z</time></trkpt><trkpt lat="33.3590027" lon="132.7789863"><ele>518.9217701049114</ele><time>2022-04-27T05:26:12Z</time></trkpt><trkpt lat="33.3589257" lon="132.7791931"><ele>514.5777809541688</ele><time>2022-04-27T05:26:24Z</time></trkpt><trkpt lat="33.3589315" lon="132.7794082"><ele>511.1447263740361</ele><time>2022-04-27T05:26:41Z</time></trkpt><trkpt lat="33.3590701" lon="132.7795577"><ele>511.99844764236286</ele><time>2022-04-27T05:26:52Z</time></trkpt><trkpt lat="33.3591322" lon="132.7797636"><ele>510.0387705574435</ele><time>2022-04-27T05:27:02Z</time></trkpt><trkpt lat="33.3591606" lon="132.7799808"><ele>507.8235432829766</ele><time>2022-04-27T05:27:15Z</time></trkpt><trkpt lat="33.3593409" lon="132.7799623"><ele>504.54531921644775</ele><time>2022-04-27T05:27:37Z</time></trkpt><trkpt lat="33.3592382" lon="132.7797447"><ele>502.1991795624179</ele><time>2022-04-27T05:27:42Z</time></trkpt><trkpt lat="33.3592252" lon="132.7795114"><ele>500.34672956687785</ele><time>2022-04-27T05:27:50Z</time></trkpt><trkpt lat="33.3592434" lon="132.7792898"><ele>499.3995603513892</ele><time>2022-04-27T05:28:00Z</time></trkpt><trkpt lat="33.3593222" lon="132.7790815"><ele>497.820375853444</ele><time>2022-04-27T05:28:14Z</time></trkpt><trkpt lat="33.3594968" lon="132.7791447"><ele>495.37477010210176</ele><time>2022-04-27T05:28:36Z</time></trkpt><trkpt lat="33.3596116" lon="132.7793227"><ele>492.69152634974176</ele><time>2022-04-27T05:28:46Z</time></trkpt><trkpt lat="33.3596418" lon="132.7795634"><ele>490.18692069927056</ele><time>2022-04-27T05:29:01Z</time></trkpt><trkpt lat="33.3596068" lon="132.7797774"><ele>488.4929931271963</ele><time>2022-04-27T05:29:12Z</time></trkpt><trkpt lat="33.3596162" lon="132.7799955"><ele>487.1246920804797</ele><time>2022-04-27T05:29:25Z</time></trkpt><trkpt lat="33.3597173" lon="132.7801757"><ele>485.594428085828</ele><time>2022-04-27T05:29:39Z</time></trkpt><trkpt lat="33.3597897" lon="132.780377"><ele>483.6539641169931</ele><time>2022-04-27T05:29:50Z</time></trkpt><trkpt lat="33.359861" lon="132.7805771"><ele>481.5347472138554</ele><time>2022-04-27T05:30:17Z</time></trkpt><trkpt lat="33.35997" lon="132.7803984"><ele>478.72738178667333</ele><time>2022-04-27T05:30:28Z</time></trkpt><trkpt lat="33.3600016" lon="132.7801844"><ele>475.99409124497976</ele><time>2022-04-27T05:30:39Z</time></trkpt><trkpt lat="33.3600317" lon="132.7799691"><ele>473.7799870239772</ele><time>2022-04-27T05:30:53Z</time></trkpt><trkpt lat="33.3599346" lon="132.7797761"><ele>471.69955593458894</ele><time>2022-04-27T05:31:09Z</time></trkpt><trkpt lat="33.3598713" lon="132.7795742"><ele>469.0601315172617</ele><time>2022-04-27T05:31:23Z</time></trkpt><trkpt lat="33.3600481" lon="132.7796238"><ele>461.0300527502429</ele><time>2022-04-27T05:31:47Z</time></trkpt><trkpt lat="33.3601798" lon="132.7797822"><ele>456.30535713503997</ele><time>2022-04-27T05:32:01Z</time></trkpt><trkpt lat="33.3603121" lon="132.7799426"><ele>452.8780909223555</ele><time>2022-04-27T05:32:15Z</time></trkpt><trkpt lat="33.3604651" lon="132.7800654"><ele>449.89305297278617</ele><time>2022-04-27T05:32:31Z</time></trkpt><trkpt lat="33.3605586" lon="132.7802522"><ele>445.67621012936905</ele><time>2022-04-27T05:32:43Z</time></trkpt><trkpt lat="33.360491" lon="132.7804578"><ele>442.9605313222553</ele><time>2022-04-27T05:32:56Z</time></trkpt><trkpt lat="33.3604908" lon="132.7806737"><ele>444.7332019177987</ele><time>2022-04-27T05:33:09Z</time></trkpt><trkpt lat="33.3606142" lon="132.7808367"><ele>444.4050037470149</ele><time>2022-04-27T05:33:22Z</time></trkpt><trkpt lat="33.3606918" lon="132.7810353"><ele>441.4850085697226</ele><time>2022-04-27T05:33:37Z</time></trkpt><trkpt lat="33.3606691" lon="132.7812583"><ele>436.8914009024741</ele><time>2022-04-27T05:33:51Z</time></trkpt><trkpt lat="33.3606923" lon="132.7814823"><ele>433.9085566871585</ele><time>2022-04-27T05:34:04Z</time></trkpt><trkpt lat="33.3606862" lon="132.7816994"><ele>429.9767810573423</ele><time>2022-04-27T05:34:16Z</time></trkpt><trkpt lat="33.3608567" lon="132.7816092"><ele>426.0542774999874</ele><time>2022-04-27T05:34:43Z</time></trkpt><trkpt lat="33.3609272" lon="132.7813959"><ele>420.74880373456654</ele><time>2022-04-27T05:34:50Z</time></trkpt><trkpt lat="33.3610148" lon="132.7811988"><ele>416.3092133066882</ele><time>2022-04-27T05:35:01Z</time></trkpt><trkpt lat="33.3610397" lon="132.7809848"><ele>412.9815137080907</ele><time>2022-04-27T05:35:14Z</time></trkpt><trkpt lat="33.3610529" lon="132.7807637"><ele>409.69422791468384</ele><time>2022-04-27T05:35:24Z</time></trkpt><trkpt lat="33.3610853" lon="132.7805479"><ele>406.19852409672177</ele><time>2022-04-27T05:35:36Z</time></trkpt><trkpt lat="33.3611956" lon="132.7803736"><ele>402.0367636744909</ele><time>2022-04-27T05:35:51Z</time></trkpt><trkpt lat="33.3615294" lon="132.7803682"><ele>397.0598354351634</ele><time>2022-04-27T05:36:13Z</time></trkpt><trkpt lat="33.361713" lon="132.7803965"><ele>392.75867493686025</ele><time>2022-04-27T05:36:22Z</time></trkpt><trkpt lat="33.3618272" lon="132.7802262"><ele>388.0811857334235</ele><time>2022-04-27T05:36:37Z</time></trkpt><trkpt lat="33.3619401" lon="132.7800476"><ele>384.4666691127872</ele><time>2022-04-27T05:36:45Z</time></trkpt><trkpt lat="33.3621403" lon="132.7796574"><ele>379.63397046522385</ele><time>2022-04-27T05:37:02Z</time></trkpt><trkpt lat="33.3622921" lon="132.7795398"><ele>375.9864601065572</ele><time>2022-04-27T05:37:16Z</time></trkpt><trkpt lat="33.3622224" lon="132.7793271"><ele>371.784093583445</ele><time>2022-04-27T05:41:08Z</time></trkpt><trkpt lat="33.3623155" lon="132.7795152"><ele>370.6272616990179</ele><time>2022-04-27T05:41:43Z</time></trkpt><trkpt lat="33.3623063" lon="132.7797462"><ele>370.15128149832327</ele><time>2022-04-27T05:42:03Z</time></trkpt><trkpt lat="33.3621792" lon="132.7799261"><ele>369.7365658022979</ele><time>2022-04-27T05:42:19Z</time></trkpt><trkpt lat="33.3621801" lon="132.7801427"><ele>367.34940699412647</ele><time>2022-04-27T05:42:33Z</time></trkpt><trkpt lat="33.3622614" lon="132.7803412"><ele>364.44849559654836</ele><time>2022-04-27T05:42:43Z</time></trkpt><trkpt lat="33.3623626" lon="132.7805211"><ele>361.72087320624934</ele><time>2022-04-27T05:42:55Z</time></trkpt><trkpt lat="33.3622853" lon="132.7807187"><ele>358.8914796940085</ele><time>2022-04-27T05:43:05Z</time></trkpt><trkpt lat="33.3621597" lon="132.7808829"><ele>355.6419688576714</ele><time>2022-04-27T05:43:14Z</time></trkpt><trkpt lat="33.3621081" lon="132.7810915"><ele>352.3512855005525</ele><time>2022-04-27T05:43:25Z</time></trkpt><trkpt lat="33.3621723" lon="132.7812932"><ele>348.79010384299477</ele><time>2022-04-27T05:43:36Z</time></trkpt><trkpt lat="33.3623112" lon="132.7814322"><ele>345.23980909662424</ele><time>2022-04-27T05:43:50Z</time></trkpt><trkpt lat="33.3624446" lon="132.7815789"><ele>342.10364606423394</ele><time>2022-04-27T05:44:03Z</time></trkpt><trkpt lat="33.3625436" lon="132.7817691"><ele>338.18223568188097</ele><time>2022-04-27T05:44:14Z</time></trkpt><trkpt lat="33.3625595" lon="132.7819938"><ele>333.6997688326521</ele><time>2022-04-27T05:44:46Z</time></trkpt><trkpt lat="33.3626501" lon="132.7821832"><ele>328.93117313594206</ele><time>2022-04-27T05:44:59Z</time></trkpt><trkpt lat="33.3626236" lon="132.7819697"><ele>325.50554034237075</ele><time>2022-04-27T05:45:41Z</time></trkpt><trkpt lat="33.3625851" lon="132.7817597"><ele>323.2566530536147</ele><time>2022-04-27T05:45:55Z</time></trkpt><trkpt lat="33.3625843" lon="132.7815448"><ele>321.4898193002115</ele><time>2022-04-27T05:46:09Z</time></trkpt><trkpt lat="33.3626246" lon="132.781334"><ele>319.17732349930355</ele><time>2022-04-27T05:46:36Z</time></trkpt><trkpt lat="33.3627592" lon="132.7814936"><ele>315.913254720078</ele><time>2022-04-27T05:47:11Z</time></trkpt><trkpt lat="33.362788" lon="132.7817095"><ele>312.7231398520816</ele><time>2022-04-27T05:47:24Z</time></trkpt><trkpt lat="33.3628868" lon="132.7819004"><ele>310.0657022740671</ele><time>2022-04-27T05:47:37Z</time></trkpt><trkpt lat="33.362969" lon="132.7821057"><ele>308.3255591051224</ele><time>2022-04-27T05:47:56Z</time></trkpt><trkpt lat="33.3630644" lon="132.7823033"><ele>306.31681391916135</ele><time>2022-04-27T05:48:06Z</time></trkpt><trkpt lat="33.3631741" lon="132.7824789"><ele>304.2465184552488</ele><time>2022-04-27T05:48:16Z</time></trkpt><trkpt lat="33.3632912" lon="132.7826431"><ele>302.60253600152487</ele><time>2022-04-27T05:48:29Z</time></trkpt><trkpt lat="33.3634026" lon="132.7828157"><ele>300.892787852863</ele><time>2022-04-27T05:48:44Z</time></trkpt><trkpt lat="33.3635327" lon="132.7829741"><ele>299.53751187948683</ele><time>2022-04-27T05:48:58Z</time></trkpt><trkpt lat="33.3636587" lon="132.7831363"><ele>298.15144069027684</ele><time>2022-04-27T05:49:11Z</time></trkpt><trkpt lat="33.3635841" lon="132.7833387"><ele>296.4499981220719</ele><time>2022-04-27T05:49:24Z</time></trkpt><trkpt lat="33.3636572" lon="132.7835377"><ele>294.1102585580149</ele><time>2022-04-27T05:49:40Z</time></trkpt><trkpt lat="33.3637871" lon="132.7836983"><ele>290.98329594780324</ele><time>2022-04-27T05:49:57Z</time></trkpt><trkpt lat="33.3636811" lon="132.7838787"><ele>288.07070537870635</ele><time>2022-04-27T05:50:10Z</time></trkpt><trkpt lat="33.363489" lon="132.7839213"><ele>285.1042009814452</ele><time>2022-04-27T05:50:23Z</time></trkpt><trkpt lat="33.3633071" lon="132.7839305"><ele>281.3636288978231</ele><time>2022-04-27T05:50:38Z</time></trkpt><trkpt lat="33.3631581" lon="132.7840628"><ele>278.974486175124</ele><time>2022-04-27T05:51:10Z</time></trkpt><trkpt lat="33.363081" lon="132.7842678"><ele>277.270828460993</ele><time>2022-04-27T05:51:24Z</time></trkpt><trkpt lat="33.3630178" lon="132.7844798"><ele>274.89525376559396</ele><time>2022-04-27T05:51:38Z</time></trkpt><trkpt lat="33.3628578" lon="132.7846085"><ele>273.97050354959435</ele><time>2022-04-27T05:51:49Z</time></trkpt><trkpt lat="33.3626801" lon="132.7846893"><ele>273.7846636375029</ele><time>2022-04-27T05:52:00Z</time></trkpt><trkpt lat="33.362552" lon="132.7848424"><ele>275.68111386950386</ele><time>2022-04-27T05:52:13Z</time></trkpt><trkpt lat="33.3626047" lon="132.7850492"><ele>274.99984343816465</ele><time>2022-04-27T05:52:31Z</time></trkpt><trkpt lat="33.3627075" lon="132.7852336"><ele>273.49684101953926</ele><time>2022-04-27T05:52:44Z</time></trkpt><trkpt lat="33.3628616" lon="132.7853612"><ele>273.47544759469207</ele><time>2022-04-27T05:52:57Z</time></trkpt><trkpt lat="33.3630064" lon="132.7854937"><ele>273.1498424094607</ele><time>2022-04-27T05:53:11Z</time></trkpt><trkpt lat="33.3630756" lon="132.7857049"><ele>273.1195957730136</ele><time>2022-04-27T05:53:23Z</time></trkpt><trkpt lat="33.3631791" lon="132.7858849"><ele>271.67218018465854</ele><time>2022-04-27T05:53:41Z</time></trkpt><trkpt lat="33.3633363" lon="132.7857619"><ele>269.2462024801232</ele><time>2022-04-27T05:53:52Z</time></trkpt><trkpt lat="33.363262" lon="132.7855657"><ele>267.0764115321713</ele><time>2022-04-27T05:54:33Z</time></trkpt><trkpt lat="33.3631545" lon="132.7853851"><ele>265.4293909103956</ele><time>2022-04-27T05:54:48Z</time></trkpt><trkpt lat="33.3630262" lon="132.7852281"><ele>262.55843144915883</ele><time>2022-04-27T05:54:58Z</time></trkpt><trkpt lat="33.3629655" lon="132.7850071"><ele>261.92862040279556</ele><time>2022-04-27T05:55:26Z</time></trkpt><trkpt lat="33.3630264" lon="132.7848007"><ele>257.20508397155646</ele><time>2022-04-27T05:55:34Z</time></trkpt><trkpt lat="33.3631986" lon="132.7847221"><ele>259.3474131473751</ele><time>2022-04-27T05:55:45Z</time></trkpt><trkpt lat="33.3633776" lon="132.7847608"><ele>258.7726541683012</ele><time>2022-04-27T05:55:57Z</time></trkpt><trkpt lat="33.363565" lon="132.7846983"><ele>261.994017613303</ele><time>2022-04-27T05:56:10Z</time></trkpt><trkpt lat="33.3636947" lon="132.7845469"><ele>261.2121528122165</ele><time>2022-04-27T05:56:22Z</time></trkpt><trkpt lat="33.3637772" lon="132.7843554"><ele>260.01663449138863</ele><time>2022-04-27T05:56:45Z</time></trkpt><trkpt lat="33.3638417" lon="132.7845695"><ele>258.3563156637231</ele><time>2022-04-27T05:56:58Z</time></trkpt><trkpt lat="33.3637027" lon="132.7847467"><ele>256.0032813457589</ele><time>2022-04-27T05:57:14Z</time></trkpt><trkpt lat="33.3636492" lon="132.7849759"><ele>253.24637500934838</ele><time>2022-04-27T05:57:38Z</time></trkpt><trkpt lat="33.3635961" lon="132.7851973"><ele>248.8544990413343</ele><time>2022-04-27T05:57:49Z</time></trkpt><trkpt lat="33.3636958" lon="132.7853842"><ele>244.10404369106732</ele><time>2022-04-27T05:58:00Z</time></trkpt><trkpt lat="33.3638591" lon="132.7854941"><ele>243.51225581501933</ele><time>2022-04-27T05:58:14Z</time></trkpt><trkpt lat="33.3639979" lon="132.7856384"><ele>245.26403540197313</ele><time>2022-04-27T05:58:29Z</time></trkpt><trkpt lat="33.3641653" lon="132.7857658"><ele>247.47781793137779</ele><time>2022-04-27T05:58:43Z</time></trkpt><trkpt lat="33.3643026" lon="132.7859086"><ele>246.47336364691932</ele><time>2022-04-27T05:58:56Z</time></trkpt><trkpt lat="33.3644828" lon="132.7859255"><ele>244.84252130156185</ele><time>2022-04-27T05:59:07Z</time></trkpt><trkpt lat="33.3646634" lon="132.7858959"><ele>237.7089938635937</ele><time>2022-04-27T05:59:20Z</time></trkpt><trkpt lat="33.3648435" lon="132.7859599"><ele>234.2489470446743</ele><time>2022-04-27T05:59:32Z</time></trkpt><trkpt lat="33.3650121" lon="132.7860387"><ele>230.82677303645676</ele><time>2022-04-27T05:59:47Z</time></trkpt><trkpt lat="33.3650011" lon="132.7862536"><ele>234.72512196828575</ele><time>2022-04-27T06:00:07Z</time></trkpt><trkpt lat="33.3649258" lon="132.7864568"><ele>234.29021390261286</ele><time>2022-04-27T06:00:20Z</time></trkpt><trkpt lat="33.3649088" lon="132.7866735"><ele>233.81062515934013</ele><time>2022-04-27T06:00:37Z</time></trkpt><trkpt lat="33.3648279" lon="132.7868711"><ele>228.95451132898907</ele><time>2022-04-27T06:00:51Z</time></trkpt><trkpt lat="33.3647915" lon="132.7870857"><ele>226.8821595816505</ele><time>2022-04-27T06:01:03Z</time></trkpt><trkpt lat="33.3647488" lon="132.7872985"><ele>224.29347809003914</ele><time>2022-04-27T06:01:13Z</time></trkpt><trkpt lat="33.3645426" lon="132.7874162"><ele>223.57437296660535</ele><time>2022-04-27T06:01:20Z</time></trkpt><trkpt lat="33.3647063" lon="132.7873225"><ele>220.36521962766577</ele><time>2022-04-27T06:01:38Z</time></trkpt><trkpt lat="33.3647927" lon="132.7871228"><ele>217.96945691096803</ele><time>2022-04-27T06:01:46Z</time></trkpt><trkpt lat="33.3649811" lon="132.7871706"><ele>215.97584365976874</ele><time>2022-04-27T06:02:01Z</time></trkpt><trkpt lat="33.3650653" lon="132.7873791"><ele>214.54492590962494</ele><time>2022-04-27T06:02:11Z</time></trkpt><trkpt lat="33.3651323" lon="132.7875824"><ele>211.29507068575472</ele><time>2022-04-27T06:02:20Z</time></trkpt><trkpt lat="33.365105" lon="132.7877961"><ele>205.90869011159523</ele><time>2022-04-27T06:02:30Z</time></trkpt><trkpt lat="33.3650116" lon="132.7879853"><ele>204.31661153473578</ele><time>2022-04-27T06:02:42Z</time></trkpt><trkpt lat="33.3648917" lon="132.7881488"><ele>204.3212010046569</ele><time>2022-04-27T06:02:53Z</time></trkpt><trkpt lat="33.3648738" lon="132.7883676"><ele>207.0783891558418</ele><time>2022-04-27T06:03:06Z</time></trkpt><trkpt lat="33.3648867" lon="132.7885877"><ele>205.8034490242563</ele><time>2022-04-27T06:03:22Z</time></trkpt><trkpt lat="33.364839" lon="132.7888019"><ele>204.95271189640587</ele><time>2022-04-27T06:03:35Z</time></trkpt><trkpt lat="33.3648973" lon="132.7890059"><ele>202.941810602248</ele><time>2022-04-27T06:03:49Z</time></trkpt><trkpt lat="33.3649445" lon="132.7892186"><ele>201.79987515598282</ele><time>2022-04-27T06:04:03Z</time></trkpt><trkpt lat="33.3649959" lon="132.789432"><ele>199.57521734552702</ele><time>2022-04-27T06:04:16Z</time></trkpt><trkpt lat="33.3648794" lon="132.7896014"><ele>199.73762923851868</ele><time>2022-04-27T06:04:29Z</time></trkpt><trkpt lat="33.3649985" lon="132.7897697"><ele>198.48677510891648</ele><time>2022-04-27T06:04:38Z</time></trkpt><trkpt lat="33.3651416" lon="132.7899146"><ele>198.4863528313257</ele><time>2022-04-27T06:04:50Z</time></trkpt><trkpt lat="33.3653331" lon="132.789904"><ele>197.57580556097915</ele><time>2022-04-27T06:04:58Z</time></trkpt><trkpt lat="33.3655045" lon="132.7900081"><ele>196.92584999106126</ele><time>2022-04-27T06:05:19Z</time></trkpt><trkpt lat="33.3655922" lon="132.7902081"><ele>195.68715086105553</ele><time>2022-04-27T06:05:30Z</time></trkpt><trkpt lat="33.3656369" lon="132.7904253"><ele>194.28362742714</ele><time>2022-04-27T06:05:43Z</time></trkpt><trkpt lat="33.3656171" lon="132.7906429"><ele>194.32502035725187</ele><time>2022-04-27T06:05:55Z</time></trkpt><trkpt lat="33.3655417" lon="132.7908429"><ele>194.44438157793388</ele><time>2022-04-27T06:06:10Z</time></trkpt><trkpt lat="33.3653956" lon="132.7909864"><ele>194.05957456705983</ele><time>2022-04-27T06:06:20Z</time></trkpt></trkseg></trk></gpx>