<?xml version='1.0' encoding='UTF-8'?><gpx creator="YAMAP - https://yamap.com" xsi:schemaLocation="http://www.topografix.com/GPX/1/1 http://www.topografix.com/GPX/1/1/gpx.xsd" version="1.1" xmlns="http://www.topografix.com/GPX/1/1" xmlns:xsi="http://www.w3.org/2001/XMLSchema-instance"><metadata><bounds maxlat="33.7720593" maxlon="133.1474615" minlat="33.7536144" minlon="133.0852057"/></metadata><trk><name>石鎚山・西ノ冠岳・面河の頭・二ノ森・鞍瀬ノ頭</name><number>1</number><trkseg><trkpt lat="33.7546945" lon="133.1471886"><ele>1492.03</ele><time>2022-07-01T22:43:55Z</time></trkpt><trkpt lat="33.7548215" lon="133.1473441"><ele>1492.1799999999998</ele><time>2022-07-01T22:44:10Z</time></trkpt><trkpt lat="33.7549742" lon="133.147461"><ele>1493.1533333333334</ele><time>2022-07-01T22:44:26Z</time></trkpt><trkpt lat="33.7551455" lon="133.1473877"><ele>1493.8400000000001</ele><time>2022-07-01T22:44:55Z</time></trkpt><trkpt lat="33.7552337" lon="133.1471819"><ele>1493.8933333333334</ele><time>2022-07-01T22:45:10Z</time></trkpt><trkpt lat="33.7553202" lon="133.1469751"><ele>1493.6166666666668</ele><time>2022-07-01T22:45:52Z</time></trkpt><trkpt lat="33.7553939" lon="133.1467628"><ele>1494.13</ele><time>2022-07-01T22:46:01Z</time></trkpt><trkpt lat="33.7554926" lon="133.1465697"><ele>1494.8100000000002</ele><time>2022-07-01T22:46:13Z</time></trkpt><trkpt lat="33.7556604" lon="133.1464549"><ele>1494.9633333333331</ele><time>2022-07-01T22:46:26Z</time></trkpt><trkpt lat="33.7558502" lon="133.1463758"><ele>1494.3666666666668</ele><time>2022-07-01T22:46:41Z</time></trkpt><trkpt lat="33.7560383" lon="133.1463327"><ele>1493.92</ele><time>2022-07-01T22:46:55Z</time></trkpt><trkpt lat="33.7562204" lon="133.1463122"><ele>1493.5133333333333</ele><time>2022-07-01T22:47:08Z</time></trkpt><trkpt lat="33.7563689" lon="133.1461792"><ele>1494.3799999999999</ele><time>2022-07-01T22:47:41Z</time></trkpt><trkpt lat="33.7564886" lon="133.1460102"><ele>1496.8866666666665</ele><time>2022-07-01T22:47:58Z</time></trkpt><trkpt lat="33.7566129" lon="133.14585"><ele>1500.92</ele><time>2022-07-01T22:48:14Z</time></trkpt><trkpt lat="33.7567097" lon="133.1456665"><ele>1504.4133333333332</ele><time>2022-07-01T22:48:29Z</time></trkpt><trkpt lat="33.756816" lon="133.1454829"><ele>1508.2866666666669</ele><time>2022-07-01T22:48:45Z</time></trkpt><trkpt lat="33.7569321" lon="133.1453106"><ele>1511.7666666666667</ele><time>2022-07-01T22:48:59Z</time></trkpt><trkpt lat="33.7569554" lon="133.1450767"><ele>1513.25</ele><time>2022-07-01T22:49:32Z</time></trkpt><trkpt lat="33.7570545" lon="133.144883"><ele>1514.5666666666666</ele><time>2022-07-01T22:49:47Z</time></trkpt><trkpt lat="33.7570892" lon="133.1446489"><ele>1512.9433333333334</ele><time>2022-07-01T22:50:02Z</time></trkpt><trkpt lat="33.7571648" lon="133.1444528"><ele>1512.5233333333333</ele><time>2022-07-01T22:50:18Z</time></trkpt><trkpt lat="33.7572713" lon="133.1442755"><ele>1508.0266666666666</ele><time>2022-07-01T22:50:37Z</time></trkpt><trkpt lat="33.7572689" lon="133.1440514"><ele>1504.61</ele><time>2022-07-01T22:50:53Z</time></trkpt><trkpt lat="33.7572159" lon="133.1438364"><ele>1502.3000000000002</ele><time>2022-07-01T22:51:07Z</time></trkpt><trkpt lat="33.7572373" lon="133.1436086"><ele>1503.43</ele><time>2022-07-01T22:51:23Z</time></trkpt><trkpt lat="33.7572659" lon="133.1433889"><ele>1507.03</ele><time>2022-07-01T22:51:37Z</time></trkpt><trkpt lat="33.7573212" lon="133.1431799"><ele>1510.2133333333331</ele><time>2022-07-01T22:51:50Z</time></trkpt><trkpt lat="33.7573699" lon="133.1429666"><ele>1513.22</ele><time>2022-07-01T22:52:03Z</time></trkpt><trkpt lat="33.7574273" lon="133.1427482"><ele>1515.2466666666667</ele><time>2022-07-01T22:52:21Z</time></trkpt><trkpt lat="33.7575171" lon="133.1425577"><ele>1517.5866666666668</ele><time>2022-07-01T22:52:40Z</time></trkpt><trkpt lat="33.7576406" lon="133.1423936"><ele>1518.8666666666668</ele><time>2022-07-01T22:52:57Z</time></trkpt><trkpt lat="33.7577355" lon="133.1422096"><ele>1519.5233333333333</ele><time>2022-07-01T22:53:12Z</time></trkpt><trkpt lat="33.757783" lon="133.1419951"><ele>1519.4766666666667</ele><time>2022-07-01T22:53:28Z</time></trkpt><trkpt lat="33.757836" lon="133.1417822"><ele>1519.4833333333336</ele><time>2022-07-01T22:53:48Z</time></trkpt><trkpt lat="33.7578617" lon="133.1415674"><ele>1519.74</ele><time>2022-07-01T22:54:01Z</time></trkpt><trkpt lat="33.757942" lon="133.141372"><ele>1520.2266666666665</ele><time>2022-07-01T22:54:17Z</time></trkpt><trkpt lat="33.7579978" lon="133.1411484"><ele>1521.2266666666667</ele><time>2022-07-01T22:54:34Z</time></trkpt><trkpt lat="33.7580359" lon="133.1409362"><ele>1521.9733333333334</ele><time>2022-07-01T22:55:12Z</time></trkpt><trkpt lat="33.7581593" lon="133.1407761"><ele>1522.83</ele><time>2022-07-01T22:55:28Z</time></trkpt><trkpt lat="33.75826" lon="133.140585"><ele>1522.6500000000003</ele><time>2022-07-01T22:55:44Z</time></trkpt><trkpt lat="33.7583397" lon="133.1403884"><ele>1522.87</ele><time>2022-07-01T22:55:59Z</time></trkpt><trkpt lat="33.7583631" lon="133.1401696"><ele>1524.7666666666667</ele><time>2022-07-01T22:56:29Z</time></trkpt><trkpt lat="33.7585191" lon="133.1400507"><ele>1526.0933333333332</ele><time>2022-07-01T22:56:41Z</time></trkpt><trkpt lat="33.7586693" lon="133.1399262"><ele>1526.6599999999999</ele><time>2022-07-01T22:56:54Z</time></trkpt><trkpt lat="33.7588256" lon="133.1398128"><ele>1522.6000000000001</ele><time>2022-07-01T22:57:17Z</time></trkpt><trkpt lat="33.7588511" lon="133.1395926"><ele>1523.8500000000001</ele><time>2022-07-01T22:57:33Z</time></trkpt><trkpt lat="33.7590061" lon="133.1394779"><ele>1526.14</ele><time>2022-07-01T22:57:49Z</time></trkpt><trkpt lat="33.7591894" lon="133.1394357"><ele>1531.3533333333332</ele><time>2022-07-01T22:58:03Z</time></trkpt><trkpt lat="33.7593691" lon="133.1394061"><ele>1530.8266666666666</ele><time>2022-07-01T22:58:17Z</time></trkpt><trkpt lat="33.7595178" lon="133.1392812"><ele>1529.39</ele><time>2022-07-01T22:58:31Z</time></trkpt><trkpt lat="33.7596862" lon="133.1392038"><ele>1527.5033333333333</ele><time>2022-07-01T22:58:46Z</time></trkpt><trkpt lat="33.7598713" lon="133.1391734"><ele>1527.78</ele><time>2022-07-01T22:59:02Z</time></trkpt><trkpt lat="33.7600539" lon="133.1391343"><ele>1527.4233333333334</ele><time>2022-07-01T22:59:17Z</time></trkpt><trkpt lat="33.7602389" lon="133.1391105"><ele>1526.756666666667</ele><time>2022-07-01T22:59:30Z</time></trkpt><trkpt lat="33.760412" lon="133.1390317"><ele>1525.8500000000001</ele><time>2022-07-01T22:59:46Z</time></trkpt><trkpt lat="33.7605542" lon="133.1388876"><ele>1526.7733333333333</ele><time>2022-07-01T23:00:10Z</time></trkpt><trkpt lat="33.7606616" lon="133.138705"><ele>1530.3400000000001</ele><time>2022-07-01T23:00:27Z</time></trkpt><trkpt lat="33.7607678" lon="133.1385215"><ele>1534.0866666666668</ele><time>2022-07-01T23:00:44Z</time></trkpt><trkpt lat="33.7609277" lon="133.1384204"><ele>1535.3033333333333</ele><time>2022-07-01T23:01:00Z</time></trkpt><trkpt lat="33.7610639" lon="133.1382584"><ele>1534.4966666666667</ele><time>2022-07-01T23:01:23Z</time></trkpt><trkpt lat="33.7612159" lon="133.1381363"><ele>1533.43</ele><time>2022-07-01T23:01:37Z</time></trkpt><trkpt lat="33.7613431" lon="133.1379817"><ele>1533.0533333333333</ele><time>2022-07-01T23:01:55Z</time></trkpt><trkpt lat="33.7614059" lon="133.1377787"><ele>1533.3100000000002</ele><time>2022-07-01T23:02:15Z</time></trkpt><trkpt lat="33.7614507" lon="133.1375674"><ele>1536.3766666666668</ele><time>2022-07-01T23:02:41Z</time></trkpt><trkpt lat="33.7615392" lon="133.1373668"><ele>1540.0766666666666</ele><time>2022-07-01T23:02:54Z</time></trkpt><trkpt lat="33.7616392" lon="133.1371832"><ele>1541.466666666667</ele><time>2022-07-01T23:03:06Z</time></trkpt><trkpt lat="33.7616495" lon="133.1369579"><ele>1539.7866666666669</ele><time>2022-07-01T23:03:21Z</time></trkpt><trkpt lat="33.7616133" lon="133.1367424"><ele>1537.2300000000002</ele><time>2022-07-01T23:03:41Z</time></trkpt><trkpt lat="33.7615667" lon="133.136531"><ele>1538.6000000000001</ele><time>2022-07-01T23:04:00Z</time></trkpt><trkpt lat="33.7617423" lon="133.1364744"><ele>1536.6200000000001</ele><time>2022-07-01T23:04:22Z</time></trkpt><trkpt lat="33.7618029" lon="133.1362691"><ele>1538.55</ele><time>2022-07-01T23:04:43Z</time></trkpt><trkpt lat="33.7617358" lon="133.136061"><ele>1540.8133333333335</ele><time>2022-07-01T23:04:57Z</time></trkpt><trkpt lat="33.7616816" lon="133.1358527"><ele>1547.2966666666669</ele><time>2022-07-01T23:05:24Z</time></trkpt><trkpt lat="33.7617665" lon="133.1356476"><ele>1550.4966666666667</ele><time>2022-07-01T23:05:41Z</time></trkpt><trkpt lat="33.761753" lon="133.1354261"><ele>1553.1499999999999</ele><time>2022-07-01T23:05:57Z</time></trkpt><trkpt lat="33.7617903" lon="133.1352139"><ele>1557.7833333333335</ele><time>2022-07-01T23:06:19Z</time></trkpt><trkpt lat="33.7619203" lon="133.135055"><ele>1560.3433333333335</ele><time>2022-07-01T23:06:42Z</time></trkpt><trkpt lat="33.7620615" lon="133.134917"><ele>1558.13</ele><time>2022-07-01T23:07:00Z</time></trkpt><trkpt lat="33.7622025" lon="133.1347735"><ele>1554.5566666666666</ele><time>2022-07-01T23:07:16Z</time></trkpt><trkpt lat="33.7623642" lon="133.1346645"><ele>1553.51</ele><time>2022-07-01T23:07:36Z</time></trkpt><trkpt lat="33.7625101" lon="133.1345281"><ele>1556.7366666666667</ele><time>2022-07-01T23:08:06Z</time></trkpt><trkpt lat="33.7626496" lon="133.1343656"><ele>1559.5466666666669</ele><time>2022-07-01T23:08:25Z</time></trkpt><trkpt lat="33.7627447" lon="133.1341811"><ele>1563.6133333333335</ele><time>2022-07-01T23:08:41Z</time></trkpt><trkpt lat="33.7629173" lon="133.1341134"><ele>1565.4766666666667</ele><time>2022-07-01T23:08:58Z</time></trkpt><trkpt lat="33.7630558" lon="133.1339668"><ele>1565.6233333333332</ele><time>2022-07-01T23:09:15Z</time></trkpt><trkpt lat="33.7632362" lon="133.1339287"><ele>1563.4166666666667</ele><time>2022-07-01T23:09:31Z</time></trkpt><trkpt lat="33.7634188" lon="133.1339582"><ele>1561.0033333333333</ele><time>2022-07-01T23:09:46Z</time></trkpt><trkpt lat="33.7635763" lon="133.133851"><ele>1558.7533333333333</ele><time>2022-07-01T23:10:21Z</time></trkpt><trkpt lat="33.7637503" lon="133.133775"><ele>1558.926666666667</ele><time>2022-07-01T23:10:35Z</time></trkpt><trkpt lat="33.7638987" lon="133.1336507"><ele>1561.2900000000002</ele><time>2022-07-01T23:10:50Z</time></trkpt><trkpt lat="33.7640357" lon="133.1335093"><ele>1565.3400000000001</ele><time>2022-07-01T23:11:08Z</time></trkpt><trkpt lat="33.7641105" lon="133.1333095"><ele>1568.7333333333333</ele><time>2022-07-01T23:11:35Z</time></trkpt><trkpt lat="33.76424" lon="133.1331513"><ele>1573.256666666667</ele><time>2022-07-01T23:11:55Z</time></trkpt><trkpt lat="33.764389" lon="133.1330044"><ele>1577.3400000000001</ele><time>2022-07-01T23:12:33Z</time></trkpt><trkpt lat="33.7645247" lon="133.1328589"><ele>1582.7</ele><time>2022-07-01T23:12:54Z</time></trkpt><trkpt lat="33.7646262" lon="133.1326799"><ele>1586.7533333333333</ele><time>2022-07-01T23:13:14Z</time></trkpt><trkpt lat="33.7647629" lon="133.132539"><ele>1592.33</ele><time>2022-07-01T23:13:34Z</time></trkpt><trkpt lat="33.7648931" lon="133.1323872"><ele>1597.9733333333334</ele><time>2022-07-01T23:13:52Z</time></trkpt><trkpt lat="33.7649372" lon="133.1321721"><ele>1601.8133333333335</ele><time>2022-07-01T23:14:23Z</time></trkpt><trkpt lat="33.7649392" lon="133.1319487"><ele>1606.1033333333332</ele><time>2022-07-01T23:14:49Z</time></trkpt><trkpt lat="33.7648211" lon="133.1317843"><ele>1609.3033333333333</ele><time>2022-07-01T23:15:19Z</time></trkpt><trkpt lat="33.7647855" lon="133.1315678"><ele>1613.456666666667</ele><time>2022-07-01T23:15:44Z</time></trkpt><trkpt lat="33.7648239" lon="133.131354"><ele>1619.3100000000002</ele><time>2022-07-01T23:16:07Z</time></trkpt><trkpt lat="33.764808" lon="133.1311332"><ele>1624.8266666666666</ele><time>2022-07-01T23:16:41Z</time></trkpt><trkpt lat="33.7648077" lon="133.1309148"><ele>1630.3233333333335</ele><time>2022-07-01T23:17:00Z</time></trkpt><trkpt lat="33.7649173" lon="133.1307395"><ele>1631.8633333333335</ele><time>2022-07-01T23:17:19Z</time></trkpt><trkpt lat="33.7649068" lon="133.130509"><ele>1632.54</ele><time>2022-07-01T23:17:34Z</time></trkpt><trkpt lat="33.7650023" lon="133.1303213"><ele>1633.0333333333335</ele><time>2022-07-01T23:17:50Z</time></trkpt><trkpt lat="33.7651312" lon="133.1301696"><ele>1633.6166666666668</ele><time>2022-07-01T23:18:06Z</time></trkpt><trkpt lat="33.765194" lon="133.1299665"><ele>1634.22</ele><time>2022-07-01T23:18:21Z</time></trkpt><trkpt lat="33.7653053" lon="133.1297896"><ele>1634.8566666666666</ele><time>2022-07-01T23:18:53Z</time></trkpt><trkpt lat="33.7652917" lon="133.1295595"><ele>1634.1233333333332</ele><time>2022-07-01T23:19:17Z</time></trkpt><trkpt lat="33.7653519" lon="133.1293542"><ele>1635.1133333333335</ele><time>2022-07-01T23:19:32Z</time></trkpt><trkpt lat="33.7653593" lon="133.1291322"><ele>1636.26</ele><time>2022-07-01T23:20:04Z</time></trkpt><trkpt lat="33.7654382" lon="133.1289301"><ele>1640.07</ele><time>2022-07-01T23:20:26Z</time></trkpt><trkpt lat="33.7654614" lon="133.1287127"><ele>1645.5933333333335</ele><time>2022-07-01T23:20:46Z</time></trkpt><trkpt lat="33.7654422" lon="133.1284915"><ele>1653.2600000000002</ele><time>2022-07-01T23:21:14Z</time></trkpt><trkpt lat="33.76538" lon="133.1282824"><ele>1661.78</ele><time>2022-07-01T23:21:40Z</time></trkpt><trkpt lat="33.7654237" lon="133.1280606"><ele>1666.05</ele><time>2022-07-01T23:22:17Z</time></trkpt><trkpt lat="33.7655306" lon="133.1278695"><ele>1667.6533333333334</ele><time>2022-07-01T23:22:41Z</time></trkpt><trkpt lat="33.765691" lon="133.1277414"><ele>1665.05</ele><time>2022-07-01T23:23:06Z</time></trkpt><trkpt lat="33.7657182" lon="133.1275212"><ele>1663.08</ele><time>2022-07-01T23:23:19Z</time></trkpt><trkpt lat="33.7657529" lon="133.127303"><ele>1659.4533333333336</ele><time>2022-07-01T23:23:41Z</time></trkpt><trkpt lat="33.765839" lon="133.127107"><ele>1656.8033333333333</ele><time>2022-07-01T23:24:03Z</time></trkpt><trkpt lat="33.7658589" lon="133.1268904"><ele>1653.3999999999999</ele><time>2022-07-01T23:24:23Z</time></trkpt><trkpt lat="33.7659739" lon="133.1267185"><ele>1651.2700000000002</ele><time>2022-07-01T23:24:44Z</time></trkpt><trkpt lat="33.7661466" lon="133.1266305"><ele>1650.2066666666667</ele><time>2022-07-01T23:25:05Z</time></trkpt><trkpt lat="33.7663008" lon="133.1265179"><ele>1650.6599999999999</ele><time>2022-07-01T23:25:21Z</time></trkpt><trkpt lat="33.7664306" lon="133.1263663"><ele>1651.6166666666668</ele><time>2022-07-01T23:25:39Z</time></trkpt><trkpt lat="33.766543" lon="133.1261802"><ele>1652.2766666666666</ele><time>2022-07-01T23:25:58Z</time></trkpt><trkpt lat="33.7665792" lon="133.125967"><ele>1652.2700000000002</ele><time>2022-07-01T23:26:15Z</time></trkpt><trkpt lat="33.766566" lon="133.1257495"><ele>1652.216666666667</ele><time>2022-07-01T23:26:36Z</time></trkpt><trkpt lat="33.7665063" lon="133.125539"><ele>1649.0966666666666</ele><time>2022-07-01T23:26:51Z</time></trkpt><trkpt lat="33.7666666" lon="133.1254313"><ele>1649.1433333333334</ele><time>2022-07-01T23:27:07Z</time></trkpt><trkpt lat="33.7667669" lon="133.1252361"><ele>1648.95</ele><time>2022-07-01T23:27:23Z</time></trkpt><trkpt lat="33.7668292" lon="133.1250274"><ele>1651.3233333333335</ele><time>2022-07-01T23:27:39Z</time></trkpt><trkpt lat="33.76691" lon="133.1248284"><ele>1650.68</ele><time>2022-07-01T23:27:55Z</time></trkpt><trkpt lat="33.7669943" lon="133.1246355"><ele>1650.32</ele><time>2022-07-01T23:28:14Z</time></trkpt><trkpt lat="33.7670452" lon="133.1244249"><ele>1650.4133333333332</ele><time>2022-07-01T23:28:31Z</time></trkpt><trkpt lat="33.7670862" lon="133.1242146"><ele>1650.8100000000002</ele><time>2022-07-01T23:28:48Z</time></trkpt><trkpt lat="33.7670824" lon="133.1239939"><ele>1651.9033333333334</ele><time>2022-07-01T23:29:04Z</time></trkpt><trkpt lat="33.766898" lon="133.1240069"><ele>1652.2700000000002</ele><time>2022-07-01T23:29:35Z</time></trkpt><trkpt lat="33.7668185" lon="133.1238048"><ele>1654.63</ele><time>2022-07-01T23:29:55Z</time></trkpt><trkpt lat="33.7668347" lon="133.1235892"><ele>1657.4733333333334</ele><time>2022-07-01T23:30:16Z</time></trkpt><trkpt lat="33.76669" lon="133.1234383"><ele>1661.3133333333335</ele><time>2022-07-01T23:30:33Z</time></trkpt><trkpt lat="33.7665371" lon="133.1233127"><ele>1661.426666666667</ele><time>2022-07-01T23:30:51Z</time></trkpt><trkpt lat="33.7665122" lon="133.1230739"><ele>1662.9566666666667</ele><time>2022-07-01T23:31:16Z</time></trkpt><trkpt lat="33.7666149" lon="133.1228842"><ele>1665.3666666666668</ele><time>2022-07-01T23:31:29Z</time></trkpt><trkpt lat="33.766664" lon="133.1226551"><ele>1667.6933333333334</ele><time>2022-07-01T23:31:41Z</time></trkpt><trkpt lat="33.7666221" lon="133.122444"><ele>1669.0166666666667</ele><time>2022-07-01T23:32:00Z</time></trkpt><trkpt lat="33.7667295" lon="133.1222662"><ele>1667.3833333333332</ele><time>2022-07-01T23:32:18Z</time></trkpt><trkpt lat="33.7668067" lon="133.1220656"><ele>1663.4399999999998</ele><time>2022-07-01T23:32:43Z</time></trkpt><trkpt lat="33.7669188" lon="133.1218932"><ele>1656.9833333333336</ele><time>2022-07-01T23:33:06Z</time></trkpt><trkpt lat="33.7668916" lon="133.1216709"><ele>1654.7533333333333</ele><time>2022-07-01T23:33:23Z</time></trkpt><trkpt lat="33.7669801" lon="133.1214788"><ele>1657.2933333333333</ele><time>2022-07-01T23:33:44Z</time></trkpt><trkpt lat="33.7670938" lon="133.12131"><ele>1660.0</ele><time>2022-07-01T23:34:07Z</time></trkpt><trkpt lat="33.7671073" lon="133.1210942"><ele>1662.5966666666666</ele><time>2022-07-01T23:34:57Z</time></trkpt><trkpt lat="33.7671572" lon="133.1208728"><ele>1668.4766666666667</ele><time>2022-07-01T23:35:27Z</time></trkpt><trkpt lat="33.7672424" lon="133.1206825"><ele>1674.506666666667</ele><time>2022-07-01T23:35:58Z</time></trkpt><trkpt lat="33.767421" lon="133.1206247"><ele>1678.3633333333335</ele><time>2022-07-01T23:36:18Z</time></trkpt><trkpt lat="33.7675451" lon="133.1204655"><ele>1678.6966666666667</ele><time>2022-07-01T23:36:47Z</time></trkpt><trkpt lat="33.7676043" lon="133.12026"><ele>1681.9766666666667</ele><time>2022-07-01T23:37:30Z</time></trkpt><trkpt lat="33.7677871" lon="133.1202519"><ele>1683.9133333333336</ele><time>2022-07-01T23:39:13Z</time></trkpt><trkpt lat="33.7679569" lon="133.1201462"><ele>1684.6533333333334</ele><time>2022-07-01T23:39:38Z</time></trkpt><trkpt lat="33.7680628" lon="133.1199574"><ele>1684.2033333333336</ele><time>2022-07-01T23:40:01Z</time></trkpt><trkpt lat="33.7679795" lon="133.1197577"><ele>1686.9366666666667</ele><time>2022-07-01T23:40:19Z</time></trkpt><trkpt lat="33.7678667" lon="133.1195646"><ele>1692.2266666666667</ele><time>2022-07-01T23:40:39Z</time></trkpt><trkpt lat="33.7678528" lon="133.1193369"><ele>1693.7766666666666</ele><time>2022-07-01T23:41:03Z</time></trkpt><trkpt lat="33.7680034" lon="133.1192121"><ele>1691.1466666666665</ele><time>2022-07-01T23:41:44Z</time></trkpt><trkpt lat="33.7680533" lon="133.1190023"><ele>1687.0133333333333</ele><time>2022-07-01T23:41:58Z</time></trkpt><trkpt lat="33.7681063" lon="133.1187898"><ele>1684.03</ele><time>2022-07-01T23:42:11Z</time></trkpt><trkpt lat="33.7680593" lon="133.1185766"><ele>1687.3233333333335</ele><time>2022-07-01T23:42:29Z</time></trkpt><trkpt lat="33.7680688" lon="133.1183575"><ele>1690.9333333333334</ele><time>2022-07-01T23:42:50Z</time></trkpt><trkpt lat="33.7681391" lon="133.1181546"><ele>1695.006666666667</ele><time>2022-07-01T23:43:29Z</time></trkpt><trkpt lat="33.7682452" lon="133.1179766"><ele>1693.5533333333333</ele><time>2022-07-01T23:43:50Z</time></trkpt><trkpt lat="33.7683024" lon="133.1177675"><ele>1692.3300000000002</ele><time>2022-07-01T23:44:22Z</time></trkpt><trkpt lat="33.7684697" lon="133.1176742"><ele>1693.17</ele><time>2022-07-01T23:44:42Z</time></trkpt><trkpt lat="33.7685678" lon="133.1174924"><ele>1698.5333333333335</ele><time>2022-07-01T23:45:13Z</time></trkpt><trkpt lat="33.76857" lon="133.1172759"><ele>1706.9333333333334</ele><time>2022-07-01T23:46:06Z</time></trkpt><trkpt lat="33.7687402" lon="133.1171957"><ele>1711.6466666666668</ele><time>2022-07-01T23:46:26Z</time></trkpt><trkpt lat="33.7687587" lon="133.1169796"><ele>1714.716666666667</ele><time>2022-07-01T23:47:09Z</time></trkpt><trkpt lat="33.7687911" lon="133.1167472"><ele>1717.716666666667</ele><time>2022-07-01T23:47:42Z</time></trkpt><trkpt lat="33.7688636" lon="133.1165437"><ele>1724.3766666666668</ele><time>2022-07-01T23:48:22Z</time></trkpt><trkpt lat="33.7690236" lon="133.1164404"><ele>1731.2666666666664</ele><time>2022-07-01T23:49:34Z</time></trkpt><trkpt lat="33.7691366" lon="133.1162695"><ele>1736.3333333333333</ele><time>2022-07-01T23:50:00Z</time></trkpt><trkpt lat="33.7692282" lon="133.1160827"><ele>1741.5033333333333</ele><time>2022-07-01T23:50:25Z</time></trkpt><trkpt lat="33.7693134" lon="133.115891"><ele>1744.1833333333334</ele><time>2022-07-01T23:51:01Z</time></trkpt><trkpt lat="33.7693517" lon="133.1156786"><ele>1747.1033333333335</ele><time>2022-07-01T23:52:05Z</time></trkpt><trkpt lat="33.7694438" lon="133.1154927"><ele>1752.7133333333334</ele><time>2022-07-01T23:52:25Z</time></trkpt><trkpt lat="33.7696265" lon="133.1154924"><ele>1757.89</ele><time>2022-07-01T23:52:48Z</time></trkpt><trkpt lat="33.7697904" lon="133.115385"><ele>1763.2866666666666</ele><time>2022-07-01T23:53:33Z</time></trkpt><trkpt lat="33.7699648" lon="133.1153114"><ele>1767.0633333333333</ele><time>2022-07-01T23:53:54Z</time></trkpt><trkpt lat="33.7701168" lon="133.1151921"><ele>1773.6833333333334</ele><time>2022-07-01T23:54:23Z</time></trkpt><trkpt lat="33.770271" lon="133.1150786"><ele>1779.1899999999998</ele><time>2022-07-01T23:54:48Z</time></trkpt><trkpt lat="33.7703811" lon="133.1149018"><ele>1785.6333333333332</ele><time>2022-07-01T23:55:10Z</time></trkpt><trkpt lat="33.7705597" lon="133.1148412"><ele>1790.7633333333333</ele><time>2022-07-01T23:55:39Z</time></trkpt><trkpt lat="33.7704407" lon="133.1146759"><ele>1799.8666666666668</ele><time>2022-07-01T23:56:11Z</time></trkpt><trkpt lat="33.770331" lon="133.1145039"><ele>1809.4633333333334</ele><time>2022-07-02T00:03:35Z</time></trkpt><trkpt lat="33.7704012" lon="133.1142977"><ele>1819.3500000000001</ele><time>2022-07-02T00:04:05Z</time></trkpt><trkpt lat="33.7705376" lon="133.114154"><ele>1820.5666666666666</ele><time>2022-07-02T00:04:26Z</time></trkpt><trkpt lat="33.7704242" lon="133.1139763"><ele>1824.5600000000002</ele><time>2022-07-02T00:05:26Z</time></trkpt><trkpt lat="33.7702852" lon="133.1138327"><ele>1833.8833333333334</ele><time>2022-07-02T00:05:51Z</time></trkpt><trkpt lat="33.7702319" lon="133.1136201"><ele>1845.3033333333333</ele><time>2022-07-02T00:06:35Z</time></trkpt><trkpt lat="33.770143" lon="133.113428"><ele>1854.83</ele><time>2022-07-02T00:07:45Z</time></trkpt><trkpt lat="33.7701088" lon="133.113651"><ele>1860.1733333333334</ele><time>2022-07-02T00:10:09Z</time></trkpt><trkpt lat="33.7700083" lon="133.1138321"><ele>1870.1000000000001</ele><time>2022-07-02T00:11:06Z</time></trkpt><trkpt lat="33.769881" lon="133.1139916"><ele>1874.6633333333332</ele><time>2022-07-02T00:11:21Z</time></trkpt><trkpt lat="33.7699247" lon="133.1142024"><ele>1875.2533333333333</ele><time>2022-07-02T00:12:11Z</time></trkpt><trkpt lat="33.7697492" lon="133.1142537"><ele>1874.8166666666666</ele><time>2022-07-02T00:12:30Z</time></trkpt><trkpt lat="33.7696433" lon="133.1140783"><ele>1881.4233333333334</ele><time>2022-07-02T00:13:08Z</time></trkpt><trkpt lat="33.7696102" lon="133.1138596"><ele>1893.7133333333334</ele><time>2022-07-02T00:13:44Z</time></trkpt><trkpt lat="33.7696685" lon="133.1136517"><ele>1903.24</ele><time>2022-07-02T00:14:01Z</time></trkpt><trkpt lat="33.7695489" lon="133.1134863"><ele>1913.2766666666666</ele><time>2022-07-02T00:14:40Z</time></trkpt><trkpt lat="33.7695889" lon="133.1132722"><ele>1917.9666666666665</ele><time>2022-07-02T00:16:37Z</time></trkpt><trkpt lat="33.7697167" lon="133.1131197"><ele>1920.7933333333333</ele><time>2022-07-02T00:17:09Z</time></trkpt><trkpt lat="33.7697811" lon="133.1129126"><ele>1916.2233333333334</ele><time>2022-07-02T00:17:57Z</time></trkpt><trkpt lat="33.7698964" lon="133.11274"><ele>1910.7833333333335</ele><time>2022-07-02T00:18:19Z</time></trkpt><trkpt lat="33.7700099" lon="133.1125641"><ele>1906.7466666666667</ele><time>2022-07-02T00:18:38Z</time></trkpt><trkpt lat="33.770153" lon="133.1124266"><ele>1898.8066666666666</ele><time>2022-07-02T00:19:09Z</time></trkpt><trkpt lat="33.7702936" lon="133.1122796"><ele>1891.0</ele><time>2022-07-02T00:19:53Z</time></trkpt><trkpt lat="33.7704599" lon="133.112191"><ele>1883.49</ele><time>2022-07-02T00:20:11Z</time></trkpt><trkpt lat="33.770513" lon="133.1119713"><ele>1878.5733333333335</ele><time>2022-07-02T00:22:03Z</time></trkpt><trkpt lat="33.7706522" lon="133.1118252"><ele>1875.8766666666668</ele><time>2022-07-02T00:22:44Z</time></trkpt><trkpt lat="33.7707114" lon="133.1116171"><ele>1871.346666666667</ele><time>2022-07-02T00:23:32Z</time></trkpt><trkpt lat="33.7708696" lon="133.1115074"><ele>1870.2666666666667</ele><time>2022-07-02T00:23:47Z</time></trkpt><trkpt lat="33.7709699" lon="133.1113229"><ele>1871.5133333333333</ele><time>2022-07-02T00:24:06Z</time></trkpt><trkpt lat="33.7710212" lon="133.1110981"><ele>1876.39</ele><time>2022-07-02T00:24:22Z</time></trkpt><trkpt lat="33.7708382" lon="133.1110888"><ele>1876.0266666666666</ele><time>2022-07-02T00:25:06Z</time></trkpt><trkpt lat="33.7708756" lon="133.1108695"><ele>1875.5600000000002</ele><time>2022-07-02T00:25:34Z</time></trkpt><trkpt lat="33.7709397" lon="133.1106589"><ele>1872.4566666666667</ele><time>2022-07-02T00:26:08Z</time></trkpt><trkpt lat="33.7710393" lon="133.1104728"><ele>1874.3266666666666</ele><time>2022-07-02T00:26:26Z</time></trkpt><trkpt lat="33.7710315" lon="133.110249"><ele>1870.0866666666668</ele><time>2022-07-02T00:27:18Z</time></trkpt><trkpt lat="33.7710658" lon="133.1100313"><ele>1864.243333333333</ele><time>2022-07-02T00:27:31Z</time></trkpt><trkpt lat="33.7711077" lon="133.1098136"><ele>1855.8333333333333</ele><time>2022-07-02T00:27:47Z</time></trkpt><trkpt lat="33.7710476" lon="133.1096058"><ele>1848.3633333333335</ele><time>2022-07-02T00:28:03Z</time></trkpt><trkpt lat="33.7712017" lon="133.1094837"><ele>1845.32</ele><time>2022-07-02T00:28:21Z</time></trkpt><trkpt lat="33.7713764" lon="133.1094298"><ele>1847.92</ele><time>2022-07-02T00:28:32Z</time></trkpt><trkpt lat="33.7715508" lon="133.1093674"><ele>1855.8766666666668</ele><time>2022-07-02T00:28:45Z</time></trkpt><trkpt lat="33.7717196" lon="133.1092865"><ele>1863.7766666666666</ele><time>2022-07-02T00:29:00Z</time></trkpt><trkpt lat="33.7718441" lon="133.10913"><ele>1867.8266666666668</ele><time>2022-07-02T00:29:18Z</time></trkpt><trkpt lat="33.7719405" lon="133.1089467"><ele>1869.2699999999998</ele><time>2022-07-02T00:29:49Z</time></trkpt><trkpt lat="33.7720593" lon="133.1087821"><ele>1870.6833333333334</ele><time>2022-07-02T00:30:17Z</time></trkpt><trkpt lat="33.772043" lon="133.1085622"><ele>1871.08</ele><time>2022-07-02T00:30:39Z</time></trkpt><trkpt lat="33.7719849" lon="133.1083575"><ele>1870.4533333333331</ele><time>2022-07-02T00:30:53Z</time></trkpt><trkpt lat="33.7718398" lon="133.1082189"><ele>1865.1499999999999</ele><time>2022-07-02T00:31:26Z</time></trkpt><trkpt lat="33.7719125" lon="133.1080175"><ele>1862.51</ele><time>2022-07-02T00:31:36Z</time></trkpt><trkpt lat="33.771907" lon="133.1077999"><ele>1862.0333333333335</ele><time>2022-07-02T00:31:50Z</time></trkpt><trkpt lat="33.7718313" lon="133.1075928"><ele>1863.8033333333333</ele><time>2022-07-02T00:32:05Z</time></trkpt><trkpt lat="33.7718182" lon="133.1073752"><ele>1864.4666666666665</ele><time>2022-07-02T00:32:22Z</time></trkpt><trkpt lat="33.7717507" lon="133.1071737"><ele>1864.506666666667</ele><time>2022-07-02T00:32:40Z</time></trkpt><trkpt lat="33.7717697" lon="133.1069561"><ele>1866.9133333333332</ele><time>2022-07-02T00:33:00Z</time></trkpt><trkpt lat="33.7716864" lon="133.1067609"><ele>1867.6266666666668</ele><time>2022-07-02T00:33:24Z</time></trkpt><trkpt lat="33.7716194" lon="133.1065543"><ele>1867.92</ele><time>2022-07-02T00:33:40Z</time></trkpt><trkpt lat="33.7715054" lon="133.1063853"><ele>1864.3333333333333</ele><time>2022-07-02T00:34:00Z</time></trkpt><trkpt lat="33.7714603" lon="133.1061758"><ele>1861.3466666666666</ele><time>2022-07-02T00:34:19Z</time></trkpt><trkpt lat="33.7714054" lon="133.1059597"><ele>1856.7033333333336</ele><time>2022-07-02T00:34:44Z</time></trkpt><trkpt lat="33.771456" lon="133.1057502"><ele>1855.2133333333334</ele><time>2022-07-02T00:35:08Z</time></trkpt><trkpt lat="33.7714291" lon="133.1055286"><ele>1851.9733333333334</ele><time>2022-07-02T00:35:28Z</time></trkpt><trkpt lat="33.7714087" lon="133.10531"><ele>1851.6766666666665</ele><time>2022-07-02T00:36:03Z</time></trkpt><trkpt lat="33.7712911" lon="133.1051406"><ele>1847.9233333333334</ele><time>2022-07-02T00:36:41Z</time></trkpt><trkpt lat="33.7711586" lon="133.1049853"><ele>1845.2633333333333</ele><time>2022-07-02T00:37:14Z</time></trkpt><trkpt lat="33.7711055" lon="133.1047744"><ele>1841.5900000000001</ele><time>2022-07-02T00:37:53Z</time></trkpt><trkpt lat="33.7709855" lon="133.1046112"><ele>1839.1933333333334</ele><time>2022-07-02T00:38:16Z</time></trkpt><trkpt lat="33.7708465" lon="133.1044575"><ele>1837.3533333333332</ele><time>2022-07-02T00:39:02Z</time></trkpt><trkpt lat="33.7707025" lon="133.1043259"><ele>1836.4733333333334</ele><time>2022-07-02T00:39:23Z</time></trkpt><trkpt lat="33.7706079" lon="133.1041374"><ele>1837.82</ele><time>2022-07-02T00:39:43Z</time></trkpt><trkpt lat="33.7704809" lon="133.1039832"><ele>1839.1866666666665</ele><time>2022-07-02T00:40:03Z</time></trkpt><trkpt lat="33.7703027" lon="133.1040178"><ele>1837.3400000000001</ele><time>2022-07-02T00:40:59Z</time></trkpt><trkpt lat="33.7701399" lon="133.1039182"><ele>1833.9133333333332</ele><time>2022-07-02T00:41:13Z</time></trkpt><trkpt lat="33.7700409" lon="133.1037238"><ele>1833.29</ele><time>2022-07-02T00:41:26Z</time></trkpt><trkpt lat="33.7698969" lon="133.1035905"><ele>1835.3166666666666</ele><time>2022-07-02T00:41:57Z</time></trkpt><trkpt lat="33.7697292" lon="133.1035068"><ele>1838.42</ele><time>2022-07-02T00:42:24Z</time></trkpt><trkpt lat="33.7695451" lon="133.1034576"><ele>1839.4766666666667</ele><time>2022-07-02T00:42:50Z</time></trkpt><trkpt lat="33.7693726" lon="133.103378"><ele>1838.8300000000002</ele><time>2022-07-02T00:43:38Z</time></trkpt><trkpt lat="33.7693195" lon="133.1031682"><ele>1843.6733333333334</ele><time>2022-07-02T00:46:21Z</time></trkpt><trkpt lat="33.7691838" lon="133.1030142"><ele>1850.6066666666668</ele><time>2022-07-02T00:46:52Z</time></trkpt><trkpt lat="33.7689974" lon="133.1030047"><ele>1852.6633333333332</ele><time>2022-07-02T00:47:14Z</time></trkpt><trkpt lat="33.7688284" lon="133.1029205"><ele>1847.8999999999999</ele><time>2022-07-02T00:47:33Z</time></trkpt><trkpt lat="33.7686502" lon="133.1028712"><ele>1837.57</ele><time>2022-07-02T00:48:08Z</time></trkpt><trkpt lat="33.7684763" lon="133.1028141"><ele>1830.8466666666666</ele><time>2022-07-02T00:49:03Z</time></trkpt><trkpt lat="33.7683035" lon="133.1027425"><ele>1824.46</ele><time>2022-07-02T00:49:15Z</time></trkpt><trkpt lat="33.7681302" lon="133.1026602"><ele>1819.4866666666667</ele><time>2022-07-02T00:49:31Z</time></trkpt><trkpt lat="33.7679408" lon="133.1026024"><ele>1817.47</ele><time>2022-07-02T00:49:48Z</time></trkpt><trkpt lat="33.7677873" lon="133.102469"><ele>1817.2066666666667</ele><time>2022-07-02T00:50:17Z</time></trkpt><trkpt lat="33.7676351" lon="133.1023317"><ele>1818.9633333333334</ele><time>2022-07-02T00:50:43Z</time></trkpt><trkpt lat="33.7674872" lon="133.1022065"><ele>1818.426666666667</ele><time>2022-07-02T00:51:25Z</time></trkpt><trkpt lat="33.7673181" lon="133.1020832"><ele>1813.1266666666668</ele><time>2022-07-02T00:51:36Z</time></trkpt><trkpt lat="33.7671568" lon="133.1021881"><ele>1807.1333333333332</ele><time>2022-07-02T00:51:46Z</time></trkpt><trkpt lat="33.7670228" lon="133.1020387"><ele>1802.04</ele><time>2022-07-02T00:52:03Z</time></trkpt><trkpt lat="33.7668671" lon="133.1019283"><ele>1796.3933333333334</ele><time>2022-07-02T00:52:16Z</time></trkpt><trkpt lat="33.7667199" lon="133.1017975"><ele>1788.36</ele><time>2022-07-02T00:52:35Z</time></trkpt><trkpt lat="33.7665435" lon="133.101748"><ele>1779.9233333333334</ele><time>2022-07-02T00:52:51Z</time></trkpt><trkpt lat="33.7664225" lon="133.1019269"><ele>1778.4433333333334</ele><time>2022-07-02T00:53:06Z</time></trkpt><trkpt lat="33.7662494" lon="133.1018471"><ele>1778.1000000000001</ele><time>2022-07-02T00:54:13Z</time></trkpt><trkpt lat="33.7660917" lon="133.1017363"><ele>1779.1000000000001</ele><time>2022-07-02T00:54:31Z</time></trkpt><trkpt lat="33.7659377" lon="133.1016015"><ele>1779.9366666666667</ele><time>2022-07-02T00:55:35Z</time></trkpt><trkpt lat="33.7657807" lon="133.1014915"><ele>1781.18</ele><time>2022-07-02T00:55:52Z</time></trkpt><trkpt lat="33.7656061" lon="133.1013853"><ele>1782.46</ele><time>2022-07-02T00:56:15Z</time></trkpt><trkpt lat="33.7654119" lon="133.1014019"><ele>1782.1000000000001</ele><time>2022-07-02T00:56:34Z</time></trkpt><trkpt lat="33.7652472" lon="133.1014917"><ele>1786.07</ele><time>2022-07-02T00:57:19Z</time></trkpt><trkpt lat="33.7650613" lon="133.1014913"><ele>1792.8766666666668</ele><time>2022-07-02T00:57:43Z</time></trkpt><trkpt lat="33.7648809" lon="133.1014672"><ele>1800.1233333333337</ele><time>2022-07-02T00:58:27Z</time></trkpt><trkpt lat="33.7646956" lon="133.1015013"><ele>1804.4766666666667</ele><time>2022-07-02T00:58:56Z</time></trkpt><trkpt lat="33.764509" lon="133.101494"><ele>1808.006666666667</ele><time>2022-07-02T00:59:15Z</time></trkpt><trkpt lat="33.7643613" lon="133.1013671"><ele>1812.2333333333333</ele><time>2022-07-02T00:59:32Z</time></trkpt><trkpt lat="33.7641811" lon="133.1013151"><ele>1815.6499999999999</ele><time>2022-07-02T00:59:58Z</time></trkpt><trkpt lat="33.7640122" lon="133.1012218"><ele>1815.9099999999999</ele><time>2022-07-02T01:00:32Z</time></trkpt><trkpt lat="33.763831" lon="133.1012526"><ele>1813.7766666666666</ele><time>2022-07-02T01:00:51Z</time></trkpt><trkpt lat="33.763644" lon="133.1012147"><ele>1812.1133333333335</ele><time>2022-07-02T01:01:24Z</time></trkpt><trkpt lat="33.7634642" lon="133.1011609"><ele>1812.0433333333333</ele><time>2022-07-02T01:02:08Z</time></trkpt><trkpt lat="33.7633435" lon="133.1009963"><ele>1812.9533333333331</ele><time>2022-07-02T01:02:23Z</time></trkpt><trkpt lat="33.7631575" lon="133.1010367"><ele>1815.3100000000002</ele><time>2022-07-02T01:02:45Z</time></trkpt><trkpt lat="33.763113" lon="133.1008261"><ele>1819.5</ele><time>2022-07-02T01:03:36Z</time></trkpt><trkpt lat="33.7630267" lon="133.1006336"><ele>1823.7866666666669</ele><time>2022-07-02T01:04:06Z</time></trkpt><trkpt lat="33.7628728" lon="133.1005139"><ele>1829.47</ele><time>2022-07-02T01:04:32Z</time></trkpt><trkpt lat="33.7627358" lon="133.1003366"><ele>1833.3733333333332</ele><time>2022-07-02T01:04:44Z</time></trkpt><trkpt lat="33.7626584" lon="133.1001374"><ele>1834.3200000000004</ele><time>2022-07-02T01:05:05Z</time></trkpt><trkpt lat="33.7625219" lon="133.0999918"><ele>1834.676666666667</ele><time>2022-07-02T01:06:03Z</time></trkpt><trkpt lat="33.7625337" lon="133.0997744"><ele>1830.0666666666666</ele><time>2022-07-02T01:06:44Z</time></trkpt><trkpt lat="33.7624682" lon="133.0995642"><ele>1827.9000000000003</ele><time>2022-07-02T01:07:00Z</time></trkpt><trkpt lat="33.7623524" lon="133.0993841"><ele>1825.8999999999999</ele><time>2022-07-02T01:07:20Z</time></trkpt><trkpt lat="33.7622362" lon="133.0992031"><ele>1831.25</ele><time>2022-07-02T01:07:35Z</time></trkpt><trkpt lat="33.7621379" lon="133.099013"><ele>1837.9166666666667</ele><time>2022-07-02T01:07:52Z</time></trkpt><trkpt lat="33.7620503" lon="133.0988103"><ele>1843.0833333333333</ele><time>2022-07-02T01:09:11Z</time></trkpt><trkpt lat="33.7619127" lon="133.0986671"><ele>1845.5900000000001</ele><time>2022-07-02T01:09:52Z</time></trkpt><trkpt lat="33.7618113" lon="133.0984869"><ele>1845.2766666666666</ele><time>2022-07-02T01:10:05Z</time></trkpt><trkpt lat="33.7617916" lon="133.0982668"><ele>1843.78</ele><time>2022-07-02T01:10:23Z</time></trkpt><trkpt lat="33.7617791" lon="133.0980438"><ele>1843.8366666666668</ele><time>2022-07-02T01:10:57Z</time></trkpt><trkpt lat="33.7617063" lon="133.0978265"><ele>1845.8700000000001</ele><time>2022-07-02T01:11:17Z</time></trkpt><trkpt lat="33.7615262" lon="133.0977167"><ele>1847.8166666666666</ele><time>2022-07-02T01:11:50Z</time></trkpt><trkpt lat="33.7613479" lon="133.0976799"><ele>1846.0466666666664</ele><time>2022-07-02T01:12:37Z</time></trkpt><trkpt lat="33.7613091" lon="133.0974573"><ele>1843.9166666666667</ele><time>2022-07-02T01:12:51Z</time></trkpt><trkpt lat="33.761223" lon="133.0972665"><ele>1841.9766666666667</ele><time>2022-07-02T01:13:10Z</time></trkpt><trkpt lat="33.761142" lon="133.0970665"><ele>1842.2833333333335</ele><time>2022-07-02T01:13:38Z</time></trkpt><trkpt lat="33.7610028" lon="133.0969276"><ele>1842.0900000000001</ele><time>2022-07-02T01:14:01Z</time></trkpt><trkpt lat="33.7608671" lon="133.0967832"><ele>1841.8666666666668</ele><time>2022-07-02T01:14:18Z</time></trkpt><trkpt lat="33.7608295" lon="133.0965687"><ele>1841.7233333333334</ele><time>2022-07-02T01:14:34Z</time></trkpt><trkpt lat="33.7607761" lon="133.0963616"><ele>1841.8633333333335</ele><time>2022-07-02T01:14:59Z</time></trkpt><trkpt lat="33.7607066" lon="133.0961556"><ele>1842.5100000000002</ele><time>2022-07-02T01:15:32Z</time></trkpt><trkpt lat="33.7605865" lon="133.0959931"><ele>1843.36</ele><time>2022-07-02T01:16:08Z</time></trkpt><trkpt lat="33.7604274" lon="133.0958885"><ele>1843.9066666666668</ele><time>2022-07-02T01:16:40Z</time></trkpt><trkpt lat="33.7603082" lon="133.0957235"><ele>1843.7266666666667</ele><time>2022-07-02T01:17:26Z</time></trkpt><trkpt lat="33.7604131" lon="133.0955442"><ele>1840.2266666666667</ele><time>2022-07-02T01:22:48Z</time></trkpt><trkpt lat="33.7602898" lon="133.0953658"><ele>1838.8866666666665</ele><time>2022-07-02T01:23:08Z</time></trkpt><trkpt lat="33.7601209" lon="133.0952851"><ele>1840.0733333333335</ele><time>2022-07-02T01:23:32Z</time></trkpt><trkpt lat="33.7599384" lon="133.0952992"><ele>1848.4366666666667</ele><time>2022-07-02T01:24:01Z</time></trkpt><trkpt lat="33.7598527" lon="133.095107"><ele>1855.9866666666667</ele><time>2022-07-02T01:25:18Z</time></trkpt><trkpt lat="33.7596872" lon="133.0950165"><ele>1865.0900000000001</ele><time>2022-07-02T01:25:54Z</time></trkpt><trkpt lat="33.759578" lon="133.0948411"><ele>1873.3799999999999</ele><time>2022-07-02T01:27:11Z</time></trkpt><trkpt lat="33.7594396" lon="133.094689"><ele>1883.28</ele><time>2022-07-02T01:28:07Z</time></trkpt><trkpt lat="33.7594002" lon="133.094474"><ele>1890.1633333333332</ele><time>2022-07-02T01:28:34Z</time></trkpt><trkpt lat="33.7592789" lon="133.0943058"><ele>1895.2033333333336</ele><time>2022-07-02T01:28:53Z</time></trkpt><trkpt lat="33.7591419" lon="133.094162"><ele>1899.6033333333335</ele><time>2022-07-02T01:29:25Z</time></trkpt><trkpt lat="33.7590142" lon="133.0939996"><ele>1904.3666666666668</ele><time>2022-07-02T01:30:15Z</time></trkpt><trkpt lat="33.7588877" lon="133.0938444"><ele>1906.1733333333334</ele><time>2022-07-02T01:30:35Z</time></trkpt><trkpt lat="33.7587087" lon="133.093812"><ele>1911.7133333333334</ele><time>2022-07-02T01:31:11Z</time></trkpt><trkpt lat="33.7585277" lon="133.0937508"><ele>1917.5433333333333</ele><time>2022-07-02T01:32:30Z</time></trkpt><trkpt lat="33.7584827" lon="133.0935405"><ele>1924.3500000000001</ele><time>2022-07-02T01:36:55Z</time></trkpt><trkpt lat="33.7585064" lon="133.093322"><ele>1924.4866666666667</ele><time>2022-07-02T01:37:07Z</time></trkpt><trkpt lat="33.7585871" lon="133.0931214"><ele>1922.0866666666668</ele><time>2022-07-02T01:37:18Z</time></trkpt><trkpt lat="33.7584229" lon="133.0930221"><ele>1919.3866666666665</ele><time>2022-07-02T01:37:30Z</time></trkpt><trkpt lat="33.758243" lon="133.0929846"><ele>1914.6599999999999</ele><time>2022-07-02T01:37:38Z</time></trkpt><trkpt lat="33.7582009" lon="133.0927632"><ele>1907.6466666666668</ele><time>2022-07-02T01:37:54Z</time></trkpt><trkpt lat="33.7583704" lon="133.0926798"><ele>1901.5800000000002</ele><time>2022-07-02T01:38:09Z</time></trkpt><trkpt lat="33.7584799" lon="133.0925049"><ele>1895.0233333333333</ele><time>2022-07-02T01:38:41Z</time></trkpt><trkpt lat="33.758428" lon="133.0922971"><ele>1891.0233333333333</ele><time>2022-07-02T01:39:01Z</time></trkpt><trkpt lat="33.7584244" lon="133.0920802"><ele>1885.5200000000002</ele><time>2022-07-02T01:39:20Z</time></trkpt><trkpt lat="33.7582727" lon="133.0919635"><ele>1884.61</ele><time>2022-07-02T01:39:37Z</time></trkpt><trkpt lat="33.7582167" lon="133.0917538"><ele>1881.8966666666668</ele><time>2022-07-02T01:39:55Z</time></trkpt><trkpt lat="33.7582425" lon="133.0915045"><ele>1879.1533333333336</ele><time>2022-07-02T01:40:12Z</time></trkpt><trkpt lat="33.7583592" lon="133.0916807"><ele>1875.4466666666667</ele><time>2022-07-02T01:40:25Z</time></trkpt><trkpt lat="33.758351" lon="133.0914556"><ele>1873.3866666666665</ele><time>2022-07-02T01:40:47Z</time></trkpt><trkpt lat="33.7583587" lon="133.0912391"><ele>1871.4966666666667</ele><time>2022-07-02T01:41:08Z</time></trkpt><trkpt lat="33.758471" lon="133.0910548"><ele>1867.3166666666666</ele><time>2022-07-02T01:41:31Z</time></trkpt><trkpt lat="33.7584508" lon="133.090839"><ele>1863.9066666666668</ele><time>2022-07-02T01:41:49Z</time></trkpt><trkpt lat="33.7583616" lon="133.0906355"><ele>1861.21</ele><time>2022-07-02T01:42:07Z</time></trkpt><trkpt lat="33.7582464" lon="133.0904693"><ele>1858.6200000000001</ele><time>2022-07-02T01:42:26Z</time></trkpt><trkpt lat="33.7581316" lon="133.0902974"><ele>1854.2700000000002</ele><time>2022-07-02T01:43:22Z</time></trkpt><trkpt lat="33.7581603" lon="133.0900832"><ele>1849.68</ele><time>2022-07-02T01:47:36Z</time></trkpt><trkpt lat="33.758108" lon="133.089853"><ele>1846.42</ele><time>2022-07-02T01:47:47Z</time></trkpt><trkpt lat="33.7580535" lon="133.0896385"><ele>1844.6066666666666</ele><time>2022-07-02T01:48:04Z</time></trkpt><trkpt lat="33.7579729" lon="133.0894357"><ele>1843.0500000000002</ele><time>2022-07-02T01:48:17Z</time></trkpt><trkpt lat="33.7578826" lon="133.0892465"><ele>1841.8166666666668</ele><time>2022-07-02T01:48:29Z</time></trkpt><trkpt lat="33.7577835" lon="133.089062"><ele>1839.55</ele><time>2022-07-02T01:49:05Z</time></trkpt><trkpt lat="33.7577267" lon="133.0888557"><ele>1836.4399999999998</ele><time>2022-07-02T01:49:20Z</time></trkpt><trkpt lat="33.7576108" lon="133.0886873"><ele>1833.6733333333334</ele><time>2022-07-02T01:49:45Z</time></trkpt><trkpt lat="33.7577262" lon="133.0885212"><ele>1831.7266666666667</ele><time>2022-07-02T01:50:39Z</time></trkpt><trkpt lat="33.757788" lon="133.0883144"><ele>1831.3833333333334</ele><time>2022-07-02T01:50:50Z</time></trkpt><trkpt lat="33.7578751" lon="133.0881241"><ele>1832.0833333333333</ele><time>2022-07-02T01:51:11Z</time></trkpt><trkpt lat="33.7578142" lon="133.0879178"><ele>1836.6499999999999</ele><time>2022-07-02T01:51:33Z</time></trkpt><trkpt lat="33.7577745" lon="133.0877003"><ele>1843.7266666666667</ele><time>2022-07-02T01:52:22Z</time></trkpt><trkpt lat="33.7578847" lon="133.087519"><ele>1852.0633333333333</ele><time>2022-07-02T01:52:55Z</time></trkpt><trkpt lat="33.7578889" lon="133.0873011"><ele>1858.2466666666667</ele><time>2022-07-02T01:53:09Z</time></trkpt><trkpt lat="33.7579425" lon="133.0870948"><ele>1863.8700000000001</ele><time>2022-07-02T01:54:29Z</time></trkpt><trkpt lat="33.758034" lon="133.0869042"><ele>1871.3666666666668</ele><time>2022-07-02T01:55:15Z</time></trkpt><trkpt lat="33.7581649" lon="133.0867487"><ele>1878.3166666666666</ele><time>2022-07-02T01:57:47Z</time></trkpt><trkpt lat="33.7580803" lon="133.0865506"><ele>1880.92</ele><time>2022-07-02T02:02:46Z</time></trkpt><trkpt lat="33.7578996" lon="133.086527"><ele>1879.8966666666665</ele><time>2022-07-02T02:05:13Z</time></trkpt><trkpt lat="33.757796" lon="133.0863502"><ele>1875.8733333333332</ele><time>2022-07-02T02:05:50Z</time></trkpt><trkpt lat="33.7576238" lon="133.0862834"><ele>1872.12</ele><time>2022-07-02T02:06:15Z</time></trkpt><trkpt lat="33.7574456" lon="133.0862013"><ele>1865.9166666666667</ele><time>2022-07-02T02:06:32Z</time></trkpt><trkpt lat="33.7573348" lon="133.0860113"><ele>1860.25</ele><time>2022-07-02T02:06:50Z</time></trkpt><trkpt lat="33.7572281" lon="133.0858276"><ele>1854.3766666666668</ele><time>2022-07-02T02:07:20Z</time></trkpt><trkpt lat="33.7570433" lon="133.0858061"><ele>1849.3133333333335</ele><time>2022-07-02T02:07:38Z</time></trkpt><trkpt lat="33.7569456" lon="133.0856039"><ele>1845.5566666666666</ele><time>2022-07-02T02:07:56Z</time></trkpt><trkpt lat="33.7568301" lon="133.0854288"><ele>1842.58</ele><time>2022-07-02T02:08:09Z</time></trkpt><trkpt lat="33.7566484" lon="133.0854219"><ele>1839.8066666666666</ele><time>2022-07-02T02:08:23Z</time></trkpt><trkpt lat="33.7564575" lon="133.0854201"><ele>1834.93</ele><time>2022-07-02T02:08:37Z</time></trkpt><trkpt lat="33.7562725" lon="133.0854623"><ele>1827.3400000000001</ele><time>2022-07-02T02:08:58Z</time></trkpt><trkpt lat="33.7560923" lon="133.0854447"><ele>1818.466666666667</ele><time>2022-07-02T02:09:18Z</time></trkpt><trkpt lat="33.756029" lon="133.0852392"><ele>1811.96</ele><time>2022-07-02T02:10:04Z</time></trkpt><trkpt lat="33.7558555" lon="133.0853037"><ele>1807.9333333333334</ele><time>2022-07-02T02:10:17Z</time></trkpt><trkpt lat="33.755687" lon="133.0852057"><ele>1804.8</ele><time>2022-07-02T02:10:34Z</time></trkpt><trkpt lat="33.755857" lon="133.0852778"><ele>1803.43</ele><time>2022-07-02T02:11:41Z</time></trkpt><trkpt lat="33.7560319" lon="133.085361"><ele>1805.8266666666666</ele><time>2022-07-02T02:12:02Z</time></trkpt><trkpt lat="33.7561654" lon="133.0855082"><ele>1808.8</ele><time>2022-07-02T02:12:16Z</time></trkpt><trkpt lat="33.7563064" lon="133.0856525"><ele>1810.5866666666668</ele><time>2022-07-02T02:12:32Z</time></trkpt><trkpt lat="33.7564509" lon="133.0857928"><ele>1811.5433333333333</ele><time>2022-07-02T02:12:56Z</time></trkpt><trkpt lat="33.7565158" lon="133.0859977"><ele>1811.89</ele><time>2022-07-02T02:13:27Z</time></trkpt><trkpt lat="33.756648" lon="133.086145"><ele>1814.2033333333336</ele><time>2022-07-02T02:14:09Z</time></trkpt><trkpt lat="33.7567193" lon="133.0863497"><ele>1814.7833333333335</ele><time>2022-07-02T02:14:41Z</time></trkpt><trkpt lat="33.7567191" lon="133.086566"><ele>1815.5233333333333</ele><time>2022-07-02T02:14:58Z</time></trkpt><trkpt lat="33.7567649" lon="133.0867825"><ele>1814.5600000000002</ele><time>2022-07-02T02:15:42Z</time></trkpt><trkpt lat="33.7568387" lon="133.0869814"><ele>1814.5633333333335</ele><time>2022-07-02T02:16:11Z</time></trkpt><trkpt lat="33.7568936" lon="133.0871886"><ele>1815.8000000000002</ele><time>2022-07-02T02:16:33Z</time></trkpt><trkpt lat="33.7569854" lon="133.0873746"><ele>1817.3033333333335</ele><time>2022-07-02T02:17:19Z</time></trkpt><trkpt lat="33.7570826" lon="133.0875617"><ele>1818.7066666666667</ele><time>2022-07-02T02:17:42Z</time></trkpt><trkpt lat="33.7572014" lon="133.0877348"><ele>1822.21</ele><time>2022-07-02T02:18:11Z</time></trkpt><trkpt lat="33.7572946" lon="133.087921"><ele>1825.5766666666666</ele><time>2022-07-02T02:18:34Z</time></trkpt><trkpt lat="33.7574415" lon="133.0880515"><ele>1829.7833333333335</ele><time>2022-07-02T02:18:53Z</time></trkpt><trkpt lat="33.757558" lon="133.0882234"><ele>1832.346666666667</ele><time>2022-07-02T02:19:17Z</time></trkpt><trkpt lat="33.7576171" lon="133.0884349"><ele>1833.88</ele><time>2022-07-02T02:19:40Z</time></trkpt><trkpt lat="33.7576503" lon="133.0886493"><ele>1833.6933333333334</ele><time>2022-07-02T02:19:56Z</time></trkpt><trkpt lat="33.757783" lon="133.088799"><ele>1831.4933333333336</ele><time>2022-07-02T02:20:16Z</time></trkpt><trkpt lat="33.7577825" lon="133.0890204"><ele>1832.4000000000003</ele><time>2022-07-02T02:20:36Z</time></trkpt><trkpt lat="33.7578354" lon="133.0892274"><ele>1834.92</ele><time>2022-07-02T02:21:03Z</time></trkpt><trkpt lat="33.7579603" lon="133.0893832"><ele>1838.8700000000001</ele><time>2022-07-02T02:21:26Z</time></trkpt><trkpt lat="33.7580381" lon="133.0895786"><ele>1840.6500000000003</ele><time>2022-07-02T02:21:52Z</time></trkpt><trkpt lat="33.7580874" lon="133.0897917"><ele>1842.0866666666668</ele><time>2022-07-02T02:22:11Z</time></trkpt><trkpt lat="33.7581964" lon="133.0899752"><ele>1843.5266666666666</ele><time>2022-07-02T02:22:33Z</time></trkpt><trkpt lat="33.7581948" lon="133.090194"><ele>1845.6966666666667</ele><time>2022-07-02T02:22:50Z</time></trkpt><trkpt lat="33.758227" lon="133.0904091"><ele>1847.9666666666665</ele><time>2022-07-02T02:23:15Z</time></trkpt><trkpt lat="33.7583472" lon="133.0905719"><ele>1852.0733333333335</ele><time>2022-07-02T02:24:19Z</time></trkpt><trkpt lat="33.7583595" lon="133.0907951"><ele>1856.74</ele><time>2022-07-02T02:24:58Z</time></trkpt><trkpt lat="33.7584426" lon="133.0910025"><ele>1860.8</ele><time>2022-07-02T02:25:25Z</time></trkpt><trkpt lat="33.7583714" lon="133.0912012"><ele>1863.9133333333332</ele><time>2022-07-02T02:25:44Z</time></trkpt><trkpt lat="33.7583027" lon="133.0914031"><ele>1867.3133333333335</ele><time>2022-07-02T02:26:05Z</time></trkpt><trkpt lat="33.7582915" lon="133.0916237"><ele>1871.3400000000001</ele><time>2022-07-02T02:26:55Z</time></trkpt><trkpt lat="33.7582402" lon="133.0918325"><ele>1876.1900000000003</ele><time>2022-07-02T02:27:55Z</time></trkpt><trkpt lat="33.7582262" lon="133.0920481"><ele>1881.1166666666668</ele><time>2022-07-02T02:28:18Z</time></trkpt><trkpt lat="33.7582844" lon="133.0922598"><ele>1886.3066666666666</ele><time>2022-07-02T02:28:39Z</time></trkpt><trkpt lat="33.7583291" lon="133.0924748"><ele>1889.8766666666668</ele><time>2022-07-02T02:28:56Z</time></trkpt><trkpt lat="33.7584207" lon="133.0926635"><ele>1892.3500000000001</ele><time>2022-07-02T02:29:29Z</time></trkpt><trkpt lat="33.7584474" lon="133.0928771"><ele>1897.8799999999999</ele><time>2022-07-02T02:30:25Z</time></trkpt><trkpt lat="33.7584616" lon="133.0930941"><ele>1906.5566666666666</ele><time>2022-07-02T02:31:12Z</time></trkpt><trkpt lat="33.7584897" lon="133.0933137"><ele>1915.926666666667</ele><time>2022-07-02T02:31:47Z</time></trkpt><trkpt lat="33.7585679" lon="133.0935101"><ele>1920.67</ele><time>2022-07-02T02:32:24Z</time></trkpt><trkpt lat="33.758538" lon="133.0937332"><ele>1923.506666666667</ele><time>2022-07-02T02:39:39Z</time></trkpt><trkpt lat="33.7586955" lon="133.0938439"><ele>1923.3700000000001</ele><time>2022-07-02T02:54:54Z</time></trkpt><trkpt lat="33.7588383" lon="133.0939813"><ele>1922.3100000000002</ele><time>2022-07-02T02:55:29Z</time></trkpt><trkpt lat="33.7589821" lon="133.0941169"><ele>1917.6233333333332</ele><time>2022-07-02T02:55:44Z</time></trkpt><trkpt lat="33.7591496" lon="133.0942121"><ele>1912.0833333333333</ele><time>2022-07-02T02:55:57Z</time></trkpt><trkpt lat="33.7593065" lon="133.0943497"><ele>1905.5100000000002</ele><time>2022-07-02T02:56:11Z</time></trkpt><trkpt lat="33.7593778" lon="133.0945533"><ele>1900.1233333333332</ele><time>2022-07-02T02:56:28Z</time></trkpt><trkpt lat="33.7594469" lon="133.0947654"><ele>1895.0466666666669</ele><time>2022-07-02T02:56:47Z</time></trkpt><trkpt lat="33.7596019" lon="133.094877"><ele>1888.49</ele><time>2022-07-02T02:57:09Z</time></trkpt><trkpt lat="33.759746" lon="133.0950307"><ele>1878.9533333333336</ele><time>2022-07-02T02:57:52Z</time></trkpt><trkpt lat="33.7599157" lon="133.0951183"><ele>1867.8533333333332</ele><time>2022-07-02T02:58:44Z</time></trkpt><trkpt lat="33.7600491" lon="133.0952654"><ele>1858.1533333333334</ele><time>2022-07-02T02:59:02Z</time></trkpt><trkpt lat="33.7602207" lon="133.0953572"><ele>1850.3700000000001</ele><time>2022-07-02T02:59:31Z</time></trkpt><trkpt lat="33.7603374" lon="133.0955233"><ele>1844.3400000000001</ele><time>2022-07-02T03:00:31Z</time></trkpt><trkpt lat="33.7603462" lon="133.0957413"><ele>1841.4866666666667</ele><time>2022-07-02T03:00:48Z</time></trkpt><trkpt lat="33.7605026" lon="133.0958667"><ele>1841.2366666666667</ele><time>2022-07-02T03:01:14Z</time></trkpt><trkpt lat="33.7606786" lon="133.0959293"><ele>1840.2166666666665</ele><time>2022-07-02T03:01:46Z</time></trkpt><trkpt lat="33.7606491" lon="133.0961459"><ele>1842.1033333333335</ele><time>2022-07-02T03:02:21Z</time></trkpt><trkpt lat="33.7607267" lon="133.0963505"><ele>1842.9166666666667</ele><time>2022-07-02T03:02:42Z</time></trkpt><trkpt lat="33.7608572" lon="133.096502"><ele>1844.3066666666666</ele><time>2022-07-02T03:03:08Z</time></trkpt><trkpt lat="33.7609205" lon="133.096711"><ele>1842.5466666666669</ele><time>2022-07-02T03:03:34Z</time></trkpt><trkpt lat="33.7610053" lon="133.0969056"><ele>1841.2633333333333</ele><time>2022-07-02T03:04:00Z</time></trkpt><trkpt lat="33.7611443" lon="133.0970449"><ele>1841.7666666666667</ele><time>2022-07-02T03:04:19Z</time></trkpt><trkpt lat="33.7612173" lon="133.097244"><ele>1841.7666666666667</ele><time>2022-07-02T03:04:50Z</time></trkpt><trkpt lat="33.7613457" lon="133.0973988"><ele>1841.8266666666666</ele><time>2022-07-02T03:05:10Z</time></trkpt><trkpt lat="33.7614831" lon="133.0975459"><ele>1842.0200000000002</ele><time>2022-07-02T03:05:28Z</time></trkpt><trkpt lat="33.7616038" lon="133.0977095"><ele>1843.3433333333332</ele><time>2022-07-02T03:06:13Z</time></trkpt><trkpt lat="33.7616683" lon="133.0979125"><ele>1845.97</ele><time>2022-07-02T03:07:02Z</time></trkpt><trkpt lat="33.7617855" lon="133.0980826"><ele>1847.24</ele><time>2022-07-02T03:07:35Z</time></trkpt><trkpt lat="33.7619102" lon="133.0982457"><ele>1844.7766666666666</ele><time>2022-07-02T03:07:48Z</time></trkpt><trkpt lat="33.761938" lon="133.0984641"><ele>1842.256666666667</ele><time>2022-07-02T03:08:10Z</time></trkpt><trkpt lat="33.7619774" lon="133.0986805"><ele>1842.83</ele><time>2022-07-02T03:08:30Z</time></trkpt><trkpt lat="33.7620582" lon="133.0988755"><ele>1845.96</ele><time>2022-07-02T03:09:13Z</time></trkpt><trkpt lat="33.7621022" lon="133.0990942"><ele>1846.3866666666665</ele><time>2022-07-02T03:09:44Z</time></trkpt><trkpt lat="33.7621059" lon="133.0993156"><ele>1844.7333333333333</ele><time>2022-07-02T03:10:42Z</time></trkpt><trkpt lat="33.7620924" lon="133.0995324"><ele>1844.49</ele><time>2022-07-02T03:11:24Z</time></trkpt><trkpt lat="33.7621866" lon="133.0997276"><ele>1846.1066666666668</ele><time>2022-07-02T03:11:41Z</time></trkpt><trkpt lat="33.7622461" lon="133.0999324"><ele>1847.8766666666668</ele><time>2022-07-02T03:12:02Z</time></trkpt><trkpt lat="33.7622803" lon="133.1001475"><ele>1850.8933333333334</ele><time>2022-07-02T03:12:29Z</time></trkpt><trkpt lat="33.7623942" lon="133.1003183"><ele>1852.5533333333333</ele><time>2022-07-02T03:13:02Z</time></trkpt><trkpt lat="33.7623742" lon="133.1005346"><ele>1856.9466666666667</ele><time>2022-07-02T03:16:05Z</time></trkpt><trkpt lat="33.7625376" lon="133.1006327"><ele>1855.2966666666669</ele><time>2022-07-02T03:19:31Z</time></trkpt><trkpt lat="33.7627091" lon="133.1007024"><ele>1852.6133333333335</ele><time>2022-07-02T03:20:25Z</time></trkpt><trkpt lat="33.7628913" lon="133.1007464"><ele>1844.1500000000003</ele><time>2022-07-02T03:22:23Z</time></trkpt><trkpt lat="33.7630792" lon="133.1007539"><ele>1836.7766666666666</ele><time>2022-07-02T03:22:36Z</time></trkpt><trkpt lat="33.7632587" lon="133.1007767"><ele>1827.6266666666668</ele><time>2022-07-02T03:22:49Z</time></trkpt><trkpt lat="33.7633427" lon="133.1009744"><ele>1820.96</ele><time>2022-07-02T03:23:31Z</time></trkpt><trkpt lat="33.7634931" lon="133.1010986"><ele>1815.3700000000001</ele><time>2022-07-02T03:23:48Z</time></trkpt><trkpt lat="33.7636633" lon="133.1011895"><ele>1813.3633333333335</ele><time>2022-07-02T03:24:57Z</time></trkpt><trkpt lat="33.7638425" lon="133.101214"><ele>1812.0433333333333</ele><time>2022-07-02T03:25:14Z</time></trkpt><trkpt lat="33.7640206" lon="133.101171"><ele>1812.1133333333335</ele><time>2022-07-02T03:25:39Z</time></trkpt><trkpt lat="33.7642029" lon="133.1011765"><ele>1812.1499999999999</ele><time>2022-07-02T03:26:09Z</time></trkpt><trkpt lat="33.7643374" lon="133.1013255"><ele>1813.0566666666666</ele><time>2022-07-02T03:26:32Z</time></trkpt><trkpt lat="33.7645172" lon="133.1013834"><ele>1812.6366666666665</ele><time>2022-07-02T03:26:55Z</time></trkpt><trkpt lat="33.7646942" lon="133.1014277"><ele>1810.8466666666666</ele><time>2022-07-02T03:27:17Z</time></trkpt><trkpt lat="33.7648776" lon="133.1013797"><ele>1807.1000000000001</ele><time>2022-07-02T03:27:39Z</time></trkpt><trkpt lat="33.7650583" lon="133.1013623"><ele>1802.1733333333334</ele><time>2022-07-02T03:28:35Z</time></trkpt><trkpt lat="33.765238" lon="133.1013877"><ele>1795.5433333333333</ele><time>2022-07-02T03:29:25Z</time></trkpt><trkpt lat="33.7654043" lon="133.1014719"><ele>1791.13</ele><time>2022-07-02T03:29:56Z</time></trkpt><trkpt lat="33.765578" lon="133.1015392"><ele>1790.6366666666665</ele><time>2022-07-02T03:30:17Z</time></trkpt><trkpt lat="33.7657418" lon="133.101445"><ele>1788.9433333333334</ele><time>2022-07-02T03:30:50Z</time></trkpt><trkpt lat="33.7658871" lon="133.1015788"><ele>1785.4033333333334</ele><time>2022-07-02T03:31:12Z</time></trkpt><trkpt lat="33.7660787" lon="133.1015763"><ele>1777.8566666666666</ele><time>2022-07-02T03:33:27Z</time></trkpt><trkpt lat="33.76626" lon="133.1016182"><ele>1774.3333333333333</ele><time>2022-07-02T03:33:44Z</time></trkpt><trkpt lat="33.7662808" lon="133.1018501"><ele>1773.8766666666668</ele><time>2022-07-02T03:34:12Z</time></trkpt><trkpt lat="33.7664386" lon="133.1019624"><ele>1777.5533333333335</ele><time>2022-07-02T03:34:39Z</time></trkpt><trkpt lat="33.7666061" lon="133.1018749"><ele>1781.9733333333334</ele><time>2022-07-02T03:34:56Z</time></trkpt><trkpt lat="33.7667216" lon="133.1020473"><ele>1786.9800000000002</ele><time>2022-07-02T03:37:30Z</time></trkpt><trkpt lat="33.7669026" lon="133.1020344"><ele>1791.63</ele><time>2022-07-02T03:39:08Z</time></trkpt><trkpt lat="33.7670414" lon="133.1021766"><ele>1797.46</ele><time>2022-07-02T03:40:08Z</time></trkpt><trkpt lat="33.7672152" lon="133.1022497"><ele>1801.5233333333335</ele><time>2022-07-02T03:40:26Z</time></trkpt><trkpt lat="33.7673967" lon="133.1022542"><ele>1806.0833333333333</ele><time>2022-07-02T03:41:01Z</time></trkpt><trkpt lat="33.767544" lon="133.1023923"><ele>1809.8166666666666</ele><time>2022-07-02T03:41:22Z</time></trkpt><trkpt lat="33.7677159" lon="133.1024774"><ele>1813.6666666666667</ele><time>2022-07-02T03:41:57Z</time></trkpt><trkpt lat="33.767855" lon="133.1026167"><ele>1815.01</ele><time>2022-07-02T03:42:13Z</time></trkpt><trkpt lat="33.7679824" lon="133.1027742"><ele>1811.75</ele><time>2022-07-02T03:42:41Z</time></trkpt><trkpt lat="33.7681656" lon="133.102796"><ele>1809.7066666666667</ele><time>2022-07-02T03:43:14Z</time></trkpt><trkpt lat="33.7683495" lon="133.1027961"><ele>1811.3733333333332</ele><time>2022-07-02T03:43:36Z</time></trkpt><trkpt lat="33.7685111" lon="133.1028945"><ele>1815.3066666666666</ele><time>2022-07-02T03:44:03Z</time></trkpt><trkpt lat="33.7686792" lon="133.1029863"><ele>1819.7966666666664</ele><time>2022-07-02T03:45:02Z</time></trkpt><trkpt lat="33.7688611" lon="133.1030494"><ele>1824.4066666666668</ele><time>2022-07-02T03:45:39Z</time></trkpt><trkpt lat="33.7690417" lon="133.1031005"><ele>1832.7633333333333</ele><time>2022-07-02T03:46:12Z</time></trkpt><trkpt lat="33.7691881" lon="133.1032274"><ele>1838.8400000000001</ele><time>2022-07-02T03:46:40Z</time></trkpt><trkpt lat="33.7693662" lon="133.1032707"><ele>1842.0633333333335</ele><time>2022-07-02T03:47:10Z</time></trkpt><trkpt lat="33.7695112" lon="133.103405"><ele>1841.3066666666666</ele><time>2022-07-02T03:47:31Z</time></trkpt><trkpt lat="33.7696879" lon="133.1034757"><ele>1842.0866666666668</ele><time>2022-07-02T03:50:58Z</time></trkpt><trkpt lat="33.7698732" lon="133.103503"><ele>1841.7166666666665</ele><time>2022-07-02T03:51:51Z</time></trkpt><trkpt lat="33.769983" lon="133.103677"><ele>1841.13</ele><time>2022-07-02T03:52:18Z</time></trkpt><trkpt lat="33.7701203" lon="133.1038331"><ele>1837.38</ele><time>2022-07-02T03:52:53Z</time></trkpt><trkpt lat="33.7703035" lon="133.103882"><ele>1835.9366666666667</ele><time>2022-07-02T03:53:24Z</time></trkpt><trkpt lat="33.7704754" lon="133.1039638"><ele>1837.0966666666666</ele><time>2022-07-02T03:53:46Z</time></trkpt><trkpt lat="33.770642" lon="133.1040491"><ele>1839.8433333333335</ele><time>2022-07-02T03:54:13Z</time></trkpt><trkpt lat="33.7706996" lon="133.1042722"><ele>1839.6533333333334</ele><time>2022-07-02T03:54:36Z</time></trkpt><trkpt lat="33.7708161" lon="133.1044474"><ele>1838.2866666666669</ele><time>2022-07-02T03:55:06Z</time></trkpt><trkpt lat="33.7709901" lon="133.1045181"><ele>1837.6833333333334</ele><time>2022-07-02T03:55:27Z</time></trkpt><trkpt lat="33.7710553" lon="133.1047196"><ele>1837.6633333333332</ele><time>2022-07-02T03:55:50Z</time></trkpt><trkpt lat="33.7712139" lon="133.1048308"><ele>1841.2966666666669</ele><time>2022-07-02T03:56:29Z</time></trkpt><trkpt lat="33.7713102" lon="133.1050317"><ele>1845.53</ele><time>2022-07-02T03:56:57Z</time></trkpt><trkpt lat="33.7713266" lon="133.1052519"><ele>1848.68</ele><time>2022-07-02T03:58:58Z</time></trkpt><trkpt lat="33.7714432" lon="133.1054234"><ele>1851.8366666666668</ele><time>2022-07-02T03:59:15Z</time></trkpt><trkpt lat="33.7714552" lon="133.1056402"><ele>1852.426666666667</ele><time>2022-07-02T03:59:27Z</time></trkpt><trkpt lat="33.7714657" lon="133.1058585"><ele>1855.0833333333333</ele><time>2022-07-02T04:00:06Z</time></trkpt><trkpt lat="33.7714553" lon="133.1060748"><ele>1855.8033333333333</ele><time>2022-07-02T04:00:52Z</time></trkpt><trkpt lat="33.7715143" lon="133.1062833"><ele>1858.7333333333333</ele><time>2022-07-02T04:01:12Z</time></trkpt><trkpt lat="33.7715792" lon="133.1064859"><ele>1861.256666666667</ele><time>2022-07-02T04:01:33Z</time></trkpt><trkpt lat="33.7716388" lon="133.1067042"><ele>1863.3000000000002</ele><time>2022-07-02T04:02:12Z</time></trkpt><trkpt lat="33.7716336" lon="133.1069254"><ele>1861.8833333333332</ele><time>2022-07-02T04:02:52Z</time></trkpt><trkpt lat="33.7716949" lon="133.1071312"><ele>1860.9433333333334</ele><time>2022-07-02T04:03:06Z</time></trkpt><trkpt lat="33.7717402" lon="133.1073486"><ele>1859.506666666667</ele><time>2022-07-02T04:03:22Z</time></trkpt><trkpt lat="33.7718324" lon="133.1075343"><ele>1860.78</ele><time>2022-07-02T04:03:40Z</time></trkpt><trkpt lat="33.7718652" lon="133.1077567"><ele>1861.0866666666668</ele><time>2022-07-02T04:03:58Z</time></trkpt><trkpt lat="33.7719508" lon="133.1079555"><ele>1864.0900000000001</ele><time>2022-07-02T04:04:21Z</time></trkpt><trkpt lat="33.7719649" lon="133.1081729"><ele>1865.7366666666667</ele><time>2022-07-02T04:04:41Z</time></trkpt><trkpt lat="33.7720204" lon="133.1083818"><ele>1869.2600000000002</ele><time>2022-07-02T04:05:04Z</time></trkpt><trkpt lat="33.7719234" lon="133.1085653"><ele>1867.1066666666666</ele><time>2022-07-02T04:06:37Z</time></trkpt><trkpt lat="33.7720061" lon="133.1087585"><ele>1867.6033333333335</ele><time>2022-07-02T04:07:35Z</time></trkpt><trkpt lat="33.7719057" lon="133.1089482"><ele>1866.6666666666667</ele><time>2022-07-02T04:07:58Z</time></trkpt><trkpt lat="33.7718154" lon="133.1091417"><ele>1869.2933333333333</ele><time>2022-07-02T04:08:18Z</time></trkpt><trkpt lat="33.7717628" lon="133.1093528"><ele>1871.5933333333335</ele><time>2022-07-02T04:08:41Z</time></trkpt><trkpt lat="33.7716503" lon="133.109525"><ele>1873.1866666666665</ele><time>2022-07-02T04:09:07Z</time></trkpt><trkpt lat="33.7715834" lon="133.1097317"><ele>1874.5766666666668</ele><time>2022-07-02T04:10:15Z</time></trkpt><trkpt lat="33.7715003" lon="133.1099308"><ele>1875.29</ele><time>2022-07-02T04:10:31Z</time></trkpt><trkpt lat="33.7713863" lon="133.1101022"><ele>1877.5533333333333</ele><time>2022-07-02T04:10:51Z</time></trkpt><trkpt lat="33.7712969" lon="133.1102941"><ele>1879.4766666666667</ele><time>2022-07-02T04:11:15Z</time></trkpt><trkpt lat="33.7711827" lon="133.1104652"><ele>1881.3833333333334</ele><time>2022-07-02T04:11:41Z</time></trkpt><trkpt lat="33.771073" lon="133.1106454"><ele>1881.8166666666666</ele><time>2022-07-02T04:12:07Z</time></trkpt><trkpt lat="33.7709287" lon="133.110794"><ele>1880.2666666666667</ele><time>2022-07-02T04:12:31Z</time></trkpt><trkpt lat="33.7709326" lon="133.1110134"><ele>1877.2666666666667</ele><time>2022-07-02T04:13:11Z</time></trkpt><trkpt lat="33.7709637" lon="133.1112318"><ele>1875.86</ele><time>2022-07-02T04:13:33Z</time></trkpt><trkpt lat="33.77091" lon="133.1114462"><ele>1875.1733333333332</ele><time>2022-07-02T04:14:33Z</time></trkpt><trkpt lat="33.7708252" lon="133.1116421"><ele>1874.1633333333332</ele><time>2022-07-02T04:14:49Z</time></trkpt><trkpt lat="33.7707036" lon="133.1118162"><ele>1872.5600000000002</ele><time>2022-07-02T04:15:14Z</time></trkpt><trkpt lat="33.7705327" lon="133.1118985"><ele>1873.57</ele><time>2022-07-02T04:15:53Z</time></trkpt><trkpt lat="33.7704297" lon="133.112077"><ele>1876.0966666666666</ele><time>2022-07-02T04:16:22Z</time></trkpt><trkpt lat="33.7703067" lon="133.1122541"><ele>1879.1466666666665</ele><time>2022-07-02T04:16:55Z</time></trkpt><trkpt lat="33.7701743" lon="133.1124145"><ele>1881.743333333333</ele><time>2022-07-02T04:18:00Z</time></trkpt><trkpt lat="33.7700243" lon="133.112548"><ele>1886.7266666666667</ele><time>2022-07-02T04:18:20Z</time></trkpt><trkpt lat="33.7699591" lon="133.1127498"><ele>1891.4033333333334</ele><time>2022-07-02T04:18:57Z</time></trkpt><trkpt lat="33.7698424" lon="133.1129198"><ele>1898.32</ele><time>2022-07-02T04:19:19Z</time></trkpt><trkpt lat="33.769727" lon="133.1130889"><ele>1905.7266666666667</ele><time>2022-07-02T04:19:40Z</time></trkpt><trkpt lat="33.7696009" lon="133.1132438"><ele>1914.4266666666665</ele><time>2022-07-02T04:20:15Z</time></trkpt><trkpt lat="33.7697513" lon="133.1133629"><ele>1913.926666666667</ele><time>2022-07-02T04:25:17Z</time></trkpt><trkpt lat="33.769816" lon="133.1135713"><ele>1906.95</ele><time>2022-07-02T04:25:35Z</time></trkpt><trkpt lat="33.7697739" lon="133.1137898"><ele>1897.28</ele><time>2022-07-02T04:25:49Z</time></trkpt><trkpt lat="33.7697392" lon="133.1140029"><ele>1892.3633333333335</ele><time>2022-07-02T04:26:10Z</time></trkpt><trkpt lat="33.7698718" lon="133.1141555"><ele>1886.0766666666666</ele><time>2022-07-02T04:26:35Z</time></trkpt><trkpt lat="33.7697576" lon="133.1139746"><ele>1884.7833333333335</ele><time>2022-07-02T04:27:03Z</time></trkpt><trkpt lat="33.7695645" lon="133.1139867"><ele>1889.9800000000002</ele><time>2022-07-02T04:27:31Z</time></trkpt><trkpt lat="33.7696263" lon="133.1137714"><ele>1901.1433333333334</ele><time>2022-07-02T04:27:44Z</time></trkpt><trkpt lat="33.7697832" lon="133.1136572"><ele>1904.71</ele><time>2022-07-02T04:27:53Z</time></trkpt><trkpt lat="33.7698084" lon="133.1134411"><ele>1901.86</ele><time>2022-07-02T04:28:30Z</time></trkpt><trkpt lat="33.7699725" lon="133.1133396"><ele>1892.0733333333335</ele><time>2022-07-02T04:28:57Z</time></trkpt><trkpt lat="33.770161" lon="133.1133531"><ele>1876.4399999999998</ele><time>2022-07-02T04:29:09Z</time></trkpt><trkpt lat="33.770265" lon="133.1135305"><ele>1859.95</ele><time>2022-07-02T04:30:54Z</time></trkpt><trkpt lat="33.7704478" lon="133.1135538"><ele>1837.4366666666667</ele><time>2022-07-02T04:31:18Z</time></trkpt><trkpt lat="33.7705256" lon="133.1137529"><ele>1823.7699999999998</ele><time>2022-07-02T04:32:15Z</time></trkpt><trkpt lat="33.7706373" lon="133.1139394"><ele>1811.3133333333335</ele><time>2022-07-02T04:32:45Z</time></trkpt><trkpt lat="33.7705059" lon="133.1141"><ele>1815.506666666667</ele><time>2022-07-02T04:33:21Z</time></trkpt><trkpt lat="33.7703923" lon="133.1142778"><ele>1819.7333333333333</ele><time>2022-07-02T04:34:10Z</time></trkpt><trkpt lat="33.7703653" lon="133.1144958"><ele>1824.1833333333334</ele><time>2022-07-02T04:34:51Z</time></trkpt><trkpt lat="33.7704598" lon="133.1146862"><ele>1817.3166666666666</ele><time>2022-07-02T04:35:26Z</time></trkpt><trkpt lat="33.7705843" lon="133.1148429"><ele>1807.43</ele><time>2022-07-02T04:36:16Z</time></trkpt><trkpt lat="33.7704866" lon="133.1150302"><ele>1795.4800000000002</ele><time>2022-07-02T04:37:02Z</time></trkpt><trkpt lat="33.7703057" lon="133.1150751"><ele>1788.0900000000001</ele><time>2022-07-02T04:37:18Z</time></trkpt><trkpt lat="33.770174" lon="133.1152322"><ele>1782.846666666667</ele><time>2022-07-02T04:37:38Z</time></trkpt><trkpt lat="33.7700009" lon="133.1153121"><ele>1778.756666666667</ele><time>2022-07-02T04:38:02Z</time></trkpt><trkpt lat="33.7698238" lon="133.1153923"><ele>1773.8233333333335</ele><time>2022-07-02T04:38:22Z</time></trkpt><trkpt lat="33.7696771" lon="133.1155194"><ele>1766.03</ele><time>2022-07-02T04:38:59Z</time></trkpt><trkpt lat="33.7694906" lon="133.1155436"><ele>1758.8500000000001</ele><time>2022-07-02T04:39:58Z</time></trkpt><trkpt lat="33.7694484" lon="133.115762"><ele>1748.5766666666668</ele><time>2022-07-02T04:40:38Z</time></trkpt><trkpt lat="33.7695162" lon="133.1159738"><ele>1738.5166666666667</ele><time>2022-07-02T04:40:58Z</time></trkpt><trkpt lat="33.7694514" lon="133.1161877"><ele>1727.9400000000003</ele><time>2022-07-02T04:41:34Z</time></trkpt><trkpt lat="33.7693377" lon="133.116362"><ele>1722.5633333333335</ele><time>2022-07-02T04:42:30Z</time></trkpt><trkpt lat="33.7691726" lon="133.1164499"><ele>1722.0100000000002</ele><time>2022-07-02T04:42:54Z</time></trkpt><trkpt lat="33.7689952" lon="133.1165223"><ele>1725.64</ele><time>2022-07-02T04:43:34Z</time></trkpt><trkpt lat="33.7688726" lon="133.1166857"><ele>1727.0166666666667</ele><time>2022-07-02T04:43:58Z</time></trkpt><trkpt lat="33.7688809" lon="133.116912"><ele>1721.5233333333333</ele><time>2022-07-02T04:44:19Z</time></trkpt><trkpt lat="33.7688652" lon="133.1171371"><ele>1712.9433333333334</ele><time>2022-07-02T04:44:32Z</time></trkpt><trkpt lat="33.7688352" lon="133.1173673"><ele>1704.7733333333333</ele><time>2022-07-02T04:44:49Z</time></trkpt><trkpt lat="33.7687645" lon="133.1175696"><ele>1700.3966666666665</ele><time>2022-07-02T04:45:00Z</time></trkpt><trkpt lat="33.7685854" lon="133.117492"><ele>1700.3333333333333</ele><time>2022-07-02T04:45:09Z</time></trkpt><trkpt lat="33.7684141" lon="133.1175653"><ele>1701.1899999999998</ele><time>2022-07-02T04:45:29Z</time></trkpt><trkpt lat="33.7686135" lon="133.1175781"><ele>1702.82</ele><time>2022-07-02T04:45:43Z</time></trkpt><trkpt lat="33.7684561" lon="133.1176983"><ele>1699.6599999999999</ele><time>2022-07-02T04:46:05Z</time></trkpt><trkpt lat="33.7683056" lon="133.1178231"><ele>1694.3500000000001</ele><time>2022-07-02T04:46:36Z</time></trkpt><trkpt lat="33.7683075" lon="133.1180475"><ele>1689.17</ele><time>2022-07-02T04:47:02Z</time></trkpt><trkpt lat="33.7682323" lon="133.1182527"><ele>1684.3166666666668</ele><time>2022-07-02T04:47:26Z</time></trkpt><trkpt lat="33.7680774" lon="133.1183836"><ele>1687.4000000000003</ele><time>2022-07-02T04:47:45Z</time></trkpt><trkpt lat="33.7680661" lon="133.1186027"><ele>1690.2766666666666</ele><time>2022-07-02T04:48:10Z</time></trkpt><trkpt lat="33.7681021" lon="133.1188192"><ele>1690.2166666666665</ele><time>2022-07-02T04:48:31Z</time></trkpt><trkpt lat="33.7680638" lon="133.1190326"><ele>1686.22</ele><time>2022-07-02T04:48:50Z</time></trkpt><trkpt lat="33.7679759" lon="133.1192306"><ele>1683.6433333333334</ele><time>2022-07-02T04:49:12Z</time></trkpt><trkpt lat="33.7678411" lon="133.1193832"><ele>1686.8333333333333</ele><time>2022-07-02T04:49:33Z</time></trkpt><trkpt lat="33.7678973" lon="133.119598"><ele>1689.3466666666666</ele><time>2022-07-02T04:49:55Z</time></trkpt><trkpt lat="33.7680006" lon="133.1197866"><ele>1691.9766666666667</ele><time>2022-07-02T04:50:14Z</time></trkpt><trkpt lat="33.768101" lon="133.1199742"><ele>1687.5766666666666</ele><time>2022-07-02T04:50:32Z</time></trkpt><trkpt lat="33.7680168" lon="133.1201675"><ele>1684.2933333333333</ele><time>2022-07-02T04:50:56Z</time></trkpt><trkpt lat="33.767837" lon="133.1202309"><ele>1681.45</ele><time>2022-07-02T04:51:26Z</time></trkpt><trkpt lat="33.7676899" lon="133.120359"><ele>1681.7833333333335</ele><time>2022-07-02T04:51:51Z</time></trkpt><trkpt lat="33.767583" lon="133.1205342"><ele>1679.8333333333333</ele><time>2022-07-02T04:52:13Z</time></trkpt><trkpt lat="33.7674395" lon="133.1206736"><ele>1675.6733333333332</ele><time>2022-07-02T04:52:32Z</time></trkpt><trkpt lat="33.7672585" lon="133.1207274"><ele>1675.1533333333334</ele><time>2022-07-02T04:52:53Z</time></trkpt><trkpt lat="33.7672039" lon="133.1209343"><ele>1672.0866666666668</ele><time>2022-07-02T04:53:13Z</time></trkpt><trkpt lat="33.7672316" lon="133.12115"><ele>1668.6466666666668</ele><time>2022-07-02T04:53:34Z</time></trkpt><trkpt lat="33.7671169" lon="133.1213239"><ele>1662.6166666666668</ele><time>2022-07-02T04:53:52Z</time></trkpt><trkpt lat="33.7670025" lon="133.1214997"><ele>1660.6800000000003</ele><time>2022-07-02T04:54:10Z</time></trkpt><trkpt lat="33.7668636" lon="133.1216407"><ele>1661.68</ele><time>2022-07-02T04:54:32Z</time></trkpt><trkpt lat="33.7668194" lon="133.1218608"><ele>1660.7233333333334</ele><time>2022-07-02T04:54:57Z</time></trkpt><trkpt lat="33.7667486" lon="133.1220732"><ele>1660.2466666666667</ele><time>2022-07-02T04:55:17Z</time></trkpt><trkpt lat="33.7666807" lon="133.1222841"><ele>1660.5533333333333</ele><time>2022-07-02T04:55:36Z</time></trkpt><trkpt lat="33.7666082" lon="133.1224857"><ele>1665.3566666666666</ele><time>2022-07-02T04:55:51Z</time></trkpt><trkpt lat="33.7666401" lon="133.1227163"><ele>1669.2933333333333</ele><time>2022-07-02T04:56:07Z</time></trkpt><trkpt lat="33.7666737" lon="133.1229322"><ele>1669.5433333333333</ele><time>2022-07-02T04:56:26Z</time></trkpt><trkpt lat="33.766686" lon="133.1231574"><ele>1667.4333333333334</ele><time>2022-07-02T04:56:41Z</time></trkpt><trkpt lat="33.7666859" lon="133.1233736"><ele>1664.9366666666667</ele><time>2022-07-02T04:56:56Z</time></trkpt><trkpt lat="33.7668408" lon="133.1235021"><ele>1663.8466666666666</ele><time>2022-07-02T04:57:12Z</time></trkpt><trkpt lat="33.7669139" lon="133.1237178"><ele>1662.6200000000001</ele><time>2022-07-02T04:57:33Z</time></trkpt><trkpt lat="33.7669686" lon="133.1239246"><ele>1659.4366666666665</ele><time>2022-07-02T04:57:53Z</time></trkpt><trkpt lat="33.7671544" lon="133.123918"><ele>1655.51</ele><time>2022-07-02T04:58:19Z</time></trkpt><trkpt lat="33.7671213" lon="133.1241339"><ele>1651.4733333333334</ele><time>2022-07-02T04:58:39Z</time></trkpt><trkpt lat="33.7670515" lon="133.1243373"><ele>1650.096666666667</ele><time>2022-07-02T04:58:56Z</time></trkpt><trkpt lat="33.766957" lon="133.1245271"><ele>1650.5533333333333</ele><time>2022-07-02T04:59:25Z</time></trkpt><trkpt lat="33.7669395" lon="133.1247494"><ele>1651.5600000000002</ele><time>2022-07-02T04:59:47Z</time></trkpt><trkpt lat="33.7668689" lon="133.1249648"><ele>1651.3466666666666</ele><time>2022-07-02T05:00:03Z</time></trkpt><trkpt lat="33.7668095" lon="133.1251757"><ele>1650.0733333333335</ele><time>2022-07-02T05:00:27Z</time></trkpt><trkpt lat="33.7666897" lon="133.1253402"><ele>1650.3833333333332</ele><time>2022-07-02T05:00:40Z</time></trkpt><trkpt lat="33.7665936" lon="133.1255269"><ele>1651.2533333333333</ele><time>2022-07-02T05:01:18Z</time></trkpt><trkpt lat="33.7666289" lon="133.1257485"><ele>1652.7</ele><time>2022-07-02T05:01:34Z</time></trkpt><trkpt lat="33.766593" lon="133.1259606"><ele>1652.7933333333333</ele><time>2022-07-02T05:01:53Z</time></trkpt><trkpt lat="33.766545" lon="133.1261855"><ele>1652.67</ele><time>2022-07-02T05:02:09Z</time></trkpt><trkpt lat="33.7664492" lon="133.1263764"><ele>1652.8266666666666</ele><time>2022-07-02T05:02:27Z</time></trkpt><trkpt lat="33.7662998" lon="133.1265146"><ele>1652.5200000000002</ele><time>2022-07-02T05:02:44Z</time></trkpt><trkpt lat="33.7661432" lon="133.1266467"><ele>1651.86</ele><time>2022-07-02T05:03:04Z</time></trkpt><trkpt lat="33.7659847" lon="133.1267531"><ele>1651.6733333333334</ele><time>2022-07-02T05:03:23Z</time></trkpt><trkpt lat="33.7659043" lon="133.1269629"><ele>1651.9566666666667</ele><time>2022-07-02T05:03:39Z</time></trkpt><trkpt lat="33.765829" lon="133.1271592"><ele>1653.0199999999998</ele><time>2022-07-02T05:04:01Z</time></trkpt><trkpt lat="33.7657693" lon="133.1273647"><ele>1654.7133333333334</ele><time>2022-07-02T05:04:19Z</time></trkpt><trkpt lat="33.7656675" lon="133.1275449"><ele>1657.38</ele><time>2022-07-02T05:04:41Z</time></trkpt><trkpt lat="33.7656239" lon="133.1277574"><ele>1660.8933333333334</ele><time>2022-07-02T05:05:17Z</time></trkpt><trkpt lat="33.7654594" lon="133.1278526"><ele>1662.3500000000001</ele><time>2022-07-02T05:05:41Z</time></trkpt><trkpt lat="33.7653977" lon="133.128059"><ele>1664.32</ele><time>2022-07-02T05:06:02Z</time></trkpt><trkpt lat="33.7653482" lon="133.12827"><ele>1663.7266666666667</ele><time>2022-07-02T05:06:22Z</time></trkpt><trkpt lat="33.7654017" lon="133.1284817"><ele>1663.716666666667</ele><time>2022-07-02T05:06:38Z</time></trkpt><trkpt lat="33.7654069" lon="133.1287002"><ele>1658.1200000000001</ele><time>2022-07-02T05:07:04Z</time></trkpt><trkpt lat="33.765388" lon="133.1289188"><ele>1651.9333333333334</ele><time>2022-07-02T05:07:33Z</time></trkpt><trkpt lat="33.7653326" lon="133.129128"><ele>1644.2666666666667</ele><time>2022-07-02T05:07:54Z</time></trkpt><trkpt lat="33.7653202" lon="133.1293542"><ele>1640.07</ele><time>2022-07-02T05:08:15Z</time></trkpt><trkpt lat="33.7654198" lon="133.1295376"><ele>1638.6633333333332</ele><time>2022-07-02T05:08:49Z</time></trkpt><trkpt lat="33.7653679" lon="133.1297628"><ele>1637.506666666667</ele><time>2022-07-02T05:09:04Z</time></trkpt><trkpt lat="33.7652315" lon="133.1299087"><ele>1635.9566666666667</ele><time>2022-07-02T05:09:21Z</time></trkpt><trkpt lat="33.7651507" lon="133.1301076"><ele>1634.2866666666669</ele><time>2022-07-02T05:09:39Z</time></trkpt><trkpt lat="33.7650548" lon="133.130292"><ele>1634.1466666666668</ele><time>2022-07-02T05:09:56Z</time></trkpt><trkpt lat="33.7649299" lon="133.1304484"><ele>1634.1033333333335</ele><time>2022-07-02T05:10:15Z</time></trkpt><trkpt lat="33.7648516" lon="133.1306464"><ele>1633.1200000000001</ele><time>2022-07-02T05:10:44Z</time></trkpt><trkpt lat="33.7647888" lon="133.1308524"><ele>1631.75</ele><time>2022-07-02T05:11:00Z</time></trkpt><trkpt lat="33.7648257" lon="133.1310672"><ele>1631.2666666666664</ele><time>2022-07-02T05:11:16Z</time></trkpt><trkpt lat="33.7647926" lon="133.1312884"><ele>1629.42</ele><time>2022-07-02T05:11:32Z</time></trkpt><trkpt lat="33.7647375" lon="133.1314949"><ele>1624.9233333333334</ele><time>2022-07-02T05:11:56Z</time></trkpt><trkpt lat="33.7647217" lon="133.1317156"><ele>1617.8566666666666</ele><time>2022-07-02T05:12:17Z</time></trkpt><trkpt lat="33.7648413" lon="133.1318772"><ele>1612.7433333333336</ele><time>2022-07-02T05:12:37Z</time></trkpt><trkpt lat="33.764936" lon="133.1320701"><ele>1608.4633333333334</ele><time>2022-07-02T05:12:58Z</time></trkpt><trkpt lat="33.7649021" lon="133.1322904"><ele>1606.206666666667</ele><time>2022-07-02T05:13:18Z</time></trkpt><trkpt lat="33.7648001" lon="133.1324707"><ele>1601.4000000000003</ele><time>2022-07-02T05:13:43Z</time></trkpt><trkpt lat="33.7646687" lon="133.1326252"><ele>1598.2333333333336</ele><time>2022-07-02T05:14:07Z</time></trkpt><trkpt lat="33.7645378" lon="133.1327804"><ele>1592.71</ele><time>2022-07-02T05:14:28Z</time></trkpt><trkpt lat="33.7644054" lon="133.1329507"><ele>1587.6166666666668</ele><time>2022-07-02T05:14:50Z</time></trkpt><trkpt lat="33.7642957" lon="133.1331265"><ele>1582.4066666666668</ele><time>2022-07-02T05:15:12Z</time></trkpt><trkpt lat="33.7641517" lon="133.1332714"><ele>1577.34</ele><time>2022-07-02T05:15:32Z</time></trkpt><trkpt lat="33.764029" lon="133.1334358"><ele>1572.8066666666666</ele><time>2022-07-02T05:15:50Z</time></trkpt><trkpt lat="33.7639202" lon="133.1336114"><ele>1567.4966666666667</ele><time>2022-07-02T05:16:11Z</time></trkpt><trkpt lat="33.7637959" lon="133.1337715"><ele>1564.1033333333335</ele><time>2022-07-02T05:16:33Z</time></trkpt><trkpt lat="33.7636679" lon="133.1339305"><ele>1563.3533333333335</ele><time>2022-07-02T05:16:52Z</time></trkpt><trkpt lat="33.763532" lon="133.134078"><ele>1563.4233333333334</ele><time>2022-07-02T05:17:21Z</time></trkpt><trkpt lat="33.7633541" lon="133.1341228"><ele>1562.3066666666666</ele><time>2022-07-02T05:17:53Z</time></trkpt><trkpt lat="33.7632211" lon="133.1339762"><ele>1560.96</ele><time>2022-07-02T05:18:07Z</time></trkpt><trkpt lat="33.7630374" lon="133.1340074"><ele>1560.96</ele><time>2022-07-02T05:18:25Z</time></trkpt><trkpt lat="33.7628767" lon="133.1341209"><ele>1564.63</ele><time>2022-07-02T05:18:41Z</time></trkpt><trkpt lat="33.7627386" lon="133.1342641"><ele>1564.8033333333333</ele><time>2022-07-02T05:19:02Z</time></trkpt><trkpt lat="33.7626721" lon="133.1344689"><ele>1561.5433333333333</ele><time>2022-07-02T05:19:23Z</time></trkpt><trkpt lat="33.7625403" lon="133.1346343"><ele>1555.8033333333333</ele><time>2022-07-02T05:19:41Z</time></trkpt><trkpt lat="33.7623991" lon="133.1347793"><ele>1551.2033333333336</ele><time>2022-07-02T05:20:02Z</time></trkpt><trkpt lat="33.7622177" lon="133.1347878"><ele>1551.506666666667</ele><time>2022-07-02T05:20:18Z</time></trkpt><trkpt lat="33.7620412" lon="133.1348552"><ele>1552.75</ele><time>2022-07-02T05:20:35Z</time></trkpt><trkpt lat="33.7619478" lon="133.1350495"><ele>1556.22</ele><time>2022-07-02T05:20:56Z</time></trkpt><trkpt lat="33.7618817" lon="133.1352513"><ele>1555.2366666666667</ele><time>2022-07-02T05:21:17Z</time></trkpt><trkpt lat="33.7618326" lon="133.1354605"><ele>1553.9766666666667</ele><time>2022-07-02T05:21:37Z</time></trkpt><trkpt lat="33.7618995" lon="133.135662"><ele>1547.76</ele><time>2022-07-02T05:21:58Z</time></trkpt><trkpt lat="33.7618152" lon="133.1358672"><ele>1544.0600000000002</ele><time>2022-07-02T05:22:21Z</time></trkpt><trkpt lat="33.7618925" lon="133.1360689"><ele>1537.92</ele><time>2022-07-02T05:22:46Z</time></trkpt><trkpt lat="33.7619217" lon="133.1362892"><ele>1534.1233333333337</ele><time>2022-07-02T05:23:04Z</time></trkpt><trkpt lat="33.7618903" lon="133.136506"><ele>1528.24</ele><time>2022-07-02T05:23:25Z</time></trkpt><trkpt lat="33.7617034" lon="133.1365044"><ele>1529.2133333333334</ele><time>2022-07-02T05:23:47Z</time></trkpt><trkpt lat="33.7616754" lon="133.1367211"><ele>1529.55</ele><time>2022-07-02T05:24:05Z</time></trkpt><trkpt lat="33.7617615" lon="133.1369139"><ele>1529.6933333333334</ele><time>2022-07-02T05:24:29Z</time></trkpt><trkpt lat="33.7617751" lon="133.137136"><ele>1525.6200000000001</ele><time>2022-07-02T05:24:47Z</time></trkpt><trkpt lat="33.7618311" lon="133.1373431"><ele>1522.243333333333</ele><time>2022-07-02T05:25:08Z</time></trkpt><trkpt lat="33.7617138" lon="133.1375109"><ele>1523.26</ele><time>2022-07-02T05:25:26Z</time></trkpt><trkpt lat="33.7616013" lon="133.1376863"><ele>1523.3733333333337</ele><time>2022-07-02T05:25:45Z</time></trkpt><trkpt lat="33.7614633" lon="133.1378325"><ele>1525.4166666666667</ele><time>2022-07-02T05:26:02Z</time></trkpt><trkpt lat="33.7613916" lon="133.138032"><ele>1524.5200000000002</ele><time>2022-07-02T05:26:19Z</time></trkpt><trkpt lat="33.7612729" lon="133.1382095"><ele>1525.1266666666668</ele><time>2022-07-02T05:26:38Z</time></trkpt><trkpt lat="33.7611245" lon="133.1383327"><ele>1525.5133333333333</ele><time>2022-07-02T05:26:55Z</time></trkpt><trkpt lat="33.7609422" lon="133.138306"><ele>1532.0633333333333</ele><time>2022-07-02T05:27:22Z</time></trkpt><trkpt lat="33.7607582" lon="133.138363"><ele>1539.18</ele><time>2022-07-02T05:27:38Z</time></trkpt><trkpt lat="33.7607046" lon="133.1385746"><ele>1544.1599999999999</ele><time>2022-07-02T05:27:51Z</time></trkpt><trkpt lat="33.7606473" lon="133.1387877"><ele>1539.8866666666665</ele><time>2022-07-02T05:28:04Z</time></trkpt><trkpt lat="33.7605288" lon="133.1389516"><ele>1532.6266666666668</ele><time>2022-07-02T05:28:19Z</time></trkpt><trkpt lat="33.7603598" lon="133.1390358"><ele>1527.7866666666669</ele><time>2022-07-02T05:28:35Z</time></trkpt><trkpt lat="33.7601789" lon="133.1390747"><ele>1527.25</ele><time>2022-07-02T05:28:50Z</time></trkpt><trkpt lat="33.7599975" lon="133.1391136"><ele>1527.74</ele><time>2022-07-02T05:29:06Z</time></trkpt><trkpt lat="33.7598154" lon="133.1391328"><ele>1528.2466666666667</ele><time>2022-07-02T05:29:24Z</time></trkpt><trkpt lat="33.7596682" lon="133.1392765"><ele>1528.2966666666669</ele><time>2022-07-02T05:29:41Z</time></trkpt><trkpt lat="33.7594953" lon="133.1393402"><ele>1528.4466666666667</ele><time>2022-07-02T05:29:59Z</time></trkpt><trkpt lat="33.7593232" lon="133.1394476"><ele>1528.17</ele><time>2022-07-02T05:30:25Z</time></trkpt><trkpt lat="33.7591318" lon="133.1394656"><ele>1528.4333333333334</ele><time>2022-07-02T05:30:54Z</time></trkpt><trkpt lat="33.7589735" lon="133.1395734"><ele>1528.3566666666666</ele><time>2022-07-02T05:31:20Z</time></trkpt><trkpt lat="33.7588799" lon="133.1397639"><ele>1526.42</ele><time>2022-07-02T05:31:48Z</time></trkpt><trkpt lat="33.7588143" lon="133.1399669"><ele>1517.9466666666667</ele><time>2022-07-02T05:32:05Z</time></trkpt><trkpt lat="33.758646" lon="133.1400448"><ele>1515.92</ele><time>2022-07-02T05:32:20Z</time></trkpt><trkpt lat="33.7585045" lon="133.1401819"><ele>1515.9099999999999</ele><time>2022-07-02T05:32:34Z</time></trkpt><trkpt lat="33.758419" lon="133.1403789"><ele>1520.71</ele><time>2022-07-02T05:32:57Z</time></trkpt><trkpt lat="33.7583351" lon="133.1405707"><ele>1519.1933333333334</ele><time>2022-07-02T05:33:15Z</time></trkpt><trkpt lat="33.7582531" lon="133.1407675"><ele>1518.2033333333336</ele><time>2022-07-02T05:33:31Z</time></trkpt><trkpt lat="33.7581234" lon="133.1409266"><ele>1519.1366666666665</ele><time>2022-07-02T05:33:52Z</time></trkpt><trkpt lat="33.758053" lon="133.1411274"><ele>1520.64</ele><time>2022-07-02T05:34:10Z</time></trkpt><trkpt lat="33.7579995" lon="133.1413357"><ele>1521.4000000000003</ele><time>2022-07-02T05:34:28Z</time></trkpt><trkpt lat="33.7579186" lon="133.1415289"><ele>1520.9333333333334</ele><time>2022-07-02T05:34:46Z</time></trkpt><trkpt lat="33.7578601" lon="133.1417411"><ele>1520.3266666666666</ele><time>2022-07-02T05:35:03Z</time></trkpt><trkpt lat="33.7578084" lon="133.1419481"><ele>1519.8166666666668</ele><time>2022-07-02T05:35:17Z</time></trkpt><trkpt lat="33.7577744" lon="133.1421622"><ele>1518.7733333333333</ele><time>2022-07-02T05:35:32Z</time></trkpt><trkpt lat="33.7576694" lon="133.1423487"><ele>1518.8333333333333</ele><time>2022-07-02T05:35:48Z</time></trkpt><trkpt lat="33.7575642" lon="133.1425254"><ele>1518.7600000000002</ele><time>2022-07-02T05:36:06Z</time></trkpt><trkpt lat="33.7574575" lon="133.1427029"><ele>1519.1166666666668</ele><time>2022-07-02T05:36:33Z</time></trkpt><trkpt lat="33.7573838" lon="133.1429124"><ele>1517.61</ele><time>2022-07-02T05:37:00Z</time></trkpt><trkpt lat="33.7573679" lon="133.1431281"><ele>1515.6133333333335</ele><time>2022-07-02T05:37:17Z</time></trkpt><trkpt lat="33.7573958" lon="133.1433415"><ele>1512.61</ele><time>2022-07-02T05:37:37Z</time></trkpt><trkpt lat="33.7573576" lon="133.1435652"><ele>1510.4666666666665</ele><time>2022-07-02T05:37:55Z</time></trkpt><trkpt lat="33.7572751" lon="133.1437669"><ele>1506.99</ele><time>2022-07-02T05:38:14Z</time></trkpt><trkpt lat="33.7572339" lon="133.1439806"><ele>1504.9266666666665</ele><time>2022-07-02T05:38:31Z</time></trkpt><trkpt lat="33.7572262" lon="133.1442098"><ele>1503.0933333333335</ele><time>2022-07-02T05:38:45Z</time></trkpt><trkpt lat="33.7571863" lon="133.1444243"><ele>1504.5233333333333</ele><time>2022-07-02T05:39:03Z</time></trkpt><trkpt lat="33.7571122" lon="133.144636"><ele>1508.1766666666665</ele><time>2022-07-02T05:39:21Z</time></trkpt><trkpt lat="33.7570803" lon="133.144854"><ele>1511.8266666666668</ele><time>2022-07-02T05:39:40Z</time></trkpt><trkpt lat="33.7570251" lon="133.1450671"><ele>1514.75</ele><time>2022-07-02T05:39:57Z</time></trkpt><trkpt lat="33.7569515" lon="133.1452708"><ele>1514.9333333333334</ele><time>2022-07-02T05:40:15Z</time></trkpt><trkpt lat="33.7568439" lon="133.1454462"><ele>1513.9566666666667</ele><time>2022-07-02T05:40:30Z</time></trkpt><trkpt lat="33.7567388" lon="133.1456379"><ele>1510.92</ele><time>2022-07-02T05:40:45Z</time></trkpt><trkpt lat="33.7566461" lon="133.145824"><ele>1507.9399999999998</ele><time>2022-07-02T05:40:59Z</time></trkpt><trkpt lat="33.7565601" lon="133.1460164"><ele>1505.2233333333334</ele><time>2022-07-02T05:41:13Z</time></trkpt><trkpt lat="33.7564941" lon="133.1462213"><ele>1502.9866666666667</ele><time>2022-07-02T05:41:30Z</time></trkpt><trkpt lat="33.7563292" lon="133.1463143"><ele>1500.006666666667</ele><time>2022-07-02T05:41:48Z</time></trkpt><trkpt lat="33.756145" lon="133.1463108"><ele>1496.41</ele><time>2022-07-02T05:42:02Z</time></trkpt><trkpt lat="33.7559665" lon="133.1463449"><ele>1494.0133333333335</ele><time>2022-07-02T05:42:17Z</time></trkpt><trkpt lat="33.7557915" lon="133.1464219"><ele>1493.7</ele><time>2022-07-02T05:42:33Z</time></trkpt><trkpt lat="33.7556332" lon="133.1465507"><ele>1495.07</ele><time>2022-07-02T05:42:48Z</time></trkpt><trkpt lat="33.7555151" lon="133.1467177"><ele>1496.2633333333333</ele><time>2022-07-02T05:43:03Z</time></trkpt><trkpt lat="33.755455" lon="133.1469309"><ele>1496.136666666667</ele><time>2022-07-02T05:43:19Z</time></trkpt><trkpt lat="33.7553783" lon="133.1471268"><ele>1494.91</ele><time>2022-07-02T05:43:36Z</time></trkpt><trkpt lat="33.7552418" lon="133.1472741"><ele>1493.7133333333334</ele><time>2022-07-02T05:43:56Z</time></trkpt><trkpt lat="33.7551466" lon="133.1474615"><ele>1493.54</ele><time>2022-07-02T05:44:11Z</time></trkpt><trkpt lat="33.7549593" lon="133.1474373"><ele>1494.3133333333335</ele><time>2022-07-02T05:44:25Z</time></trkpt><trkpt lat="33.7548335" lon="133.147273"><ele>1494.0866666666668</ele><time>2022-07-02T05:44:39Z</time></trkpt><trkpt lat="33.7546648" lon="133.1471917"><ele>1493.4400000000003</ele><time>2022-07-02T05:44:53Z</time></trkpt><trkpt lat="33.754502" lon="133.1470726"><ele>1491.256666666667</ele><time>2022-07-02T05:45:08Z</time></trkpt><trkpt lat="33.7543176" lon="133.1470115"><ele>1489.2833333333335</ele><time>2022-07-02T05:45:24Z</time></trkpt><trkpt lat="33.754132" lon="133.1470125"><ele>1486.61</ele><time>2022-07-02T05:45:37Z</time></trkpt><trkpt lat="33.753951" lon="133.1469854"><ele>1485.2266666666667</ele><time>2022-07-02T05:45:53Z</time></trkpt><trkpt lat="33.7537763" lon="133.1470443"><ele>1484.7900000000002</ele><time>2022-07-02T05:46:06Z</time></trkpt><trkpt lat="33.7536144" lon="133.147153"><ele>1484.8433333333332</ele><time>2022-07-02T05:46:21Z</time></trkpt></trkseg></trk></gpx>