<?xml version='1.0' encoding='UTF-8'?><gpx creator="YAMAP - https://yamap.com" xsi:schemaLocation="http://www.topografix.com/GPX/1/1 http://www.topografix.com/GPX/1/1/gpx.xsd" version="1.1" xmlns="http://www.topografix.com/GPX/1/1" xmlns:xsi="http://www.w3.org/2001/XMLSchema-instance"><metadata><bounds maxlat="34.0088044" maxlon="132.8893484" minlat="33.9888699" minlon="132.8339632"/></metadata><trk><name>陣が森・岩が森・スクモ塚・高萩山・長者森</name><number>1</number><trkseg><trkpt lat="33.9959012" lon="132.8783848"><ele>356.98</ele><time>2024-12-14T22:21:48Z</time></trkpt><trkpt lat="33.9960751" lon="132.8784964"><ele>358.07000000000005</ele><time>2024-12-14T22:22:43Z</time></trkpt><trkpt lat="33.9962341" lon="132.8786019"><ele>358.34</ele><time>2024-12-14T22:23:05Z</time></trkpt><trkpt lat="33.9964225" lon="132.8786618"><ele>359.20666666666665</ele><time>2024-12-14T22:23:26Z</time></trkpt><trkpt lat="33.9966042" lon="132.8786792"><ele>358.8066666666667</ele><time>2024-12-14T22:23:47Z</time></trkpt><trkpt lat="33.9967736" lon="132.8787641"><ele>358.3066666666667</ele><time>2024-12-14T22:25:40Z</time></trkpt><trkpt lat="33.9969016" lon="132.8789379"><ele>355.69</ele><time>2024-12-14T22:25:55Z</time></trkpt><trkpt lat="33.9969189" lon="132.8791606"><ele>353.09</ele><time>2024-12-14T22:26:09Z</time></trkpt><trkpt lat="33.9970222" lon="132.8793846"><ele>353.51000000000005</ele><time>2024-12-14T22:26:35Z</time></trkpt><trkpt lat="33.9971104" lon="132.8795934"><ele>356.8066666666667</ele><time>2024-12-14T22:26:54Z</time></trkpt><trkpt lat="33.99708" lon="132.8798385"><ele>362.1066666666666</ele><time>2024-12-14T22:27:12Z</time></trkpt><trkpt lat="33.996878" lon="132.8798485"><ele>366.25</ele><time>2024-12-14T22:27:30Z</time></trkpt><trkpt lat="33.9966932" lon="132.8798991"><ele>370.3666666666666</ele><time>2024-12-14T22:27:48Z</time></trkpt><trkpt lat="33.9968677" lon="132.8800302"><ele>370.3066666666667</ele><time>2024-12-14T22:28:03Z</time></trkpt><trkpt lat="33.9969062" lon="132.8802448"><ele>367.0733333333333</ele><time>2024-12-14T22:28:15Z</time></trkpt><trkpt lat="33.9969815" lon="132.8804582"><ele>364.8933333333334</ele><time>2024-12-14T22:28:33Z</time></trkpt><trkpt lat="33.9969535" lon="132.880705"><ele>368.08</ele><time>2024-12-14T22:28:54Z</time></trkpt><trkpt lat="33.9968224" lon="132.8808674"><ele>372.49666666666667</ele><time>2024-12-14T22:29:15Z</time></trkpt><trkpt lat="33.9969288" lon="132.8810427"><ele>372.3033333333333</ele><time>2024-12-14T22:29:36Z</time></trkpt><trkpt lat="33.996813" lon="132.8812163"><ele>371.4866666666667</ele><time>2024-12-14T22:29:56Z</time></trkpt><trkpt lat="33.9966001" lon="132.8811792"><ele>374.3833333333334</ele><time>2024-12-14T22:30:09Z</time></trkpt><trkpt lat="33.9964163" lon="132.8812057"><ele>379.9266666666667</ele><time>2024-12-14T22:30:29Z</time></trkpt><trkpt lat="33.9963116" lon="132.881387"><ele>381.56333333333333</ele><time>2024-12-14T22:30:42Z</time></trkpt><trkpt lat="33.9961401" lon="132.8814671"><ele>380.5833333333333</ele><time>2024-12-14T22:30:54Z</time></trkpt><trkpt lat="33.9959748" lon="132.8816249"><ele>378.91</ele><time>2024-12-14T22:31:12Z</time></trkpt><trkpt lat="33.9957567" lon="132.8816537"><ele>380.52</ele><time>2024-12-14T22:31:27Z</time></trkpt><trkpt lat="33.9955872" lon="132.8817809"><ele>380.96000000000004</ele><time>2024-12-14T22:31:42Z</time></trkpt><trkpt lat="33.9956436" lon="132.8819966"><ele>378.74</ele><time>2024-12-14T22:32:12Z</time></trkpt><trkpt lat="33.9956084" lon="132.8822262"><ele>373.67</ele><time>2024-12-14T22:32:30Z</time></trkpt><trkpt lat="33.9954443" lon="132.8823162"><ele>373.77666666666664</ele><time>2024-12-14T22:32:42Z</time></trkpt><trkpt lat="33.995257" lon="132.8823265"><ele>377.29333333333335</ele><time>2024-12-14T22:32:57Z</time></trkpt><trkpt lat="33.9951288" lon="132.882148"><ele>383.9666666666667</ele><time>2024-12-14T22:33:15Z</time></trkpt><trkpt lat="33.9949572" lon="132.8822483"><ele>387.37000000000006</ele><time>2024-12-14T22:33:33Z</time></trkpt><trkpt lat="33.994817" lon="132.882393"><ele>391.4866666666667</ele><time>2024-12-14T22:34:00Z</time></trkpt><trkpt lat="33.9947023" lon="132.882578"><ele>394.6433333333334</ele><time>2024-12-14T22:34:25Z</time></trkpt><trkpt lat="33.9946197" lon="132.8827724"><ele>399.04333333333335</ele><time>2024-12-14T22:34:34Z</time></trkpt><trkpt lat="33.9945913" lon="132.8830155"><ele>404.41333333333336</ele><time>2024-12-14T22:34:45Z</time></trkpt><trkpt lat="33.9946001" lon="132.8832455"><ele>406.8933333333334</ele><time>2024-12-14T22:35:00Z</time></trkpt><trkpt lat="33.9947956" lon="132.8832636"><ele>403.32666666666665</ele><time>2024-12-14T22:35:03Z</time></trkpt><trkpt lat="33.9945971" lon="132.8832777"><ele>401.2066666666667</ele><time>2024-12-14T22:35:34Z</time></trkpt><trkpt lat="33.994232" lon="132.883632"><ele>401.23</ele><time>2024-12-14T22:36:10Z</time></trkpt><trkpt lat="33.9940536" lon="132.883701"><ele>405.82</ele><time>2024-12-14T22:36:19Z</time></trkpt><trkpt lat="33.9938297" lon="132.8837779"><ele>408.42</ele><time>2024-12-14T22:36:46Z</time></trkpt><trkpt lat="33.993668" lon="132.8840186"><ele>415.3</ele><time>2024-12-14T22:37:15Z</time></trkpt><trkpt lat="33.9938281" lon="132.8842281"><ele>418.97333333333336</ele><time>2024-12-14T22:37:35Z</time></trkpt><trkpt lat="33.9940015" lon="132.8843534"><ele>420.9166666666667</ele><time>2024-12-14T22:37:49Z</time></trkpt><trkpt lat="33.9941063" lon="132.8845315"><ele>419.93333333333334</ele><time>2024-12-14T22:38:02Z</time></trkpt><trkpt lat="33.9941211" lon="132.8848109"><ele>419.7633333333333</ele><time>2024-12-14T22:38:19Z</time></trkpt><trkpt lat="33.9941549" lon="132.8850288"><ele>421.22</ele><time>2024-12-14T22:38:34Z</time></trkpt><trkpt lat="33.9943225" lon="132.8851113"><ele>424.02666666666664</ele><time>2024-12-14T22:39:03Z</time></trkpt><trkpt lat="33.9945106" lon="132.8851097"><ele>427.48999999999995</ele><time>2024-12-14T22:39:36Z</time></trkpt><trkpt lat="33.9943985" lon="132.8852801"><ele>430.79333333333335</ele><time>2024-12-14T22:39:57Z</time></trkpt><trkpt lat="33.9943292" lon="132.8855019"><ele>433.75666666666666</ele><time>2024-12-14T22:40:17Z</time></trkpt><trkpt lat="33.9942064" lon="132.885663"><ele>437.8766666666667</ele><time>2024-12-14T22:40:40Z</time></trkpt><trkpt lat="33.99403" lon="132.8855994"><ele>441.6766666666667</ele><time>2024-12-14T22:40:58Z</time></trkpt><trkpt lat="33.9938673" lon="132.8854858"><ele>444.31</ele><time>2024-12-14T22:41:28Z</time></trkpt><trkpt lat="33.9937061" lon="132.8853396"><ele>447.0166666666667</ele><time>2024-12-14T22:41:48Z</time></trkpt><trkpt lat="33.9935133" lon="132.8852929"><ele>452.34666666666664</ele><time>2024-12-14T22:42:09Z</time></trkpt><trkpt lat="33.9933229" lon="132.8853289"><ele>456.01</ele><time>2024-12-14T22:42:26Z</time></trkpt><trkpt lat="33.9931578" lon="132.8854281"><ele>458.43</ele><time>2024-12-14T22:42:41Z</time></trkpt><trkpt lat="33.9930055" lon="132.8855469"><ele>457.0466666666666</ele><time>2024-12-14T22:42:55Z</time></trkpt><trkpt lat="33.9928185" lon="132.8856182"><ele>455.1766666666667</ele><time>2024-12-14T22:43:12Z</time></trkpt><trkpt lat="33.9926388" lon="132.8857493"><ele>454.73</ele><time>2024-12-14T22:43:28Z</time></trkpt><trkpt lat="33.9924791" lon="132.8858758"><ele>456.12000000000006</ele><time>2024-12-14T22:43:42Z</time></trkpt><trkpt lat="33.9924215" lon="132.8860843"><ele>458.76</ele><time>2024-12-14T22:44:05Z</time></trkpt><trkpt lat="33.9924404" lon="132.8863283"><ele>460.0466666666667</ele><time>2024-12-14T22:44:38Z</time></trkpt><trkpt lat="33.9923957" lon="132.8865484"><ele>460.52000000000004</ele><time>2024-12-14T22:44:53Z</time></trkpt><trkpt lat="33.992238" lon="132.8866576"><ele>460.90333333333336</ele><time>2024-12-14T22:45:07Z</time></trkpt><trkpt lat="33.9920512" lon="132.886622"><ele>461.83</ele><time>2024-12-14T22:45:22Z</time></trkpt><trkpt lat="33.9918773" lon="132.8867475"><ele>462.01</ele><time>2024-12-14T22:45:39Z</time></trkpt><trkpt lat="33.9917177" lon="132.8868649"><ele>460.3833333333334</ele><time>2024-12-14T22:45:55Z</time></trkpt><trkpt lat="33.9915829" lon="132.8870627"><ele>457.1166666666666</ele><time>2024-12-14T22:46:10Z</time></trkpt><trkpt lat="33.9914158" lon="132.8872428"><ele>454.07666666666665</ele><time>2024-12-14T22:46:25Z</time></trkpt><trkpt lat="33.9912303" lon="132.8873478"><ele>452.6966666666667</ele><time>2024-12-14T22:46:40Z</time></trkpt><trkpt lat="33.991101" lon="132.8875061"><ele>453.5833333333333</ele><time>2024-12-14T22:46:55Z</time></trkpt><trkpt lat="33.9910802" lon="132.8877362"><ele>454.3300000000001</ele><time>2024-12-14T22:47:13Z</time></trkpt><trkpt lat="33.9910324" lon="132.8879732"><ele>457.28000000000003</ele><time>2024-12-14T22:47:41Z</time></trkpt><trkpt lat="33.9909384" lon="132.8881671"><ele>460.18333333333334</ele><time>2024-12-14T22:48:02Z</time></trkpt><trkpt lat="33.99089" lon="132.8884003"><ele>464.04</ele><time>2024-12-14T22:48:20Z</time></trkpt><trkpt lat="33.9908303" lon="132.8886062"><ele>466.7966666666667</ele><time>2024-12-14T22:48:35Z</time></trkpt><trkpt lat="33.9907303" lon="132.8888278"><ele>469.2066666666667</ele><time>2024-12-14T22:48:53Z</time></trkpt><trkpt lat="33.9906097" lon="132.8890219"><ele>472.40000000000003</ele><time>2024-12-14T22:49:13Z</time></trkpt><trkpt lat="33.9904911" lon="132.8892161"><ele>473.4166666666667</ele><time>2024-12-14T22:49:33Z</time></trkpt><trkpt lat="33.9903332" lon="132.889075"><ele>476.03</ele><time>2024-12-14T22:49:54Z</time></trkpt><trkpt lat="33.9902256" lon="132.888892"><ele>479.4433333333333</ele><time>2024-12-14T22:50:33Z</time></trkpt><trkpt lat="33.9901873" lon="132.8886687"><ele>485.68333333333334</ele><time>2024-12-14T22:50:54Z</time></trkpt><trkpt lat="33.9901466" lon="132.8884412"><ele>489.73333333333335</ele><time>2024-12-14T22:51:14Z</time></trkpt><trkpt lat="33.9900833" lon="132.8882314"><ele>492.45</ele><time>2024-12-14T22:51:28Z</time></trkpt><trkpt lat="33.9901453" lon="132.8880095"><ele>492.52333333333337</ele><time>2024-12-14T22:51:45Z</time></trkpt><trkpt lat="33.9901154" lon="132.887788"><ele>491.1966666666667</ele><time>2024-12-14T22:52:08Z</time></trkpt><trkpt lat="33.9900192" lon="132.8879729"><ele>492.75</ele><time>2024-12-14T22:52:29Z</time></trkpt><trkpt lat="33.9899141" lon="132.8881672"><ele>496.6466666666667</ele><time>2024-12-14T22:53:00Z</time></trkpt><trkpt lat="33.989795" lon="132.8883542"><ele>504.3233333333333</ele><time>2024-12-14T22:53:31Z</time></trkpt><trkpt lat="33.9897157" lon="132.8885757"><ele>509.4566666666667</ele><time>2024-12-14T22:54:19Z</time></trkpt><trkpt lat="33.9895459" lon="132.8886838"><ele>514.9466666666667</ele><time>2024-12-14T22:54:43Z</time></trkpt><trkpt lat="33.9894136" lon="132.8888471"><ele>518.5566666666667</ele><time>2024-12-14T22:55:28Z</time></trkpt><trkpt lat="33.9892419" lon="132.8889234"><ele>521.7733333333334</ele><time>2024-12-14T22:55:43Z</time></trkpt><trkpt lat="33.9890828" lon="132.8890332"><ele>524.77</ele><time>2024-12-14T22:56:01Z</time></trkpt><trkpt lat="33.989048" lon="132.8892515"><ele>528.3166666666667</ele><time>2024-12-14T22:57:01Z</time></trkpt><trkpt lat="33.9888699" lon="132.8893484"><ele>531.78</ele><time>2024-12-14T22:57:20Z</time></trkpt><trkpt lat="33.9890249" lon="132.8891658"><ele>532.4466666666667</ele><time>2024-12-14T23:02:53Z</time></trkpt><trkpt lat="33.9891749" lon="132.8889939"><ele>530.6133333333333</ele><time>2024-12-14T23:03:08Z</time></trkpt><trkpt lat="33.9893408" lon="132.8888851"><ele>526.4666666666666</ele><time>2024-12-14T23:03:30Z</time></trkpt><trkpt lat="33.9895379" lon="132.8888543"><ele>521.9966666666667</ele><time>2024-12-14T23:03:47Z</time></trkpt><trkpt lat="33.9896668" lon="132.8886585"><ele>518.8433333333334</ele><time>2024-12-14T23:04:02Z</time></trkpt><trkpt lat="33.9897489" lon="132.8884214"><ele>516.0466666666666</ele><time>2024-12-14T23:04:17Z</time></trkpt><trkpt lat="33.989889" lon="132.8882087"><ele>511.3633333333334</ele><time>2024-12-14T23:04:39Z</time></trkpt><trkpt lat="33.9899987" lon="132.8880145"><ele>505.4533333333333</ele><time>2024-12-14T23:05:03Z</time></trkpt><trkpt lat="33.9901668" lon="132.8878962"><ele>498.34666666666664</ele><time>2024-12-14T23:06:09Z</time></trkpt><trkpt lat="33.9903421" lon="132.8880119"><ele>491.1366666666667</ele><time>2024-12-14T23:07:16Z</time></trkpt><trkpt lat="33.990511" lon="132.8881391"><ele>484.72</ele><time>2024-12-14T23:07:27Z</time></trkpt><trkpt lat="33.9905826" lon="132.8878026"><ele>478.3333333333333</ele><time>2024-12-14T23:07:39Z</time></trkpt><trkpt lat="33.9907022" lon="132.8875694"><ele>473.3966666666667</ele><time>2024-12-14T23:07:48Z</time></trkpt><trkpt lat="33.9907526" lon="132.8873281"><ele>466.92666666666673</ele><time>2024-12-14T23:08:02Z</time></trkpt><trkpt lat="33.9909308" lon="132.88739"><ele>461.27666666666664</ele><time>2024-12-14T23:08:14Z</time></trkpt><trkpt lat="33.9910005" lon="132.8876307"><ele>457.93666666666667</ele><time>2024-12-14T23:08:32Z</time></trkpt><trkpt lat="33.991157" lon="132.8875229"><ele>455.62000000000006</ele><time>2024-12-14T23:08:50Z</time></trkpt><trkpt lat="33.9913243" lon="132.8874051"><ele>454.43333333333334</ele><time>2024-12-14T23:09:02Z</time></trkpt><trkpt lat="33.9914668" lon="132.8872673"><ele>452.9066666666667</ele><time>2024-12-14T23:09:17Z</time></trkpt><trkpt lat="33.9915794" lon="132.887062"><ele>452.6366666666666</ele><time>2024-12-14T23:09:32Z</time></trkpt><trkpt lat="33.9917197" lon="132.8869186"><ele>454.07666666666665</ele><time>2024-12-14T23:09:47Z</time></trkpt><trkpt lat="33.9918716" lon="132.8867876"><ele>456.40000000000003</ele><time>2024-12-14T23:10:02Z</time></trkpt><trkpt lat="33.9920592" lon="132.8867453"><ele>459.40333333333336</ele><time>2024-12-14T23:10:26Z</time></trkpt><trkpt lat="33.9922566" lon="132.8866844"><ele>460.90333333333336</ele><time>2024-12-14T23:10:44Z</time></trkpt><trkpt lat="33.9923725" lon="132.8864886"><ele>461.45</ele><time>2024-12-14T23:11:02Z</time></trkpt><trkpt lat="33.99243" lon="132.8862454"><ele>461.01</ele><time>2024-12-14T23:11:17Z</time></trkpt><trkpt lat="33.992419" lon="132.8859984"><ele>460.7833333333333</ele><time>2024-12-14T23:11:35Z</time></trkpt><trkpt lat="33.992545" lon="132.8858264"><ele>460.3</ele><time>2024-12-14T23:11:50Z</time></trkpt><trkpt lat="33.9927123" lon="132.8857044"><ele>457.9833333333333</ele><time>2024-12-14T23:12:05Z</time></trkpt><trkpt lat="33.9929027" lon="132.8856975"><ele>454.8866666666666</ele><time>2024-12-14T23:12:35Z</time></trkpt><trkpt lat="33.9930239" lon="132.8855211"><ele>453.49666666666667</ele><time>2024-12-14T23:13:53Z</time></trkpt><trkpt lat="33.9931985" lon="132.8854142"><ele>454.3766666666667</ele><time>2024-12-14T23:14:13Z</time></trkpt><trkpt lat="33.9933877" lon="132.8853642"><ele>456.55333333333334</ele><time>2024-12-14T23:14:28Z</time></trkpt><trkpt lat="33.9935835" lon="132.8854097"><ele>455.9833333333333</ele><time>2024-12-14T23:14:43Z</time></trkpt><trkpt lat="33.9937647" lon="132.8855065"><ele>453.4766666666667</ele><time>2024-12-14T23:14:58Z</time></trkpt><trkpt lat="33.9939608" lon="132.8855894"><ele>448.52666666666664</ele><time>2024-12-14T23:15:16Z</time></trkpt><trkpt lat="33.9941161" lon="132.8857091"><ele>444.48</ele><time>2024-12-14T23:15:31Z</time></trkpt><trkpt lat="33.9942938" lon="132.8856332"><ele>442.5</ele><time>2024-12-14T23:15:46Z</time></trkpt><trkpt lat="33.9943856" lon="132.8854238"><ele>441.01666666666665</ele><time>2024-12-14T23:16:01Z</time></trkpt><trkpt lat="33.9945056" lon="132.8852094"><ele>436.77</ele><time>2024-12-14T23:16:19Z</time></trkpt><trkpt lat="33.9945421" lon="132.8849819"><ele>431.56</ele><time>2024-12-14T23:16:34Z</time></trkpt><trkpt lat="33.994339" lon="132.8849995"><ele>427.97333333333336</ele><time>2024-12-14T23:16:52Z</time></trkpt><trkpt lat="33.9941526" lon="132.8849471"><ele>424.8433333333334</ele><time>2024-12-14T23:17:07Z</time></trkpt><trkpt lat="33.994107" lon="132.8847293"><ele>423.49333333333334</ele><time>2024-12-14T23:17:22Z</time></trkpt><trkpt lat="33.9941357" lon="132.8844715"><ele>419.3833333333334</ele><time>2024-12-14T23:17:40Z</time></trkpt><trkpt lat="33.9939874" lon="132.8842912"><ele>418.86999999999995</ele><time>2024-12-14T23:17:58Z</time></trkpt><trkpt lat="33.9938115" lon="132.8841975"><ele>417.75</ele><time>2024-12-14T23:18:13Z</time></trkpt><trkpt lat="33.9937972" lon="132.8839418"><ele>417.1266666666666</ele><time>2024-12-14T23:18:28Z</time></trkpt><trkpt lat="33.9939156" lon="132.8837696"><ele>414.4633333333333</ele><time>2024-12-14T23:18:46Z</time></trkpt><trkpt lat="33.9941082" lon="132.8837388"><ele>410.79</ele><time>2024-12-14T23:19:01Z</time></trkpt><trkpt lat="33.9942619" lon="132.8835597"><ele>407.6933333333333</ele><time>2024-12-14T23:19:19Z</time></trkpt><trkpt lat="33.9944495" lon="132.883414"><ele>406.16</ele><time>2024-12-14T23:19:43Z</time></trkpt><trkpt lat="33.9946119" lon="132.8832651"><ele>403.91</ele><time>2024-12-14T23:19:58Z</time></trkpt><trkpt lat="33.9947373" lon="132.8830659"><ele>402.5566666666667</ele><time>2024-12-14T23:20:16Z</time></trkpt><trkpt lat="33.9946866" lon="132.882858"><ele>399.6366666666667</ele><time>2024-12-14T23:20:31Z</time></trkpt><trkpt lat="33.9947391" lon="132.8826491"><ele>397.9866666666667</ele><time>2024-12-14T23:20:46Z</time></trkpt><trkpt lat="33.994803" lon="132.8824071"><ele>396.0733333333333</ele><time>2024-12-14T23:21:04Z</time></trkpt><trkpt lat="33.9949435" lon="132.8822629"><ele>394.57</ele><time>2024-12-14T23:21:16Z</time></trkpt><trkpt lat="33.9951577" lon="132.8822391"><ele>391.1466666666667</ele><time>2024-12-14T23:21:31Z</time></trkpt><trkpt lat="33.9952643" lon="132.8824241"><ele>385.9466666666667</ele><time>2024-12-14T23:21:46Z</time></trkpt><trkpt lat="33.9954433" lon="132.8824597"><ele>381.99666666666667</ele><time>2024-12-14T23:22:01Z</time></trkpt><trkpt lat="33.9954272" lon="132.882229"><ele>380.72</ele><time>2024-12-14T23:22:16Z</time></trkpt><trkpt lat="33.9954314" lon="132.8819957"><ele>381.5133333333333</ele><time>2024-12-14T23:22:31Z</time></trkpt><trkpt lat="33.9955406" lon="132.8818093"><ele>381.4333333333334</ele><time>2024-12-14T23:22:46Z</time></trkpt><trkpt lat="33.9957365" lon="132.8817091"><ele>380.28000000000003</ele><time>2024-12-14T23:23:01Z</time></trkpt><trkpt lat="33.9959224" lon="132.8816296"><ele>379.71000000000004</ele><time>2024-12-14T23:23:16Z</time></trkpt><trkpt lat="33.9960691" lon="132.8814611"><ele>380.65333333333336</ele><time>2024-12-14T23:23:31Z</time></trkpt><trkpt lat="33.9962187" lon="132.8813365"><ele>382.3333333333333</ele><time>2024-12-14T23:23:46Z</time></trkpt><trkpt lat="33.9963975" lon="132.8812423"><ele>383.57</ele><time>2024-12-14T23:24:01Z</time></trkpt><trkpt lat="33.9965795" lon="132.8812378"><ele>382.4666666666667</ele><time>2024-12-14T23:24:16Z</time></trkpt><trkpt lat="33.9967601" lon="132.881277"><ele>378.31</ele><time>2024-12-14T23:24:31Z</time></trkpt><trkpt lat="33.9968374" lon="132.8810577"><ele>374.25</ele><time>2024-12-14T23:24:46Z</time></trkpt><trkpt lat="33.9969049" lon="132.8808385"><ele>372.2266666666667</ele><time>2024-12-14T23:25:01Z</time></trkpt><trkpt lat="33.9970401" lon="132.8806719"><ele>371.3633333333333</ele><time>2024-12-14T23:25:16Z</time></trkpt><trkpt lat="33.9970295" lon="132.8804474"><ele>370.0733333333333</ele><time>2024-12-14T23:25:34Z</time></trkpt><trkpt lat="33.9968988" lon="132.8802559"><ele>366.00333333333333</ele><time>2024-12-14T23:25:52Z</time></trkpt><trkpt lat="33.9967344" lon="132.8801168"><ele>366.59999999999997</ele><time>2024-12-14T23:26:07Z</time></trkpt><trkpt lat="33.9968577" lon="132.8799479"><ele>367.0833333333333</ele><time>2024-12-14T23:26:22Z</time></trkpt><trkpt lat="33.9970561" lon="132.879875"><ele>368.6466666666667</ele><time>2024-12-14T23:26:43Z</time></trkpt><trkpt lat="33.997116" lon="132.87966"><ele>366.23333333333335</ele><time>2024-12-14T23:26:58Z</time></trkpt><trkpt lat="33.9970761" lon="132.8794211"><ele>362.5833333333333</ele><time>2024-12-14T23:27:13Z</time></trkpt><trkpt lat="33.9969649" lon="132.8791974"><ele>356.9433333333333</ele><time>2024-12-14T23:27:28Z</time></trkpt><trkpt lat="33.9968572" lon="132.8789898"><ele>354.2333333333333</ele><time>2024-12-14T23:27:42Z</time></trkpt><trkpt lat="33.9967091" lon="132.8788181"><ele>355.0733333333333</ele><time>2024-12-14T23:27:57Z</time></trkpt><trkpt lat="33.9966078" lon="132.8786366"><ele>358.0133333333333</ele><time>2024-12-14T23:28:27Z</time></trkpt><trkpt lat="33.9966221" lon="132.8784104"><ele>359.8666666666666</ele><time>2024-12-14T23:29:32Z</time></trkpt><trkpt lat="33.9965239" lon="132.8782265"><ele>362.28999999999996</ele><time>2024-12-14T23:30:52Z</time></trkpt><trkpt lat="33.9964787" lon="132.8780094"><ele>368.1966666666667</ele><time>2024-12-14T23:31:40Z</time></trkpt><trkpt lat="33.9963706" lon="132.8778259"><ele>375.00666666666666</ele><time>2024-12-14T23:32:31Z</time></trkpt><trkpt lat="33.9964918" lon="132.8776329"><ele>380.24666666666667</ele><time>2024-12-14T23:34:46Z</time></trkpt><trkpt lat="33.996666" lon="132.8775456"><ele>382.65333333333336</ele><time>2024-12-14T23:35:07Z</time></trkpt><trkpt lat="33.9968581" lon="132.8775532"><ele>381.4466666666667</ele><time>2024-12-14T23:35:22Z</time></trkpt><trkpt lat="33.9970455" lon="132.8776621"><ele>377.8066666666667</ele><time>2024-12-14T23:35:40Z</time></trkpt><trkpt lat="33.9972346" lon="132.877701"><ele>374.43</ele><time>2024-12-14T23:35:58Z</time></trkpt><trkpt lat="33.9974207" lon="132.8778295"><ele>372.6566666666667</ele><time>2024-12-14T23:36:17Z</time></trkpt><trkpt lat="33.9975999" lon="132.8778575"><ele>373.71333333333337</ele><time>2024-12-14T23:36:59Z</time></trkpt><trkpt lat="33.9974259" lon="132.8777534"><ele>373.68333333333334</ele><time>2024-12-14T23:38:28Z</time></trkpt><trkpt lat="33.9973345" lon="132.8775407"><ele>370.49666666666667</ele><time>2024-12-14T23:38:52Z</time></trkpt><trkpt lat="33.997136" lon="132.8774799"><ele>367.28666666666663</ele><time>2024-12-14T23:39:13Z</time></trkpt><trkpt lat="33.9970117" lon="132.8772957"><ele>365.8733333333334</ele><time>2024-12-14T23:39:30Z</time></trkpt><trkpt lat="33.9971334" lon="132.8770931"><ele>365.87999999999994</ele><time>2024-12-14T23:39:47Z</time></trkpt><trkpt lat="33.9971196" lon="132.8768425"><ele>365.82</ele><time>2024-12-14T23:40:14Z</time></trkpt><trkpt lat="33.9970257" lon="132.8766316"><ele>367.04333333333335</ele><time>2024-12-14T23:40:38Z</time></trkpt><trkpt lat="33.9969199" lon="132.8764358"><ele>368.88000000000005</ele><time>2024-12-14T23:41:05Z</time></trkpt><trkpt lat="33.9967275" lon="132.8765149"><ele>372.42</ele><time>2024-12-14T23:41:26Z</time></trkpt><trkpt lat="33.9965262" lon="132.8765127"><ele>374.8333333333333</ele><time>2024-12-14T23:42:05Z</time></trkpt><trkpt lat="33.9963523" lon="132.8765747"><ele>380.24333333333334</ele><time>2024-12-14T23:42:23Z</time></trkpt><trkpt lat="33.9961979" lon="132.8764395"><ele>383.13000000000005</ele><time>2024-12-14T23:43:05Z</time></trkpt><trkpt lat="33.9960577" lon="132.8763014"><ele>385.90000000000003</ele><time>2024-12-14T23:43:35Z</time></trkpt><trkpt lat="33.9958741" lon="132.8762763"><ele>387.72333333333336</ele><time>2024-12-14T23:43:56Z</time></trkpt><trkpt lat="33.9957322" lon="132.8761318"><ele>390.26666666666665</ele><time>2024-12-14T23:44:13Z</time></trkpt><trkpt lat="33.9957372" lon="132.8759124"><ele>392.1700000000001</ele><time>2024-12-14T23:45:07Z</time></trkpt><trkpt lat="33.9957975" lon="132.8756891"><ele>393.88000000000005</ele><time>2024-12-14T23:45:28Z</time></trkpt><trkpt lat="33.9958862" lon="132.8754938"><ele>395.37000000000006</ele><time>2024-12-14T23:45:52Z</time></trkpt><trkpt lat="33.9959484" lon="132.8752865"><ele>397.71333333333337</ele><time>2024-12-14T23:46:16Z</time></trkpt><trkpt lat="33.9957958" lon="132.8751511"><ele>399.92666666666673</ele><time>2024-12-14T23:46:58Z</time></trkpt><trkpt lat="33.995662" lon="132.8749847"><ele>402.1466666666667</ele><time>2024-12-14T23:47:18Z</time></trkpt><trkpt lat="33.9955568" lon="132.8748047"><ele>404.26</ele><time>2024-12-14T23:47:36Z</time></trkpt><trkpt lat="33.9954199" lon="132.8746443"><ele>406.30333333333334</ele><time>2024-12-14T23:47:56Z</time></trkpt><trkpt lat="33.9954829" lon="132.8744103"><ele>404.91</ele><time>2024-12-14T23:48:41Z</time></trkpt><trkpt lat="33.9955378" lon="132.8742004"><ele>400.12000000000006</ele><time>2024-12-14T23:48:58Z</time></trkpt><trkpt lat="33.9956115" lon="132.8739885"><ele>394.63000000000005</ele><time>2024-12-14T23:49:15Z</time></trkpt><trkpt lat="33.9957223" lon="132.8738028"><ele>394.28000000000003</ele><time>2024-12-14T23:49:59Z</time></trkpt><trkpt lat="33.9958737" lon="132.8736595"><ele>396.7266666666667</ele><time>2024-12-14T23:50:35Z</time></trkpt><trkpt lat="33.995919" lon="132.8734359"><ele>398.2766666666667</ele><time>2024-12-14T23:50:58Z</time></trkpt><trkpt lat="33.9959438" lon="132.8732203"><ele>396.91</ele><time>2024-12-14T23:51:15Z</time></trkpt><trkpt lat="33.9959389" lon="132.8729878"><ele>394.65333333333336</ele><time>2024-12-14T23:51:38Z</time></trkpt><trkpt lat="33.9959385" lon="132.872748"><ele>392.93666666666667</ele><time>2024-12-14T23:52:05Z</time></trkpt><trkpt lat="33.9959172" lon="132.8725183"><ele>390.60999999999996</ele><time>2024-12-14T23:53:13Z</time></trkpt><trkpt lat="33.9958901" lon="132.8722941"><ele>388.6333333333334</ele><time>2024-12-14T23:53:34Z</time></trkpt><trkpt lat="33.9958672" lon="132.8720638"><ele>389.05</ele><time>2024-12-14T23:53:54Z</time></trkpt><trkpt lat="33.9958542" lon="132.8718394"><ele>391.5533333333333</ele><time>2024-12-14T23:54:24Z</time></trkpt><trkpt lat="33.995779" lon="132.871637"><ele>395.3933333333334</ele><time>2024-12-14T23:54:54Z</time></trkpt><trkpt lat="33.9957167" lon="132.8714086"><ele>396.78000000000003</ele><time>2024-12-14T23:55:15Z</time></trkpt><trkpt lat="33.9956348" lon="132.871201"><ele>398.40000000000003</ele><time>2024-12-14T23:55:36Z</time></trkpt><trkpt lat="33.9955529" lon="132.8710032"><ele>401.0133333333333</ele><time>2024-12-14T23:56:24Z</time></trkpt><trkpt lat="33.9954732" lon="132.8708082"><ele>407.15000000000003</ele><time>2024-12-14T23:57:21Z</time></trkpt><trkpt lat="33.9955009" lon="132.8705942"><ele>413.91</ele><time>2024-12-14T23:58:00Z</time></trkpt><trkpt lat="33.9954608" lon="132.870379"><ele>418.45666666666665</ele><time>2024-12-14T23:58:42Z</time></trkpt><trkpt lat="33.9955014" lon="132.8701408"><ele>418.54333333333335</ele><time>2024-12-14T23:59:12Z</time></trkpt><trkpt lat="33.995571" lon="132.8699351"><ele>415.9466666666667</ele><time>2024-12-14T23:59:32Z</time></trkpt><trkpt lat="33.9956978" lon="132.8697618"><ele>412.6233333333334</ele><time>2024-12-15T00:00:32Z</time></trkpt><trkpt lat="33.9957521" lon="132.8695372"><ele>409.56</ele><time>2024-12-15T00:00:56Z</time></trkpt><trkpt lat="33.9957076" lon="132.8693198"><ele>406.00666666666666</ele><time>2024-12-15T00:01:35Z</time></trkpt><trkpt lat="33.9956034" lon="132.8690959"><ele>403.27</ele><time>2024-12-15T00:01:56Z</time></trkpt><trkpt lat="33.9955484" lon="132.8688685"><ele>399.87000000000006</ele><time>2024-12-15T00:02:17Z</time></trkpt><trkpt lat="33.9954535" lon="132.8686506"><ele>394.84666666666664</ele><time>2024-12-15T00:02:53Z</time></trkpt><trkpt lat="33.9954076" lon="132.8684345"><ele>386.4533333333334</ele><time>2024-12-15T00:03:35Z</time></trkpt><trkpt lat="33.995392" lon="132.8682052"><ele>375.5133333333334</ele><time>2024-12-15T00:04:09Z</time></trkpt><trkpt lat="33.9952773" lon="132.868035"><ele>366.2366666666667</ele><time>2024-12-15T00:04:33Z</time></trkpt><trkpt lat="33.9951582" lon="132.8678688"><ele>362.1033333333333</ele><time>2024-12-15T00:05:00Z</time></trkpt><trkpt lat="33.9950329" lon="132.8677043"><ele>365.00666666666666</ele><time>2024-12-15T00:05:33Z</time></trkpt><trkpt lat="33.9949077" lon="132.8675283"><ele>370.2166666666667</ele><time>2024-12-15T00:06:30Z</time></trkpt><trkpt lat="33.994831" lon="132.8673191"><ele>375.2166666666667</ele><time>2024-12-15T00:07:03Z</time></trkpt><trkpt lat="33.9947924" lon="132.8670989"><ele>379.4866666666667</ele><time>2024-12-15T00:07:26Z</time></trkpt><trkpt lat="33.9948385" lon="132.8668735"><ele>382.85666666666674</ele><time>2024-12-15T00:07:56Z</time></trkpt><trkpt lat="33.9948702" lon="132.8666594"><ele>388.18666666666667</ele><time>2024-12-15T00:08:23Z</time></trkpt><trkpt lat="33.9948733" lon="132.8664412"><ele>393.9966666666667</ele><time>2024-12-15T00:09:02Z</time></trkpt><trkpt lat="33.9948097" lon="132.8662327"><ele>402.65000000000003</ele><time>2024-12-15T00:09:53Z</time></trkpt><trkpt lat="33.9948422" lon="132.8660132"><ele>404.43666666666667</ele><time>2024-12-15T00:18:32Z</time></trkpt><trkpt lat="33.9948195" lon="132.8657907"><ele>397.9333333333334</ele><time>2024-12-15T00:19:56Z</time></trkpt><trkpt lat="33.9946989" lon="132.8656291"><ele>384.33666666666664</ele><time>2024-12-15T00:21:28Z</time></trkpt><trkpt lat="33.9946107" lon="132.8654314"><ele>372.78000000000003</ele><time>2024-12-15T00:22:16Z</time></trkpt><trkpt lat="33.9945662" lon="132.8652163"><ele>364.99333333333334</ele><time>2024-12-15T00:22:40Z</time></trkpt><trkpt lat="33.9946409" lon="132.8649867"><ele>359.23333333333335</ele><time>2024-12-15T00:23:07Z</time></trkpt><trkpt lat="33.9947057" lon="132.8647696"><ele>353.77666666666664</ele><time>2024-12-15T00:23:30Z</time></trkpt><trkpt lat="33.9947463" lon="132.8645498"><ele>351.01666666666665</ele><time>2024-12-15T00:23:51Z</time></trkpt><trkpt lat="33.9947885" lon="132.8643184"><ele>350.24333333333334</ele><time>2024-12-15T00:24:11Z</time></trkpt><trkpt lat="33.9948343" lon="132.8640984"><ele>349.09</ele><time>2024-12-15T00:24:44Z</time></trkpt><trkpt lat="33.9947671" lon="132.8638811"><ele>346.3633333333334</ele><time>2024-12-15T00:25:23Z</time></trkpt><trkpt lat="33.994774" lon="132.8636483"><ele>342.37999999999994</ele><time>2024-12-15T00:26:38Z</time></trkpt><trkpt lat="33.9948219" lon="132.8634303"><ele>341.14</ele><time>2024-12-15T00:27:02Z</time></trkpt><trkpt lat="33.9948832" lon="132.8632236"><ele>342.91333333333336</ele><time>2024-12-15T00:27:19Z</time></trkpt><trkpt lat="33.9950561" lon="132.863122"><ele>343.8933333333334</ele><time>2024-12-15T00:27:37Z</time></trkpt><trkpt lat="33.9952248" lon="132.8629758"><ele>343.17</ele><time>2024-12-15T00:27:58Z</time></trkpt><trkpt lat="33.9952883" lon="132.8627369"><ele>340.16</ele><time>2024-12-15T00:28:15Z</time></trkpt><trkpt lat="33.9953057" lon="132.8625021"><ele>338.34</ele><time>2024-12-15T00:28:38Z</time></trkpt><trkpt lat="33.9953753" lon="132.8622962"><ele>336.99333333333334</ele><time>2024-12-15T00:28:56Z</time></trkpt><trkpt lat="33.9953279" lon="132.8620866"><ele>334.9666666666667</ele><time>2024-12-15T00:29:31Z</time></trkpt><trkpt lat="33.9953356" lon="132.8618667"><ele>331.56333333333333</ele><time>2024-12-15T00:30:07Z</time></trkpt><trkpt lat="33.9954919" lon="132.8617197"><ele>324.6133333333333</ele><time>2024-12-15T00:30:40Z</time></trkpt><trkpt lat="33.9956362" lon="132.8615776"><ele>317.67333333333335</ele><time>2024-12-15T00:31:07Z</time></trkpt><trkpt lat="33.9957963" lon="132.8614319"><ele>314.53000000000003</ele><time>2024-12-15T00:31:27Z</time></trkpt><trkpt lat="33.9958918" lon="132.861222"><ele>315.7633333333333</ele><time>2024-12-15T00:31:48Z</time></trkpt><trkpt lat="33.996072" lon="132.8612027"><ele>314.98333333333335</ele><time>2024-12-15T00:32:27Z</time></trkpt><trkpt lat="33.9962163" lon="132.861022"><ele>310.93</ele><time>2024-12-15T00:32:48Z</time></trkpt><trkpt lat="33.9963832" lon="132.8609086"><ele>304.44666666666666</ele><time>2024-12-15T00:33:09Z</time></trkpt><trkpt lat="33.9964699" lon="132.8606869"><ele>298.74</ele><time>2024-12-15T00:33:26Z</time></trkpt><trkpt lat="33.9964487" lon="132.8604605"><ele>293.4266666666667</ele><time>2024-12-15T00:34:11Z</time></trkpt><trkpt lat="33.9963968" lon="132.8602527"><ele>288.92</ele><time>2024-12-15T00:34:29Z</time></trkpt><trkpt lat="33.99642" lon="132.8600154"><ele>286.9166666666667</ele><time>2024-12-15T00:34:52Z</time></trkpt><trkpt lat="33.9964195" lon="132.8597879"><ele>286.6166666666667</ele><time>2024-12-15T00:35:10Z</time></trkpt><trkpt lat="33.9963583" lon="132.8595739"><ele>288.57</ele><time>2024-12-15T00:35:37Z</time></trkpt><trkpt lat="33.9962244" lon="132.859391"><ele>291.9266666666667</ele><time>2024-12-15T00:36:00Z</time></trkpt><trkpt lat="33.996059" lon="132.8592752"><ele>293.3233333333333</ele><time>2024-12-15T00:37:09Z</time></trkpt><trkpt lat="33.9960719" lon="132.8590449"><ele>290.5433333333333</ele><time>2024-12-15T00:38:18Z</time></trkpt><trkpt lat="33.9961433" lon="132.8588408"><ele>283.5466666666667</ele><time>2024-12-15T00:38:56Z</time></trkpt><trkpt lat="33.9962378" lon="132.8586521"><ele>276.96999999999997</ele><time>2024-12-15T00:39:19Z</time></trkpt><trkpt lat="33.9961797" lon="132.8584428"><ele>271.56666666666666</ele><time>2024-12-15T00:39:49Z</time></trkpt><trkpt lat="33.9960723" lon="132.8582384"><ele>268.7066666666667</ele><time>2024-12-15T00:40:28Z</time></trkpt><trkpt lat="33.9960209" lon="132.8580149"><ele>267.7633333333333</ele><time>2024-12-15T00:40:51Z</time></trkpt><trkpt lat="33.9960131" lon="132.8577611"><ele>268.83</ele><time>2024-12-15T00:41:06Z</time></trkpt><trkpt lat="33.9960838" lon="132.8575596"><ele>270.68333333333334</ele><time>2024-12-15T00:41:21Z</time></trkpt><trkpt lat="33.9962653" lon="132.8574376"><ele>273.1033333333333</ele><time>2024-12-15T00:41:47Z</time></trkpt><trkpt lat="33.9963851" lon="132.8572461"><ele>276.24333333333334</ele><time>2024-12-15T00:42:07Z</time></trkpt><trkpt lat="33.9963118" lon="132.8570358"><ele>276.99666666666667</ele><time>2024-12-15T00:44:07Z</time></trkpt><trkpt lat="33.9962561" lon="132.8568295"><ele>274.6166666666667</ele><time>2024-12-15T00:44:34Z</time></trkpt><trkpt lat="33.9963593" lon="132.8566276"><ele>267.5833333333333</ele><time>2024-12-15T00:45:40Z</time></trkpt><trkpt lat="33.9964751" lon="132.8564548"><ele>259.98</ele><time>2024-12-15T00:46:01Z</time></trkpt><trkpt lat="33.9964396" lon="132.8562309"><ele>254.4466666666667</ele><time>2024-12-15T00:46:28Z</time></trkpt><trkpt lat="33.9964828" lon="132.8560072"><ele>252.17333333333332</ele><time>2024-12-15T00:46:57Z</time></trkpt><trkpt lat="33.9965701" lon="132.8558093"><ele>252.25333333333333</ele><time>2024-12-15T00:47:30Z</time></trkpt><trkpt lat="33.9966921" lon="132.8556207"><ele>254.32666666666668</ele><time>2024-12-15T00:47:57Z</time></trkpt><trkpt lat="33.9968316" lon="132.8554736"><ele>257.47</ele><time>2024-12-15T00:48:27Z</time></trkpt><trkpt lat="33.9969031" lon="132.8552554"><ele>260.1366666666667</ele><time>2024-12-15T00:49:15Z</time></trkpt><trkpt lat="33.9969709" lon="132.8550504"><ele>258.4866666666667</ele><time>2024-12-15T00:49:42Z</time></trkpt><trkpt lat="33.9971546" lon="132.8550326"><ele>256.1333333333334</ele><time>2024-12-15T00:50:11Z</time></trkpt><trkpt lat="33.9973247" lon="132.8549357"><ele>250.34</ele><time>2024-12-15T00:50:41Z</time></trkpt><trkpt lat="33.9975027" lon="132.8550164"><ele>249.20666666666668</ele><time>2024-12-15T00:51:46Z</time></trkpt><trkpt lat="33.9976997" lon="132.8549807"><ele>246.39000000000001</ele><time>2024-12-15T00:52:13Z</time></trkpt><trkpt lat="33.9978497" lon="132.8548371"><ele>246.47333333333336</ele><time>2024-12-15T00:52:43Z</time></trkpt><trkpt lat="33.9979654" lon="132.8546655"><ele>243.95666666666668</ele><time>2024-12-15T00:53:19Z</time></trkpt><trkpt lat="33.9981299" lon="132.8545421"><ele>242.32333333333335</ele><time>2024-12-15T00:53:46Z</time></trkpt><trkpt lat="33.9982906" lon="132.8543931"><ele>240.06000000000003</ele><time>2024-12-15T00:54:13Z</time></trkpt><trkpt lat="33.9984475" lon="132.8542664"><ele>236.52666666666667</ele><time>2024-12-15T00:54:37Z</time></trkpt><trkpt lat="33.99828" lon="132.8543666"><ele>235.00666666666666</ele><time>2024-12-15T00:55:57Z</time></trkpt><trkpt lat="33.9981398" lon="132.8541957"><ele>232.49333333333334</ele><time>2024-12-15T00:57:42Z</time></trkpt><trkpt lat="33.998031" lon="132.8539974"><ele>231.53</ele><time>2024-12-15T00:58:21Z</time></trkpt><trkpt lat="33.9980827" lon="132.8537824"><ele>228.35000000000002</ele><time>2024-12-15T00:58:45Z</time></trkpt><trkpt lat="33.9980584" lon="132.8535536"><ele>227.53333333333333</ele><time>2024-12-15T00:59:18Z</time></trkpt><trkpt lat="33.9981693" lon="132.8533736"><ele>227.36333333333334</ele><time>2024-12-15T01:00:24Z</time></trkpt><trkpt lat="33.9983215" lon="132.8532535"><ele>227.39000000000001</ele><time>2024-12-15T01:00:54Z</time></trkpt><trkpt lat="33.9985034" lon="132.8531944"><ele>227.60333333333332</ele><time>2024-12-15T01:03:06Z</time></trkpt><trkpt lat="33.9986702" lon="132.8531025"><ele>225.64000000000001</ele><time>2024-12-15T01:03:36Z</time></trkpt><trkpt lat="33.9988383" lon="132.8530063"><ele>224.03</ele><time>2024-12-15T01:04:12Z</time></trkpt><trkpt lat="33.9990182" lon="132.852971"><ele>221.6</ele><time>2024-12-15T01:04:51Z</time></trkpt><trkpt lat="33.9991437" lon="132.8528123"><ele>221.48333333333335</ele><time>2024-12-15T01:06:21Z</time></trkpt><trkpt lat="33.999201" lon="132.8526043"><ele>222.35666666666668</ele><time>2024-12-15T01:06:51Z</time></trkpt><trkpt lat="33.9992045" lon="132.8523562"><ele>225.20666666666668</ele><time>2024-12-15T01:07:06Z</time></trkpt><trkpt lat="33.9991615" lon="132.8521235"><ele>224.4</ele><time>2024-12-15T01:07:24Z</time></trkpt><trkpt lat="33.9990532" lon="132.8519081"><ele>221.13333333333335</ele><time>2024-12-15T01:07:41Z</time></trkpt><trkpt lat="33.9989699" lon="132.8516945"><ele>215.85333333333335</ele><time>2024-12-15T01:07:56Z</time></trkpt><trkpt lat="33.998931" lon="132.8514346"><ele>212.13333333333333</ele><time>2024-12-15T01:08:11Z</time></trkpt><trkpt lat="33.9989184" lon="132.8511949"><ele>210.15</ele><time>2024-12-15T01:08:26Z</time></trkpt><trkpt lat="33.998892" lon="132.8509533"><ele>209.69333333333336</ele><time>2024-12-15T01:08:55Z</time></trkpt><trkpt lat="33.9988419" lon="132.8507204"><ele>210.7266666666667</ele><time>2024-12-15T01:09:49Z</time></trkpt><trkpt lat="33.9988121" lon="132.8505037"><ele>209.86</ele><time>2024-12-15T01:11:19Z</time></trkpt><trkpt lat="33.9986607" lon="132.8503458"><ele>209.16666666666666</ele><time>2024-12-15T01:11:49Z</time></trkpt><trkpt lat="33.9986088" lon="132.8501333"><ele>207.22</ele><time>2024-12-15T01:18:42Z</time></trkpt><trkpt lat="33.9985766" lon="132.8499167"><ele>208.7266666666667</ele><time>2024-12-15T01:19:17Z</time></trkpt><trkpt lat="33.9985366" lon="132.8497035"><ele>210.0666666666667</ele><time>2024-12-15T01:19:44Z</time></trkpt><trkpt lat="33.998457" lon="132.8494961"><ele>215.57000000000002</ele><time>2024-12-15T01:20:41Z</time></trkpt><trkpt lat="33.9983013" lon="132.849379"><ele>223.57333333333335</ele><time>2024-12-15T01:21:35Z</time></trkpt><trkpt lat="33.9982002" lon="132.8491977"><ele>234.15333333333334</ele><time>2024-12-15T01:22:53Z</time></trkpt><trkpt lat="33.9982613" lon="132.8489887"><ele>242.86666666666667</ele><time>2024-12-15T01:23:29Z</time></trkpt><trkpt lat="33.9982751" lon="132.848769"><ele>248.07666666666668</ele><time>2024-12-15T01:24:01Z</time></trkpt><trkpt lat="33.998216" lon="132.8485562"><ele>252.14333333333335</ele><time>2024-12-15T01:24:27Z</time></trkpt><trkpt lat="33.9981327" lon="132.8483469"><ele>256.75333333333333</ele><time>2024-12-15T01:24:54Z</time></trkpt><trkpt lat="33.9979796" lon="132.8482321"><ele>263.15000000000003</ele><time>2024-12-15T01:25:21Z</time></trkpt><trkpt lat="33.9978019" lon="132.8482899"><ele>270.27333333333337</ele><time>2024-12-15T01:26:05Z</time></trkpt><trkpt lat="33.997825" lon="132.8485174"><ele>276.56666666666666</ele><time>2024-12-15T01:26:59Z</time></trkpt><trkpt lat="33.99782" lon="132.8482925"><ele>279.05333333333334</ele><time>2024-12-15T01:33:32Z</time></trkpt><trkpt lat="33.9980111" lon="132.8482571"><ele>276.18</ele><time>2024-12-15T01:34:07Z</time></trkpt><trkpt lat="33.9981813" lon="132.848376"><ele>267.68</ele><time>2024-12-15T01:34:28Z</time></trkpt><trkpt lat="33.9982762" lon="132.8485852"><ele>258.82666666666665</ele><time>2024-12-15T01:34:48Z</time></trkpt><trkpt lat="33.9982868" lon="132.8488081"><ele>252.42999999999998</ele><time>2024-12-15T01:35:09Z</time></trkpt><trkpt lat="33.9982468" lon="132.8490203"><ele>249.35999999999999</ele><time>2024-12-15T01:35:26Z</time></trkpt><trkpt lat="33.9981177" lon="132.8491769"><ele>248.23666666666668</ele><time>2024-12-15T01:35:44Z</time></trkpt><trkpt lat="33.9979284" lon="132.8492369"><ele>248.21</ele><time>2024-12-15T01:36:07Z</time></trkpt><trkpt lat="33.9977448" lon="132.849167"><ele>250.4466666666667</ele><time>2024-12-15T01:36:25Z</time></trkpt><trkpt lat="33.9976029" lon="132.8490075"><ele>252.08</ele><time>2024-12-15T01:36:43Z</time></trkpt><trkpt lat="33.99748" lon="132.8488422"><ele>251.48666666666668</ele><time>2024-12-15T01:37:03Z</time></trkpt><trkpt lat="33.997364" lon="132.8486511"><ele>248.10666666666668</ele><time>2024-12-15T01:37:24Z</time></trkpt><trkpt lat="33.9972758" lon="132.8484404"><ele>243.27333333333334</ele><time>2024-12-15T01:37:42Z</time></trkpt><trkpt lat="33.9972439" lon="132.8482099"><ele>237.37</ele><time>2024-12-15T01:38:02Z</time></trkpt><trkpt lat="33.9972551" lon="132.8479607"><ele>232.27333333333334</ele><time>2024-12-15T01:38:23Z</time></trkpt><trkpt lat="33.9973093" lon="132.8477312"><ele>225.46333333333334</ele><time>2024-12-15T01:38:44Z</time></trkpt><trkpt lat="33.99738" lon="132.8475017"><ele>215.12333333333333</ele><time>2024-12-15T01:39:05Z</time></trkpt><trkpt lat="33.9975416" lon="132.8473428"><ele>204.92666666666665</ele><time>2024-12-15T01:39:22Z</time></trkpt><trkpt lat="33.99773" lon="132.8472618"><ele>197.87</ele><time>2024-12-15T01:40:16Z</time></trkpt><trkpt lat="33.9978795" lon="132.8471161"><ele>195.91</ele><time>2024-12-15T01:40:51Z</time></trkpt><trkpt lat="33.9980815" lon="132.8471011"><ele>193.53666666666666</ele><time>2024-12-15T01:41:09Z</time></trkpt><trkpt lat="33.9982884" lon="132.847104"><ele>190.93666666666664</ele><time>2024-12-15T01:41:39Z</time></trkpt><trkpt lat="33.9984699" lon="132.8470746"><ele>187.65666666666667</ele><time>2024-12-15T01:41:54Z</time></trkpt><trkpt lat="33.9986574" lon="132.8470395"><ele>184.29666666666665</ele><time>2024-12-15T01:42:21Z</time></trkpt><trkpt lat="33.9984815" lon="132.8468909"><ele>180.14666666666668</ele><time>2024-12-15T01:42:54Z</time></trkpt><trkpt lat="33.998307" lon="132.8468284"><ele>176.93000000000004</ele><time>2024-12-15T01:43:15Z</time></trkpt><trkpt lat="33.9982089" lon="132.8466438"><ele>172.67666666666665</ele><time>2024-12-15T01:43:36Z</time></trkpt><trkpt lat="33.998072" lon="132.8464892"><ele>168.4466666666667</ele><time>2024-12-15T01:43:51Z</time></trkpt><trkpt lat="33.9979048" lon="132.8463272"><ele>163.60666666666665</ele><time>2024-12-15T01:44:09Z</time></trkpt><trkpt lat="33.997738" lon="132.8462199"><ele>160.59666666666666</ele><time>2024-12-15T01:44:27Z</time></trkpt><trkpt lat="33.9975768" lon="132.8460533"><ele>157.45000000000002</ele><time>2024-12-15T01:44:44Z</time></trkpt><trkpt lat="33.9974342" lon="132.8458783"><ele>154.37</ele><time>2024-12-15T01:44:59Z</time></trkpt><trkpt lat="33.9972977" lon="132.8457254"><ele>150.06</ele><time>2024-12-15T01:45:14Z</time></trkpt><trkpt lat="33.9971773" lon="132.845549"><ele>145.54999999999998</ele><time>2024-12-15T01:45:28Z</time></trkpt><trkpt lat="33.9970418" lon="132.8453893"><ele>141.73666666666668</ele><time>2024-12-15T01:45:40Z</time></trkpt><trkpt lat="33.9968858" lon="132.8452096"><ele>139.59666666666666</ele><time>2024-12-15T01:45:54Z</time></trkpt><trkpt lat="33.9970782" lon="132.8452994"><ele>139.28666666666666</ele><time>2024-12-15T01:47:03Z</time></trkpt><trkpt lat="33.9972663" lon="132.8453814"><ele>139.33666666666667</ele><time>2024-12-15T01:47:21Z</time></trkpt><trkpt lat="33.9974556" lon="132.8454627"><ele>139.63333333333333</ele><time>2024-12-15T01:47:35Z</time></trkpt><trkpt lat="33.9976203" lon="132.8453295"><ele>140.20666666666668</ele><time>2024-12-15T01:47:53Z</time></trkpt><trkpt lat="33.9978165" lon="132.8452876"><ele>141.5</ele><time>2024-12-15T01:48:10Z</time></trkpt><trkpt lat="33.9980075" lon="132.8452703"><ele>142.7566666666667</ele><time>2024-12-15T01:48:28Z</time></trkpt><trkpt lat="33.9981287" lon="132.8450881"><ele>144.21666666666667</ele><time>2024-12-15T01:48:45Z</time></trkpt><trkpt lat="33.9981656" lon="132.8448535"><ele>146.08333333333334</ele><time>2024-12-15T01:49:02Z</time></trkpt><trkpt lat="33.9983216" lon="132.8447153"><ele>147.51333333333332</ele><time>2024-12-15T01:49:22Z</time></trkpt><trkpt lat="33.9984631" lon="132.8445511"><ele>148.4466666666667</ele><time>2024-12-15T01:49:42Z</time></trkpt><trkpt lat="33.9983096" lon="132.8447073"><ele>148.40333333333334</ele><time>2024-12-15T01:50:57Z</time></trkpt><trkpt lat="33.9982073" lon="132.8445198"><ele>151.96666666666667</ele><time>2024-12-15T01:52:44Z</time></trkpt><trkpt lat="33.9982123" lon="132.8442858"><ele>156.21666666666667</ele><time>2024-12-15T01:54:26Z</time></trkpt><trkpt lat="33.9982888" lon="132.8440854"><ele>158.33666666666667</ele><time>2024-12-15T01:55:17Z</time></trkpt><trkpt lat="33.9983647" lon="132.8438736"><ele>156.10666666666668</ele><time>2024-12-15T01:56:08Z</time></trkpt><trkpt lat="33.9984286" lon="132.843647"><ele>152.3766666666667</ele><time>2024-12-15T01:56:41Z</time></trkpt><trkpt lat="33.9984841" lon="132.8434384"><ele>152.37</ele><time>2024-12-15T01:57:47Z</time></trkpt><trkpt lat="33.9983128" lon="132.8433622"><ele>156.10999999999999</ele><time>2024-12-15T01:58:47Z</time></trkpt><trkpt lat="33.9982247" lon="132.843172"><ele>163.44333333333333</ele><time>2024-12-15T02:00:11Z</time></trkpt><trkpt lat="33.9983455" lon="132.8429969"><ele>167.98333333333335</ele><time>2024-12-15T02:01:56Z</time></trkpt><trkpt lat="33.9984358" lon="132.8427921"><ele>166.46</ele><time>2024-12-15T02:02:31Z</time></trkpt><trkpt lat="33.998434" lon="132.8425752"><ele>159.02333333333334</ele><time>2024-12-15T02:03:07Z</time></trkpt><trkpt lat="33.9983367" lon="132.8423775"><ele>151.0666666666667</ele><time>2024-12-15T02:03:49Z</time></trkpt><trkpt lat="33.998251" lon="132.8421812"><ele>147.58</ele><time>2024-12-15T02:04:34Z</time></trkpt><trkpt lat="33.9980609" lon="132.8422448"><ele>146.98666666666668</ele><time>2024-12-15T02:04:54Z</time></trkpt><trkpt lat="33.9978574" lon="132.8423"><ele>147.72666666666666</ele><time>2024-12-15T02:05:23Z</time></trkpt><trkpt lat="33.9977151" lon="132.8421625"><ele>147.23666666666665</ele><time>2024-12-15T02:05:43Z</time></trkpt><trkpt lat="33.9976909" lon="132.8419456"><ele>146.87333333333333</ele><time>2024-12-15T02:06:12Z</time></trkpt><trkpt lat="33.9977372" lon="132.8417345"><ele>146.34333333333333</ele><time>2024-12-15T02:06:29Z</time></trkpt><trkpt lat="33.9978527" lon="132.8415481"><ele>146.90666666666667</ele><time>2024-12-15T02:06:47Z</time></trkpt><trkpt lat="33.9979936" lon="132.8413725"><ele>147.76333333333335</ele><time>2024-12-15T02:07:04Z</time></trkpt><trkpt lat="33.9981603" lon="132.8412234"><ele>148.82666666666668</ele><time>2024-12-15T02:07:21Z</time></trkpt><trkpt lat="33.9982633" lon="132.8410143"><ele>149.26000000000002</ele><time>2024-12-15T02:07:42Z</time></trkpt><trkpt lat="33.9983487" lon="132.8408148"><ele>149.33333333333334</ele><time>2024-12-15T02:07:56Z</time></trkpt><trkpt lat="33.998492" lon="132.8406808"><ele>149.69333333333336</ele><time>2024-12-15T02:08:17Z</time></trkpt><trkpt lat="33.9986677" lon="132.8405987"><ele>150.63333333333333</ele><time>2024-12-15T02:08:34Z</time></trkpt><trkpt lat="33.998851" lon="132.8405788"><ele>152.52333333333334</ele><time>2024-12-15T02:08:51Z</time></trkpt><trkpt lat="33.9990322" lon="132.8405835"><ele>155.50333333333336</ele><time>2024-12-15T02:09:08Z</time></trkpt><trkpt lat="33.9992447" lon="132.8405473"><ele>159.21333333333334</ele><time>2024-12-15T02:09:58Z</time></trkpt><trkpt lat="33.9994029" lon="132.8404236"><ele>163.35333333333332</ele><time>2024-12-15T02:10:18Z</time></trkpt><trkpt lat="33.9995122" lon="132.8402473"><ele>166.12</ele><time>2024-12-15T02:10:35Z</time></trkpt><trkpt lat="33.9996393" lon="132.8400868"><ele>167.39666666666668</ele><time>2024-12-15T02:11:10Z</time></trkpt><trkpt lat="33.9997703" lon="132.8399"><ele>167.67333333333332</ele><time>2024-12-15T02:11:27Z</time></trkpt><trkpt lat="33.9999549" lon="132.8397753"><ele>169.66</ele><time>2024-12-15T02:11:44Z</time></trkpt><trkpt lat="34.0001304" lon="132.8396925"><ele>172.74333333333334</ele><time>2024-12-15T02:12:00Z</time></trkpt><trkpt lat="34.0003286" lon="132.8396336"><ele>175.96666666666667</ele><time>2024-12-15T02:12:17Z</time></trkpt><trkpt lat="34.0005063" lon="132.8395333"><ele>177.69333333333336</ele><time>2024-12-15T02:12:34Z</time></trkpt><trkpt lat="34.0006747" lon="132.8394276"><ele>178.10666666666668</ele><time>2024-12-15T02:12:51Z</time></trkpt><trkpt lat="34.0007833" lon="132.8392207"><ele>178.29333333333338</ele><time>2024-12-15T02:13:08Z</time></trkpt><trkpt lat="34.0007435" lon="132.8390002"><ele>178.70000000000002</ele><time>2024-12-15T02:14:07Z</time></trkpt><trkpt lat="34.0007241" lon="132.8387634"><ele>179.70000000000002</ele><time>2024-12-15T02:14:30Z</time></trkpt><trkpt lat="34.0006519" lon="132.8385452"><ele>181.01333333333332</ele><time>2024-12-15T02:14:49Z</time></trkpt><trkpt lat="34.00071" lon="132.83831"><ele>184.12333333333336</ele><time>2024-12-15T02:15:09Z</time></trkpt><trkpt lat="34.0007618" lon="132.8380852"><ele>187.25666666666666</ele><time>2024-12-15T02:15:29Z</time></trkpt><trkpt lat="34.0008497" lon="132.8378919"><ele>190.21666666666667</ele><time>2024-12-15T02:16:14Z</time></trkpt><trkpt lat="34.000866" lon="132.8376493"><ele>191.6</ele><time>2024-12-15T02:16:35Z</time></trkpt><trkpt lat="34.0008776" lon="132.8374173"><ele>193.96333333333334</ele><time>2024-12-15T02:16:55Z</time></trkpt><trkpt lat="34.0008247" lon="132.8371978"><ele>196.54666666666665</ele><time>2024-12-15T02:17:18Z</time></trkpt><trkpt lat="34.0007989" lon="132.8369663"><ele>199.8033333333333</ele><time>2024-12-15T02:17:42Z</time></trkpt><trkpt lat="34.0007258" lon="132.8367575"><ele>202.5666666666667</ele><time>2024-12-15T02:18:09Z</time></trkpt><trkpt lat="34.0006777" lon="132.836548"><ele>207.24666666666667</ele><time>2024-12-15T02:19:06Z</time></trkpt><trkpt lat="34.0007033" lon="132.8363292"><ele>213.73666666666668</ele><time>2024-12-15T02:19:39Z</time></trkpt><trkpt lat="34.0006326" lon="132.8361272"><ele>220.96333333333334</ele><time>2024-12-15T02:22:41Z</time></trkpt><trkpt lat="34.0004623" lon="132.8360072"><ele>228.24666666666667</ele><time>2024-12-15T02:23:13Z</time></trkpt><trkpt lat="34.0004608" lon="132.835787"><ele>233.70000000000002</ele><time>2024-12-15T02:28:27Z</time></trkpt><trkpt lat="34.0003544" lon="132.8356104"><ele>239.39666666666668</ele><time>2024-12-15T02:29:06Z</time></trkpt><trkpt lat="34.0001791" lon="132.8355413"><ele>244.6966666666667</ele><time>2024-12-15T02:31:10Z</time></trkpt><trkpt lat="33.9999874" lon="132.8355353"><ele>252.57666666666668</ele><time>2024-12-15T02:32:27Z</time></trkpt><trkpt lat="33.9998059" lon="132.8354861"><ele>262.26</ele><time>2024-12-15T02:33:38Z</time></trkpt><trkpt lat="33.9996197" lon="132.8355149"><ele>272.99</ele><time>2024-12-15T02:37:50Z</time></trkpt><trkpt lat="33.9994527" lon="132.8354266"><ele>282.93</ele><time>2024-12-15T02:38:47Z</time></trkpt><trkpt lat="33.9992732" lon="132.8354029"><ele>292.7866666666667</ele><time>2024-12-15T02:40:20Z</time></trkpt><trkpt lat="33.9991712" lon="132.8351908"><ele>301.00333333333333</ele><time>2024-12-15T02:41:23Z</time></trkpt><trkpt lat="33.9990617" lon="132.8350116"><ele>308.70666666666665</ele><time>2024-12-15T02:42:07Z</time></trkpt><trkpt lat="33.9990118" lon="132.8347816"><ele>313.93666666666667</ele><time>2024-12-15T02:42:46Z</time></trkpt><trkpt lat="33.9989729" lon="132.8345684"><ele>319.43</ele><time>2024-12-15T02:44:01Z</time></trkpt><trkpt lat="33.9989641" lon="132.8343372"><ele>324.1033333333333</ele><time>2024-12-15T02:45:01Z</time></trkpt><trkpt lat="33.9988517" lon="132.8341597"><ele>330.56666666666666</ele><time>2024-12-15T02:45:45Z</time></trkpt><trkpt lat="33.9987479" lon="132.8339729"><ele>338.40000000000003</ele><time>2024-12-15T02:46:36Z</time></trkpt><trkpt lat="33.998567" lon="132.8339779"><ele>346.3233333333333</ele><time>2024-12-15T02:48:20Z</time></trkpt><trkpt lat="33.9984083" lon="132.8341031"><ele>350.93333333333334</ele><time>2024-12-15T02:49:01Z</time></trkpt><trkpt lat="33.9985859" lon="132.8339632"><ele>352.79</ele><time>2024-12-15T02:51:34Z</time></trkpt><trkpt lat="33.998762" lon="132.834055"><ele>350.5466666666667</ele><time>2024-12-15T03:03:43Z</time></trkpt><trkpt lat="33.9989203" lon="132.8341932"><ele>345.22333333333336</ele><time>2024-12-15T03:04:22Z</time></trkpt><trkpt lat="33.9991325" lon="132.8342266"><ele>337.3233333333333</ele><time>2024-12-15T03:04:52Z</time></trkpt><trkpt lat="33.9993293" lon="132.8342682"><ele>329.20000000000005</ele><time>2024-12-15T03:05:37Z</time></trkpt><trkpt lat="33.9995192" lon="132.8342659"><ele>323.3066666666667</ele><time>2024-12-15T03:06:10Z</time></trkpt><trkpt lat="33.9997034" lon="132.8342703"><ele>316.64666666666665</ele><time>2024-12-15T03:07:06Z</time></trkpt><trkpt lat="33.9998657" lon="132.8343863"><ele>310.19666666666666</ele><time>2024-12-15T03:07:39Z</time></trkpt><trkpt lat="34.0000384" lon="132.834534"><ele>301.1333333333334</ele><time>2024-12-15T03:08:13Z</time></trkpt><trkpt lat="34.0002216" lon="132.8345423"><ele>293.3433333333333</ele><time>2024-12-15T03:08:30Z</time></trkpt><trkpt lat="34.0004151" lon="132.8346022"><ele>284.9066666666667</ele><time>2024-12-15T03:08:54Z</time></trkpt><trkpt lat="34.0005992" lon="132.8346541"><ele>277.2</ele><time>2024-12-15T03:10:30Z</time></trkpt><trkpt lat="34.0007963" lon="132.8346407"><ele>268.34666666666664</ele><time>2024-12-15T03:11:33Z</time></trkpt><trkpt lat="34.0009878" lon="132.8346637"><ele>258.2</ele><time>2024-12-15T03:12:06Z</time></trkpt><trkpt lat="34.0011911" lon="132.834689"><ele>247.88333333333333</ele><time>2024-12-15T03:12:35Z</time></trkpt><trkpt lat="34.0010515" lon="132.8348538"><ele>241.46000000000004</ele><time>2024-12-15T03:13:35Z</time></trkpt><trkpt lat="34.0009847" lon="132.8350604"><ele>239.9466666666667</ele><time>2024-12-15T03:13:56Z</time></trkpt><trkpt lat="34.0011074" lon="132.8352244"><ele>238.9766666666667</ele><time>2024-12-15T03:14:29Z</time></trkpt><trkpt lat="34.0012569" lon="132.8353649"><ele>234.86666666666667</ele><time>2024-12-15T03:14:43Z</time></trkpt><trkpt lat="34.0014224" lon="132.8354794"><ele>228.7266666666667</ele><time>2024-12-15T03:14:58Z</time></trkpt><trkpt lat="34.0015543" lon="132.8356387"><ele>224.21</ele><time>2024-12-15T03:15:13Z</time></trkpt><trkpt lat="34.0016852" lon="132.8357909"><ele>220.71</ele><time>2024-12-15T03:15:31Z</time></trkpt><trkpt lat="34.0018592" lon="132.8358591"><ele>218.84666666666666</ele><time>2024-12-15T03:15:46Z</time></trkpt><trkpt lat="34.0020554" lon="132.8357894"><ele>217.08666666666667</ele><time>2024-12-15T03:16:04Z</time></trkpt><trkpt lat="34.0022059" lon="132.8359494"><ele>215.49666666666667</ele><time>2024-12-15T03:16:22Z</time></trkpt><trkpt lat="34.0023997" lon="132.836011"><ele>210.55000000000004</ele><time>2024-12-15T03:16:40Z</time></trkpt><trkpt lat="34.0025549" lon="132.8361375"><ele>205.22666666666666</ele><time>2024-12-15T03:16:55Z</time></trkpt><trkpt lat="34.002686" lon="132.8363026"><ele>199.82333333333335</ele><time>2024-12-15T03:17:13Z</time></trkpt><trkpt lat="34.0028757" lon="132.8363976"><ele>195.6833333333333</ele><time>2024-12-15T03:17:30Z</time></trkpt><trkpt lat="34.0029732" lon="132.8365964"><ele>192.60333333333332</ele><time>2024-12-15T03:17:50Z</time></trkpt><trkpt lat="34.0029787" lon="132.8368257"><ele>188.33</ele><time>2024-12-15T03:18:11Z</time></trkpt><trkpt lat="34.0027988" lon="132.8367611"><ele>186.20000000000002</ele><time>2024-12-15T03:18:31Z</time></trkpt><trkpt lat="34.0026127" lon="132.8367986"><ele>184.02666666666667</ele><time>2024-12-15T03:18:46Z</time></trkpt><trkpt lat="34.0026508" lon="132.837037"><ele>183.51</ele><time>2024-12-15T03:19:13Z</time></trkpt><trkpt lat="34.0027823" lon="132.8371927"><ele>182.20000000000002</ele><time>2024-12-15T03:19:28Z</time></trkpt><trkpt lat="34.0028597" lon="132.8374092"><ele>180.16666666666666</ele><time>2024-12-15T03:19:46Z</time></trkpt><trkpt lat="34.0029967" lon="132.8376214"><ele>180.65666666666667</ele><time>2024-12-15T03:20:04Z</time></trkpt><trkpt lat="34.0031582" lon="132.8377325"><ele>180.8166666666667</ele><time>2024-12-15T03:20:19Z</time></trkpt><trkpt lat="34.0033419" lon="132.8378061"><ele>181.60333333333332</ele><time>2024-12-15T03:20:40Z</time></trkpt><trkpt lat="34.0035384" lon="132.8377475"><ele>177.48666666666668</ele><time>2024-12-15T03:20:55Z</time></trkpt><trkpt lat="34.0037277" lon="132.8377011"><ele>174.41666666666666</ele><time>2024-12-15T03:21:10Z</time></trkpt><trkpt lat="34.0039206" lon="132.8377381"><ele>172.0</ele><time>2024-12-15T03:21:25Z</time></trkpt><trkpt lat="34.004121" lon="132.8376612"><ele>170.92</ele><time>2024-12-15T03:21:40Z</time></trkpt><trkpt lat="34.0043303" lon="132.8375921"><ele>168.43666666666664</ele><time>2024-12-15T03:21:55Z</time></trkpt><trkpt lat="34.004519" lon="132.8375691"><ele>164.60333333333332</ele><time>2024-12-15T03:22:10Z</time></trkpt><trkpt lat="34.0047021" lon="132.8376307"><ele>161.62</ele><time>2024-12-15T03:22:25Z</time></trkpt><trkpt lat="34.0048896" lon="132.8376162"><ele>159.57333333333335</ele><time>2024-12-15T03:22:40Z</time></trkpt><trkpt lat="34.0051024" lon="132.8376942"><ele>158.67333333333332</ele><time>2024-12-15T03:22:58Z</time></trkpt><trkpt lat="34.0052452" lon="132.8378359"><ele>158.95666666666668</ele><time>2024-12-15T03:23:13Z</time></trkpt><trkpt lat="34.0054419" lon="132.8379239"><ele>159.16333333333333</ele><time>2024-12-15T03:23:31Z</time></trkpt><trkpt lat="34.005627" lon="132.838039"><ele>160.71666666666667</ele><time>2024-12-15T03:23:49Z</time></trkpt><trkpt lat="34.0057683" lon="132.8382351"><ele>159.65666666666667</ele><time>2024-12-15T03:24:13Z</time></trkpt><trkpt lat="34.0058686" lon="132.8384462"><ele>155.52</ele><time>2024-12-15T03:24:31Z</time></trkpt><trkpt lat="34.0058126" lon="132.8386734"><ele>150.47</ele><time>2024-12-15T03:25:46Z</time></trkpt><trkpt lat="34.0057283" lon="132.838895"><ele>148.53</ele><time>2024-12-15T03:26:06Z</time></trkpt><trkpt lat="34.0059343" lon="132.8389056"><ele>150.22666666666666</ele><time>2024-12-15T03:26:24Z</time></trkpt><trkpt lat="34.0061252" lon="132.8389085"><ele>151.56000000000003</ele><time>2024-12-15T03:26:43Z</time></trkpt><trkpt lat="34.0063083" lon="132.8387884"><ele>152.01</ele><time>2024-12-15T03:27:22Z</time></trkpt><trkpt lat="34.0064126" lon="132.8389701"><ele>153.88666666666668</ele><time>2024-12-15T03:28:28Z</time></trkpt><trkpt lat="34.0063904" lon="132.8391944"><ele>156.91666666666666</ele><time>2024-12-15T03:29:10Z</time></trkpt><trkpt lat="34.0063312" lon="132.8394004"><ele>163.70333333333335</ele><time>2024-12-15T03:29:52Z</time></trkpt><trkpt lat="34.0062776" lon="132.8396221"><ele>172.09666666666666</ele><time>2024-12-15T03:31:46Z</time></trkpt><trkpt lat="34.0062638" lon="132.8398387"><ele>182.35</ele><time>2024-12-15T03:32:25Z</time></trkpt><trkpt lat="34.0062952" lon="132.8400525"><ele>189.95000000000002</ele><time>2024-12-15T03:33:04Z</time></trkpt><trkpt lat="34.0063456" lon="132.8402632"><ele>196.83666666666667</ele><time>2024-12-15T03:33:45Z</time></trkpt><trkpt lat="34.0064769" lon="132.8404325"><ele>199.8066666666667</ele><time>2024-12-15T03:34:39Z</time></trkpt><trkpt lat="34.0066097" lon="132.8405826"><ele>203.54999999999998</ele><time>2024-12-15T03:35:33Z</time></trkpt><trkpt lat="34.0066617" lon="132.8407906"><ele>207.3166666666667</ele><time>2024-12-15T03:36:27Z</time></trkpt><trkpt lat="34.0067232" lon="132.8410133"><ele>213.48000000000002</ele><time>2024-12-15T03:37:09Z</time></trkpt><trkpt lat="34.0067661" lon="132.8412392"><ele>220.15666666666667</ele><time>2024-12-15T03:38:12Z</time></trkpt><trkpt lat="34.0066829" lon="132.8414409"><ele>226.04999999999998</ele><time>2024-12-15T03:38:45Z</time></trkpt><trkpt lat="34.0065866" lon="132.8416302"><ele>231.31000000000003</ele><time>2024-12-15T03:40:53Z</time></trkpt><trkpt lat="34.0065243" lon="132.8418349"><ele>232.67666666666665</ele><time>2024-12-15T03:41:35Z</time></trkpt><trkpt lat="34.0066159" lon="132.8420374"><ele>231.49666666666667</ele><time>2024-12-15T03:42:17Z</time></trkpt><trkpt lat="34.0066413" lon="132.8422664"><ele>229.65333333333334</ele><time>2024-12-15T03:42:50Z</time></trkpt><trkpt lat="34.006599" lon="132.8424786"><ele>229.78</ele><time>2024-12-15T03:43:23Z</time></trkpt><trkpt lat="34.0066439" lon="132.8426891"><ele>233.07333333333335</ele><time>2024-12-15T03:45:01Z</time></trkpt><trkpt lat="34.0067808" lon="132.842844"><ele>238.15666666666667</ele><time>2024-12-15T03:45:36Z</time></trkpt><trkpt lat="34.0069037" lon="132.8430102"><ele>243.97333333333336</ele><time>2024-12-15T03:46:11Z</time></trkpt><trkpt lat="34.0069493" lon="132.8432243"><ele>249.78666666666666</ele><time>2024-12-15T03:47:08Z</time></trkpt><trkpt lat="34.00713" lon="132.8432947"><ele>255.29999999999998</ele><time>2024-12-15T03:47:47Z</time></trkpt><trkpt lat="34.0072427" lon="132.8434832"><ele>260.94666666666666</ele><time>2024-12-15T03:49:47Z</time></trkpt><trkpt lat="34.0071953" lon="132.8436936"><ele>267.18666666666667</ele><time>2024-12-15T03:51:05Z</time></trkpt><trkpt lat="34.0072023" lon="132.8439124"><ele>273.0333333333333</ele><time>2024-12-15T03:52:11Z</time></trkpt><trkpt lat="34.0072004" lon="132.8441327"><ele>278.81333333333333</ele><time>2024-12-15T03:53:11Z</time></trkpt><trkpt lat="34.0072168" lon="132.8443499"><ele>282.24</ele><time>2024-12-15T03:53:44Z</time></trkpt><trkpt lat="34.007241" lon="132.8445662"><ele>285.66333333333336</ele><time>2024-12-15T03:54:17Z</time></trkpt><trkpt lat="34.0072974" lon="132.8447868"><ele>288.5566666666667</ele><time>2024-12-15T03:55:05Z</time></trkpt><trkpt lat="34.0073425" lon="132.8450021"><ele>290.3833333333333</ele><time>2024-12-15T03:55:38Z</time></trkpt><trkpt lat="34.0073251" lon="132.8452264"><ele>289.9433333333333</ele><time>2024-12-15T04:05:35Z</time></trkpt><trkpt lat="34.0073591" lon="132.8454583"><ele>288.21666666666664</ele><time>2024-12-15T04:06:14Z</time></trkpt><trkpt lat="34.007249" lon="132.845647"><ele>284.6033333333333</ele><time>2024-12-15T04:06:37Z</time></trkpt><trkpt lat="34.0071716" lon="132.8458648"><ele>279.56</ele><time>2024-12-15T04:06:58Z</time></trkpt><trkpt lat="34.0070825" lon="132.8460703"><ele>273.12000000000006</ele><time>2024-12-15T04:07:19Z</time></trkpt><trkpt lat="34.0071384" lon="132.8463305"><ele>267.8766666666666</ele><time>2024-12-15T04:08:03Z</time></trkpt><trkpt lat="34.0071774" lon="132.8465695"><ele>263.23</ele><time>2024-12-15T04:08:12Z</time></trkpt><trkpt lat="34.0071711" lon="132.8467927"><ele>258.82666666666665</ele><time>2024-12-15T04:08:21Z</time></trkpt><trkpt lat="34.0071304" lon="132.8470263"><ele>253.10666666666668</ele><time>2024-12-15T04:08:37Z</time></trkpt><trkpt lat="34.0071743" lon="132.847249"><ele>247.46666666666667</ele><time>2024-12-15T04:08:54Z</time></trkpt><trkpt lat="34.007172" lon="132.8474667"><ele>240.07333333333335</ele><time>2024-12-15T04:09:15Z</time></trkpt><trkpt lat="34.0071818" lon="132.8477084"><ele>233.95000000000002</ele><time>2024-12-15T04:09:30Z</time></trkpt><trkpt lat="34.0071798" lon="132.8479559"><ele>227.3166666666667</ele><time>2024-12-15T04:10:03Z</time></trkpt><trkpt lat="34.0072207" lon="132.8481766"><ele>224.37666666666667</ele><time>2024-12-15T04:10:18Z</time></trkpt><trkpt lat="34.0072154" lon="132.848398"><ele>223.23666666666668</ele><time>2024-12-15T04:10:33Z</time></trkpt><trkpt lat="34.0072996" lon="132.8486152"><ele>225.63</ele><time>2024-12-15T04:10:51Z</time></trkpt><trkpt lat="34.0073727" lon="132.8488438"><ele>227.90666666666667</ele><time>2024-12-15T04:11:09Z</time></trkpt><trkpt lat="34.007422" lon="132.8490528"><ele>228.94333333333336</ele><time>2024-12-15T04:11:24Z</time></trkpt><trkpt lat="34.0074275" lon="132.8492746"><ele>226.48000000000002</ele><time>2024-12-15T04:11:36Z</time></trkpt><trkpt lat="34.0074099" lon="132.8495051"><ele>222.6966666666667</ele><time>2024-12-15T04:11:51Z</time></trkpt><trkpt lat="34.007341" lon="132.8497186"><ele>218.15</ele><time>2024-12-15T04:12:15Z</time></trkpt><trkpt lat="34.0072565" lon="132.8499318"><ele>215.07666666666668</ele><time>2024-12-15T04:12:30Z</time></trkpt><trkpt lat="34.0071226" lon="132.8500994"><ele>211.67999999999998</ele><time>2024-12-15T04:12:45Z</time></trkpt><trkpt lat="34.0069695" lon="132.8502489"><ele>208.34</ele><time>2024-12-15T04:13:00Z</time></trkpt><trkpt lat="34.0068267" lon="132.8503966"><ele>204.98000000000002</ele><time>2024-12-15T04:13:15Z</time></trkpt><trkpt lat="34.006655" lon="132.8505117"><ele>202.21666666666667</ele><time>2024-12-15T04:13:30Z</time></trkpt><trkpt lat="34.0064769" lon="132.8506065"><ele>199.35333333333335</ele><time>2024-12-15T04:13:54Z</time></trkpt><trkpt lat="34.0063063" lon="132.8507182"><ele>195.86666666666667</ele><time>2024-12-15T04:14:12Z</time></trkpt><trkpt lat="34.0061134" lon="132.8507667"><ele>192.47333333333336</ele><time>2024-12-15T04:14:30Z</time></trkpt><trkpt lat="34.0062923" lon="132.8508607"><ele>190.43333333333337</ele><time>2024-12-15T04:14:47Z</time></trkpt><trkpt lat="34.0064414" lon="132.8510406"><ele>187.56000000000003</ele><time>2024-12-15T04:15:08Z</time></trkpt><trkpt lat="34.0066228" lon="132.8510133"><ele>185.43666666666664</ele><time>2024-12-15T04:15:32Z</time></trkpt><trkpt lat="34.0068274" lon="132.8509568"><ele>183.6766666666667</ele><time>2024-12-15T04:15:53Z</time></trkpt><trkpt lat="34.0070053" lon="132.8510507"><ele>182.61666666666667</ele><time>2024-12-15T04:16:08Z</time></trkpt><trkpt lat="34.0068213" lon="132.8511638"><ele>180.07000000000002</ele><time>2024-12-15T04:16:47Z</time></trkpt><trkpt lat="34.0067388" lon="132.8513872"><ele>175.77666666666667</ele><time>2024-12-15T04:17:02Z</time></trkpt><trkpt lat="34.0066528" lon="132.851619"><ele>169.58</ele><time>2024-12-15T04:17:17Z</time></trkpt><trkpt lat="34.0064763" lon="132.8517301"><ele>162.92000000000002</ele><time>2024-12-15T04:17:35Z</time></trkpt><trkpt lat="34.0063632" lon="132.8515506"><ele>159.76666666666668</ele><time>2024-12-15T04:17:53Z</time></trkpt><trkpt lat="34.0061706" lon="132.8514428"><ele>159.99666666666667</ele><time>2024-12-15T04:18:13Z</time></trkpt><trkpt lat="34.0060061" lon="132.851544"><ele>161.1966666666667</ele><time>2024-12-15T04:18:31Z</time></trkpt><trkpt lat="34.0060994" lon="132.8517381"><ele>158.42</ele><time>2024-12-15T04:18:45Z</time></trkpt><trkpt lat="34.0061409" lon="132.8519652"><ele>154.74</ele><time>2024-12-15T04:19:00Z</time></trkpt><trkpt lat="34.0062884" lon="132.8521646"><ele>150.66666666666666</ele><time>2024-12-15T04:19:15Z</time></trkpt><trkpt lat="34.0064598" lon="132.8523164"><ele>146.89333333333335</ele><time>2024-12-15T04:19:29Z</time></trkpt><trkpt lat="34.0066355" lon="132.8524424"><ele>143.00666666666666</ele><time>2024-12-15T04:19:44Z</time></trkpt><trkpt lat="34.0067701" lon="132.8525944"><ele>139.23000000000002</ele><time>2024-12-15T04:19:59Z</time></trkpt><trkpt lat="34.0068525" lon="132.8527967"><ele>135.35666666666668</ele><time>2024-12-15T04:20:14Z</time></trkpt><trkpt lat="34.0069137" lon="132.8530376"><ele>131.46333333333334</ele><time>2024-12-15T04:20:31Z</time></trkpt><trkpt lat="34.0070458" lon="132.8532422"><ele>127.39333333333332</ele><time>2024-12-15T04:21:28Z</time></trkpt><trkpt lat="34.0071803" lon="132.8533942"><ele>124.93666666666667</ele><time>2024-12-15T04:21:43Z</time></trkpt><trkpt lat="34.0072066" lon="132.8536308"><ele>123.76333333333334</ele><time>2024-12-15T04:21:58Z</time></trkpt><trkpt lat="34.00717" lon="132.8538663"><ele>122.76666666666667</ele><time>2024-12-15T04:22:13Z</time></trkpt><trkpt lat="34.0071525" lon="132.8541044"><ele>121.55666666666666</ele><time>2024-12-15T04:22:28Z</time></trkpt><trkpt lat="34.0071687" lon="132.8543286"><ele>119.89333333333333</ele><time>2024-12-15T04:22:43Z</time></trkpt><trkpt lat="34.0071775" lon="132.8545674"><ele>119.73333333333333</ele><time>2024-12-15T04:22:58Z</time></trkpt><trkpt lat="34.0072239" lon="132.8547887"><ele>119.46666666666668</ele><time>2024-12-15T04:23:13Z</time></trkpt><trkpt lat="34.0073796" lon="132.8549299"><ele>119.02333333333335</ele><time>2024-12-15T04:23:28Z</time></trkpt><trkpt lat="34.0075862" lon="132.8549011"><ele>118.42666666666666</ele><time>2024-12-15T04:23:43Z</time></trkpt><trkpt lat="34.0077945" lon="132.8548642"><ele>118.2</ele><time>2024-12-15T04:23:58Z</time></trkpt><trkpt lat="34.0079796" lon="132.8549145"><ele>118.43333333333334</ele><time>2024-12-15T04:24:13Z</time></trkpt><trkpt lat="34.0080866" lon="132.8551058"><ele>117.29333333333334</ele><time>2024-12-15T04:24:28Z</time></trkpt><trkpt lat="34.0081897" lon="132.8552922"><ele>115.17</ele><time>2024-12-15T04:24:42Z</time></trkpt><trkpt lat="34.008315" lon="132.8555025"><ele>112.43333333333334</ele><time>2024-12-15T04:24:59Z</time></trkpt><trkpt lat="34.0084079" lon="132.8557139"><ele>110.64</ele><time>2024-12-15T04:25:26Z</time></trkpt><trkpt lat="34.0084073" lon="132.8559429"><ele>109.23333333333335</ele><time>2024-12-15T04:25:44Z</time></trkpt><trkpt lat="34.0084168" lon="132.8561654"><ele>107.58</ele><time>2024-12-15T04:25:58Z</time></trkpt><trkpt lat="34.0085292" lon="132.8563691"><ele>105.37333333333333</ele><time>2024-12-15T04:26:13Z</time></trkpt><trkpt lat="34.0085502" lon="132.856595"><ele>103.59333333333332</ele><time>2024-12-15T04:26:43Z</time></trkpt><trkpt lat="34.0084085" lon="132.8567293"><ele>103.46333333333332</ele><time>2024-12-15T04:26:57Z</time></trkpt><trkpt lat="34.0082462" lon="132.856849"><ele>105.02666666666669</ele><time>2024-12-15T04:27:14Z</time></trkpt><trkpt lat="34.0080788" lon="132.8569772"><ele>107.67</ele><time>2024-12-15T04:27:31Z</time></trkpt><trkpt lat="34.0078938" lon="132.8570809"><ele>110.67</ele><time>2024-12-15T04:28:13Z</time></trkpt><trkpt lat="34.0077661" lon="132.857235"><ele>113.52333333333335</ele><time>2024-12-15T04:28:30Z</time></trkpt><trkpt lat="34.0075882" lon="132.857174"><ele>116.87333333333333</ele><time>2024-12-15T04:28:49Z</time></trkpt><trkpt lat="34.0075376" lon="132.8569508"><ele>120.84666666666665</ele><time>2024-12-15T04:29:10Z</time></trkpt><trkpt lat="34.0075275" lon="132.8567152"><ele>122.97333333333334</ele><time>2024-12-15T04:29:27Z</time></trkpt><trkpt lat="34.0076641" lon="132.8565469"><ele>122.96999999999998</ele><time>2024-12-15T04:29:44Z</time></trkpt><trkpt lat="34.0077377" lon="132.8563396"><ele>121.59666666666665</ele><time>2024-12-15T04:30:01Z</time></trkpt><trkpt lat="34.0076881" lon="132.8561048"><ele>123.44</ele><time>2024-12-15T04:30:18Z</time></trkpt><trkpt lat="34.0075146" lon="132.8560189"><ele>127.74333333333334</ele><time>2024-12-15T04:30:33Z</time></trkpt><trkpt lat="34.0076853" lon="132.8561621"><ele>129.59</ele><time>2024-12-15T04:31:11Z</time></trkpt><trkpt lat="34.0076819" lon="132.8563826"><ele>127.58333333333333</ele><time>2024-12-15T04:31:26Z</time></trkpt><trkpt lat="34.0075918" lon="132.8565884"><ele>123.25999999999999</ele><time>2024-12-15T04:31:41Z</time></trkpt><trkpt lat="34.0074908" lon="132.856799"><ele>123.14333333333333</ele><time>2024-12-15T04:31:59Z</time></trkpt><trkpt lat="34.0075316" lon="132.8570104"><ele>124.45</ele><time>2024-12-15T04:32:14Z</time></trkpt><trkpt lat="34.007653" lon="132.8572218"><ele>123.67</ele><time>2024-12-15T04:32:33Z</time></trkpt><trkpt lat="34.0078426" lon="132.8572146"><ele>119.65666666666668</ele><time>2024-12-15T04:32:53Z</time></trkpt><trkpt lat="34.0080298" lon="132.8572684"><ele>116.86666666666667</ele><time>2024-12-15T04:33:14Z</time></trkpt><trkpt lat="34.0081955" lon="132.8573955"><ele>117.26666666666667</ele><time>2024-12-15T04:33:34Z</time></trkpt><trkpt lat="34.0083003" lon="132.8575727"><ele>118.14</ele><time>2024-12-15T04:33:52Z</time></trkpt><trkpt lat="34.0081203" lon="132.8574467"><ele>119.81</ele><time>2024-12-15T04:34:42Z</time></trkpt><trkpt lat="34.0079595" lon="132.8575464"><ele>122.03333333333335</ele><time>2024-12-15T04:35:00Z</time></trkpt><trkpt lat="34.0078315" lon="132.8577207"><ele>125.70333333333333</ele><time>2024-12-15T04:35:17Z</time></trkpt><trkpt lat="34.0079281" lon="132.8575363"><ele>126.73</ele><time>2024-12-15T04:35:56Z</time></trkpt><trkpt lat="34.0081266" lon="132.8574682"><ele>125.70333333333333</ele><time>2024-12-15T04:36:17Z</time></trkpt><trkpt lat="34.0083147" lon="132.8575888"><ele>122.66000000000001</ele><time>2024-12-15T04:36:40Z</time></trkpt><trkpt lat="34.0082993" lon="132.8578278"><ele>121.53666666666668</ele><time>2024-12-15T04:36:58Z</time></trkpt><trkpt lat="34.0082312" lon="132.8580541"><ele>123.51333333333332</ele><time>2024-12-15T04:37:19Z</time></trkpt><trkpt lat="34.008229" lon="132.8582863"><ele>129.84333333333333</ele><time>2024-12-15T04:37:45Z</time></trkpt><trkpt lat="34.0084366" lon="132.8582809"><ele>135.01</ele><time>2024-12-15T04:38:06Z</time></trkpt><trkpt lat="34.0086268" lon="132.8582654"><ele>135.74666666666667</ele><time>2024-12-15T04:38:27Z</time></trkpt><trkpt lat="34.0088044" lon="132.858339"><ele>132.98</ele><time>2024-12-15T04:38:45Z</time></trkpt><trkpt lat="34.0086094" lon="132.8583719"><ele>133.65666666666667</ele><time>2024-12-15T04:39:32Z</time></trkpt><trkpt lat="34.0084152" lon="132.858458"><ele>139.22</ele><time>2024-12-15T04:39:53Z</time></trkpt><trkpt lat="34.0082493" lon="132.8585458"><ele>145.72</ele><time>2024-12-15T04:40:10Z</time></trkpt><trkpt lat="34.008072" lon="132.8585966"><ele>148.62333333333333</ele><time>2024-12-15T04:40:28Z</time></trkpt><trkpt lat="34.0078889" lon="132.858564"><ele>150.08</ele><time>2024-12-15T04:40:45Z</time></trkpt><trkpt lat="34.0076934" lon="132.8585597"><ele>151.32000000000002</ele><time>2024-12-15T04:41:05Z</time></trkpt><trkpt lat="34.0075212" lon="132.858651"><ele>154.1866666666667</ele><time>2024-12-15T04:41:22Z</time></trkpt><trkpt lat="34.0073543" lon="132.8587684"><ele>156.09333333333333</ele><time>2024-12-15T04:41:43Z</time></trkpt><trkpt lat="34.0072109" lon="132.8589408"><ele>158.15666666666667</ele><time>2024-12-15T04:42:07Z</time></trkpt><trkpt lat="34.0070788" lon="132.8591292"><ele>159.96666666666667</ele><time>2024-12-15T04:42:30Z</time></trkpt><trkpt lat="34.0069911" lon="132.8593461"><ele>161.27666666666667</ele><time>2024-12-15T04:42:51Z</time></trkpt><trkpt lat="34.0069164" lon="132.859562"><ele>162.80333333333334</ele><time>2024-12-15T04:43:24Z</time></trkpt><trkpt lat="34.0068369" lon="132.8597781"><ele>163.62666666666667</ele><time>2024-12-15T04:43:42Z</time></trkpt><trkpt lat="34.0067228" lon="132.8599652"><ele>165.25666666666666</ele><time>2024-12-15T04:44:00Z</time></trkpt><trkpt lat="34.0065592" lon="132.8601316"><ele>164.85</ele><time>2024-12-15T04:45:23Z</time></trkpt><trkpt lat="34.0065412" lon="132.8603551"><ele>166.6966666666667</ele><time>2024-12-15T04:45:40Z</time></trkpt><trkpt lat="34.00645" lon="132.8605793"><ele>169.28666666666666</ele><time>2024-12-15T04:46:00Z</time></trkpt><trkpt lat="34.0063294" lon="132.86076"><ele>174.60333333333335</ele><time>2024-12-15T04:46:20Z</time></trkpt><trkpt lat="34.0062327" lon="132.860974"><ele>178.41</ele><time>2024-12-15T04:46:41Z</time></trkpt><trkpt lat="34.0061374" lon="132.8611674"><ele>180.76333333333332</ele><time>2024-12-15T04:46:59Z</time></trkpt><trkpt lat="34.0060342" lon="132.8613743"><ele>182.56333333333336</ele><time>2024-12-15T04:47:16Z</time></trkpt><trkpt lat="34.0059645" lon="132.8616055"><ele>183.76333333333332</ele><time>2024-12-15T04:47:34Z</time></trkpt><trkpt lat="34.0058512" lon="132.8617824"><ele>184.74333333333334</ele><time>2024-12-15T04:47:54Z</time></trkpt><trkpt lat="34.005724" lon="132.8619417"><ele>185.44333333333336</ele><time>2024-12-15T04:48:15Z</time></trkpt><trkpt lat="34.0055959" lon="132.8617732"><ele>184.6933333333333</ele><time>2024-12-15T04:51:09Z</time></trkpt><trkpt lat="34.0055971" lon="132.8615087"><ele>184.94666666666663</ele><time>2024-12-15T04:51:29Z</time></trkpt><trkpt lat="34.0056056" lon="132.8612808"><ele>185.10333333333332</ele><time>2024-12-15T04:51:47Z</time></trkpt><trkpt lat="34.0056232" lon="132.8610493"><ele>187.28333333333333</ele><time>2024-12-15T04:52:08Z</time></trkpt><trkpt lat="34.0056824" lon="132.860839"><ele>188.08</ele><time>2024-12-15T04:52:25Z</time></trkpt><trkpt lat="34.0057679" lon="132.8606418"><ele>186.90333333333334</ele><time>2024-12-15T04:52:49Z</time></trkpt><trkpt lat="34.0055831" lon="132.8606754"><ele>188.09666666666666</ele><time>2024-12-15T04:54:07Z</time></trkpt><trkpt lat="34.0054917" lon="132.860878"><ele>193.14333333333335</ele><time>2024-12-15T04:54:27Z</time></trkpt><trkpt lat="34.0054814" lon="132.8611425"><ele>198.72333333333333</ele><time>2024-12-15T04:54:44Z</time></trkpt><trkpt lat="34.005465" lon="132.8613623"><ele>199.69000000000003</ele><time>2024-12-15T04:55:01Z</time></trkpt><trkpt lat="34.0054122" lon="132.861585"><ele>198.82333333333335</ele><time>2024-12-15T04:55:21Z</time></trkpt><trkpt lat="34.0053228" lon="132.8618121"><ele>198.6766666666667</ele><time>2024-12-15T04:55:38Z</time></trkpt><trkpt lat="34.0051892" lon="132.8619912"><ele>201.38000000000002</ele><time>2024-12-15T04:55:59Z</time></trkpt><trkpt lat="34.0051497" lon="132.8622364"><ele>201.65333333333334</ele><time>2024-12-15T04:56:16Z</time></trkpt><trkpt lat="34.0050421" lon="132.8624405"><ele>203.63666666666666</ele><time>2024-12-15T04:56:49Z</time></trkpt><trkpt lat="34.0049144" lon="132.8626494"><ele>205.49</ele><time>2024-12-15T04:57:06Z</time></trkpt><trkpt lat="34.0048568" lon="132.8628553"><ele>208.75666666666666</ele><time>2024-12-15T04:57:24Z</time></trkpt><trkpt lat="34.004767" lon="132.8630742"><ele>210.98666666666668</ele><time>2024-12-15T04:57:45Z</time></trkpt><trkpt lat="34.0046691" lon="132.8632692"><ele>213.19333333333336</ele><time>2024-12-15T04:58:02Z</time></trkpt><trkpt lat="34.0046291" lon="132.8634968"><ele>216.9366666666667</ele><time>2024-12-15T04:58:20Z</time></trkpt><trkpt lat="34.0045962" lon="132.8637193"><ele>219.38333333333335</ele><time>2024-12-15T04:58:37Z</time></trkpt><trkpt lat="34.0045533" lon="132.8639305"><ele>221.24666666666667</ele><time>2024-12-15T04:58:54Z</time></trkpt><trkpt lat="34.0044928" lon="132.8641616"><ele>221.36333333333332</ele><time>2024-12-15T04:59:15Z</time></trkpt><trkpt lat="34.0043955" lon="132.8643566"><ele>222.08666666666667</ele><time>2024-12-15T04:59:32Z</time></trkpt><trkpt lat="34.0042852" lon="132.864538"><ele>222.29666666666665</ele><time>2024-12-15T04:59:52Z</time></trkpt><trkpt lat="34.0041584" lon="132.864747"><ele>222.21000000000004</ele><time>2024-12-15T05:00:12Z</time></trkpt><trkpt lat="34.0040532" lon="132.8649322"><ele>222.79333333333332</ele><time>2024-12-15T05:00:39Z</time></trkpt><trkpt lat="34.0039983" lon="132.8651436"><ele>223.09333333333333</ele><time>2024-12-15T05:00:57Z</time></trkpt><trkpt lat="34.0041798" lon="132.8652258"><ele>227.1966666666667</ele><time>2024-12-15T05:02:18Z</time></trkpt><trkpt lat="34.0043539" lon="132.8650806"><ele>231.04666666666665</ele><time>2024-12-15T05:02:42Z</time></trkpt><trkpt lat="34.0044988" lon="132.8649396"><ele>233.79</ele><time>2024-12-15T05:03:00Z</time></trkpt><trkpt lat="34.0046641" lon="132.8648371"><ele>232.70000000000002</ele><time>2024-12-15T05:03:24Z</time></trkpt><trkpt lat="34.0048334" lon="132.8649161"><ele>233.24</ele><time>2024-12-15T05:04:15Z</time></trkpt><trkpt lat="34.0050115" lon="132.8649763"><ele>234.44333333333336</ele><time>2024-12-15T05:05:24Z</time></trkpt><trkpt lat="34.0051884" lon="132.8651172"><ele>236.26333333333332</ele><time>2024-12-15T05:06:21Z</time></trkpt><trkpt lat="34.004991" lon="132.8650522"><ele>238.0233333333333</ele><time>2024-12-15T05:07:00Z</time></trkpt><trkpt lat="34.0048133" lon="132.8649525"><ele>238.38333333333333</ele><time>2024-12-15T05:07:20Z</time></trkpt><trkpt lat="34.004614" lon="132.8649808"><ele>239.85000000000002</ele><time>2024-12-15T05:07:41Z</time></trkpt><trkpt lat="34.0045166" lon="132.8651985"><ele>240.96666666666667</ele><time>2024-12-15T05:08:05Z</time></trkpt><trkpt lat="34.0044514" lon="132.8654082"><ele>245.35</ele><time>2024-12-15T05:08:23Z</time></trkpt><trkpt lat="34.0042742" lon="132.8655059"><ele>246.37666666666667</ele><time>2024-12-15T05:08:40Z</time></trkpt><trkpt lat="34.0041674" lon="132.865712"><ele>246.03</ele><time>2024-12-15T05:08:58Z</time></trkpt><trkpt lat="34.0040509" lon="132.8659061"><ele>243.16666666666666</ele><time>2024-12-15T05:09:16Z</time></trkpt><trkpt lat="34.0039208" lon="132.8660939"><ele>240.76666666666668</ele><time>2024-12-15T05:09:36Z</time></trkpt><trkpt lat="34.0040094" lon="132.8663058"><ele>241.05333333333337</ele><time>2024-12-15T05:09:59Z</time></trkpt><trkpt lat="34.0040201" lon="132.866529"><ele>242.97333333333336</ele><time>2024-12-15T05:10:26Z</time></trkpt><trkpt lat="34.0038521" lon="132.8666417"><ele>245.37</ele><time>2024-12-15T05:10:50Z</time></trkpt><trkpt lat="34.0037809" lon="132.8668748"><ele>248.58666666666667</ele><time>2024-12-15T05:11:11Z</time></trkpt><trkpt lat="34.0036658" lon="132.8670578"><ele>253.28666666666663</ele><time>2024-12-15T05:12:38Z</time></trkpt><trkpt lat="34.0034899" lon="132.867177"><ele>257.2633333333333</ele><time>2024-12-15T05:12:59Z</time></trkpt><trkpt lat="34.0033613" lon="132.8673382"><ele>257.49666666666667</ele><time>2024-12-15T05:13:16Z</time></trkpt><trkpt lat="34.0032987" lon="132.8675439"><ele>257.97</ele><time>2024-12-15T05:13:34Z</time></trkpt><trkpt lat="34.0032235" lon="132.8677523"><ele>260.4866666666667</ele><time>2024-12-15T05:13:52Z</time></trkpt><trkpt lat="34.0031583" lon="132.8679663"><ele>263.91</ele><time>2024-12-15T05:14:28Z</time></trkpt><trkpt lat="34.0030523" lon="132.8681595"><ele>262.6933333333333</ele><time>2024-12-15T05:14:48Z</time></trkpt><trkpt lat="34.0030357" lon="132.8683774"><ele>262.32</ele><time>2024-12-15T05:15:06Z</time></trkpt><trkpt lat="34.0028875" lon="132.8685524"><ele>260.57</ele><time>2024-12-15T05:16:03Z</time></trkpt><trkpt lat="34.0027696" lon="132.8687308"><ele>260.77</ele><time>2024-12-15T05:16:33Z</time></trkpt><trkpt lat="34.0027381" lon="132.8689456"><ele>261.49</ele><time>2024-12-15T05:16:51Z</time></trkpt><trkpt lat="34.0025603" lon="132.8690212"><ele>262.28333333333336</ele><time>2024-12-15T05:17:20Z</time></trkpt><trkpt lat="34.002368" lon="132.869085"><ele>264.05333333333334</ele><time>2024-12-15T05:17:44Z</time></trkpt><trkpt lat="34.0022003" lon="132.8692224"><ele>264.8233333333333</ele><time>2024-12-15T05:18:08Z</time></trkpt><trkpt lat="34.0020307" lon="132.869355"><ele>267.75</ele><time>2024-12-15T05:18:29Z</time></trkpt><trkpt lat="34.0018817" lon="132.8695167"><ele>272.6566666666667</ele><time>2024-12-15T05:18:50Z</time></trkpt><trkpt lat="34.0017058" lon="132.8696468"><ele>276.2366666666667</ele><time>2024-12-15T05:19:11Z</time></trkpt><trkpt lat="34.001613" lon="132.8698516"><ele>279.09</ele><time>2024-12-15T05:19:59Z</time></trkpt><trkpt lat="34.0015818" lon="132.8700752"><ele>280.93333333333334</ele><time>2024-12-15T05:20:20Z</time></trkpt><trkpt lat="34.0016054" lon="132.8703073"><ele>286.42</ele><time>2024-12-15T05:20:42Z</time></trkpt><trkpt lat="34.0015843" lon="132.8705308"><ele>289.8566666666667</ele><time>2024-12-15T05:22:15Z</time></trkpt><trkpt lat="34.0014831" lon="132.8707322"><ele>290.9566666666667</ele><time>2024-12-15T05:22:51Z</time></trkpt><trkpt lat="34.0015137" lon="132.8709627"><ele>289.6166666666666</ele><time>2024-12-15T05:23:17Z</time></trkpt><trkpt lat="34.0015289" lon="132.8712088"><ele>291.59666666666664</ele><time>2024-12-15T05:23:44Z</time></trkpt><trkpt lat="34.0015008" lon="132.8714474"><ele>294.99666666666667</ele><time>2024-12-15T05:24:20Z</time></trkpt><trkpt lat="34.001586" lon="132.871685"><ele>302.85333333333335</ele><time>2024-12-15T05:24:41Z</time></trkpt><trkpt lat="34.0015693" lon="132.8719113"><ele>307.73</ele><time>2024-12-15T05:25:05Z</time></trkpt><trkpt lat="34.0015758" lon="132.8721318"><ele>312.8333333333333</ele><time>2024-12-15T05:25:23Z</time></trkpt><trkpt lat="34.0014344" lon="132.8722807"><ele>312.12</ele><time>2024-12-15T05:26:23Z</time></trkpt><trkpt lat="34.0012588" lon="132.8723647"><ele>312.57</ele><time>2024-12-15T05:26:44Z</time></trkpt><trkpt lat="34.0011474" lon="132.872566"><ele>313.37666666666667</ele><time>2024-12-15T05:27:05Z</time></trkpt><trkpt lat="34.0010635" lon="132.8727789"><ele>316.5566666666667</ele><time>2024-12-15T05:27:29Z</time></trkpt><trkpt lat="34.0009615" lon="132.8729647"><ele>321.18333333333334</ele><time>2024-12-15T05:27:53Z</time></trkpt><trkpt lat="34.0008215" lon="132.8731354"><ele>327.32666666666665</ele><time>2024-12-15T05:28:50Z</time></trkpt><trkpt lat="34.0007397" lon="132.8733403"><ele>332.27000000000004</ele><time>2024-12-15T05:29:11Z</time></trkpt><trkpt lat="34.0006627" lon="132.8735642"><ele>334.46333333333337</ele><time>2024-12-15T05:29:37Z</time></trkpt><trkpt lat="34.0008293" lon="132.8736649"><ele>333.27333333333337</ele><time>2024-12-15T05:30:34Z</time></trkpt><trkpt lat="34.0007612" lon="132.8738729"><ele>332.75666666666666</ele><time>2024-12-15T05:32:01Z</time></trkpt><trkpt lat="34.0006755" lon="132.8740643"><ele>334.2133333333333</ele><time>2024-12-15T05:32:46Z</time></trkpt><trkpt lat="34.0006644" lon="132.8742941"><ele>336.8766666666667</ele><time>2024-12-15T05:33:22Z</time></trkpt><trkpt lat="34.0006082" lon="132.8745069"><ele>341.3866666666666</ele><time>2024-12-15T05:33:45Z</time></trkpt><trkpt lat="34.0005225" lon="132.8747138"><ele>347.09666666666664</ele><time>2024-12-15T05:34:17Z</time></trkpt><trkpt lat="34.0004174" lon="132.8749018"><ele>352.6466666666667</ele><time>2024-12-15T05:34:44Z</time></trkpt><trkpt lat="34.0003133" lon="132.875105"><ele>358.08666666666664</ele><time>2024-12-15T05:35:05Z</time></trkpt><trkpt lat="34.0002881" lon="132.8753299"><ele>363.45666666666665</ele><time>2024-12-15T05:35:31Z</time></trkpt><trkpt lat="34.0002116" lon="132.875535"><ele>370.93</ele><time>2024-12-15T05:36:28Z</time></trkpt><trkpt lat="34.0000195" lon="132.8755736"><ele>373.11000000000007</ele><time>2024-12-15T05:36:48Z</time></trkpt><trkpt lat="33.9998895" lon="132.8757288"><ele>372.90333333333336</ele><time>2024-12-15T05:37:54Z</time></trkpt><trkpt lat="33.9997362" lon="132.8758901"><ele>368.52</ele><time>2024-12-15T05:39:15Z</time></trkpt><trkpt lat="33.9995827" lon="132.8760607"><ele>365.58666666666664</ele><time>2024-12-15T05:39:42Z</time></trkpt><trkpt lat="33.99943" lon="132.8762223"><ele>361.65000000000003</ele><time>2024-12-15T05:40:11Z</time></trkpt><trkpt lat="33.9993441" lon="132.8764142"><ele>358.3533333333333</ele><time>2024-12-15T05:40:29Z</time></trkpt><trkpt lat="33.9992146" lon="132.8765929"><ele>355.25666666666666</ele><time>2024-12-15T05:40:46Z</time></trkpt><trkpt lat="33.9990577" lon="132.8767414"><ele>352.4666666666667</ele><time>2024-12-15T05:41:01Z</time></trkpt><trkpt lat="33.9990543" lon="132.8769801"><ele>351.06333333333333</ele><time>2024-12-15T05:41:21Z</time></trkpt><trkpt lat="33.9989824" lon="132.8772131"><ele>350.60666666666674</ele><time>2024-12-15T05:41:39Z</time></trkpt><trkpt lat="33.9988628" lon="132.8774096"><ele>350.1233333333333</ele><time>2024-12-15T05:41:55Z</time></trkpt><trkpt lat="33.9987724" lon="132.8776011"><ele>348.8766666666667</ele><time>2024-12-15T05:42:10Z</time></trkpt><trkpt lat="33.9987626" lon="132.8778391"><ele>347.91333333333336</ele><time>2024-12-15T05:42:24Z</time></trkpt><trkpt lat="33.9986562" lon="132.8780147"><ele>347.57</ele><time>2024-12-15T05:42:41Z</time></trkpt><trkpt lat="33.9986039" lon="132.8782407"><ele>347.69000000000005</ele><time>2024-12-15T05:43:08Z</time></trkpt><trkpt lat="33.9985848" lon="132.8784837"><ele>345.5333333333333</ele><time>2024-12-15T05:43:26Z</time></trkpt><trkpt lat="33.9985513" lon="132.8787142"><ele>343.6666666666667</ele><time>2024-12-15T05:43:43Z</time></trkpt><trkpt lat="33.9984665" lon="132.8789066"><ele>341.11333333333334</ele><time>2024-12-15T05:44:49Z</time></trkpt><trkpt lat="33.9984733" lon="132.8791509"><ele>341.6466666666667</ele><time>2024-12-15T05:45:06Z</time></trkpt><trkpt lat="33.9983939" lon="132.8793827"><ele>341.2066666666667</ele><time>2024-12-15T05:45:23Z</time></trkpt><trkpt lat="33.9983949" lon="132.8796254"><ele>341.20666666666665</ele><time>2024-12-15T05:45:41Z</time></trkpt><trkpt lat="33.9982103" lon="132.8796334"><ele>339.5266666666667</ele><time>2024-12-15T05:46:03Z</time></trkpt><trkpt lat="33.9980121" lon="132.8795761"><ele>339.5266666666667</ele><time>2024-12-15T05:46:20Z</time></trkpt><trkpt lat="33.997835" lon="132.8795084"><ele>342.52</ele><time>2024-12-15T05:46:35Z</time></trkpt><trkpt lat="33.9976795" lon="132.879398"><ele>346.07666666666665</ele><time>2024-12-15T05:46:52Z</time></trkpt><trkpt lat="33.9975395" lon="132.8792395"><ele>348.98333333333335</ele><time>2024-12-15T05:47:09Z</time></trkpt><trkpt lat="33.9974123" lon="132.8790729"><ele>348.90000000000003</ele><time>2024-12-15T05:47:26Z</time></trkpt><trkpt lat="33.9972775" lon="132.8788676"><ele>349.06</ele><time>2024-12-15T05:47:43Z</time></trkpt><trkpt lat="33.997124" lon="132.8787455"><ele>349.32666666666665</ele><time>2024-12-15T05:48:00Z</time></trkpt><trkpt lat="33.9969228" lon="132.8786625"><ele>350.70666666666665</ele><time>2024-12-15T05:48:24Z</time></trkpt><trkpt lat="33.9967112" lon="132.8786255"><ele>353.4433333333333</ele><time>2024-12-15T05:48:41Z</time></trkpt><trkpt lat="33.9965028" lon="132.8785875"><ele>356.12000000000006</ele><time>2024-12-15T05:48:59Z</time></trkpt><trkpt lat="33.9963168" lon="132.8785299"><ele>357.74</ele><time>2024-12-15T05:49:16Z</time></trkpt><trkpt lat="33.9961372" lon="132.878437"><ele>357.6833333333334</ele><time>2024-12-15T05:49:32Z</time></trkpt><trkpt lat="33.9959358" lon="132.8783921"><ele>357.3533333333333</ele><time>2024-12-15T05:49:49Z</time></trkpt><trkpt lat="33.9957376" lon="132.8784058"><ele>354.56666666666666</ele><time>2024-12-15T05:50:06Z</time></trkpt></trkseg></trk></gpx>