<?xml version='1.0' encoding='UTF-8'?><gpx creator="YAMAP - https://yamap.com" xsi:schemaLocation="http://www.topografix.com/GPX/1/1 http://www.topografix.com/GPX/1/1/gpx.xsd" version="1.1" xmlns="http://www.topografix.com/GPX/1/1" xmlns:xsi="http://www.w3.org/2001/XMLSchema-instance"><metadata><bounds maxlat="33.8425475" maxlon="132.8902091" minlat="33.8075995" minlon="132.8700585"/></metadata><trk><name>高森山・岩伽羅山・衣掛山・吉山(吉山城址)</name><number>1</number><trkseg><trkpt lat="33.807925" lon="132.8704929"><ele>152.68</ele><time>2022-01-22T00:04:02Z</time></trkpt><trkpt lat="33.8080945" lon="132.8704089"><ele>153.255</ele><time>2022-01-22T00:04:40Z</time></trkpt><trkpt lat="33.8082437" lon="132.8702684"><ele>153.1966666666667</ele><time>2022-01-22T00:05:11Z</time></trkpt><trkpt lat="33.8081467" lon="132.8700585"><ele>152.95666666666668</ele><time>2022-01-22T00:05:28Z</time></trkpt><trkpt lat="33.8083031" lon="132.8701763"><ele>152.50333333333333</ele><time>2022-01-22T00:05:50Z</time></trkpt><trkpt lat="33.80834" lon="132.8703897"><ele>153.15333333333334</ele><time>2022-01-22T00:06:02Z</time></trkpt><trkpt lat="33.8084553" lon="132.8705636"><ele>154.34</ele><time>2022-01-22T00:06:38Z</time></trkpt><trkpt lat="33.8084535" lon="132.870782"><ele>154.96</ele><time>2022-01-22T00:06:48Z</time></trkpt><trkpt lat="33.8085056" lon="132.8710239"><ele>154.55333333333334</ele><time>2022-01-22T00:07:03Z</time></trkpt><trkpt lat="33.8086496" lon="132.8711619"><ele>155.09</ele><time>2022-01-22T00:07:36Z</time></trkpt><trkpt lat="33.8088175" lon="132.8712436"><ele>156.70000000000002</ele><time>2022-01-22T00:07:49Z</time></trkpt><trkpt lat="33.8089944" lon="132.8712905"><ele>159.79</ele><time>2022-01-22T00:08:02Z</time></trkpt><trkpt lat="33.8091784" lon="132.8712976"><ele>162.43333333333334</ele><time>2022-01-22T00:08:22Z</time></trkpt><trkpt lat="33.8093333" lon="132.8714178"><ele>165.1966666666667</ele><time>2022-01-22T00:08:46Z</time></trkpt><trkpt lat="33.8095222" lon="132.8714"><ele>167.69</ele><time>2022-01-22T00:09:49Z</time></trkpt><trkpt lat="33.8097129" lon="132.8714574"><ele>170.48333333333332</ele><time>2022-01-22T00:09:59Z</time></trkpt><trkpt lat="33.8099062" lon="132.8714705"><ele>172.97333333333336</ele><time>2022-01-22T00:10:11Z</time></trkpt><trkpt lat="33.8100833" lon="132.8715139"><ele>175.89666666666668</ele><time>2022-01-22T00:10:29Z</time></trkpt><trkpt lat="33.8102435" lon="132.8716473"><ele>178.7266666666667</ele><time>2022-01-22T00:10:43Z</time></trkpt><trkpt lat="33.8104048" lon="132.871759"><ele>182.25666666666666</ele><time>2022-01-22T00:10:56Z</time></trkpt><trkpt lat="33.8105681" lon="132.8718724"><ele>185.25</ele><time>2022-01-22T00:11:10Z</time></trkpt><trkpt lat="33.8107545" lon="132.8719024"><ele>188.38333333333333</ele><time>2022-01-22T00:11:26Z</time></trkpt><trkpt lat="33.8109346" lon="132.8719572"><ele>190.96666666666667</ele><time>2022-01-22T00:11:44Z</time></trkpt><trkpt lat="33.8110854" lon="132.8720938"><ele>192.22333333333336</ele><time>2022-01-22T00:12:02Z</time></trkpt><trkpt lat="33.8112675" lon="132.8721169"><ele>194.27</ele><time>2022-01-22T00:12:19Z</time></trkpt><trkpt lat="33.8114566" lon="132.8722"><ele>196.4333333333333</ele><time>2022-01-22T00:12:46Z</time></trkpt><trkpt lat="33.8116271" lon="132.8722902"><ele>199.28</ele><time>2022-01-22T00:12:59Z</time></trkpt><trkpt lat="33.8118124" lon="132.8723221"><ele>200.45666666666668</ele><time>2022-01-22T00:13:16Z</time></trkpt><trkpt lat="33.8119953" lon="132.8723591"><ele>202.15333333333334</ele><time>2022-01-22T00:13:32Z</time></trkpt><trkpt lat="33.8121777" lon="132.8723503"><ele>204.38000000000002</ele><time>2022-01-22T00:13:53Z</time></trkpt><trkpt lat="33.8123611" lon="132.8723695"><ele>207.01</ele><time>2022-01-22T00:14:08Z</time></trkpt><trkpt lat="33.8125436" lon="132.8723699"><ele>209.39333333333335</ele><time>2022-01-22T00:14:21Z</time></trkpt><trkpt lat="33.8127269" lon="132.872409"><ele>211.65666666666667</ele><time>2022-01-22T00:14:36Z</time></trkpt><trkpt lat="33.8129016" lon="132.8725109"><ele>214.41333333333333</ele><time>2022-01-22T00:14:51Z</time></trkpt><trkpt lat="33.8130354" lon="132.8726594"><ele>216.42999999999998</ele><time>2022-01-22T00:15:41Z</time></trkpt><trkpt lat="33.8132066" lon="132.8725763"><ele>218.75666666666666</ele><time>2022-01-22T00:16:19Z</time></trkpt><trkpt lat="33.8133864" lon="132.8724953"><ele>220.29333333333332</ele><time>2022-01-22T00:16:32Z</time></trkpt><trkpt lat="33.8135701" lon="132.8724936"><ele>221.0966666666667</ele><time>2022-01-22T00:16:43Z</time></trkpt><trkpt lat="33.8137416" lon="132.8726114"><ele>221.26666666666668</ele><time>2022-01-22T00:16:54Z</time></trkpt><trkpt lat="33.8139122" lon="132.8727685"><ele>220.09333333333333</ele><time>2022-01-22T00:17:04Z</time></trkpt><trkpt lat="33.8140612" lon="132.8728947"><ele>219.23666666666668</ele><time>2022-01-22T00:17:15Z</time></trkpt><trkpt lat="33.8142164" lon="132.8730152"><ele>218.58666666666667</ele><time>2022-01-22T00:17:28Z</time></trkpt><trkpt lat="33.8143892" lon="132.8729467"><ele>219.17999999999998</ele><time>2022-01-22T00:17:49Z</time></trkpt><trkpt lat="33.8145583" lon="132.8728603"><ele>219.49</ele><time>2022-01-22T00:18:05Z</time></trkpt><trkpt lat="33.8147407" lon="132.8728677"><ele>220.74</ele><time>2022-01-22T00:18:20Z</time></trkpt><trkpt lat="33.8149153" lon="132.8729387"><ele>221.68999999999997</ele><time>2022-01-22T00:18:34Z</time></trkpt><trkpt lat="33.8150529" lon="132.8730837"><ele>225.92333333333332</ele><time>2022-01-22T00:19:04Z</time></trkpt><trkpt lat="33.8152016" lon="132.8732074"><ele>229.77666666666664</ele><time>2022-01-22T00:19:16Z</time></trkpt><trkpt lat="33.8153442" lon="132.8733535"><ele>232.98666666666668</ele><time>2022-01-22T00:19:28Z</time></trkpt><trkpt lat="33.8155013" lon="132.8734615"><ele>236.29666666666665</ele><time>2022-01-22T00:19:39Z</time></trkpt><trkpt lat="33.8156788" lon="132.8735431"><ele>241.08666666666667</ele><time>2022-01-22T00:19:53Z</time></trkpt><trkpt lat="33.815803" lon="132.8733807"><ele>246.28</ele><time>2022-01-22T00:20:24Z</time></trkpt><trkpt lat="33.8159422" lon="132.8732395"><ele>246.47666666666666</ele><time>2022-01-22T00:20:43Z</time></trkpt><trkpt lat="33.8161257" lon="132.8732751"><ele>245.37666666666667</ele><time>2022-01-22T00:21:11Z</time></trkpt><trkpt lat="33.8163028" lon="132.8733342"><ele>248.42</ele><time>2022-01-22T00:21:26Z</time></trkpt><trkpt lat="33.8164711" lon="132.8734141"><ele>258.56</ele><time>2022-01-22T00:21:35Z</time></trkpt><trkpt lat="33.8166531" lon="132.87339"><ele>269.1366666666667</ele><time>2022-01-22T00:21:52Z</time></trkpt><trkpt lat="33.8167772" lon="132.8732253"><ele>274.52333333333337</ele><time>2022-01-22T00:22:11Z</time></trkpt><trkpt lat="33.8169162" lon="132.8730769"><ele>271.44</ele><time>2022-01-22T00:22:27Z</time></trkpt><trkpt lat="33.8170963" lon="132.8730998"><ele>262.81</ele><time>2022-01-22T00:22:46Z</time></trkpt><trkpt lat="33.8171235" lon="132.8733167"><ele>261.51</ele><time>2022-01-22T00:23:03Z</time></trkpt><trkpt lat="33.8169698" lon="132.8734316"><ele>266.38000000000005</ele><time>2022-01-22T00:23:19Z</time></trkpt><trkpt lat="33.8171319" lon="132.8735277"><ele>274.99</ele><time>2022-01-22T00:23:54Z</time></trkpt><trkpt lat="33.8172739" lon="132.873662"><ele>278.9866666666667</ele><time>2022-01-22T00:24:13Z</time></trkpt><trkpt lat="33.8174166" lon="132.8737999"><ele>280.78000000000003</ele><time>2022-01-22T00:24:32Z</time></trkpt><trkpt lat="33.8175898" lon="132.8738668"><ele>283.49666666666667</ele><time>2022-01-22T00:24:47Z</time></trkpt><trkpt lat="33.8177546" lon="132.8737781"><ele>285.5233333333333</ele><time>2022-01-22T00:25:06Z</time></trkpt><trkpt lat="33.8179445" lon="132.8737223"><ele>287.64000000000004</ele><time>2022-01-22T00:25:33Z</time></trkpt><trkpt lat="33.8181255" lon="132.873681"><ele>289.99</ele><time>2022-01-22T00:25:44Z</time></trkpt><trkpt lat="33.8182421" lon="132.8735106"><ele>292.49666666666667</ele><time>2022-01-22T00:26:16Z</time></trkpt><trkpt lat="33.8184057" lon="132.8734164"><ele>294.55</ele><time>2022-01-22T00:26:32Z</time></trkpt><trkpt lat="33.8185905" lon="132.8733875"><ele>296.7833333333333</ele><time>2022-01-22T00:26:44Z</time></trkpt><trkpt lat="33.8187723" lon="132.8733722"><ele>298.8233333333333</ele><time>2022-01-22T00:27:00Z</time></trkpt><trkpt lat="33.8189421" lon="132.8732796"><ele>301.0833333333333</ele><time>2022-01-22T00:27:15Z</time></trkpt><trkpt lat="33.819077" lon="132.8731282"><ele>302.47</ele><time>2022-01-22T00:27:50Z</time></trkpt><trkpt lat="33.8192566" lon="132.8730779"><ele>303.83666666666664</ele><time>2022-01-22T00:28:12Z</time></trkpt><trkpt lat="33.8194387" lon="132.8730322"><ele>305.16</ele><time>2022-01-22T00:28:26Z</time></trkpt><trkpt lat="33.8196258" lon="132.8729994"><ele>305.5733333333333</ele><time>2022-01-22T00:28:44Z</time></trkpt><trkpt lat="33.8198014" lon="132.8729485"><ele>307.3933333333334</ele><time>2022-01-22T00:29:06Z</time></trkpt><trkpt lat="33.8199775" lon="132.8728969"><ele>310.72</ele><time>2022-01-22T00:29:24Z</time></trkpt><trkpt lat="33.8201599" lon="132.8729119"><ele>316.43666666666667</ele><time>2022-01-22T00:30:15Z</time></trkpt><trkpt lat="33.8203359" lon="132.8728498"><ele>321.32666666666665</ele><time>2022-01-22T00:30:36Z</time></trkpt><trkpt lat="33.8205176" lon="132.8728037"><ele>325.6666666666667</ele><time>2022-01-22T00:30:50Z</time></trkpt><trkpt lat="33.8207174" lon="132.8728047"><ele>328.72</ele><time>2022-01-22T00:32:19Z</time></trkpt><trkpt lat="33.8209021" lon="132.8728302"><ele>331.49</ele><time>2022-01-22T00:32:32Z</time></trkpt><trkpt lat="33.8210706" lon="132.8729286"><ele>332.82666666666665</ele><time>2022-01-22T00:32:46Z</time></trkpt><trkpt lat="33.8212591" lon="132.8729135"><ele>334.26000000000005</ele><time>2022-01-22T00:33:02Z</time></trkpt><trkpt lat="33.8214373" lon="132.8729564"><ele>334.34999999999997</ele><time>2022-01-22T00:33:17Z</time></trkpt><trkpt lat="33.8216008" lon="132.873059"><ele>334.49333333333334</ele><time>2022-01-22T00:33:34Z</time></trkpt><trkpt lat="33.821724" lon="132.8729011"><ele>335.58</ele><time>2022-01-22T00:33:52Z</time></trkpt><trkpt lat="33.8218055" lon="132.8727044"><ele>339.24</ele><time>2022-01-22T00:34:10Z</time></trkpt><trkpt lat="33.8219515" lon="132.8725688"><ele>343.74666666666667</ele><time>2022-01-22T00:34:30Z</time></trkpt><trkpt lat="33.8221378" lon="132.872574"><ele>346.99333333333334</ele><time>2022-01-22T00:34:45Z</time></trkpt><trkpt lat="33.8223195" lon="132.872607"><ele>348.24</ele><time>2022-01-22T00:35:03Z</time></trkpt><trkpt lat="33.8224939" lon="132.8726802"><ele>348.1266666666667</ele><time>2022-01-22T00:35:20Z</time></trkpt><trkpt lat="33.8226489" lon="132.8727932"><ele>348.8566666666666</ele><time>2022-01-22T00:35:37Z</time></trkpt><trkpt lat="33.8228172" lon="132.8728886"><ele>351.17</ele><time>2022-01-22T00:35:51Z</time></trkpt><trkpt lat="33.8229971" lon="132.8729062"><ele>355.75333333333333</ele><time>2022-01-22T00:36:09Z</time></trkpt><trkpt lat="33.8231666" lon="132.8728319"><ele>358.50333333333333</ele><time>2022-01-22T00:36:26Z</time></trkpt><trkpt lat="33.8233483" lon="132.8728302"><ele>359.42333333333335</ele><time>2022-01-22T00:37:09Z</time></trkpt><trkpt lat="33.8235245" lon="132.8728865"><ele>360.7033333333334</ele><time>2022-01-22T00:37:40Z</time></trkpt><trkpt lat="33.823699" lon="132.8729476"><ele>365.18</ele><time>2022-01-22T00:38:05Z</time></trkpt><trkpt lat="33.8238944" lon="132.8729622"><ele>372.8333333333333</ele><time>2022-01-22T00:38:21Z</time></trkpt><trkpt lat="33.8240836" lon="132.872955"><ele>380.70666666666665</ele><time>2022-01-22T00:38:34Z</time></trkpt><trkpt lat="33.824264" lon="132.8729393"><ele>386.04</ele><time>2022-01-22T00:39:15Z</time></trkpt><trkpt lat="33.8244534" lon="132.8729135"><ele>390.6366666666667</ele><time>2022-01-22T00:39:26Z</time></trkpt><trkpt lat="33.8246294" lon="132.8729631"><ele>395.73</ele><time>2022-01-22T00:39:52Z</time></trkpt><trkpt lat="33.8248247" lon="132.8729336"><ele>403.07666666666665</ele><time>2022-01-22T00:40:21Z</time></trkpt><trkpt lat="33.8250003" lon="132.8728779"><ele>411.1266666666666</ele><time>2022-01-22T00:40:37Z</time></trkpt><trkpt lat="33.8251609" lon="132.8727625"><ele>418.14000000000004</ele><time>2022-01-22T00:41:03Z</time></trkpt><trkpt lat="33.8252221" lon="132.8725518"><ele>422.90333333333336</ele><time>2022-01-22T00:41:58Z</time></trkpt><trkpt lat="33.8252745" lon="132.8723436"><ele>423.9666666666667</ele><time>2022-01-22T00:42:14Z</time></trkpt><trkpt lat="33.8253553" lon="132.8721464"><ele>423.99</ele><time>2022-01-22T00:42:44Z</time></trkpt><trkpt lat="33.8253049" lon="132.87193"><ele>423.6233333333334</ele><time>2022-01-22T00:42:58Z</time></trkpt><trkpt lat="33.8254891" lon="132.8719547"><ele>422.4666666666667</ele><time>2022-01-22T00:43:32Z</time></trkpt><trkpt lat="33.8255698" lon="132.8721518"><ele>422.1233333333333</ele><time>2022-01-22T00:43:46Z</time></trkpt><trkpt lat="33.8255729" lon="132.8723793"><ele>425.04333333333335</ele><time>2022-01-22T00:44:17Z</time></trkpt><trkpt lat="33.82564" lon="132.87258"><ele>430.66</ele><time>2022-01-22T00:44:50Z</time></trkpt><trkpt lat="33.8257534" lon="132.8727648"><ele>436.69</ele><time>2022-01-22T00:45:16Z</time></trkpt><trkpt lat="33.8258208" lon="132.8729823"><ele>441.8633333333334</ele><time>2022-01-22T00:45:41Z</time></trkpt><trkpt lat="33.8258663" lon="132.8731974"><ele>446.9266666666667</ele><time>2022-01-22T00:46:02Z</time></trkpt><trkpt lat="33.8259564" lon="132.8733864"><ele>451.75</ele><time>2022-01-22T00:46:25Z</time></trkpt><trkpt lat="33.8261024" lon="132.8735157"><ele>455.7166666666667</ele><time>2022-01-22T00:46:53Z</time></trkpt><trkpt lat="33.8262646" lon="132.8736161"><ele>459.77666666666664</ele><time>2022-01-22T00:47:09Z</time></trkpt><trkpt lat="33.8264314" lon="132.8737011"><ele>463.56333333333333</ele><time>2022-01-22T00:47:28Z</time></trkpt><trkpt lat="33.8265159" lon="132.873893"><ele>466.0666666666666</ele><time>2022-01-22T00:48:35Z</time></trkpt><trkpt lat="33.8266284" lon="132.8740685"><ele>467.3333333333333</ele><time>2022-01-22T00:49:10Z</time></trkpt><trkpt lat="33.8267252" lon="132.8742517"><ele>467.67333333333335</ele><time>2022-01-22T00:49:27Z</time></trkpt><trkpt lat="33.8268758" lon="132.8743721"><ele>468.53</ele><time>2022-01-22T00:50:31Z</time></trkpt><trkpt lat="33.8270516" lon="132.8744303"><ele>469.8566666666666</ele><time>2022-01-22T00:50:50Z</time></trkpt><trkpt lat="33.8271906" lon="132.8745682"><ele>470.34999999999997</ele><time>2022-01-22T00:51:05Z</time></trkpt><trkpt lat="33.8273739" lon="132.8745724"><ele>471.12000000000006</ele><time>2022-01-22T00:51:20Z</time></trkpt><trkpt lat="33.827546" lon="132.8744849"><ele>473.35999999999996</ele><time>2022-01-22T00:51:40Z</time></trkpt><trkpt lat="33.8277342" lon="132.8745028"><ele>474.9866666666667</ele><time>2022-01-22T00:51:57Z</time></trkpt><trkpt lat="33.8278944" lon="132.8746213"><ele>474.3500000000001</ele><time>2022-01-22T00:52:08Z</time></trkpt><trkpt lat="33.8280745" lon="132.8746642"><ele>470.6333333333334</ele><time>2022-01-22T00:52:24Z</time></trkpt><trkpt lat="33.8282501" lon="132.8745884"><ele>468.4333333333334</ele><time>2022-01-22T00:52:39Z</time></trkpt><trkpt lat="33.8284083" lon="132.874439"><ele>469.03000000000003</ele><time>2022-01-22T00:52:54Z</time></trkpt><trkpt lat="33.8285696" lon="132.8743342"><ele>471.6033333333333</ele><time>2022-01-22T00:53:08Z</time></trkpt><trkpt lat="33.8287626" lon="132.8743296"><ele>475.08</ele><time>2022-01-22T00:53:23Z</time></trkpt><trkpt lat="33.8288753" lon="132.8745041"><ele>476.59999999999997</ele><time>2022-01-22T00:53:37Z</time></trkpt><trkpt lat="33.8290353" lon="132.8746104"><ele>477.53000000000003</ele><time>2022-01-22T00:53:55Z</time></trkpt><trkpt lat="33.8292066" lon="132.8745284"><ele>479.6366666666666</ele><time>2022-01-22T00:54:42Z</time></trkpt><trkpt lat="33.8293861" lon="132.8744379"><ele>485.6466666666667</ele><time>2022-01-22T00:55:14Z</time></trkpt><trkpt lat="33.8295698" lon="132.8744774"><ele>492.9166666666667</ele><time>2022-01-22T00:55:28Z</time></trkpt><trkpt lat="33.8297333" lon="132.874569"><ele>498.93</ele><time>2022-01-22T00:55:42Z</time></trkpt><trkpt lat="33.829897" lon="132.8746629"><ele>502.22666666666663</ele><time>2022-01-22T00:55:59Z</time></trkpt><trkpt lat="33.8300437" lon="132.8747903"><ele>505.5333333333333</ele><time>2022-01-22T00:56:14Z</time></trkpt><trkpt lat="33.8301895" lon="132.874926"><ele>508.2266666666667</ele><time>2022-01-22T00:56:28Z</time></trkpt><trkpt lat="33.8303508" lon="132.8750403"><ele>511.53000000000003</ele><time>2022-01-22T00:56:57Z</time></trkpt><trkpt lat="33.8305161" lon="132.8751481"><ele>514.9866666666667</ele><time>2022-01-22T00:57:32Z</time></trkpt><trkpt lat="33.8306641" lon="132.8752946"><ele>516.9166666666666</ele><time>2022-01-22T00:57:50Z</time></trkpt><trkpt lat="33.8308457" lon="132.8753758"><ele>517.3733333333333</ele><time>2022-01-22T00:58:09Z</time></trkpt><trkpt lat="33.8310146" lon="132.8752992"><ele>517.4266666666667</ele><time>2022-01-22T00:58:27Z</time></trkpt><trkpt lat="33.8311593" lon="132.8751675"><ele>520.0533333333333</ele><time>2022-01-22T00:58:52Z</time></trkpt><trkpt lat="33.8313206" lon="132.8750598"><ele>524.4766666666666</ele><time>2022-01-22T00:59:06Z</time></trkpt><trkpt lat="33.8314958" lon="132.8750073"><ele>528.11</ele><time>2022-01-22T00:59:26Z</time></trkpt><trkpt lat="33.8316817" lon="132.8750158"><ele>530.06</ele><time>2022-01-22T01:00:05Z</time></trkpt><trkpt lat="33.8318605" lon="132.8749596"><ele>532.2666666666667</ele><time>2022-01-22T01:00:20Z</time></trkpt><trkpt lat="33.8320371" lon="132.8749038"><ele>536.8666666666667</ele><time>2022-01-22T01:00:42Z</time></trkpt><trkpt lat="33.832216" lon="132.8749582"><ele>542.6733333333333</ele><time>2022-01-22T01:01:00Z</time></trkpt><trkpt lat="33.8323861" lon="132.8750506"><ele>547.0066666666667</ele><time>2022-01-22T01:01:19Z</time></trkpt><trkpt lat="33.8324882" lon="132.8752316"><ele>546.1266666666667</ele><time>2022-01-22T01:01:34Z</time></trkpt><trkpt lat="33.8326716" lon="132.8751721"><ele>546.2666666666668</ele><time>2022-01-22T01:07:43Z</time></trkpt><trkpt lat="33.83286" lon="132.8751562"><ele>547.2600000000001</ele><time>2022-01-22T01:07:55Z</time></trkpt><trkpt lat="33.8330426" lon="132.8751917"><ele>550.2766666666668</ele><time>2022-01-22T01:08:04Z</time></trkpt><trkpt lat="33.8332222" lon="132.8752973"><ele>552.4699999999999</ele><time>2022-01-22T01:08:14Z</time></trkpt><trkpt lat="33.8332831" lon="132.8755078"><ele>550.8366666666666</ele><time>2022-01-22T01:08:27Z</time></trkpt><trkpt lat="33.8334379" lon="132.8756198"><ele>547.6133333333333</ele><time>2022-01-22T01:08:43Z</time></trkpt><trkpt lat="33.8336175" lon="132.8755564"><ele>544.88</ele><time>2022-01-22T01:09:00Z</time></trkpt><trkpt lat="33.8338096" lon="132.8755225"><ele>545.3433333333334</ele><time>2022-01-22T01:09:25Z</time></trkpt><trkpt lat="33.8339977" lon="132.875529"><ele>549.5533333333334</ele><time>2022-01-22T01:09:39Z</time></trkpt><trkpt lat="33.834166" lon="132.8756447"><ele>552.6033333333334</ele><time>2022-01-22T01:09:54Z</time></trkpt><trkpt lat="33.8343205" lon="132.8757744"><ele>555.8866666666668</ele><time>2022-01-22T01:10:08Z</time></trkpt><trkpt lat="33.8344406" lon="132.8759601"><ele>555.66</ele><time>2022-01-22T01:10:23Z</time></trkpt><trkpt lat="33.8346162" lon="132.8760178"><ele>555.2666666666668</ele><time>2022-01-22T01:11:21Z</time></trkpt><trkpt lat="33.8347991" lon="132.8760603"><ele>554.37</ele><time>2022-01-22T01:11:34Z</time></trkpt><trkpt lat="33.8349699" lon="132.8761493"><ele>556.7033333333333</ele><time>2022-01-22T01:12:04Z</time></trkpt><trkpt lat="33.8350917" lon="132.8763116"><ele>558.4333333333334</ele><time>2022-01-22T01:12:16Z</time></trkpt><trkpt lat="33.8351536" lon="132.8765198"><ele>560.0066666666667</ele><time>2022-01-22T01:12:28Z</time></trkpt><trkpt lat="33.8352792" lon="132.8766848"><ele>560.1999999999999</ele><time>2022-01-22T01:12:44Z</time></trkpt><trkpt lat="33.8353407" lon="132.8768924"><ele>560.24</ele><time>2022-01-22T01:13:03Z</time></trkpt><trkpt lat="33.8354757" lon="132.8770459"><ele>560.3333333333334</ele><time>2022-01-22T01:13:22Z</time></trkpt><trkpt lat="33.8356594" lon="132.8770563"><ele>560.5166666666668</ele><time>2022-01-22T01:13:48Z</time></trkpt><trkpt lat="33.8358495" lon="132.877067"><ele>560.77</ele><time>2022-01-22T01:14:05Z</time></trkpt><trkpt lat="33.8360309" lon="132.8770457"><ele>561.2399999999999</ele><time>2022-01-22T01:14:23Z</time></trkpt><trkpt lat="33.8362077" lon="132.8770901"><ele>561.3933333333334</ele><time>2022-01-22T01:14:41Z</time></trkpt><trkpt lat="33.8363754" lon="132.877"><ele>561.82</ele><time>2022-01-22T01:14:57Z</time></trkpt><trkpt lat="33.8365573" lon="132.8770015"><ele>562.0666666666667</ele><time>2022-01-22T01:15:13Z</time></trkpt><trkpt lat="33.8366806" lon="132.8771622"><ele>561.5566666666667</ele><time>2022-01-22T01:15:26Z</time></trkpt><trkpt lat="33.8367842" lon="132.8773404"><ele>560.3933333333333</ele><time>2022-01-22T01:16:12Z</time></trkpt><trkpt lat="33.8369593" lon="132.8774504"><ele>560.5300000000001</ele><time>2022-01-22T01:16:35Z</time></trkpt><trkpt lat="33.8371234" lon="132.8775499"><ele>561.76</ele><time>2022-01-22T01:16:51Z</time></trkpt><trkpt lat="33.8373011" lon="132.8776098"><ele>561.7433333333333</ele><time>2022-01-22T01:17:05Z</time></trkpt><trkpt lat="33.8374924" lon="132.8776114"><ele>559.37</ele><time>2022-01-22T01:17:24Z</time></trkpt><trkpt lat="33.8376754" lon="132.8776264"><ele>556.8033333333334</ele><time>2022-01-22T01:17:41Z</time></trkpt><trkpt lat="33.8378488" lon="132.8776873"><ele>558.6</ele><time>2022-01-22T01:17:57Z</time></trkpt><trkpt lat="33.8380181" lon="132.8777759"><ele>562.1866666666666</ele><time>2022-01-22T01:18:12Z</time></trkpt><trkpt lat="33.8381579" lon="132.8779368"><ele>566.11</ele><time>2022-01-22T01:18:30Z</time></trkpt><trkpt lat="33.8381957" lon="132.8781487"><ele>567.85</ele><time>2022-01-22T01:18:48Z</time></trkpt><trkpt lat="33.8381402" lon="132.8783697"><ele>571.8000000000001</ele><time>2022-01-22T01:19:06Z</time></trkpt><trkpt lat="33.8379875" lon="132.878514"><ele>574.46</ele><time>2022-01-22T01:19:31Z</time></trkpt><trkpt lat="33.838132" lon="132.8786487"><ele>579.3433333333334</ele><time>2022-01-22T01:20:18Z</time></trkpt><trkpt lat="33.8382959" lon="132.8785475"><ele>582.2633333333333</ele><time>2022-01-22T01:20:57Z</time></trkpt><trkpt lat="33.8384846" lon="132.8785498"><ele>587.4499999999999</ele><time>2022-01-22T01:21:13Z</time></trkpt><trkpt lat="33.8386595" lon="132.8786121"><ele>590.6133333333333</ele><time>2022-01-22T01:22:19Z</time></trkpt><trkpt lat="33.8388415" lon="132.8786653"><ele>593.57</ele><time>2022-01-22T01:22:31Z</time></trkpt><trkpt lat="33.8390159" lon="132.8787247"><ele>596.56</ele><time>2022-01-22T01:22:42Z</time></trkpt><trkpt lat="33.8391555" lon="132.8788694"><ele>599.35</ele><time>2022-01-22T01:22:57Z</time></trkpt><trkpt lat="33.8392554" lon="132.8790692"><ele>600.9499999999999</ele><time>2022-01-22T01:23:10Z</time></trkpt><trkpt lat="33.8393347" lon="132.8792638"><ele>602.0166666666668</ele><time>2022-01-22T01:23:24Z</time></trkpt><trkpt lat="33.8395077" lon="132.8793357"><ele>606.6866666666666</ele><time>2022-01-22T01:23:48Z</time></trkpt><trkpt lat="33.839689" lon="132.8792943"><ele>612.3166666666667</ele><time>2022-01-22T01:24:11Z</time></trkpt><trkpt lat="33.8398794" lon="132.8793531"><ele>617.8100000000001</ele><time>2022-01-22T01:24:40Z</time></trkpt><trkpt lat="33.8400361" lon="132.8794741"><ele>620.6866666666666</ele><time>2022-01-22T01:25:36Z</time></trkpt><trkpt lat="33.8401656" lon="132.8796267"><ele>624.3533333333334</ele><time>2022-01-22T01:25:47Z</time></trkpt><trkpt lat="33.8403054" lon="132.8797671"><ele>628.8766666666667</ele><time>2022-01-22T01:26:08Z</time></trkpt><trkpt lat="33.8404143" lon="132.8799457"><ele>633.37</ele><time>2022-01-22T01:26:30Z</time></trkpt><trkpt lat="33.8404732" lon="132.8801666"><ele>636.6966666666667</ele><time>2022-01-22T01:26:51Z</time></trkpt><trkpt lat="33.8404974" lon="132.8803951"><ele>641.8966666666666</ele><time>2022-01-22T01:27:12Z</time></trkpt><trkpt lat="33.8405032" lon="132.8806143"><ele>647.6233333333333</ele><time>2022-01-22T01:27:28Z</time></trkpt><trkpt lat="33.8404865" lon="132.8808357"><ele>654.65</ele><time>2022-01-22T01:27:45Z</time></trkpt><trkpt lat="33.8403761" lon="132.881007"><ele>658.3633333333333</ele><time>2022-01-22T01:28:02Z</time></trkpt><trkpt lat="33.8402873" lon="132.8811964"><ele>663.1999999999999</ele><time>2022-01-22T01:29:07Z</time></trkpt><trkpt lat="33.8401394" lon="132.8813325"><ele>666.9866666666667</ele><time>2022-01-22T01:30:05Z</time></trkpt><trkpt lat="33.8400817" lon="132.881547"><ele>671.2099999999999</ele><time>2022-01-22T01:30:26Z</time></trkpt><trkpt lat="33.8402371" lon="132.8816877"><ele>675.0266666666666</ele><time>2022-01-22T01:31:09Z</time></trkpt><trkpt lat="33.8402251" lon="132.8819054"><ele>674.2266666666666</ele><time>2022-01-22T01:31:19Z</time></trkpt><trkpt lat="33.8402094" lon="132.8821249"><ele>670.61</ele><time>2022-01-22T01:31:28Z</time></trkpt><trkpt lat="33.8402456" lon="132.8823387"><ele>663.1533333333333</ele><time>2022-01-22T01:31:38Z</time></trkpt><trkpt lat="33.8403225" lon="132.8825403"><ele>661.9900000000001</ele><time>2022-01-22T01:31:48Z</time></trkpt><trkpt lat="33.8404285" lon="132.8823607"><ele>665.5033333333333</ele><time>2022-01-22T01:33:19Z</time></trkpt><trkpt lat="33.8405338" lon="132.8821848"><ele>673.5666666666667</ele><time>2022-01-22T01:34:24Z</time></trkpt><trkpt lat="33.8405806" lon="132.881971"><ele>682.1333333333333</ele><time>2022-01-22T01:35:43Z</time></trkpt><trkpt lat="33.8406708" lon="132.8817763"><ele>690.64</ele><time>2022-01-22T01:35:55Z</time></trkpt><trkpt lat="33.8407787" lon="132.8816031"><ele>695.6666666666666</ele><time>2022-01-22T01:36:08Z</time></trkpt><trkpt lat="33.840895" lon="132.8814336"><ele>697.6166666666667</ele><time>2022-01-22T01:36:29Z</time></trkpt><trkpt lat="33.8410353" lon="132.8812969"><ele>700.7933333333334</ele><time>2022-01-22T01:37:11Z</time></trkpt><trkpt lat="33.8411794" lon="132.8811625"><ele>707.0</ele><time>2022-01-22T01:38:37Z</time></trkpt><trkpt lat="33.8413349" lon="132.8810383"><ele>713.2466666666668</ele><time>2022-01-22T01:38:51Z</time></trkpt><trkpt lat="33.841511" lon="132.8809805"><ele>712.6999999999999</ele><time>2022-01-22T01:39:04Z</time></trkpt><trkpt lat="33.8416442" lon="132.8811304"><ele>710.3666666666667</ele><time>2022-01-22T01:39:18Z</time></trkpt><trkpt lat="33.8418232" lon="132.8810838"><ele>705.68</ele><time>2022-01-22T01:40:49Z</time></trkpt><trkpt lat="33.8420094" lon="132.8811214"><ele>705.3866666666667</ele><time>2022-01-22T01:41:39Z</time></trkpt><trkpt lat="33.8421954" lon="132.881171"><ele>705.2633333333333</ele><time>2022-01-22T01:41:50Z</time></trkpt><trkpt lat="33.8423701" lon="132.8812274"><ele>710.59</ele><time>2022-01-22T01:42:02Z</time></trkpt><trkpt lat="33.8425475" lon="132.8812713"><ele>716.4966666666666</ele><time>2022-01-22T01:42:43Z</time></trkpt><trkpt lat="33.8423734" lon="132.8811963"><ele>719.2533333333334</ele><time>2022-01-22T01:49:55Z</time></trkpt><trkpt lat="33.8421973" lon="132.8811401"><ele>716.4966666666666</ele><time>2022-01-22T01:50:35Z</time></trkpt><trkpt lat="33.8420203" lon="132.8811827"><ele>710.59</ele><time>2022-01-22T01:53:56Z</time></trkpt><trkpt lat="33.8418441" lon="132.8812433"><ele>706.77</ele><time>2022-01-22T01:54:30Z</time></trkpt><trkpt lat="33.841658" lon="132.8812428"><ele>707.3533333333335</ele><time>2022-01-22T01:54:54Z</time></trkpt><trkpt lat="33.8414873" lon="132.8811589"><ele>711.0466666666666</ele><time>2022-01-22T01:55:45Z</time></trkpt><trkpt lat="33.841303" lon="132.8811819"><ele>715.4933333333333</ele><time>2022-01-22T01:58:04Z</time></trkpt><trkpt lat="33.8411182" lon="132.8811867"><ele>716.3133333333334</ele><time>2022-01-22T01:58:25Z</time></trkpt><trkpt lat="33.8410008" lon="132.8813626"><ele>713.3733333333333</ele><time>2022-01-22T01:58:45Z</time></trkpt><trkpt lat="33.8408635" lon="132.8815212"><ele>706.5266666666666</ele><time>2022-01-22T01:58:58Z</time></trkpt><trkpt lat="33.8407371" lon="132.8816777"><ele>701.3633333333333</ele><time>2022-01-22T01:59:24Z</time></trkpt><trkpt lat="33.8408057" lon="132.8818848"><ele>699.4633333333333</ele><time>2022-01-22T01:59:46Z</time></trkpt><trkpt lat="33.8408134" lon="132.8821008"><ele>699.5033333333334</ele><time>2022-01-22T02:00:18Z</time></trkpt><trkpt lat="33.8407888" lon="132.8823152"><ele>697.5666666666666</ele><time>2022-01-22T02:00:57Z</time></trkpt><trkpt lat="33.8408292" lon="132.8825311"><ele>693.0066666666667</ele><time>2022-01-22T02:01:15Z</time></trkpt><trkpt lat="33.840736" lon="132.8827162"><ele>686.0733333333334</ele><time>2022-01-22T02:01:36Z</time></trkpt><trkpt lat="33.8405541" lon="132.8827214"><ele>678.9200000000001</ele><time>2022-01-22T02:02:18Z</time></trkpt><trkpt lat="33.840372" lon="132.8827079"><ele>672.7566666666667</ele><time>2022-01-22T02:02:45Z</time></trkpt><trkpt lat="33.8401961" lon="132.882654"><ele>669.9666666666667</ele><time>2022-01-22T02:02:58Z</time></trkpt><trkpt lat="33.8400171" lon="132.8826959"><ele>667.52</ele><time>2022-01-22T02:03:11Z</time></trkpt><trkpt lat="33.8398656" lon="132.8828255"><ele>666.5400000000001</ele><time>2022-01-22T02:03:27Z</time></trkpt><trkpt lat="33.8397549" lon="132.8829991"><ele>665.96</ele><time>2022-01-22T02:03:40Z</time></trkpt><trkpt lat="33.8396004" lon="132.8831125"><ele>668.0966666666667</ele><time>2022-01-22T02:03:57Z</time></trkpt><trkpt lat="33.8394186" lon="132.8831045"><ele>670.1433333333334</ele><time>2022-01-22T02:04:51Z</time></trkpt><trkpt lat="33.8392483" lon="132.8831778"><ele>672.76</ele><time>2022-01-22T02:05:21Z</time></trkpt><trkpt lat="33.8390747" lon="132.8832519"><ele>676.2766666666666</ele><time>2022-01-22T02:05:42Z</time></trkpt><trkpt lat="33.8389012" lon="132.8833155"><ele>679.7333333333335</ele><time>2022-01-22T02:06:01Z</time></trkpt><trkpt lat="33.8387587" lon="132.8834508"><ele>684.8000000000001</ele><time>2022-01-22T02:06:45Z</time></trkpt><trkpt lat="33.8385727" lon="132.8834663"><ele>688.39</ele><time>2022-01-22T02:07:00Z</time></trkpt><trkpt lat="33.8384086" lon="132.8835633"><ele>691.4200000000001</ele><time>2022-01-22T02:07:24Z</time></trkpt><trkpt lat="33.8382632" lon="132.8837053"><ele>690.6566666666668</ele><time>2022-01-22T02:28:33Z</time></trkpt><trkpt lat="33.8381151" lon="132.8838645"><ele>686.6899999999999</ele><time>2022-01-22T02:28:42Z</time></trkpt><trkpt lat="33.8380217" lon="132.8840617"><ele>679.9566666666666</ele><time>2022-01-22T02:32:09Z</time></trkpt><trkpt lat="33.83789" lon="132.8842371"><ele>670.2766666666668</ele><time>2022-01-22T02:32:31Z</time></trkpt><trkpt lat="33.8377683" lon="132.8844189"><ele>660.5033333333334</ele><time>2022-01-22T02:32:58Z</time></trkpt><trkpt lat="33.8376066" lon="132.8845196"><ele>650.4666666666667</ele><time>2022-01-22T02:34:46Z</time></trkpt><trkpt lat="33.8373711" lon="132.8848572"><ele>641.0633333333334</ele><time>2022-01-22T02:35:28Z</time></trkpt><trkpt lat="33.8372941" lon="132.8850569"><ele>633.25</ele><time>2022-01-22T02:36:24Z</time></trkpt><trkpt lat="33.8372317" lon="132.8852642"><ele>626.3266666666667</ele><time>2022-01-22T02:37:01Z</time></trkpt><trkpt lat="33.8371273" lon="132.8854685"><ele>622.5100000000001</ele><time>2022-01-22T02:37:12Z</time></trkpt><trkpt lat="33.8370396" lon="132.8856631"><ele>625.41</ele><time>2022-01-22T02:37:23Z</time></trkpt><trkpt lat="33.8369449" lon="132.8858473"><ele>629.3933333333333</ele><time>2022-01-22T02:37:33Z</time></trkpt><trkpt lat="33.8368013" lon="132.8859842"><ele>631.4733333333334</ele><time>2022-01-22T02:37:46Z</time></trkpt><trkpt lat="33.8366576" lon="132.8861178"><ele>626.1466666666666</ele><time>2022-01-22T02:38:00Z</time></trkpt><trkpt lat="33.8365" lon="132.8860017"><ele>621.0633333333334</ele><time>2022-01-22T02:38:15Z</time></trkpt><trkpt lat="33.8363196" lon="132.8859883"><ele>616.3466666666667</ele><time>2022-01-22T02:38:39Z</time></trkpt><trkpt lat="33.8362464" lon="132.8861927"><ele>610.75</ele><time>2022-01-22T02:39:25Z</time></trkpt><trkpt lat="33.8360646" lon="132.8861692"><ele>604.6233333333333</ele><time>2022-01-22T02:40:05Z</time></trkpt><trkpt lat="33.8358843" lon="132.886227"><ele>597.8933333333333</ele><time>2022-01-22T02:40:15Z</time></trkpt><trkpt lat="33.8357832" lon="132.8860353"><ele>594.9466666666666</ele><time>2022-01-22T02:40:29Z</time></trkpt><trkpt lat="33.835603" lon="132.8860064"><ele>590.3933333333333</ele><time>2022-01-22T02:40:47Z</time></trkpt><trkpt lat="33.8354234" lon="132.8860568"><ele>586.4633333333333</ele><time>2022-01-22T02:40:58Z</time></trkpt><trkpt lat="33.8352761" lon="132.8861938"><ele>580.9900000000001</ele><time>2022-01-22T02:41:14Z</time></trkpt><trkpt lat="33.8351579" lon="132.8863719"><ele>577.7133333333334</ele><time>2022-01-22T02:41:35Z</time></trkpt><trkpt lat="33.8349752" lon="132.886398"><ele>575.32</ele><time>2022-01-22T02:41:49Z</time></trkpt><trkpt lat="33.8347968" lon="132.8864546"><ele>573.5833333333334</ele><time>2022-01-22T02:42:15Z</time></trkpt><trkpt lat="33.8346217" lon="132.8865932"><ele>571.0766666666667</ele><time>2022-01-22T02:42:34Z</time></trkpt><trkpt lat="33.8344434" lon="132.8867056"><ele>568.5533333333333</ele><time>2022-01-22T02:42:44Z</time></trkpt><trkpt lat="33.8342632" lon="132.8867374"><ele>565.35</ele><time>2022-01-22T02:43:20Z</time></trkpt><trkpt lat="33.8342452" lon="132.8869557"><ele>562.6033333333334</ele><time>2022-01-22T02:43:37Z</time></trkpt><trkpt lat="33.8340644" lon="132.8870621"><ele>559.6366666666667</ele><time>2022-01-22T02:43:50Z</time></trkpt><trkpt lat="33.8339063" lon="132.8871749"><ele>556.1466666666666</ele><time>2022-01-22T02:44:03Z</time></trkpt><trkpt lat="33.8337427" lon="132.8872661"><ele>552.2666666666668</ele><time>2022-01-22T02:44:39Z</time></trkpt><trkpt lat="33.8333895" lon="132.8872599"><ele>547.6833333333334</ele><time>2022-01-22T02:45:04Z</time></trkpt><trkpt lat="33.8332612" lon="132.8874179"><ele>547.17</ele><time>2022-01-22T02:46:03Z</time></trkpt><trkpt lat="33.8330789" lon="132.8874677"><ele>547.9666666666667</ele><time>2022-01-22T02:46:14Z</time></trkpt><trkpt lat="33.8329054" lon="132.8875499"><ele>549.0266666666666</ele><time>2022-01-22T02:46:26Z</time></trkpt><trkpt lat="33.8327186" lon="132.8875522"><ele>546.65</ele><time>2022-01-22T02:46:39Z</time></trkpt><trkpt lat="33.8325724" lon="132.8874182"><ele>542.15</ele><time>2022-01-22T02:46:49Z</time></trkpt><trkpt lat="33.832409" lon="132.8875104"><ele>538.33</ele><time>2022-01-22T02:48:11Z</time></trkpt><trkpt lat="33.8322863" lon="132.8876709"><ele>535.5666666666667</ele><time>2022-01-22T02:48:59Z</time></trkpt><trkpt lat="33.8321473" lon="132.8878158"><ele>533.5933333333334</ele><time>2022-01-22T02:49:08Z</time></trkpt><trkpt lat="33.8320754" lon="132.8880251"><ele>531.2733333333334</ele><time>2022-01-22T02:49:48Z</time></trkpt><trkpt lat="33.8319936" lon="132.8882326"><ele>527.3133333333334</ele><time>2022-01-22T02:50:00Z</time></trkpt><trkpt lat="33.8318647" lon="132.888395"><ele>523.7733333333334</ele><time>2022-01-22T02:50:16Z</time></trkpt><trkpt lat="33.8317588" lon="132.8885795"><ele>520.5600000000001</ele><time>2022-01-22T02:50:31Z</time></trkpt><trkpt lat="33.8316737" lon="132.8887776"><ele>518.0333333333333</ele><time>2022-01-22T02:50:47Z</time></trkpt><trkpt lat="33.8314925" lon="132.8888138"><ele>517.8433333333332</ele><time>2022-01-22T02:51:12Z</time></trkpt><trkpt lat="33.8313136" lon="132.8888635"><ele>517.7633333333333</ele><time>2022-01-22T02:51:32Z</time></trkpt><trkpt lat="33.8311956" lon="132.8890303"><ele>517.1666666666666</ele><time>2022-01-22T02:51:45Z</time></trkpt><trkpt lat="33.8311104" lon="132.8892272"><ele>514.6433333333334</ele><time>2022-01-22T02:52:08Z</time></trkpt><trkpt lat="33.8310077" lon="132.8894166"><ele>512.9</ele><time>2022-01-22T02:52:20Z</time></trkpt><trkpt lat="33.8309056" lon="132.8895952"><ele>514.08</ele><time>2022-01-22T02:52:33Z</time></trkpt><trkpt lat="33.8307602" lon="132.8897292"><ele>516.8966666666666</ele><time>2022-01-22T02:52:46Z</time></trkpt><trkpt lat="33.8306632" lon="132.8899122"><ele>518.7833333333333</ele><time>2022-01-22T02:53:04Z</time></trkpt><trkpt lat="33.8304982" lon="132.8900331"><ele>520.0266666666666</ele><time>2022-01-22T02:53:57Z</time></trkpt><trkpt lat="33.8303331" lon="132.8901501"><ele>522.9866666666667</ele><time>2022-01-22T02:54:12Z</time></trkpt><trkpt lat="33.830156" lon="132.8902091"><ele>527.5533333333333</ele><time>2022-01-22T02:55:02Z</time></trkpt><trkpt lat="33.8300049" lon="132.8900827"><ele>528.93</ele><time>2022-01-22T02:57:02Z</time></trkpt><trkpt lat="33.8298574" lon="132.8899439"><ele>523.9633333333333</ele><time>2022-01-22T02:57:13Z</time></trkpt><trkpt lat="33.8297273" lon="132.8897888"><ele>513.8133333333334</ele><time>2022-01-22T02:57:40Z</time></trkpt><trkpt lat="33.8295806" lon="132.8896581"><ele>503.26000000000005</ele><time>2022-01-22T02:58:26Z</time></trkpt><trkpt lat="33.8294436" lon="132.8895098"><ele>494.6266666666667</ele><time>2022-01-22T02:59:07Z</time></trkpt><trkpt lat="33.8293202" lon="132.8893475"><ele>488.40000000000003</ele><time>2022-01-22T02:59:35Z</time></trkpt><trkpt lat="33.8291735" lon="132.8892215"><ele>484.77666666666664</ele><time>2022-01-22T02:59:59Z</time></trkpt><trkpt lat="33.8290207" lon="132.8891041"><ele>482.4666666666667</ele><time>2022-01-22T03:00:31Z</time></trkpt><trkpt lat="33.828884" lon="132.8889442"><ele>480.58666666666676</ele><time>2022-01-22T03:00:45Z</time></trkpt><trkpt lat="33.8288052" lon="132.8887494"><ele>477.7366666666667</ele><time>2022-01-22T03:01:22Z</time></trkpt><trkpt lat="33.8286925" lon="132.8885759"><ele>473.8033333333333</ele><time>2022-01-22T03:04:22Z</time></trkpt><trkpt lat="33.8285657" lon="132.888417"><ele>468.84</ele><time>2022-01-22T03:05:00Z</time></trkpt><trkpt lat="33.8283698" lon="132.8883167"><ele>463.2233333333333</ele><time>2022-01-22T03:05:35Z</time></trkpt><trkpt lat="33.8282528" lon="132.8881491"><ele>455.91333333333336</ele><time>2022-01-22T03:05:49Z</time></trkpt><trkpt lat="33.8281485" lon="132.8879704"><ele>449.3433333333333</ele><time>2022-01-22T03:06:05Z</time></trkpt><trkpt lat="33.8279861" lon="132.8878697"><ele>444.1133333333334</ele><time>2022-01-22T03:06:19Z</time></trkpt><trkpt lat="33.8278028" lon="132.8878279"><ele>442.1966666666667</ele><time>2022-01-22T03:06:39Z</time></trkpt><trkpt lat="33.8276484" lon="132.8877038"><ele>442.4533333333334</ele><time>2022-01-22T03:06:55Z</time></trkpt><trkpt lat="33.8274818" lon="132.8876061"><ele>446.67333333333335</ele><time>2022-01-22T03:07:15Z</time></trkpt><trkpt lat="33.8273031" lon="132.8875578"><ele>450.6066666666666</ele><time>2022-01-22T03:07:33Z</time></trkpt><trkpt lat="33.8271241" lon="132.8875849"><ele>451.67</ele><time>2022-01-22T03:07:59Z</time></trkpt><trkpt lat="33.8270501" lon="132.8873834"><ele>450.55</ele><time>2022-01-22T03:08:11Z</time></trkpt><trkpt lat="33.8270196" lon="132.8871616"><ele>449.0833333333333</ele><time>2022-01-22T03:08:23Z</time></trkpt><trkpt lat="33.8272001" lon="132.8871996"><ele>452.18333333333334</ele><time>2022-01-22T03:10:00Z</time></trkpt><trkpt lat="33.827381" lon="132.8872335"><ele>454.5833333333333</ele><time>2022-01-22T03:10:19Z</time></trkpt><trkpt lat="33.827198" lon="132.8872698"><ele>456.4633333333333</ele><time>2022-01-22T03:18:18Z</time></trkpt><trkpt lat="33.8270718" lon="132.8871148"><ele>454.5833333333333</ele><time>2022-01-22T03:19:29Z</time></trkpt><trkpt lat="33.82697" lon="132.8869275"><ele>447.1433333333334</ele><time>2022-01-22T03:19:39Z</time></trkpt><trkpt lat="33.8267893" lon="132.8868794"><ele>439.6466666666667</ele><time>2022-01-22T03:19:44Z</time></trkpt><trkpt lat="33.8264254" lon="132.8869268"><ele>434.2</ele><time>2022-01-22T03:20:14Z</time></trkpt><trkpt lat="33.8262453" lon="132.8868935"><ele>433.11999999999995</ele><time>2022-01-22T03:20:29Z</time></trkpt><trkpt lat="33.8260596" lon="132.8868793"><ele>431.3566666666666</ele><time>2022-01-22T03:20:45Z</time></trkpt><trkpt lat="33.8259461" lon="132.8867024"><ele>426.37999999999994</ele><time>2022-01-22T03:21:08Z</time></trkpt><trkpt lat="33.82599" lon="132.8864854"><ele>418.24333333333334</ele><time>2022-01-22T03:21:44Z</time></trkpt><trkpt lat="33.8259516" lon="132.8862718"><ele>409.7033333333334</ele><time>2022-01-22T03:21:57Z</time></trkpt><trkpt lat="33.8259203" lon="132.8860511"><ele>399.5466666666666</ele><time>2022-01-22T03:22:09Z</time></trkpt><trkpt lat="33.8258416" lon="132.8858546"><ele>390.8433333333333</ele><time>2022-01-22T03:22:22Z</time></trkpt><trkpt lat="33.8256774" lon="132.8857378"><ele>384.6033333333333</ele><time>2022-01-22T03:22:36Z</time></trkpt><trkpt lat="33.8255336" lon="132.885599"><ele>382.2866666666667</ele><time>2022-01-22T03:23:11Z</time></trkpt><trkpt lat="33.8253441" lon="132.8855908"><ele>380.84</ele><time>2022-01-22T03:23:26Z</time></trkpt><trkpt lat="33.825161" lon="132.8855938"><ele>377.12000000000006</ele><time>2022-01-22T03:23:45Z</time></trkpt><trkpt lat="33.8249943" lon="132.8855113"><ele>371.4066666666667</ele><time>2022-01-22T03:24:00Z</time></trkpt><trkpt lat="33.8248082" lon="132.8855235"><ele>366.74666666666667</ele><time>2022-01-22T03:24:14Z</time></trkpt><trkpt lat="33.8246339" lon="132.8854655"><ele>363.1133333333333</ele><time>2022-01-22T03:24:24Z</time></trkpt><trkpt lat="33.8244562" lon="132.8853996"><ele>362.43</ele><time>2022-01-22T03:24:37Z</time></trkpt><trkpt lat="33.824347" lon="132.8852245"><ele>360.68</ele><time>2022-01-22T03:24:54Z</time></trkpt><trkpt lat="33.8243787" lon="132.8850116"><ele>354.74666666666667</ele><time>2022-01-22T03:25:25Z</time></trkpt><trkpt lat="33.8245638" lon="132.8850091"><ele>347.2366666666667</ele><time>2022-01-22T03:25:37Z</time></trkpt><trkpt lat="33.8245206" lon="132.8847952"><ele>338.0733333333333</ele><time>2022-01-22T03:26:14Z</time></trkpt><trkpt lat="33.8246818" lon="132.884694"><ele>328.9433333333333</ele><time>2022-01-22T03:26:30Z</time></trkpt><trkpt lat="33.8245694" lon="132.8845145"><ele>320.6033333333333</ele><time>2022-01-22T03:26:46Z</time></trkpt><trkpt lat="33.8247355" lon="132.8844245"><ele>312.5566666666667</ele><time>2022-01-22T03:27:08Z</time></trkpt><trkpt lat="33.8248148" lon="132.884622"><ele>310.43333333333334</ele><time>2022-01-22T03:27:19Z</time></trkpt><trkpt lat="33.824984" lon="132.8846983"><ele>308.41</ele><time>2022-01-22T03:27:36Z</time></trkpt><trkpt lat="33.8250593" lon="132.884488"><ele>305.79333333333335</ele><time>2022-01-22T03:27:47Z</time></trkpt><trkpt lat="33.8251969" lon="132.884342"><ele>301.0833333333333</ele><time>2022-01-22T03:28:03Z</time></trkpt><trkpt lat="33.8253249" lon="132.884184"><ele>295.6566666666667</ele><time>2022-01-22T03:28:23Z</time></trkpt><trkpt lat="33.8254917" lon="132.8840826"><ele>292.69666666666666</ele><time>2022-01-22T03:28:49Z</time></trkpt><trkpt lat="33.8256841" lon="132.8840905"><ele>291.51</ele><time>2022-01-22T03:29:02Z</time></trkpt><trkpt lat="33.8258566" lon="132.884025"><ele>291.8966666666667</ele><time>2022-01-22T03:29:15Z</time></trkpt><trkpt lat="33.8260287" lon="132.8839517"><ele>291.09999999999997</ele><time>2022-01-22T03:29:28Z</time></trkpt><trkpt lat="33.8261867" lon="132.8838197"><ele>285.68</ele><time>2022-01-22T03:29:42Z</time></trkpt><trkpt lat="33.826351" lon="132.8837219"><ele>277.7733333333333</ele><time>2022-01-22T03:30:40Z</time></trkpt><trkpt lat="33.8265201" lon="132.8836237"><ele>268.3033333333333</ele><time>2022-01-22T03:30:54Z</time></trkpt><trkpt lat="33.8267006" lon="132.8835883"><ele>261.78666666666663</ele><time>2022-01-22T03:31:08Z</time></trkpt><trkpt lat="33.8268753" lon="132.8835346"><ele>256.56</ele><time>2022-01-22T03:31:51Z</time></trkpt><trkpt lat="33.8269968" lon="132.883374"><ele>255.26</ele><time>2022-01-22T03:32:19Z</time></trkpt><trkpt lat="33.8268509" lon="132.8832355"><ele>253.48000000000002</ele><time>2022-01-22T03:33:28Z</time></trkpt><trkpt lat="33.8266615" lon="132.8832413"><ele>251.81333333333336</ele><time>2022-01-22T03:33:53Z</time></trkpt><trkpt lat="33.8264836" lon="132.8832826"><ele>248.87333333333333</ele><time>2022-01-22T03:34:09Z</time></trkpt><trkpt lat="33.8263298" lon="132.8831631"><ele>246.95000000000002</ele><time>2022-01-22T03:34:26Z</time></trkpt><trkpt lat="33.8261527" lon="132.8830772"><ele>244.81333333333336</ele><time>2022-01-22T03:34:40Z</time></trkpt><trkpt lat="33.8259668" lon="132.8830647"><ele>243.08</ele><time>2022-01-22T03:34:53Z</time></trkpt><trkpt lat="33.8257846" lon="132.8830917"><ele>240.7266666666667</ele><time>2022-01-22T03:35:12Z</time></trkpt><trkpt lat="33.8256677" lon="132.8829213"><ele>239.51</ele><time>2022-01-22T03:35:23Z</time></trkpt><trkpt lat="33.825504" lon="132.8828099"><ele>240.5666666666667</ele><time>2022-01-22T03:35:37Z</time></trkpt><trkpt lat="33.8253289" lon="132.8828815"><ele>240.42333333333332</ele><time>2022-01-22T03:35:51Z</time></trkpt><trkpt lat="33.8251444" lon="132.8828374"><ele>239.81333333333336</ele><time>2022-01-22T03:36:09Z</time></trkpt><trkpt lat="33.8249571" lon="132.8828298"><ele>237.42999999999998</ele><time>2022-01-22T03:36:26Z</time></trkpt><trkpt lat="33.8247802" lon="132.8827588"><ele>238.01999999999998</ele><time>2022-01-22T03:36:43Z</time></trkpt><trkpt lat="33.8246073" lon="132.8826842"><ele>239.51666666666665</ele><time>2022-01-22T03:36:57Z</time></trkpt><trkpt lat="33.8244261" lon="132.8826729"><ele>239.4466666666667</ele><time>2022-01-22T03:37:13Z</time></trkpt><trkpt lat="33.8242445" lon="132.882637"><ele>237.96333333333334</ele><time>2022-01-22T03:37:28Z</time></trkpt><trkpt lat="33.8240623" lon="132.8826279"><ele>232.72333333333336</ele><time>2022-01-22T03:37:45Z</time></trkpt><trkpt lat="33.8238742" lon="132.8826559"><ele>227.36</ele><time>2022-01-22T03:38:06Z</time></trkpt><trkpt lat="33.8237175" lon="132.8827689"><ele>222.32666666666668</ele><time>2022-01-22T03:38:24Z</time></trkpt><trkpt lat="33.8235989" lon="132.8829321"><ele>221.45666666666668</ele><time>2022-01-22T03:38:40Z</time></trkpt><trkpt lat="33.8234365" lon="132.8830569"><ele>221.10333333333332</ele><time>2022-01-22T03:38:56Z</time></trkpt><trkpt lat="33.8232884" lon="132.8831896"><ele>221.25333333333333</ele><time>2022-01-22T03:39:10Z</time></trkpt><trkpt lat="33.8231208" lon="132.8832972"><ele>219.78666666666666</ele><time>2022-01-22T03:39:26Z</time></trkpt><trkpt lat="33.8229673" lon="132.8834183"><ele>219.98333333333335</ele><time>2022-01-22T03:39:39Z</time></trkpt><trkpt lat="33.8228826" lon="132.8836107"><ele>220.79333333333332</ele><time>2022-01-22T03:39:55Z</time></trkpt><trkpt lat="33.8228396" lon="132.8838251"><ele>222.36999999999998</ele><time>2022-01-22T03:40:16Z</time></trkpt><trkpt lat="33.8226893" lon="132.8839549"><ele>221.0233333333333</ele><time>2022-01-22T03:40:31Z</time></trkpt><trkpt lat="33.8225188" lon="132.884049"><ele>217.59666666666666</ele><time>2022-01-22T03:40:44Z</time></trkpt><trkpt lat="33.8223496" lon="132.8841299"><ele>213.67</ele><time>2022-01-22T03:40:56Z</time></trkpt><trkpt lat="33.8221848" lon="132.8842359"><ele>211.7733333333333</ele><time>2022-01-22T03:41:10Z</time></trkpt><trkpt lat="33.8220305" lon="132.8843569"><ele>210.40666666666667</ele><time>2022-01-22T03:41:26Z</time></trkpt><trkpt lat="33.8218847" lon="132.8844901"><ele>209.14000000000001</ele><time>2022-01-22T03:41:42Z</time></trkpt><trkpt lat="33.8217024" lon="132.8844952"><ele>207.65333333333334</ele><time>2022-01-22T03:41:57Z</time></trkpt><trkpt lat="33.8215248" lon="132.8845351"><ele>206.60333333333335</ele><time>2022-01-22T03:42:10Z</time></trkpt><trkpt lat="33.8213719" lon="132.8846662"><ele>205.60666666666668</ele><time>2022-01-22T03:42:26Z</time></trkpt><trkpt lat="33.8212916" lon="132.8848641"><ele>204.63</ele><time>2022-01-22T03:42:39Z</time></trkpt><trkpt lat="33.8211622" lon="132.8850262"><ele>206.67</ele><time>2022-01-22T03:42:53Z</time></trkpt><trkpt lat="33.8209843" lon="132.8850655"><ele>207.21333333333334</ele><time>2022-01-22T03:43:07Z</time></trkpt><trkpt lat="33.8208035" lon="132.8850927"><ele>206.53333333333333</ele><time>2022-01-22T03:43:22Z</time></trkpt><trkpt lat="33.8206232" lon="132.8851301"><ele>202.15666666666667</ele><time>2022-01-22T03:43:36Z</time></trkpt><trkpt lat="33.8204758" lon="132.8852555"><ele>199.46333333333337</ele><time>2022-01-22T03:43:52Z</time></trkpt><trkpt lat="33.8203209" lon="132.8853942"><ele>198.83666666666667</ele><time>2022-01-22T03:44:58Z</time></trkpt><trkpt lat="33.8201403" lon="132.8854496"><ele>197.9766666666667</ele><time>2022-01-22T03:45:13Z</time></trkpt><trkpt lat="33.8199963" lon="132.8855843"><ele>196.71666666666667</ele><time>2022-01-22T03:45:29Z</time></trkpt><trkpt lat="33.8198517" lon="132.8857158"><ele>194.87</ele><time>2022-01-22T03:45:43Z</time></trkpt><trkpt lat="33.8196898" lon="132.8858316"><ele>194.40666666666667</ele><time>2022-01-22T03:46:00Z</time></trkpt><trkpt lat="33.8195083" lon="132.8859014"><ele>193.23666666666668</ele><time>2022-01-22T03:46:14Z</time></trkpt><trkpt lat="33.8193426" lon="132.8859955"><ele>193.21666666666667</ele><time>2022-01-22T03:46:28Z</time></trkpt><trkpt lat="33.8191783" lon="132.8861046"><ele>193.1</ele><time>2022-01-22T03:46:45Z</time></trkpt><trkpt lat="33.8190178" lon="132.886216"><ele>193.49333333333334</ele><time>2022-01-22T03:47:12Z</time></trkpt><trkpt lat="33.8188479" lon="132.8863158"><ele>192.6866666666667</ele><time>2022-01-22T03:47:36Z</time></trkpt><trkpt lat="33.8187841" lon="132.8865305"><ele>193.17999999999998</ele><time>2022-01-22T03:48:56Z</time></trkpt><trkpt lat="33.8186431" lon="132.8866711"><ele>192.42999999999998</ele><time>2022-01-22T03:49:11Z</time></trkpt><trkpt lat="33.8184613" lon="132.8866682"><ele>191.12333333333333</ele><time>2022-01-22T03:49:35Z</time></trkpt><trkpt lat="33.8183479" lon="132.8864928"><ele>187.66</ele><time>2022-01-22T03:49:49Z</time></trkpt><trkpt lat="33.8183186" lon="132.8862657"><ele>186.8166666666667</ele><time>2022-01-22T03:50:08Z</time></trkpt><trkpt lat="33.8181988" lon="132.8864342"><ele>186.1</ele><time>2022-01-22T03:50:42Z</time></trkpt><trkpt lat="33.8180584" lon="132.8865705"><ele>185.9466666666667</ele><time>2022-01-22T03:50:58Z</time></trkpt><trkpt lat="33.8179313" lon="132.8867287"><ele>184.87333333333333</ele><time>2022-01-22T03:51:18Z</time></trkpt><trkpt lat="33.8177588" lon="132.8867952"><ele>184.42333333333332</ele><time>2022-01-22T03:51:50Z</time></trkpt><trkpt lat="33.8175778" lon="132.8868423"><ele>183.61333333333334</ele><time>2022-01-22T03:52:04Z</time></trkpt><trkpt lat="33.8173854" lon="132.8869103"><ele>182.85333333333332</ele><time>2022-01-22T03:52:18Z</time></trkpt><trkpt lat="33.8171992" lon="132.8869666"><ele>182.85</ele><time>2022-01-22T03:54:43Z</time></trkpt><trkpt lat="33.8170148" lon="132.8869984"><ele>183.6766666666667</ele><time>2022-01-22T03:54:57Z</time></trkpt><trkpt lat="33.816841" lon="132.8869336"><ele>183.82333333333335</ele><time>2022-01-22T03:55:11Z</time></trkpt><trkpt lat="33.8166657" lon="132.8868709"><ele>183.78333333333333</ele><time>2022-01-22T03:55:26Z</time></trkpt><trkpt lat="33.8164795" lon="132.8868671"><ele>184.13333333333333</ele><time>2022-01-22T03:55:41Z</time></trkpt><trkpt lat="33.8163024" lon="132.8869128"><ele>185.97333333333336</ele><time>2022-01-22T03:55:56Z</time></trkpt><trkpt lat="33.8161635" lon="132.886771"><ele>186.53</ele><time>2022-01-22T03:56:09Z</time></trkpt><trkpt lat="33.8160409" lon="132.8865959"><ele>184.17666666666665</ele><time>2022-01-22T03:56:24Z</time></trkpt><trkpt lat="33.8158682" lon="132.8865237"><ele>181.01666666666665</ele><time>2022-01-22T03:56:40Z</time></trkpt><trkpt lat="33.8156957" lon="132.8864494"><ele>178.64333333333332</ele><time>2022-01-22T03:56:55Z</time></trkpt><trkpt lat="33.8155121" lon="132.8863729"><ele>178.29666666666665</ele><time>2022-01-22T03:57:10Z</time></trkpt><trkpt lat="33.8153521" lon="132.8864848"><ele>178.0666666666667</ele><time>2022-01-22T03:57:24Z</time></trkpt><trkpt lat="33.8151819" lon="132.8865852"><ele>178.01</ele><time>2022-01-22T03:57:39Z</time></trkpt><trkpt lat="33.8149871" lon="132.8865909"><ele>177.89666666666668</ele><time>2022-01-22T03:57:54Z</time></trkpt><trkpt lat="33.8148073" lon="132.8867034"><ele>177.92999999999998</ele><time>2022-01-22T03:58:10Z</time></trkpt><trkpt lat="33.8146274" lon="132.8866808"><ele>177.84</ele><time>2022-01-22T03:58:29Z</time></trkpt><trkpt lat="33.8144464" lon="132.8866725"><ele>177.33333333333334</ele><time>2022-01-22T03:58:44Z</time></trkpt><trkpt lat="33.814266" lon="132.8866848"><ele>176.9366666666667</ele><time>2022-01-22T03:58:57Z</time></trkpt><trkpt lat="33.8140814" lon="132.8866702"><ele>176.17</ele><time>2022-01-22T03:59:13Z</time></trkpt><trkpt lat="33.8139069" lon="132.8866131"><ele>175.83333333333334</ele><time>2022-01-22T04:00:21Z</time></trkpt><trkpt lat="33.813722" lon="132.8865957"><ele>174.84333333333333</ele><time>2022-01-22T04:00:35Z</time></trkpt><trkpt lat="33.8135326" lon="132.8865536"><ele>173.31666666666663</ele><time>2022-01-22T04:01:26Z</time></trkpt><trkpt lat="33.8133564" lon="132.8866195"><ele>172.45666666666668</ele><time>2022-01-22T04:02:31Z</time></trkpt><trkpt lat="33.8131706" lon="132.8866258"><ele>171.9333333333333</ele><time>2022-01-22T04:02:47Z</time></trkpt><trkpt lat="33.8129891" lon="132.886574"><ele>171.00333333333333</ele><time>2022-01-22T04:03:00Z</time></trkpt><trkpt lat="33.8128044" lon="132.8865089"><ele>167.95666666666668</ele><time>2022-01-22T04:04:04Z</time></trkpt><trkpt lat="33.8126206" lon="132.8864748"><ele>164.29</ele><time>2022-01-22T04:04:19Z</time></trkpt><trkpt lat="33.8124488" lon="132.8863793"><ele>161.92</ele><time>2022-01-22T04:04:34Z</time></trkpt><trkpt lat="33.8123503" lon="132.8861901"><ele>160.33666666666667</ele><time>2022-01-22T04:04:47Z</time></trkpt><trkpt lat="33.8122264" lon="132.8860267"><ele>159.00333333333333</ele><time>2022-01-22T04:05:12Z</time></trkpt><trkpt lat="33.8120463" lon="132.8859706"><ele>157.71</ele><time>2022-01-22T04:05:27Z</time></trkpt><trkpt lat="33.8118611" lon="132.8859715"><ele>157.56333333333333</ele><time>2022-01-22T04:05:43Z</time></trkpt><trkpt lat="33.8116947" lon="132.8858589"><ele>157.77</ele><time>2022-01-22T04:05:58Z</time></trkpt><trkpt lat="33.8115199" lon="132.8857953"><ele>158.20666666666668</ele><time>2022-01-22T04:06:13Z</time></trkpt><trkpt lat="33.811387" lon="132.885628"><ele>157.4</ele><time>2022-01-22T04:06:28Z</time></trkpt><trkpt lat="33.8112944" lon="132.8854236"><ele>155.15</ele><time>2022-01-22T04:06:44Z</time></trkpt><trkpt lat="33.8111152" lon="132.8853444"><ele>152.54333333333332</ele><time>2022-01-22T04:07:01Z</time></trkpt><trkpt lat="33.810946" lon="132.8852663"><ele>151.28666666666666</ele><time>2022-01-22T04:07:34Z</time></trkpt><trkpt lat="33.8107636" lon="132.8852232"><ele>152.01666666666668</ele><time>2022-01-22T04:07:50Z</time></trkpt><trkpt lat="33.8105904" lon="132.8851603"><ele>151.42333333333332</ele><time>2022-01-22T04:08:06Z</time></trkpt><trkpt lat="33.8104113" lon="132.8852057"><ele>150.38000000000002</ele><time>2022-01-22T04:08:18Z</time></trkpt><trkpt lat="33.8102324" lon="132.8851558"><ele>148.24666666666667</ele><time>2022-01-22T04:08:55Z</time></trkpt><trkpt lat="33.8101299" lon="132.8849742"><ele>147.23999999999998</ele><time>2022-01-22T04:09:07Z</time></trkpt><trkpt lat="33.8099585" lon="132.8848469"><ele>145.68999999999997</ele><time>2022-01-22T04:09:18Z</time></trkpt><trkpt lat="33.809792" lon="132.8847599"><ele>144.34333333333333</ele><time>2022-01-22T04:09:34Z</time></trkpt><trkpt lat="33.8096089" lon="132.8846827"><ele>142.88333333333335</ele><time>2022-01-22T04:09:48Z</time></trkpt><trkpt lat="33.8094368" lon="132.8846056"><ele>141.63</ele><time>2022-01-22T04:10:00Z</time></trkpt><trkpt lat="33.8093781" lon="132.8843867"><ele>140.61</ele><time>2022-01-22T04:10:17Z</time></trkpt><trkpt lat="33.8093134" lon="132.8841707"><ele>139.88333333333333</ele><time>2022-01-22T04:10:32Z</time></trkpt><trkpt lat="33.8092327" lon="132.8839719"><ele>139.08666666666667</ele><time>2022-01-22T04:10:46Z</time></trkpt><trkpt lat="33.8092701" lon="132.8837584"><ele>138.62333333333333</ele><time>2022-01-22T04:10:58Z</time></trkpt><trkpt lat="33.8092951" lon="132.8835382"><ele>138.20666666666668</ele><time>2022-01-22T04:11:11Z</time></trkpt><trkpt lat="33.8093373" lon="132.8833192"><ele>138.15333333333334</ele><time>2022-01-22T04:11:25Z</time></trkpt><trkpt lat="33.8094944" lon="132.8831946"><ele>138.16</ele><time>2022-01-22T04:11:44Z</time></trkpt><trkpt lat="33.8093175" lon="132.8832429"><ele>137.88666666666668</ele><time>2022-01-22T04:13:53Z</time></trkpt><trkpt lat="33.8092952" lon="132.8830233"><ele>137.62333333333333</ele><time>2022-01-22T04:14:10Z</time></trkpt><trkpt lat="33.8094826" lon="132.8829716"><ele>137.86666666666667</ele><time>2022-01-22T04:14:22Z</time></trkpt><trkpt lat="33.809528" lon="132.882757"><ele>138.72</ele><time>2022-01-22T04:14:38Z</time></trkpt><trkpt lat="33.8094003" lon="132.8825919"><ele>139.63</ele><time>2022-01-22T04:14:47Z</time></trkpt><trkpt lat="33.8092881" lon="132.8824176"><ele>138.98999999999998</ele><time>2022-01-22T04:14:58Z</time></trkpt><trkpt lat="33.809169" lon="132.8822484"><ele>137.26000000000002</ele><time>2022-01-22T04:15:08Z</time></trkpt><trkpt lat="33.8090767" lon="132.882062"><ele>135.5</ele><time>2022-01-22T04:15:20Z</time></trkpt><trkpt lat="33.8090128" lon="132.8818539"><ele>134.66333333333333</ele><time>2022-01-22T04:15:33Z</time></trkpt><trkpt lat="33.808851" lon="132.8817561"><ele>134.12</ele><time>2022-01-22T04:15:43Z</time></trkpt><trkpt lat="33.808778" lon="132.8815568"><ele>133.62</ele><time>2022-01-22T04:15:57Z</time></trkpt><trkpt lat="33.8087627" lon="132.8813277"><ele>133.65333333333334</ele><time>2022-01-22T04:16:18Z</time></trkpt><trkpt lat="33.808661" lon="132.8811464"><ele>133.83</ele><time>2022-01-22T04:16:30Z</time></trkpt><trkpt lat="33.8085448" lon="132.8809782"><ele>134.24666666666667</ele><time>2022-01-22T04:16:46Z</time></trkpt><trkpt lat="33.8084352" lon="132.8808008"><ele>133.15333333333334</ele><time>2022-01-22T04:16:56Z</time></trkpt><trkpt lat="33.8083228" lon="132.8806116"><ele>131.93666666666667</ele><time>2022-01-22T04:17:11Z</time></trkpt><trkpt lat="33.8082639" lon="132.8804042"><ele>130.52</ele><time>2022-01-22T04:17:25Z</time></trkpt><trkpt lat="33.8082659" lon="132.8801876"><ele>130.02666666666667</ele><time>2022-01-22T04:17:40Z</time></trkpt><trkpt lat="33.8082551" lon="132.8799602"><ele>130.67666666666665</ele><time>2022-01-22T04:17:55Z</time></trkpt><trkpt lat="33.80825" lon="132.8797422"><ele>131.70333333333335</ele><time>2022-01-22T04:18:07Z</time></trkpt><trkpt lat="33.8081196" lon="132.8795925"><ele>132.71666666666667</ele><time>2022-01-22T04:18:24Z</time></trkpt><trkpt lat="33.8079962" lon="132.8794266"><ele>132.91333333333333</ele><time>2022-01-22T04:18:40Z</time></trkpt><trkpt lat="33.8079751" lon="132.8792118"><ele>133.16666666666666</ele><time>2022-01-22T04:18:52Z</time></trkpt><trkpt lat="33.8080482" lon="132.8790127"><ele>134.16666666666666</ele><time>2022-01-22T04:19:57Z</time></trkpt><trkpt lat="33.8080743" lon="132.8787899"><ele>135.21333333333334</ele><time>2022-01-22T04:20:11Z</time></trkpt><trkpt lat="33.8080507" lon="132.8785723"><ele>135.26333333333335</ele><time>2022-01-22T04:20:20Z</time></trkpt><trkpt lat="33.808024" lon="132.8783521"><ele>133.48333333333335</ele><time>2022-01-22T04:20:41Z</time></trkpt><trkpt lat="33.8079697" lon="132.8781285"><ele>132.41666666666666</ele><time>2022-01-22T04:20:56Z</time></trkpt><trkpt lat="33.8078791" lon="132.8779377"><ele>131.37333333333333</ele><time>2022-01-22T04:21:10Z</time></trkpt><trkpt lat="33.8077481" lon="132.8777857"><ele>130.79666666666665</ele><time>2022-01-22T04:21:24Z</time></trkpt><trkpt lat="33.8076607" lon="132.8775923"><ele>129.55333333333334</ele><time>2022-01-22T04:21:36Z</time></trkpt><trkpt lat="33.8076043" lon="132.877385"><ele>128.46</ele><time>2022-01-22T04:21:52Z</time></trkpt><trkpt lat="33.8075995" lon="132.8771641"><ele>127.88333333333333</ele><time>2022-01-22T04:22:11Z</time></trkpt><trkpt lat="33.8076616" lon="132.8769569"><ele>127.55000000000001</ele><time>2022-01-22T04:22:25Z</time></trkpt><trkpt lat="33.807825" lon="132.8770676"><ele>129.14666666666668</ele><time>2022-01-22T04:22:46Z</time></trkpt><trkpt lat="33.8079621" lon="132.8772126"><ele>131.29</ele><time>2022-01-22T04:23:02Z</time></trkpt><trkpt lat="33.8081434" lon="132.8772465"><ele>134.54333333333332</ele><time>2022-01-22T04:23:23Z</time></trkpt><trkpt lat="33.8083221" lon="132.8772944"><ele>136.97666666666666</ele><time>2022-01-22T04:23:39Z</time></trkpt><trkpt lat="33.8083535" lon="132.8770777"><ele>138.24666666666667</ele><time>2022-01-22T04:25:44Z</time></trkpt><trkpt lat="33.8082088" lon="132.8769413"><ele>137.43333333333334</ele><time>2022-01-22T04:27:05Z</time></trkpt><trkpt lat="33.8081377" lon="132.8767416"><ele>135.29333333333332</ele><time>2022-01-22T04:27:51Z</time></trkpt><trkpt lat="33.8082377" lon="132.8765591"><ele>134.11666666666667</ele><time>2022-01-22T04:28:57Z</time></trkpt><trkpt lat="33.8082215" lon="132.8763399"><ele>134.3</ele><time>2022-01-22T04:29:35Z</time></trkpt><trkpt lat="33.8083697" lon="132.8762007"><ele>135.91333333333333</ele><time>2022-01-22T04:30:35Z</time></trkpt><trkpt lat="33.8083937" lon="132.875985"><ele>138.16333333333333</ele><time>2022-01-22T04:33:47Z</time></trkpt><trkpt lat="33.8085826" lon="132.8759755"><ele>141.79999999999998</ele><time>2022-01-22T04:35:24Z</time></trkpt><trkpt lat="33.8087246" lon="132.875842"><ele>147.11333333333334</ele><time>2022-01-22T04:37:11Z</time></trkpt><trkpt lat="33.8088551" lon="132.8756894"><ele>153.07000000000002</ele><time>2022-01-22T04:37:29Z</time></trkpt><trkpt lat="33.8089933" lon="132.8755464"><ele>159.02333333333334</ele><time>2022-01-22T04:37:53Z</time></trkpt><trkpt lat="33.8091721" lon="132.8755134"><ele>164.5</ele><time>2022-01-22T04:40:29Z</time></trkpt><trkpt lat="33.8093156" lon="132.8753794"><ele>169.89999999999998</ele><time>2022-01-22T04:40:52Z</time></trkpt><trkpt lat="33.8094983" lon="132.8753642"><ele>175.37666666666667</ele><time>2022-01-22T04:41:39Z</time></trkpt><trkpt lat="33.8096785" lon="132.8753898"><ele>179.79333333333332</ele><time>2022-01-22T04:41:57Z</time></trkpt><trkpt lat="33.8098668" lon="132.8753717"><ele>183.09333333333333</ele><time>2022-01-22T04:42:13Z</time></trkpt><trkpt lat="33.8100393" lon="132.8753041"><ele>185.04</ele><time>2022-01-22T04:42:30Z</time></trkpt><trkpt lat="33.8102231" lon="132.8752971"><ele>186.98</ele><time>2022-01-22T04:42:57Z</time></trkpt><trkpt lat="33.8104022" lon="132.8753354"><ele>189.66333333333333</ele><time>2022-01-22T04:43:16Z</time></trkpt><trkpt lat="33.8105822" lon="132.8753508"><ele>192.47666666666666</ele><time>2022-01-22T04:43:32Z</time></trkpt><trkpt lat="33.8107681" lon="132.875366"><ele>195.72666666666666</ele><time>2022-01-22T04:44:02Z</time></trkpt><trkpt lat="33.8109515" lon="132.8753611"><ele>198.38666666666666</ele><time>2022-01-22T04:44:15Z</time></trkpt><trkpt lat="33.8111174" lon="132.8754539"><ele>200.99</ele><time>2022-01-22T04:44:32Z</time></trkpt><trkpt lat="33.8113" lon="132.8754405"><ele>202.14333333333335</ele><time>2022-01-22T04:45:00Z</time></trkpt><trkpt lat="33.8114579" lon="132.8755455"><ele>203.23000000000002</ele><time>2022-01-22T04:45:09Z</time></trkpt><trkpt lat="33.8116034" lon="132.8756831"><ele>204.36666666666667</ele><time>2022-01-22T04:45:34Z</time></trkpt><trkpt lat="33.8116968" lon="132.8758777"><ele>207.12333333333333</ele><time>2022-01-22T04:45:48Z</time></trkpt><trkpt lat="33.8118498" lon="132.876004"><ele>209.67333333333332</ele><time>2022-01-22T04:46:01Z</time></trkpt><trkpt lat="33.8120316" lon="132.8760613"><ele>212.04666666666665</ele><time>2022-01-22T04:46:22Z</time></trkpt><trkpt lat="33.8122142" lon="132.8761108"><ele>213.11666666666667</ele><time>2022-01-22T04:46:39Z</time></trkpt><trkpt lat="33.8123959" lon="132.8761633"><ele>214.17</ele><time>2022-01-22T04:46:54Z</time></trkpt><trkpt lat="33.8125477" lon="132.8762833"><ele>214.75</ele><time>2022-01-22T04:47:10Z</time></trkpt><trkpt lat="33.8127286" lon="132.876353"><ele>214.83333333333334</ele><time>2022-01-22T04:47:29Z</time></trkpt><trkpt lat="33.812873" lon="132.8764842"><ele>214.73333333333335</ele><time>2022-01-22T04:47:49Z</time></trkpt><trkpt lat="33.8130984" lon="132.8766232"><ele>215.86</ele><time>2022-01-22T04:48:17Z</time></trkpt><trkpt lat="33.8132794" lon="132.876616"><ele>218.25</ele><time>2022-01-22T04:48:30Z</time></trkpt><trkpt lat="33.8134464" lon="132.8765177"><ele>220.84</ele><time>2022-01-22T04:48:46Z</time></trkpt><trkpt lat="33.8136193" lon="132.8765814"><ele>224.84</ele><time>2022-01-22T04:49:10Z</time></trkpt><trkpt lat="33.8138001" lon="132.8765452"><ele>229.67999999999998</ele><time>2022-01-22T04:50:37Z</time></trkpt><trkpt lat="33.8139643" lon="132.8764512"><ele>237.8166666666667</ele><time>2022-01-22T04:50:58Z</time></trkpt><trkpt lat="33.81415" lon="132.8764433"><ele>245.88333333333335</ele><time>2022-01-22T04:51:38Z</time></trkpt><trkpt lat="33.8143314" lon="132.876434"><ele>254.03666666666666</ele><time>2022-01-22T04:52:18Z</time></trkpt><trkpt lat="33.8145133" lon="132.8764271"><ele>258.7666666666667</ele><time>2022-01-22T04:54:31Z</time></trkpt><trkpt lat="33.8146927" lon="132.8764048"><ele>261.2166666666667</ele><time>2022-01-22T04:55:25Z</time></trkpt><trkpt lat="33.8145065" lon="132.8764212"><ele>261.42</ele><time>2022-01-22T04:56:29Z</time></trkpt><trkpt lat="33.814689" lon="132.8764403"><ele>261.73</ele><time>2022-01-22T04:57:19Z</time></trkpt><trkpt lat="33.814865" lon="132.8763736"><ele>261.45000000000005</ele><time>2022-01-22T05:02:03Z</time></trkpt><trkpt lat="33.8150404" lon="132.876319"><ele>261.14000000000004</ele><time>2022-01-22T05:02:59Z</time></trkpt><trkpt lat="33.8151736" lon="132.8761714"><ele>259.26666666666665</ele><time>2022-01-22T05:03:13Z</time></trkpt><trkpt lat="33.8153563" lon="132.8760811"><ele>256.24333333333334</ele><time>2022-01-22T05:03:31Z</time></trkpt><trkpt lat="33.8155393" lon="132.8761522"><ele>252.86666666666667</ele><time>2022-01-22T05:03:41Z</time></trkpt><trkpt lat="33.8157199" lon="132.8761525"><ele>249.79</ele><time>2022-01-22T05:03:54Z</time></trkpt><trkpt lat="33.8159026" lon="132.876102"><ele>247.35</ele><time>2022-01-22T05:04:12Z</time></trkpt><trkpt lat="33.8160627" lon="132.8759979"><ele>246.82333333333335</ele><time>2022-01-22T05:04:21Z</time></trkpt><trkpt lat="33.8162472" lon="132.8760138"><ele>249.69999999999996</ele><time>2022-01-22T05:04:34Z</time></trkpt><trkpt lat="33.8164158" lon="132.8759273"><ele>254.9533333333333</ele><time>2022-01-22T05:05:14Z</time></trkpt><trkpt lat="33.8165334" lon="132.8757586"><ele>260.2866666666667</ele><time>2022-01-22T05:05:36Z</time></trkpt><trkpt lat="33.816697" lon="132.8756639"><ele>264.8066666666667</ele><time>2022-01-22T05:06:11Z</time></trkpt><trkpt lat="33.8168692" lon="132.8755981"><ele>268.7766666666667</ele><time>2022-01-22T05:06:35Z</time></trkpt><trkpt lat="33.8170528" lon="132.8755907"><ele>273.67333333333335</ele><time>2022-01-22T05:07:39Z</time></trkpt><trkpt lat="33.8172371" lon="132.8755838"><ele>277.58000000000004</ele><time>2022-01-22T05:07:56Z</time></trkpt><trkpt lat="33.8174059" lon="132.8754987"><ele>280.76666666666665</ele><time>2022-01-22T05:08:17Z</time></trkpt><trkpt lat="33.8175796" lon="132.8754369"><ele>281.99</ele><time>2022-01-22T05:08:53Z</time></trkpt><trkpt lat="33.8177619" lon="132.8754372"><ele>282.8533333333333</ele><time>2022-01-22T05:09:14Z</time></trkpt><trkpt lat="33.8179431" lon="132.875412"><ele>283.73</ele><time>2022-01-22T05:09:47Z</time></trkpt><trkpt lat="33.8181187" lon="132.8753557"><ele>284.45666666666665</ele><time>2022-01-22T05:10:16Z</time></trkpt><trkpt lat="33.8183016" lon="132.8753424"><ele>284.92</ele><time>2022-01-22T05:10:33Z</time></trkpt><trkpt lat="33.8184605" lon="132.8752379"><ele>284.11999999999995</ele><time>2022-01-22T05:10:57Z</time></trkpt><trkpt lat="33.818582" lon="132.8750778"><ele>283.7033333333333</ele><time>2022-01-22T05:11:47Z</time></trkpt><trkpt lat="33.8186971" lon="132.8749079"><ele>283.61999999999995</ele><time>2022-01-22T05:12:33Z</time></trkpt><trkpt lat="33.8187614" lon="132.874703"><ele>285.6766666666667</ele><time>2022-01-22T05:13:34Z</time></trkpt><trkpt lat="33.8188095" lon="132.8744912"><ele>288.03</ele><time>2022-01-22T05:13:57Z</time></trkpt><trkpt lat="33.818842" lon="132.8742787"><ele>292.41</ele><time>2022-01-22T05:14:13Z</time></trkpt><trkpt lat="33.8189336" lon="132.8740923"><ele>296.4266666666667</ele><time>2022-01-22T05:14:50Z</time></trkpt><trkpt lat="33.8190163" lon="132.8739"><ele>299.9066666666667</ele><time>2022-01-22T05:15:44Z</time></trkpt><trkpt lat="33.8191559" lon="132.8737628"><ele>301.08666666666664</ele><time>2022-01-22T05:16:19Z</time></trkpt><trkpt lat="33.8192714" lon="132.8735946"><ele>301.6766666666667</ele><time>2022-01-22T05:17:22Z</time></trkpt><trkpt lat="33.819389" lon="132.8734236"><ele>302.9066666666667</ele><time>2022-01-22T05:17:39Z</time></trkpt><trkpt lat="33.8194806" lon="132.8732198"><ele>305.35333333333335</ele><time>2022-01-22T05:17:51Z</time></trkpt><trkpt lat="33.819418" lon="132.8730158"><ele>305.86999999999995</ele><time>2022-01-22T05:18:18Z</time></trkpt><trkpt lat="33.8192567" lon="132.8731185"><ele>306.31</ele><time>2022-01-22T05:19:15Z</time></trkpt><trkpt lat="33.8190953" lon="132.8732149"><ele>305.22666666666663</ele><time>2022-01-22T05:19:31Z</time></trkpt><trkpt lat="33.8189385" lon="132.8733389"><ele>304.99</ele><time>2022-01-22T05:19:41Z</time></trkpt><trkpt lat="33.8187622" lon="132.8733969"><ele>303.4666666666667</ele><time>2022-01-22T05:19:53Z</time></trkpt><trkpt lat="33.8185858" lon="132.8734724"><ele>301.3666666666666</ele><time>2022-01-22T05:20:05Z</time></trkpt><trkpt lat="33.8184019" lon="132.8734519"><ele>298.90000000000003</ele><time>2022-01-22T05:20:18Z</time></trkpt><trkpt lat="33.8182313" lon="132.8735259"><ele>296.32666666666665</ele><time>2022-01-22T05:20:34Z</time></trkpt><trkpt lat="33.818086" lon="132.8736593"><ele>293.81333333333333</ele><time>2022-01-22T05:20:48Z</time></trkpt><trkpt lat="33.8179367" lon="132.8737881"><ele>291.76</ele><time>2022-01-22T05:21:07Z</time></trkpt><trkpt lat="33.8177664" lon="132.8738706"><ele>289.8933333333333</ele><time>2022-01-22T05:21:21Z</time></trkpt><trkpt lat="33.8175639" lon="132.8739083"><ele>288.2766666666667</ele><time>2022-01-22T05:21:40Z</time></trkpt><trkpt lat="33.8173858" lon="132.8738602"><ele>286.6933333333333</ele><time>2022-01-22T05:21:58Z</time></trkpt><trkpt lat="33.8172709" lon="132.8736937"><ele>284.39000000000004</ele><time>2022-01-22T05:22:11Z</time></trkpt><trkpt lat="33.817152" lon="132.8735248"><ele>281.31333333333333</ele><time>2022-01-22T05:22:26Z</time></trkpt><trkpt lat="33.8169796" lon="132.8734425"><ele>278.9866666666667</ele><time>2022-01-22T05:22:42Z</time></trkpt><trkpt lat="33.8167947" lon="132.8734642"><ele>278.74666666666667</ele><time>2022-01-22T05:22:56Z</time></trkpt><trkpt lat="33.8169238" lon="132.8733062"><ele>278.26666666666665</ele><time>2022-01-22T05:23:12Z</time></trkpt><trkpt lat="33.8171039" lon="132.8732889"><ele>275.49</ele><time>2022-01-22T05:23:26Z</time></trkpt><trkpt lat="33.8169244" lon="132.8732047"><ele>272.67333333333335</ele><time>2022-01-22T05:23:56Z</time></trkpt><trkpt lat="33.816748" lon="132.8732773"><ele>271.71999999999997</ele><time>2022-01-22T05:24:15Z</time></trkpt><trkpt lat="33.8165893" lon="132.8733864"><ele>273.67</ele><time>2022-01-22T05:24:31Z</time></trkpt><trkpt lat="33.8164093" lon="132.8734568"><ele>272.57</ele><time>2022-01-22T05:24:44Z</time></trkpt><trkpt lat="33.8162252" lon="132.8734105"><ele>268.1166666666666</ele><time>2022-01-22T05:25:01Z</time></trkpt><trkpt lat="33.8160968" lon="132.873241"><ele>258.3433333333333</ele><time>2022-01-22T05:25:16Z</time></trkpt><trkpt lat="33.8159166" lon="132.8733157"><ele>251.17999999999998</ele><time>2022-01-22T05:25:31Z</time></trkpt><trkpt lat="33.8158389" lon="132.8735139"><ele>249.81333333333336</ele><time>2022-01-22T05:25:44Z</time></trkpt><trkpt lat="33.8157062" lon="132.8736618"><ele>253.54333333333338</ele><time>2022-01-22T05:26:00Z</time></trkpt><trkpt lat="33.8155346" lon="132.8735746"><ele>253.78666666666666</ele><time>2022-01-22T05:26:17Z</time></trkpt><trkpt lat="33.8154257" lon="132.8734011"><ele>246.96333333333334</ele><time>2022-01-22T05:26:33Z</time></trkpt><trkpt lat="33.815298" lon="132.873243"><ele>238.22333333333336</ele><time>2022-01-22T05:26:48Z</time></trkpt><trkpt lat="33.8151186" lon="132.8731782"><ele>233.1866666666667</ele><time>2022-01-22T05:27:02Z</time></trkpt><trkpt lat="33.8149593" lon="132.8730503"><ele>232.61</ele><time>2022-01-22T05:27:21Z</time></trkpt><trkpt lat="33.8147776" lon="132.8730215"><ele>232.5</ele><time>2022-01-22T05:27:37Z</time></trkpt><trkpt lat="33.8146274" lon="132.8728988"><ele>228.54999999999998</ele><time>2022-01-22T05:27:53Z</time></trkpt><trkpt lat="33.8144513" lon="132.87296"><ele>223.98666666666668</ele><time>2022-01-22T05:28:12Z</time></trkpt><trkpt lat="33.814282" lon="132.8730364"><ele>221.81000000000003</ele><time>2022-01-22T05:28:31Z</time></trkpt><trkpt lat="33.8141009" lon="132.8730586"><ele>223.23666666666668</ele><time>2022-01-22T05:28:44Z</time></trkpt><trkpt lat="33.8139801" lon="132.8728903"><ele>223.22333333333336</ele><time>2022-01-22T05:29:02Z</time></trkpt><trkpt lat="33.8138007" lon="132.8728058"><ele>223.31000000000003</ele><time>2022-01-22T05:29:16Z</time></trkpt><trkpt lat="33.8136599" lon="132.8726633"><ele>222.56000000000003</ele><time>2022-01-22T05:29:31Z</time></trkpt><trkpt lat="33.8134774" lon="132.8726148"><ele>223.64000000000001</ele><time>2022-01-22T05:29:46Z</time></trkpt><trkpt lat="33.8132939" lon="132.8726774"><ele>222.50333333333333</ele><time>2022-01-22T05:30:02Z</time></trkpt><trkpt lat="33.8131081" lon="132.8726893"><ele>220.4566666666667</ele><time>2022-01-22T05:30:18Z</time></trkpt><trkpt lat="33.8129197" lon="132.8727174"><ele>215.88</ele><time>2022-01-22T05:30:33Z</time></trkpt><trkpt lat="33.8127599" lon="132.8725943"><ele>213.00333333333333</ele><time>2022-01-22T05:30:54Z</time></trkpt><trkpt lat="33.8125854" lon="132.8725152"><ele>210.10666666666668</ele><time>2022-01-22T05:31:07Z</time></trkpt><trkpt lat="33.812408" lon="132.8724457"><ele>209.83666666666667</ele><time>2022-01-22T05:31:28Z</time></trkpt><trkpt lat="33.8122368" lon="132.8723665"><ele>208.15666666666667</ele><time>2022-01-22T05:32:05Z</time></trkpt><trkpt lat="33.8120505" lon="132.872367"><ele>207.22000000000003</ele><time>2022-01-22T05:32:17Z</time></trkpt><trkpt lat="33.8118673" lon="132.8723712"><ele>205.41</ele><time>2022-01-22T05:32:31Z</time></trkpt><trkpt lat="33.81168" lon="132.8723534"><ele>203.75333333333333</ele><time>2022-01-22T05:32:44Z</time></trkpt><trkpt lat="33.8115085" lon="132.8722657"><ele>202.0566666666667</ele><time>2022-01-22T05:32:59Z</time></trkpt><trkpt lat="33.8113595" lon="132.8721294"><ele>200.43333333333337</ele><time>2022-01-22T05:33:12Z</time></trkpt><trkpt lat="33.8111761" lon="132.8720783"><ele>198.53333333333333</ele><time>2022-01-22T05:33:31Z</time></trkpt><trkpt lat="33.8110024" lon="132.8719976"><ele>196.35999999999999</ele><time>2022-01-22T05:33:49Z</time></trkpt><trkpt lat="33.8108226" lon="132.8719635"><ele>194.39333333333335</ele><time>2022-01-22T05:34:04Z</time></trkpt><trkpt lat="33.8106422" lon="132.8719059"><ele>192.20000000000002</ele><time>2022-01-22T05:35:26Z</time></trkpt><trkpt lat="33.8104794" lon="132.8718123"><ele>189.78</ele><time>2022-01-22T05:35:38Z</time></trkpt><trkpt lat="33.8102999" lon="132.8717285"><ele>186.83333333333334</ele><time>2022-01-22T05:35:55Z</time></trkpt><trkpt lat="33.8101126" lon="132.8716812"><ele>183.99333333333334</ele><time>2022-01-22T05:36:14Z</time></trkpt><trkpt lat="33.8099448" lon="132.871592"><ele>180.86</ele><time>2022-01-22T05:36:29Z</time></trkpt><trkpt lat="33.8097647" lon="132.871533"><ele>177.96</ele><time>2022-01-22T05:36:48Z</time></trkpt><trkpt lat="33.8095852" lon="132.8714823"><ele>174.66333333333333</ele><time>2022-01-22T05:37:03Z</time></trkpt><trkpt lat="33.8094038" lon="132.8714891"><ele>171.66666666666666</ele><time>2022-01-22T05:37:16Z</time></trkpt><trkpt lat="33.8092208" lon="132.8714667"><ele>168.03666666666666</ele><time>2022-01-22T05:37:29Z</time></trkpt><trkpt lat="33.8090471" lon="132.8713829"><ele>165.28333333333333</ele><time>2022-01-22T05:37:44Z</time></trkpt><trkpt lat="33.8088765" lon="132.8712958"><ele>162.57333333333335</ele><time>2022-01-22T05:37:59Z</time></trkpt><trkpt lat="33.8086952" lon="132.8712269"><ele>160.55999999999997</ele><time>2022-01-22T05:38:17Z</time></trkpt><trkpt lat="33.8085198" lon="132.8711594"><ele>157.75666666666666</ele><time>2022-01-22T05:38:29Z</time></trkpt><trkpt lat="33.8083374" lon="132.8711276"><ele>155.20666666666668</ele><time>2022-01-22T05:38:46Z</time></trkpt><trkpt lat="33.8081552" lon="132.8711132"><ele>152.82333333333335</ele><time>2022-01-22T05:39:04Z</time></trkpt><trkpt lat="33.8081514" lon="132.8708946"><ele>151.75666666666666</ele><time>2022-01-22T05:39:17Z</time></trkpt><trkpt lat="33.8080817" lon="132.8706939"><ele>151.88</ele><time>2022-01-22T05:39:32Z</time></trkpt><trkpt lat="33.8079924" lon="132.8705038"><ele>152.67333333333332</ele><time>2022-01-22T05:39:47Z</time></trkpt></trkseg></trk></gpx>