<?xml version='1.0' encoding='UTF-8'?><gpx creator="YAMAP - https://yamap.com" xsi:schemaLocation="http://www.topografix.com/GPX/1/1 http://www.topografix.com/GPX/1/1/gpx.xsd" version="1.1" xmlns="http://www.topografix.com/GPX/1/1" xmlns:xsi="http://www.w3.org/2001/XMLSchema-instance"><metadata><bounds maxlat="33.7705453" maxlon="132.7846001" minlat="33.7679363" minlon="132.7796622"/></metadata><trk><name>扇山</name><number>1</number><trkseg><trkpt lat="33.7699799" lon="132.7800566"><ele>119.42</ele><time>2022-12-12T01:30:09Z</time></trkpt><trkpt lat="33.7698201" lon="132.7799403"><ele>121.825</ele><time>2022-12-12T01:31:43Z</time></trkpt><trkpt lat="33.7697935" lon="132.7801725"><ele>125.90333333333335</ele><time>2022-12-12T01:31:58Z</time></trkpt><trkpt lat="33.7698214" lon="132.7804194"><ele>129.36333333333334</ele><time>2022-12-12T01:32:13Z</time></trkpt><trkpt lat="33.7698545" lon="132.7806392"><ele>132.75666666666666</ele><time>2022-12-12T01:32:26Z</time></trkpt><trkpt lat="33.7699178" lon="132.7808481"><ele>133.7566666666667</ele><time>2022-12-12T01:32:37Z</time></trkpt><trkpt lat="33.7700298" lon="132.7810338"><ele>134.17666666666668</ele><time>2022-12-12T01:32:49Z</time></trkpt><trkpt lat="33.7700346" lon="132.7812544"><ele>133.29</ele><time>2022-12-12T01:33:02Z</time></trkpt><trkpt lat="33.7701207" lon="132.7814454"><ele>131.06333333333333</ele><time>2022-12-12T01:33:22Z</time></trkpt><trkpt lat="33.7701502" lon="132.7816627"><ele>131.77333333333334</ele><time>2022-12-12T01:33:50Z</time></trkpt><trkpt lat="33.7701684" lon="132.7818828"><ele>131.07666666666668</ele><time>2022-12-12T01:34:02Z</time></trkpt><trkpt lat="33.7702831" lon="132.7820578"><ele>129.76333333333335</ele><time>2022-12-12T01:34:17Z</time></trkpt><trkpt lat="33.7703734" lon="132.782248"><ele>125.86000000000001</ele><time>2022-12-12T01:34:30Z</time></trkpt><trkpt lat="33.7704455" lon="132.7824569"><ele>122.58333333333333</ele><time>2022-12-12T01:34:41Z</time></trkpt><trkpt lat="33.7705177" lon="132.782656"><ele>119.94333333333333</ele><time>2022-12-12T01:34:55Z</time></trkpt><trkpt lat="33.7704801" lon="132.7828786"><ele>120.02666666666666</ele><time>2022-12-12T01:35:07Z</time></trkpt><trkpt lat="33.7703683" lon="132.7830639"><ele>121.72333333333334</ele><time>2022-12-12T01:35:22Z</time></trkpt><trkpt lat="33.7702556" lon="132.783245"><ele>124.05</ele><time>2022-12-12T01:35:35Z</time></trkpt><trkpt lat="33.7701785" lon="132.7834525"><ele>125.40666666666668</ele><time>2022-12-12T01:35:47Z</time></trkpt><trkpt lat="33.7701058" lon="132.7836576"><ele>125.60333333333334</ele><time>2022-12-12T01:36:01Z</time></trkpt><trkpt lat="33.7700347" lon="132.7838587"><ele>125.54</ele><time>2022-12-12T01:36:16Z</time></trkpt><trkpt lat="33.7699752" lon="132.7840706"><ele>125.71</ele><time>2022-12-12T01:36:49Z</time></trkpt><trkpt lat="33.76985" lon="132.7842379"><ele>126.73666666666668</ele><time>2022-12-12T01:37:03Z</time></trkpt><trkpt lat="33.7696742" lon="132.784294"><ele>128.0666666666667</ele><time>2022-12-12T01:37:16Z</time></trkpt><trkpt lat="33.769542" lon="132.7844595"><ele>128.81666666666666</ele><time>2022-12-12T01:37:30Z</time></trkpt><trkpt lat="33.7694033" lon="132.7846001"><ele>129.1</ele><time>2022-12-12T01:37:53Z</time></trkpt><trkpt lat="33.7692155" lon="132.7845929"><ele>131.26</ele><time>2022-12-12T01:38:12Z</time></trkpt><trkpt lat="33.7691725" lon="132.7843748"><ele>133.6866666666667</ele><time>2022-12-12T01:38:41Z</time></trkpt><trkpt lat="33.769034" lon="132.7842339"><ele>137.26</ele><time>2022-12-12T01:38:57Z</time></trkpt><trkpt lat="33.7690024" lon="132.7840211"><ele>141.03</ele><time>2022-12-12T01:39:15Z</time></trkpt><trkpt lat="33.7688163" lon="132.7840091"><ele>145.56333333333333</ele><time>2022-12-12T01:39:41Z</time></trkpt><trkpt lat="33.7686649" lon="132.7838873"><ele>150.16666666666666</ele><time>2022-12-12T01:39:48Z</time></trkpt><trkpt lat="33.7684636" lon="132.7838253"><ele>152.89666666666665</ele><time>2022-12-12T01:40:00Z</time></trkpt><trkpt lat="33.7682939" lon="132.7837246"><ele>153.83</ele><time>2022-12-12T01:40:13Z</time></trkpt><trkpt lat="33.7681822" lon="132.7835533"><ele>154.05666666666664</ele><time>2022-12-12T01:40:47Z</time></trkpt><trkpt lat="33.7681946" lon="132.7833352"><ele>155.85999999999999</ele><time>2022-12-12T01:41:05Z</time></trkpt><trkpt lat="33.768149" lon="132.7831217"><ele>159.18333333333337</ele><time>2022-12-12T01:41:20Z</time></trkpt><trkpt lat="33.768137" lon="132.7828996"><ele>163.52333333333334</ele><time>2022-12-12T01:41:34Z</time></trkpt><trkpt lat="33.7681327" lon="132.7826831"><ele>166.77</ele><time>2022-12-12T01:41:55Z</time></trkpt><trkpt lat="33.7680831" lon="132.7824579"><ele>170.76333333333332</ele><time>2022-12-12T01:42:09Z</time></trkpt><trkpt lat="33.7682406" lon="132.7823474"><ele>173.51999999999998</ele><time>2022-12-12T01:42:57Z</time></trkpt><trkpt lat="33.7683768" lon="132.7821981"><ele>176.15</ele><time>2022-12-12T01:43:10Z</time></trkpt><trkpt lat="33.7685043" lon="132.7820366"><ele>178.13666666666666</ele><time>2022-12-12T01:43:23Z</time></trkpt><trkpt lat="33.7686399" lon="132.7818874"><ele>179.52333333333334</ele><time>2022-12-12T01:43:35Z</time></trkpt><trkpt lat="33.7688049" lon="132.7817552"><ele>180.88666666666666</ele><time>2022-12-12T01:43:51Z</time></trkpt><trkpt lat="33.7689838" lon="132.7816713"><ele>182.46</ele><time>2022-12-12T01:44:04Z</time></trkpt><trkpt lat="33.7690005" lon="132.7814534"><ele>183.82333333333335</ele><time>2022-12-12T01:44:19Z</time></trkpt><trkpt lat="33.7688693" lon="132.7812995"><ele>186.16</ele><time>2022-12-12T01:44:35Z</time></trkpt><trkpt lat="33.7687578" lon="132.7811268"><ele>187.9766666666667</ele><time>2022-12-12T01:44:54Z</time></trkpt><trkpt lat="33.7686137" lon="132.7809934"><ele>190.16</ele><time>2022-12-12T01:45:13Z</time></trkpt><trkpt lat="33.768449" lon="132.7808862"><ele>190.7266666666667</ele><time>2022-12-12T01:45:37Z</time></trkpt><trkpt lat="33.7683129" lon="132.7807384"><ele>191.10666666666668</ele><time>2022-12-12T01:45:47Z</time></trkpt><trkpt lat="33.7681495" lon="132.7806334"><ele>190.78333333333333</ele><time>2022-12-12T01:46:00Z</time></trkpt><trkpt lat="33.7681274" lon="132.7804178"><ele>191.08666666666667</ele><time>2022-12-12T01:46:15Z</time></trkpt><trkpt lat="33.7680439" lon="132.7802242"><ele>191.49666666666667</ele><time>2022-12-12T01:46:30Z</time></trkpt><trkpt lat="33.7679767" lon="132.7800195"><ele>192.53333333333333</ele><time>2022-12-12T01:46:44Z</time></trkpt><trkpt lat="33.7679363" lon="132.7798086"><ele>193.06000000000003</ele><time>2022-12-12T01:46:57Z</time></trkpt><trkpt lat="33.7680738" lon="132.7796622"><ele>193.12333333333333</ele><time>2022-12-12T01:47:47Z</time></trkpt><trkpt lat="33.7680114" lon="132.779871"><ele>192.99666666666667</ele><time>2022-12-12T01:51:57Z</time></trkpt><trkpt lat="33.7680109" lon="132.7800961"><ele>192.83</ele><time>2022-12-12T01:52:06Z</time></trkpt><trkpt lat="33.7680539" lon="132.7803093"><ele>192.61333333333334</ele><time>2022-12-12T01:52:15Z</time></trkpt><trkpt lat="33.7681618" lon="132.780488"><ele>192.38333333333335</ele><time>2022-12-12T01:52:31Z</time></trkpt><trkpt lat="33.7681399" lon="132.7807095"><ele>191.20333333333335</ele><time>2022-12-12T01:52:43Z</time></trkpt><trkpt lat="33.7682854" lon="132.7808496"><ele>190.79333333333332</ele><time>2022-12-12T01:52:56Z</time></trkpt><trkpt lat="33.7684707" lon="132.7808866"><ele>190.56333333333336</ele><time>2022-12-12T01:53:07Z</time></trkpt><trkpt lat="33.7686239" lon="132.7810157"><ele>190.95333333333335</ele><time>2022-12-12T01:53:20Z</time></trkpt><trkpt lat="33.7687155" lon="132.7812108"><ele>190.6866666666667</ele><time>2022-12-12T01:53:34Z</time></trkpt><trkpt lat="33.7688362" lon="132.7813744"><ele>189.8766666666667</ele><time>2022-12-12T01:53:50Z</time></trkpt><trkpt lat="33.7689597" lon="132.7815564"><ele>187.90666666666667</ele><time>2022-12-12T01:54:04Z</time></trkpt><trkpt lat="33.7690497" lon="132.7817516"><ele>185.7733333333333</ele><time>2022-12-12T01:54:14Z</time></trkpt><trkpt lat="33.7691562" lon="132.7819414"><ele>183.47</ele><time>2022-12-12T01:54:27Z</time></trkpt><trkpt lat="33.7692504" lon="132.782128"><ele>181.95000000000002</ele><time>2022-12-12T01:54:46Z</time></trkpt><trkpt lat="33.7692544" lon="132.7823464"><ele>178.99</ele><time>2022-12-12T01:55:00Z</time></trkpt><trkpt lat="33.7693715" lon="132.7825126"><ele>176.09333333333336</ele><time>2022-12-12T01:55:14Z</time></trkpt><trkpt lat="33.7693232" lon="132.782302"><ele>175.21666666666667</ele><time>2022-12-12T01:56:30Z</time></trkpt><trkpt lat="33.7692169" lon="132.7821155"><ele>176.77333333333334</ele><time>2022-12-12T01:56:44Z</time></trkpt><trkpt lat="33.769118" lon="132.7819331"><ele>179.67</ele><time>2022-12-12T01:56:57Z</time></trkpt><trkpt lat="33.7689528" lon="132.7820244"><ele>179.63333333333333</ele><time>2022-12-12T01:57:32Z</time></trkpt><trkpt lat="33.7687906" lon="132.7821436"><ele>177.14666666666668</ele><time>2022-12-12T01:57:48Z</time></trkpt><trkpt lat="33.768945" lon="132.7822572"><ele>173.42</ele><time>2022-12-12T01:58:38Z</time></trkpt><trkpt lat="33.7690252" lon="132.7824609"><ele>170.52333333333334</ele><time>2022-12-12T01:59:34Z</time></trkpt><trkpt lat="33.7689728" lon="132.7826678"><ele>166.99</ele><time>2022-12-12T01:59:42Z</time></trkpt><trkpt lat="33.769008" lon="132.7828916"><ele>163.46333333333334</ele><time>2022-12-12T01:59:52Z</time></trkpt><trkpt lat="33.7691178" lon="132.7830701"><ele>159.70333333333335</ele><time>2022-12-12T02:00:03Z</time></trkpt><trkpt lat="33.7692409" lon="132.7832318"><ele>157.71</ele><time>2022-12-12T02:00:15Z</time></trkpt><trkpt lat="33.7693754" lon="132.7833773"><ele>154.55666666666667</ele><time>2022-12-12T02:00:55Z</time></trkpt><trkpt lat="33.7694993" lon="132.7835419"><ele>152.14666666666668</ele><time>2022-12-12T02:01:16Z</time></trkpt><trkpt lat="33.7696255" lon="132.7837057"><ele>148.15</ele><time>2022-12-12T02:01:28Z</time></trkpt><trkpt lat="33.7698004" lon="132.7837875"><ele>142.63</ele><time>2022-12-12T02:01:44Z</time></trkpt><trkpt lat="33.7699273" lon="132.7839448"><ele>135.08</ele><time>2022-12-12T02:01:52Z</time></trkpt><trkpt lat="33.7701093" lon="132.783908"><ele>128.58</ele><time>2022-12-12T02:02:05Z</time></trkpt><trkpt lat="33.7701444" lon="132.7836926"><ele>125.52666666666669</ele><time>2022-12-12T02:02:14Z</time></trkpt><trkpt lat="33.7702339" lon="132.783493"><ele>124.46333333333332</ele><time>2022-12-12T02:02:29Z</time></trkpt><trkpt lat="33.77031" lon="132.7832847"><ele>124.38666666666667</ele><time>2022-12-12T02:02:41Z</time></trkpt><trkpt lat="33.7703754" lon="132.7830779"><ele>123.92666666666666</ele><time>2022-12-12T02:02:52Z</time></trkpt><trkpt lat="33.7704496" lon="132.7828669"><ele>123.00666666666667</ele><time>2022-12-12T02:03:08Z</time></trkpt><trkpt lat="33.7705453" lon="132.7826803"><ele>121.23666666666666</ele><time>2022-12-12T02:03:22Z</time></trkpt><trkpt lat="33.7704979" lon="132.7824473"><ele>120.02666666666666</ele><time>2022-12-12T02:03:35Z</time></trkpt><trkpt lat="33.7704465" lon="132.7822345"><ele>118.81</ele><time>2022-12-12T02:03:49Z</time></trkpt><trkpt lat="33.7703869" lon="132.782024"><ele>118.62666666666667</ele><time>2022-12-12T02:03:59Z</time></trkpt><trkpt lat="33.7703272" lon="132.7818171"><ele>118.59333333333335</ele><time>2022-12-12T02:04:12Z</time></trkpt><trkpt lat="33.7703311" lon="132.781576"><ele>118.86333333333333</ele><time>2022-12-12T02:04:26Z</time></trkpt><trkpt lat="33.770221" lon="132.7813834"><ele>121.66333333333334</ele><time>2022-12-12T02:04:41Z</time></trkpt><trkpt lat="33.7701644" lon="132.7811622"><ele>123.14666666666666</ele><time>2022-12-12T02:05:06Z</time></trkpt><trkpt lat="33.7700419" lon="132.7810004"><ele>126.95</ele><time>2022-12-12T02:05:21Z</time></trkpt><trkpt lat="33.7700034" lon="132.7807867"><ele>128.48333333333335</ele><time>2022-12-12T02:05:34Z</time></trkpt><trkpt lat="33.7701004" lon="132.7805928"><ele>126.89333333333332</ele><time>2022-12-12T02:05:47Z</time></trkpt><trkpt lat="33.7700662" lon="132.78038"><ele>123.12666666666667</ele><time>2022-12-12T02:06:05Z</time></trkpt><trkpt lat="33.7700312" lon="132.780156"><ele>119.13</ele><time>2022-12-12T02:06:18Z</time></trkpt></trkseg></trk></gpx>