<?xml version='1.0' encoding='UTF-8'?><gpx creator="Yama Museum Peak Annotator" xsi:schemaLocation="http://www.topografix.com/GPX/1/1 http://www.topografix.com/GPX/1/1/gpx.xsd" version="1.1" xmlns="http://www.topografix.com/GPX/1/1" xmlns:xsi="http://www.w3.org/2001/XMLSchema-instance"><metadata><bounds maxlat="33.1330163" maxlon="132.6632874" minlat="33.1092402" minlon="132.6204715"/></metadata>  <wpt lat="33.1093173" lon="132.663091">
    <ele>1106.79</ele>
    <name>大黒山</name>
    <desc>Peak detected at 1107m (prominence: 746m)</desc>
    <sym>Summit</sym>
  </wpt>
  <wpt lat="33.1325116" lon="132.6372183">
    <ele>1098.249041559603</ele>
    <name>Peak (1098m)</name>
    <desc>Peak detected at 1098m (prominence: 403m)</desc>
    <sym>Summit</sym>
  </wpt>
  <wpt lat="33.1234747" lon="132.6207282">
    <ele>1021.9555481598042</ele>
    <name>譲ヶ葉森</name>
    <desc>Peak detected at 1022m (prominence: 88m)</desc>
    <sym>Summit</sym>
  </wpt>
  <wpt lat="33.1177367" lon="132.6239642">
    <ele>863.4266666666667</ele>
    <name>Peak (863m)</name>
    <desc>Peak detected at 863m (prominence: 54m)</desc>
    <sym>Summit</sym>
  </wpt>
<trk><name>大黒山・譲ヶ葉森</name><number>1</number><trkseg><trkpt lat="33.1171184" lon="132.6343359"><ele>358.36</ele><time>2024-02-16T20:38:40Z</time></trkpt><trkpt lat="33.1172978" lon="132.6343978"><ele>359.915</ele><time>2024-02-16T20:39:03Z</time></trkpt><trkpt lat="33.1174492" lon="132.6342725"><ele>360.9533333333334</ele><time>2024-02-16T20:39:24Z</time></trkpt><trkpt lat="33.1176417" lon="132.6342815"><ele>361.3433333333333</ele><time>2024-02-16T20:39:37Z</time></trkpt><trkpt lat="33.1177424" lon="132.6341001"><ele>362.3866666666667</ele><time>2024-02-16T20:39:50Z</time></trkpt><trkpt lat="33.1179214" lon="132.6340456"><ele>362.4533333333334</ele><time>2024-02-16T20:40:04Z</time></trkpt><trkpt lat="33.1180192" lon="132.6338623"><ele>365.2166666666667</ele><time>2024-02-16T20:40:25Z</time></trkpt><trkpt lat="33.1178442" lon="132.6337681"><ele>367.41333333333336</ele><time>2024-02-16T20:40:49Z</time></trkpt><trkpt lat="33.1177266" lon="132.6335829"><ele>371.05</ele><time>2024-02-16T20:41:03Z</time></trkpt><trkpt lat="33.1176255" lon="132.6333984"><ele>373.1666666666667</ele><time>2024-02-16T20:41:16Z</time></trkpt><trkpt lat="33.1177923" lon="132.6332871"><ele>375.3666666666666</ele><time>2024-02-16T20:41:55Z</time></trkpt><trkpt lat="33.1179664" lon="132.6332297"><ele>376.49666666666667</ele><time>2024-02-16T20:42:09Z</time></trkpt><trkpt lat="33.1181521" lon="132.6332096"><ele>378.02</ele><time>2024-02-16T20:42:24Z</time></trkpt><trkpt lat="33.1183349" lon="132.6332208"><ele>378.60999999999996</ele><time>2024-02-16T20:42:39Z</time></trkpt><trkpt lat="33.1185164" lon="132.6331543"><ele>380.72333333333336</ele><time>2024-02-16T20:42:55Z</time></trkpt><trkpt lat="33.1186932" lon="132.6330885"><ele>382.81</ele><time>2024-02-16T20:43:10Z</time></trkpt><trkpt lat="33.1188823" lon="132.6331166"><ele>384.51</ele><time>2024-02-16T20:43:25Z</time></trkpt><trkpt lat="33.1190994" lon="132.6331419"><ele>384.52333333333337</ele><time>2024-02-16T20:44:13Z</time></trkpt><trkpt lat="33.1192828" lon="132.6331816"><ele>379.78016234893147</ele><time>2024-02-16T20:44:27Z</time></trkpt><trkpt lat="33.1193613" lon="132.63338"><ele>375.1392528298665</ele><time>2024-02-16T20:44:44Z</time></trkpt><trkpt lat="33.1193893" lon="132.6335968"><ele>371.0836372356982</ele><time>2024-02-16T20:45:00Z</time></trkpt><trkpt lat="33.1193216" lon="132.6337984"><ele>371.6805648094673</ele><time>2024-02-16T20:45:15Z</time></trkpt><trkpt lat="33.1192203" lon="132.6339764"><ele>372.6913754979823</ele><time>2024-02-16T20:45:28Z</time></trkpt><trkpt lat="33.1191147" lon="132.6341539"><ele>379.81699109215054</ele><time>2024-02-16T20:45:42Z</time></trkpt><trkpt lat="33.1189942" lon="132.6343217"><ele>386.46656783611667</ele><time>2024-02-16T20:45:57Z</time></trkpt><trkpt lat="33.1189095" lon="132.6345202"><ele>395.6233333333333</ele><time>2024-02-16T20:46:11Z</time></trkpt><trkpt lat="33.1187615" lon="132.6346454"><ele>396.8633333333334</ele><time>2024-02-16T20:46:24Z</time></trkpt><trkpt lat="33.1185743" lon="132.634647"><ele>397.8500000000001</ele><time>2024-02-16T20:46:37Z</time></trkpt><trkpt lat="33.1183888" lon="132.6346459"><ele>395.5466666666667</ele><time>2024-02-16T20:46:50Z</time></trkpt><trkpt lat="33.1182824" lon="132.6348276"><ele>395.3233333333333</ele><time>2024-02-16T20:47:06Z</time></trkpt><trkpt lat="33.1182024" lon="132.6350239"><ele>397.26666666666665</ele><time>2024-02-16T20:47:20Z</time></trkpt><trkpt lat="33.118071" lon="132.6351826"><ele>398.89000000000004</ele><time>2024-02-16T20:47:34Z</time></trkpt><trkpt lat="33.1179235" lon="132.6353086"><ele>400.7033333333334</ele><time>2024-02-16T20:47:47Z</time></trkpt><trkpt lat="33.1177835" lon="132.6354494"><ele>399.5666666666666</ele><time>2024-02-16T20:48:01Z</time></trkpt><trkpt lat="33.1176278" lon="132.6355666"><ele>398.72333333333336</ele><time>2024-02-16T20:48:15Z</time></trkpt><trkpt lat="33.1177291" lon="132.6357439"><ele>398.17</ele><time>2024-02-16T20:48:37Z</time></trkpt><trkpt lat="33.1178925" lon="132.6358472"><ele>400.66</ele><time>2024-02-16T20:48:48Z</time></trkpt><trkpt lat="33.1180146" lon="132.6360098"><ele>402.2333333333333</ele><time>2024-02-16T20:49:03Z</time></trkpt><trkpt lat="33.1180096" lon="132.6362269"><ele>402.2733333333333</ele><time>2024-02-16T20:49:18Z</time></trkpt><trkpt lat="33.1180522" lon="132.6364427"><ele>400.4866666666667</ele><time>2024-02-16T20:49:33Z</time></trkpt><trkpt lat="33.118013" lon="132.6366565"><ele>400.71</ele><time>2024-02-16T20:49:47Z</time></trkpt><trkpt lat="33.1178634" lon="132.6367985"><ele>399.8866666666666</ele><time>2024-02-16T20:50:02Z</time></trkpt><trkpt lat="33.1177053" lon="132.6369036"><ele>397.84666666666664</ele><time>2024-02-16T20:50:16Z</time></trkpt><trkpt lat="33.1175986" lon="132.637087"><ele>395.38000000000005</ele><time>2024-02-16T20:50:32Z</time></trkpt><trkpt lat="33.117721" lon="132.6372509"><ele>395.74333333333334</ele><time>2024-02-16T20:51:24Z</time></trkpt><trkpt lat="33.1177971" lon="132.6370377"><ele>397.0133333333333</ele><time>2024-02-16T20:51:41Z</time></trkpt><trkpt lat="33.1179642" lon="132.6369325"><ele>398.25</ele><time>2024-02-16T20:51:57Z</time></trkpt><trkpt lat="33.1181323" lon="132.6368486"><ele>400.03999999999996</ele><time>2024-02-16T20:52:11Z</time></trkpt><trkpt lat="33.1182456" lon="132.6366765"><ele>403.5</ele><time>2024-02-16T20:52:23Z</time></trkpt><trkpt lat="33.1182442" lon="132.6364606"><ele>406.55333333333334</ele><time>2024-02-16T20:52:35Z</time></trkpt><trkpt lat="33.1182125" lon="132.6362327"><ele>406.82</ele><time>2024-02-16T20:52:48Z</time></trkpt><trkpt lat="33.1181548" lon="132.6360275"><ele>405.7533333333334</ele><time>2024-02-16T20:53:01Z</time></trkpt><trkpt lat="33.1180373" lon="132.6358585"><ele>406.4466666666667</ele><time>2024-02-16T20:53:15Z</time></trkpt><trkpt lat="33.1179083" lon="132.6357006"><ele>408.26666666666665</ele><time>2024-02-16T20:53:28Z</time></trkpt><trkpt lat="33.1179979" lon="132.6355121"><ele>410.73</ele><time>2024-02-16T20:53:42Z</time></trkpt><trkpt lat="33.1181696" lon="132.635412"><ele>412.56333333333333</ele><time>2024-02-16T20:53:57Z</time></trkpt><trkpt lat="33.1183458" lon="132.6353572"><ele>414.2366666666667</ele><time>2024-02-16T20:54:10Z</time></trkpt><trkpt lat="33.1185023" lon="132.6352471"><ele>415.0</ele><time>2024-02-16T20:54:24Z</time></trkpt><trkpt lat="33.1186958" lon="132.6352691"><ele>414.92666666666673</ele><time>2024-02-16T20:54:40Z</time></trkpt><trkpt lat="33.1188787" lon="132.6352643"><ele>414.60666666666674</ele><time>2024-02-16T20:54:55Z</time></trkpt><trkpt lat="33.1190599" lon="132.6353253"><ele>415.25</ele><time>2024-02-16T20:55:09Z</time></trkpt><trkpt lat="33.1192278" lon="132.6352264"><ele>415.12696621948425</ele><time>2024-02-16T20:55:24Z</time></trkpt><trkpt lat="33.119251" lon="132.6349996"><ele>415.1951677169981</ele><time>2024-02-16T20:55:38Z</time></trkpt><trkpt lat="33.1192318" lon="132.6347864"><ele>415.5005300827382</ele><time>2024-02-16T20:55:52Z</time></trkpt><trkpt lat="33.1193894" lon="132.6346663"><ele>416.8199013152325</ele><time>2024-02-16T20:56:09Z</time></trkpt><trkpt lat="33.1195655" lon="132.6345802"><ele>418.26672718988243</ele><time>2024-02-16T20:56:26Z</time></trkpt><trkpt lat="33.1196063" lon="132.6343676"><ele>419.4326648802664</ele><time>2024-02-16T20:56:39Z</time></trkpt><trkpt lat="33.1197033" lon="132.6341869"><ele>420.47441146331266</ele><time>2024-02-16T20:56:53Z</time></trkpt><trkpt lat="33.1198904" lon="132.634192"><ele>421.81319753760204</ele><time>2024-02-16T20:57:10Z</time></trkpt><trkpt lat="33.1200569" lon="132.6342893"><ele>423.0128584581715</ele><time>2024-02-16T20:57:26Z</time></trkpt><trkpt lat="33.1202428" lon="132.6343083"><ele>424.3086719120322</ele><time>2024-02-16T20:57:43Z</time></trkpt><trkpt lat="33.1204324" lon="132.634334"><ele>425.38067528914763</ele><time>2024-02-16T20:57:58Z</time></trkpt><trkpt lat="33.1206002" lon="132.6342545"><ele>426.80083643056486</ele><time>2024-02-16T20:58:11Z</time></trkpt><trkpt lat="33.1206999" lon="132.6340692"><ele>427.72112037865185</ele><time>2024-02-16T20:58:24Z</time></trkpt><trkpt lat="33.1207066" lon="132.6338547"><ele>429.0117272533574</ele><time>2024-02-16T20:58:35Z</time></trkpt><trkpt lat="33.120884" lon="132.6337812"><ele>429.3980995114435</ele><time>2024-02-16T20:58:49Z</time></trkpt><trkpt lat="33.1210645" lon="132.6337808"><ele>430.56664861262317</ele><time>2024-02-16T20:59:02Z</time></trkpt><trkpt lat="33.1212388" lon="132.6336772"><ele>431.2304336960138</ele><time>2024-02-16T20:59:18Z</time></trkpt><trkpt lat="33.1214112" lon="132.6336069"><ele>432.3145578924532</ele><time>2024-02-16T20:59:34Z</time></trkpt><trkpt lat="33.1215935" lon="132.633603"><ele>433.11680564897733</ele><time>2024-02-16T20:59:51Z</time></trkpt><trkpt lat="33.1217667" lon="132.63352"><ele>434.35444226041835</ele><time>2024-02-16T21:00:04Z</time></trkpt><trkpt lat="33.1219174" lon="132.6336437"><ele>436.0059697718314</ele><time>2024-02-16T21:00:17Z</time></trkpt><trkpt lat="33.1220723" lon="132.633763"><ele>438.5120408623418</ele><time>2024-02-16T21:00:33Z</time></trkpt><trkpt lat="33.1218907" lon="132.6337316"><ele>441.0205343912683</ele><time>2024-02-16T21:01:05Z</time></trkpt><trkpt lat="33.1217221" lon="132.6336408"><ele>443.61404115382703</ele><time>2024-02-16T21:01:20Z</time></trkpt><trkpt lat="33.1215959" lon="132.6338023"><ele>444.6540774340576</ele><time>2024-02-16T21:01:36Z</time></trkpt><trkpt lat="33.1214176" lon="132.6338437"><ele>445.6765281320841</ele><time>2024-02-16T21:01:55Z</time></trkpt><trkpt lat="33.1212466" lon="132.6339123"><ele>446.66018604609576</ele><time>2024-02-16T21:02:11Z</time></trkpt><trkpt lat="33.1210692" lon="132.6339667"><ele>448.1744613625953</ele><time>2024-02-16T21:02:25Z</time></trkpt><trkpt lat="33.1209229" lon="132.6340938"><ele>449.4931821164166</ele><time>2024-02-16T21:02:40Z</time></trkpt><trkpt lat="33.1209116" lon="132.6343159"><ele>450.3212672393579</ele><time>2024-02-16T21:02:57Z</time></trkpt><trkpt lat="33.1209311" lon="132.6345368"><ele>451.67989115793716</ele><time>2024-02-16T21:03:13Z</time></trkpt><trkpt lat="33.1207772" lon="132.6346515"><ele>452.78765599309327</ele><time>2024-02-16T21:03:31Z</time></trkpt><trkpt lat="33.1206131" lon="132.6345607"><ele>454.4845972341298</ele><time>2024-02-16T21:03:45Z</time></trkpt><trkpt lat="33.1204289" lon="132.6345607"><ele>456.06080553079283</ele><time>2024-02-16T21:04:00Z</time></trkpt><trkpt lat="33.1202499" lon="132.6346201"><ele>458.4703580396296</ele><time>2024-02-16T21:04:15Z</time></trkpt><trkpt lat="33.1200786" lon="132.6346982"><ele>459.60402231355846</ele><time>2024-02-16T21:04:30Z</time></trkpt><trkpt lat="33.1200092" lon="132.6349019"><ele>461.199355290838</ele><time>2024-02-16T21:04:48Z</time></trkpt><trkpt lat="33.1199966" lon="132.6351287"><ele>461.684773441649</ele><time>2024-02-16T21:05:06Z</time></trkpt><trkpt lat="33.1199335" lon="132.6353359"><ele>463.57115686232925</ele><time>2024-02-16T21:05:24Z</time></trkpt><trkpt lat="33.1199284" lon="132.635557"><ele>465.05596085706037</ele><time>2024-02-16T21:05:40Z</time></trkpt><trkpt lat="33.119993" lon="132.6357637"><ele>466.75787003058696</ele><time>2024-02-16T21:05:54Z</time></trkpt><trkpt lat="33.1199681" lon="132.6359821"><ele>468.270078295886</ele><time>2024-02-16T21:06:09Z</time></trkpt><trkpt lat="33.1197933" lon="132.6360715"><ele>468.76111484929885</ele><time>2024-02-16T21:06:22Z</time></trkpt><trkpt lat="33.1196095" lon="132.6361061"><ele>469.985831714931</ele><time>2024-02-16T21:06:35Z</time></trkpt><trkpt lat="33.119484" lon="132.6362622"><ele>470.16603060946005</ele><time>2024-02-16T21:06:50Z</time></trkpt><trkpt lat="33.1194283" lon="132.6364724"><ele>471.4816753914422</ele><time>2024-02-16T21:07:05Z</time></trkpt><trkpt lat="33.1194881" lon="132.6366764"><ele>472.97607700182954</ele><time>2024-02-16T21:07:19Z</time></trkpt><trkpt lat="33.1196413" lon="132.636799"><ele>474.914017354693</ele><time>2024-02-16T21:07:39Z</time></trkpt><trkpt lat="33.119762" lon="132.6369614"><ele>476.16620185026505</ele><time>2024-02-16T21:07:55Z</time></trkpt><trkpt lat="33.1199063" lon="132.6370902"><ele>477.9165609854337</ele><time>2024-02-16T21:08:27Z</time></trkpt><trkpt lat="33.1200038" lon="132.6372719"><ele>480.38313110218274</ele><time>2024-02-16T21:08:44Z</time></trkpt><trkpt lat="33.120191" lon="132.6372915"><ele>482.36231746539625</ele><time>2024-02-16T21:08:59Z</time></trkpt><trkpt lat="33.1203674" lon="132.6373469"><ele>484.48843966169756</ele><time>2024-02-16T21:09:15Z</time></trkpt><trkpt lat="33.120512" lon="132.6372149"><ele>486.1931898705047</ele><time>2024-02-16T21:09:32Z</time></trkpt><trkpt lat="33.1203885" lon="132.637051"><ele>488.31817553578793</ele><time>2024-02-16T21:09:46Z</time></trkpt><trkpt lat="33.120218" lon="132.6369787"><ele>489.7014676993872</ele><time>2024-02-16T21:10:02Z</time></trkpt><trkpt lat="33.1200786" lon="132.6368341"><ele>490.5542191490113</ele><time>2024-02-16T21:10:20Z</time></trkpt><trkpt lat="33.1199163" lon="132.6367308"><ele>492.1183497221197</ele><time>2024-02-16T21:10:40Z</time></trkpt><trkpt lat="33.1198514" lon="132.6365255"><ele>493.6737120405127</ele><time>2024-02-16T21:10:59Z</time></trkpt><trkpt lat="33.120031" lon="132.6365463"><ele>495.98065677457424</ele><time>2024-02-16T21:11:13Z</time></trkpt><trkpt lat="33.1202069" lon="132.6366288"><ele>497.9393843448917</ele><time>2024-02-16T21:11:29Z</time></trkpt><trkpt lat="33.1203091" lon="132.6364321"><ele>498.9317135520541</ele><time>2024-02-16T21:11:46Z</time></trkpt><trkpt lat="33.1203171" lon="132.6362076"><ele>499.59543982157464</ele><time>2024-02-16T21:11:59Z</time></trkpt><trkpt lat="33.120356" lon="132.6359951"><ele>500.5868666666974</ele><time>2024-02-16T21:12:12Z</time></trkpt><trkpt lat="33.1203554" lon="132.6357751"><ele>502.26344934310055</ele><time>2024-02-16T21:12:29Z</time></trkpt><trkpt lat="33.1203249" lon="132.6355611"><ele>503.73429850729286</ele><time>2024-02-16T21:12:46Z</time></trkpt><trkpt lat="33.1205102" lon="132.6355621"><ele>504.72867448689135</ele><time>2024-02-16T21:13:03Z</time></trkpt><trkpt lat="33.1206566" lon="132.6356891"><ele>505.2486581089665</ele><time>2024-02-16T21:13:19Z</time></trkpt><trkpt lat="33.1207902" lon="132.635543"><ele>505.6670989333821</ele><time>2024-02-16T21:13:34Z</time></trkpt><trkpt lat="33.1209654" lon="132.6354909"><ele>506.78329111106177</ele><time>2024-02-16T21:13:48Z</time></trkpt><trkpt lat="33.1211462" lon="132.6354945"><ele>507.81895122493825</ele><time>2024-02-16T21:14:01Z</time></trkpt><trkpt lat="33.1213267" lon="132.6355128"><ele>508.2050160229057</ele><time>2024-02-16T21:14:16Z</time></trkpt><trkpt lat="33.1214585" lon="132.6353648"><ele>508.51635239054866</ele><time>2024-02-16T21:14:31Z</time></trkpt><trkpt lat="33.1214585" lon="132.6351462"><ele>509.2953030485483</ele><time>2024-02-16T21:14:43Z</time></trkpt><trkpt lat="33.1215382" lon="132.6349398"><ele>510.67374783639434</ele><time>2024-02-16T21:15:00Z</time></trkpt><trkpt lat="33.1216403" lon="132.6351235"><ele>512.7934312759058</ele><time>2024-02-16T21:15:26Z</time></trkpt><trkpt lat="33.1216699" lon="132.6353497"><ele>513.6948173803056</ele><time>2024-02-16T21:15:44Z</time></trkpt><trkpt lat="33.1216187" lon="132.635565"><ele>515.1169396680613</ele><time>2024-02-16T21:16:00Z</time></trkpt><trkpt lat="33.1214694" lon="132.6356867"><ele>515.2203856631231</ele><time>2024-02-16T21:16:30Z</time></trkpt><trkpt lat="33.1212919" lon="132.6356215"><ele>515.6623275138954</ele><time>2024-02-16T21:16:40Z</time></trkpt><trkpt lat="33.1211106" lon="132.6356008"><ele>516.6626144472227</ele><time>2024-02-16T21:16:50Z</time></trkpt><trkpt lat="33.1209266" lon="132.6355388"><ele>517.9787332857942</ele><time>2024-02-16T21:17:01Z</time></trkpt><trkpt lat="33.1208032" lon="132.6357103"><ele>518.9834522172334</ele><time>2024-02-16T21:17:16Z</time></trkpt><trkpt lat="33.1207598" lon="132.6359204"><ele>520.2547760481181</ele><time>2024-02-16T21:17:31Z</time></trkpt><trkpt lat="33.1206972" lon="132.6361276"><ele>520.5814737368626</ele><time>2024-02-16T21:17:46Z</time></trkpt><trkpt lat="33.1206369" lon="132.636339"><ele>522.6294585244149</ele><time>2024-02-16T21:17:59Z</time></trkpt><trkpt lat="33.1205141" lon="132.6365035"><ele>523.467316474566</ele><time>2024-02-16T21:18:13Z</time></trkpt><trkpt lat="33.1204696" lon="132.6367241"><ele>525.8962423100879</ele><time>2024-02-16T21:18:29Z</time></trkpt><trkpt lat="33.120651" lon="132.6367075"><ele>526.3517309823529</ele><time>2024-02-16T21:18:45Z</time></trkpt><trkpt lat="33.1208058" lon="132.6368241"><ele>528.256266626402</ele><time>2024-02-16T21:18:59Z</time></trkpt><trkpt lat="33.1208939" lon="132.6370196"><ele>528.4295238543137</ele><time>2024-02-16T21:19:12Z</time></trkpt><trkpt lat="33.12096" lon="132.6372331"><ele>530.1983553361198</ele><time>2024-02-16T21:19:24Z</time></trkpt><trkpt lat="33.1209668" lon="132.6374511"><ele>530.4887020982721</ele><time>2024-02-16T21:19:40Z</time></trkpt><trkpt lat="33.1208734" lon="132.637644"><ele>531.5625554278633</ele><time>2024-02-16T21:20:14Z</time></trkpt><trkpt lat="33.1209665" lon="132.6378298"><ele>532.4775910558723</ele><time>2024-02-16T21:20:39Z</time></trkpt><trkpt lat="33.1211558" lon="132.637801"><ele>533.8062239587927</ele><time>2024-02-16T21:20:50Z</time></trkpt><trkpt lat="33.1213456" lon="132.6378128"><ele>535.2859319285907</ele><time>2024-02-16T21:21:04Z</time></trkpt><trkpt lat="33.1215155" lon="132.6378956"><ele>537.0505921568233</ele><time>2024-02-16T21:21:18Z</time></trkpt><trkpt lat="33.1216902" lon="132.6379559"><ele>539.1348994352521</ele><time>2024-02-16T21:21:33Z</time></trkpt><trkpt lat="33.1218771" lon="132.6379244"><ele>540.2445791240436</ele><time>2024-02-16T21:21:47Z</time></trkpt><trkpt lat="33.1220561" lon="132.6379661"><ele>540.9316586621115</ele><time>2024-02-16T21:22:33Z</time></trkpt><trkpt lat="33.1221877" lon="132.6381392"><ele>541.4858537416193</ele><time>2024-02-16T21:22:48Z</time></trkpt><trkpt lat="33.1223523" lon="132.6382477"><ele>542.3910940550536</ele><time>2024-02-16T21:23:04Z</time></trkpt><trkpt lat="33.1225314" lon="132.638275"><ele>544.0354317912908</ele><time>2024-02-16T21:23:19Z</time></trkpt><trkpt lat="33.1226202" lon="132.6384735"><ele>544.202038098238</ele><time>2024-02-16T21:23:38Z</time></trkpt><trkpt lat="33.122506" lon="132.63864"><ele>546.064810603909</ele><time>2024-02-16T21:23:49Z</time></trkpt><trkpt lat="33.1224396" lon="132.6388401"><ele>546.4662016677195</ele><time>2024-02-16T21:24:02Z</time></trkpt><trkpt lat="33.122388" lon="132.6390628"><ele>548.5741482036775</ele><time>2024-02-16T21:24:20Z</time></trkpt><trkpt lat="33.1222586" lon="132.6392332"><ele>549.6450946471664</ele><time>2024-02-16T21:24:45Z</time></trkpt><trkpt lat="33.1221321" lon="132.6394021"><ele>551.4083075510314</ele><time>2024-02-16T21:25:00Z</time></trkpt><trkpt lat="33.1220081" lon="132.6395656"><ele>552.5017390229606</ele><time>2024-02-16T21:25:16Z</time></trkpt><trkpt lat="33.1218207" lon="132.639585"><ele>553.1982534182431</ele><time>2024-02-16T21:25:30Z</time></trkpt><trkpt lat="33.1216362" lon="132.6395534"><ele>554.1270002998934</ele><time>2024-02-16T21:25:44Z</time></trkpt><trkpt lat="33.121564" lon="132.6397581"><ele>555.2607872524314</ele><time>2024-02-16T21:26:02Z</time></trkpt><trkpt lat="33.121541" lon="132.6399791"><ele>556.59691726653</ele><time>2024-02-16T21:26:28Z</time></trkpt><trkpt lat="33.1213966" lon="132.6401131"><ele>557.8867283412495</ele><time>2024-02-16T21:26:42Z</time></trkpt><trkpt lat="33.1212329" lon="132.6402194"><ele>559.191988374682</ele><time>2024-02-16T21:26:58Z</time></trkpt><trkpt lat="33.1210517" lon="132.6402483"><ele>560.9406805285759</ele><time>2024-02-16T21:27:12Z</time></trkpt><trkpt lat="33.1208706" lon="132.6402227"><ele>563.1065211673912</ele><time>2024-02-16T21:27:27Z</time></trkpt><trkpt lat="33.1207163" lon="132.6400986"><ele>564.4132354811674</ele><time>2024-02-16T21:27:41Z</time></trkpt><trkpt lat="33.1205326" lon="132.6400903"><ele>565.6737934259364</ele><time>2024-02-16T21:27:58Z</time></trkpt><trkpt lat="33.1204487" lon="132.6402875"><ele>566.309601949122</ele><time>2024-02-16T21:28:15Z</time></trkpt><trkpt lat="33.1204537" lon="132.6405028"><ele>567.9823546325752</ele><time>2024-02-16T21:28:29Z</time></trkpt><trkpt lat="33.1204026" lon="132.6407187"><ele>569.2209952860253</ele><time>2024-02-16T21:28:45Z</time></trkpt><trkpt lat="33.120324" lon="132.6409187"><ele>570.7213159810925</ele><time>2024-02-16T21:28:59Z</time></trkpt><trkpt lat="33.1202257" lon="132.6411171"><ele>571.2424001085128</ele><time>2024-02-16T21:29:13Z</time></trkpt><trkpt lat="33.1200927" lon="132.6412648"><ele>572.2332759134316</ele><time>2024-02-16T21:29:28Z</time></trkpt><trkpt lat="33.1199645" lon="132.6414275"><ele>573.1719568808136</ele><time>2024-02-16T21:29:44Z</time></trkpt><trkpt lat="33.1200237" lon="132.6416438"><ele>574.703845482631</ele><time>2024-02-16T21:30:05Z</time></trkpt><trkpt lat="33.1200744" lon="132.6418496"><ele>576.282284313368</ele><time>2024-02-16T21:30:18Z</time></trkpt><trkpt lat="33.1201809" lon="132.6420238"><ele>577.9765554340756</ele><time>2024-02-16T21:30:40Z</time></trkpt><trkpt lat="33.1201615" lon="132.6422419"><ele>579.6103490866717</ele><time>2024-02-16T21:30:53Z</time></trkpt><trkpt lat="33.1200682" lon="132.642436"><ele>581.2187000029245</ele><time>2024-02-16T21:31:04Z</time></trkpt><trkpt lat="33.1200847" lon="132.6426496"><ele>582.5812234727678</ele><time>2024-02-16T21:31:17Z</time></trkpt><trkpt lat="33.1199976" lon="132.6428374"><ele>583.7949822611413</ele><time>2024-02-16T21:31:31Z</time></trkpt><trkpt lat="33.1198145" lon="132.6428398"><ele>584.5994914240295</ele><time>2024-02-16T21:31:47Z</time></trkpt><trkpt lat="33.1196268" lon="132.6428795"><ele>585.4722115695866</ele><time>2024-02-16T21:32:04Z</time></trkpt><trkpt lat="33.1194432" lon="132.6428995"><ele>586.7206966331836</ele><time>2024-02-16T21:32:19Z</time></trkpt><trkpt lat="33.1192516" lon="132.6429003"><ele>587.9782370121205</ele><time>2024-02-16T21:32:35Z</time></trkpt><trkpt lat="33.1192217" lon="132.6431272"><ele>588.6001546101639</ele><time>2024-02-16T21:33:01Z</time></trkpt><trkpt lat="33.1191527" lon="132.6433353"><ele>589.0283559651119</ele><time>2024-02-16T21:33:25Z</time></trkpt><trkpt lat="33.1190516" lon="132.6435172"><ele>588.3615522250166</ele><time>2024-02-16T21:36:44Z</time></trkpt><trkpt lat="33.118871" lon="132.6435388"><ele>592.1749265743791</ele><time>2024-02-16T21:37:24Z</time></trkpt><trkpt lat="33.1186837" lon="132.6434897"><ele>595.8433333333334</ele><time>2024-02-16T21:37:52Z</time></trkpt><trkpt lat="33.1185673" lon="132.6436665"><ele>604.4133333333333</ele><time>2024-02-16T21:40:16Z</time></trkpt><trkpt lat="33.1184347" lon="132.643815"><ele>612.2466666666666</ele><time>2024-02-16T21:41:02Z</time></trkpt><trkpt lat="33.1182542" lon="132.6438386"><ele>618.3033333333333</ele><time>2024-02-16T21:41:55Z</time></trkpt><trkpt lat="33.1180712" lon="132.6438629"><ele>620.14</ele><time>2024-02-16T21:43:07Z</time></trkpt><trkpt lat="33.1179613" lon="132.6440451"><ele>622.9733333333334</ele><time>2024-02-16T21:44:37Z</time></trkpt><trkpt lat="33.1177905" lon="132.644145"><ele>630.5533333333333</ele><time>2024-02-16T21:45:44Z</time></trkpt><trkpt lat="33.1176162" lon="132.6440887"><ele>635.2199999999999</ele><time>2024-02-16T21:46:46Z</time></trkpt><trkpt lat="33.117454" lon="132.6441911"><ele>638.27</ele><time>2024-02-16T21:48:12Z</time></trkpt><trkpt lat="33.1173448" lon="132.6443852"><ele>646.8766666666667</ele><time>2024-02-16T21:49:29Z</time></trkpt><trkpt lat="33.1171654" lon="132.6443214"><ele>654.2466666666667</ele><time>2024-02-16T21:52:49Z</time></trkpt><trkpt lat="33.1169775" lon="132.6441986"><ele>663.6999999999999</ele><time>2024-02-16T22:07:54Z</time></trkpt><trkpt lat="33.1167994" lon="132.6442702"><ele>671.9599999999999</ele><time>2024-02-16T22:08:09Z</time></trkpt><trkpt lat="33.1166167" lon="132.6442951"><ele>695.1033333333334</ele><time>2024-02-16T22:10:52Z</time></trkpt><trkpt lat="33.1164306" lon="132.6442322"><ele>718.2433333333333</ele><time>2024-02-16T22:24:40Z</time></trkpt><trkpt lat="33.1162789" lon="132.6441129"><ele>736.8833333333333</ele><time>2024-02-16T22:27:07Z</time></trkpt><trkpt lat="33.116126" lon="132.6442317"><ele>748.9633333333333</ele><time>2024-02-16T22:28:32Z</time></trkpt><trkpt lat="33.1160552" lon="132.6444294"><ele>758.43</ele><time>2024-02-16T22:29:32Z</time></trkpt><trkpt lat="33.1160389" lon="132.6446499"><ele>768.6466666666666</ele><time>2024-02-16T22:30:23Z</time></trkpt><trkpt lat="33.1160385" lon="132.6448682"><ele>777.6033333333335</ele><time>2024-02-16T22:31:19Z</time></trkpt><trkpt lat="33.1160198" lon="132.645082"><ele>787.3233333333334</ele><time>2024-02-16T22:32:44Z</time></trkpt><trkpt lat="33.1160218" lon="132.6452993"><ele>795.6733333333333</ele><time>2024-02-16T22:38:33Z</time></trkpt><trkpt lat="33.116031" lon="132.6455149"><ele>805.5466666666666</ele><time>2024-02-16T22:40:21Z</time></trkpt><trkpt lat="33.116087" lon="132.6457186"><ele>816.0533333333333</ele><time>2024-02-16T22:42:26Z</time></trkpt><trkpt lat="33.1161064" lon="132.6459407"><ele>830.1266666666667</ele><time>2024-02-16T22:44:32Z</time></trkpt><trkpt lat="33.1161847" lon="132.646137"><ele>843.5233333333334</ele><time>2024-02-16T22:51:11Z</time></trkpt><trkpt lat="33.1161212" lon="132.6463429"><ele>854.2533333333334</ele><time>2024-02-16T22:52:39Z</time></trkpt><trkpt lat="33.1159801" lon="132.6464778"><ele>859.1266666666667</ele><time>2024-02-16T22:54:21Z</time></trkpt><trkpt lat="33.1158515" lon="132.646637"><ele>859.9699999999999</ele><time>2024-02-16T22:55:22Z</time></trkpt><trkpt lat="33.1157357" lon="132.6468062"><ele>860.29</ele><time>2024-02-16T22:56:09Z</time></trkpt><trkpt lat="33.1156737" lon="132.6470109"><ele>860.7433333333333</ele><time>2024-02-16T22:57:25Z</time></trkpt><trkpt lat="33.115552" lon="132.6471714"><ele>862.46</ele><time>2024-02-16T22:57:53Z</time></trkpt><trkpt lat="33.115421" lon="132.6473386"><ele>863.4533333333333</ele><time>2024-02-16T22:58:26Z</time></trkpt><trkpt lat="33.1152831" lon="132.6474893"><ele>865.63</ele><time>2024-02-16T22:58:43Z</time></trkpt><trkpt lat="33.1151849" lon="132.647677"><ele>869.9499999999999</ele><time>2024-02-16T22:59:09Z</time></trkpt><trkpt lat="33.1151667" lon="132.6478927"><ele>874.4966666666668</ele><time>2024-02-16T22:59:40Z</time></trkpt><trkpt lat="33.1150816" lon="132.6480851"><ele>878.5433333333334</ele><time>2024-02-16T23:00:11Z</time></trkpt><trkpt lat="33.1149966" lon="132.6482776"><ele>880.25</ele><time>2024-02-16T23:00:36Z</time></trkpt><trkpt lat="33.1148794" lon="132.6484439"><ele>883.2033333333333</ele><time>2024-02-16T23:01:03Z</time></trkpt><trkpt lat="33.1147946" lon="132.6486449"><ele>885.5866666666667</ele><time>2024-02-16T23:01:27Z</time></trkpt><trkpt lat="33.1146375" lon="132.6487577"><ele>888.2299999999999</ele><time>2024-02-16T23:01:52Z</time></trkpt><trkpt lat="33.1145212" lon="132.6489238"><ele>891.2166666666666</ele><time>2024-02-16T23:02:10Z</time></trkpt><trkpt lat="33.1144415" lon="132.6491222"><ele>894.62</ele><time>2024-02-16T23:02:29Z</time></trkpt><trkpt lat="33.1142878" lon="132.6492435"><ele>897.9166666666666</ele><time>2024-02-16T23:02:46Z</time></trkpt><trkpt lat="33.1141389" lon="132.649365"><ele>899.75</ele><time>2024-02-16T23:03:06Z</time></trkpt><trkpt lat="33.114053" lon="132.6495578"><ele>900.8966666666666</ele><time>2024-02-16T23:03:27Z</time></trkpt><trkpt lat="33.113959" lon="132.6497477"><ele>901.3866666666667</ele><time>2024-02-16T23:04:00Z</time></trkpt><trkpt lat="33.113808" lon="132.6498692"><ele>901.7966666666667</ele><time>2024-02-16T23:04:20Z</time></trkpt><trkpt lat="33.1136947" lon="132.6500465"><ele>901.25</ele><time>2024-02-16T23:04:38Z</time></trkpt><trkpt lat="33.1135579" lon="132.6502018"><ele>900.7933333333334</ele><time>2024-02-16T23:04:58Z</time></trkpt><trkpt lat="33.1134336" lon="132.6503707"><ele>901.1133333333332</ele><time>2024-02-16T23:05:16Z</time></trkpt><trkpt lat="33.1133044" lon="132.6505396"><ele>902.6466666666665</ele><time>2024-02-16T23:05:35Z</time></trkpt><trkpt lat="33.1132171" lon="132.6507292"><ele>903.9833333333332</ele><time>2024-02-16T23:05:51Z</time></trkpt><trkpt lat="33.1131386" lon="132.6509244"><ele>904.4766666666666</ele><time>2024-02-16T23:06:06Z</time></trkpt><trkpt lat="33.113009" lon="132.6510752"><ele>904.9066666666668</ele><time>2024-02-16T23:06:26Z</time></trkpt><trkpt lat="33.1128951" lon="132.6512536"><ele>905.77</ele><time>2024-02-16T23:06:48Z</time></trkpt><trkpt lat="33.1127926" lon="132.651432"><ele>906.3333333333334</ele><time>2024-02-16T23:07:25Z</time></trkpt><trkpt lat="33.1126872" lon="132.6516062"><ele>906.6566666666668</ele><time>2024-02-16T23:09:15Z</time></trkpt><trkpt lat="33.1125456" lon="132.651743"><ele>908.0300000000001</ele><time>2024-02-16T23:09:51Z</time></trkpt><trkpt lat="33.1124191" lon="132.6519018"><ele>910.85</ele><time>2024-02-16T23:10:26Z</time></trkpt><trkpt lat="33.1122992" lon="132.6520663"><ele>915.3533333333334</ele><time>2024-02-16T23:11:06Z</time></trkpt><trkpt lat="33.1121505" lon="132.6521877"><ele>920.32</ele><time>2024-02-16T23:11:43Z</time></trkpt><trkpt lat="33.1119793" lon="132.6522556"><ele>926.0366666666667</ele><time>2024-02-16T23:12:17Z</time></trkpt><trkpt lat="33.1118146" lon="132.6523553"><ele>932.09</ele><time>2024-02-16T23:13:02Z</time></trkpt><trkpt lat="33.1116784" lon="132.6525033"><ele>937.1266666666667</ele><time>2024-02-16T23:13:39Z</time></trkpt><trkpt lat="33.1115199" lon="132.6526097"><ele>942.7400000000001</ele><time>2024-02-16T23:14:10Z</time></trkpt><trkpt lat="33.1113791" lon="132.6527514"><ele>947.3566666666666</ele><time>2024-02-16T23:14:49Z</time></trkpt><trkpt lat="33.1112693" lon="132.6529294"><ele>951.7166666666667</ele><time>2024-02-16T23:15:22Z</time></trkpt><trkpt lat="33.1111456" lon="132.6530881"><ele>954.3133333333334</ele><time>2024-02-16T23:15:54Z</time></trkpt><trkpt lat="33.1110195" lon="132.6532484"><ele>956.8533333333334</ele><time>2024-02-16T23:16:23Z</time></trkpt><trkpt lat="33.1108438" lon="132.6532994"><ele>958.9266666666667</ele><time>2024-02-16T23:17:36Z</time></trkpt><trkpt lat="33.110788" lon="132.653504"><ele>961.0966666666667</ele><time>2024-02-16T23:18:19Z</time></trkpt><trkpt lat="33.1106729" lon="132.6536738"><ele>962.6333333333333</ele><time>2024-02-16T23:18:43Z</time></trkpt><trkpt lat="33.1105887" lon="132.6538638"><ele>964.32</ele><time>2024-02-16T23:19:00Z</time></trkpt><trkpt lat="33.110524" lon="132.654064"><ele>964.3466666666667</ele><time>2024-02-16T23:19:21Z</time></trkpt><trkpt lat="33.1105076" lon="132.6542805"><ele>963.6066666666667</ele><time>2024-02-16T23:19:42Z</time></trkpt><trkpt lat="33.1104411" lon="132.6544868"><ele>962.5566666666667</ele><time>2024-02-16T23:20:00Z</time></trkpt><trkpt lat="33.1104197" lon="132.6547078"><ele>962.3466666666667</ele><time>2024-02-16T23:20:16Z</time></trkpt><trkpt lat="33.1103718" lon="132.6549186"><ele>962.5133333333333</ele><time>2024-02-16T23:20:32Z</time></trkpt><trkpt lat="33.1103548" lon="132.655135"><ele>962.64</ele><time>2024-02-16T23:20:50Z</time></trkpt><trkpt lat="33.1103308" lon="132.6553497"><ele>963.35</ele><time>2024-02-16T23:21:12Z</time></trkpt><trkpt lat="33.110376" lon="132.6555586"><ele>965.6966666666667</ele><time>2024-02-16T23:24:59Z</time></trkpt><trkpt lat="33.1103559" lon="132.6557803"><ele>968.14</ele><time>2024-02-16T23:25:20Z</time></trkpt><trkpt lat="33.1103048" lon="132.6559888"><ele>970.2166666666667</ele><time>2024-02-16T23:25:42Z</time></trkpt><trkpt lat="33.1102964" lon="132.6562059"><ele>970.8333333333334</ele><time>2024-02-16T23:26:02Z</time></trkpt><trkpt lat="33.1102729" lon="132.6564204"><ele>972.4166666666666</ele><time>2024-02-16T23:26:47Z</time></trkpt><trkpt lat="33.11024" lon="132.6566331"><ele>975.41</ele><time>2024-02-16T23:27:18Z</time></trkpt><trkpt lat="33.1102593" lon="132.6568473"><ele>980.6766666666666</ele><time>2024-02-16T23:27:53Z</time></trkpt><trkpt lat="33.1102268" lon="132.6570638"><ele>986.7066666666666</ele><time>2024-02-16T23:28:22Z</time></trkpt><trkpt lat="33.1101835" lon="132.6572756"><ele>993.8366666666667</ele><time>2024-02-16T23:28:59Z</time></trkpt><trkpt lat="33.1101365" lon="132.6574839"><ele>999.79</ele><time>2024-02-16T23:29:24Z</time></trkpt><trkpt lat="33.1100719" lon="132.6576874"><ele>1005.9933333333333</ele><time>2024-02-16T23:29:54Z</time></trkpt><trkpt lat="33.1099937" lon="132.6578836"><ele>1010.4833333333332</ele><time>2024-02-16T23:30:22Z</time></trkpt><trkpt lat="33.1099118" lon="132.6580792"><ele>1014.82</ele><time>2024-02-16T23:30:51Z</time></trkpt><trkpt lat="33.1098229" lon="132.6582672"><ele>1018.1300000000001</ele><time>2024-02-16T23:31:29Z</time></trkpt><trkpt lat="33.1097574" lon="132.6584694"><ele>1021.3000000000001</ele><time>2024-02-16T23:32:07Z</time></trkpt><trkpt lat="33.1097403" lon="132.6586873"><ele>1024.2366666666667</ele><time>2024-02-16T23:32:35Z</time></trkpt><trkpt lat="33.109742" lon="132.6589019"><ele>1027.28</ele><time>2024-02-16T23:32:55Z</time></trkpt><trkpt lat="33.1097309" lon="132.6591223"><ele>1029.6066666666668</ele><time>2024-02-16T23:33:19Z</time></trkpt><trkpt lat="33.1097491" lon="132.6593418"><ele>1032.38</ele><time>2024-02-16T23:33:43Z</time></trkpt><trkpt lat="33.1097596" lon="132.6595648"><ele>1035.0600000000002</ele><time>2024-02-16T23:34:13Z</time></trkpt><trkpt lat="33.1097449" lon="132.6597809"><ele>1039.3633333333335</ele><time>2024-02-16T23:34:37Z</time></trkpt><trkpt lat="33.109802" lon="132.6599874"><ele>1043.92</ele><time>2024-02-16T23:35:10Z</time></trkpt><trkpt lat="33.1098231" lon="132.6602012"><ele>1049.53</ele><time>2024-02-16T23:35:37Z</time></trkpt><trkpt lat="33.1098119" lon="132.6604169"><ele>1054.4933333333333</ele><time>2024-02-16T23:36:06Z</time></trkpt><trkpt lat="33.1098446" lon="132.6606295"><ele>1059.1399999999999</ele><time>2024-02-16T23:36:35Z</time></trkpt><trkpt lat="33.1098464" lon="132.6608446"><ele>1062.4666666666665</ele><time>2024-02-16T23:37:00Z</time></trkpt><trkpt lat="33.1098648" lon="132.6610593"><ele>1066.3266666666666</ele><time>2024-02-16T23:37:45Z</time></trkpt><trkpt lat="33.109873" lon="132.6612784"><ele>1070.256666666667</ele><time>2024-02-16T23:38:15Z</time></trkpt><trkpt lat="33.1098509" lon="132.6614967"><ele>1075.34</ele><time>2024-02-16T23:38:44Z</time></trkpt><trkpt lat="33.1098291" lon="132.6617154"><ele>1080.4066666666668</ele><time>2024-02-16T23:39:13Z</time></trkpt><trkpt lat="33.1097971" lon="132.6619317"><ele>1085.5333333333333</ele><time>2024-02-16T23:40:04Z</time></trkpt><trkpt lat="33.1097601" lon="132.6621422"><ele>1089.6699999999998</ele><time>2024-02-16T23:40:36Z</time></trkpt><trkpt lat="33.1097154" lon="132.6623533"><ele>1093.79</ele><time>2024-02-16T23:41:10Z</time></trkpt><trkpt lat="33.1096234" lon="132.6625394"><ele>1097.716666666667</ele><time>2024-02-16T23:41:39Z</time></trkpt><trkpt lat="33.1095245" lon="132.662726"><ele>1101.0866666666668</ele><time>2024-02-16T23:42:09Z</time></trkpt><trkpt lat="33.1094377" lon="132.6629169"><ele>1103.6766666666665</ele><time>2024-02-16T23:42:39Z</time></trkpt><trkpt lat="33.1093506" lon="132.6631107"><ele>1105.27</ele><time>2024-02-16T23:43:01Z</time></trkpt><trkpt lat="33.1092402" lon="132.6632874"><ele>1106.5733333333335</ele><time>2024-02-16T23:43:21Z</time></trkpt><trkpt lat="33.1093173" lon="132.663091"><ele>1106.79</ele><time>2024-02-16T23:54:27Z</time></trkpt><trkpt lat="33.1093828" lon="132.6628871"><ele>1106.5033333333333</ele><time>2024-02-16T23:54:46Z</time></trkpt><trkpt lat="33.1094597" lon="132.6626894"><ele>1105.47</ele><time>2024-02-16T23:55:02Z</time></trkpt><trkpt lat="33.1095629" lon="132.6625039"><ele>1104.17</ele><time>2024-02-16T23:55:17Z</time></trkpt><trkpt lat="33.1096476" lon="132.66231"><ele>1101.8266666666666</ele><time>2024-02-16T23:55:33Z</time></trkpt><trkpt lat="33.1096628" lon="132.6620943"><ele>1098.5466666666666</ele><time>2024-02-16T23:55:50Z</time></trkpt><trkpt lat="33.1097252" lon="132.6618874"><ele>1094.39</ele><time>2024-02-16T23:56:09Z</time></trkpt><trkpt lat="33.1097283" lon="132.6616666"><ele>1089.0733333333335</ele><time>2024-02-16T23:56:26Z</time></trkpt><trkpt lat="33.1097751" lon="132.6614596"><ele>1084.36</ele><time>2024-02-16T23:56:40Z</time></trkpt><trkpt lat="33.1098215" lon="132.6612477"><ele>1079.17</ele><time>2024-02-16T23:56:54Z</time></trkpt><trkpt lat="33.1098031" lon="132.6610197"><ele>1074.17</ele><time>2024-02-16T23:57:11Z</time></trkpt><trkpt lat="33.1098124" lon="132.6607996"><ele>1069.3033333333333</ele><time>2024-02-16T23:57:26Z</time></trkpt><trkpt lat="33.1098157" lon="132.6605837"><ele>1064.9466666666667</ele><time>2024-02-16T23:57:44Z</time></trkpt><trkpt lat="33.1097881" lon="132.6603612"><ele>1061.34</ele><time>2024-02-16T23:58:02Z</time></trkpt><trkpt lat="33.109776" lon="132.6601355"><ele>1056.9799999999998</ele><time>2024-02-16T23:58:21Z</time></trkpt><trkpt lat="33.1097065" lon="132.6599275"><ele>1052.0833333333333</ele><time>2024-02-16T23:58:38Z</time></trkpt><trkpt lat="33.1097107" lon="132.6597124"><ele>1046.9166666666667</ele><time>2024-02-16T23:58:55Z</time></trkpt><trkpt lat="33.1097031" lon="132.6594862"><ele>1042.1233333333332</ele><time>2024-02-16T23:59:15Z</time></trkpt><trkpt lat="33.1096868" lon="132.6592625"><ele>1037.6366666666665</ele><time>2024-02-16T23:59:32Z</time></trkpt><trkpt lat="33.109719" lon="132.6590425"><ele>1033.9366666666665</ele><time>2024-02-16T23:59:48Z</time></trkpt><trkpt lat="33.1097055" lon="132.6588287"><ele>1030.8266666666666</ele><time>2024-02-17T00:00:03Z</time></trkpt><trkpt lat="33.1096936" lon="132.658613"><ele>1027.6466666666668</ele><time>2024-02-17T00:00:19Z</time></trkpt><trkpt lat="33.1097063" lon="132.6583854"><ele>1024.7166666666665</ele><time>2024-02-17T00:00:34Z</time></trkpt><trkpt lat="33.1097561" lon="132.6581734"><ele>1021.4866666666667</ele><time>2024-02-17T00:00:48Z</time></trkpt><trkpt lat="33.1098646" lon="132.6579996"><ele>1018.6233333333333</ele><time>2024-02-17T00:01:00Z</time></trkpt><trkpt lat="33.1099184" lon="132.6577948"><ele>1015.7766666666666</ele><time>2024-02-17T00:01:14Z</time></trkpt><trkpt lat="33.1099845" lon="132.6575927"><ele>1011.8866666666668</ele><time>2024-02-17T00:01:28Z</time></trkpt><trkpt lat="33.1100909" lon="132.6574157"><ele>1007.8333333333334</ele><time>2024-02-17T00:01:46Z</time></trkpt><trkpt lat="33.1100906" lon="132.6571976"><ele>1002.7166666666667</ele><time>2024-02-17T00:02:02Z</time></trkpt><trkpt lat="33.1101107" lon="132.656979"><ele>996.5</ele><time>2024-02-17T00:02:18Z</time></trkpt><trkpt lat="33.1101632" lon="132.6567648"><ele>989.09</ele><time>2024-02-17T00:02:35Z</time></trkpt><trkpt lat="33.1101841" lon="132.6565505"><ele>982.1933333333333</ele><time>2024-02-17T00:02:54Z</time></trkpt><trkpt lat="33.1102263" lon="132.6563342"><ele>976.91</ele><time>2024-02-17T00:03:12Z</time></trkpt><trkpt lat="33.1102485" lon="132.6561162"><ele>973.5433333333334</ele><time>2024-02-17T00:03:27Z</time></trkpt><trkpt lat="33.1102404" lon="132.6558953"><ele>971.62</ele><time>2024-02-17T00:03:42Z</time></trkpt><trkpt lat="33.1102895" lon="132.6556848"><ele>970.7600000000001</ele><time>2024-02-17T00:03:56Z</time></trkpt><trkpt lat="33.1102972" lon="132.655462"><ele>970.2033333333334</ele><time>2024-02-17T00:04:11Z</time></trkpt><trkpt lat="33.1102557" lon="132.6552469"><ele>967.59</ele><time>2024-02-17T00:04:25Z</time></trkpt><trkpt lat="33.1102905" lon="132.6550323"><ele>964.9033333333333</ele><time>2024-02-17T00:04:38Z</time></trkpt><trkpt lat="33.1103153" lon="132.6548041"><ele>962.6933333333333</ele><time>2024-02-17T00:04:53Z</time></trkpt><trkpt lat="33.1103624" lon="132.6545935"><ele>962.3766666666667</ele><time>2024-02-17T00:05:08Z</time></trkpt><trkpt lat="33.1104158" lon="132.6543884"><ele>962.3333333333334</ele><time>2024-02-17T00:05:23Z</time></trkpt><trkpt lat="33.1104335" lon="132.654171"><ele>962.13</ele><time>2024-02-17T00:05:40Z</time></trkpt><trkpt lat="33.1105062" lon="132.6539723"><ele>962.7633333333333</ele><time>2024-02-17T00:06:08Z</time></trkpt><trkpt lat="33.1105836" lon="132.6537745"><ele>963.8933333333333</ele><time>2024-02-17T00:06:29Z</time></trkpt><trkpt lat="33.1106879" lon="132.6535955"><ele>964.68</ele><time>2024-02-17T00:06:46Z</time></trkpt><trkpt lat="33.110773" lon="132.6533999"><ele>964.0833333333334</ele><time>2024-02-17T00:07:02Z</time></trkpt><trkpt lat="33.1109001" lon="132.6532453"><ele>962.4833333333332</ele><time>2024-02-17T00:07:21Z</time></trkpt><trkpt lat="33.1110539" lon="132.6531249"><ele>960.1133333333333</ele><time>2024-02-17T00:07:40Z</time></trkpt><trkpt lat="33.1111877" lon="132.6529776"><ele>957.69</ele><time>2024-02-17T00:07:57Z</time></trkpt><trkpt lat="33.1112991" lon="132.6528058"><ele>955.2166666666666</ele><time>2024-02-17T00:08:14Z</time></trkpt><trkpt lat="33.1114044" lon="132.652621"><ele>953.1133333333333</ele><time>2024-02-17T00:08:31Z</time></trkpt><trkpt lat="33.1115398" lon="132.6524723"><ele>949.8333333333334</ele><time>2024-02-17T00:08:53Z</time></trkpt><trkpt lat="33.1117053" lon="132.6523785"><ele>945.7333333333332</ele><time>2024-02-17T00:09:11Z</time></trkpt><trkpt lat="33.1118592" lon="132.6522539"><ele>940.61</ele><time>2024-02-17T00:09:34Z</time></trkpt><trkpt lat="33.1120127" lon="132.6521387"><ele>936.0733333333334</ele><time>2024-02-17T00:09:58Z</time></trkpt><trkpt lat="33.1121605" lon="132.6520084"><ele>930.7466666666666</ele><time>2024-02-17T00:10:23Z</time></trkpt><trkpt lat="33.1123067" lon="132.6518699"><ele>925.34</ele><time>2024-02-17T00:10:52Z</time></trkpt><trkpt lat="33.1124447" lon="132.6517265"><ele>919.4466666666667</ele><time>2024-02-17T00:11:21Z</time></trkpt><trkpt lat="33.1126023" lon="132.6516201"><ele>914.7966666666667</ele><time>2024-02-17T00:11:43Z</time></trkpt><trkpt lat="33.1127319" lon="132.6514621"><ele>911.0933333333334</ele><time>2024-02-17T00:12:08Z</time></trkpt><trkpt lat="33.1128453" lon="132.6512897"><ele>908.7666666666668</ele><time>2024-02-17T00:12:30Z</time></trkpt><trkpt lat="33.1130027" lon="132.6511789"><ele>906.5633333333334</ele><time>2024-02-17T00:13:16Z</time></trkpt><trkpt lat="33.1131137" lon="132.6510022"><ele>904.9533333333334</ele><time>2024-02-17T00:13:36Z</time></trkpt><trkpt lat="33.1132239" lon="132.6508194"><ele>903.8933333333334</ele><time>2024-02-17T00:13:57Z</time></trkpt><trkpt lat="33.1133403" lon="132.6506394"><ele>903.3733333333334</ele><time>2024-02-17T00:14:14Z</time></trkpt><trkpt lat="33.1134346" lon="132.6504511"><ele>903.1366666666668</ele><time>2024-02-17T00:14:34Z</time></trkpt><trkpt lat="33.1135824" lon="132.6503254"><ele>901.43</ele><time>2024-02-17T00:14:52Z</time></trkpt><trkpt lat="33.113633" lon="132.6501181"><ele>900.5066666666667</ele><time>2024-02-17T00:15:11Z</time></trkpt><trkpt lat="33.1137993" lon="132.6500283"><ele>899.9266666666667</ele><time>2024-02-17T00:15:30Z</time></trkpt><trkpt lat="33.1139151" lon="132.649861"><ele>900.9200000000001</ele><time>2024-02-17T00:15:50Z</time></trkpt><trkpt lat="33.1140778" lon="132.6497572"><ele>901.2833333333334</ele><time>2024-02-17T00:16:11Z</time></trkpt><trkpt lat="33.1141185" lon="132.6495483"><ele>901.3033333333333</ele><time>2024-02-17T00:16:43Z</time></trkpt><trkpt lat="33.1142179" lon="132.6493657"><ele>900.9266666666667</ele><time>2024-02-17T00:17:15Z</time></trkpt><trkpt lat="33.1143075" lon="132.6491786"><ele>900.65</ele><time>2024-02-17T00:17:32Z</time></trkpt><trkpt lat="33.114464" lon="132.6490711"><ele>899.6566666666668</ele><time>2024-02-17T00:17:49Z</time></trkpt><trkpt lat="33.1145699" lon="132.6488833"><ele>896.9433333333333</ele><time>2024-02-17T00:18:11Z</time></trkpt><trkpt lat="33.1146649" lon="132.6486976"><ele>894.0300000000001</ele><time>2024-02-17T00:18:30Z</time></trkpt><trkpt lat="33.1147793" lon="132.6485282"><ele>890.8266666666667</ele><time>2024-02-17T00:18:46Z</time></trkpt><trkpt lat="33.1149262" lon="132.6483963"><ele>888.14</ele><time>2024-02-17T00:19:03Z</time></trkpt><trkpt lat="33.1150153" lon="132.6482067"><ele>885.2266666666666</ele><time>2024-02-17T00:19:19Z</time></trkpt><trkpt lat="33.1151106" lon="132.6480189"><ele>882.66</ele><time>2024-02-17T00:19:34Z</time></trkpt><trkpt lat="33.1151374" lon="132.6478055"><ele>880.38</ele><time>2024-02-17T00:19:50Z</time></trkpt><trkpt lat="33.1152082" lon="132.647606"><ele>876.9133333333333</ele><time>2024-02-17T00:20:06Z</time></trkpt><trkpt lat="33.115314" lon="132.647431"><ele>873.1899999999999</ele><time>2024-02-17T00:20:27Z</time></trkpt><trkpt lat="33.1154642" lon="132.6473106"><ele>868.65</ele><time>2024-02-17T00:20:44Z</time></trkpt><trkpt lat="33.1155572" lon="132.6471179"><ele>865.5666666666666</ele><time>2024-02-17T00:21:01Z</time></trkpt><trkpt lat="33.1156286" lon="132.6469185"><ele>863.0766666666667</ele><time>2024-02-17T00:21:17Z</time></trkpt><trkpt lat="33.1157856" lon="132.6467955"><ele>861.1300000000001</ele><time>2024-02-17T00:21:33Z</time></trkpt><trkpt lat="33.1158556" lon="132.6465967"><ele>860.33</ele><time>2024-02-17T00:22:27Z</time></trkpt><trkpt lat="33.1160087" lon="132.6464762"><ele>859.3133333333335</ele><time>2024-02-17T00:23:22Z</time></trkpt><trkpt lat="33.1161868" lon="132.646433"><ele>858.8533333333334</ele><time>2024-02-17T00:24:26Z</time></trkpt><trkpt lat="33.116364" lon="132.6463851"><ele>853.5566666666667</ele><time>2024-02-17T00:25:18Z</time></trkpt><trkpt lat="33.1165428" lon="132.646443"><ele>846.0066666666667</ele><time>2024-02-17T00:26:05Z</time></trkpt><trkpt lat="33.1167259" lon="132.6464619"><ele>837.4733333333334</ele><time>2024-02-17T00:26:33Z</time></trkpt><trkpt lat="33.1168934" lon="132.6465549"><ele>830.9066666666668</ele><time>2024-02-17T00:26:54Z</time></trkpt><trkpt lat="33.1170647" lon="132.6466364"><ele>825.2766666666666</ele><time>2024-02-17T00:27:21Z</time></trkpt><trkpt lat="33.1171962" lon="132.6464769"><ele>821.4133333333333</ele><time>2024-02-17T00:27:44Z</time></trkpt><trkpt lat="33.1172578" lon="132.646272"><ele>818.0933333333332</ele><time>2024-02-17T00:28:07Z</time></trkpt><trkpt lat="33.1173993" lon="132.6461378"><ele>813.09</ele><time>2024-02-17T00:28:27Z</time></trkpt><trkpt lat="33.1175811" lon="132.6460936"><ele>804.8566666666667</ele><time>2024-02-17T00:28:45Z</time></trkpt><trkpt lat="33.1177045" lon="132.6459342"><ele>796.3433333333332</ele><time>2024-02-17T00:30:40Z</time></trkpt><trkpt lat="33.1178827" lon="132.6458889"><ele>787.0566666666667</ele><time>2024-02-17T00:31:37Z</time></trkpt><trkpt lat="33.1180414" lon="132.6457861"><ele>777.7566666666667</ele><time>2024-02-17T00:32:00Z</time></trkpt><trkpt lat="33.1180888" lon="132.6455742"><ele>765.7233333333334</ele><time>2024-02-17T00:32:30Z</time></trkpt><trkpt lat="33.1182359" lon="132.6456993"><ele>759.02</ele><time>2024-02-17T00:34:18Z</time></trkpt><trkpt lat="33.1183848" lon="132.6455751"><ele>751.8733333333333</ele><time>2024-02-17T00:34:42Z</time></trkpt><trkpt lat="33.1185586" lon="132.6455174"><ele>744.4433333333333</ele><time>2024-02-17T00:35:08Z</time></trkpt><trkpt lat="33.1186624" lon="132.6453377"><ele>732.4433333333333</ele><time>2024-02-17T00:35:40Z</time></trkpt><trkpt lat="33.1188309" lon="132.6452289"><ele>721.3466666666667</ele><time>2024-02-17T00:36:02Z</time></trkpt><trkpt lat="33.1190113" lon="132.6451989"><ele>711.3699999999999</ele><time>2024-02-17T00:36:23Z</time></trkpt><trkpt lat="33.1191776" lon="132.6451091"><ele>706.2771677316265</ele><time>2024-02-17T00:36:44Z</time></trkpt><trkpt lat="33.1193659" lon="132.6450985"><ele>701.9958678694044</ele><time>2024-02-17T00:37:05Z</time></trkpt><trkpt lat="33.1195193" lon="132.6449853"><ele>699.1452983499013</ele><time>2024-02-17T00:37:22Z</time></trkpt><trkpt lat="33.1196605" lon="132.6448442"><ele>695.8662057483317</ele><time>2024-02-17T00:39:43Z</time></trkpt><trkpt lat="33.1198063" lon="132.6447173"><ele>695.7577374132517</ele><time>2024-02-17T00:40:34Z</time></trkpt><trkpt lat="33.11996" lon="132.6446044"><ele>697.1119230805315</ele><time>2024-02-17T00:40:59Z</time></trkpt><trkpt lat="33.1201423" lon="132.6445732"><ele>697.7932338999941</ele><time>2024-02-17T00:41:19Z</time></trkpt><trkpt lat="33.1203222" lon="132.6445333"><ele>695.586063660498</ele><time>2024-02-17T00:41:41Z</time></trkpt><trkpt lat="33.1205003" lon="132.6445675"><ele>692.9857022178431</ele><time>2024-02-17T00:42:06Z</time></trkpt><trkpt lat="33.1206838" lon="132.6445648"><ele>690.9000232450036</ele><time>2024-02-17T00:42:46Z</time></trkpt><trkpt lat="33.1208617" lon="132.6445295"><ele>690.7189694445418</ele><time>2024-02-17T00:43:15Z</time></trkpt><trkpt lat="33.121031" lon="132.6444534"><ele>694.929520664502</ele><time>2024-02-17T00:50:51Z</time></trkpt><trkpt lat="33.1212032" lon="132.6445279"><ele>701.6960546920413</ele><time>2024-02-17T00:51:55Z</time></trkpt><trkpt lat="33.1213607" lon="132.6446342"><ele>710.9300063867827</ele><time>2024-02-17T00:52:55Z</time></trkpt><trkpt lat="33.1215205" lon="132.6447343"><ele>721.1956333747363</ele><time>2024-02-17T00:54:21Z</time></trkpt><trkpt lat="33.1216951" lon="132.6446747"><ele>734.0538854440165</ele><time>2024-02-17T00:56:13Z</time></trkpt><trkpt lat="33.1218738" lon="132.6446328"><ele>746.3376608865163</ele><time>2024-02-17T00:57:01Z</time></trkpt><trkpt lat="33.1220559" lon="132.6446375"><ele>757.1675232990438</ele><time>2024-02-17T00:57:44Z</time></trkpt><trkpt lat="33.1222385" lon="132.6446442"><ele>764.6155927740897</ele><time>2024-02-17T00:58:53Z</time></trkpt><trkpt lat="33.1223991" lon="132.6445346"><ele>772.6641445723681</ele><time>2024-02-17T00:59:49Z</time></trkpt><trkpt lat="33.1224461" lon="132.6443254"><ele>779.7329960784613</ele><time>2024-02-17T01:00:30Z</time></trkpt><trkpt lat="33.1226134" lon="132.6442265"><ele>784.1022109716406</ele><time>2024-02-17T01:00:51Z</time></trkpt><trkpt lat="33.1227666" lon="132.6441062"><ele>785.0629379636638</ele><time>2024-02-17T01:01:09Z</time></trkpt><trkpt lat="33.1229213" lon="132.643994"><ele>783.7217480169638</ele><time>2024-02-17T01:01:28Z</time></trkpt><trkpt lat="33.1230452" lon="132.6438282"><ele>783.7499392345485</ele><time>2024-02-17T01:02:01Z</time></trkpt><trkpt lat="33.1231253" lon="132.6436304"><ele>784.9362792382362</ele><time>2024-02-17T01:02:22Z</time></trkpt><trkpt lat="33.1232475" lon="132.6434652"><ele>785.7985366185467</ele><time>2024-02-17T01:02:41Z</time></trkpt><trkpt lat="33.1233177" lon="132.6432602"><ele>787.3217143769654</ele><time>2024-02-17T01:03:14Z</time></trkpt><trkpt lat="33.1234352" lon="132.6430944"><ele>788.265243674422</ele><time>2024-02-17T01:03:36Z</time></trkpt><trkpt lat="33.1235933" lon="132.6429881"><ele>790.76184444884</ele><time>2024-02-17T01:04:01Z</time></trkpt><trkpt lat="33.1237361" lon="132.6428521"><ele>792.3573278177619</ele><time>2024-02-17T01:04:30Z</time></trkpt><trkpt lat="33.1238923" lon="132.642743"><ele>792.3408594081012</ele><time>2024-02-17T01:04:53Z</time></trkpt><trkpt lat="33.1240011" lon="132.6425704"><ele>796.0546277070694</ele><time>2024-02-17T01:05:28Z</time></trkpt><trkpt lat="33.1241376" lon="132.6424251"><ele>800.1492703472892</ele><time>2024-02-17T01:06:15Z</time></trkpt><trkpt lat="33.1243057" lon="132.6423211"><ele>805.2874839749174</ele><time>2024-02-17T01:06:41Z</time></trkpt><trkpt lat="33.1244639" lon="132.6422116"><ele>808.0065928744765</ele><time>2024-02-17T01:07:13Z</time></trkpt><trkpt lat="33.1246065" lon="132.6420662"><ele>810.8143889657537</ele><time>2024-02-17T01:07:44Z</time></trkpt><trkpt lat="33.1246552" lon="132.6418585"><ele>814.5795141179688</ele><time>2024-02-17T01:10:18Z</time></trkpt><trkpt lat="33.1247026" lon="132.6416476"><ele>818.8973048220469</ele><time>2024-02-17T01:11:13Z</time></trkpt><trkpt lat="33.1248162" lon="132.6414764"><ele>823.0894936045843</ele><time>2024-02-17T01:12:07Z</time></trkpt><trkpt lat="33.1249862" lon="132.6414041"><ele>827.7677616288962</ele><time>2024-02-17T01:12:42Z</time></trkpt><trkpt lat="33.1251462" lon="132.6413016"><ele>829.3833104271553</ele><time>2024-02-17T01:12:58Z</time></trkpt><trkpt lat="33.1252924" lon="132.6411745"><ele>829.320020072314</ele><time>2024-02-17T01:13:28Z</time></trkpt><trkpt lat="33.1254365" lon="132.6410401"><ele>831.488577514086</ele><time>2024-02-17T01:14:09Z</time></trkpt><trkpt lat="33.1255682" lon="132.6408931"><ele>835.8542870774063</ele><time>2024-02-17T01:16:02Z</time></trkpt><trkpt lat="33.1257483" lon="132.6408472"><ele>843.2633136856178</ele><time>2024-02-17T01:16:56Z</time></trkpt><trkpt lat="33.1259044" lon="132.6407365"><ele>849.9012510664312</ele><time>2024-02-17T01:17:43Z</time></trkpt><trkpt lat="33.1259735" lon="132.6405376"><ele>856.6158287053231</ele><time>2024-02-17T01:18:26Z</time></trkpt><trkpt lat="33.1261361" lon="132.6404338"><ele>861.9029888641247</ele><time>2024-02-17T01:19:14Z</time></trkpt><trkpt lat="33.1262614" lon="132.6402775"><ele>865.9707190292562</ele><time>2024-02-17T01:19:35Z</time></trkpt><trkpt lat="33.1263944" lon="132.6401297"><ele>871.3606131554789</ele><time>2024-02-17T01:20:32Z</time></trkpt><trkpt lat="33.1265718" lon="132.6400828"><ele>875.9003408036873</ele><time>2024-02-17T01:21:00Z</time></trkpt><trkpt lat="33.1267141" lon="132.6399507"><ele>881.1346042274776</ele><time>2024-02-17T01:21:33Z</time></trkpt><trkpt lat="33.1268896" lon="132.6399"><ele>884.7788793940126</ele><time>2024-02-17T01:22:22Z</time></trkpt><trkpt lat="33.1268551" lon="132.6396882"><ele>892.5742358082083</ele><time>2024-02-17T01:23:53Z</time></trkpt><trkpt lat="33.1269649" lon="132.6395163"><ele>901.8637566049935</ele><time>2024-02-17T01:24:49Z</time></trkpt><trkpt lat="33.1270899" lon="132.639361"><ele>911.8236918730508</ele><time>2024-02-17T01:25:47Z</time></trkpt><trkpt lat="33.1272234" lon="132.6392157"><ele>920.1065819756377</ele><time>2024-02-17T01:26:37Z</time></trkpt><trkpt lat="33.1273549" lon="132.6390668"><ele>927.0908323316407</ele><time>2024-02-17T01:27:30Z</time></trkpt><trkpt lat="33.1274971" lon="132.6389281"><ele>932.6183042628744</ele><time>2024-02-17T01:28:18Z</time></trkpt><trkpt lat="33.1276545" lon="132.6388136"><ele>937.8761380969528</ele><time>2024-02-17T01:29:26Z</time></trkpt><trkpt lat="33.1278285" lon="132.6387308"><ele>944.0951869305298</ele><time>2024-02-17T01:33:13Z</time></trkpt><trkpt lat="33.1280115" lon="132.6387277"><ele>952.7010610865524</ele><time>2024-02-17T01:34:23Z</time></trkpt><trkpt lat="33.1282" lon="132.6387582"><ele>960.6173240953266</ele><time>2024-02-17T01:35:02Z</time></trkpt><trkpt lat="33.1283769" lon="132.63871"><ele>970.5412040428696</ele><time>2024-02-17T01:37:34Z</time></trkpt><trkpt lat="33.1285536" lon="132.6387642"><ele>979.3466892875445</ele><time>2024-02-17T01:38:27Z</time></trkpt><trkpt lat="33.1287134" lon="132.6386631"><ele>986.8594007681901</ele><time>2024-02-17T01:40:36Z</time></trkpt><trkpt lat="33.1288777" lon="132.6385698"><ele>990.383025798235</ele><time>2024-02-17T01:41:16Z</time></trkpt><trkpt lat="33.1290453" lon="132.6384828"><ele>992.1467626014855</ele><time>2024-02-17T01:41:43Z</time></trkpt><trkpt lat="33.1292234" lon="132.6384343"><ele>995.2031812161291</ele><time>2024-02-17T01:42:15Z</time></trkpt><trkpt lat="33.1294093" lon="132.6384008"><ele>998.5604514336401</ele><time>2024-02-17T01:42:45Z</time></trkpt><trkpt lat="33.1295885" lon="132.6383671"><ele>1000.2429719322491</ele><time>2024-02-17T01:43:05Z</time></trkpt><trkpt lat="33.1297674" lon="132.6383373"><ele>999.94829205653</ele><time>2024-02-17T01:43:27Z</time></trkpt><trkpt lat="33.1299212" lon="132.6382221"><ele>998.6945102461432</ele><time>2024-02-17T01:44:00Z</time></trkpt><trkpt lat="33.1300875" lon="132.6381361"><ele>1000.2175924810512</ele><time>2024-02-17T01:44:31Z</time></trkpt><trkpt lat="33.1302655" lon="132.6380925"><ele>1003.8889515804344</ele><time>2024-02-17T01:45:17Z</time></trkpt><trkpt lat="33.1304403" lon="132.6381455"><ele>1007.5581740206845</ele><time>2024-02-17T01:46:04Z</time></trkpt><trkpt lat="33.1306137" lon="132.6382049"><ele>1013.5217276497057</ele><time>2024-02-17T01:47:00Z</time></trkpt><trkpt lat="33.1307928" lon="132.6382544"><ele>1018.4819913566565</ele><time>2024-02-17T01:47:35Z</time></trkpt><trkpt lat="33.130973" lon="132.6382665"><ele>1026.9480259698066</ele><time>2024-02-17T01:48:15Z</time></trkpt><trkpt lat="33.1311465" lon="132.638208"><ele>1032.7692302449123</ele><time>2024-02-17T01:50:53Z</time></trkpt><trkpt lat="33.1310957" lon="132.6379999"><ele>1041.0641001810282</ele><time>2024-02-17T01:52:30Z</time></trkpt><trkpt lat="33.1312666" lon="132.6379176"><ele>1048.399575222601</ele><time>2024-02-17T01:53:25Z</time></trkpt><trkpt lat="33.131448" lon="132.6378745"><ele>1058.1470663176833</ele><time>2024-02-17T01:54:27Z</time></trkpt><trkpt lat="33.1316263" lon="132.6378423"><ele>1065.6771695373063</ele><time>2024-02-17T01:55:53Z</time></trkpt><trkpt lat="33.1318012" lon="132.6377769"><ele>1073.4441262012992</ele><time>2024-02-17T01:56:46Z</time></trkpt><trkpt lat="33.1319821" lon="132.6377509"><ele>1079.514693618706</ele><time>2024-02-17T01:58:40Z</time></trkpt><trkpt lat="33.1321317" lon="132.6376309"><ele>1085.8219290379268</ele><time>2024-02-17T01:59:56Z</time></trkpt><trkpt lat="33.1322977" lon="132.6375374"><ele>1092.3714630900502</ele><time>2024-02-17T02:00:45Z</time></trkpt><trkpt lat="33.1324496" lon="132.6374214"><ele>1095.734598347989</ele><time>2024-02-17T02:01:19Z</time></trkpt><trkpt lat="33.1325116" lon="132.6372183"><ele>1098.249041559603</ele><time>2024-02-17T02:04:07Z</time></trkpt><trkpt lat="33.1326316" lon="132.637051"><ele>1096.731624406787</ele><time>2024-02-17T02:07:58Z</time></trkpt><trkpt lat="33.1327104" lon="132.6368568"><ele>1095.1207744751703</ele><time>2024-02-17T02:08:23Z</time></trkpt><trkpt lat="33.1327859" lon="132.6366617"><ele>1092.1792946439434</ele><time>2024-02-17T02:08:55Z</time></trkpt><trkpt lat="33.1328824" lon="132.6364759"><ele>1089.062029230069</ele><time>2024-02-17T02:09:21Z</time></trkpt><trkpt lat="33.1329716" lon="132.6362816"><ele>1087.8799230509833</ele><time>2024-02-17T02:09:41Z</time></trkpt><trkpt lat="33.1330163" lon="132.6360683"><ele>1086.7070751329898</ele><time>2024-02-17T02:10:17Z</time></trkpt><trkpt lat="33.1330079" lon="132.6358478"><ele>1085.2403671210666</ele><time>2024-02-17T02:10:42Z</time></trkpt><trkpt lat="33.1329243" lon="132.6356548"><ele>1081.059189600829</ele><time>2024-02-17T02:11:53Z</time></trkpt><trkpt lat="33.1327529" lon="132.63558"><ele>1076.955190805042</ele><time>2024-02-17T02:12:15Z</time></trkpt><trkpt lat="33.1326227" lon="132.6354193"><ele>1071.0492389352537</ele><time>2024-02-17T02:12:38Z</time></trkpt><trkpt lat="33.1325063" lon="132.635253"><ele>1065.7985466862767</ele><time>2024-02-17T02:13:13Z</time></trkpt><trkpt lat="33.1323863" lon="132.6350916"><ele>1060.008571575103</ele><time>2024-02-17T02:15:10Z</time></trkpt><trkpt lat="33.1322788" lon="132.6349166"><ele>1057.3203432613818</ele><time>2024-02-17T02:15:32Z</time></trkpt><trkpt lat="33.1322123" lon="132.6347149"><ele>1057.1115309056634</ele><time>2024-02-17T02:16:28Z</time></trkpt><trkpt lat="33.1321791" lon="132.6345011"><ele>1057.6173889215218</ele><time>2024-02-17T02:16:56Z</time></trkpt><trkpt lat="33.1321116" lon="132.6342937"><ele>1057.0946296028571</ele><time>2024-02-17T02:17:16Z</time></trkpt><trkpt lat="33.1320952" lon="132.634077"><ele>1054.8086567955916</ele><time>2024-02-17T02:17:36Z</time></trkpt><trkpt lat="33.1320594" lon="132.633863"><ele>1053.328046088581</ele><time>2024-02-17T02:17:59Z</time></trkpt><trkpt lat="33.1319965" lon="132.6336574"><ele>1054.3758495340826</ele><time>2024-02-17T02:18:27Z</time></trkpt><trkpt lat="33.1319877" lon="132.6334393"><ele>1053.8863510666104</ele><time>2024-02-17T02:18:53Z</time></trkpt><trkpt lat="33.131984" lon="132.6332219"><ele>1052.671153645636</ele><time>2024-02-17T02:19:12Z</time></trkpt><trkpt lat="33.1320249" lon="132.6330081"><ele>1049.8325539176858</ele><time>2024-02-17T02:19:32Z</time></trkpt><trkpt lat="33.1320533" lon="132.6327961"><ele>1048.7341060836752</ele><time>2024-02-17T02:19:53Z</time></trkpt><trkpt lat="33.1320357" lon="132.6325775"><ele>1047.7938988945023</ele><time>2024-02-17T02:20:16Z</time></trkpt><trkpt lat="33.1320349" lon="132.6323605"><ele>1045.6976452573947</ele><time>2024-02-17T02:20:34Z</time></trkpt><trkpt lat="33.1320703" lon="132.6321466"><ele>1044.9435424420692</ele><time>2024-02-17T02:20:55Z</time></trkpt><trkpt lat="33.1321508" lon="132.6319519"><ele>1044.000820034775</ele><time>2024-02-17T02:21:25Z</time></trkpt><trkpt lat="33.1321487" lon="132.6317333"><ele>1045.045680677921</ele><time>2024-02-17T02:21:44Z</time></trkpt><trkpt lat="33.1320716" lon="132.6315312"><ele>1045.0327495967365</ele><time>2024-02-17T02:22:05Z</time></trkpt><trkpt lat="33.1320361" lon="132.6313129"><ele>1045.5193014442868</ele><time>2024-02-17T02:22:51Z</time></trkpt><trkpt lat="33.1321245" lon="132.6311111"><ele>1044.2299817597311</ele><time>2024-02-17T02:23:09Z</time></trkpt><trkpt lat="33.1321409" lon="132.6308959"><ele>1045.4975728096022</ele><time>2024-02-17T02:23:33Z</time></trkpt><trkpt lat="33.1322119" lon="132.6306979"><ele>1047.024941656875</ele><time>2024-02-17T02:24:05Z</time></trkpt><trkpt lat="33.1321697" lon="132.6304838"><ele>1051.684912248055</ele><time>2024-02-17T02:24:40Z</time></trkpt><trkpt lat="33.1321357" lon="132.6302677"><ele>1056.0108075881403</ele><time>2024-02-17T02:25:25Z</time></trkpt><trkpt lat="33.1321641" lon="132.6300548"><ele>1058.9923688252359</ele><time>2024-02-17T02:26:54Z</time></trkpt><trkpt lat="33.1322942" lon="132.6298944"><ele>1058.6240612247022</ele><time>2024-02-17T02:27:21Z</time></trkpt><trkpt lat="33.1323901" lon="132.6297072"><ele>1058.204448324593</ele><time>2024-02-17T02:27:57Z</time></trkpt><trkpt lat="33.1324366" lon="132.6294983"><ele>1060.4656778289946</ele><time>2024-02-17T02:28:34Z</time></trkpt><trkpt lat="33.1325109" lon="132.6293018"><ele>1066.5383242778128</ele><time>2024-02-17T02:29:07Z</time></trkpt><trkpt lat="33.1325367" lon="132.6290857"><ele>1068.9907368865952</ele><time>2024-02-17T02:45:03Z</time></trkpt><trkpt lat="33.1323961" lon="132.6289514"><ele>1068.6714467776524</ele><time>2024-02-17T02:46:04Z</time></trkpt><trkpt lat="33.1322609" lon="132.6287914"><ele>1061.4227050309912</ele><time>2024-02-17T02:46:56Z</time></trkpt><trkpt lat="33.1321" lon="132.6286736"><ele>1054.5659956629431</ele><time>2024-02-17T02:47:21Z</time></trkpt><trkpt lat="33.1320778" lon="132.6284595"><ele>1047.5494310082033</ele><time>2024-02-17T02:49:02Z</time></trkpt><trkpt lat="33.1319816" lon="132.6282757"><ele>1041.8665981250804</ele><time>2024-02-17T02:49:21Z</time></trkpt><trkpt lat="33.1318911" lon="132.6280854"><ele>1034.1489757487916</ele><time>2024-02-17T02:49:46Z</time></trkpt><trkpt lat="33.1318128" lon="132.6278793"><ele>1027.6850492546632</ele><time>2024-02-17T02:50:04Z</time></trkpt><trkpt lat="33.1316644" lon="132.627744"><ele>1022.3076099994855</ele><time>2024-02-17T02:50:21Z</time></trkpt><trkpt lat="33.1315008" lon="132.6276517"><ele>1020.8440743509736</ele><time>2024-02-17T02:50:37Z</time></trkpt><trkpt lat="33.1313334" lon="132.627571"><ele>1017.8492482695037</ele><time>2024-02-17T02:50:56Z</time></trkpt><trkpt lat="33.1312191" lon="132.6274044"><ele>1015.3788039723075</ele><time>2024-02-17T02:51:34Z</time></trkpt><trkpt lat="33.1310657" lon="132.627289"><ele>1010.092259430669</ele><time>2024-02-17T02:52:02Z</time></trkpt><trkpt lat="33.130904" lon="132.6271925"><ele>1003.3126002651642</ele><time>2024-02-17T02:52:36Z</time></trkpt><trkpt lat="33.1307777" lon="132.6270345"><ele>994.9012889174992</ele><time>2024-02-17T02:53:05Z</time></trkpt><trkpt lat="33.1305963" lon="132.6270269"><ele>986.8909125764985</ele><time>2024-02-17T02:53:31Z</time></trkpt><trkpt lat="33.1304139" lon="132.6269788"><ele>979.3370519697258</ele><time>2024-02-17T02:54:59Z</time></trkpt><trkpt lat="33.1303223" lon="132.6267908"><ele>972.5138161697258</ele><time>2024-02-17T02:55:21Z</time></trkpt><trkpt lat="33.1302292" lon="132.6265997"><ele>966.2455941580866</ele><time>2024-02-17T02:55:40Z</time></trkpt><trkpt lat="33.1300958" lon="132.6264527"><ele>961.0651989557296</ele><time>2024-02-17T02:55:59Z</time></trkpt><trkpt lat="33.1299226" lon="132.6263754"><ele>957.3562021459115</ele><time>2024-02-17T02:56:16Z</time></trkpt><trkpt lat="33.1297572" lon="132.6262848"><ele>954.364503167486</ele><time>2024-02-17T02:56:30Z</time></trkpt><trkpt lat="33.1295747" lon="132.6262586"><ele>951.7738589516599</ele><time>2024-02-17T02:56:46Z</time></trkpt><trkpt lat="33.129391" lon="132.6262394"><ele>947.8787279256193</ele><time>2024-02-17T02:57:05Z</time></trkpt><trkpt lat="33.1292127" lon="132.6261782"><ele>944.6407268220137</ele><time>2024-02-17T02:57:21Z</time></trkpt><trkpt lat="33.1290626" lon="132.6260548"><ele>941.4864864784009</ele><time>2024-02-17T02:57:39Z</time></trkpt><trkpt lat="33.1288946" lon="132.6259723"><ele>939.4695349777188</ele><time>2024-02-17T02:57:59Z</time></trkpt><trkpt lat="33.1288077" lon="132.6257816"><ele>936.2549931674312</ele><time>2024-02-17T02:58:13Z</time></trkpt><trkpt lat="33.128692" lon="132.6256141"><ele>933.3630453236151</ele><time>2024-02-17T02:58:29Z</time></trkpt><trkpt lat="33.1285738" lon="132.625449"><ele>932.0556706484828</ele><time>2024-02-17T02:58:45Z</time></trkpt><trkpt lat="33.1284598" lon="132.6252771"><ele>930.6588790983064</ele><time>2024-02-17T02:59:00Z</time></trkpt><trkpt lat="33.1283806" lon="132.6250745"><ele>930.0668770736128</ele><time>2024-02-17T02:59:17Z</time></trkpt><trkpt lat="33.1282348" lon="132.6249446"><ele>929.8872938588908</ele><time>2024-02-17T02:59:35Z</time></trkpt><trkpt lat="33.1281359" lon="132.6247519"><ele>930.6080609364917</ele><time>2024-02-17T03:00:29Z</time></trkpt><trkpt lat="33.1281429" lon="132.624533"><ele>934.457128581168</ele><time>2024-02-17T03:01:04Z</time></trkpt><trkpt lat="33.1281462" lon="132.624316"><ele>936.0060518033864</ele><time>2024-02-17T03:01:29Z</time></trkpt><trkpt lat="33.1281324" lon="132.6240949"><ele>938.6009758280694</ele><time>2024-02-17T03:01:51Z</time></trkpt><trkpt lat="33.128133" lon="132.6238753"><ele>937.387615989957</ele><time>2024-02-17T03:02:20Z</time></trkpt><trkpt lat="33.1280125" lon="132.6237124"><ele>937.4833823790817</ele><time>2024-02-17T03:02:41Z</time></trkpt><trkpt lat="33.1279014" lon="132.6235405"><ele>937.9611806983379</ele><time>2024-02-17T03:03:11Z</time></trkpt><trkpt lat="33.1278005" lon="132.6233614"><ele>939.8735911856235</ele><time>2024-02-17T03:03:40Z</time></trkpt><trkpt lat="33.1276884" lon="132.6231884"><ele>943.1519147344248</ele><time>2024-02-17T03:04:29Z</time></trkpt><trkpt lat="33.1276194" lon="132.6229866"><ele>946.4595255723243</ele><time>2024-02-17T03:05:05Z</time></trkpt><trkpt lat="33.1274891" lon="132.6228257"><ele>950.2158302972283</ele><time>2024-02-17T03:05:33Z</time></trkpt><trkpt lat="33.1274677" lon="132.6226089"><ele>953.1867677596471</ele><time>2024-02-17T03:06:02Z</time></trkpt><trkpt lat="33.1273817" lon="132.6224202"><ele>956.5578164452036</ele><time>2024-02-17T03:06:30Z</time></trkpt><trkpt lat="33.1272803" lon="132.6222359"><ele>959.631650789603</ele><time>2024-02-17T03:07:00Z</time></trkpt><trkpt lat="33.1271571" lon="132.622076"><ele>964.8205382698026</ele><time>2024-02-17T03:07:30Z</time></trkpt><trkpt lat="33.1270063" lon="132.6219578"><ele>967.3979243299782</ele><time>2024-02-17T03:08:00Z</time></trkpt><trkpt lat="33.1268635" lon="132.6218261"><ele>970.2105819324124</ele><time>2024-02-17T03:08:23Z</time></trkpt><trkpt lat="33.1266804" lon="132.6218045"><ele>972.9432181312704</ele><time>2024-02-17T03:08:51Z</time></trkpt><trkpt lat="33.1265317" lon="132.6216797"><ele>974.1152816604389</ele><time>2024-02-17T03:09:11Z</time></trkpt><trkpt lat="33.1263536" lon="132.621637"><ele>975.4700769971095</ele><time>2024-02-17T03:09:33Z</time></trkpt><trkpt lat="33.1261794" lon="132.6215676"><ele>973.5898818871178</ele><time>2024-02-17T03:09:58Z</time></trkpt><trkpt lat="33.1259932" lon="132.6215681"><ele>974.831808763433</ele><time>2024-02-17T03:10:19Z</time></trkpt><trkpt lat="33.1258608" lon="132.6214116"><ele>973.7823741234146</ele><time>2024-02-17T03:10:39Z</time></trkpt><trkpt lat="33.1257257" lon="132.6212598"><ele>972.2691045321794</ele><time>2024-02-17T03:11:00Z</time></trkpt><trkpt lat="33.1255389" lon="132.6212288"><ele>969.3988584742459</ele><time>2024-02-17T03:11:24Z</time></trkpt><trkpt lat="33.1253616" lon="132.6211834"><ele>966.8460362740184</ele><time>2024-02-17T03:11:52Z</time></trkpt><trkpt lat="33.1251949" lon="132.6212747"><ele>968.5776924036123</ele><time>2024-02-17T03:12:29Z</time></trkpt><trkpt lat="33.125013" lon="132.6212574"><ele>969.2858597272415</ele><time>2024-02-17T03:12:51Z</time></trkpt><trkpt lat="33.1248434" lon="132.6211838"><ele>970.5391007524114</ele><time>2024-02-17T03:13:23Z</time></trkpt><trkpt lat="33.1246636" lon="132.6211651"><ele>969.813314793665</ele><time>2024-02-17T03:14:14Z</time></trkpt><trkpt lat="33.1245041" lon="132.6210495"><ele>973.2910811748974</ele><time>2024-02-17T03:14:49Z</time></trkpt><trkpt lat="33.1243786" lon="132.6208936"><ele>978.4342887609405</ele><time>2024-02-17T03:18:05Z</time></trkpt><trkpt lat="33.1242556" lon="132.6207241"><ele>986.2998111811011</ele><time>2024-02-17T03:19:46Z</time></trkpt><trkpt lat="33.1240808" lon="132.6206702"><ele>993.844476047394</ele><time>2024-02-17T03:21:09Z</time></trkpt><trkpt lat="33.1239184" lon="132.6205762"><ele>1005.2760867500124</ele><time>2024-02-17T03:22:28Z</time></trkpt><trkpt lat="33.123757" lon="132.6204715"><ele>1013.8334968388391</ele><time>2024-02-17T03:23:10Z</time></trkpt><trkpt lat="33.1236416" lon="132.6206412"><ele>1021.030063716497</ele><time>2024-02-17T03:26:41Z</time></trkpt><trkpt lat="33.1234747" lon="132.6207282"><ele>1021.9555481598042</ele><time>2024-02-17T03:27:08Z</time></trkpt><trkpt lat="33.1232975" lon="132.6207902"><ele>1019.9469741863082</ele><time>2024-02-17T03:27:35Z</time></trkpt><trkpt lat="33.1231229" lon="132.6208519"><ele>1016.7944306562749</ele><time>2024-02-17T03:31:21Z</time></trkpt><trkpt lat="33.1229522" lon="132.6207749"><ele>1012.3567302845735</ele><time>2024-02-17T03:31:57Z</time></trkpt><trkpt lat="33.1227728" lon="132.6208315"><ele>1007.0503392907268</ele><time>2024-02-17T03:32:31Z</time></trkpt><trkpt lat="33.1226481" lon="132.6209899"><ele>999.9907016673742</ele><time>2024-02-17T03:33:05Z</time></trkpt><trkpt lat="33.122524" lon="132.6211602"><ele>992.1828781402863</ele><time>2024-02-17T03:33:41Z</time></trkpt><trkpt lat="33.122368" lon="132.6212701"><ele>983.4631531512044</ele><time>2024-02-17T03:34:15Z</time></trkpt><trkpt lat="33.122198" lon="132.6213478"><ele>974.4694817340733</ele><time>2024-02-17T03:34:52Z</time></trkpt><trkpt lat="33.1220633" lon="132.6214928"><ele>965.7268746655676</ele><time>2024-02-17T03:35:28Z</time></trkpt><trkpt lat="33.1220001" lon="132.6216938"><ele>957.0342961380707</ele><time>2024-02-17T03:36:03Z</time></trkpt><trkpt lat="33.1219197" lon="132.6218864"><ele>949.2689072829749</ele><time>2024-02-17T03:36:34Z</time></trkpt><trkpt lat="33.1217974" lon="132.6220472"><ele>942.04218925017</ele><time>2024-02-17T03:37:01Z</time></trkpt><trkpt lat="33.1216234" lon="132.6221091"><ele>936.261803136943</ele><time>2024-02-17T03:37:29Z</time></trkpt><trkpt lat="33.1214742" lon="132.6222354"><ele>927.8011038043445</ele><time>2024-02-17T03:38:13Z</time></trkpt><trkpt lat="33.1212935" lon="132.6222704"><ele>916.9433591153534</ele><time>2024-02-17T03:39:00Z</time></trkpt><trkpt lat="33.1211604" lon="132.62242"><ele>905.91476918045</ele><time>2024-02-17T03:39:39Z</time></trkpt><trkpt lat="33.1209851" lon="132.6224909"><ele>896.1156601559877</ele><time>2024-02-17T03:40:04Z</time></trkpt><trkpt lat="33.1207999" lon="132.6224998"><ele>888.1860486412767</ele><time>2024-02-17T03:40:37Z</time></trkpt><trkpt lat="33.1206204" lon="132.6224769"><ele>879.0391640718823</ele><time>2024-02-17T03:41:11Z</time></trkpt><trkpt lat="33.1204637" lon="132.6225896"><ele>868.6340118407919</ele><time>2024-02-17T03:42:00Z</time></trkpt><trkpt lat="33.1202895" lon="132.6226507"><ele>857.4954001570226</ele><time>2024-02-17T03:42:47Z</time></trkpt><trkpt lat="33.1201418" lon="132.6227741"><ele>847.4340962140841</ele><time>2024-02-17T03:43:22Z</time></trkpt><trkpt lat="33.1199918" lon="132.6229017"><ele>840.1818641409836</ele><time>2024-02-17T03:44:21Z</time></trkpt><trkpt lat="33.1198312" lon="132.6230039"><ele>833.6745930379549</ele><time>2024-02-17T03:44:50Z</time></trkpt><trkpt lat="33.1196483" lon="132.6230014"><ele>827.1314392133119</ele><time>2024-02-17T03:45:21Z</time></trkpt><trkpt lat="33.1194668" lon="132.6229608"><ele>820.4587046517645</ele><time>2024-02-17T03:46:03Z</time></trkpt><trkpt lat="33.1192839" lon="132.6229837"><ele>813.9041095559745</ele><time>2024-02-17T03:46:36Z</time></trkpt><trkpt lat="33.119118" lon="132.623068"><ele>804.8782436570197</ele><time>2024-02-17T03:47:04Z</time></trkpt><trkpt lat="33.1189728" lon="132.6232015"><ele>799.2341036622878</ele><time>2024-02-17T03:48:02Z</time></trkpt><trkpt lat="33.1188002" lon="132.6232676"><ele>797.6933333333333</ele><time>2024-02-17T03:48:58Z</time></trkpt><trkpt lat="33.118622" lon="132.6233086"><ele>804.2533333333332</ele><time>2024-02-17T03:51:17Z</time></trkpt><trkpt lat="33.1184461" lon="132.6233904"><ele>811.7333333333332</ele><time>2024-02-17T03:52:25Z</time></trkpt><trkpt lat="33.1182653" lon="132.6234357"><ele>821.1833333333334</ele><time>2024-02-17T03:53:54Z</time></trkpt><trkpt lat="33.1180844" lon="132.6234472"><ele>830.4866666666667</ele><time>2024-02-17T03:54:48Z</time></trkpt><trkpt lat="33.117915" lon="132.6235284"><ele>841.2633333333334</ele><time>2024-02-17T03:55:59Z</time></trkpt><trkpt lat="33.1177496" lon="132.6236336"><ele>851.3033333333334</ele><time>2024-02-17T03:57:07Z</time></trkpt><trkpt lat="33.1176237" lon="132.6237944"><ele>860.7000000000002</ele><time>2024-02-17T03:57:55Z</time></trkpt><trkpt lat="33.1177367" lon="132.6239642"><ele>863.4266666666667</ele><time>2024-02-17T04:08:19Z</time></trkpt><trkpt lat="33.117882" lon="132.6241004"><ele>860.6666666666666</ele><time>2024-02-17T04:08:50Z</time></trkpt><trkpt lat="33.1180028" lon="132.6242616"><ele>852.3366666666667</ele><time>2024-02-17T04:09:16Z</time></trkpt><trkpt lat="33.1181056" lon="132.6244383"><ele>844.7066666666666</ele><time>2024-02-17T04:09:39Z</time></trkpt><trkpt lat="33.118192" lon="132.6246311"><ele>837.9666666666667</ele><time>2024-02-17T04:10:09Z</time></trkpt><trkpt lat="33.1182905" lon="132.6248118"><ele>830.8633333333333</ele><time>2024-02-17T04:10:51Z</time></trkpt><trkpt lat="33.1184124" lon="132.6249703"><ele>824.3133333333334</ele><time>2024-02-17T04:11:20Z</time></trkpt><trkpt lat="33.118515" lon="132.6251551"><ele>814.7666666666668</ele><time>2024-02-17T04:11:47Z</time></trkpt><trkpt lat="33.1185562" lon="132.6253653"><ele>807.4900000000001</ele><time>2024-02-17T04:12:27Z</time></trkpt><trkpt lat="33.1186701" lon="132.6255342"><ele>796.7800000000001</ele><time>2024-02-17T04:12:58Z</time></trkpt><trkpt lat="33.1188421" lon="132.6256019"><ele>786.5533333333333</ele><time>2024-02-17T04:14:19Z</time></trkpt><trkpt lat="33.1189032" lon="132.625806"><ele>774.9666666666667</ele><time>2024-02-17T04:16:39Z</time></trkpt><trkpt lat="33.1190611" lon="132.6259114"><ele>764.7466666666668</ele><time>2024-02-17T04:17:25Z</time></trkpt><trkpt lat="33.1191628" lon="132.6260943"><ele>757.7543256943565</ele><time>2024-02-17T04:18:10Z</time></trkpt><trkpt lat="33.1192893" lon="132.6262509"><ele>750.2283002424168</ele><time>2024-02-17T04:18:46Z</time></trkpt><trkpt lat="33.1192821" lon="132.6264668"><ele>745.1447570302302</ele><time>2024-02-17T04:19:01Z</time></trkpt><trkpt lat="33.1193215" lon="132.6266878"><ele>737.477800018566</ele><time>2024-02-17T04:19:33Z</time></trkpt><trkpt lat="33.1194824" lon="132.6267889"><ele>729.3827109084823</ele><time>2024-02-17T04:20:05Z</time></trkpt><trkpt lat="33.119586" lon="132.6269711"><ele>719.9183241073364</ele><time>2024-02-17T04:20:39Z</time></trkpt><trkpt lat="33.1197335" lon="132.6270987"><ele>712.1922889645954</ele><time>2024-02-17T04:21:24Z</time></trkpt><trkpt lat="33.1198203" lon="132.6272941"><ele>704.9220225918652</ele><time>2024-02-17T04:22:00Z</time></trkpt><trkpt lat="33.1198106" lon="132.6275102"><ele>696.7562422596769</ele><time>2024-02-17T04:22:31Z</time></trkpt><trkpt lat="33.1198684" lon="132.6277189"><ele>689.553833012727</ele><time>2024-02-17T04:23:00Z</time></trkpt><trkpt lat="33.1200399" lon="132.6277872"><ele>682.5874364136857</ele><time>2024-02-17T04:23:28Z</time></trkpt><trkpt lat="33.1202034" lon="132.6278782"><ele>677.756604504587</ele><time>2024-02-17T04:23:51Z</time></trkpt><trkpt lat="33.1201827" lon="132.6280935"><ele>668.9829694137927</ele><time>2024-02-17T04:28:28Z</time></trkpt><trkpt lat="33.1202518" lon="132.6283028"><ele>658.105139269422</ele><time>2024-02-17T04:29:20Z</time></trkpt><trkpt lat="33.1203144" lon="132.6285051"><ele>645.0565674001068</ele><time>2024-02-17T04:30:00Z</time></trkpt><trkpt lat="33.1204265" lon="132.6286977"><ele>633.4221014029055</ele><time>2024-02-17T04:30:56Z</time></trkpt><trkpt lat="33.1204659" lon="132.628907"><ele>624.5034916505978</ele><time>2024-02-17T04:31:36Z</time></trkpt><trkpt lat="33.1205099" lon="132.6291169"><ele>613.7677159714368</ele><time>2024-02-17T04:32:48Z</time></trkpt><trkpt lat="33.1204607" lon="132.6293235"><ele>601.5368002629074</ele><time>2024-02-17T04:33:47Z</time></trkpt><trkpt lat="33.1204336" lon="132.6295409"><ele>587.4594101388986</ele><time>2024-02-17T04:34:34Z</time></trkpt><trkpt lat="33.1203347" lon="132.6297202"><ele>575.6352450238139</ele><time>2024-02-17T04:35:16Z</time></trkpt><trkpt lat="33.1203937" lon="132.6299251"><ele>562.3188843592329</ele><time>2024-02-17T04:37:50Z</time></trkpt><trkpt lat="33.1202266" lon="132.6300417"><ele>547.8277568536865</ele><time>2024-02-17T04:38:45Z</time></trkpt><trkpt lat="33.1202132" lon="132.6302583"><ele>533.904944321683</ele><time>2024-02-17T04:39:16Z</time></trkpt><trkpt lat="33.1201335" lon="132.6304511"><ele>523.4747587396795</ele><time>2024-02-17T04:40:32Z</time></trkpt><trkpt lat="33.1201061" lon="132.6306667"><ele>514.1824457127022</ele><time>2024-02-17T04:41:39Z</time></trkpt><trkpt lat="33.1200879" lon="132.63088"><ele>505.35270554972755</ele><time>2024-02-17T04:46:22Z</time></trkpt><trkpt lat="33.1202406" lon="132.6310028"><ele>495.75660462188097</ele><time>2024-02-17T04:47:35Z</time></trkpt><trkpt lat="33.1202812" lon="132.6312135"><ele>487.91790122450584</ele><time>2024-02-17T04:48:28Z</time></trkpt><trkpt lat="33.1202775" lon="132.6314303"><ele>479.26979427402495</ele><time>2024-02-17T04:49:07Z</time></trkpt><trkpt lat="33.1203279" lon="132.6316391"><ele>470.3933546635987</ele><time>2024-02-17T04:49:55Z</time></trkpt><trkpt lat="33.1203725" lon="132.6318494"><ele>461.4495093925607</ele><time>2024-02-17T04:50:38Z</time></trkpt><trkpt lat="33.1203281" lon="132.632064"><ele>452.5065227709809</ele><time>2024-02-17T04:51:24Z</time></trkpt><trkpt lat="33.120315" lon="132.632283"><ele>443.61687165020277</ele><time>2024-02-17T04:52:00Z</time></trkpt><trkpt lat="33.1202025" lon="132.6324506"><ele>436.9088407170462</ele><time>2024-02-17T04:52:37Z</time></trkpt><trkpt lat="33.1201481" lon="132.6326569"><ele>431.18168305183696</ele><time>2024-02-17T04:53:10Z</time></trkpt><trkpt lat="33.1199784" lon="132.6327427"><ele>428.55791516424097</ele><time>2024-02-17T04:53:32Z</time></trkpt><trkpt lat="33.1198485" lon="132.6328916"><ele>425.1801572754692</ele><time>2024-02-17T04:53:54Z</time></trkpt><trkpt lat="33.1197223" lon="132.6330521"><ele>422.33432358126385</ele><time>2024-02-17T04:54:22Z</time></trkpt><trkpt lat="33.1195517" lon="132.6329739"><ele>419.17375263752086</ele><time>2024-02-17T04:54:39Z</time></trkpt><trkpt lat="33.1193664" lon="132.6329876"><ele>417.49900984214895</ele><time>2024-02-17T04:54:58Z</time></trkpt><trkpt lat="33.1191911" lon="132.6329125"><ele>415.1992644361814</ele><time>2024-02-17T04:55:21Z</time></trkpt><trkpt lat="33.1190634" lon="132.6330738"><ele>404.79243367667976</ele><time>2024-02-17T04:55:40Z</time></trkpt><trkpt lat="33.1189277" lon="132.6332159"><ele>393.2938953827317</ele><time>2024-02-17T04:56:11Z</time></trkpt><trkpt lat="33.1187399" lon="132.6332428"><ele>383.06666666666666</ele><time>2024-02-17T04:56:37Z</time></trkpt><trkpt lat="33.1185754" lon="132.633331"><ele>381.46999999999997</ele><time>2024-02-17T04:56:50Z</time></trkpt><trkpt lat="33.1183982" lon="132.6334039"><ele>379.7833333333333</ele><time>2024-02-17T04:57:05Z</time></trkpt><trkpt lat="33.1182122" lon="132.6334042"><ele>377.67333333333335</ele><time>2024-02-17T04:57:20Z</time></trkpt><trkpt lat="33.1180286" lon="132.6333668"><ele>376.4366666666667</ele><time>2024-02-17T04:57:37Z</time></trkpt><trkpt lat="33.1178396" lon="132.6333599"><ele>376.07666666666665</ele><time>2024-02-17T04:57:54Z</time></trkpt><trkpt lat="33.1177034" lon="132.6335036"><ele>375.90333333333336</ele><time>2024-02-17T04:58:11Z</time></trkpt><trkpt lat="33.1178591" lon="132.6336152"><ele>374.90333333333336</ele><time>2024-02-17T04:58:27Z</time></trkpt><trkpt lat="33.1180303" lon="132.6337015"><ele>373.1433333333334</ele><time>2024-02-17T04:58:44Z</time></trkpt><trkpt lat="33.1181384" lon="132.6338817"><ele>370.67333333333335</ele><time>2024-02-17T04:58:58Z</time></trkpt><trkpt lat="33.1180458" lon="132.6340857"><ele>363.26</ele><time>2024-02-17T04:59:12Z</time></trkpt><trkpt lat="33.1178772" lon="132.6341878"><ele>357.1033333333333</ele><time>2024-02-17T04:59:24Z</time></trkpt><trkpt lat="33.1177266" lon="132.6343096"><ele>353.5933333333333</ele><time>2024-02-17T04:59:37Z</time></trkpt><trkpt lat="33.1175553" lon="132.634387"><ele>355.99666666666667</ele><time>2024-02-17T04:59:50Z</time></trkpt><trkpt lat="33.1174022" lon="132.6345044"><ele>356.1766666666667</ele><time>2024-02-17T05:00:04Z</time></trkpt><trkpt lat="33.117218" lon="132.634464"><ele>356.21000000000004</ele><time>2024-02-17T05:00:21Z</time></trkpt></trkseg></trk></gpx>