<?xml version='1.0' encoding='UTF-8'?><gpx creator="Yama Museum Peak Annotator" xsi:schemaLocation="http://www.topografix.com/GPX/1/1 http://www.topografix.com/GPX/1/1/gpx.xsd" version="1.1" xmlns="http://www.topografix.com/GPX/1/1" xmlns:xsi="http://www.w3.org/2001/XMLSchema-instance"><metadata><bounds maxlat="33.3481272" maxlon="132.901833" minlat="33.3119424" minlon="132.8724863"/></metadata>  <wpt lat="33.3272325" lon="132.9014493">
    <ele>1106.7248732843473</ele>
    <name>霧立山</name>
    <desc>Peak detected at 1107m (prominence: 75m)</desc>
    <sym>Summit</sym>
  </wpt>
  <wpt lat="33.3120212" lon="132.8936817">
    <ele>1139.8423907433491</ele>
    <name>地蔵山</name>
    <desc>Peak detected at 1140m (prominence: 707m)</desc>
    <sym>Summit</sym>
  </wpt>
<trk><name>霧立山・地蔵山</name><number>1</number><trkseg><trkpt lat="33.3480707" lon="132.8724926"><ele>433.8603390330137</ele><time>2025-12-05T23:06:52Z</time></trkpt><trkpt lat="33.3479822" lon="132.8727032"><ele>433.29110494865574</ele><time>2025-12-05T23:07:30Z</time></trkpt><trkpt lat="33.3480035" lon="132.872939"><ele>433.11449826118087</ele><time>2025-12-05T23:07:45Z</time></trkpt><trkpt lat="33.347922" lon="132.8731423"><ele>432.87803647151117</ele><time>2025-12-05T23:08:21Z</time></trkpt><trkpt lat="33.3478287" lon="132.873353"><ele>432.98837621445017</ele><time>2025-12-05T23:08:36Z</time></trkpt><trkpt lat="33.3477212" lon="132.8735398"><ele>432.9525036912594</ele><time>2025-12-05T23:08:51Z</time></trkpt><trkpt lat="33.3475891" lon="132.8737049"><ele>433.1270923805253</ele><time>2025-12-05T23:09:06Z</time></trkpt><trkpt lat="33.3475987" lon="132.8739344"><ele>433.53922688098606</ele><time>2025-12-05T23:09:21Z</time></trkpt><trkpt lat="33.3476397" lon="132.8737233"><ele>434.1231487566162</ele><time>2025-12-05T23:09:56Z</time></trkpt><trkpt lat="33.3477724" lon="132.8735591"><ele>434.0720092176032</ele><time>2025-12-05T23:10:11Z</time></trkpt><trkpt lat="33.3479044" lon="132.8733438"><ele>433.5568895568045</ele><time>2025-12-05T23:10:32Z</time></trkpt><trkpt lat="33.3479884" lon="132.8731169"><ele>432.9985798665757</ele><time>2025-12-05T23:10:43Z</time></trkpt><trkpt lat="33.3480461" lon="132.8729038"><ele>432.8116603876735</ele><time>2025-12-05T23:10:55Z</time></trkpt><trkpt lat="33.3480381" lon="132.8726831"><ele>432.82766309623656</ele><time>2025-12-05T23:11:07Z</time></trkpt><trkpt lat="33.3481272" lon="132.8724863"><ele>433.14928359854883</ele><time>2025-12-05T23:11:22Z</time></trkpt><trkpt lat="33.3480062" lon="132.8726717"><ele>433.205506733175</ele><time>2025-12-05T23:11:43Z</time></trkpt><trkpt lat="33.348001" lon="132.8729172"><ele>433.0402495379573</ele><time>2025-12-05T23:11:58Z</time></trkpt><trkpt lat="33.3479223" lon="132.8731407"><ele>432.7159832346322</ele><time>2025-12-05T23:12:12Z</time></trkpt><trkpt lat="33.3478375" lon="132.8733577"><ele>432.60219188856604</ele><time>2025-12-05T23:12:26Z</time></trkpt><trkpt lat="33.3477394" lon="132.8735543"><ele>432.77806535963583</ele><time>2025-12-05T23:12:41Z</time></trkpt><trkpt lat="33.3475881" lon="132.8737278"><ele>433.0165253042201</ele><time>2025-12-05T23:12:56Z</time></trkpt><trkpt lat="33.3475865" lon="132.8739713"><ele>433.39666615676214</ele><time>2025-12-05T23:13:10Z</time></trkpt><trkpt lat="33.3477177" lon="132.874133"><ele>433.7390380212817</ele><time>2025-12-05T23:13:22Z</time></trkpt><trkpt lat="33.3477534" lon="132.8743678"><ele>434.0871875918571</ele><time>2025-12-05T23:13:37Z</time></trkpt><trkpt lat="33.3476651" lon="132.8745638"><ele>434.4939347814138</ele><time>2025-12-05T23:13:49Z</time></trkpt><trkpt lat="33.347483" lon="132.8747214"><ele>435.15224520049554</ele><time>2025-12-05T23:14:03Z</time></trkpt><trkpt lat="33.3473553" lon="132.8749058"><ele>435.96502969195035</ele><time>2025-12-05T23:14:18Z</time></trkpt><trkpt lat="33.3472468" lon="132.875095"><ele>437.1003737669733</ele><time>2025-12-05T23:14:33Z</time></trkpt><trkpt lat="33.34721" lon="132.8753277"><ele>438.4658289344914</ele><time>2025-12-05T23:14:47Z</time></trkpt><trkpt lat="33.3471212" lon="132.8755487"><ele>440.25996578415976</ele><time>2025-12-05T23:15:02Z</time></trkpt><trkpt lat="33.3471344" lon="132.8757638"><ele>441.40930480018636</ele><time>2025-12-05T23:15:18Z</time></trkpt><trkpt lat="33.3472938" lon="132.8758757"><ele>442.10259207435155</ele><time>2025-12-05T23:16:25Z</time></trkpt><trkpt lat="33.3474444" lon="132.876084"><ele>442.0019784913802</ele><time>2025-12-05T23:16:39Z</time></trkpt><trkpt lat="33.3475553" lon="132.8763057"><ele>442.0013199488262</ele><time>2025-12-05T23:16:54Z</time></trkpt><trkpt lat="33.3475465" lon="132.8765367"><ele>442.00060976291473</ele><time>2025-12-05T23:17:09Z</time></trkpt><trkpt lat="33.3475373" lon="132.8767725"><ele>441.9999308176978</ele><time>2025-12-05T23:17:23Z</time></trkpt><trkpt lat="33.3473464" lon="132.8768266"><ele>441.9995164852027</ele><time>2025-12-05T23:17:47Z</time></trkpt><trkpt lat="33.3473003" lon="132.8770621"><ele>441.9991111073453</ele><time>2025-12-05T23:18:32Z</time></trkpt><trkpt lat="33.3471894" lon="132.8772555"><ele>441.9987815266706</ele><time>2025-12-05T23:18:44Z</time></trkpt><trkpt lat="33.3470273" lon="132.8773834"><ele>441.9983722982989</ele><time>2025-12-05T23:19:11Z</time></trkpt><trkpt lat="33.3468322" lon="132.877314"><ele>441.9983020375621</ele><time>2025-12-05T23:19:29Z</time></trkpt><trkpt lat="33.3466688" lon="132.8774496"><ele>441.99830451727513</ele><time>2025-12-05T23:19:44Z</time></trkpt><trkpt lat="33.3465037" lon="132.8775421"><ele>441.99834118265215</ele><time>2025-12-05T23:19:56Z</time></trkpt><trkpt lat="33.346332" lon="132.8776338"><ele>441.9982181783868</ele><time>2025-12-05T23:20:08Z</time></trkpt><trkpt lat="33.3462446" lon="132.8778355"><ele>441.99800596999245</ele><time>2025-12-05T23:20:20Z</time></trkpt><trkpt lat="33.34619" lon="132.8780493"><ele>441.9976404990104</ele><time>2025-12-05T23:20:32Z</time></trkpt><trkpt lat="33.3461613" lon="132.8782725"><ele>441.9971006921508</ele><time>2025-12-05T23:20:44Z</time></trkpt><trkpt lat="33.3460803" lon="132.8784943"><ele>442.5635533140564</ele><time>2025-12-05T23:20:59Z</time></trkpt><trkpt lat="33.3459994" lon="132.8787054"><ele>443.24886427744235</ele><time>2025-12-05T23:21:15Z</time></trkpt><trkpt lat="33.345804" lon="132.8788382"><ele>444.0099329722118</ele><time>2025-12-05T23:21:30Z</time></trkpt><trkpt lat="33.3455984" lon="132.8788921"><ele>444.40004505921814</ele><time>2025-12-05T23:21:45Z</time></trkpt><trkpt lat="33.3454155" lon="132.8788626"><ele>444.59609153314153</ele><time>2025-12-05T23:22:10Z</time></trkpt><trkpt lat="33.3452234" lon="132.8789641"><ele>445.16509744016304</ele><time>2025-12-05T23:22:24Z</time></trkpt><trkpt lat="33.3450424" lon="132.8790087"><ele>446.1319864376933</ele><time>2025-12-05T23:22:40Z</time></trkpt><trkpt lat="33.3449061" lon="132.8791968"><ele>447.4888148584573</ele><time>2025-12-05T23:22:54Z</time></trkpt><trkpt lat="33.3448997" lon="132.879449"><ele>448.62935487090675</ele><time>2025-12-05T23:23:09Z</time></trkpt><trkpt lat="33.3447294" lon="132.8795611"><ele>449.18250257599476</ele><time>2025-12-05T23:23:22Z</time></trkpt><trkpt lat="33.3445297" lon="132.8795057"><ele>449.4504701949044</ele><time>2025-12-05T23:23:37Z</time></trkpt><trkpt lat="33.3443823" lon="132.8796927"><ele>449.8082309978377</ele><time>2025-12-05T23:23:55Z</time></trkpt><trkpt lat="33.3443662" lon="132.8799497"><ele>450.3441010020663</ele><time>2025-12-05T23:24:10Z</time></trkpt><trkpt lat="33.3442818" lon="132.8801877"><ele>450.97599901360246</ele><time>2025-12-05T23:24:26Z</time></trkpt><trkpt lat="33.3441321" lon="132.8803733"><ele>451.3664555184587</ele><time>2025-12-05T23:24:41Z</time></trkpt><trkpt lat="33.3439612" lon="132.8804496"><ele>451.4893669921368</ele><time>2025-12-05T23:24:53Z</time></trkpt><trkpt lat="33.3437772" lon="132.8804241"><ele>451.45665955105005</ele><time>2025-12-05T23:25:06Z</time></trkpt><trkpt lat="33.3436324" lon="132.8802793"><ele>451.5094413411634</ele><time>2025-12-05T23:25:23Z</time></trkpt><trkpt lat="33.3436184" lon="132.8800476"><ele>451.8896472351146</ele><time>2025-12-05T23:25:38Z</time></trkpt><trkpt lat="33.3435097" lon="132.879851"><ele>452.7275734951615</ele><time>2025-12-05T23:25:56Z</time></trkpt><trkpt lat="33.3433128" lon="132.8797886"><ele>453.8696811556911</ele><time>2025-12-05T23:26:12Z</time></trkpt><trkpt lat="33.3431154" lon="132.8798532"><ele>455.4823998226948</ele><time>2025-12-05T23:26:32Z</time></trkpt><trkpt lat="33.3431044" lon="132.8800689"><ele>457.08015822018956</ele><time>2025-12-05T23:26:47Z</time></trkpt><trkpt lat="33.3430875" lon="132.8803098"><ele>458.2506804822713</ele><time>2025-12-05T23:26:59Z</time></trkpt><trkpt lat="33.3429626" lon="132.8804677"><ele>458.8489874549375</ele><time>2025-12-05T23:27:11Z</time></trkpt><trkpt lat="33.3428299" lon="132.8806228"><ele>459.3975248717913</ele><time>2025-12-05T23:27:28Z</time></trkpt><trkpt lat="33.3429007" lon="132.8808392"><ele>460.2258497628433</ele><time>2025-12-05T23:27:42Z</time></trkpt><trkpt lat="33.3429766" lon="132.8810759"><ele>461.2569296068784</ele><time>2025-12-05T23:27:59Z</time></trkpt><trkpt lat="33.3429084" lon="132.8813135"><ele>462.2849448493873</ele><time>2025-12-05T23:28:17Z</time></trkpt><trkpt lat="33.3429337" lon="132.8815395"><ele>463.2401752388921</ele><time>2025-12-05T23:28:34Z</time></trkpt><trkpt lat="33.3430686" lon="132.8817099"><ele>464.052381262011</ele><time>2025-12-05T23:28:48Z</time></trkpt><trkpt lat="33.3432077" lon="132.8818506"><ele>464.71266598535226</ele><time>2025-12-05T23:29:02Z</time></trkpt><trkpt lat="33.343352" lon="132.8820054"><ele>465.29868870251903</ele><time>2025-12-05T23:29:17Z</time></trkpt><trkpt lat="33.3435107" lon="132.8821755"><ele>465.9502578455063</ele><time>2025-12-05T23:29:34Z</time></trkpt><trkpt lat="33.3434762" lon="132.8824043"><ele>466.5452294101563</ele><time>2025-12-05T23:29:48Z</time></trkpt><trkpt lat="33.3433474" lon="132.8826258"><ele>467.1909143035753</ele><time>2025-12-05T23:30:03Z</time></trkpt><trkpt lat="33.3432554" lon="132.8828394"><ele>467.7685510524795</ele><time>2025-12-05T23:30:18Z</time></trkpt><trkpt lat="33.3432988" lon="132.8830659"><ele>468.63649183196594</ele><time>2025-12-05T23:30:35Z</time></trkpt><trkpt lat="33.3434913" lon="132.8830962"><ele>469.7603220118108</ele><time>2025-12-05T23:30:46Z</time></trkpt><trkpt lat="33.343708" lon="132.8830998"><ele>471.08461738920965</ele><time>2025-12-05T23:31:02Z</time></trkpt><trkpt lat="33.3438745" lon="132.8832743"><ele>472.4983254252756</ele><time>2025-12-05T23:31:17Z</time></trkpt><trkpt lat="33.3440251" lon="132.8834462"><ele>473.8402294141453</ele><time>2025-12-05T23:31:42Z</time></trkpt><trkpt lat="33.3438877" lon="132.8836333"><ele>475.29125308453405</ele><time>2025-12-05T23:32:03Z</time></trkpt><trkpt lat="33.3437199" lon="132.8837798"><ele>476.6235155723034</ele><time>2025-12-05T23:32:19Z</time></trkpt><trkpt lat="33.3435488" lon="132.8839317"><ele>477.66723745568515</ele><time>2025-12-05T23:32:34Z</time></trkpt><trkpt lat="33.3434128" lon="132.884095"><ele>478.383070868701</ele><time>2025-12-05T23:32:49Z</time></trkpt><trkpt lat="33.3432038" lon="132.8841823"><ele>478.7621088667883</ele><time>2025-12-05T23:33:04Z</time></trkpt><trkpt lat="33.3430213" lon="132.8841904"><ele>479.3891386059563</ele><time>2025-12-05T23:33:19Z</time></trkpt><trkpt lat="33.3429432" lon="132.8844243"><ele>480.51901080655966</ele><time>2025-12-05T23:33:39Z</time></trkpt><trkpt lat="33.3427839" lon="132.8845312"><ele>481.7442988534483</ele><time>2025-12-05T23:33:54Z</time></trkpt><trkpt lat="33.3425762" lon="132.8844708"><ele>483.0222029131896</ele><time>2025-12-05T23:34:47Z</time></trkpt><trkpt lat="33.3423878" lon="132.8844976"><ele>483.7176121759764</ele><time>2025-12-05T23:34:59Z</time></trkpt><trkpt lat="33.342211" lon="132.8846208"><ele>484.6630701711372</ele><time>2025-12-05T23:35:14Z</time></trkpt><trkpt lat="33.3421244" lon="132.8848486"><ele>485.4733519035771</ele><time>2025-12-05T23:35:32Z</time></trkpt><trkpt lat="33.3419382" lon="132.8848577"><ele>486.48067321260874</ele><time>2025-12-05T23:35:51Z</time></trkpt><trkpt lat="33.3417437" lon="132.8848457"><ele>487.57779356967467</ele><time>2025-12-05T23:36:06Z</time></trkpt><trkpt lat="33.3415985" lon="132.8849809"><ele>488.669300694996</ele><time>2025-12-05T23:36:18Z</time></trkpt><trkpt lat="33.3414769" lon="132.8851828"><ele>489.6874298822406</ele><time>2025-12-05T23:36:33Z</time></trkpt><trkpt lat="33.3413289" lon="132.8849857"><ele>490.564904822103</ele><time>2025-12-05T23:36:45Z</time></trkpt><trkpt lat="33.3412524" lon="132.8847745"><ele>491.3489278346462</ele><time>2025-12-05T23:37:00Z</time></trkpt><trkpt lat="33.341198" lon="132.8845546"><ele>492.0056500258689</ele><time>2025-12-05T23:37:18Z</time></trkpt><trkpt lat="33.3412138" lon="132.8842621"><ele>492.394629074183</ele><time>2025-12-05T23:40:24Z</time></trkpt><trkpt lat="33.3412785" lon="132.88402"><ele>492.9003355632993</ele><time>2025-12-05T23:40:39Z</time></trkpt><trkpt lat="33.3413657" lon="132.8838109"><ele>493.3538578620941</ele><time>2025-12-05T23:41:01Z</time></trkpt><trkpt lat="33.3412941" lon="132.8835798"><ele>493.917871943262</ele><time>2025-12-05T23:41:16Z</time></trkpt><trkpt lat="33.3411396" lon="132.8834643"><ele>494.7454172906685</ele><time>2025-12-05T23:41:28Z</time></trkpt><trkpt lat="33.340998" lon="132.8832846"><ele>495.49171396952573</ele><time>2025-12-05T23:41:43Z</time></trkpt><trkpt lat="33.3408079" lon="132.8832686"><ele>496.8532418458105</ele><time>2025-12-05T23:41:58Z</time></trkpt><trkpt lat="33.3407078" lon="132.8834923"><ele>497.7502302238381</ele><time>2025-12-05T23:42:13Z</time></trkpt><trkpt lat="33.340684" lon="132.8837167"><ele>499.23738942632116</ele><time>2025-12-05T23:42:26Z</time></trkpt><trkpt lat="33.3406478" lon="132.8839633"><ele>500.2588253610015</ele><time>2025-12-05T23:42:40Z</time></trkpt><trkpt lat="33.3405487" lon="132.884167"><ele>501.19554085987585</ele><time>2025-12-05T23:42:55Z</time></trkpt><trkpt lat="33.3404043" lon="132.8842993"><ele>502.1301657605198</ele><time>2025-12-05T23:43:11Z</time></trkpt><trkpt lat="33.3402579" lon="132.8844336"><ele>503.1846537350157</ele><time>2025-12-05T23:43:30Z</time></trkpt><trkpt lat="33.3400927" lon="132.8845367"><ele>504.397876314117</ele><time>2025-12-05T23:43:45Z</time></trkpt><trkpt lat="33.3400827" lon="132.8847834"><ele>505.52178080701697</ele><time>2025-12-05T23:44:01Z</time></trkpt><trkpt lat="33.34003" lon="132.8850223"><ele>506.9071287682882</ele><time>2025-12-05T23:44:18Z</time></trkpt><trkpt lat="33.3399154" lon="132.8852323"><ele>508.7454741828726</ele><time>2025-12-05T23:44:36Z</time></trkpt><trkpt lat="33.3396961" lon="132.8852407"><ele>510.45333061031437</ele><time>2025-12-05T23:44:51Z</time></trkpt><trkpt lat="33.3395011" lon="132.8852556"><ele>511.7513660070893</ele><time>2025-12-05T23:45:07Z</time></trkpt><trkpt lat="33.3392962" lon="132.8853011"><ele>512.9971161200431</ele><time>2025-12-05T23:45:25Z</time></trkpt><trkpt lat="33.3391492" lon="132.8854451"><ele>514.4496600683289</ele><time>2025-12-05T23:45:39Z</time></trkpt><trkpt lat="33.3390136" lon="132.8855922"><ele>516.0199994609751</ele><time>2025-12-05T23:45:54Z</time></trkpt><trkpt lat="33.3389022" lon="132.8858187"><ele>517.501526017196</ele><time>2025-12-05T23:46:12Z</time></trkpt><trkpt lat="33.3386976" lon="132.8859556"><ele>518.8008620462334</ele><time>2025-12-05T23:46:31Z</time></trkpt><trkpt lat="33.3385576" lon="132.8857789"><ele>520.0479426613775</ele><time>2025-12-05T23:47:38Z</time></trkpt><trkpt lat="33.3383712" lon="132.8857948"><ele>525.4204811219325</ele><time>2025-12-05T23:50:13Z</time></trkpt><trkpt lat="33.3382792" lon="132.8859961"><ele>534.9725396194784</ele><time>2025-12-05T23:53:44Z</time></trkpt><trkpt lat="33.3382901" lon="132.8862137"><ele>545.5341189754749</ele><time>2025-12-05T23:54:05Z</time></trkpt><trkpt lat="33.338255" lon="132.8864245"><ele>553.0179512700946</ele><time>2025-12-05T23:54:29Z</time></trkpt><trkpt lat="33.3382796" lon="132.8866622"><ele>558.6386049967148</ele><time>2025-12-05T23:55:25Z</time></trkpt><trkpt lat="33.3383282" lon="132.8868783"><ele>563.9303941981575</ele><time>2025-12-05T23:55:53Z</time></trkpt><trkpt lat="33.3383969" lon="132.8870852"><ele>569.633830058095</ele><time>2025-12-05T23:56:21Z</time></trkpt><trkpt lat="33.3384083" lon="132.8873213"><ele>575.0337211047289</ele><time>2025-12-05T23:59:03Z</time></trkpt><trkpt lat="33.3384643" lon="132.8875371"><ele>582.3257439831286</ele><time>2025-12-05T23:59:49Z</time></trkpt><trkpt lat="33.3384695" lon="132.8877688"><ele>589.1968737506287</ele><time>2025-12-06T00:00:17Z</time></trkpt><trkpt lat="33.3385493" lon="132.8879818"><ele>595.8451007098635</ele><time>2025-12-06T00:01:02Z</time></trkpt><trkpt lat="33.3385475" lon="132.8881985"><ele>601.1252333227109</ele><time>2025-12-06T00:01:27Z</time></trkpt><trkpt lat="33.3385992" lon="132.8884289"><ele>606.5062872835891</ele><time>2025-12-06T00:02:04Z</time></trkpt><trkpt lat="33.3384167" lon="132.8883503"><ele>613.0452748929773</ele><time>2025-12-06T00:03:03Z</time></trkpt><trkpt lat="33.338346" lon="132.8881411"><ele>620.2232170673489</ele><time>2025-12-06T00:03:48Z</time></trkpt><trkpt lat="33.3381696" lon="132.8880892"><ele>626.1858174230048</ele><time>2025-12-06T00:05:39Z</time></trkpt><trkpt lat="33.3379897" lon="132.8879756"><ele>631.0759818405207</ele><time>2025-12-06T00:06:12Z</time></trkpt><trkpt lat="33.3380476" lon="132.88818"><ele>636.0121470120257</ele><time>2025-12-06T00:07:00Z</time></trkpt><trkpt lat="33.3381083" lon="132.8883865"><ele>642.277103780635</ele><time>2025-12-06T00:08:24Z</time></trkpt><trkpt lat="33.3381602" lon="132.8885957"><ele>647.8764629855455</ele><time>2025-12-06T00:08:54Z</time></trkpt><trkpt lat="33.3381906" lon="132.8888167"><ele>653.3290136440883</ele><time>2025-12-06T00:09:33Z</time></trkpt><trkpt lat="33.3382314" lon="132.8890292"><ele>659.4744117116355</ele><time>2025-12-06T00:10:15Z</time></trkpt><trkpt lat="33.3382887" lon="132.8892394"><ele>665.3014672542762</ele><time>2025-12-06T00:10:51Z</time></trkpt><trkpt lat="33.3383688" lon="132.8894434"><ele>670.3505333988954</ele><time>2025-12-06T00:11:30Z</time></trkpt><trkpt lat="33.3385016" lon="132.8896018"><ele>674.3209465596967</ele><time>2025-12-06T00:12:02Z</time></trkpt><trkpt lat="33.3386296" lon="132.8897618"><ele>679.5602184851405</ele><time>2025-12-06T00:12:40Z</time></trkpt><trkpt lat="33.3387483" lon="132.8899312"><ele>684.5081639883128</ele><time>2025-12-06T00:13:16Z</time></trkpt><trkpt lat="33.3388081" lon="132.89014"><ele>690.1902539973515</ele><time>2025-12-06T00:13:58Z</time></trkpt><trkpt lat="33.3388626" lon="132.8903485"><ele>694.1783047176841</ele><time>2025-12-06T00:14:31Z</time></trkpt><trkpt lat="33.3389793" lon="132.8905326"><ele>698.7386526078061</ele><time>2025-12-06T00:15:04Z</time></trkpt><trkpt lat="33.3387972" lon="132.89047"><ele>704.6335085884022</ele><time>2025-12-06T00:16:55Z</time></trkpt><trkpt lat="33.3386397" lon="132.8903309"><ele>711.9271225765925</ele><time>2025-12-06T00:17:38Z</time></trkpt><trkpt lat="33.3384687" lon="132.8902594"><ele>719.440857276176</ele><time>2025-12-06T00:18:16Z</time></trkpt><trkpt lat="33.3382867" lon="132.8902185"><ele>725.1670012891426</ele><time>2025-12-06T00:19:01Z</time></trkpt><trkpt lat="33.3381051" lon="132.8901903"><ele>730.4048068773865</ele><time>2025-12-06T00:19:34Z</time></trkpt><trkpt lat="33.3379157" lon="132.8901686"><ele>734.9636786200041</ele><time>2025-12-06T00:21:10Z</time></trkpt><trkpt lat="33.3377336" lon="132.8901323"><ele>742.5234156628503</ele><time>2025-12-06T00:23:25Z</time></trkpt><trkpt lat="33.3375609" lon="132.8900176"><ele>753.1811733739484</ele><time>2025-12-06T00:25:20Z</time></trkpt><trkpt lat="33.3374279" lon="132.8901716"><ele>765.0855512438899</ele><time>2025-12-06T00:26:10Z</time></trkpt><trkpt lat="33.3374532" lon="132.8903964"><ele>774.0025566690996</ele><time>2025-12-06T00:27:01Z</time></trkpt><trkpt lat="33.3375214" lon="132.8906097"><ele>779.9059515164176</ele><time>2025-12-06T00:27:37Z</time></trkpt><trkpt lat="33.337601" lon="132.8908046"><ele>785.2867344058382</ele><time>2025-12-06T00:28:19Z</time></trkpt><trkpt lat="33.3377247" lon="132.8909636"><ele>790.4668899443695</ele><time>2025-12-06T00:28:51Z</time></trkpt><trkpt lat="33.33753" lon="132.8909599"><ele>797.546007400843</ele><time>2025-12-06T00:30:39Z</time></trkpt><trkpt lat="33.3373362" lon="132.8909048"><ele>804.4697782205195</ele><time>2025-12-06T00:31:21Z</time></trkpt><trkpt lat="33.3373725" lon="132.8911178"><ele>812.47151972954</ele><time>2025-12-06T00:32:42Z</time></trkpt><trkpt lat="33.3374552" lon="132.8913177"><ele>819.0339274250377</ele><time>2025-12-06T00:33:30Z</time></trkpt><trkpt lat="33.3374777" lon="132.891534"><ele>825.619467140866</ele><time>2025-12-06T00:34:42Z</time></trkpt><trkpt lat="33.3373771" lon="132.8917188"><ele>831.4216796327199</ele><time>2025-12-06T00:35:12Z</time></trkpt><trkpt lat="33.337282" lon="132.8919025"><ele>836.4797434952008</ele><time>2025-12-06T00:35:51Z</time></trkpt><trkpt lat="33.3372214" lon="132.8921095"><ele>842.1352211980997</ele><time>2025-12-06T00:36:30Z</time></trkpt><trkpt lat="33.3371978" lon="132.8923454"><ele>847.3524169666367</ele><time>2025-12-06T00:37:03Z</time></trkpt><trkpt lat="33.3371366" lon="132.8925681"><ele>853.2264022952769</ele><time>2025-12-06T00:37:48Z</time></trkpt><trkpt lat="33.3370717" lon="132.8927813"><ele>858.9847440783847</ele><time>2025-12-06T00:38:27Z</time></trkpt><trkpt lat="33.3369547" lon="132.8929459"><ele>864.9207759244341</ele><time>2025-12-06T00:38:57Z</time></trkpt><trkpt lat="33.336867" lon="132.8931346"><ele>870.4076882240039</ele><time>2025-12-06T00:39:45Z</time></trkpt><trkpt lat="33.3368362" lon="132.8929164"><ele>875.3640140033525</ele><time>2025-12-06T00:40:18Z</time></trkpt><trkpt lat="33.3367589" lon="132.8927158"><ele>880.3570525245362</ele><time>2025-12-06T00:40:53Z</time></trkpt><trkpt lat="33.3366631" lon="132.8925329"><ele>885.100360105422</ele><time>2025-12-06T00:41:32Z</time></trkpt><trkpt lat="33.3366117" lon="132.8927547"><ele>889.2473470503073</ele><time>2025-12-06T00:43:07Z</time></trkpt><trkpt lat="33.3365921" lon="132.8929726"><ele>892.9377584195289</ele><time>2025-12-06T00:43:40Z</time></trkpt><trkpt lat="33.3365226" lon="132.8931734"><ele>895.9885563160229</ele><time>2025-12-06T00:44:10Z</time></trkpt><trkpt lat="33.3364117" lon="132.8933674"><ele>899.2179526353108</ele><time>2025-12-06T00:44:43Z</time></trkpt><trkpt lat="33.3363202" lon="132.8935601"><ele>902.3513254929545</ele><time>2025-12-06T00:45:10Z</time></trkpt><trkpt lat="33.3362037" lon="132.893725"><ele>906.073072687262</ele><time>2025-12-06T00:45:40Z</time></trkpt><trkpt lat="33.3360161" lon="132.8937724"><ele>911.3974465473478</ele><time>2025-12-06T00:47:13Z</time></trkpt><trkpt lat="33.3358625" lon="132.8939019"><ele>918.1505983856479</ele><time>2025-12-06T00:47:52Z</time></trkpt><trkpt lat="33.335727" lon="132.8940517"><ele>926.2214471012963</ele><time>2025-12-06T00:48:46Z</time></trkpt><trkpt lat="33.3355922" lon="132.8942115"><ele>932.9334558382399</ele><time>2025-12-06T00:49:21Z</time></trkpt><trkpt lat="33.3354853" lon="132.894393"><ele>939.231793915656</ele><time>2025-12-06T00:50:03Z</time></trkpt><trkpt lat="33.3354361" lon="132.8946145"><ele>944.2037785046114</ele><time>2025-12-06T00:50:39Z</time></trkpt><trkpt lat="33.3353851" lon="132.8948358"><ele>949.1244114424317</ele><time>2025-12-06T00:52:09Z</time></trkpt><trkpt lat="33.3353333" lon="132.8950488"><ele>953.9827591363315</ele><time>2025-12-06T00:52:45Z</time></trkpt><trkpt lat="33.335237" lon="132.8952414"><ele>959.2982697208762</ele><time>2025-12-06T00:53:18Z</time></trkpt><trkpt lat="33.3351051" lon="132.8953881"><ele>963.9277870320384</ele><time>2025-12-06T00:53:53Z</time></trkpt><trkpt lat="33.3349623" lon="132.8955319"><ele>968.9865051238803</ele><time>2025-12-06T00:54:50Z</time></trkpt><trkpt lat="33.334857" lon="132.89572"><ele>974.3636791004815</ele><time>2025-12-06T00:55:26Z</time></trkpt><trkpt lat="33.3347761" lon="132.8959193"><ele>981.3019363275143</ele><time>2025-12-06T00:56:11Z</time></trkpt><trkpt lat="33.3346609" lon="132.8961021"><ele>988.2093129053205</ele><time>2025-12-06T00:56:59Z</time></trkpt><trkpt lat="33.3345002" lon="132.8962511"><ele>993.0009685762715</ele><time>2025-12-06T00:57:23Z</time></trkpt><trkpt lat="33.3343643" lon="132.8964331"><ele>995.2444470988261</ele><time>2025-12-06T00:57:47Z</time></trkpt><trkpt lat="33.3343016" lon="132.8966402"><ele>995.2144535561615</ele><time>2025-12-06T00:58:05Z</time></trkpt><trkpt lat="33.3342535" lon="132.8968587"><ele>996.3225781860345</ele><time>2025-12-06T00:58:50Z</time></trkpt><trkpt lat="33.3342298" lon="132.8970755"><ele>1000.0601342642309</ele><time>2025-12-06T00:59:35Z</time></trkpt><trkpt lat="33.3341029" lon="132.8972566"><ele>1005.298593232092</ele><time>2025-12-06T01:00:14Z</time></trkpt><trkpt lat="33.3339217" lon="132.8973289"><ele>1008.6819756041546</ele><time>2025-12-06T01:01:02Z</time></trkpt><trkpt lat="33.3337318" lon="132.8973862"><ele>1008.7742745326026</ele><time>2025-12-06T01:02:04Z</time></trkpt><trkpt lat="33.3335584" lon="132.8974814"><ele>1007.8080573716751</ele><time>2025-12-06T01:08:49Z</time></trkpt><trkpt lat="33.3333722" lon="132.8974574"><ele>1005.5500089368434</ele><time>2025-12-06T01:09:22Z</time></trkpt><trkpt lat="33.3331795" lon="132.8974059"><ele>1002.0317203502522</ele><time>2025-12-06T01:09:45Z</time></trkpt><trkpt lat="33.3329686" lon="132.8973753"><ele>996.6391023876313</ele><time>2025-12-06T01:10:12Z</time></trkpt><trkpt lat="33.3327791" lon="132.8973993"><ele>993.2472954734136</ele><time>2025-12-06T01:11:03Z</time></trkpt><trkpt lat="33.3326024" lon="132.8975135"><ele>992.0541711399345</ele><time>2025-12-06T01:11:30Z</time></trkpt><trkpt lat="33.3324767" lon="132.8976876"><ele>992.8384982987027</ele><time>2025-12-06T01:11:51Z</time></trkpt><trkpt lat="33.3323291" lon="132.8978447"><ele>993.4310006924788</ele><time>2025-12-06T01:12:15Z</time></trkpt><trkpt lat="33.3321979" lon="132.8980137"><ele>993.5700128985554</ele><time>2025-12-06T01:12:36Z</time></trkpt><trkpt lat="33.3320961" lon="132.8981944"><ele>992.4810438184035</ele><time>2025-12-06T01:13:12Z</time></trkpt><trkpt lat="33.3319873" lon="132.8983764"><ele>990.55596159776</ele><time>2025-12-06T01:13:33Z</time></trkpt><trkpt lat="33.3319034" lon="132.8985765"><ele>989.038805038916</ele><time>2025-12-06T01:13:51Z</time></trkpt><trkpt lat="33.3318161" lon="132.8987738"><ele>989.7971831962622</ele><time>2025-12-06T01:14:18Z</time></trkpt><trkpt lat="33.3316928" lon="132.8989462"><ele>993.2598482445215</ele><time>2025-12-06T01:14:49Z</time></trkpt><trkpt lat="33.3315938" lon="132.8991272"><ele>998.6744746565267</ele><time>2025-12-06T01:15:22Z</time></trkpt><trkpt lat="33.3315028" lon="132.8993336"><ele>1004.4159808134378</ele><time>2025-12-06T01:16:03Z</time></trkpt><trkpt lat="33.3314176" lon="132.8995513"><ele>1008.8405481674284</ele><time>2025-12-06T01:16:33Z</time></trkpt><trkpt lat="33.3313282" lon="132.8997408"><ele>1011.5194765625268</ele><time>2025-12-06T01:16:57Z</time></trkpt><trkpt lat="33.3311868" lon="132.8998892"><ele>1013.1333345142424</ele><time>2025-12-06T01:17:27Z</time></trkpt><trkpt lat="33.3310118" lon="132.8999751"><ele>1016.0426705492813</ele><time>2025-12-06T01:18:00Z</time></trkpt><trkpt lat="33.3308343" lon="132.9000551"><ele>1020.2223387731052</ele><time>2025-12-06T01:18:48Z</time></trkpt><trkpt lat="33.3306585" lon="132.9001634"><ele>1023.9282455620032</ele><time>2025-12-06T01:19:45Z</time></trkpt><trkpt lat="33.3305134" lon="132.9003038"><ele>1027.9634686947643</ele><time>2025-12-06T01:20:27Z</time></trkpt><trkpt lat="33.3303587" lon="132.9004291"><ele>1032.519493376927</ele><time>2025-12-06T01:21:08Z</time></trkpt><trkpt lat="33.3301837" lon="132.9005028"><ele>1038.40624649441</ele><time>2025-12-06T01:21:50Z</time></trkpt><trkpt lat="33.3300355" lon="132.9006459"><ele>1045.1326916015341</ele><time>2025-12-06T01:22:35Z</time></trkpt><trkpt lat="33.3299211" lon="132.9008309"><ele>1051.7152603081965</ele><time>2025-12-06T01:23:17Z</time></trkpt><trkpt lat="33.3298101" lon="132.9010171"><ele>1057.8873868656149</ele><time>2025-12-06T01:23:50Z</time></trkpt><trkpt lat="33.3296422" lon="132.9011085"><ele>1060.827092301732</ele><time>2025-12-06T01:24:26Z</time></trkpt><trkpt lat="33.3294854" lon="132.9012294"><ele>1062.1740147559788</ele><time>2025-12-06T01:26:11Z</time></trkpt><trkpt lat="33.3293313" lon="132.9013683"><ele>1063.9267381698041</ele><time>2025-12-06T01:26:44Z</time></trkpt><trkpt lat="33.3291516" lon="132.9014585"><ele>1066.2770420783245</ele><time>2025-12-06T01:27:08Z</time></trkpt><trkpt lat="33.3289834" lon="132.9015396"><ele>1069.314820729246</ele><time>2025-12-06T01:27:32Z</time></trkpt><trkpt lat="33.3288237" lon="132.901673"><ele>1070.9086178711184</ele><time>2025-12-06T01:27:56Z</time></trkpt><trkpt lat="33.328652" lon="132.9017667"><ele>1072.571425495317</ele><time>2025-12-06T01:28:19Z</time></trkpt><trkpt lat="33.3284622" lon="132.901784"><ele>1074.4623881821292</ele><time>2025-12-06T01:28:46Z</time></trkpt><trkpt lat="33.3282836" lon="132.901833"><ele>1077.322979732776</ele><time>2025-12-06T01:29:16Z</time></trkpt><trkpt lat="33.3280958" lon="132.9018063"><ele>1081.0381510140558</ele><time>2025-12-06T01:29:46Z</time></trkpt><trkpt lat="33.3279135" lon="132.9017707"><ele>1085.2184459091688</ele><time>2025-12-06T01:30:19Z</time></trkpt><trkpt lat="33.3277313" lon="132.9017325"><ele>1088.4915771858978</ele><time>2025-12-06T01:30:43Z</time></trkpt><trkpt lat="33.3275453" lon="132.9017366"><ele>1092.5197205088928</ele><time>2025-12-06T01:31:22Z</time></trkpt><trkpt lat="33.3273639" lon="132.9016853"><ele>1098.4351279923835</ele><time>2025-12-06T01:32:28Z</time></trkpt><trkpt lat="33.3271983" lon="132.9018039"><ele>1103.964513308782</ele><time>2025-12-06T01:33:52Z</time></trkpt><trkpt lat="33.3273192" lon="132.9016427"><ele>1107.619520280935</ele><time>2025-12-06T01:34:51Z</time></trkpt><trkpt lat="33.3272325" lon="132.9014493"><ele>1106.7248732843473</ele><time>2025-12-06T01:39:57Z</time></trkpt><trkpt lat="33.3271079" lon="132.9012893"><ele>1104.3963232688855</ele><time>2025-12-06T01:41:18Z</time></trkpt><trkpt lat="33.3269655" lon="132.9011169"><ele>1101.303885023598</ele><time>2025-12-06T01:41:39Z</time></trkpt><trkpt lat="33.3268167" lon="132.900976"><ele>1098.8032872836518</ele><time>2025-12-06T01:41:57Z</time></trkpt><trkpt lat="33.3266412" lon="132.9008712"><ele>1098.7086733541357</ele><time>2025-12-06T01:42:19Z</time></trkpt><trkpt lat="33.3264847" lon="132.900763"><ele>1099.3940021931967</ele><time>2025-12-06T01:42:57Z</time></trkpt><trkpt lat="33.3263356" lon="132.9005924"><ele>1101.136209341357</ele><time>2025-12-06T01:43:21Z</time></trkpt><trkpt lat="33.3261686" lon="132.9004834"><ele>1101.4309086819069</ele><time>2025-12-06T01:43:42Z</time></trkpt><trkpt lat="33.3260217" lon="132.9003585"><ele>1101.8099953738738</ele><time>2025-12-06T01:44:01Z</time></trkpt><trkpt lat="33.3258749" lon="132.9002041"><ele>1101.8427548601996</ele><time>2025-12-06T01:44:23Z</time></trkpt><trkpt lat="33.3257557" lon="132.9000279"><ele>1101.9599920363767</ele><time>2025-12-06T01:44:44Z</time></trkpt><trkpt lat="33.3256161" lon="132.8998883"><ele>1100.9365220763286</ele><time>2025-12-06T01:45:05Z</time></trkpt><trkpt lat="33.3255065" lon="132.8997155"><ele>1098.4812559991008</ele><time>2025-12-06T01:45:29Z</time></trkpt><trkpt lat="33.3253926" lon="132.8995236"><ele>1095.2855040255226</ele><time>2025-12-06T01:45:50Z</time></trkpt><trkpt lat="33.325254" lon="132.8993368"><ele>1091.9105349671524</ele><time>2025-12-06T01:46:08Z</time></trkpt><trkpt lat="33.3250938" lon="132.8992272"><ele>1088.4384615533074</ele><time>2025-12-06T01:46:26Z</time></trkpt><trkpt lat="33.3249887" lon="132.8990275"><ele>1085.8829454653273</ele><time>2025-12-06T01:46:59Z</time></trkpt><trkpt lat="33.3248312" lon="132.8989044"><ele>1084.879324308138</ele><time>2025-12-06T01:47:34Z</time></trkpt><trkpt lat="33.3247137" lon="132.8987409"><ele>1086.8121870496122</ele><time>2025-12-06T01:48:07Z</time></trkpt><trkpt lat="33.324629" lon="132.898547"><ele>1090.7892472691058</ele><time>2025-12-06T01:48:55Z</time></trkpt><trkpt lat="33.324636" lon="132.8983087"><ele>1092.6767535085917</ele><time>2025-12-06T01:49:52Z</time></trkpt><trkpt lat="33.3246323" lon="132.8985238"><ele>1094.3063127746557</ele><time>2025-12-06T01:52:34Z</time></trkpt><trkpt lat="33.3244584" lon="132.89859"><ele>1091.1325796537476</ele><time>2025-12-06T01:54:15Z</time></trkpt><trkpt lat="33.3243393" lon="132.8987584"><ele>1087.752212345715</ele><time>2025-12-06T01:54:48Z</time></trkpt><trkpt lat="33.3241355" lon="132.8988474"><ele>1081.8072552643127</ele><time>2025-12-06T01:56:08Z</time></trkpt><trkpt lat="33.3239644" lon="132.898954"><ele>1078.3133540552096</ele><time>2025-12-06T01:56:29Z</time></trkpt><trkpt lat="33.3237828" lon="132.8990512"><ele>1074.2722925641829</ele><time>2025-12-06T01:56:59Z</time></trkpt><trkpt lat="33.3236066" lon="132.8991307"><ele>1070.086228816037</ele><time>2025-12-06T01:57:17Z</time></trkpt><trkpt lat="33.3234711" lon="132.8992808"><ele>1065.5809959988426</ele><time>2025-12-06T01:57:41Z</time></trkpt><trkpt lat="33.323341" lon="132.8994567"><ele>1061.2329304865525</ele><time>2025-12-06T01:58:47Z</time></trkpt><trkpt lat="33.3231714" lon="132.8995379"><ele>1055.6550214123922</ele><time>2025-12-06T01:59:26Z</time></trkpt><trkpt lat="33.3229743" lon="132.8995317"><ele>1048.7652861334298</ele><time>2025-12-06T01:59:46Z</time></trkpt><trkpt lat="33.3227875" lon="132.899555"><ele>1041.8799306490248</ele><time>2025-12-06T02:00:10Z</time></trkpt><trkpt lat="33.3226117" lon="132.8996095"><ele>1035.7523135911922</ele><time>2025-12-06T02:01:12Z</time></trkpt><trkpt lat="33.3224343" lon="132.8996749"><ele>1030.9404548787268</ele><time>2025-12-06T02:01:45Z</time></trkpt><trkpt lat="33.322266" lon="132.8997844"><ele>1027.2032710340836</ele><time>2025-12-06T02:02:30Z</time></trkpt><trkpt lat="33.3220916" lon="132.8998457"><ele>1026.0645894036059</ele><time>2025-12-06T02:03:18Z</time></trkpt><trkpt lat="33.3219143" lon="132.8998925"><ele>1029.4313003689795</ele><time>2025-12-06T02:04:36Z</time></trkpt><trkpt lat="33.3217461" lon="132.8999763"><ele>1036.0001174657282</ele><time>2025-12-06T02:05:22Z</time></trkpt><trkpt lat="33.3215607" lon="132.9000209"><ele>1043.4046956597176</ele><time>2025-12-06T02:06:07Z</time></trkpt><trkpt lat="33.3213855" lon="132.9000945"><ele>1050.2281093557406</ele><time>2025-12-06T02:07:05Z</time></trkpt><trkpt lat="33.3212108" lon="132.9001663"><ele>1056.841649557944</ele><time>2025-12-06T02:08:04Z</time></trkpt><trkpt lat="33.3210324" lon="132.9002748"><ele>1062.3274900438519</ele><time>2025-12-06T02:08:33Z</time></trkpt><trkpt lat="33.3208954" lon="132.9004162"><ele>1065.7160112388071</ele><time>2025-12-06T02:09:03Z</time></trkpt><trkpt lat="33.320742" lon="132.900533"><ele>1067.151388547926</ele><time>2025-12-06T02:09:24Z</time></trkpt><trkpt lat="33.3205577" lon="132.9005416"><ele>1067.1385417327706</ele><time>2025-12-06T02:09:48Z</time></trkpt><trkpt lat="33.3203641" lon="132.9005123"><ele>1067.7760974896642</ele><time>2025-12-06T02:10:18Z</time></trkpt><trkpt lat="33.3201798" lon="132.9004214"><ele>1068.7053816569198</ele><time>2025-12-06T02:10:54Z</time></trkpt><trkpt lat="33.3200036" lon="132.9003173"><ele>1069.5892613867127</ele><time>2025-12-06T02:13:39Z</time></trkpt><trkpt lat="33.3198072" lon="132.900282"><ele>1068.9908013908005</ele><time>2025-12-06T02:14:06Z</time></trkpt><trkpt lat="33.3196181" lon="132.9002298"><ele>1069.8830885315226</ele><time>2025-12-06T02:14:36Z</time></trkpt><trkpt lat="33.3194248" lon="132.9002346"><ele>1072.1003690635089</ele><time>2025-12-06T02:15:03Z</time></trkpt><trkpt lat="33.3192429" lon="132.9002344"><ele>1076.113193935864</ele><time>2025-12-06T02:15:43Z</time></trkpt><trkpt lat="33.3190614" lon="132.9002484"><ele>1080.6558840936975</ele><time>2025-12-06T02:16:24Z</time></trkpt><trkpt lat="33.318874" lon="132.9001651"><ele>1083.2632246991425</ele><time>2025-12-06T02:17:18Z</time></trkpt><trkpt lat="33.3186938" lon="132.9000813"><ele>1083.2613018392567</ele><time>2025-12-06T02:17:48Z</time></trkpt><trkpt lat="33.3185375" lon="132.8999352"><ele>1079.681173601348</ele><time>2025-12-06T02:18:17Z</time></trkpt><trkpt lat="33.318386" lon="132.899804"><ele>1076.6005748251291</ele><time>2025-12-06T02:18:41Z</time></trkpt><trkpt lat="33.3182125" lon="132.8997082"><ele>1074.28057959561</ele><time>2025-12-06T02:19:14Z</time></trkpt><trkpt lat="33.3180735" lon="132.8995537"><ele>1070.5581515274462</ele><time>2025-12-06T02:19:43Z</time></trkpt><trkpt lat="33.3179361" lon="132.8994046"><ele>1065.1918573110308</ele><time>2025-12-06T02:20:09Z</time></trkpt><trkpt lat="33.3177844" lon="132.8992483"><ele>1057.1687320053677</ele><time>2025-12-06T02:20:36Z</time></trkpt><trkpt lat="33.3176405" lon="132.8991144"><ele>1051.7159079187006</ele><time>2025-12-06T02:21:00Z</time></trkpt><trkpt lat="33.3175219" lon="132.8989307"><ele>1051.4691617807064</ele><time>2025-12-06T02:21:52Z</time></trkpt><trkpt lat="33.3173708" lon="132.8988028"><ele>1053.5616582809223</ele><time>2025-12-06T02:22:12Z</time></trkpt><trkpt lat="33.3172025" lon="132.8987126"><ele>1055.9629015039118</ele><time>2025-12-06T02:22:34Z</time></trkpt><trkpt lat="33.3170495" lon="132.8985691"><ele>1055.4940025396797</ele><time>2025-12-06T02:23:39Z</time></trkpt><trkpt lat="33.3169244" lon="132.8984028"><ele>1055.7956745193767</ele><time>2025-12-06T02:24:09Z</time></trkpt><trkpt lat="33.3167219" lon="132.8984426"><ele>1055.8152952998569</ele><time>2025-12-06T02:24:36Z</time></trkpt><trkpt lat="33.3165591" lon="132.8985402"><ele>1054.708455123169</ele><time>2025-12-06T02:24:53Z</time></trkpt><trkpt lat="33.3163858" lon="132.8984233"><ele>1052.4857088979247</ele><time>2025-12-06T02:25:35Z</time></trkpt><trkpt lat="33.316204" lon="132.8983636"><ele>1051.888873020948</ele><time>2025-12-06T02:26:04Z</time></trkpt><trkpt lat="33.3160484" lon="132.8982212"><ele>1054.1648019040078</ele><time>2025-12-06T02:26:36Z</time></trkpt><trkpt lat="33.3158826" lon="132.8980999"><ele>1058.820609854254</ele><time>2025-12-06T02:27:15Z</time></trkpt><trkpt lat="33.315727" lon="132.8979767"><ele>1062.490261876581</ele><time>2025-12-06T02:27:49Z</time></trkpt><trkpt lat="33.3155475" lon="132.8980638"><ele>1067.6504667363852</ele><time>2025-12-06T02:29:30Z</time></trkpt><trkpt lat="33.3153656" lon="132.8980503"><ele>1073.4553017073167</ele><time>2025-12-06T02:30:27Z</time></trkpt><trkpt lat="33.3152228" lon="132.8981822"><ele>1082.4617785811677</ele><time>2025-12-06T02:31:37Z</time></trkpt><trkpt lat="33.3150321" lon="132.8981706"><ele>1090.7525643895099</ele><time>2025-12-06T02:32:34Z</time></trkpt><trkpt lat="33.3148706" lon="132.8980724"><ele>1097.0779296272667</ele><time>2025-12-06T02:33:06Z</time></trkpt><trkpt lat="33.3146887" lon="132.8980899"><ele>1100.0296799926818</ele><time>2025-12-06T02:35:09Z</time></trkpt><trkpt lat="33.3145359" lon="132.8979736"><ele>1100.2092518207037</ele><time>2025-12-06T02:35:30Z</time></trkpt><trkpt lat="33.3143385" lon="132.8978956"><ele>1099.09921280849</ele><time>2025-12-06T02:36:03Z</time></trkpt><trkpt lat="33.3141882" lon="132.8977435"><ele>1095.8239925052594</ele><time>2025-12-06T02:36:27Z</time></trkpt><trkpt lat="33.3140118" lon="132.8976201"><ele>1091.4457701042136</ele><time>2025-12-06T02:36:48Z</time></trkpt><trkpt lat="33.3138733" lon="132.8974725"><ele>1086.6551524937604</ele><time>2025-12-06T02:37:06Z</time></trkpt><trkpt lat="33.313742" lon="132.8972786"><ele>1082.9680930925108</ele><time>2025-12-06T02:37:33Z</time></trkpt><trkpt lat="33.3135852" lon="132.8971297"><ele>1080.5180139714205</ele><time>2025-12-06T02:37:56Z</time></trkpt><trkpt lat="33.3134386" lon="132.8969635"><ele>1079.5819566647822</ele><time>2025-12-06T02:38:39Z</time></trkpt><trkpt lat="33.3132865" lon="132.8968477"><ele>1080.8164863265135</ele><time>2025-12-06T02:39:05Z</time></trkpt><trkpt lat="33.3131587" lon="132.8966815"><ele>1083.2821584089045</ele><time>2025-12-06T02:39:34Z</time></trkpt><trkpt lat="33.3130269" lon="132.8965128"><ele>1086.7002160767972</ele><time>2025-12-06T02:40:04Z</time></trkpt><trkpt lat="33.3128748" lon="132.896361"><ele>1090.073036421258</ele><time>2025-12-06T02:40:37Z</time></trkpt><trkpt lat="33.312709" lon="132.8962492"><ele>1093.9720974158972</ele><time>2025-12-06T02:41:19Z</time></trkpt><trkpt lat="33.3125622" lon="132.8961192"><ele>1099.0175789851116</ele><time>2025-12-06T02:42:31Z</time></trkpt><trkpt lat="33.3123978" lon="132.8960236"><ele>1105.7499863463293</ele><time>2025-12-06T02:43:36Z</time></trkpt><trkpt lat="33.312252" lon="132.8958564"><ele>1112.3602663941192</ele><time>2025-12-06T02:45:27Z</time></trkpt><trkpt lat="33.3122346" lon="132.8956258"><ele>1116.9788995153065</ele><time>2025-12-06T02:45:48Z</time></trkpt><trkpt lat="33.3121854" lon="132.8954026"><ele>1118.6600816994853</ele><time>2025-12-06T02:46:09Z</time></trkpt><trkpt lat="33.3121548" lon="132.895155"><ele>1120.9095193135843</ele><time>2025-12-06T02:46:48Z</time></trkpt><trkpt lat="33.3120751" lon="132.8949612"><ele>1122.9224818692783</ele><time>2025-12-06T02:47:08Z</time></trkpt><trkpt lat="33.3120168" lon="132.8947356"><ele>1126.9422260571985</ele><time>2025-12-06T02:47:41Z</time></trkpt><trkpt lat="33.3119424" lon="132.8945262"><ele>1129.9165348510435</ele><time>2025-12-06T02:48:10Z</time></trkpt><trkpt lat="33.3119516" lon="132.8942999"><ele>1133.212337463364</ele><time>2025-12-06T02:48:34Z</time></trkpt><trkpt lat="33.3120055" lon="132.8940943"><ele>1135.1368380330312</ele><time>2025-12-06T02:49:45Z</time></trkpt><trkpt lat="33.312044" lon="132.8938837"><ele>1137.1617762898004</ele><time>2025-12-06T02:50:23Z</time></trkpt><trkpt lat="33.3120254" lon="132.8936616"><ele>1138.5265521784575</ele><time>2025-12-06T02:51:05Z</time></trkpt><trkpt lat="33.3120302" lon="132.8934448"><ele>1139.4295666281141</ele><time>2025-12-06T02:51:45Z</time></trkpt><trkpt lat="33.3120212" lon="132.8936817"><ele>1139.8423907433491</ele><time>2025-12-06T03:12:55Z</time></trkpt><trkpt lat="33.3120389" lon="132.8939008"><ele>1140.1983649010565</ele><time>2025-12-06T03:13:19Z</time></trkpt><trkpt lat="33.3120141" lon="132.8941208"><ele>1139.8448397265909</ele><time>2025-12-06T03:14:13Z</time></trkpt><trkpt lat="33.3119606" lon="132.8943435"><ele>1138.4037767082873</ele><time>2025-12-06T03:14:37Z</time></trkpt><trkpt lat="33.3119707" lon="132.8945915"><ele>1136.5161834500298</ele><time>2025-12-06T03:14:58Z</time></trkpt><trkpt lat="33.3120626" lon="132.8947934"><ele>1134.6011544834012</ele><time>2025-12-06T03:15:21Z</time></trkpt><trkpt lat="33.3120831" lon="132.8950119"><ele>1132.2119986756493</ele><time>2025-12-06T03:15:39Z</time></trkpt><trkpt lat="33.3122668" lon="132.8949956"><ele>1129.9753996120169</ele><time>2025-12-06T03:16:48Z</time></trkpt><trkpt lat="33.3124405" lon="132.8950604"><ele>1127.938402025766</ele><time>2025-12-06T03:17:14Z</time></trkpt><trkpt lat="33.3126256" lon="132.8950094"><ele>1126.4530755238316</ele><time>2025-12-06T03:17:56Z</time></trkpt><trkpt lat="33.3128128" lon="132.8949862"><ele>1124.633606678515</ele><time>2025-12-06T03:19:36Z</time></trkpt><trkpt lat="33.3129942" lon="132.8949946"><ele>1118.32854415203</ele><time>2025-12-06T03:21:44Z</time></trkpt><trkpt lat="33.3130551" lon="132.8952014"><ele>1112.5261082397953</ele><time>2025-12-06T03:23:36Z</time></trkpt><trkpt lat="33.3131721" lon="132.8953674"><ele>1105.35263169888</ele><time>2025-12-06T03:24:21Z</time></trkpt><trkpt lat="33.3133529" lon="132.8954074"><ele>1100.08006497885</ele><time>2025-12-06T03:25:51Z</time></trkpt><trkpt lat="33.3135308" lon="132.8953271"><ele>1091.582402598966</ele><time>2025-12-06T03:26:48Z</time></trkpt><trkpt lat="33.3137214" lon="132.8953419"><ele>1082.0770925356628</ele><time>2025-12-06T03:27:11Z</time></trkpt><trkpt lat="33.31389" lon="132.8952022"><ele>1073.6976214945955</ele><time>2025-12-06T03:27:34Z</time></trkpt><trkpt lat="33.3140737" lon="132.8951126"><ele>1066.4269767539806</ele><time>2025-12-06T03:27:55Z</time></trkpt><trkpt lat="33.3142582" lon="132.895081"><ele>1060.813281385788</ele><time>2025-12-06T03:29:34Z</time></trkpt><trkpt lat="33.3144382" lon="132.8950406"><ele>1054.232922752292</ele><time>2025-12-06T03:30:23Z</time></trkpt><trkpt lat="33.3145616" lon="132.8948775"><ele>1047.2299515114694</ele><time>2025-12-06T03:30:58Z</time></trkpt><trkpt lat="33.3147487" lon="132.8948093"><ele>1038.0138552735873</ele><time>2025-12-06T03:31:43Z</time></trkpt><trkpt lat="33.3149394" lon="132.8948621"><ele>1031.5320170317182</ele><time>2025-12-06T03:32:24Z</time></trkpt><trkpt lat="33.3151243" lon="132.8947898"><ele>1027.159234480002</ele><time>2025-12-06T03:32:48Z</time></trkpt><trkpt lat="33.3153013" lon="132.8946632"><ele>1024.2112245949452</ele><time>2025-12-06T03:33:23Z</time></trkpt><trkpt lat="33.3154013" lon="132.8944777"><ele>1018.6424555240783</ele><time>2025-12-06T03:34:35Z</time></trkpt><trkpt lat="33.3155165" lon="132.8943049"><ele>1009.8269645564737</ele><time>2025-12-06T03:35:53Z</time></trkpt><trkpt lat="33.315677" lon="132.8941904"><ele>999.3532488826035</ele><time>2025-12-06T03:36:41Z</time></trkpt><trkpt lat="33.3158436" lon="132.894098"><ele>986.7764599193537</ele><time>2025-12-06T03:37:44Z</time></trkpt><trkpt lat="33.3160047" lon="132.8939798"><ele>973.148547712433</ele><time>2025-12-06T03:38:38Z</time></trkpt><trkpt lat="33.3161577" lon="132.8938486"><ele>960.0918710222678</ele><time>2025-12-06T03:39:48Z</time></trkpt><trkpt lat="33.3163054" lon="132.8937057"><ele>948.5258208130804</ele><time>2025-12-06T03:41:14Z</time></trkpt><trkpt lat="33.3163778" lon="132.8934984"><ele>940.7575360694178</ele><time>2025-12-06T03:41:35Z</time></trkpt><trkpt lat="33.3164702" lon="132.8933039"><ele>934.9601032832937</ele><time>2025-12-06T03:42:08Z</time></trkpt><trkpt lat="33.3166239" lon="132.8931553"><ele>927.5797765359881</ele><time>2025-12-06T03:43:05Z</time></trkpt><trkpt lat="33.316725" lon="132.8929712"><ele>918.5756723116302</ele><time>2025-12-06T03:43:50Z</time></trkpt><trkpt lat="33.3168542" lon="132.8928018"><ele>907.9050066159471</ele><time>2025-12-06T03:44:16Z</time></trkpt><trkpt lat="33.316988" lon="132.8926132"><ele>899.9850317587922</ele><time>2025-12-06T03:45:52Z</time></trkpt><trkpt lat="33.3170493" lon="132.8923737"><ele>892.9513340458535</ele><time>2025-12-06T03:46:14Z</time></trkpt><trkpt lat="33.3171608" lon="132.8921704"><ele>887.4009034247638</ele><time>2025-12-06T03:46:34Z</time></trkpt><trkpt lat="33.3172736" lon="132.8919663"><ele>881.8763457966942</ele><time>2025-12-06T03:47:04Z</time></trkpt><trkpt lat="33.31742" lon="132.8918347"><ele>875.7114345623494</ele><time>2025-12-06T03:47:33Z</time></trkpt><trkpt lat="33.3175355" lon="132.8916525"><ele>866.7880088522139</ele><time>2025-12-06T03:48:20Z</time></trkpt><trkpt lat="33.3176827" lon="132.8915165"><ele>856.3650141575544</ele><time>2025-12-06T03:49:02Z</time></trkpt><trkpt lat="33.3178032" lon="132.8913452"><ele>845.7880602798197</ele><time>2025-12-06T03:50:17Z</time></trkpt><trkpt lat="33.3178937" lon="132.891134"><ele>838.5506577726552</ele><time>2025-12-06T03:50:46Z</time></trkpt><trkpt lat="33.317982" lon="132.8909249"><ele>833.7485188588074</ele><time>2025-12-06T03:51:13Z</time></trkpt><trkpt lat="33.3181191" lon="132.8907715"><ele>828.3147671356622</ele><time>2025-12-06T03:51:55Z</time></trkpt><trkpt lat="33.3182584" lon="132.8906202"><ele>820.6070689159118</ele><time>2025-12-06T03:52:31Z</time></trkpt><trkpt lat="33.3183684" lon="132.8904288"><ele>810.5307446387909</ele><time>2025-12-06T03:53:31Z</time></trkpt><trkpt lat="33.3184703" lon="132.8902412"><ele>801.4397707761121</ele><time>2025-12-06T03:53:57Z</time></trkpt><trkpt lat="33.3185651" lon="132.89005"><ele>791.9309606266464</ele><time>2025-12-06T03:54:37Z</time></trkpt><trkpt lat="33.3187574" lon="132.8900169"><ele>780.2912461037616</ele><time>2025-12-06T03:56:31Z</time></trkpt><trkpt lat="33.3189078" lon="132.8898741"><ele>767.2718747187583</ele><time>2025-12-06T03:57:42Z</time></trkpt><trkpt lat="33.319081" lon="132.8899357"><ele>753.1481023212627</ele><time>2025-12-06T03:58:54Z</time></trkpt><trkpt lat="33.3192625" lon="132.8899514"><ele>739.1777503177642</ele><time>2025-12-06T04:00:48Z</time></trkpt><trkpt lat="33.3193971" lon="132.889801"><ele>725.894364994322</ele><time>2025-12-06T04:05:03Z</time></trkpt><trkpt lat="33.3195177" lon="132.8896106"><ele>712.9922146365421</ele><time>2025-12-06T04:06:58Z</time></trkpt><trkpt lat="33.3196521" lon="132.8894625"><ele>706.4046626810723</ele><time>2025-12-06T04:07:30Z</time></trkpt><trkpt lat="33.3198394" lon="132.8894839"><ele>704.2856856100879</ele><time>2025-12-06T04:08:28Z</time></trkpt><trkpt lat="33.3199415" lon="132.8896841"><ele>711.6774667764389</ele><time>2025-12-06T04:10:15Z</time></trkpt><trkpt lat="33.3200654" lon="132.8898476"><ele>720.0101977348828</ele><time>2025-12-06T04:11:12Z</time></trkpt><trkpt lat="33.3202552" lon="132.8897919"><ele>727.9115201441649</ele><time>2025-12-06T04:11:48Z</time></trkpt><trkpt lat="33.3204339" lon="132.8898846"><ele>732.3707425806209</ele><time>2025-12-06T04:12:12Z</time></trkpt><trkpt lat="33.3206111" lon="132.8898437"><ele>736.6607104695681</ele><time>2025-12-06T04:12:42Z</time></trkpt><trkpt lat="33.3207937" lon="132.8897322"><ele>740.9571680605095</ele><time>2025-12-06T04:13:15Z</time></trkpt><trkpt lat="33.3209592" lon="132.8896352"><ele>742.7252962317558</ele><time>2025-12-06T04:13:33Z</time></trkpt><trkpt lat="33.3209851" lon="132.8894054"><ele>741.845501020895</ele><time>2025-12-06T04:13:51Z</time></trkpt><trkpt lat="33.3210857" lon="132.8892258"><ele>739.4185268753785</ele><time>2025-12-06T04:14:06Z</time></trkpt><trkpt lat="33.3211348" lon="132.8889823"><ele>736.6421991930207</ele><time>2025-12-06T04:14:30Z</time></trkpt><trkpt lat="33.3212386" lon="132.8887891"><ele>733.4826486377975</ele><time>2025-12-06T04:14:47Z</time></trkpt><trkpt lat="33.3214217" lon="132.8887682"><ele>730.3359103947699</ele><time>2025-12-06T04:15:05Z</time></trkpt><trkpt lat="33.3215985" lon="132.8887242"><ele>727.369624842544</ele><time>2025-12-06T04:15:23Z</time></trkpt><trkpt lat="33.3217548" lon="132.8886169"><ele>724.7786452675595</ele><time>2025-12-06T04:15:38Z</time></trkpt><trkpt lat="33.3219266" lon="132.8886843"><ele>721.7778146777728</ele><time>2025-12-06T04:15:53Z</time></trkpt><trkpt lat="33.3220812" lon="132.8888095"><ele>718.9598979219745</ele><time>2025-12-06T04:16:17Z</time></trkpt><trkpt lat="33.322142" lon="132.888602"><ele>716.8576724557153</ele><time>2025-12-06T04:16:31Z</time></trkpt><trkpt lat="33.3222026" lon="132.8883822"><ele>715.1531907891845</ele><time>2025-12-06T04:16:46Z</time></trkpt><trkpt lat="33.3221503" lon="132.8881342"><ele>714.0807183863768</ele><time>2025-12-06T04:17:04Z</time></trkpt><trkpt lat="33.3221324" lon="132.8879177"><ele>712.693449482107</ele><time>2025-12-06T04:17:19Z</time></trkpt><trkpt lat="33.3222987" lon="132.8877873"><ele>711.4628861515047</ele><time>2025-12-06T04:17:37Z</time></trkpt><trkpt lat="33.3224764" lon="132.8877425"><ele>709.5725648552043</ele><time>2025-12-06T04:17:52Z</time></trkpt><trkpt lat="33.3226802" lon="132.887705"><ele>707.380481142688</ele><time>2025-12-06T04:18:11Z</time></trkpt><trkpt lat="33.3227586" lon="132.8875031"><ele>704.0924876984301</ele><time>2025-12-06T04:19:46Z</time></trkpt><trkpt lat="33.3228391" lon="132.8872899"><ele>701.8484289782212</ele><time>2025-12-06T04:20:01Z</time></trkpt><trkpt lat="33.322928" lon="132.8870984"><ele>699.1473907209389</ele><time>2025-12-06T04:20:18Z</time></trkpt><trkpt lat="33.3229822" lon="132.8868487"><ele>697.1695079365801</ele><time>2025-12-06T04:20:38Z</time></trkpt><trkpt lat="33.3230952" lon="132.8866692"><ele>694.253047393544</ele><time>2025-12-06T04:20:56Z</time></trkpt><trkpt lat="33.3232447" lon="132.886824"><ele>691.5030915305152</ele><time>2025-12-06T04:21:14Z</time></trkpt><trkpt lat="33.3234421" lon="132.8867461"><ele>688.4982432759301</ele><time>2025-12-06T04:21:41Z</time></trkpt><trkpt lat="33.3236227" lon="132.8866404"><ele>685.8262831067731</ele><time>2025-12-06T04:21:59Z</time></trkpt><trkpt lat="33.3238212" lon="132.8865323"><ele>683.0561122638619</ele><time>2025-12-06T04:22:18Z</time></trkpt><trkpt lat="33.3239837" lon="132.886411"><ele>680.2637420428173</ele><time>2025-12-06T04:22:32Z</time></trkpt><trkpt lat="33.3241774" lon="132.8863336"><ele>676.772024653872</ele><time>2025-12-06T04:22:48Z</time></trkpt><trkpt lat="33.3243725" lon="132.8862617"><ele>674.1577884006721</ele><time>2025-12-06T04:23:03Z</time></trkpt><trkpt lat="33.3245145" lon="132.8861159"><ele>671.4847861351659</ele><time>2025-12-06T04:23:44Z</time></trkpt><trkpt lat="33.3246394" lon="132.8859389"><ele>669.9038665427594</ele><time>2025-12-06T04:23:59Z</time></trkpt><trkpt lat="33.3247768" lon="132.8857758"><ele>668.0324234483023</ele><time>2025-12-06T04:24:14Z</time></trkpt><trkpt lat="33.3249875" lon="132.8857496"><ele>667.0841489822864</ele><time>2025-12-06T04:24:29Z</time></trkpt><trkpt lat="33.3251444" lon="132.8856284"><ele>666.1386101405484</ele><time>2025-12-06T04:24:50Z</time></trkpt><trkpt lat="33.3252484" lon="132.8854299"><ele>665.5202821505701</ele><time>2025-12-06T04:25:07Z</time></trkpt><trkpt lat="33.3253679" lon="132.8852648"><ele>664.9622187661976</ele><time>2025-12-06T04:25:37Z</time></trkpt><trkpt lat="33.3255605" lon="132.8852583"><ele>664.3923289112203</ele><time>2025-12-06T04:25:54Z</time></trkpt><trkpt lat="33.3257624" lon="132.885241"><ele>664.2498287566343</ele><time>2025-12-06T04:26:12Z</time></trkpt><trkpt lat="33.3259384" lon="132.8851889"><ele>663.7796082059987</ele><time>2025-12-06T04:26:27Z</time></trkpt><trkpt lat="33.3261406" lon="132.8851944"><ele>663.6733979359807</ele><time>2025-12-06T04:26:41Z</time></trkpt><trkpt lat="33.3263202" lon="132.88525"><ele>663.016818475729</ele><time>2025-12-06T04:27:02Z</time></trkpt><trkpt lat="33.3265004" lon="132.8851758"><ele>662.9537855575012</ele><time>2025-12-06T04:27:16Z</time></trkpt><trkpt lat="33.3266969" lon="132.8851062"><ele>662.7059728751816</ele><time>2025-12-06T04:27:33Z</time></trkpt><trkpt lat="33.3268749" lon="132.8850403"><ele>662.6784268308434</ele><time>2025-12-06T04:27:50Z</time></trkpt><trkpt lat="33.3270741" lon="132.8849465"><ele>662.1905796893574</ele><time>2025-12-06T04:28:05Z</time></trkpt><trkpt lat="33.3272641" lon="132.8850718"><ele>660.8080415036754</ele><time>2025-12-06T04:28:20Z</time></trkpt><trkpt lat="33.3274165" lon="132.8849435"><ele>659.0422535071333</ele><time>2025-12-06T04:29:02Z</time></trkpt><trkpt lat="33.3275773" lon="132.8848017"><ele>656.8853991389768</ele><time>2025-12-06T04:29:20Z</time></trkpt><trkpt lat="33.3276375" lon="132.8845744"><ele>655.5604935730801</ele><time>2025-12-06T04:29:35Z</time></trkpt><trkpt lat="33.3278148" lon="132.8844513"><ele>654.2393679246015</ele><time>2025-12-06T04:29:52Z</time></trkpt><trkpt lat="33.328007" lon="132.8844251"><ele>652.7300766781565</ele><time>2025-12-06T04:30:11Z</time></trkpt><trkpt lat="33.3281901" lon="132.884441"><ele>650.6686238454915</ele><time>2025-12-06T04:30:25Z</time></trkpt><trkpt lat="33.3284001" lon="132.8844303"><ele>648.3199666021787</ele><time>2025-12-06T04:30:44Z</time></trkpt><trkpt lat="33.3286083" lon="132.88441"><ele>646.486269707356</ele><time>2025-12-06T04:30:58Z</time></trkpt><trkpt lat="33.328783" lon="132.8845246"><ele>644.6548015098097</ele><time>2025-12-06T04:31:13Z</time></trkpt><trkpt lat="33.3289129" lon="132.8846887"><ele>643.7211263817832</ele><time>2025-12-06T04:31:31Z</time></trkpt><trkpt lat="33.3290884" lon="132.8847712"><ele>641.8630963432073</ele><time>2025-12-06T04:31:46Z</time></trkpt><trkpt lat="33.3292578" lon="132.8848518"><ele>640.5294510558471</ele><time>2025-12-06T04:32:01Z</time></trkpt><trkpt lat="33.3294583" lon="132.8849171"><ele>638.3442023126647</ele><time>2025-12-06T04:32:16Z</time></trkpt><trkpt lat="33.3294995" lon="132.885145"><ele>637.3108233370407</ele><time>2025-12-06T04:32:31Z</time></trkpt><trkpt lat="33.3296864" lon="132.8850559"><ele>634.8666948581348</ele><time>2025-12-06T04:33:04Z</time></trkpt><trkpt lat="33.3298824" lon="132.885091"><ele>632.8640481769056</ele><time>2025-12-06T04:33:22Z</time></trkpt><trkpt lat="33.3300745" lon="132.8851119"><ele>629.8612728754266</ele><time>2025-12-06T04:33:40Z</time></trkpt><trkpt lat="33.3302724" lon="132.8851193"><ele>627.9148705203983</ele><time>2025-12-06T04:33:58Z</time></trkpt><trkpt lat="33.3304709" lon="132.8851282"><ele>625.2454891053466</ele><time>2025-12-06T04:34:18Z</time></trkpt><trkpt lat="33.3306487" lon="132.8850254"><ele>622.8021956223195</ele><time>2025-12-06T04:34:35Z</time></trkpt><trkpt lat="33.3308304" lon="132.8850893"><ele>620.2169805739815</ele><time>2025-12-06T04:34:56Z</time></trkpt><trkpt lat="33.3310276" lon="132.8850833"><ele>617.5042392489157</ele><time>2025-12-06T04:35:20Z</time></trkpt><trkpt lat="33.3312137" lon="132.8850458"><ele>614.7117922663273</ele><time>2025-12-06T04:35:41Z</time></trkpt><trkpt lat="33.331412" lon="132.8849255"><ele>611.4592956402759</ele><time>2025-12-06T04:36:00Z</time></trkpt><trkpt lat="33.3315915" lon="132.8848032"><ele>609.1576336784891</ele><time>2025-12-06T04:36:14Z</time></trkpt><trkpt lat="33.3318025" lon="132.8847456"><ele>606.8908716136567</ele><time>2025-12-06T04:36:32Z</time></trkpt><trkpt lat="33.3320128" lon="132.8847866"><ele>605.0842413173596</ele><time>2025-12-06T04:36:50Z</time></trkpt><trkpt lat="33.3322036" lon="132.8848764"><ele>602.655958512019</ele><time>2025-12-06T04:37:08Z</time></trkpt><trkpt lat="33.332281" lon="132.8850981"><ele>600.2205223991112</ele><time>2025-12-06T04:37:26Z</time></trkpt><trkpt lat="33.3323271" lon="132.885317"><ele>597.460910946235</ele><time>2025-12-06T04:37:44Z</time></trkpt><trkpt lat="33.3325186" lon="132.8853937"><ele>594.9410707277444</ele><time>2025-12-06T04:38:01Z</time></trkpt><trkpt lat="33.3326596" lon="132.8855292"><ele>592.7995376790701</ele><time>2025-12-06T04:38:15Z</time></trkpt><trkpt lat="33.3327448" lon="132.8857584"><ele>590.570554213686</ele><time>2025-12-06T04:38:33Z</time></trkpt><trkpt lat="33.3329253" lon="132.8858405"><ele>588.8425102612337</ele><time>2025-12-06T04:38:48Z</time></trkpt><trkpt lat="33.3330701" lon="132.8859905"><ele>586.4259654715354</ele><time>2025-12-06T04:39:03Z</time></trkpt><trkpt lat="33.3331912" lon="132.886152"><ele>584.7111695080259</ele><time>2025-12-06T04:39:21Z</time></trkpt><trkpt lat="33.3333803" lon="132.8862514"><ele>582.6870873896511</ele><time>2025-12-06T04:39:40Z</time></trkpt><trkpt lat="33.3335424" lon="132.8863633"><ele>580.7936529554682</ele><time>2025-12-06T04:39:54Z</time></trkpt><trkpt lat="33.3337288" lon="132.8862284"><ele>578.8497898814305</ele><time>2025-12-06T04:40:09Z</time></trkpt><trkpt lat="33.3339163" lon="132.8861905"><ele>576.6004051944709</ele><time>2025-12-06T04:40:24Z</time></trkpt><trkpt lat="33.3341015" lon="132.8861433"><ele>574.8994057265135</ele><time>2025-12-06T04:40:39Z</time></trkpt><trkpt lat="33.3342749" lon="132.8860473"><ele>572.5752767884491</ele><time>2025-12-06T04:40:53Z</time></trkpt><trkpt lat="33.3344681" lon="132.8859927"><ele>570.8287738279549</ele><time>2025-12-06T04:41:08Z</time></trkpt><trkpt lat="33.3346592" lon="132.8860006"><ele>568.611398392672</ele><time>2025-12-06T04:41:23Z</time></trkpt><trkpt lat="33.3348477" lon="132.8860453"><ele>567.1170434042729</ele><time>2025-12-06T04:42:02Z</time></trkpt><trkpt lat="33.3350057" lon="132.88619"><ele>565.3071455091396</ele><time>2025-12-06T04:42:22Z</time></trkpt><trkpt lat="33.3351906" lon="132.8863223"><ele>563.4019246433405</ele><time>2025-12-06T04:42:43Z</time></trkpt><trkpt lat="33.3353935" lon="132.8863816"><ele>560.8676625680251</ele><time>2025-12-06T04:43:01Z</time></trkpt><trkpt lat="33.3356031" lon="132.8863481"><ele>558.5403454156004</ele><time>2025-12-06T04:43:22Z</time></trkpt><trkpt lat="33.3357558" lon="132.8864773"><ele>555.8627452718</ele><time>2025-12-06T04:43:43Z</time></trkpt><trkpt lat="33.3358863" lon="132.8866515"><ele>552.9271090967741</ele><time>2025-12-06T04:44:04Z</time></trkpt><trkpt lat="33.3360868" lon="132.886761"><ele>549.9074810242997</ele><time>2025-12-06T04:44:22Z</time></trkpt><trkpt lat="33.3361698" lon="132.8869604"><ele>547.9119854326435</ele><time>2025-12-06T04:44:37Z</time></trkpt><trkpt lat="33.3361668" lon="132.8871825"><ele>546.7027523561363</ele><time>2025-12-06T04:44:51Z</time></trkpt><trkpt lat="33.3363642" lon="132.8872761"><ele>545.5500915587578</ele><time>2025-12-06T04:45:24Z</time></trkpt><trkpt lat="33.336478" lon="132.8871066"><ele>544.1162678795116</ele><time>2025-12-06T04:45:42Z</time></trkpt><trkpt lat="33.3366461" lon="132.8870078"><ele>542.0479097765451</ele><time>2025-12-06T04:45:57Z</time></trkpt><trkpt lat="33.3368249" lon="132.8870871"><ele>539.9559958519036</ele><time>2025-12-06T04:46:15Z</time></trkpt><trkpt lat="33.3370086" lon="132.8871406"><ele>537.6274047487108</ele><time>2025-12-06T04:46:36Z</time></trkpt><trkpt lat="33.3371934" lon="132.8870388"><ele>535.5588276982934</ele><time>2025-12-06T04:46:51Z</time></trkpt><trkpt lat="33.3373197" lon="132.8868809"><ele>533.668149604241</ele><time>2025-12-06T04:47:06Z</time></trkpt><trkpt lat="33.3374403" lon="132.8867061"><ele>531.9300273795712</ele><time>2025-12-06T04:47:22Z</time></trkpt><trkpt lat="33.3375922" lon="132.8865508"><ele>530.2094021327862</ele><time>2025-12-06T04:47:40Z</time></trkpt><trkpt lat="33.3377744" lon="132.8864488"><ele>528.2695669887561</ele><time>2025-12-06T04:47:56Z</time></trkpt><trkpt lat="33.3378627" lon="132.8862504"><ele>526.7109938773083</ele><time>2025-12-06T04:48:23Z</time></trkpt><trkpt lat="33.3378933" lon="132.8860127"><ele>525.7876066605522</ele><time>2025-12-06T04:48:38Z</time></trkpt><trkpt lat="33.3379077" lon="132.8857726"><ele>524.7971171758701</ele><time>2025-12-06T04:48:53Z</time></trkpt><trkpt lat="33.3380427" lon="132.8855871"><ele>523.5408492453627</ele><time>2025-12-06T04:49:11Z</time></trkpt><trkpt lat="33.3382204" lon="132.8856252"><ele>521.9884310478001</ele><time>2025-12-06T04:49:26Z</time></trkpt><trkpt lat="33.338425" lon="132.8856889"><ele>520.559594977956</ele><time>2025-12-06T04:49:44Z</time></trkpt><trkpt lat="33.3385999" lon="132.8858085"><ele>519.5659456765522</ele><time>2025-12-06T04:49:59Z</time></trkpt><trkpt lat="33.3387891" lon="132.885889"><ele>518.3724237502934</ele><time>2025-12-06T04:50:17Z</time></trkpt><trkpt lat="33.3389649" lon="132.885763"><ele>517.8757595535554</ele><time>2025-12-06T04:50:32Z</time></trkpt><trkpt lat="33.3391124" lon="132.8855912"><ele>516.8417551713336</ele><time>2025-12-06T04:50:48Z</time></trkpt><trkpt lat="33.3392827" lon="132.8855147"><ele>516.2675886675702</ele><time>2025-12-06T04:51:02Z</time></trkpt><trkpt lat="33.3394828" lon="132.8854433"><ele>514.3386633083169</ele><time>2025-12-06T04:51:20Z</time></trkpt><trkpt lat="33.3396668" lon="132.8853511"><ele>512.6292528363039</ele><time>2025-12-06T04:51:35Z</time></trkpt><trkpt lat="33.3398565" lon="132.8852702"><ele>510.59547600228916</ele><time>2025-12-06T04:51:50Z</time></trkpt><trkpt lat="33.3399837" lon="132.885078"><ele>509.33711043510215</ele><time>2025-12-06T04:52:08Z</time></trkpt><trkpt lat="33.3400742" lon="132.884869"><ele>508.0103261758183</ele><time>2025-12-06T04:52:23Z</time></trkpt><trkpt lat="33.3401561" lon="132.8846538"><ele>506.11953160696856</ele><time>2025-12-06T04:52:38Z</time></trkpt><trkpt lat="33.3402985" lon="132.8845198"><ele>504.3877571485651</ele><time>2025-12-06T04:52:50Z</time></trkpt><trkpt lat="33.3404656" lon="132.8843831"><ele>503.0519814523863</ele><time>2025-12-06T04:53:05Z</time></trkpt><trkpt lat="33.340642" lon="132.8842575"><ele>501.97694491110406</ele><time>2025-12-06T04:53:20Z</time></trkpt><trkpt lat="33.3406915" lon="132.8840441"><ele>500.84098480224065</ele><time>2025-12-06T04:53:35Z</time></trkpt><trkpt lat="33.3406426" lon="132.8838071"><ele>499.93748533598733</ele><time>2025-12-06T04:53:54Z</time></trkpt><trkpt lat="33.3406452" lon="132.8835519"><ele>498.59313380212257</ele><time>2025-12-06T04:54:08Z</time></trkpt><trkpt lat="33.340798" lon="132.8833991"><ele>497.67172935904745</ele><time>2025-12-06T04:54:20Z</time></trkpt><trkpt lat="33.3410133" lon="132.8833991"><ele>495.70076920599917</ele><time>2025-12-06T04:54:35Z</time></trkpt><trkpt lat="33.3411953" lon="132.8834892"><ele>495.2071360385462</ele><time>2025-12-06T04:54:51Z</time></trkpt><trkpt lat="33.3413441" lon="132.8836132"><ele>493.46763365059434</ele><time>2025-12-06T04:55:06Z</time></trkpt><trkpt lat="33.3413278" lon="132.883857"><ele>493.21257050677787</ele><time>2025-12-06T04:55:20Z</time></trkpt><trkpt lat="33.341236" lon="132.8840629"><ele>491.4958645771194</ele><time>2025-12-06T04:55:35Z</time></trkpt><trkpt lat="33.3411421" lon="132.8842803"><ele>491.23120289241643</ele><time>2025-12-06T04:55:53Z</time></trkpt><trkpt lat="33.341179" lon="132.8845183"><ele>489.5764637162186</ele><time>2025-12-06T04:56:08Z</time></trkpt><trkpt lat="33.341213" lon="132.8847355"><ele>489.422503237716</ele><time>2025-12-06T04:56:23Z</time></trkpt><trkpt lat="33.3412892" lon="132.8849697"><ele>488.6545633904255</ele><time>2025-12-06T04:56:41Z</time></trkpt><trkpt lat="33.3414789" lon="132.8849891"><ele>488.5589074904165</ele><time>2025-12-06T04:56:57Z</time></trkpt><trkpt lat="33.3416772" lon="132.8849133"><ele>487.71233624167076</ele><time>2025-12-06T04:57:11Z</time></trkpt><trkpt lat="33.3418761" lon="132.8849283"><ele>486.6105516535046</ele><time>2025-12-06T04:57:27Z</time></trkpt><trkpt lat="33.3420675" lon="132.8848491"><ele>485.50294377477803</ele><time>2025-12-06T04:57:44Z</time></trkpt><trkpt lat="33.3421708" lon="132.8846522"><ele>483.85512466057276</ele><time>2025-12-06T04:58:02Z</time></trkpt><trkpt lat="33.3423346" lon="132.8845282"><ele>482.5443665905154</ele><time>2025-12-06T04:58:17Z</time></trkpt><trkpt lat="33.342521" lon="132.884555"><ele>480.95801666130325</ele><time>2025-12-06T04:58:32Z</time></trkpt><trkpt lat="33.3427176" lon="132.8846105"><ele>480.587925248153</ele><time>2025-12-06T04:58:47Z</time></trkpt><trkpt lat="33.3428814" lon="132.8844542"><ele>479.78171624707056</ele><time>2025-12-06T04:59:02Z</time></trkpt><trkpt lat="33.3430114" lon="132.8842944"><ele>479.3675814023142</ele><time>2025-12-06T04:59:14Z</time></trkpt><trkpt lat="33.3431833" lon="132.8841536"><ele>478.0723122441871</ele><time>2025-12-06T04:59:30Z</time></trkpt><trkpt lat="33.3433532" lon="132.8840638"><ele>476.97909235268116</ele><time>2025-12-06T04:59:44Z</time></trkpt><trkpt lat="33.343543" lon="132.8839791"><ele>475.87028504100294</ele><time>2025-12-06T05:00:00Z</time></trkpt><trkpt lat="33.3437408" lon="132.8839251"><ele>475.64894134123665</ele><time>2025-12-06T05:00:14Z</time></trkpt><trkpt lat="33.3438966" lon="132.8837813"><ele>475.44227660671345</ele><time>2025-12-06T05:00:32Z</time></trkpt><trkpt lat="33.3438865" lon="132.8835469"><ele>475.1655036861537</ele><time>2025-12-06T05:00:50Z</time></trkpt><trkpt lat="33.343813" lon="132.883339"><ele>474.2598053964823</ele><time>2025-12-06T05:01:05Z</time></trkpt><trkpt lat="33.3436936" lon="132.8831724"><ele>472.9390593379929</ele><time>2025-12-06T05:01:32Z</time></trkpt><trkpt lat="33.3434994" lon="132.8831874"><ele>471.4335097357501</ele><time>2025-12-06T05:01:53Z</time></trkpt><trkpt lat="33.3433519" lon="132.8829817"><ele>469.88034976390713</ele><time>2025-12-06T05:02:12Z</time></trkpt><trkpt lat="33.3432434" lon="132.8827706"><ele>468.82872222977886</ele><time>2025-12-06T05:02:32Z</time></trkpt><trkpt lat="33.3432873" lon="132.8825489"><ele>467.6789303359846</ele><time>2025-12-06T05:02:47Z</time></trkpt><trkpt lat="33.3433164" lon="132.8823298"><ele>467.0072805954689</ele><time>2025-12-06T05:03:04Z</time></trkpt><trkpt lat="33.3432623" lon="132.8820882"><ele>465.99128516403226</ele><time>2025-12-06T05:03:22Z</time></trkpt><trkpt lat="33.3431012" lon="132.8819254"><ele>465.3427482338473</ele><time>2025-12-06T05:03:37Z</time></trkpt><trkpt lat="33.3430128" lon="132.8817257"><ele>464.1326232046711</ele><time>2025-12-06T05:03:53Z</time></trkpt><trkpt lat="33.34291" lon="132.8815032"><ele>463.51910693792547</ele><time>2025-12-06T05:04:07Z</time></trkpt><trkpt lat="33.3427958" lon="132.8812839"><ele>462.5881686399786</ele><time>2025-12-06T05:04:22Z</time></trkpt><trkpt lat="33.3428239" lon="132.8810552"><ele>461.9652723423648</ele><time>2025-12-06T05:04:38Z</time></trkpt><trkpt lat="33.3428857" lon="132.8808519"><ele>460.7049571492668</ele><time>2025-12-06T05:04:52Z</time></trkpt><trkpt lat="33.3428854" lon="132.8806069"><ele>459.91833892892663</ele><time>2025-12-06T05:05:08Z</time></trkpt><trkpt lat="33.3430339" lon="132.8804628"><ele>458.66795641873637</ele><time>2025-12-06T05:05:19Z</time></trkpt><trkpt lat="33.3430576" lon="132.8802423"><ele>457.96604463878793</ele><time>2025-12-06T05:05:35Z</time></trkpt><trkpt lat="33.3430965" lon="132.8800025"><ele>457.01374140351805</ele><time>2025-12-06T05:05:52Z</time></trkpt><trkpt lat="33.3433018" lon="132.8799619"><ele>456.3976569167374</ele><time>2025-12-06T05:06:04Z</time></trkpt><trkpt lat="33.3435026" lon="132.8799015"><ele>454.8103380441502</ele><time>2025-12-06T05:06:19Z</time></trkpt><trkpt lat="33.3435978" lon="132.8801158"><ele>453.1216816223902</ele><time>2025-12-06T05:06:40Z</time></trkpt><trkpt lat="33.3436554" lon="132.880326"><ele>451.27548042913304</ele><time>2025-12-06T05:06:58Z</time></trkpt><trkpt lat="33.343835" lon="132.8803946"><ele>450.1822376070486</ele><time>2025-12-06T05:07:13Z</time></trkpt><trkpt lat="33.3440443" lon="132.8803404"><ele>449.58518894482194</ele><time>2025-12-06T05:07:28Z</time></trkpt><trkpt lat="33.344208" lon="132.8802145"><ele>449.5564346343408</ele><time>2025-12-06T05:07:42Z</time></trkpt><trkpt lat="33.3443359" lon="132.8800394"><ele>449.9007386406783</ele><time>2025-12-06T05:08:01Z</time></trkpt><trkpt lat="33.3444115" lon="132.8797901"><ele>449.85395665427785</ele><time>2025-12-06T05:08:18Z</time></trkpt><trkpt lat="33.3445116" lon="132.8795669"><ele>449.63586404602023</ele><time>2025-12-06T05:08:34Z</time></trkpt><trkpt lat="33.3447034" lon="132.8795864"><ele>449.2542933531941</ele><time>2025-12-06T05:08:49Z</time></trkpt><trkpt lat="33.344895" lon="132.879527"><ele>448.8928376386352</ele><time>2025-12-06T05:09:09Z</time></trkpt><trkpt lat="33.344939" lon="132.8792994"><ele>448.48209882797</ele><time>2025-12-06T05:09:24Z</time></trkpt><trkpt lat="33.3450875" lon="132.8791338"><ele>447.94730797707143</ele><time>2025-12-06T05:09:39Z</time></trkpt><trkpt lat="33.3453019" lon="132.8790894"><ele>447.29121401181897</ele><time>2025-12-06T05:09:54Z</time></trkpt><trkpt lat="33.3454752" lon="132.8790203"><ele>446.1703589127015</ele><time>2025-12-06T05:10:09Z</time></trkpt><trkpt lat="33.3456575" lon="132.8790011"><ele>444.63371291087907</ele><time>2025-12-06T05:10:24Z</time></trkpt><trkpt lat="33.345815" lon="132.8788914"><ele>443.6827104553235</ele><time>2025-12-06T05:10:36Z</time></trkpt><trkpt lat="33.345959" lon="132.8787014"><ele>443.14125302318024</ele><time>2025-12-06T05:10:52Z</time></trkpt><trkpt lat="33.3460446" lon="132.8785078"><ele>443.3337711325076</ele><time>2025-12-06T05:11:09Z</time></trkpt><trkpt lat="33.3461482" lon="132.8783194"><ele>442.8121058769173</ele><time>2025-12-06T05:11:27Z</time></trkpt><trkpt lat="33.3461547" lon="132.8780565"><ele>442.5184487047357</ele><time>2025-12-06T05:11:42Z</time></trkpt><trkpt lat="33.346315" lon="132.8778697"><ele>441.27725790148685</ele><time>2025-12-06T05:12:00Z</time></trkpt><trkpt lat="33.3464721" lon="132.8777566"><ele>440.67796982985016</ele><time>2025-12-06T05:12:15Z</time></trkpt><trkpt lat="33.3466575" lon="132.8776887"><ele>439.22194869580454</ele><time>2025-12-06T05:12:30Z</time></trkpt><trkpt lat="33.3468282" lon="132.8776104"><ele>439.0030661615229</ele><time>2025-12-06T05:12:43Z</time></trkpt><trkpt lat="33.3470136" lon="132.8774925"><ele>437.71177945299615</ele><time>2025-12-06T05:12:57Z</time></trkpt><trkpt lat="33.3471388" lon="132.8773018"><ele>437.26731573620685</ele><time>2025-12-06T05:13:15Z</time></trkpt><trkpt lat="33.3472563" lon="132.8770969"><ele>436.89203238022645</ele><time>2025-12-06T05:13:30Z</time></trkpt><trkpt lat="33.3473733" lon="132.8768683"><ele>437.13227233240167</ele><time>2025-12-06T05:13:44Z</time></trkpt><trkpt lat="33.3475491" lon="132.8767585"><ele>437.3249953537313</ele><time>2025-12-06T05:13:59Z</time></trkpt><trkpt lat="33.3475955" lon="132.8765057"><ele>437.61170445729357</ele><time>2025-12-06T05:14:14Z</time></trkpt><trkpt lat="33.3475839" lon="132.8762533"><ele>438.59054819655563</ele><time>2025-12-06T05:14:32Z</time></trkpt><trkpt lat="33.3475496" lon="132.8760209"><ele>440.32306161617</ele><time>2025-12-06T05:14:47Z</time></trkpt><trkpt lat="33.3474072" lon="132.8758413"><ele>441.416536650209</ele><time>2025-12-06T05:15:02Z</time></trkpt><trkpt lat="33.3472691" lon="132.8756819"><ele>442.2020126169891</ele><time>2025-12-06T05:15:17Z</time></trkpt><trkpt lat="33.3471852" lon="132.8754756"><ele>442.1026583964693</ele><time>2025-12-06T05:15:32Z</time></trkpt><trkpt lat="33.3472691" lon="132.8752577"><ele>442.2032512482204</ele><time>2025-12-06T05:15:47Z</time></trkpt><trkpt lat="33.3473105" lon="132.8750468"><ele>442.1038364642425</ele><time>2025-12-06T05:16:03Z</time></trkpt><trkpt lat="33.3474401" lon="132.874868"><ele>441.6406902787026</ele><time>2025-12-06T05:23:27Z</time></trkpt><trkpt lat="33.3475919" lon="132.8746889"><ele>440.5605164562055</ele><time>2025-12-06T05:23:46Z</time></trkpt><trkpt lat="33.347729" lon="132.8744986"><ele>439.2375598754467</ele><time>2025-12-06T05:24:03Z</time></trkpt><trkpt lat="33.347798" lon="132.8742889"><ele>438.15530716690563</ele><time>2025-12-06T05:24:19Z</time></trkpt><trkpt lat="33.3477604" lon="132.874064"><ele>436.1552671521736</ele><time>2025-12-06T05:24:33Z</time></trkpt><trkpt lat="33.3476327" lon="132.8738806"><ele>435.7794523324326</ele><time>2025-12-06T05:24:49Z</time></trkpt><trkpt lat="33.3477424" lon="132.8736621"><ele>433.3859754498156</ele><time>2025-12-06T05:25:06Z</time></trkpt><trkpt lat="33.3478781" lon="132.8734782"><ele>432.71690248011004</ele><time>2025-12-06T05:25:24Z</time></trkpt><trkpt lat="33.3479567" lon="132.87328"><ele>429.909382652499</ele><time>2025-12-06T05:25:39Z</time></trkpt><trkpt lat="33.3480579" lon="132.8730547"><ele>430.0044818087801</ele><time>2025-12-06T05:25:54Z</time></trkpt><trkpt lat="33.348087" lon="132.8728315"><ele>428.75054209485415</ele><time>2025-12-06T05:26:09Z</time></trkpt><trkpt lat="33.3480563" lon="132.8725873"><ele>429.02360067079024</ele><time>2025-12-06T05:26:24Z</time></trkpt></trkseg></trk></gpx>