<?xml version='1.0' encoding='UTF-8'?><gpx creator="Yama Museum Peak Annotator" xsi:schemaLocation="http://www.topografix.com/GPX/1/1 http://www.topografix.com/GPX/1/1/gpx.xsd" version="1.1" xmlns="http://www.topografix.com/GPX/1/1" xmlns:xsi="http://www.w3.org/2001/XMLSchema-instance"><metadata><bounds maxlat="34.0362353" maxlon="132.8756012" minlat="34.0299601" minlon="132.8680773"/></metadata>  <wpt lat="34.0326072" lon="132.8753902">
    <ele>240.99666666666667</ele>
    <name>高仙山</name>
    <desc>Peak detected at 241m (prominence: 154m)</desc>
    <sym>Summit</sym>
  </wpt>
<trk><name>高仙山</name><number>1</number><trkseg><trkpt lat="34.0358464" lon="132.8727561"><ele>82.34</ele><time>2025-02-11T04:28:48Z</time></trkpt><trkpt lat="34.0359938" lon="132.8728839"><ele>82.625</ele><time>2025-02-11T04:29:24Z</time></trkpt><trkpt lat="34.0361661" lon="132.8730121"><ele>81.12333333333333</ele><time>2025-02-11T04:29:43Z</time></trkpt><trkpt lat="34.0361218" lon="132.8732302"><ele>79.42666666666666</ele><time>2025-02-11T04:30:18Z</time></trkpt><trkpt lat="34.0361854" lon="132.8734874"><ele>78.09666666666668</ele><time>2025-02-11T04:30:34Z</time></trkpt><trkpt lat="34.0362353" lon="132.8737046"><ele>78.56666666666668</ele><time>2025-02-11T04:33:21Z</time></trkpt><trkpt lat="34.0360322" lon="132.8736881"><ele>81.80333333333333</ele><time>2025-02-11T04:33:42Z</time></trkpt><trkpt lat="34.0359168" lon="132.8739146"><ele>85.57333333333334</ele><time>2025-02-11T04:34:00Z</time></trkpt><trkpt lat="34.0358146" lon="132.8741224"><ele>90.12333333333333</ele><time>2025-02-11T04:34:16Z</time></trkpt><trkpt lat="34.0356768" lon="132.8739451"><ele>93.77666666666669</ele><time>2025-02-11T04:34:40Z</time></trkpt><trkpt lat="34.0354898" lon="132.8738661"><ele>100.63666666666667</ele><time>2025-02-11T04:34:58Z</time></trkpt><trkpt lat="34.0352892" lon="132.873798"><ele>109.62</ele><time>2025-02-11T04:35:14Z</time></trkpt><trkpt lat="34.0351057" lon="132.873756"><ele>117.41333333333334</ele><time>2025-02-11T04:35:32Z</time></trkpt><trkpt lat="34.0349317" lon="132.8738188"><ele>121.42333333333333</ele><time>2025-02-11T04:35:52Z</time></trkpt><trkpt lat="34.0347908" lon="132.8739764"><ele>122.78666666666668</ele><time>2025-02-11T04:36:10Z</time></trkpt><trkpt lat="34.034612" lon="132.8740598"><ele>124.16666666666667</ele><time>2025-02-11T04:36:26Z</time></trkpt><trkpt lat="34.0344317" lon="132.8740431"><ele>126.36666666666667</ele><time>2025-02-11T04:36:42Z</time></trkpt><trkpt lat="34.0342355" lon="132.8740699"><ele>130.10333333333332</ele><time>2025-02-11T04:36:59Z</time></trkpt><trkpt lat="34.0340523" lon="132.8739903"><ele>134.57000000000002</ele><time>2025-02-11T04:37:17Z</time></trkpt><trkpt lat="34.0339011" lon="132.8738623"><ele>138.13333333333333</ele><time>2025-02-11T04:37:34Z</time></trkpt><trkpt lat="34.0337306" lon="132.8739462"><ele>142.78333333333333</ele><time>2025-02-11T04:38:17Z</time></trkpt><trkpt lat="34.0335506" lon="132.8739823"><ele>148.57666666666668</ele><time>2025-02-11T04:38:33Z</time></trkpt><trkpt lat="34.0333382" lon="132.8739824"><ele>154.99333333333334</ele><time>2025-02-11T04:38:54Z</time></trkpt><trkpt lat="34.0331831" lon="132.873797"><ele>155.45000000000002</ele><time>2025-02-11T04:39:10Z</time></trkpt><trkpt lat="34.0331083" lon="132.8735702"><ele>153.09666666666666</ele><time>2025-02-11T04:39:21Z</time></trkpt><trkpt lat="34.0330164" lon="132.8733583"><ele>148.13666666666666</ele><time>2025-02-11T04:39:36Z</time></trkpt><trkpt lat="34.0329153" lon="132.8735437"><ele>148.03333333333333</ele><time>2025-02-11T04:39:51Z</time></trkpt><trkpt lat="34.0329503" lon="132.8737752"><ele>151.63666666666666</ele><time>2025-02-11T04:40:09Z</time></trkpt><trkpt lat="34.0327752" lon="132.8738673"><ele>158.44666666666666</ele><time>2025-02-11T04:40:22Z</time></trkpt><trkpt lat="34.0325913" lon="132.8740152"><ele>165.71</ele><time>2025-02-11T04:40:40Z</time></trkpt><trkpt lat="34.0324222" lon="132.8741558"><ele>172.83666666666667</ele><time>2025-02-11T04:41:39Z</time></trkpt><trkpt lat="34.0322859" lon="132.8743062"><ele>179.34333333333333</ele><time>2025-02-11T04:42:12Z</time></trkpt><trkpt lat="34.0321928" lon="132.8745022"><ele>187.78</ele><time>2025-02-11T04:42:36Z</time></trkpt><trkpt lat="34.0320612" lon="132.8746623"><ele>194.70666666666668</ele><time>2025-02-11T04:42:54Z</time></trkpt><trkpt lat="34.0318637" lon="132.8746697"><ele>198.77666666666664</ele><time>2025-02-11T04:43:17Z</time></trkpt><trkpt lat="34.0316763" lon="132.8746643"><ele>198.32333333333335</ele><time>2025-02-11T04:43:32Z</time></trkpt><trkpt lat="34.0314845" lon="132.8747195"><ele>196.8066666666667</ele><time>2025-02-11T04:43:46Z</time></trkpt><trkpt lat="34.0314472" lon="132.874935"><ele>198.85999999999999</ele><time>2025-02-11T04:44:31Z</time></trkpt><trkpt lat="34.0313147" lon="132.8750902"><ele>202.73</ele><time>2025-02-11T04:44:52Z</time></trkpt><trkpt lat="34.0314424" lon="132.8753089"><ele>205.94333333333336</ele><time>2025-02-11T04:45:39Z</time></trkpt><trkpt lat="34.0315913" lon="132.8754539"><ele>208.24</ele><time>2025-02-11T04:45:56Z</time></trkpt><trkpt lat="34.0317923" lon="132.8754131"><ele>210.70666666666668</ele><time>2025-02-11T04:46:39Z</time></trkpt><trkpt lat="34.0319212" lon="132.8755885"><ele>213.23666666666668</ele><time>2025-02-11T04:47:14Z</time></trkpt><trkpt lat="34.0320673" lon="132.8754366"><ele>217.53</ele><time>2025-02-11T04:47:56Z</time></trkpt><trkpt lat="34.0321941" lon="132.8752319"><ele>223.33</ele><time>2025-02-11T04:48:22Z</time></trkpt><trkpt lat="34.032378" lon="132.8752016"><ele>231.09</ele><time>2025-02-11T04:49:11Z</time></trkpt><trkpt lat="34.032535" lon="132.8750739"><ele>234.83333333333334</ele><time>2025-02-11T04:50:08Z</time></trkpt><trkpt lat="34.0327233" lon="132.8751824"><ele>238.08</ele><time>2025-02-11T04:50:31Z</time></trkpt><trkpt lat="34.0328995" lon="132.8752805"><ele>238.29333333333332</ele><time>2025-02-11T04:50:50Z</time></trkpt><trkpt lat="34.0327847" lon="132.8754536"><ele>240.0466666666667</ele><time>2025-02-11T04:51:43Z</time></trkpt><trkpt lat="34.0326072" lon="132.8753902"><ele>240.99666666666667</ele><time>2025-02-11T04:53:20Z</time></trkpt><trkpt lat="34.0324713" lon="132.8755369"><ele>240.17</ele><time>2025-02-11T04:53:44Z</time></trkpt><trkpt lat="34.0326601" lon="132.8755272"><ele>239.28333333333333</ele><time>2025-02-11T05:00:28Z</time></trkpt><trkpt lat="34.0328367" lon="132.8753613"><ele>237.67</ele><time>2025-02-11T05:00:54Z</time></trkpt><trkpt lat="34.0327092" lon="132.8751695"><ele>238.4466666666667</ele><time>2025-02-11T05:03:40Z</time></trkpt><trkpt lat="34.0325338" lon="132.8752572"><ele>240.57666666666668</ele><time>2025-02-11T05:03:51Z</time></trkpt><trkpt lat="34.0323382" lon="132.8752774"><ele>240.49333333333334</ele><time>2025-02-11T05:04:06Z</time></trkpt><trkpt lat="34.0321357" lon="132.8753172"><ele>237.72</ele><time>2025-02-11T05:04:20Z</time></trkpt><trkpt lat="34.0320402" lon="132.8755053"><ele>230.98000000000002</ele><time>2025-02-11T05:04:38Z</time></trkpt><trkpt lat="34.0318317" lon="132.8756012"><ele>221.89333333333335</ele><time>2025-02-11T05:05:25Z</time></trkpt><trkpt lat="34.0316379" lon="132.875551"><ele>214.77</ele><time>2025-02-11T05:05:40Z</time></trkpt><trkpt lat="34.0314683" lon="132.8754491"><ele>210.03</ele><time>2025-02-11T05:07:28Z</time></trkpt><trkpt lat="34.031332" lon="132.8752624"><ele>208.13666666666666</ele><time>2025-02-11T05:07:41Z</time></trkpt><trkpt lat="34.0311539" lon="132.8751506"><ele>208.83333333333334</ele><time>2025-02-11T05:07:57Z</time></trkpt><trkpt lat="34.0313215" lon="132.8750494"><ele>208.23666666666668</ele><time>2025-02-11T05:08:15Z</time></trkpt><trkpt lat="34.0314039" lon="132.8748335"><ele>206.0866666666667</ele><time>2025-02-11T05:08:31Z</time></trkpt><trkpt lat="34.0313565" lon="132.8746002"><ele>200.5566666666667</ele><time>2025-02-11T05:08:48Z</time></trkpt><trkpt lat="34.0311627" lon="132.8745145"><ele>194.54333333333332</ele><time>2025-02-11T05:09:03Z</time></trkpt><trkpt lat="34.0310259" lon="132.8743731"><ele>187.11</ele><time>2025-02-11T05:09:19Z</time></trkpt><trkpt lat="34.0311324" lon="132.8741845"><ele>182.0233333333333</ele><time>2025-02-11T05:09:28Z</time></trkpt><trkpt lat="34.031286" lon="132.8740348"><ele>180.01333333333332</ele><time>2025-02-11T05:09:40Z</time></trkpt><trkpt lat="34.0313714" lon="132.8738033"><ele>180.77666666666664</ele><time>2025-02-11T05:09:53Z</time></trkpt><trkpt lat="34.0315036" lon="132.8736225"><ele>179.51</ele><time>2025-02-11T05:10:05Z</time></trkpt><trkpt lat="34.0316416" lon="132.8734258"><ele>176.22666666666666</ele><time>2025-02-11T05:10:49Z</time></trkpt><trkpt lat="34.0317002" lon="132.8731903"><ele>171.84333333333333</ele><time>2025-02-11T05:11:28Z</time></trkpt><trkpt lat="34.0318728" lon="132.8730861"><ele>168.60333333333332</ele><time>2025-02-11T05:11:57Z</time></trkpt><trkpt lat="34.0319446" lon="132.8728474"><ele>164.79999999999998</ele><time>2025-02-11T05:12:16Z</time></trkpt><trkpt lat="34.0320903" lon="132.8726819"><ele>161.14666666666668</ele><time>2025-02-11T05:12:34Z</time></trkpt><trkpt lat="34.0322507" lon="132.8725173"><ele>156.32000000000002</ele><time>2025-02-11T05:12:51Z</time></trkpt><trkpt lat="34.0323293" lon="132.8723132"><ele>153.40333333333334</ele><time>2025-02-11T05:13:06Z</time></trkpt><trkpt lat="34.0322442" lon="132.8721061"><ele>151.66</ele><time>2025-02-11T05:13:21Z</time></trkpt><trkpt lat="34.0320438" lon="132.8720967"><ele>152.28333333333333</ele><time>2025-02-11T05:13:36Z</time></trkpt><trkpt lat="34.0319077" lon="132.8719123"><ele>150.82333333333335</ele><time>2025-02-11T05:13:52Z</time></trkpt><trkpt lat="34.0317706" lon="132.8717171"><ele>150.87</ele><time>2025-02-11T05:14:10Z</time></trkpt><trkpt lat="34.0316564" lon="132.8715283"><ele>148.21333333333334</ele><time>2025-02-11T05:15:04Z</time></trkpt><trkpt lat="34.031539" lon="132.871308"><ele>145.79999999999998</ele><time>2025-02-11T05:15:41Z</time></trkpt><trkpt lat="34.0313814" lon="132.8714287"><ele>145.00333333333333</ele><time>2025-02-11T05:16:39Z</time></trkpt><trkpt lat="34.0311558" lon="132.8714607"><ele>146.59666666666666</ele><time>2025-02-11T05:16:57Z</time></trkpt><trkpt lat="34.0309937" lon="132.8713226"><ele>148.09666666666666</ele><time>2025-02-11T05:17:22Z</time></trkpt><trkpt lat="34.031086" lon="132.8710807"><ele>146.37666666666667</ele><time>2025-02-11T05:17:40Z</time></trkpt><trkpt lat="34.031166" lon="132.8708543"><ele>144.18666666666667</ele><time>2025-02-11T05:17:51Z</time></trkpt><trkpt lat="34.0311628" lon="132.8706285"><ele>143.02</ele><time>2025-02-11T05:18:04Z</time></trkpt><trkpt lat="34.0310488" lon="132.8704327"><ele>142.09333333333333</ele><time>2025-02-11T05:18:20Z</time></trkpt><trkpt lat="34.0311469" lon="132.8702359"><ele>140.18999999999997</ele><time>2025-02-11T05:18:32Z</time></trkpt><trkpt lat="34.0310828" lon="132.870001"><ele>138.04333333333332</ele><time>2025-02-11T05:18:51Z</time></trkpt><trkpt lat="34.0309528" lon="132.8698248"><ele>137.63666666666668</ele><time>2025-02-11T05:19:06Z</time></trkpt><trkpt lat="34.0310253" lon="132.869612"><ele>135.72</ele><time>2025-02-11T05:19:27Z</time></trkpt><trkpt lat="34.0310351" lon="132.8693585"><ele>134.39666666666668</ele><time>2025-02-11T05:19:45Z</time></trkpt><trkpt lat="34.0311152" lon="132.8691307"><ele>127.89</ele><time>2025-02-11T05:20:01Z</time></trkpt><trkpt lat="34.031253" lon="132.8689433"><ele>120.36666666666667</ele><time>2025-02-11T05:20:25Z</time></trkpt><trkpt lat="34.0310674" lon="132.8689146"><ele>117.97333333333334</ele><time>2025-02-11T05:21:10Z</time></trkpt><trkpt lat="34.0308973" lon="132.8690726"><ele>120.71</ele><time>2025-02-11T05:21:26Z</time></trkpt><trkpt lat="34.0307312" lon="132.8689498"><ele>124.99333333333334</ele><time>2025-02-11T05:21:38Z</time></trkpt><trkpt lat="34.0305392" lon="132.8689304"><ele>121.49666666666667</ele><time>2025-02-11T05:21:57Z</time></trkpt><trkpt lat="34.0305289" lon="132.8691575"><ele>118.18333333333334</ele><time>2025-02-11T05:22:11Z</time></trkpt><trkpt lat="34.0304507" lon="132.8693857"><ele>118.09333333333335</ele><time>2025-02-11T05:22:27Z</time></trkpt><trkpt lat="34.0303056" lon="132.8695229"><ele>119.51</ele><time>2025-02-11T05:22:44Z</time></trkpt><trkpt lat="34.0301262" lon="132.8695826"><ele>117.68333333333334</ele><time>2025-02-11T05:23:00Z</time></trkpt><trkpt lat="34.0300847" lon="132.8693597"><ele>115.55666666666666</ele><time>2025-02-11T05:23:32Z</time></trkpt><trkpt lat="34.0299601" lon="132.8691732"><ele>116.93666666666667</ele><time>2025-02-11T05:23:54Z</time></trkpt><trkpt lat="34.0300778" lon="132.8689025"><ele>115.38</ele><time>2025-02-11T05:24:04Z</time></trkpt><trkpt lat="34.0301343" lon="132.8686575"><ele>111.14</ele><time>2025-02-11T05:24:21Z</time></trkpt><trkpt lat="34.0302588" lon="132.868455"><ele>103.49000000000001</ele><time>2025-02-11T05:24:37Z</time></trkpt><trkpt lat="34.0304409" lon="132.8683557"><ele>100.31</ele><time>2025-02-11T05:24:49Z</time></trkpt><trkpt lat="34.0306253" lon="132.8682738"><ele>98.71</ele><time>2025-02-11T05:25:02Z</time></trkpt><trkpt lat="34.0307729" lon="132.8680989"><ele>97.55333333333333</ele><time>2025-02-11T05:25:15Z</time></trkpt><trkpt lat="34.0309611" lon="132.8680773"><ele>96.13333333333333</ele><time>2025-02-11T05:25:30Z</time></trkpt><trkpt lat="34.0310741" lon="132.8682612"><ele>95.71666666666665</ele><time>2025-02-11T05:25:48Z</time></trkpt><trkpt lat="34.0312639" lon="132.8683919"><ele>93.05333333333333</ele><time>2025-02-11T05:26:00Z</time></trkpt><trkpt lat="34.0314691" lon="132.8685159"><ele>90.32333333333334</ele><time>2025-02-11T05:26:12Z</time></trkpt><trkpt lat="34.0316123" lon="132.8687013"><ele>86.86333333333333</ele><time>2025-02-11T05:26:27Z</time></trkpt><trkpt lat="34.0317774" lon="132.8688403"><ele>86.60666666666667</ele><time>2025-02-11T05:26:42Z</time></trkpt><trkpt lat="34.0319676" lon="132.8689467"><ele>86.41000000000001</ele><time>2025-02-11T05:26:57Z</time></trkpt><trkpt lat="34.0321352" lon="132.8691204"><ele>86.35333333333335</ele><time>2025-02-11T05:27:13Z</time></trkpt><trkpt lat="34.03228" lon="132.8692737"><ele>86.21333333333332</ele><time>2025-02-11T05:27:28Z</time></trkpt><trkpt lat="34.0324157" lon="132.8694434"><ele>86.77666666666669</ele><time>2025-02-11T05:27:43Z</time></trkpt><trkpt lat="34.0325832" lon="132.8695583"><ele>88.35000000000001</ele><time>2025-02-11T05:27:57Z</time></trkpt><trkpt lat="34.0327465" lon="132.8697161"><ele>90.5</ele><time>2025-02-11T05:28:12Z</time></trkpt><trkpt lat="34.0329048" lon="132.8699015"><ele>92.82000000000001</ele><time>2025-02-11T05:28:27Z</time></trkpt><trkpt lat="34.0330601" lon="132.8700276"><ele>94.41000000000001</ele><time>2025-02-11T05:28:40Z</time></trkpt><trkpt lat="34.0332015" lon="132.8701985"><ele>94.52333333333333</ele><time>2025-02-11T05:28:52Z</time></trkpt><trkpt lat="34.0332229" lon="132.8704201"><ele>94.65333333333332</ele><time>2025-02-11T05:29:07Z</time></trkpt><trkpt lat="34.0333633" lon="132.8706265"><ele>93.87333333333333</ele><time>2025-02-11T05:29:23Z</time></trkpt><trkpt lat="34.0335645" lon="132.8707045"><ele>93.59666666666668</ele><time>2025-02-11T05:29:34Z</time></trkpt><trkpt lat="34.0337539" lon="132.8707414"><ele>92.42333333333333</ele><time>2025-02-11T05:30:06Z</time></trkpt><trkpt lat="34.0338219" lon="132.870975"><ele>92.64333333333333</ele><time>2025-02-11T05:30:42Z</time></trkpt><trkpt lat="34.0339721" lon="132.8711105"><ele>92.37</ele><time>2025-02-11T05:30:54Z</time></trkpt><trkpt lat="34.03411" lon="132.8712967"><ele>91.15666666666668</ele><time>2025-02-11T05:31:06Z</time></trkpt><trkpt lat="34.0342718" lon="132.8714148"><ele>88.04666666666667</ele><time>2025-02-11T05:31:18Z</time></trkpt><trkpt lat="34.0344462" lon="132.8715306"><ele>85.35000000000001</ele><time>2025-02-11T05:31:31Z</time></trkpt><trkpt lat="34.0345748" lon="132.8716922"><ele>84.96333333333334</ele><time>2025-02-11T05:31:44Z</time></trkpt><trkpt lat="34.0347367" lon="132.8718586"><ele>86.27999999999999</ele><time>2025-02-11T05:31:59Z</time></trkpt><trkpt lat="34.034921" lon="132.8719247"><ele>86.91666666666667</ele><time>2025-02-11T05:32:12Z</time></trkpt><trkpt lat="34.035102" lon="132.8720149"><ele>87.45</ele><time>2025-02-11T05:32:24Z</time></trkpt><trkpt lat="34.035266" lon="132.8721935"><ele>89.21666666666665</ele><time>2025-02-11T05:32:39Z</time></trkpt><trkpt lat="34.0353955" lon="132.8723621"><ele>92.12666666666667</ele><time>2025-02-11T05:33:13Z</time></trkpt><trkpt lat="34.0355973" lon="132.8724319"><ele>93.19666666666667</ele><time>2025-02-11T05:33:26Z</time></trkpt><trkpt lat="34.0357836" lon="132.8725219"><ele>90.50666666666666</ele><time>2025-02-11T05:33:41Z</time></trkpt><trkpt lat="34.0358225" lon="132.8727404"><ele>86.52666666666669</ele><time>2025-02-11T05:34:22Z</time></trkpt></trkseg></trk></gpx>