<?xml version='1.0' encoding='UTF-8'?><gpx creator="Yama Museum Peak Annotator" xsi:schemaLocation="http://www.topografix.com/GPX/1/1 http://www.topografix.com/GPX/1/1/gpx.xsd" version="1.1" xmlns="http://www.topografix.com/GPX/1/1" xmlns:xsi="http://www.w3.org/2001/XMLSchema-instance"><metadata><bounds maxlat="33.1292056" maxlon="132.5373671" minlat="33.117733" minlon="132.5230858"/></metadata>  <wpt lat="33.1178859" lon="132.5317791">
    <ele>343.7659610142553</ele>
    <name>天ガ森</name>
    <desc>Peak detected at 344m (prominence: 325m)</desc>
    <sym>Summit</sym>
  </wpt>
<trk><name>天ガ森</name><number>1</number><trkseg><trkpt lat="33.1259291" lon="132.5372506"><ele>14.793958403738031</ele><time>2024-03-03T04:33:59Z</time></trkpt><trkpt lat="33.1257721" lon="132.5373671"><ele>14.794090163605816</ele><time>2024-03-03T04:34:41Z</time></trkpt><trkpt lat="33.1256247" lon="132.5372394"><ele>14.794106287695726</ele><time>2024-03-03T04:35:03Z</time></trkpt><trkpt lat="33.125459" lon="132.5371452"><ele>14.79415808266038</ele><time>2024-03-03T04:35:23Z</time></trkpt><trkpt lat="33.1253017" lon="132.5370314"><ele>14.794102927639443</ele><time>2024-03-03T04:35:50Z</time></trkpt><trkpt lat="33.1251371" lon="132.5369407"><ele>14.79406880124762</ele><time>2024-03-03T04:36:10Z</time></trkpt><trkpt lat="33.1252942" lon="132.5370546"><ele>15.372022944824513</ele><time>2024-03-03T04:36:47Z</time></trkpt><trkpt lat="33.1254784" lon="132.5371246"><ele>15.37202832079529</ele><time>2024-03-03T04:37:00Z</time></trkpt><trkpt lat="33.1255232" lon="132.537337"><ele>19.107197507681807</ele><time>2024-03-03T04:38:25Z</time></trkpt><trkpt lat="33.1254475" lon="132.5371373"><ele>18.52924216028965</ele><time>2024-03-03T04:41:37Z</time></trkpt><trkpt lat="33.1252768" lon="132.537049"><ele>18.529250303136216</ele><time>2024-03-03T04:41:55Z</time></trkpt><trkpt lat="33.1251217" lon="132.5369354"><ele>14.794081964123924</ele><time>2024-03-03T04:42:24Z</time></trkpt><trkpt lat="33.1249649" lon="132.5368229"><ele>14.794039626871141</ele><time>2024-03-03T04:42:53Z</time></trkpt><trkpt lat="33.1247948" lon="132.536745"><ele>15.354498171123302</ele><time>2024-03-03T04:43:26Z</time></trkpt><trkpt lat="33.1246532" lon="132.5365951"><ele>17.22662678135086</ele><time>2024-03-03T04:44:04Z</time></trkpt><trkpt lat="33.1244731" lon="132.5365507"><ele>21.28860233473984</ele><time>2024-03-03T04:44:43Z</time></trkpt><trkpt lat="33.1242995" lon="132.5364679"><ele>25.301754422934973</ele><time>2024-03-03T04:45:08Z</time></trkpt><trkpt lat="33.1241356" lon="132.5363616"><ele>28.634315145028676</ele><time>2024-03-03T04:45:34Z</time></trkpt><trkpt lat="33.1239604" lon="132.5364324"><ele>30.99453000690812</ele><time>2024-03-03T04:46:02Z</time></trkpt><trkpt lat="33.1237994" lon="132.5365308"><ele>32.82724787317287</ele><time>2024-03-03T04:46:24Z</time></trkpt><trkpt lat="33.1236203" lon="132.536559"><ele>34.44095175571788</ele><time>2024-03-03T04:46:55Z</time></trkpt><trkpt lat="33.1234408" lon="132.5365238"><ele>35.02212736696351</ele><time>2024-03-03T04:47:14Z</time></trkpt><trkpt lat="33.1232742" lon="132.5366106"><ele>36.638591759676814</ele><time>2024-03-03T04:47:39Z</time></trkpt><trkpt lat="33.1230928" lon="132.5366294"><ele>38.75121322752165</ele><time>2024-03-03T04:48:13Z</time></trkpt><trkpt lat="33.1229121" lon="132.5366519"><ele>40.39400351065389</ele><time>2024-03-03T04:48:48Z</time></trkpt><trkpt lat="33.1227376" lon="132.5365831"><ele>41.71043010895165</ele><time>2024-03-03T04:49:12Z</time></trkpt><trkpt lat="33.1225619" lon="132.5365279"><ele>43.81786241473245</ele><time>2024-03-03T04:50:50Z</time></trkpt><trkpt lat="33.1223951" lon="132.5364326"><ele>48.2942733591831</ele><time>2024-03-03T04:51:24Z</time></trkpt><trkpt lat="33.1223064" lon="132.5362389"><ele>54.39408849860927</ele><time>2024-03-03T04:53:02Z</time></trkpt><trkpt lat="33.1222683" lon="132.5360236"><ele>61.90749112080905</ele><time>2024-03-03T04:55:08Z</time></trkpt><trkpt lat="33.1222043" lon="132.5358168"><ele>70.34845037122625</ele><time>2024-03-03T04:56:02Z</time></trkpt><trkpt lat="33.1221144" lon="132.5356298"><ele>79.29309906441864</ele><time>2024-03-03T04:57:09Z</time></trkpt><trkpt lat="33.1222716" lon="132.5357387"><ele>82.77103707317615</ele><time>2024-03-03T04:59:01Z</time></trkpt><trkpt lat="33.122111" lon="132.5358386"><ele>90.07676308545787</ele><time>2024-03-03T05:02:15Z</time></trkpt><trkpt lat="33.1219372" lon="132.535772"><ele>100.78969208116273</ele><time>2024-03-03T05:05:43Z</time></trkpt><trkpt lat="33.1217948" lon="132.5356326"><ele>118.98084969549103</ele><time>2024-03-03T05:07:57Z</time></trkpt><trkpt lat="33.1216936" lon="132.5354535"><ele>134.79453776170243</ele><time>2024-03-03T05:09:32Z</time></trkpt><trkpt lat="33.1215789" lon="132.5352843"><ele>147.54654966958708</ele><time>2024-03-03T05:11:11Z</time></trkpt><trkpt lat="33.1214515" lon="132.5351285"><ele>157.87339032029163</ele><time>2024-03-03T05:12:33Z</time></trkpt><trkpt lat="33.1213067" lon="132.5349933"><ele>169.68986612765704</ele><time>2024-03-03T05:15:59Z</time></trkpt><trkpt lat="33.121223" lon="132.5348"><ele>180.41551087990865</ele><time>2024-03-03T05:16:31Z</time></trkpt><trkpt lat="33.1211549" lon="132.5346"><ele>190.40242252776844</ele><time>2024-03-03T05:17:06Z</time></trkpt><trkpt lat="33.121079" lon="132.5344005"><ele>198.57283011131844</ele><time>2024-03-03T05:18:27Z</time></trkpt><trkpt lat="33.121017" lon="132.5341979"><ele>206.5797678641214</ele><time>2024-03-03T05:25:43Z</time></trkpt><trkpt lat="33.1209684" lon="132.5339875"><ele>216.32736337880172</ele><time>2024-03-03T05:26:37Z</time></trkpt><trkpt lat="33.1208849" lon="132.5337946"><ele>225.66933110503996</ele><time>2024-03-03T05:27:33Z</time></trkpt><trkpt lat="33.1208041" lon="132.5336"><ele>237.56838396554008</ele><time>2024-03-03T05:28:52Z</time></trkpt><trkpt lat="33.1207647" lon="132.5333888"><ele>252.07439133155285</ele><time>2024-03-03T05:30:35Z</time></trkpt><trkpt lat="33.1206906" lon="132.5331911"><ele>267.4390289713873</ele><time>2024-03-03T05:35:31Z</time></trkpt><trkpt lat="33.1205861" lon="132.5330146"><ele>284.11644245986514</ele><time>2024-03-03T05:37:00Z</time></trkpt><trkpt lat="33.1205308" lon="132.5328079"><ele>298.60997650445114</ele><time>2024-03-03T05:38:28Z</time></trkpt><trkpt lat="33.120486" lon="132.5325981"><ele>313.4743375633761</ele><time>2024-03-03T05:40:18Z</time></trkpt><trkpt lat="33.120465" lon="132.5323837"><ele>324.53219234651243</ele><time>2024-03-03T05:41:20Z</time></trkpt><trkpt lat="33.1202885" lon="132.532315"><ele>331.22494267261476</ele><time>2024-03-03T05:42:12Z</time></trkpt><trkpt lat="33.1201069" lon="132.5322828"><ele>333.7819635771826</ele><time>2024-03-03T05:42:44Z</time></trkpt><trkpt lat="33.1199532" lon="132.5321646"><ele>335.9799071418344</ele><time>2024-03-03T05:43:21Z</time></trkpt><trkpt lat="33.1198243" lon="132.5320104"><ele>338.3637983057063</ele><time>2024-03-03T05:43:56Z</time></trkpt><trkpt lat="33.1196713" lon="132.5318935"><ele>340.1558058576225</ele><time>2024-03-03T05:44:47Z</time></trkpt><trkpt lat="33.1194935" lon="132.5319401"><ele>339.58629935454366</ele><time>2024-03-03T05:46:10Z</time></trkpt><trkpt lat="33.1193171" lon="132.5318921"><ele>338.4497882952909</ele><time>2024-03-03T05:46:39Z</time></trkpt><trkpt lat="33.1191545" lon="132.5317922"><ele>334.6578279378465</ele><time>2024-03-03T05:47:07Z</time></trkpt><trkpt lat="33.1189725" lon="132.5317902"><ele>330.55163855727045</ele><time>2024-03-03T05:47:25Z</time></trkpt><trkpt lat="33.1187881" lon="132.5317896"><ele>326.49140920891153</ele><time>2024-03-03T05:47:50Z</time></trkpt><trkpt lat="33.1186206" lon="132.5318691"><ele>325.43877368321813</ele><time>2024-03-03T05:50:02Z</time></trkpt><trkpt lat="33.1184348" lon="132.5318761"><ele>326.8833639683746</ele><time>2024-03-03T05:50:27Z</time></trkpt><trkpt lat="33.1182545" lon="132.5318427"><ele>330.41769961666256</ele><time>2024-03-03T05:50:53Z</time></trkpt><trkpt lat="33.1180703" lon="132.5318327"><ele>334.41593374270025</ele><time>2024-03-03T05:51:14Z</time></trkpt><trkpt lat="33.1178939" lon="132.5317593"><ele>339.25475183225785</ele><time>2024-03-03T05:51:58Z</time></trkpt><trkpt lat="33.117733" lon="132.5316585"><ele>342.307263850239</ele><time>2024-03-03T05:52:35Z</time></trkpt><trkpt lat="33.1178859" lon="132.5317791"><ele>343.7659610142553</ele><time>2024-03-03T05:57:30Z</time></trkpt><trkpt lat="33.1180586" lon="132.5318449"><ele>340.28542463262323</ele><time>2024-03-03T05:57:58Z</time></trkpt><trkpt lat="33.1182428" lon="132.5318732"><ele>334.87634037692493</ele><time>2024-03-03T05:58:26Z</time></trkpt><trkpt lat="33.1184281" lon="132.5318933"><ele>328.7413444044839</ele><time>2024-03-03T05:58:41Z</time></trkpt><trkpt lat="33.1186176" lon="132.5318663"><ele>323.8620536644753</ele><time>2024-03-03T05:59:01Z</time></trkpt><trkpt lat="33.1187774" lon="132.5317526"><ele>319.5422356166152</ele><time>2024-03-03T05:59:28Z</time></trkpt><trkpt lat="33.1188981" lon="132.5315872"><ele>315.20026487366016</ele><time>2024-03-03T05:59:53Z</time></trkpt><trkpt lat="33.1190452" lon="132.5314582"><ele>311.3440482425012</ele><time>2024-03-03T06:00:07Z</time></trkpt><trkpt lat="33.1191382" lon="132.5312728"><ele>307.64687499036864</ele><time>2024-03-03T06:00:32Z</time></trkpt><trkpt lat="33.1191368" lon="132.5310554"><ele>304.29951281098596</ele><time>2024-03-03T06:00:55Z</time></trkpt><trkpt lat="33.1191961" lon="132.53085"><ele>301.5328200031761</ele><time>2024-03-03T06:01:15Z</time></trkpt><trkpt lat="33.1192766" lon="132.5306542"><ele>299.55854425258036</ele><time>2024-03-03T06:01:40Z</time></trkpt><trkpt lat="33.119352" lon="132.5304582"><ele>295.0705106509226</ele><time>2024-03-03T06:02:07Z</time></trkpt><trkpt lat="33.1194813" lon="132.5303019"><ele>288.39628615495195</ele><time>2024-03-03T06:02:40Z</time></trkpt><trkpt lat="33.1196571" lon="132.5302369"><ele>279.7028270868382</ele><time>2024-03-03T06:03:08Z</time></trkpt><trkpt lat="33.1197462" lon="132.530043"><ele>273.5268566109033</ele><time>2024-03-03T06:03:32Z</time></trkpt><trkpt lat="33.1198096" lon="132.5298386"><ele>269.65791504595103</ele><time>2024-03-03T06:03:47Z</time></trkpt><trkpt lat="33.119869" lon="132.5296325"><ele>267.33405969058725</ele><time>2024-03-03T06:04:06Z</time></trkpt><trkpt lat="33.1199118" lon="132.5294209"><ele>263.3017363337187</ele><time>2024-03-03T06:04:56Z</time></trkpt><trkpt lat="33.1199503" lon="132.5292102"><ele>256.62526308924504</ele><time>2024-03-03T06:05:22Z</time></trkpt><trkpt lat="33.1201377" lon="132.5292023"><ele>248.70363691948046</ele><time>2024-03-03T06:05:45Z</time></trkpt><trkpt lat="33.1203159" lon="132.5291424"><ele>241.13684415181194</ele><time>2024-03-03T06:06:05Z</time></trkpt><trkpt lat="33.1204534" lon="132.5290016"><ele>234.3015517138067</ele><time>2024-03-03T06:06:24Z</time></trkpt><trkpt lat="33.1205319" lon="132.5288023"><ele>228.5878914303946</ele><time>2024-03-03T06:06:40Z</time></trkpt><trkpt lat="33.1206222" lon="132.5286087"><ele>224.19179084978063</ele><time>2024-03-03T06:06:55Z</time></trkpt><trkpt lat="33.1207198" lon="132.5284191"><ele>220.69822512693244</ele><time>2024-03-03T06:07:10Z</time></trkpt><trkpt lat="33.1208867" lon="132.5283223"><ele>217.52215953576794</ele><time>2024-03-03T06:07:33Z</time></trkpt><trkpt lat="33.1210503" lon="132.5282122"><ele>214.91453574537084</ele><time>2024-03-03T06:07:48Z</time></trkpt><trkpt lat="33.1212223" lon="132.5281338"><ele>212.70853666203922</ele><time>2024-03-03T06:08:05Z</time></trkpt><trkpt lat="33.1213829" lon="132.5280349"><ele>210.36678982097814</ele><time>2024-03-03T06:08:42Z</time></trkpt><trkpt lat="33.121539" lon="132.5279181"><ele>203.4011664243635</ele><time>2024-03-03T06:09:59Z</time></trkpt><trkpt lat="33.1217189" lon="132.5278559"><ele>196.82520568901202</ele><time>2024-03-03T06:10:33Z</time></trkpt><trkpt lat="33.1218351" lon="132.52769"><ele>190.48941556150578</ele><time>2024-03-03T06:12:02Z</time></trkpt><trkpt lat="33.1219582" lon="132.5275313"><ele>188.11307255426914</ele><time>2024-03-03T06:12:15Z</time></trkpt><trkpt lat="33.1220605" lon="132.5273545"><ele>186.11316593732758</ele><time>2024-03-03T06:12:28Z</time></trkpt><trkpt lat="33.1222103" lon="132.527233"><ele>183.96809835567805</ele><time>2024-03-03T06:12:44Z</time></trkpt><trkpt lat="33.1221261" lon="132.5274229"><ele>185.82294436740642</ele><time>2024-03-03T06:13:29Z</time></trkpt><trkpt lat="33.1222694" lon="132.5272885"><ele>185.43770033796454</ele><time>2024-03-03T06:15:19Z</time></trkpt><trkpt lat="33.122384" lon="132.5271225"><ele>184.71633350534293</ele><time>2024-03-03T06:15:55Z</time></trkpt><trkpt lat="33.1224603" lon="132.5269257"><ele>179.6737898137217</ele><time>2024-03-03T06:16:18Z</time></trkpt><trkpt lat="33.1225545" lon="132.5267394"><ele>174.85548267643904</ele><time>2024-03-03T06:16:34Z</time></trkpt><trkpt lat="33.1226329" lon="132.5265463"><ele>169.81437849452746</ele><time>2024-03-03T06:16:48Z</time></trkpt><trkpt lat="33.1227428" lon="132.5263628"><ele>164.16574690917835</ele><time>2024-03-03T06:17:03Z</time></trkpt><trkpt lat="33.12282" lon="132.5261655"><ele>157.0686645125661</ele><time>2024-03-03T06:17:42Z</time></trkpt><trkpt lat="33.1227702" lon="132.5259529"><ele>146.61643725906217</ele><time>2024-03-03T06:18:33Z</time></trkpt><trkpt lat="33.122901" lon="132.5258022"><ele>135.4161790412268</ele><time>2024-03-03T06:19:50Z</time></trkpt><trkpt lat="33.1227357" lon="132.5257131"><ele>124.34390705675578</ele><time>2024-03-03T06:20:22Z</time></trkpt><trkpt lat="33.122741" lon="132.5254945"><ele>115.41853609245861</ele><time>2024-03-03T06:20:47Z</time></trkpt><trkpt lat="33.122809" lon="132.5252858"><ele>106.86164558220476</ele><time>2024-03-03T06:21:09Z</time></trkpt><trkpt lat="33.1228733" lon="132.5250769"><ele>97.47524775485856</ele><time>2024-03-03T06:21:44Z</time></trkpt><trkpt lat="33.1229865" lon="132.5248957"><ele>88.58133299579042</ele><time>2024-03-03T06:22:03Z</time></trkpt><trkpt lat="33.1231117" lon="132.5247395"><ele>78.02880623250753</ele><time>2024-03-03T06:22:42Z</time></trkpt><trkpt lat="33.1232361" lon="132.5245814"><ele>67.27023596212818</ele><time>2024-03-03T06:23:28Z</time></trkpt><trkpt lat="33.1234033" lon="132.5244967"><ele>56.52941664352081</ele><time>2024-03-03T06:23:48Z</time></trkpt><trkpt lat="33.1235899" lon="132.5244841"><ele>47.4791424685846</ele><time>2024-03-03T06:24:19Z</time></trkpt><trkpt lat="33.1235371" lon="132.5242765"><ele>38.96705474638877</ele><time>2024-03-03T06:25:10Z</time></trkpt><trkpt lat="33.1235617" lon="132.5240585"><ele>29.364712662418913</ele><time>2024-03-03T06:25:43Z</time></trkpt><trkpt lat="33.1235741" lon="132.5238407"><ele>21.65036029850924</ele><time>2024-03-03T06:25:58Z</time></trkpt><trkpt lat="33.1235575" lon="132.5236201"><ele>17.584992530124698</ele><time>2024-03-03T06:26:52Z</time></trkpt><trkpt lat="33.1237129" lon="132.5234936"><ele>15.459213388824166</ele><time>2024-03-03T06:27:02Z</time></trkpt><trkpt lat="33.1238701" lon="132.5233833"><ele>13.394793216222936</ele><time>2024-03-03T06:27:17Z</time></trkpt><trkpt lat="33.1239853" lon="132.5232184"><ele>10.642521700495964</ele><time>2024-03-03T06:27:32Z</time></trkpt><trkpt lat="33.124129" lon="132.5230858"><ele>9.275555053179174</ele><time>2024-03-03T06:27:48Z</time></trkpt><trkpt lat="33.1242856" lon="132.5232039"><ele>8.3420353454684</ele><time>2024-03-03T06:28:05Z</time></trkpt><trkpt lat="33.1244241" lon="132.5233425"><ele>8.375327311959785</ele><time>2024-03-03T06:28:19Z</time></trkpt><trkpt lat="33.1245656" lon="132.5234788"><ele>8.442086700423147</ele><time>2024-03-03T06:28:36Z</time></trkpt><trkpt lat="33.1247147" lon="132.5236047"><ele>8.27551955329078</ele><time>2024-03-03T06:28:52Z</time></trkpt><trkpt lat="33.1248824" lon="132.5236923"><ele>8.075587442194596</ele><time>2024-03-03T06:29:05Z</time></trkpt><trkpt lat="33.1250558" lon="132.5237549"><ele>8.042277880677869</ele><time>2024-03-03T06:29:21Z</time></trkpt><trkpt lat="33.1252272" lon="132.5238371"><ele>8.175608072956214</ele><time>2024-03-03T06:29:40Z</time></trkpt><trkpt lat="33.125413" lon="132.5238663"><ele>8.308904953311513</ele><time>2024-03-03T06:29:54Z</time></trkpt><trkpt lat="33.1255919" lon="132.5238332"><ele>8.242152009548892</ele><time>2024-03-03T06:30:09Z</time></trkpt><trkpt lat="33.1257765" lon="132.5238659"><ele>8.20870411677478</ele><time>2024-03-03T06:30:24Z</time></trkpt><trkpt lat="33.125963" lon="132.523871"><ele>8.175244024557982</ele><time>2024-03-03T06:30:39Z</time></trkpt><trkpt lat="33.1261386" lon="132.5238078"><ele>8.408437294565788</ele><time>2024-03-03T06:30:51Z</time></trkpt><trkpt lat="33.1263208" lon="132.5237863"><ele>8.64160399076737</ele><time>2024-03-03T06:31:03Z</time></trkpt><trkpt lat="33.1265048" lon="132.5237524"><ele>8.874751711686743</ele><time>2024-03-03T06:31:16Z</time></trkpt><trkpt lat="33.1266813" lon="132.52384"><ele>9.041307839043858</ele><time>2024-03-03T06:31:35Z</time></trkpt><trkpt lat="33.1268182" lon="132.5236904"><ele>9.207810289172135</ele><time>2024-03-03T06:31:44Z</time></trkpt><trkpt lat="33.1270014" lon="132.5236526"><ele>8.874310928014673</ele><time>2024-03-03T06:31:58Z</time></trkpt><trkpt lat="33.1271698" lon="132.523747"><ele>8.974149981559831</ele><time>2024-03-03T06:32:13Z</time></trkpt><trkpt lat="33.1273081" lon="132.523894"><ele>9.074137528740701</ele><time>2024-03-03T06:32:33Z</time></trkpt><trkpt lat="33.1274172" lon="132.5240648"><ele>9.674247157372653</ele><time>2024-03-03T06:32:47Z</time></trkpt><trkpt lat="33.1274312" lon="132.5242803"><ele>9.674453969869033</ele><time>2024-03-03T06:33:06Z</time></trkpt><trkpt lat="33.1275928" lon="132.5244049"><ele>9.674644240609013</ele><time>2024-03-03T06:33:17Z</time></trkpt><trkpt lat="33.1276431" lon="132.5246122"><ele>9.674866649561197</ele><time>2024-03-03T06:33:30Z</time></trkpt><trkpt lat="33.1276984" lon="132.5248172"><ele>9.675074258988415</ele><time>2024-03-03T06:33:42Z</time></trkpt><trkpt lat="33.1277738" lon="132.5250188"><ele>9.842006736784395</ele><time>2024-03-03T06:33:58Z</time></trkpt><trkpt lat="33.1278429" lon="132.5252202"><ele>9.842258328893552</ele><time>2024-03-03T06:34:11Z</time></trkpt><trkpt lat="33.1279089" lon="132.52542"><ele>9.842498002250627</ele><time>2024-03-03T06:34:23Z</time></trkpt><trkpt lat="33.1279286" lon="132.5256358"><ele>9.842750982843903</ele><time>2024-03-03T06:34:40Z</time></trkpt><trkpt lat="33.1280133" lon="132.5258274"><ele>9.976329721568423</ele><time>2024-03-03T06:34:54Z</time></trkpt><trkpt lat="33.1280677" lon="132.5260411"><ele>10.14325057677912</ele><time>2024-03-03T06:35:10Z</time></trkpt><trkpt lat="33.1281577" lon="132.5262458"><ele>10.143483449055761</ele><time>2024-03-03T06:35:23Z</time></trkpt><trkpt lat="33.1281953" lon="132.5264653"><ele>10.177073187333686</ele><time>2024-03-03T06:35:38Z</time></trkpt><trkpt lat="33.1283179" lon="132.5266281"><ele>10.243957609563864</ele><time>2024-03-03T06:35:53Z</time></trkpt><trkpt lat="33.1284231" lon="132.5268035"><ele>10.310824955709078</ele><time>2024-03-03T06:36:10Z</time></trkpt><trkpt lat="33.1284048" lon="132.5270187"><ele>10.377703205612102</ele><time>2024-03-03T06:36:23Z</time></trkpt><trkpt lat="33.1284356" lon="132.527231"><ele>9.877958903460973</ele><time>2024-03-03T06:36:36Z</time></trkpt><trkpt lat="33.12851" lon="132.5274347"><ele>9.511568877440657</ele><time>2024-03-03T06:36:50Z</time></trkpt><trkpt lat="33.1285661" lon="132.5276392"><ele>9.011823023109812</ele><time>2024-03-03T06:37:05Z</time></trkpt><trkpt lat="33.1286375" lon="132.5278471"><ele>9.145399770433267</ele><time>2024-03-03T06:37:20Z</time></trkpt><trkpt lat="33.1286832" lon="132.5280575"><ele>9.678985302385579</ele><time>2024-03-03T06:37:35Z</time></trkpt><trkpt lat="33.1287609" lon="132.5282599"><ele>10.679232215435349</ele><time>2024-03-03T06:37:49Z</time></trkpt><trkpt lat="33.1288187" lon="132.528465"><ele>11.212813848018106</ele><time>2024-03-03T06:38:01Z</time></trkpt><trkpt lat="33.1288737" lon="132.5286742"><ele>11.213060079583057</ele><time>2024-03-03T06:38:19Z</time></trkpt><trkpt lat="33.1288454" lon="132.5288907"><ele>10.880003723091141</ele><time>2024-03-03T06:38:43Z</time></trkpt><trkpt lat="33.1289252" lon="132.5290844"><ele>10.880270449110718</ele><time>2024-03-03T06:38:55Z</time></trkpt><trkpt lat="33.1290202" lon="132.5292733"><ele>11.213852020195896</ele><time>2024-03-03T06:39:07Z</time></trkpt><trkpt lat="33.1291528" lon="132.5294213"><ele>11.547365130375903</ele><time>2024-03-03T06:39:18Z</time></trkpt><trkpt lat="33.1291967" lon="132.52963"><ele>12.114227115788857</ele><time>2024-03-03T06:39:32Z</time></trkpt><trkpt lat="33.1292056" lon="132.5298481"><ele>12.347789019729476</ele><time>2024-03-03T06:39:51Z</time></trkpt><trkpt lat="33.1290971" lon="132.5300313"><ele>12.348088226398481</ele><time>2024-03-03T06:40:08Z</time></trkpt><trkpt lat="33.1289948" lon="132.5302157"><ele>12.115075267490605</ele><time>2024-03-03T06:40:22Z</time></trkpt><trkpt lat="33.1288922" lon="132.5303921"><ele>11.88206766570977</ele><time>2024-03-03T06:40:35Z</time></trkpt><trkpt lat="33.1288627" lon="132.5306065"><ele>11.88239044049296</ele><time>2024-03-03T06:40:50Z</time></trkpt><trkpt lat="33.1288175" lon="132.5308216"><ele>11.882714710815632</ele><time>2024-03-03T06:41:05Z</time></trkpt><trkpt lat="33.1287848" lon="132.5310335"><ele>12.077476889239096</ele><time>2024-03-03T06:41:21Z</time></trkpt><trkpt lat="33.1287181" lon="132.5312398"><ele>12.319346423715453</ele><time>2024-03-03T06:41:37Z</time></trkpt><trkpt lat="33.1286461" lon="132.5314363"><ele>12.580577099503351</ele><time>2024-03-03T06:41:50Z</time></trkpt><trkpt lat="33.1285451" lon="132.5316206"><ele>12.769201916173374</ele><time>2024-03-03T06:42:05Z</time></trkpt><trkpt lat="33.1284882" lon="132.5318295"><ele>12.594656778342292</ele><time>2024-03-03T06:42:20Z</time></trkpt><trkpt lat="33.1284053" lon="132.5320211"><ele>12.400747648325334</ele><time>2024-03-03T06:42:37Z</time></trkpt><trkpt lat="33.1283186" lon="132.5322104"><ele>12.085008576086283</ele><time>2024-03-03T06:42:52Z</time></trkpt><trkpt lat="33.1282656" lon="132.5324268"><ele>12.085337986112785</ele><time>2024-03-03T06:43:06Z</time></trkpt><trkpt lat="33.1282025" lon="132.5326298"><ele>12.08566822920782</ele><time>2024-03-03T06:43:20Z</time></trkpt><trkpt lat="33.1281328" lon="132.5328333"><ele>12.086001241297291</ele><time>2024-03-03T06:43:34Z</time></trkpt><trkpt lat="33.1280349" lon="132.5330136"><ele>12.219659706515019</ele><time>2024-03-03T06:43:48Z</time></trkpt><trkpt lat="33.1278965" lon="132.5331547"><ele>12.219973079456858</ele><time>2024-03-03T06:44:04Z</time></trkpt><trkpt lat="33.1277879" lon="132.5333295"><ele>12.353614005027913</ele><time>2024-03-03T06:44:19Z</time></trkpt><trkpt lat="33.1277022" lon="132.533529"><ele>12.220595932922416</ele><time>2024-03-03T06:44:32Z</time></trkpt><trkpt lat="33.1275831" lon="132.5337018"><ele>12.220920850967088</ele><time>2024-03-03T06:44:46Z</time></trkpt><trkpt lat="33.1274761" lon="132.533876"><ele>12.087912402885992</ele><time>2024-03-03T06:45:00Z</time></trkpt><trkpt lat="33.1273637" lon="132.5340525"><ele>12.088231463361849</ele><time>2024-03-03T06:45:16Z</time></trkpt><trkpt lat="33.1272259" lon="132.5342005"><ele>12.088542853115506</ele><time>2024-03-03T06:45:30Z</time></trkpt><trkpt lat="33.1271559" lon="132.5344102"><ele>12.088862574120183</ele><time>2024-03-03T06:45:44Z</time></trkpt><trkpt lat="33.1270514" lon="132.5345923"><ele>12.089183018480147</ele><time>2024-03-03T06:45:59Z</time></trkpt><trkpt lat="33.1270041" lon="132.5348026"><ele>12.089512649516854</ele><time>2024-03-03T06:46:12Z</time></trkpt><trkpt lat="33.1269705" lon="132.5350157"><ele>12.08983582013766</ele><time>2024-03-03T06:46:26Z</time></trkpt><trkpt lat="33.1268706" lon="132.535195"><ele>12.090156544634453</ele><time>2024-03-03T06:46:42Z</time></trkpt><trkpt lat="33.1267296" lon="132.5353302"><ele>12.223795044709826</ele><time>2024-03-03T06:47:00Z</time></trkpt><trkpt lat="33.126624" lon="132.5355084"><ele>12.224100200284665</ele><time>2024-03-03T06:47:16Z</time></trkpt><trkpt lat="33.1265567" lon="132.5357138"><ele>12.35774287334241</ele><time>2024-03-03T06:47:30Z</time></trkpt><trkpt lat="33.1265378" lon="132.535934"><ele>12.224733447703969</ele><time>2024-03-03T06:47:44Z</time></trkpt><trkpt lat="33.1264789" lon="132.5361394"><ele>12.358391613418414</ele><time>2024-03-03T06:47:59Z</time></trkpt><trkpt lat="33.1263804" lon="132.5363193"><ele>12.21967935806012</ele><time>2024-03-03T06:48:12Z</time></trkpt><trkpt lat="33.126265" lon="132.5364861"><ele>12.28711384373726</ele><time>2024-03-03T06:48:28Z</time></trkpt><trkpt lat="33.1262442" lon="132.5367016"><ele>12.388070798442028</ele><time>2024-03-03T06:48:41Z</time></trkpt><trkpt lat="33.1261785" lon="132.5369031"><ele>12.74877378854707</ele><time>2024-03-03T06:48:58Z</time></trkpt><trkpt lat="33.1260654" lon="132.537073"><ele>13.581971959490437</ele><time>2024-03-03T06:49:17Z</time></trkpt></trkseg></trk></gpx>