<?xml version='1.0' encoding='UTF-8'?><gpx creator="Yama Museum Peak Annotator" xsi:schemaLocation="http://www.topografix.com/GPX/1/1 http://www.topografix.com/GPX/1/1/gpx.xsd" version="1.1" xmlns="http://www.topografix.com/GPX/1/1" xmlns:xsi="http://www.w3.org/2001/XMLSchema-instance"><metadata><bounds maxlat="33.7691186" maxlon="132.8076107" minlat="33.748251" minlon="132.7968616"/></metadata>  <wpt lat="33.7528018" lon="132.8052723">
    <ele>343.08666666666664</ele>
    <name>Peak (343m)</name>
    <desc>Peak detected at 343m (prominence: 43m)</desc>
    <sym>Summit</sym>
  </wpt>
  <wpt lat="33.7484344" lon="132.8072111">
    <ele>404.05</ele>
    <name>大友山</name>
    <desc>Peak detected at 404m (prominence: 338m)</desc>
    <sym>Summit</sym>
  </wpt>
<trk><name>大友山</name><number>1</number><trkseg><trkpt lat="33.7691186" lon="132.8018706"><ele>61.730000000000004</ele><time>2022-09-04T03:08:57Z</time></trkpt><trkpt lat="33.7689926" lon="132.8020305"><ele>61.39</ele><time>2022-09-04T03:09:19Z</time></trkpt><trkpt lat="33.768806" lon="132.8020185"><ele>61.06</ele><time>2022-09-04T03:09:34Z</time></trkpt><trkpt lat="33.7686166" lon="132.8020613"><ele>60.39000000000001</ele><time>2022-09-04T03:09:49Z</time></trkpt><trkpt lat="33.7684305" lon="132.8020787"><ele>59.836666666666666</ele><time>2022-09-04T03:10:02Z</time></trkpt><trkpt lat="33.7682464" lon="132.8021322"><ele>59.52</ele><time>2022-09-04T03:10:19Z</time></trkpt><trkpt lat="33.7680636" lon="132.8021475"><ele>59.406666666666666</ele><time>2022-09-04T03:10:33Z</time></trkpt><trkpt lat="33.7678827" lon="132.8021395"><ele>59.403333333333336</ele><time>2022-09-04T03:10:48Z</time></trkpt><trkpt lat="33.76769" lon="132.8021245"><ele>59.46666666666667</ele><time>2022-09-04T03:11:01Z</time></trkpt><trkpt lat="33.7675114" lon="132.8020873"><ele>59.550000000000004</ele><time>2022-09-04T03:11:16Z</time></trkpt><trkpt lat="33.7673395" lon="132.8020144"><ele>59.653333333333336</ele><time>2022-09-04T03:11:31Z</time></trkpt><trkpt lat="33.767159" lon="132.8020114"><ele>59.669999999999995</ele><time>2022-09-04T03:11:44Z</time></trkpt><trkpt lat="33.7669641" lon="132.8019902"><ele>59.70333333333334</ele><time>2022-09-04T03:11:56Z</time></trkpt><trkpt lat="33.76678" lon="132.801965"><ele>59.72</ele><time>2022-09-04T03:12:09Z</time></trkpt><trkpt lat="33.7665979" lon="132.8019268"><ele>59.76333333333333</ele><time>2022-09-04T03:12:24Z</time></trkpt><trkpt lat="33.7664161" lon="132.8019305"><ele>59.873333333333335</ele><time>2022-09-04T03:12:39Z</time></trkpt><trkpt lat="33.766228" lon="132.801943"><ele>60.18333333333334</ele><time>2022-09-04T03:12:53Z</time></trkpt><trkpt lat="33.7660408" lon="132.8019179"><ele>60.61000000000001</ele><time>2022-09-04T03:13:07Z</time></trkpt><trkpt lat="33.7658591" lon="132.8019533"><ele>61.15666666666667</ele><time>2022-09-04T03:13:21Z</time></trkpt><trkpt lat="33.7656907" lon="132.8018755"><ele>61.70000000000001</ele><time>2022-09-04T03:13:31Z</time></trkpt><trkpt lat="33.7656403" lon="132.8016661"><ele>62.29</ele><time>2022-09-04T03:13:51Z</time></trkpt><trkpt lat="33.7654734" lon="132.8017508"><ele>62.75333333333334</ele><time>2022-09-04T03:14:20Z</time></trkpt><trkpt lat="33.7652847" lon="132.8017761"><ele>63.21</ele><time>2022-09-04T03:14:35Z</time></trkpt><trkpt lat="33.7651087" lon="132.8017259"><ele>63.60666666666666</ele><time>2022-09-04T03:14:53Z</time></trkpt><trkpt lat="33.764925" lon="132.8017402"><ele>64.12333333333333</ele><time>2022-09-04T03:15:08Z</time></trkpt><trkpt lat="33.7647378" lon="132.8018101"><ele>64.52333333333333</ele><time>2022-09-04T03:15:22Z</time></trkpt><trkpt lat="33.7645741" lon="132.801692"><ele>65.05333333333333</ele><time>2022-09-04T03:15:34Z</time></trkpt><trkpt lat="33.7645366" lon="132.8014789"><ele>65.45</ele><time>2022-09-04T03:15:51Z</time></trkpt><trkpt lat="33.764356" lon="132.8014811"><ele>66.04</ele><time>2022-09-04T03:16:06Z</time></trkpt><trkpt lat="33.7641677" lon="132.8015155"><ele>66.62333333333333</ele><time>2022-09-04T03:17:01Z</time></trkpt><trkpt lat="33.7639813" lon="132.8015151"><ele>67.51333333333334</ele><time>2022-09-04T03:17:15Z</time></trkpt><trkpt lat="33.7638033" lon="132.8015722"><ele>68.45</ele><time>2022-09-04T03:17:29Z</time></trkpt><trkpt lat="33.7636241" lon="132.8015304"><ele>69.46666666666665</ele><time>2022-09-04T03:17:42Z</time></trkpt><trkpt lat="33.763439" lon="132.8015252"><ele>70.65333333333334</ele><time>2022-09-04T03:17:56Z</time></trkpt><trkpt lat="33.7632566" lon="132.801488"><ele>71.82</ele><time>2022-09-04T03:18:09Z</time></trkpt><trkpt lat="33.7631516" lon="132.8012941"><ele>72.90333333333332</ele><time>2022-09-04T03:18:21Z</time></trkpt><trkpt lat="33.7629612" lon="132.8012708"><ele>73.72000000000001</ele><time>2022-09-04T03:18:36Z</time></trkpt><trkpt lat="33.7627841" lon="132.8013557"><ele>74.71666666666667</ele><time>2022-09-04T03:18:49Z</time></trkpt><trkpt lat="33.7625959" lon="132.801419"><ele>75.71666666666665</ele><time>2022-09-04T03:19:04Z</time></trkpt><trkpt lat="33.7624149" lon="132.8014315"><ele>76.87333333333333</ele><time>2022-09-04T03:19:19Z</time></trkpt><trkpt lat="33.7622325" lon="132.8014403"><ele>78.02666666666667</ele><time>2022-09-04T03:19:34Z</time></trkpt><trkpt lat="33.7620562" lon="132.8013716"><ele>79.51666666666667</ele><time>2022-09-04T03:19:46Z</time></trkpt><trkpt lat="33.7619092" lon="132.8012302"><ele>81.06666666666666</ele><time>2022-09-04T03:20:15Z</time></trkpt><trkpt lat="33.7617393" lon="132.8011318"><ele>82.64333333333333</ele><time>2022-09-04T03:20:29Z</time></trkpt><trkpt lat="33.7615581" lon="132.801164"><ele>84.60666666666667</ele><time>2022-09-04T03:20:45Z</time></trkpt><trkpt lat="33.7613872" lon="132.8010807"><ele>86.63666666666666</ele><time>2022-09-04T03:21:17Z</time></trkpt><trkpt lat="33.7612596" lon="132.8009098"><ele>88.39666666666666</ele><time>2022-09-04T03:21:32Z</time></trkpt><trkpt lat="33.7610741" lon="132.8008372"><ele>89.25333333333333</ele><time>2022-09-04T03:21:46Z</time></trkpt><trkpt lat="33.7608996" lon="132.8007683"><ele>89.62666666666667</ele><time>2022-09-04T03:22:01Z</time></trkpt><trkpt lat="33.7607144" lon="132.8007485"><ele>89.86666666666667</ele><time>2022-09-04T03:22:15Z</time></trkpt><trkpt lat="33.7605416" lon="132.8006764"><ele>91.02333333333333</ele><time>2022-09-04T03:22:28Z</time></trkpt><trkpt lat="33.7603828" lon="132.8005634"><ele>92.08666666666666</ele><time>2022-09-04T03:22:42Z</time></trkpt><trkpt lat="33.7602411" lon="132.8004226"><ele>93.44333333333333</ele><time>2022-09-04T03:22:56Z</time></trkpt><trkpt lat="33.7600666" lon="132.8004867"><ele>94.37</ele><time>2022-09-04T03:23:10Z</time></trkpt><trkpt lat="33.7598844" lon="132.8004779"><ele>95.52</ele><time>2022-09-04T03:23:25Z</time></trkpt><trkpt lat="33.7597068" lon="132.8004272"><ele>96.81333333333333</ele><time>2022-09-04T03:23:37Z</time></trkpt><trkpt lat="33.7595112" lon="132.8003984"><ele>98.26333333333334</ele><time>2022-09-04T03:23:51Z</time></trkpt><trkpt lat="33.7593311" lon="132.8003663"><ele>99.89</ele><time>2022-09-04T03:24:06Z</time></trkpt><trkpt lat="33.7591549" lon="132.8003176"><ele>101.54</ele><time>2022-09-04T03:24:20Z</time></trkpt><trkpt lat="33.7590189" lon="132.8004714"><ele>103.77333333333333</ele><time>2022-09-04T03:24:31Z</time></trkpt><trkpt lat="33.7588744" lon="132.8006018"><ele>106.61000000000001</ele><time>2022-09-04T03:24:42Z</time></trkpt><trkpt lat="33.7587167" lon="132.8007104"><ele>109.90000000000002</ele><time>2022-09-04T03:25:38Z</time></trkpt><trkpt lat="33.7585349" lon="132.8007051"><ele>113.29</ele><time>2022-09-04T03:25:52Z</time></trkpt><trkpt lat="33.7583547" lon="132.800716"><ele>118.04</ele><time>2022-09-04T03:26:15Z</time></trkpt><trkpt lat="33.7582" lon="132.8005828"><ele>121.08</ele><time>2022-09-04T03:26:36Z</time></trkpt><trkpt lat="33.7580436" lon="132.8004599"><ele>122.33333333333333</ele><time>2022-09-04T03:26:51Z</time></trkpt><trkpt lat="33.7578604" lon="132.8004421"><ele>122.01333333333332</ele><time>2022-09-04T03:27:17Z</time></trkpt><trkpt lat="33.7576853" lon="132.8005029"><ele>124.20333333333333</ele><time>2022-09-04T03:27:28Z</time></trkpt><trkpt lat="33.7575017" lon="132.8005058"><ele>126.33</ele><time>2022-09-04T03:27:40Z</time></trkpt><trkpt lat="33.757379" lon="132.8006729"><ele>128.27333333333334</ele><time>2022-09-04T03:27:51Z</time></trkpt><trkpt lat="33.7573168" lon="132.8008794"><ele>132.68</ele><time>2022-09-04T03:28:00Z</time></trkpt><trkpt lat="33.7571696" lon="132.8007451"><ele>133.59</ele><time>2022-09-04T03:28:27Z</time></trkpt><trkpt lat="33.7569874" lon="132.8007526"><ele>134.54333333333332</ele><time>2022-09-04T03:29:19Z</time></trkpt><trkpt lat="33.7567627" lon="132.800756"><ele>132.83666666666667</ele><time>2022-09-04T03:29:42Z</time></trkpt><trkpt lat="33.7565812" lon="132.8007219"><ele>136.64</ele><time>2022-09-04T03:30:02Z</time></trkpt><trkpt lat="33.7565699" lon="132.8009415"><ele>142.45000000000002</ele><time>2022-09-04T03:30:15Z</time></trkpt><trkpt lat="33.7564185" lon="132.8010697"><ele>149.33666666666667</ele><time>2022-09-04T03:30:34Z</time></trkpt><trkpt lat="33.7562535" lon="132.800979"><ele>153.99</ele><time>2022-09-04T03:30:57Z</time></trkpt><trkpt lat="33.756081" lon="132.8010466"><ele>157.24666666666667</ele><time>2022-09-04T03:32:06Z</time></trkpt><trkpt lat="33.7558972" lon="132.801084"><ele>157.76666666666665</ele><time>2022-09-04T03:35:48Z</time></trkpt><trkpt lat="33.7557408" lon="132.8012072"><ele>161.87</ele><time>2022-09-04T03:40:11Z</time></trkpt><trkpt lat="33.7558966" lon="132.8013187"><ele>166.26</ele><time>2022-09-04T03:45:43Z</time></trkpt><trkpt lat="33.755696" lon="132.8013025"><ele>170.36333333333334</ele><time>2022-09-04T03:46:14Z</time></trkpt><trkpt lat="33.7554207" lon="132.8012031"><ele>176.89333333333335</ele><time>2022-09-04T03:46:24Z</time></trkpt><trkpt lat="33.7552183" lon="132.8010971"><ele>187.64333333333335</ele><time>2022-09-04T03:50:18Z</time></trkpt><trkpt lat="33.7552268" lon="132.8013234"><ele>198.77666666666667</ele><time>2022-09-04T03:56:00Z</time></trkpt><trkpt lat="33.7550473" lon="132.8014029"><ele>206.80000000000004</ele><time>2022-09-04T03:56:23Z</time></trkpt><trkpt lat="33.7548612" lon="132.801371"><ele>212.42333333333332</ele><time>2022-09-04T03:56:29Z</time></trkpt><trkpt lat="33.7546886" lon="132.8014397"><ele>218.1833333333333</ele><time>2022-09-04T03:57:00Z</time></trkpt><trkpt lat="33.7547598" lon="132.8016421"><ele>223.58</ele><time>2022-09-04T03:57:35Z</time></trkpt><trkpt lat="33.7547039" lon="132.8018557"><ele>227.68666666666664</ele><time>2022-09-04T03:58:18Z</time></trkpt><trkpt lat="33.7546327" lon="132.8020577"><ele>234.95666666666668</ele><time>2022-09-04T03:59:32Z</time></trkpt><trkpt lat="33.7545148" lon="132.8022411"><ele>244.34333333333333</ele><time>2022-09-04T04:01:05Z</time></trkpt><trkpt lat="33.7545077" lon="132.8024574"><ele>254.88</ele><time>2022-09-04T04:03:13Z</time></trkpt><trkpt lat="33.7546408" lon="132.8026084"><ele>263.81333333333333</ele><time>2022-09-04T04:03:57Z</time></trkpt><trkpt lat="33.7545087" lon="132.8024591"><ele>267.01666666666665</ele><time>2022-09-04T04:04:24Z</time></trkpt><trkpt lat="33.7543865" lon="132.8026205"><ele>270.43</ele><time>2022-09-04T04:05:34Z</time></trkpt><trkpt lat="33.7543883" lon="132.802838"><ele>276.84666666666664</ele><time>2022-09-04T04:11:19Z</time></trkpt><trkpt lat="33.7543989" lon="132.8030539"><ele>288.05</ele><time>2022-09-04T04:12:48Z</time></trkpt><trkpt lat="33.7542974" lon="132.8032354"><ele>298.65000000000003</ele><time>2022-09-04T04:13:45Z</time></trkpt><trkpt lat="33.7543449" lon="132.8034484"><ele>307.65000000000003</ele><time>2022-09-04T04:14:22Z</time></trkpt><trkpt lat="33.754208" lon="132.8035939"><ele>315.6933333333333</ele><time>2022-09-04T04:15:02Z</time></trkpt><trkpt lat="33.7540768" lon="132.8037474"><ele>321.87333333333333</ele><time>2022-09-04T04:15:37Z</time></trkpt><trkpt lat="33.7539162" lon="132.8038495"><ele>325.50666666666666</ele><time>2022-09-04T04:16:11Z</time></trkpt><trkpt lat="33.7538097" lon="132.8040308"><ele>328.8</ele><time>2022-09-04T04:16:32Z</time></trkpt><trkpt lat="33.7537975" lon="132.804247"><ele>333.15333333333336</ele><time>2022-09-04T04:18:00Z</time></trkpt><trkpt lat="33.7538425" lon="132.8044607"><ele>337.3633333333333</ele><time>2022-09-04T04:19:54Z</time></trkpt><trkpt lat="33.7536644" lon="132.8045071"><ele>339.88000000000005</ele><time>2022-09-04T04:19:59Z</time></trkpt><trkpt lat="33.7535265" lon="132.8046618"><ele>340.24666666666667</ele><time>2022-09-04T04:20:10Z</time></trkpt><trkpt lat="33.7534311" lon="132.8048551"><ele>340.68333333333334</ele><time>2022-09-04T04:20:23Z</time></trkpt><trkpt lat="33.7533303" lon="132.80504"><ele>341.0733333333333</ele><time>2022-09-04T04:20:39Z</time></trkpt><trkpt lat="33.7531453" lon="132.8051103"><ele>341.8333333333333</ele><time>2022-09-04T04:20:54Z</time></trkpt><trkpt lat="33.7529775" lon="132.8052205"><ele>342.31333333333333</ele><time>2022-09-04T04:21:09Z</time></trkpt><trkpt lat="33.7528018" lon="132.8052723"><ele>343.08666666666664</ele><time>2022-09-04T04:21:51Z</time></trkpt><trkpt lat="33.7526224" lon="132.8053313"><ele>343.2366666666667</ele><time>2022-09-04T04:22:20Z</time></trkpt><trkpt lat="33.7524367" lon="132.8053467"><ele>341.36000000000007</ele><time>2022-09-04T04:24:02Z</time></trkpt><trkpt lat="33.7522889" lon="132.8054716"><ele>337.0133333333334</ele><time>2022-09-04T04:24:13Z</time></trkpt><trkpt lat="33.7521373" lon="132.8056084"><ele>329.53999999999996</ele><time>2022-09-04T04:24:27Z</time></trkpt><trkpt lat="33.7519532" lon="132.8056233"><ele>319.80333333333334</ele><time>2022-09-04T04:24:54Z</time></trkpt><trkpt lat="33.7517761" lon="132.805696"><ele>309.65333333333336</ele><time>2022-09-04T04:25:34Z</time></trkpt><trkpt lat="33.751609" lon="132.8057802"><ele>301.21</ele><time>2022-09-04T04:26:19Z</time></trkpt><trkpt lat="33.7514287" lon="132.8057951"><ele>297.68333333333334</ele><time>2022-09-04T04:27:33Z</time></trkpt><trkpt lat="33.7512894" lon="132.8059471"><ele>297.1033333333333</ele><time>2022-09-04T04:28:36Z</time></trkpt><trkpt lat="33.7511714" lon="132.806114"><ele>298.57</ele><time>2022-09-04T04:28:58Z</time></trkpt><trkpt lat="33.7509907" lon="132.8061216"><ele>300.44</ele><time>2022-09-04T04:30:34Z</time></trkpt><trkpt lat="33.7508408" lon="132.8062541"><ele>302.31</ele><time>2022-09-04T04:30:53Z</time></trkpt><trkpt lat="33.750661" lon="132.8062801"><ele>305.5566666666667</ele><time>2022-09-04T04:31:56Z</time></trkpt><trkpt lat="33.7505295" lon="132.8064293"><ele>309.15000000000003</ele><time>2022-09-04T04:33:02Z</time></trkpt><trkpt lat="33.7504306" lon="132.806611"><ele>313.21</ele><time>2022-09-04T04:33:17Z</time></trkpt><trkpt lat="33.7502632" lon="132.8066959"><ele>317.49</ele><time>2022-09-04T04:34:13Z</time></trkpt><trkpt lat="33.7500855" lon="132.8067541"><ele>322.08</ele><time>2022-09-04T04:35:52Z</time></trkpt><trkpt lat="33.7500734" lon="132.8067968"><ele>326.13</ele><time>2022-09-04T04:40:34Z</time></trkpt><trkpt lat="33.7498993" lon="132.8069275"><ele>331.43333333333334</ele><time>2022-09-04T04:40:43Z</time></trkpt><trkpt lat="33.7497192" lon="132.8069468"><ele>340.15333333333336</ele><time>2022-09-04T04:44:31Z</time></trkpt><trkpt lat="33.749748" lon="132.8070805"><ele>348.8766666666666</ele><time>2022-09-04T04:51:16Z</time></trkpt><trkpt lat="33.7495701" lon="132.8071409"><ele>357.25666666666666</ele><time>2022-09-04T04:51:41Z</time></trkpt><trkpt lat="33.7493901" lon="132.8071841"><ele>365.46999999999997</ele><time>2022-09-04T04:51:55Z</time></trkpt><trkpt lat="33.7492093" lon="132.8072132"><ele>375.28</ele><time>2022-09-04T04:52:27Z</time></trkpt><trkpt lat="33.7490269" lon="132.8072426"><ele>384.7966666666666</ele><time>2022-09-04T04:53:41Z</time></trkpt><trkpt lat="33.7488559" lon="132.8071666"><ele>390.3733333333333</ele><time>2022-09-04T04:53:59Z</time></trkpt><trkpt lat="33.7486602" lon="132.8071231"><ele>395.93666666666667</ele><time>2022-09-04T04:55:10Z</time></trkpt><trkpt lat="33.7484306" lon="132.8071149"><ele>399.97</ele><time>2022-09-04T04:55:16Z</time></trkpt><trkpt lat="33.748251" lon="132.8071361"><ele>403.2833333333333</ele><time>2022-09-04T04:55:43Z</time></trkpt><trkpt lat="33.7484344" lon="132.8072111"><ele>404.05</ele><time>2022-09-04T05:07:20Z</time></trkpt><trkpt lat="33.74861" lon="132.8071594"><ele>403.1366666666667</ele><time>2022-09-04T05:07:31Z</time></trkpt><trkpt lat="33.7487908" lon="132.8071511"><ele>400.48333333333335</ele><time>2022-09-04T05:07:44Z</time></trkpt><trkpt lat="33.7489626" lon="132.8072175"><ele>397.26</ele><time>2022-09-04T05:07:57Z</time></trkpt><trkpt lat="33.7491438" lon="132.8071945"><ele>392.4066666666667</ele><time>2022-09-04T05:08:20Z</time></trkpt><trkpt lat="33.7492019" lon="132.8074037"><ele>386.71000000000004</ele><time>2022-09-04T05:08:36Z</time></trkpt><trkpt lat="33.749129" lon="132.8076107"><ele>381.50333333333333</ele><time>2022-09-04T05:10:53Z</time></trkpt><trkpt lat="33.7491937" lon="132.8074022"><ele>379.44666666666666</ele><time>2022-09-04T05:12:03Z</time></trkpt><trkpt lat="33.7492715" lon="132.8072072"><ele>379.89000000000004</ele><time>2022-09-04T05:12:44Z</time></trkpt><trkpt lat="33.749421" lon="132.8070846"><ele>378.2366666666667</ele><time>2022-09-04T05:13:40Z</time></trkpt><trkpt lat="33.7495907" lon="132.8070053"><ele>371.99</ele><time>2022-09-04T05:14:42Z</time></trkpt><trkpt lat="33.7497624" lon="132.8069271"><ele>360.6366666666667</ele><time>2022-09-04T05:15:27Z</time></trkpt><trkpt lat="33.7499315" lon="132.8068496"><ele>348.22333333333336</ele><time>2022-09-04T05:15:51Z</time></trkpt><trkpt lat="33.7500919" lon="132.8067374"><ele>336.99666666666667</ele><time>2022-09-04T05:16:43Z</time></trkpt><trkpt lat="33.7502458" lon="132.8066243"><ele>328.8633333333333</ele><time>2022-09-04T05:17:01Z</time></trkpt><trkpt lat="33.7503804" lon="132.8064742"><ele>322.37</ele><time>2022-09-04T05:17:31Z</time></trkpt><trkpt lat="33.7505469" lon="132.8063867"><ele>317.00333333333333</ele><time>2022-09-04T05:17:59Z</time></trkpt><trkpt lat="33.7507143" lon="132.806289"><ele>311.98</ele><time>2022-09-04T05:18:47Z</time></trkpt><trkpt lat="33.750898" lon="132.8062479"><ele>307.85333333333335</ele><time>2022-09-04T05:18:58Z</time></trkpt><trkpt lat="33.7510379" lon="132.8061095"><ele>304.44</ele><time>2022-09-04T05:19:23Z</time></trkpt><trkpt lat="33.7511504" lon="132.8059342"><ele>302.4433333333333</ele><time>2022-09-04T05:19:44Z</time></trkpt><trkpt lat="33.7512987" lon="132.8058037"><ele>301.29333333333335</ele><time>2022-09-04T05:20:29Z</time></trkpt><trkpt lat="33.7514804" lon="132.8057063"><ele>299.68</ele><time>2022-09-04T05:20:40Z</time></trkpt><trkpt lat="33.7514777" lon="132.805926"><ele>296.1133333333333</ele><time>2022-09-04T05:22:26Z</time></trkpt><trkpt lat="33.7515969" lon="132.8057609"><ele>294.24333333333334</ele><time>2022-09-04T05:23:47Z</time></trkpt><trkpt lat="33.7517571" lon="132.8056581"><ele>295.5233333333333</ele><time>2022-09-04T05:24:35Z</time></trkpt><trkpt lat="33.7519324" lon="132.8056014"><ele>301.15333333333336</ele><time>2022-09-04T05:26:48Z</time></trkpt><trkpt lat="33.752105" lon="132.8055376"><ele>310.3233333333333</ele><time>2022-09-04T05:27:32Z</time></trkpt><trkpt lat="33.7523133" lon="132.8055185"><ele>319.8233333333333</ele><time>2022-09-04T05:27:49Z</time></trkpt><trkpt lat="33.7524936" lon="132.8054788"><ele>329.8066666666667</ele><time>2022-09-04T05:28:40Z</time></trkpt><trkpt lat="33.752686" lon="132.8055131"><ele>335.99333333333334</ele><time>2022-09-04T05:29:22Z</time></trkpt><trkpt lat="33.7528922" lon="132.8053493"><ele>340.7033333333333</ele><time>2022-09-04T05:30:16Z</time></trkpt><trkpt lat="33.753045" lon="132.8052249"><ele>342.16</ele><time>2022-09-04T05:30:28Z</time></trkpt><trkpt lat="33.753181" lon="132.8050787"><ele>342.53666666666663</ele><time>2022-09-04T05:30:40Z</time></trkpt><trkpt lat="33.7533259" lon="132.8049465"><ele>342.09</ele><time>2022-09-04T05:30:55Z</time></trkpt><trkpt lat="33.7535116" lon="132.8049759"><ele>341.6366666666667</ele><time>2022-09-04T05:31:32Z</time></trkpt><trkpt lat="33.7536933" lon="132.8049907"><ele>340.79333333333335</ele><time>2022-09-04T05:32:07Z</time></trkpt><trkpt lat="33.7538403" lon="132.8051188"><ele>338.6000000000001</ele><time>2022-09-04T05:32:35Z</time></trkpt><trkpt lat="33.7540203" lon="132.8051519"><ele>335.0266666666667</ele><time>2022-09-04T05:33:02Z</time></trkpt><trkpt lat="33.7541302" lon="132.804978"><ele>333.2166666666667</ele><time>2022-09-04T05:33:45Z</time></trkpt><trkpt lat="33.7542677" lon="132.8048328"><ele>330.94666666666666</ele><time>2022-09-04T05:35:32Z</time></trkpt><trkpt lat="33.7543832" lon="132.804658"><ele>328.6033333333334</ele><time>2022-09-04T05:36:01Z</time></trkpt><trkpt lat="33.7544657" lon="132.8044557"><ele>322.63</ele><time>2022-09-04T05:37:13Z</time></trkpt><trkpt lat="33.75464" lon="132.8043918"><ele>316.6433333333333</ele><time>2022-09-04T05:38:03Z</time></trkpt><trkpt lat="33.7548166" lon="132.8043306"><ele>308.1333333333333</ele><time>2022-09-04T05:39:53Z</time></trkpt><trkpt lat="33.7546473" lon="132.8042476"><ele>306.2733333333333</ele><time>2022-09-04T05:44:48Z</time></trkpt><trkpt lat="33.7544732" lon="132.8041785"><ele>307.97</ele><time>2022-09-04T05:45:12Z</time></trkpt><trkpt lat="33.7542913" lon="132.8042113"><ele>316.68333333333334</ele><time>2022-09-04T05:46:58Z</time></trkpt><trkpt lat="33.7542727" lon="132.8039758"><ele>321.53333333333336</ele><time>2022-09-04T05:47:46Z</time></trkpt><trkpt lat="33.754294" lon="132.803753"><ele>324.4766666666667</ele><time>2022-09-04T05:47:59Z</time></trkpt><trkpt lat="33.7543795" lon="132.803558"><ele>322.98333333333335</ele><time>2022-09-04T05:48:13Z</time></trkpt><trkpt lat="33.7544343" lon="132.8033518"><ele>318.8</ele><time>2022-09-04T05:49:39Z</time></trkpt><trkpt lat="33.7544804" lon="132.8031411"><ele>311.2033333333333</ele><time>2022-09-04T05:50:41Z</time></trkpt><trkpt lat="33.7544288" lon="132.8029309"><ele>302.7333333333333</ele><time>2022-09-04T05:51:36Z</time></trkpt><trkpt lat="33.754382" lon="132.8027221"><ele>291.8333333333333</ele><time>2022-09-04T05:52:18Z</time></trkpt><trkpt lat="33.7544459" lon="132.8025143"><ele>281.54333333333335</ele><time>2022-09-04T05:53:51Z</time></trkpt><trkpt lat="33.7545607" lon="132.8023332"><ele>269.90000000000003</ele><time>2022-09-04T05:54:19Z</time></trkpt><trkpt lat="33.7545948" lon="132.8021135"><ele>258.47666666666663</ele><time>2022-09-04T05:54:29Z</time></trkpt><trkpt lat="33.7546604" lon="132.80191"><ele>247.48333333333332</ele><time>2022-09-04T05:54:48Z</time></trkpt><trkpt lat="33.754722" lon="132.8017066"><ele>238.63333333333333</ele><time>2022-09-04T05:56:03Z</time></trkpt><trkpt lat="33.7547766" lon="132.8014936"><ele>231.40666666666667</ele><time>2022-09-04T05:56:57Z</time></trkpt><trkpt lat="33.7547941" lon="132.8012772"><ele>226.03333333333333</ele><time>2022-09-04T05:57:11Z</time></trkpt><trkpt lat="33.7548164" lon="132.8010467"><ele>221.39333333333335</ele><time>2022-09-04T05:58:02Z</time></trkpt><trkpt lat="33.7549065" lon="132.8008551"><ele>218.24333333333334</ele><time>2022-09-04T05:58:15Z</time></trkpt><trkpt lat="33.754938" lon="132.800636"><ele>215.19000000000003</ele><time>2022-09-04T05:58:38Z</time></trkpt><trkpt lat="33.7550005" lon="132.8004272"><ele>212.14000000000001</ele><time>2022-09-04T05:59:37Z</time></trkpt><trkpt lat="33.7551146" lon="132.800257"><ele>208.01333333333335</ele><time>2022-09-04T05:59:50Z</time></trkpt><trkpt lat="33.7551521" lon="132.8000433"><ele>205.15666666666667</ele><time>2022-09-04T06:00:03Z</time></trkpt><trkpt lat="33.7552176" lon="132.799841"><ele>202.93666666666664</ele><time>2022-09-04T06:00:19Z</time></trkpt><trkpt lat="33.7552835" lon="132.7996366"><ele>203.29</ele><time>2022-09-04T06:00:59Z</time></trkpt><trkpt lat="33.7554053" lon="132.7994737"><ele>202.9566666666667</ele><time>2022-09-04T06:01:22Z</time></trkpt><trkpt lat="33.7555407" lon="132.7993187"><ele>202.5666666666667</ele><time>2022-09-04T06:01:38Z</time></trkpt><trkpt lat="33.7556226" lon="132.7991168"><ele>201.90333333333334</ele><time>2022-09-04T06:01:56Z</time></trkpt><trkpt lat="33.7556843" lon="132.7989131"><ele>201.25666666666666</ele><time>2022-09-04T06:02:14Z</time></trkpt><trkpt lat="33.7558255" lon="132.7987564"><ele>200.61333333333332</ele><time>2022-09-04T06:03:29Z</time></trkpt><trkpt lat="33.7559665" lon="132.7988917"><ele>196.51333333333332</ele><time>2022-09-04T06:05:20Z</time></trkpt><trkpt lat="33.756126" lon="132.7987897"><ele>191.44999999999996</ele><time>2022-09-04T06:05:35Z</time></trkpt><trkpt lat="33.7563045" lon="132.7987255"><ele>186.75666666666666</ele><time>2022-09-04T06:05:53Z</time></trkpt><trkpt lat="33.7564222" lon="132.798554"><ele>187.45333333333335</ele><time>2022-09-04T06:06:04Z</time></trkpt><trkpt lat="33.7566042" lon="132.7985581"><ele>188.16666666666666</ele><time>2022-09-04T06:06:18Z</time></trkpt><trkpt lat="33.7567818" lon="132.7984996"><ele>189.84</ele><time>2022-09-04T06:06:38Z</time></trkpt><trkpt lat="33.7569088" lon="132.7983462"><ele>189.4</ele><time>2022-09-04T06:07:07Z</time></trkpt><trkpt lat="33.7570299" lon="132.7981798"><ele>188.52666666666667</ele><time>2022-09-04T06:07:21Z</time></trkpt><trkpt lat="33.7571666" lon="132.7980272"><ele>186.10666666666668</ele><time>2022-09-04T06:07:31Z</time></trkpt><trkpt lat="33.7573427" lon="132.7979735"><ele>183.68333333333337</ele><time>2022-09-04T06:07:45Z</time></trkpt><trkpt lat="33.7575194" lon="132.7980369"><ele>181.89000000000001</ele><time>2022-09-04T06:08:01Z</time></trkpt><trkpt lat="33.7576936" lon="132.7979753"><ele>180.46333333333334</ele><time>2022-09-04T06:08:29Z</time></trkpt><trkpt lat="33.757884" lon="132.7979416"><ele>178.21333333333334</ele><time>2022-09-04T06:08:43Z</time></trkpt><trkpt lat="33.7580428" lon="132.7978281"><ele>176.36333333333334</ele><time>2022-09-04T06:08:51Z</time></trkpt><trkpt lat="33.7582207" lon="132.7977858"><ele>173.93666666666664</ele><time>2022-09-04T06:09:02Z</time></trkpt><trkpt lat="33.7584098" lon="132.7977637"><ele>171.56333333333336</ele><time>2022-09-04T06:09:16Z</time></trkpt><trkpt lat="33.7585687" lon="132.7976604"><ele>168.61666666666665</ele><time>2022-09-04T06:10:02Z</time></trkpt><trkpt lat="33.7585232" lon="132.7974469"><ele>166.38666666666666</ele><time>2022-09-04T06:10:28Z</time></trkpt><trkpt lat="33.7586515" lon="132.7972878"><ele>165.18666666666667</ele><time>2022-09-04T06:10:38Z</time></trkpt><trkpt lat="33.7588162" lon="132.7971857"><ele>164.67666666666665</ele><time>2022-09-04T06:10:49Z</time></trkpt><trkpt lat="33.7589956" lon="132.797217"><ele>163.43666666666664</ele><time>2022-09-04T06:15:22Z</time></trkpt><trkpt lat="33.759157" lon="132.7971155"><ele>162.23333333333335</ele><time>2022-09-04T06:15:36Z</time></trkpt><trkpt lat="33.7593377" lon="132.797065"><ele>160.63</ele><time>2022-09-04T06:16:16Z</time></trkpt><trkpt lat="33.7595208" lon="132.7970412"><ele>158.34</ele><time>2022-09-04T06:16:32Z</time></trkpt><trkpt lat="33.7596968" lon="132.7971178"><ele>154.78333333333333</ele><time>2022-09-04T06:17:15Z</time></trkpt><trkpt lat="33.7598542" lon="132.7972281"><ele>150.53333333333333</ele><time>2022-09-04T06:17:27Z</time></trkpt><trkpt lat="33.7600198" lon="132.7973307"><ele>146.43333333333334</ele><time>2022-09-04T06:18:29Z</time></trkpt><trkpt lat="33.7601668" lon="132.7974666"><ele>142.99</ele><time>2022-09-04T06:18:39Z</time></trkpt><trkpt lat="33.7603083" lon="132.7976009"><ele>140.91333333333333</ele><time>2022-09-04T06:18:53Z</time></trkpt><trkpt lat="33.7603853" lon="132.7977978"><ele>137.24</ele><time>2022-09-04T06:19:12Z</time></trkpt><trkpt lat="33.760212" lon="132.7978691"><ele>135.71</ele><time>2022-09-04T06:19:22Z</time></trkpt><trkpt lat="33.7600843" lon="132.7980234"><ele>132.53333333333333</ele><time>2022-09-04T06:20:11Z</time></trkpt><trkpt lat="33.7602676" lon="132.7980217"><ele>131.22333333333333</ele><time>2022-09-04T06:20:29Z</time></trkpt><trkpt lat="33.7604141" lon="132.7978862"><ele>128.95333333333335</ele><time>2022-09-04T06:20:43Z</time></trkpt><trkpt lat="33.7605931" lon="132.7978568"><ele>127.11333333333333</ele><time>2022-09-04T06:20:55Z</time></trkpt><trkpt lat="33.7607694" lon="132.7977918"><ele>125.07666666666667</ele><time>2022-09-04T06:21:09Z</time></trkpt><trkpt lat="33.7609161" lon="132.7976604"><ele>122.55666666666667</ele><time>2022-09-04T06:21:25Z</time></trkpt><trkpt lat="33.7609907" lon="132.7974474"><ele>119.55666666666667</ele><time>2022-09-04T06:21:39Z</time></trkpt><trkpt lat="33.7610912" lon="132.7972492"><ele>116.67666666666666</ele><time>2022-09-04T06:21:53Z</time></trkpt><trkpt lat="33.7610853" lon="132.7974681"><ele>114.69666666666667</ele><time>2022-09-04T06:22:14Z</time></trkpt><trkpt lat="33.7610899" lon="132.7976905"><ele>114.79</ele><time>2022-09-04T06:22:28Z</time></trkpt><trkpt lat="33.761062" lon="132.7979106"><ele>114.86000000000001</ele><time>2022-09-04T06:22:44Z</time></trkpt><trkpt lat="33.7612031" lon="132.798061"><ele>111.33</ele><time>2022-09-04T06:23:00Z</time></trkpt><trkpt lat="33.7613853" lon="132.7980716"><ele>106.74333333333334</ele><time>2022-09-04T06:23:13Z</time></trkpt><trkpt lat="33.7615713" lon="132.7980609"><ele>103.2</ele><time>2022-09-04T06:23:28Z</time></trkpt><trkpt lat="33.7617555" lon="132.7980391"><ele>101.99666666666667</ele><time>2022-09-04T06:23:44Z</time></trkpt><trkpt lat="33.7619113" lon="132.7979163"><ele>101.7</ele><time>2022-09-04T06:23:57Z</time></trkpt><trkpt lat="33.7620767" lon="132.7978226"><ele>101.20333333333333</ele><time>2022-09-04T06:24:11Z</time></trkpt><trkpt lat="33.7622509" lon="132.7977474"><ele>99.00999999999999</ele><time>2022-09-04T06:24:26Z</time></trkpt><trkpt lat="33.7624104" lon="132.7976377"><ele>96.16000000000001</ele><time>2022-09-04T06:24:42Z</time></trkpt><trkpt lat="33.7625867" lon="132.7975531"><ele>93.51</ele><time>2022-09-04T06:24:56Z</time></trkpt><trkpt lat="33.7627768" lon="132.7975215"><ele>92.32333333333334</ele><time>2022-09-04T06:25:11Z</time></trkpt><trkpt lat="33.7628826" lon="132.7973457"><ele>92.02666666666666</ele><time>2022-09-04T06:25:25Z</time></trkpt><trkpt lat="33.763054" lon="132.7972611"><ele>91.96333333333332</ele><time>2022-09-04T06:25:43Z</time></trkpt><trkpt lat="33.7632345" lon="132.7972527"><ele>91.89</ele><time>2022-09-04T06:25:58Z</time></trkpt><trkpt lat="33.7632687" lon="132.7974711"><ele>91.14333333333333</ele><time>2022-09-04T06:26:09Z</time></trkpt><trkpt lat="33.7632164" lon="132.7976831"><ele>90.02333333333333</ele><time>2022-09-04T06:26:31Z</time></trkpt><trkpt lat="33.7633735" lon="132.7977964"><ele>88.32666666666667</ele><time>2022-09-04T06:26:53Z</time></trkpt><trkpt lat="33.763377" lon="132.7975751"><ele>87.29333333333334</ele><time>2022-09-04T06:27:05Z</time></trkpt><trkpt lat="33.763388" lon="132.7973536"><ele>84.53666666666668</ele><time>2022-09-04T06:27:18Z</time></trkpt><trkpt lat="33.7633366" lon="132.797134"><ele>84.22666666666667</ele><time>2022-09-04T06:27:33Z</time></trkpt><trkpt lat="33.7631686" lon="132.7970366"><ele>84.92333333333333</ele><time>2022-09-04T06:27:46Z</time></trkpt><trkpt lat="33.7630594" lon="132.7968616"><ele>87.71666666666668</ele><time>2022-09-04T06:28:02Z</time></trkpt><trkpt lat="33.7632262" lon="132.7969446"><ele>89.05666666666667</ele><time>2022-09-04T06:28:10Z</time></trkpt><trkpt lat="33.7634089" lon="132.797065"><ele>87.33333333333333</ele><time>2022-09-04T06:28:28Z</time></trkpt><trkpt lat="33.7635844" lon="132.7970105"><ele>84.88</ele><time>2022-09-04T06:28:41Z</time></trkpt><trkpt lat="33.7636832" lon="132.7971918"><ele>81.44666666666666</ele><time>2022-09-04T06:29:16Z</time></trkpt><trkpt lat="33.7637905" lon="132.7973656"><ele>79.22</ele><time>2022-09-04T06:29:32Z</time></trkpt><trkpt lat="33.763897" lon="132.7975428"><ele>77.25666666666667</ele><time>2022-09-04T06:29:48Z</time></trkpt><trkpt lat="33.7640394" lon="132.7976816"><ele>75.56666666666666</ele><time>2022-09-04T06:30:01Z</time></trkpt><trkpt lat="33.7641668" lon="132.7978413"><ele>74.42666666666668</ele><time>2022-09-04T06:30:36Z</time></trkpt><trkpt lat="33.7643163" lon="132.7979748"><ele>73.10666666666667</ele><time>2022-09-04T06:30:56Z</time></trkpt><trkpt lat="33.7644846" lon="132.7978967"><ele>72.21</ele><time>2022-09-04T06:31:13Z</time></trkpt><trkpt lat="33.7646708" lon="132.7978565"><ele>69.42333333333333</ele><time>2022-09-04T06:31:31Z</time></trkpt><trkpt lat="33.7648377" lon="132.7977634"><ele>67.13666666666667</ele><time>2022-09-04T06:31:47Z</time></trkpt><trkpt lat="33.7649966" lon="132.797644"><ele>65.44666666666667</ele><time>2022-09-04T06:32:02Z</time></trkpt><trkpt lat="33.7651494" lon="132.7975157"><ele>65.84000000000002</ele><time>2022-09-04T06:32:16Z</time></trkpt><trkpt lat="33.7653189" lon="132.7976015"><ele>67.55000000000001</ele><time>2022-09-04T06:32:30Z</time></trkpt><trkpt lat="33.7653605" lon="132.7978181"><ele>67.60000000000001</ele><time>2022-09-04T06:32:46Z</time></trkpt><trkpt lat="33.7654529" lon="132.7980043"><ele>67.55</ele><time>2022-09-04T06:33:01Z</time></trkpt><trkpt lat="33.7656028" lon="132.798141"><ele>65.89333333333333</ele><time>2022-09-04T06:33:14Z</time></trkpt><trkpt lat="33.7657568" lon="132.7982546"><ele>65.71333333333335</ele><time>2022-09-04T06:33:34Z</time></trkpt><trkpt lat="33.765932" lon="132.7981974"><ele>65.43</ele><time>2022-09-04T06:33:51Z</time></trkpt><trkpt lat="33.7660717" lon="132.7983546"><ele>65.31666666666666</ele><time>2022-09-04T06:34:09Z</time></trkpt><trkpt lat="33.7662495" lon="132.7983171"><ele>65.24666666666667</ele><time>2022-09-04T06:34:22Z</time></trkpt><trkpt lat="33.7664009" lon="132.7981927"><ele>65.44333333333333</ele><time>2022-09-04T06:34:35Z</time></trkpt><trkpt lat="33.7665513" lon="132.7983317"><ele>65.53</ele><time>2022-09-04T06:35:00Z</time></trkpt><trkpt lat="33.7666162" lon="132.798547"><ele>65.61666666666666</ele><time>2022-09-04T06:35:22Z</time></trkpt><trkpt lat="33.7666176" lon="132.7987638"><ele>65.38666666666667</ele><time>2022-09-04T06:37:41Z</time></trkpt><trkpt lat="33.7665173" lon="132.7989563"><ele>65.50666666666667</ele><time>2022-09-04T06:37:54Z</time></trkpt><trkpt lat="33.7664188" lon="132.7991479"><ele>65.68</ele><time>2022-09-04T06:38:05Z</time></trkpt><trkpt lat="33.7663405" lon="132.7993427"><ele>65.86333333333333</ele><time>2022-09-04T06:38:18Z</time></trkpt><trkpt lat="33.7662171" lon="132.7995035"><ele>65.92</ele><time>2022-09-04T06:38:31Z</time></trkpt><trkpt lat="33.7662077" lon="132.7997202"><ele>65.78333333333335</ele><time>2022-09-04T06:38:46Z</time></trkpt><trkpt lat="33.7662877" lon="132.7999158"><ele>65.35000000000001</ele><time>2022-09-04T06:39:01Z</time></trkpt><trkpt lat="33.7663645" lon="132.8001179"><ele>64.76333333333334</ele><time>2022-09-04T06:39:31Z</time></trkpt><trkpt lat="33.7665437" lon="132.800164"><ele>64.11666666666666</ele><time>2022-09-04T06:39:44Z</time></trkpt><trkpt lat="33.7667201" lon="132.8002096"><ele>63.63333333333333</ele><time>2022-09-04T06:40:12Z</time></trkpt></trkseg></trk></gpx>