<?xml version='1.0' encoding='UTF-8'?><gpx creator="Yama Museum Peak Annotator" xsi:schemaLocation="http://www.topografix.com/GPX/1/1 http://www.topografix.com/GPX/1/1/gpx.xsd" version="1.1" xmlns="http://www.topografix.com/GPX/1/1" xmlns:xsi="http://www.w3.org/2001/XMLSchema-instance"><metadata><bounds maxlat="33.950587" maxlon="132.9184738" minlat="33.9303395" minlon="132.8887705"/></metadata>  <wpt lat="33.9465925" lon="132.896379">
    <ele>905.61</ele>
    <name>Peak (906m)</name>
    <desc>Peak detected at 906m (prominence: 41m)</desc>
    <sym>Summit</sym>
  </wpt>
  <wpt lat="33.9503258" lon="132.8887705">
    <ele>964.82</ele>
    <name>北三方ヶ森</name>
    <desc>Peak detected at 965m (prominence: 505m)</desc>
    <sym>Summit</sym>
  </wpt>
<trk><name>北三方ヶ森</name><number>1</number><trkseg><trkpt lat="33.9306024" lon="132.8986159"><ele>452.23</ele><time>2022-08-26T21:05:26Z</time></trkpt><trkpt lat="33.9307136" lon="132.8987946"><ele>455.79</ele><time>2022-08-26T21:05:53Z</time></trkpt><trkpt lat="33.930833" lon="132.8989578"><ele>460.75333333333333</ele><time>2022-08-26T21:06:15Z</time></trkpt><trkpt lat="33.9308346" lon="132.8991954"><ele>467.98</ele><time>2022-08-26T21:07:23Z</time></trkpt><trkpt lat="33.9308038" lon="132.8994188"><ele>471.1433333333334</ele><time>2022-08-26T21:07:32Z</time></trkpt><trkpt lat="33.9308129" lon="132.8996426"><ele>471.49333333333334</ele><time>2022-08-26T21:07:44Z</time></trkpt><trkpt lat="33.9308197" lon="132.8998633"><ele>471.5366666666667</ele><time>2022-08-26T21:07:57Z</time></trkpt><trkpt lat="33.9308469" lon="132.9000852"><ele>476.0133333333333</ele><time>2022-08-26T21:08:12Z</time></trkpt><trkpt lat="33.930944" lon="132.9002763"><ele>481.26666666666665</ele><time>2022-08-26T21:08:25Z</time></trkpt><trkpt lat="33.9309771" lon="132.900506"><ele>485.7366666666667</ele><time>2022-08-26T21:08:39Z</time></trkpt><trkpt lat="33.9310827" lon="132.9006851"><ele>485.72333333333336</ele><time>2022-08-26T21:09:07Z</time></trkpt><trkpt lat="33.9312612" lon="132.9007982"><ele>486.9766666666667</ele><time>2022-08-26T21:09:48Z</time></trkpt><trkpt lat="33.9312335" lon="132.9010163"><ele>483.7166666666667</ele><time>2022-08-26T21:10:04Z</time></trkpt><trkpt lat="33.9312071" lon="132.9012435"><ele>483.46000000000004</ele><time>2022-08-26T21:10:18Z</time></trkpt><trkpt lat="33.9311463" lon="132.9014501"><ele>481.63000000000005</ele><time>2022-08-26T21:10:32Z</time></trkpt><trkpt lat="33.9310997" lon="132.9016642"><ele>483.56</ele><time>2022-08-26T21:10:45Z</time></trkpt><trkpt lat="33.9310339" lon="132.9018769"><ele>485.0133333333333</ele><time>2022-08-26T21:10:59Z</time></trkpt><trkpt lat="33.9310075" lon="132.9021141"><ele>485.91</ele><time>2022-08-26T21:11:19Z</time></trkpt><trkpt lat="33.9310518" lon="132.9023263"><ele>489.7733333333333</ele><time>2022-08-26T21:11:32Z</time></trkpt><trkpt lat="33.931049" lon="132.9025483"><ele>493.1933333333333</ele><time>2022-08-26T21:11:47Z</time></trkpt><trkpt lat="33.9311033" lon="132.9027584"><ele>495.67333333333335</ele><time>2022-08-26T21:12:01Z</time></trkpt><trkpt lat="33.9311718" lon="132.9029637"><ele>497.9533333333334</ele><time>2022-08-26T21:12:17Z</time></trkpt><trkpt lat="33.931218" lon="132.903173"><ele>501.71999999999997</ele><time>2022-08-26T21:12:33Z</time></trkpt><trkpt lat="33.9312389" lon="132.9033905"><ele>506.82</ele><time>2022-08-26T21:12:51Z</time></trkpt><trkpt lat="33.9312155" lon="132.9036128"><ele>512.5333333333333</ele><time>2022-08-26T21:13:12Z</time></trkpt><trkpt lat="33.9310855" lon="132.9037665"><ele>514.9166666666666</ele><time>2022-08-26T21:13:32Z</time></trkpt><trkpt lat="33.9310349" lon="132.9039765"><ele>515.4666666666667</ele><time>2022-08-26T21:13:48Z</time></trkpt><trkpt lat="33.9310348" lon="132.9041932"><ele>515.4633333333333</ele><time>2022-08-26T21:14:03Z</time></trkpt><trkpt lat="33.9311015" lon="132.904402"><ele>519.9366666666667</ele><time>2022-08-26T21:14:14Z</time></trkpt><trkpt lat="33.9311483" lon="132.9046193"><ele>527.9433333333333</ele><time>2022-08-26T21:14:25Z</time></trkpt><trkpt lat="33.9311701" lon="132.9048488"><ele>534.1066666666667</ele><time>2022-08-26T21:14:38Z</time></trkpt><trkpt lat="33.9312062" lon="132.9050672"><ele>536.3833333333333</ele><time>2022-08-26T21:14:55Z</time></trkpt><trkpt lat="33.931311" lon="132.9052581"><ele>531.9266666666666</ele><time>2022-08-26T21:15:10Z</time></trkpt><trkpt lat="33.9314675" lon="132.9053684"><ele>526.4499999999999</ele><time>2022-08-26T21:15:34Z</time></trkpt><trkpt lat="33.9314564" lon="132.9055849"><ele>522.2566666666668</ele><time>2022-08-26T21:15:57Z</time></trkpt><trkpt lat="33.9315027" lon="132.905794"><ele>523.1233333333334</ele><time>2022-08-26T21:16:17Z</time></trkpt><trkpt lat="33.9316113" lon="132.9059726"><ele>528.71</ele><time>2022-08-26T21:16:35Z</time></trkpt><trkpt lat="33.931673" lon="132.9061801"><ele>533.3000000000001</ele><time>2022-08-26T21:16:54Z</time></trkpt><trkpt lat="33.9316634" lon="132.9063984"><ele>535.8933333333333</ele><time>2022-08-26T21:17:10Z</time></trkpt><trkpt lat="33.9316225" lon="132.9066168"><ele>534.1566666666668</ele><time>2022-08-26T21:17:25Z</time></trkpt><trkpt lat="33.931631" lon="132.9068358"><ele>533.8866666666667</ele><time>2022-08-26T21:17:39Z</time></trkpt><trkpt lat="33.9316683" lon="132.9070528"><ele>535.0933333333334</ele><time>2022-08-26T21:17:58Z</time></trkpt><trkpt lat="33.9317926" lon="132.9072113"><ele>541.2266666666667</ele><time>2022-08-26T21:18:16Z</time></trkpt><trkpt lat="33.9318234" lon="132.9074246"><ele>545.9333333333333</ele><time>2022-08-26T21:18:31Z</time></trkpt><trkpt lat="33.9318045" lon="132.9076404"><ele>548.87</ele><time>2022-08-26T21:18:49Z</time></trkpt><trkpt lat="33.9317781" lon="132.907859"><ele>547.1766666666666</ele><time>2022-08-26T21:19:08Z</time></trkpt><trkpt lat="33.9317954" lon="132.9080802"><ele>546.1733333333333</ele><time>2022-08-26T21:19:23Z</time></trkpt><trkpt lat="33.931824" lon="132.9083022"><ele>546.0</ele><time>2022-08-26T21:19:37Z</time></trkpt><trkpt lat="33.9318486" lon="132.9085172"><ele>547.01</ele><time>2022-08-26T21:19:52Z</time></trkpt><trkpt lat="33.9319013" lon="132.9087258"><ele>548.7199999999999</ele><time>2022-08-26T21:20:08Z</time></trkpt><trkpt lat="33.9319979" lon="132.9089243"><ele>550.37</ele><time>2022-08-26T21:20:24Z</time></trkpt><trkpt lat="33.9319951" lon="132.9091414"><ele>550.3066666666667</ele><time>2022-08-26T21:20:42Z</time></trkpt><trkpt lat="33.931916" lon="132.9093363"><ele>548.7366666666667</ele><time>2022-08-26T21:21:10Z</time></trkpt><trkpt lat="33.9319699" lon="132.9095493"><ele>549.9633333333333</ele><time>2022-08-26T21:21:35Z</time></trkpt><trkpt lat="33.9320201" lon="132.9097649"><ele>552.1</ele><time>2022-08-26T21:21:49Z</time></trkpt><trkpt lat="33.932109" lon="132.9099693"><ele>556.8733333333333</ele><time>2022-08-26T21:22:02Z</time></trkpt><trkpt lat="33.9322685" lon="132.9100735"><ele>559.7166666666667</ele><time>2022-08-26T21:22:29Z</time></trkpt><trkpt lat="33.9324216" lon="132.9102041"><ele>563.6233333333333</ele><time>2022-08-26T21:22:51Z</time></trkpt><trkpt lat="33.932466" lon="132.9104177"><ele>566.66</ele><time>2022-08-26T21:23:37Z</time></trkpt><trkpt lat="33.9325562" lon="132.9106142"><ele>568.4433333333333</ele><time>2022-08-26T21:23:55Z</time></trkpt><trkpt lat="33.9327112" lon="132.9107269"><ele>569.1766666666666</ele><time>2022-08-26T21:24:08Z</time></trkpt><trkpt lat="33.9328924" lon="132.9107982"><ele>572.37</ele><time>2022-08-26T21:24:22Z</time></trkpt><trkpt lat="33.9330471" lon="132.9109103"><ele>578.0300000000001</ele><time>2022-08-26T21:24:38Z</time></trkpt><trkpt lat="33.9332001" lon="132.9110322"><ele>584.97</ele><time>2022-08-26T21:25:19Z</time></trkpt><trkpt lat="33.9332312" lon="132.9112541"><ele>585.0733333333334</ele><time>2022-08-26T21:25:35Z</time></trkpt><trkpt lat="33.9333177" lon="132.9114452"><ele>583.48</ele><time>2022-08-26T21:25:46Z</time></trkpt><trkpt lat="33.9334266" lon="132.9116218"><ele>582.3766666666667</ele><time>2022-08-26T21:25:59Z</time></trkpt><trkpt lat="33.9335178" lon="132.9118119"><ele>585.5</ele><time>2022-08-26T21:26:15Z</time></trkpt><trkpt lat="33.9334737" lon="132.9120309"><ele>591.1</ele><time>2022-08-26T21:26:32Z</time></trkpt><trkpt lat="33.9333591" lon="132.9122047"><ele>591.8966666666666</ele><time>2022-08-26T21:26:47Z</time></trkpt><trkpt lat="33.9334316" lon="132.9124142"><ele>592.93</ele><time>2022-08-26T21:27:01Z</time></trkpt><trkpt lat="33.9335082" lon="132.9126122"><ele>591.9633333333333</ele><time>2022-08-26T21:27:24Z</time></trkpt><trkpt lat="33.9336879" lon="132.9126505"><ele>597.0799999999999</ele><time>2022-08-26T21:27:39Z</time></trkpt><trkpt lat="33.9338317" lon="132.9127838"><ele>600.4699999999999</ele><time>2022-08-26T21:28:09Z</time></trkpt><trkpt lat="33.9338581" lon="132.9130094"><ele>602.1966666666667</ele><time>2022-08-26T21:28:37Z</time></trkpt><trkpt lat="33.933985" lon="132.9131646"><ele>604.8166666666667</ele><time>2022-08-26T21:28:48Z</time></trkpt><trkpt lat="33.9341381" lon="132.9133037"><ele>612.5066666666668</ele><time>2022-08-26T21:28:58Z</time></trkpt><trkpt lat="33.9342349" lon="132.9134956"><ele>623.0</ele><time>2022-08-26T21:29:12Z</time></trkpt><trkpt lat="33.9342631" lon="132.9137172"><ele>629.44</ele><time>2022-08-26T21:29:27Z</time></trkpt><trkpt lat="33.9342754" lon="132.9139387"><ele>629.1566666666668</ele><time>2022-08-26T21:29:45Z</time></trkpt><trkpt lat="33.9344054" lon="132.9140973"><ele>628.8100000000001</ele><time>2022-08-26T21:30:02Z</time></trkpt><trkpt lat="33.9344933" lon="132.914289"><ele>627.3000000000001</ele><time>2022-08-26T21:30:19Z</time></trkpt><trkpt lat="33.9346674" lon="132.9143673"><ele>629.7666666666667</ele><time>2022-08-26T21:30:38Z</time></trkpt><trkpt lat="33.9348177" lon="132.9144907"><ele>631.9399999999999</ele><time>2022-08-26T21:30:55Z</time></trkpt><trkpt lat="33.9348892" lon="132.9146894"><ele>633.51</ele><time>2022-08-26T21:31:34Z</time></trkpt><trkpt lat="33.9350251" lon="132.9148403"><ele>632.6666666666666</ele><time>2022-08-26T21:31:50Z</time></trkpt><trkpt lat="33.9351938" lon="132.914921"><ele>633.1366666666667</ele><time>2022-08-26T21:32:06Z</time></trkpt><trkpt lat="33.9353628" lon="132.9149986"><ele>639.1733333333333</ele><time>2022-08-26T21:32:24Z</time></trkpt><trkpt lat="33.9355042" lon="132.9151416"><ele>646.0533333333334</ele><time>2022-08-26T21:32:41Z</time></trkpt><trkpt lat="33.9356488" lon="132.9152736"><ele>648.4066666666666</ele><time>2022-08-26T21:32:57Z</time></trkpt><trkpt lat="33.9358029" lon="132.915393"><ele>645.7900000000001</ele><time>2022-08-26T21:33:15Z</time></trkpt><trkpt lat="33.9359853" lon="132.9154252"><ele>644.3233333333334</ele><time>2022-08-26T21:33:48Z</time></trkpt><trkpt lat="33.9360969" lon="132.9152476"><ele>646.0133333333333</ele><time>2022-08-26T21:34:06Z</time></trkpt><trkpt lat="33.9361829" lon="132.9150545"><ele>651.3033333333334</ele><time>2022-08-26T21:34:24Z</time></trkpt><trkpt lat="33.9362361" lon="132.9148445"><ele>659.34</ele><time>2022-08-26T21:34:39Z</time></trkpt><trkpt lat="33.9363989" lon="132.9147497"><ele>665.3333333333334</ele><time>2022-08-26T21:35:03Z</time></trkpt><trkpt lat="33.9365654" lon="132.9148425"><ele>666.0333333333334</ele><time>2022-08-26T21:35:17Z</time></trkpt><trkpt lat="33.9367433" lon="132.9148967"><ele>663.8233333333334</ele><time>2022-08-26T21:35:39Z</time></trkpt><trkpt lat="33.9369242" lon="132.9148296"><ele>664.1433333333333</ele><time>2022-08-26T21:35:56Z</time></trkpt><trkpt lat="33.9370386" lon="132.9146594"><ele>668.7333333333333</ele><time>2022-08-26T21:36:11Z</time></trkpt><trkpt lat="33.937039" lon="132.9144394"><ele>675.0933333333334</ele><time>2022-08-26T21:36:28Z</time></trkpt><trkpt lat="33.9372064" lon="132.9145249"><ele>678.24</ele><time>2022-08-26T21:36:51Z</time></trkpt><trkpt lat="33.9371479" lon="132.9147324"><ele>679.2333333333333</ele><time>2022-08-26T21:37:05Z</time></trkpt><trkpt lat="33.9370346" lon="132.914901"><ele>677.0566666666667</ele><time>2022-08-26T21:37:23Z</time></trkpt><trkpt lat="33.9369032" lon="132.9150623"><ele>675.3133333333334</ele><time>2022-08-26T21:37:36Z</time></trkpt><trkpt lat="33.9367911" lon="132.9152372"><ele>673.4233333333333</ele><time>2022-08-26T21:37:52Z</time></trkpt><trkpt lat="33.936756" lon="132.9154556"><ele>674.59</ele><time>2022-08-26T21:38:10Z</time></trkpt><trkpt lat="33.9365999" lon="132.9155774"><ele>676.2366666666667</ele><time>2022-08-26T21:38:26Z</time></trkpt><trkpt lat="33.9364802" lon="132.9157427"><ele>680.1466666666666</ele><time>2022-08-26T21:38:42Z</time></trkpt><trkpt lat="33.9364337" lon="132.9159589"><ele>682.2666666666665</ele><time>2022-08-26T21:39:00Z</time></trkpt><trkpt lat="33.9365849" lon="132.9160768"><ele>687.7966666666666</ele><time>2022-08-26T21:39:19Z</time></trkpt><trkpt lat="33.936595" lon="132.9162984"><ele>691.16</ele><time>2022-08-26T21:39:35Z</time></trkpt><trkpt lat="33.9366729" lon="132.9164956"><ele>695.4533333333334</ele><time>2022-08-26T21:39:50Z</time></trkpt><trkpt lat="33.9368347" lon="132.9166072"><ele>699.3133333333334</ele><time>2022-08-26T21:40:08Z</time></trkpt><trkpt lat="33.9369478" lon="132.9167882"><ele>701.68</ele><time>2022-08-26T21:40:23Z</time></trkpt><trkpt lat="33.9370882" lon="132.9169457"><ele>701.52</ele><time>2022-08-26T21:41:03Z</time></trkpt><trkpt lat="33.9371087" lon="132.9171654"><ele>699.1366666666667</ele><time>2022-08-26T21:41:20Z</time></trkpt><trkpt lat="33.9370655" lon="132.9173782"><ele>697.9699999999999</ele><time>2022-08-26T21:41:53Z</time></trkpt><trkpt lat="33.9370743" lon="132.9175981"><ele>699.5133333333333</ele><time>2022-08-26T21:42:21Z</time></trkpt><trkpt lat="33.9370698" lon="132.9178209"><ele>702.7033333333334</ele><time>2022-08-26T21:42:50Z</time></trkpt><trkpt lat="33.9371482" lon="132.9176223"><ele>706.34</ele><time>2022-08-26T21:43:39Z</time></trkpt><trkpt lat="33.9372376" lon="132.9178179"><ele>713.7166666666666</ele><time>2022-08-26T21:44:20Z</time></trkpt><trkpt lat="33.9372396" lon="132.9180367"><ele>721.7366666666667</ele><time>2022-08-26T21:44:39Z</time></trkpt><trkpt lat="33.9372115" lon="132.9182548"><ele>729.8066666666667</ele><time>2022-08-26T21:45:16Z</time></trkpt><trkpt lat="33.9370547" lon="132.9183633"><ele>730.8066666666667</ele><time>2022-08-26T21:45:36Z</time></trkpt><trkpt lat="33.9372128" lon="132.9184738"><ele>732.7400000000001</ele><time>2022-08-26T21:47:09Z</time></trkpt><trkpt lat="33.9372169" lon="132.9182535"><ele>732.7399999999999</ele><time>2022-08-26T21:47:26Z</time></trkpt><trkpt lat="33.9371831" lon="132.9180263"><ele>732.3433333333334</ele><time>2022-08-26T21:47:42Z</time></trkpt><trkpt lat="33.9372155" lon="132.9178133"><ele>725.9166666666666</ele><time>2022-08-26T21:48:20Z</time></trkpt><trkpt lat="33.9373392" lon="132.9176501"><ele>723.0533333333333</ele><time>2022-08-26T21:49:01Z</time></trkpt><trkpt lat="33.9374294" lon="132.9174597"><ele>720.1</ele><time>2022-08-26T21:50:50Z</time></trkpt><trkpt lat="33.9373557" lon="132.9172545"><ele>717.2800000000001</ele><time>2022-08-26T21:51:49Z</time></trkpt><trkpt lat="33.9373406" lon="132.9170321"><ele>710.5633333333334</ele><time>2022-08-26T21:52:51Z</time></trkpt><trkpt lat="33.9372536" lon="132.9168423"><ele>706.0866666666667</ele><time>2022-08-26T21:57:44Z</time></trkpt><trkpt lat="33.9371563" lon="132.9166571"><ele>706.3933333333334</ele><time>2022-08-26T21:58:31Z</time></trkpt><trkpt lat="33.9371286" lon="132.9164427"><ele>712.8733333333333</ele><time>2022-08-26T21:59:04Z</time></trkpt><trkpt lat="33.9372115" lon="132.916248"><ele>720.8033333333333</ele><time>2022-08-26T22:00:06Z</time></trkpt><trkpt lat="33.9373678" lon="132.9161264"><ele>725.1266666666667</ele><time>2022-08-26T22:00:20Z</time></trkpt><trkpt lat="33.9375092" lon="132.915989"><ele>726.8266666666667</ele><time>2022-08-26T22:00:31Z</time></trkpt><trkpt lat="33.937598" lon="132.9157902"><ele>726.9533333333333</ele><time>2022-08-26T22:00:44Z</time></trkpt><trkpt lat="33.9375962" lon="132.9155722"><ele>729.6133333333333</ele><time>2022-08-26T22:01:01Z</time></trkpt><trkpt lat="33.937672" lon="132.9153687"><ele>731.6233333333333</ele><time>2022-08-26T22:01:21Z</time></trkpt><trkpt lat="33.9377832" lon="132.9151916"><ele>733.1266666666667</ele><time>2022-08-26T22:01:39Z</time></trkpt><trkpt lat="33.9379181" lon="132.9150273"><ele>733.2033333333333</ele><time>2022-08-26T22:01:55Z</time></trkpt><trkpt lat="33.9380474" lon="132.9148728"><ele>731.82</ele><time>2022-08-26T22:02:09Z</time></trkpt><trkpt lat="33.9381273" lon="132.9146778"><ele>730.4833333333332</ele><time>2022-08-26T22:02:26Z</time></trkpt><trkpt lat="33.938035" lon="132.914487"><ele>731.3100000000001</ele><time>2022-08-26T22:02:54Z</time></trkpt><trkpt lat="33.9381748" lon="132.9143399"><ele>733.6366666666667</ele><time>2022-08-26T22:03:12Z</time></trkpt><trkpt lat="33.9383299" lon="132.914224"><ele>736.1033333333334</ele><time>2022-08-26T22:03:44Z</time></trkpt><trkpt lat="33.9384966" lon="132.9141355"><ele>738.2266666666668</ele><time>2022-08-26T22:04:28Z</time></trkpt><trkpt lat="33.9386808" lon="132.9141242"><ele>745.7033333333334</ele><time>2022-08-26T22:05:24Z</time></trkpt><trkpt lat="33.9388442" lon="132.9142171"><ele>756.2566666666667</ele><time>2022-08-26T22:06:42Z</time></trkpt><trkpt lat="33.9390252" lon="132.9142546"><ele>770.8233333333333</ele><time>2022-08-26T22:09:18Z</time></trkpt><trkpt lat="33.9391796" lon="132.9141322"><ele>781.7033333333334</ele><time>2022-08-26T22:11:21Z</time></trkpt><trkpt lat="33.9392581" lon="132.913931"><ele>789.3866666666667</ele><time>2022-08-26T22:11:33Z</time></trkpt><trkpt lat="33.9391798" lon="132.9137306"><ele>791.5300000000001</ele><time>2022-08-26T22:11:47Z</time></trkpt><trkpt lat="33.9390486" lon="132.9135785"><ele>791.9200000000001</ele><time>2022-08-26T22:12:26Z</time></trkpt><trkpt lat="33.9389989" lon="132.9133574"><ele>791.5766666666667</ele><time>2022-08-26T22:12:38Z</time></trkpt><trkpt lat="33.9389487" lon="132.9131493"><ele>789.9166666666666</ele><time>2022-08-26T22:13:14Z</time></trkpt><trkpt lat="33.9388763" lon="132.9129476"><ele>789.4666666666667</ele><time>2022-08-26T22:13:30Z</time></trkpt><trkpt lat="33.9387743" lon="132.9127667"><ele>791.14</ele><time>2022-08-26T22:13:45Z</time></trkpt><trkpt lat="33.938635" lon="132.9126253"><ele>794.4366666666666</ele><time>2022-08-26T22:14:03Z</time></trkpt><trkpt lat="33.9384907" lon="132.9124925"><ele>796.6366666666667</ele><time>2022-08-26T22:14:29Z</time></trkpt><trkpt lat="33.9383466" lon="132.9123587"><ele>798.5133333333333</ele><time>2022-08-26T22:15:21Z</time></trkpt><trkpt lat="33.9382305" lon="132.9121881"><ele>802.2366666666667</ele><time>2022-08-26T22:16:22Z</time></trkpt><trkpt lat="33.9381492" lon="132.9119945"><ele>806.96</ele><time>2022-08-26T22:16:39Z</time></trkpt><trkpt lat="33.9381076" lon="132.9117793"><ele>810.5733333333333</ele><time>2022-08-26T22:16:57Z</time></trkpt><trkpt lat="33.9380163" lon="132.9115914"><ele>813.9</ele><time>2022-08-26T22:17:52Z</time></trkpt><trkpt lat="33.9379939" lon="132.9113761"><ele>817.2666666666668</ele><time>2022-08-26T22:18:40Z</time></trkpt><trkpt lat="33.9379368" lon="132.9111652"><ele>821.8866666666667</ele><time>2022-08-26T22:18:52Z</time></trkpt><trkpt lat="33.9379426" lon="132.9109444"><ele>826.3433333333334</ele><time>2022-08-26T22:21:39Z</time></trkpt><trkpt lat="33.9380212" lon="132.9107492"><ele>828.85</ele><time>2022-08-26T22:24:18Z</time></trkpt><trkpt lat="33.9381587" lon="132.9106038"><ele>831.5433333333334</ele><time>2022-08-26T22:24:48Z</time></trkpt><trkpt lat="33.9382599" lon="132.9104216"><ele>831.4333333333334</ele><time>2022-08-26T22:25:14Z</time></trkpt><trkpt lat="33.9384418" lon="132.9104434"><ele>831.4466666666667</ele><time>2022-08-26T22:25:54Z</time></trkpt><trkpt lat="33.9386283" lon="132.9103923"><ele>828.39</ele><time>2022-08-26T22:26:07Z</time></trkpt><trkpt lat="33.9388107" lon="132.9103524"><ele>825.5</ele><time>2022-08-26T22:26:16Z</time></trkpt><trkpt lat="33.9389968" lon="132.9103507"><ele>824.4533333333334</ele><time>2022-08-26T22:26:31Z</time></trkpt><trkpt lat="33.9391786" lon="132.9103221"><ele>826.8033333333334</ele><time>2022-08-26T22:26:47Z</time></trkpt><trkpt lat="33.9393578" lon="132.9102729"><ele>830.57</ele><time>2022-08-26T22:27:02Z</time></trkpt><trkpt lat="33.9395118" lon="132.9101567"><ele>833.9233333333333</ele><time>2022-08-26T22:27:36Z</time></trkpt><trkpt lat="33.939658" lon="132.9100265"><ele>836.6466666666666</ele><time>2022-08-26T22:28:36Z</time></trkpt><trkpt lat="33.939824" lon="132.909942"><ele>838.3333333333334</ele><time>2022-08-26T22:31:16Z</time></trkpt><trkpt lat="33.9399024" lon="132.9097426"><ele>837.1933333333333</ele><time>2022-08-26T22:31:56Z</time></trkpt><trkpt lat="33.9400203" lon="132.9095718"><ele>833.1833333333334</ele><time>2022-08-26T22:32:12Z</time></trkpt><trkpt lat="33.9401259" lon="132.9093898"><ele>828.4833333333332</ele><time>2022-08-26T22:32:27Z</time></trkpt><trkpt lat="33.940248" lon="132.9092196"><ele>824.98</ele><time>2022-08-26T22:32:50Z</time></trkpt><trkpt lat="33.9403778" lon="132.9090667"><ele>822.27</ele><time>2022-08-26T22:33:04Z</time></trkpt><trkpt lat="33.9404078" lon="132.9088457"><ele>820.0033333333334</ele><time>2022-08-26T22:33:18Z</time></trkpt><trkpt lat="33.940497" lon="132.9086521"><ele>817.0100000000001</ele><time>2022-08-26T22:33:31Z</time></trkpt><trkpt lat="33.940626" lon="132.9084972"><ele>814.2000000000002</ele><time>2022-08-26T22:34:35Z</time></trkpt><trkpt lat="33.9407589" lon="132.9083325"><ele>811.5900000000001</ele><time>2022-08-26T22:34:57Z</time></trkpt><trkpt lat="33.9408158" lon="132.908104"><ele>811.39</ele><time>2022-08-26T22:35:05Z</time></trkpt><trkpt lat="33.9409118" lon="132.9079142"><ele>811.8833333333333</ele><time>2022-08-26T22:35:19Z</time></trkpt><trkpt lat="33.9410548" lon="132.9077761"><ele>813.11</ele><time>2022-08-26T22:35:34Z</time></trkpt><trkpt lat="33.9410377" lon="132.9075602"><ele>814.46</ele><time>2022-08-26T22:36:07Z</time></trkpt><trkpt lat="33.9410518" lon="132.9073416"><ele>818.3000000000001</ele><time>2022-08-26T22:37:10Z</time></trkpt><trkpt lat="33.9409824" lon="132.9071352"><ele>824.6533333333333</ele><time>2022-08-26T22:39:09Z</time></trkpt><trkpt lat="33.9409157" lon="132.9069335"><ele>832.3633333333333</ele><time>2022-08-26T22:39:49Z</time></trkpt><trkpt lat="33.9410068" lon="132.9067438"><ele>837.8666666666668</ele><time>2022-08-26T22:40:03Z</time></trkpt><trkpt lat="33.9411696" lon="132.9066459"><ele>840.3133333333334</ele><time>2022-08-26T22:40:26Z</time></trkpt><trkpt lat="33.9413519" lon="132.9066682"><ele>840.2633333333333</ele><time>2022-08-26T22:41:02Z</time></trkpt><trkpt lat="33.941507" lon="132.906548"><ele>839.9900000000001</ele><time>2022-08-26T22:41:25Z</time></trkpt><trkpt lat="33.9416707" lon="132.9064487"><ele>838.0666666666667</ele><time>2022-08-26T22:41:42Z</time></trkpt><trkpt lat="33.9418375" lon="132.9063498"><ele>835.0966666666667</ele><time>2022-08-26T22:41:58Z</time></trkpt><trkpt lat="33.9418928" lon="132.9061433"><ele>834.7033333333334</ele><time>2022-08-26T22:42:18Z</time></trkpt><trkpt lat="33.9420124" lon="132.9059722"><ele>838.2066666666666</ele><time>2022-08-26T22:42:33Z</time></trkpt><trkpt lat="33.942158" lon="132.9058361"><ele>844.0066666666668</ele><time>2022-08-26T22:42:51Z</time></trkpt><trkpt lat="33.9422523" lon="132.905646"><ele>847.89</ele><time>2022-08-26T22:43:42Z</time></trkpt><trkpt lat="33.9423391" lon="132.9054545"><ele>849.8800000000001</ele><time>2022-08-26T22:44:30Z</time></trkpt><trkpt lat="33.9424045" lon="132.9052492"><ele>850.4633333333335</ele><time>2022-08-26T22:44:50Z</time></trkpt><trkpt lat="33.9425003" lon="132.9050552"><ele>849.7199999999999</ele><time>2022-08-26T22:45:04Z</time></trkpt><trkpt lat="33.9425387" lon="132.904841"><ele>847.2400000000001</ele><time>2022-08-26T22:45:19Z</time></trkpt><trkpt lat="33.9425631" lon="132.9046247"><ele>844.8100000000001</ele><time>2022-08-26T22:45:40Z</time></trkpt><trkpt lat="33.9425952" lon="132.9044077"><ele>843.3666666666667</ele><time>2022-08-26T22:46:08Z</time></trkpt><trkpt lat="33.942759" lon="132.9043"><ele>843.1166666666667</ele><time>2022-08-26T22:46:33Z</time></trkpt><trkpt lat="33.9428866" lon="132.9041452"><ele>842.6433333333334</ele><time>2022-08-26T22:46:51Z</time></trkpt><trkpt lat="33.9429922" lon="132.9039539"><ele>842.4466666666667</ele><time>2022-08-26T22:47:12Z</time></trkpt><trkpt lat="33.9430403" lon="132.9037407"><ele>842.66</ele><time>2022-08-26T22:47:34Z</time></trkpt><trkpt lat="33.9432147" lon="132.9036752"><ele>843.27</ele><time>2022-08-26T22:48:12Z</time></trkpt><trkpt lat="33.9433695" lon="132.9035554"><ele>845.2633333333333</ele><time>2022-08-26T22:48:55Z</time></trkpt><trkpt lat="33.9435398" lon="132.9034522"><ele>847.3033333333333</ele><time>2022-08-26T22:49:41Z</time></trkpt><trkpt lat="33.9436234" lon="132.9032566"><ele>851.0633333333334</ele><time>2022-08-26T22:49:55Z</time></trkpt><trkpt lat="33.9436857" lon="132.9030424"><ele>854.9699999999999</ele><time>2022-08-26T22:50:56Z</time></trkpt><trkpt lat="33.9437782" lon="132.9028565"><ele>859.1366666666667</ele><time>2022-08-26T22:51:32Z</time></trkpt><trkpt lat="33.943933" lon="132.9027367"><ele>861.4</ele><time>2022-08-26T22:51:56Z</time></trkpt><trkpt lat="33.9441117" lon="132.9026785"><ele>861.48</ele><time>2022-08-26T22:52:18Z</time></trkpt><trkpt lat="33.9442797" lon="132.9025776"><ele>861.1866666666668</ele><time>2022-08-26T22:52:36Z</time></trkpt><trkpt lat="33.9444372" lon="132.902471"><ele>861.1666666666666</ele><time>2022-08-26T22:52:51Z</time></trkpt><trkpt lat="33.9446012" lon="132.902368"><ele>861.1</ele><time>2022-08-26T22:53:04Z</time></trkpt><trkpt lat="33.9447075" lon="132.9021856"><ele>860.3166666666666</ele><time>2022-08-26T22:53:21Z</time></trkpt><trkpt lat="33.9448692" lon="132.902079"><ele>857.6999999999999</ele><time>2022-08-26T22:53:38Z</time></trkpt><trkpt lat="33.9449704" lon="132.9018871"><ele>854.1466666666665</ele><time>2022-08-26T22:53:51Z</time></trkpt><trkpt lat="33.9451586" lon="132.9018006"><ele>852.2400000000001</ele><time>2022-08-26T22:54:06Z</time></trkpt><trkpt lat="33.9453329" lon="132.9016912"><ele>851.7833333333333</ele><time>2022-08-26T22:54:21Z</time></trkpt><trkpt lat="33.9454746" lon="132.901557"><ele>851.8333333333334</ele><time>2022-08-26T22:54:39Z</time></trkpt><trkpt lat="33.9454943" lon="132.9013383"><ele>852.2666666666668</ele><time>2022-08-26T22:55:03Z</time></trkpt><trkpt lat="33.9456533" lon="132.9012305"><ele>853.4566666666666</ele><time>2022-08-26T22:58:51Z</time></trkpt><trkpt lat="33.9457026" lon="132.9010192"><ele>857.2199999999999</ele><time>2022-08-26T22:59:16Z</time></trkpt><trkpt lat="33.9457584" lon="132.9008089"><ele>862.2866666666667</ele><time>2022-08-26T22:59:36Z</time></trkpt><trkpt lat="33.9458043" lon="132.9005967"><ele>867.73</ele><time>2022-08-26T23:00:18Z</time></trkpt><trkpt lat="33.9458291" lon="132.9003651"><ele>873.0133333333334</ele><time>2022-08-26T23:01:16Z</time></trkpt><trkpt lat="33.9457891" lon="132.9001526"><ele>876.8366666666667</ele><time>2022-08-26T23:01:25Z</time></trkpt><trkpt lat="33.9457869" lon="132.8999229"><ele>880.4900000000001</ele><time>2022-08-26T23:01:50Z</time></trkpt><trkpt lat="33.9458532" lon="132.8997214"><ele>883.0866666666667</ele><time>2022-08-26T23:02:04Z</time></trkpt><trkpt lat="33.9460192" lon="132.8996314"><ele>884.6533333333333</ele><time>2022-08-26T23:02:21Z</time></trkpt><trkpt lat="33.9461759" lon="132.899494"><ele>885.7199999999999</ele><time>2022-08-26T23:02:40Z</time></trkpt><trkpt lat="33.9462392" lon="132.8992897"><ele>888.0300000000001</ele><time>2022-08-26T23:02:57Z</time></trkpt><trkpt lat="33.9462991" lon="132.899082"><ele>891.2133333333333</ele><time>2022-08-26T23:03:17Z</time></trkpt><trkpt lat="33.9464638" lon="132.8989903"><ele>895.1233333333333</ele><time>2022-08-26T23:03:32Z</time></trkpt><trkpt lat="33.9464107" lon="132.8987818"><ele>898.1</ele><time>2022-08-26T23:04:19Z</time></trkpt><trkpt lat="33.9463958" lon="132.8985486"><ele>899.9766666666668</ele><time>2022-08-26T23:04:45Z</time></trkpt><trkpt lat="33.9463955" lon="132.8983288"><ele>900.7266666666668</ele><time>2022-08-26T23:04:51Z</time></trkpt><trkpt lat="33.946527" lon="132.89818"><ele>899.9166666666666</ele><time>2022-08-26T23:05:08Z</time></trkpt><trkpt lat="33.9465284" lon="132.8979507"><ele>899.0100000000001</ele><time>2022-08-26T23:05:31Z</time></trkpt><trkpt lat="33.9465396" lon="132.8977333"><ele>896.6066666666667</ele><time>2022-08-26T23:05:46Z</time></trkpt><trkpt lat="33.9464512" lon="132.8975409"><ele>895.25</ele><time>2022-08-26T23:06:11Z</time></trkpt><trkpt lat="33.9463422" lon="132.8973646"><ele>894.9866666666667</ele><time>2022-08-26T23:06:34Z</time></trkpt><trkpt lat="33.9464918" lon="132.897236"><ele>897.8566666666667</ele><time>2022-08-26T23:07:10Z</time></trkpt><trkpt lat="33.9465505" lon="132.8970294"><ele>901.8466666666667</ele><time>2022-08-26T23:07:24Z</time></trkpt><trkpt lat="33.9465123" lon="132.8968094"><ele>906.4366666666668</ele><time>2022-08-26T23:07:41Z</time></trkpt><trkpt lat="33.9465777" lon="132.8965968"><ele>907.2199999999999</ele><time>2022-08-26T23:07:59Z</time></trkpt><trkpt lat="33.9465925" lon="132.896379"><ele>905.61</ele><time>2022-08-26T23:08:23Z</time></trkpt><trkpt lat="33.9466277" lon="132.8961615"><ele>904.0333333333334</ele><time>2022-08-26T23:08:43Z</time></trkpt><trkpt lat="33.9467104" lon="132.8959592"><ele>902.5433333333334</ele><time>2022-08-26T23:09:03Z</time></trkpt><trkpt lat="33.9467531" lon="132.8957457"><ele>901.2666666666668</ele><time>2022-08-26T23:09:22Z</time></trkpt><trkpt lat="33.9468951" lon="132.8956098"><ele>896.9333333333334</ele><time>2022-08-26T23:10:14Z</time></trkpt><trkpt lat="33.9470266" lon="132.8954407"><ele>893.0433333333334</ele><time>2022-08-26T23:10:41Z</time></trkpt><trkpt lat="33.9471629" lon="132.8952963"><ele>888.9266666666667</ele><time>2022-08-26T23:10:54Z</time></trkpt><trkpt lat="33.9473405" lon="132.8952536"><ele>885.6233333333333</ele><time>2022-08-26T23:11:07Z</time></trkpt><trkpt lat="33.9475294" lon="132.8952312"><ele>882.61</ele><time>2022-08-26T23:11:23Z</time></trkpt><trkpt lat="33.9476755" lon="132.8950917"><ele>879.2233333333334</ele><time>2022-08-26T23:11:40Z</time></trkpt><trkpt lat="33.9478084" lon="132.8949418"><ele>875.6966666666667</ele><time>2022-08-26T23:11:55Z</time></trkpt><trkpt lat="33.947952" lon="132.8948034"><ele>871.8733333333333</ele><time>2022-08-26T23:12:18Z</time></trkpt><trkpt lat="33.9479326" lon="132.8945865"><ele>868.1199999999999</ele><time>2022-08-26T23:12:46Z</time></trkpt><trkpt lat="33.9479759" lon="132.8943638"><ele>863.62</ele><time>2022-08-26T23:13:22Z</time></trkpt><trkpt lat="33.9478994" lon="132.8941623"><ele>861.1866666666668</ele><time>2022-08-26T23:14:06Z</time></trkpt><trkpt lat="33.9479043" lon="132.8939452"><ele>861.5566666666667</ele><time>2022-08-26T23:14:23Z</time></trkpt><trkpt lat="33.9479449" lon="132.8937309"><ele>865.2833333333334</ele><time>2022-08-26T23:15:16Z</time></trkpt><trkpt lat="33.9480792" lon="132.8935817"><ele>870.1300000000001</ele><time>2022-08-26T23:15:31Z</time></trkpt><trkpt lat="33.9481901" lon="132.8934111"><ele>874.6066666666667</ele><time>2022-08-26T23:15:43Z</time></trkpt><trkpt lat="33.948326" lon="132.8932616"><ele>878.6266666666667</ele><time>2022-08-26T23:16:17Z</time></trkpt><trkpt lat="33.9484587" lon="132.8931101"><ele>882.18</ele><time>2022-08-26T23:16:40Z</time></trkpt><trkpt lat="33.9486229" lon="132.8930106"><ele>884.8000000000001</ele><time>2022-08-26T23:16:58Z</time></trkpt><trkpt lat="33.9487435" lon="132.892843"><ele>886.8000000000001</ele><time>2022-08-26T23:17:27Z</time></trkpt><trkpt lat="33.9488501" lon="132.8926614"><ele>887.5633333333334</ele><time>2022-08-26T23:17:47Z</time></trkpt><trkpt lat="33.9489403" lon="132.8924706"><ele>887.2433333333335</ele><time>2022-08-26T23:18:06Z</time></trkpt><trkpt lat="33.9489685" lon="132.8922523"><ele>886.87</ele><time>2022-08-26T23:18:22Z</time></trkpt><trkpt lat="33.949083" lon="132.8920824"><ele>888.3066666666667</ele><time>2022-08-26T23:18:51Z</time></trkpt><trkpt lat="33.9492193" lon="132.8919338"><ele>891.9066666666668</ele><time>2022-08-26T23:19:22Z</time></trkpt><trkpt lat="33.9493764" lon="132.8918141"><ele>897.8066666666667</ele><time>2022-08-26T23:20:49Z</time></trkpt><trkpt lat="33.9495008" lon="132.891656"><ele>904.5966666666667</ele><time>2022-08-26T23:21:17Z</time></trkpt><trkpt lat="33.9496702" lon="132.8915785"><ele>911.3533333333334</ele><time>2022-08-26T23:21:50Z</time></trkpt><trkpt lat="33.9498185" lon="132.891454"><ele>916.9799999999999</ele><time>2022-08-26T23:22:05Z</time></trkpt><trkpt lat="33.9497935" lon="132.8912397"><ele>921.9966666666666</ele><time>2022-08-26T23:22:25Z</time></trkpt><trkpt lat="33.949934" lon="132.8910858"><ele>927.6533333333333</ele><time>2022-08-26T23:23:19Z</time></trkpt><trkpt lat="33.9500749" lon="132.8909504"><ele>933.3966666666666</ele><time>2022-08-26T23:23:43Z</time></trkpt><trkpt lat="33.950195" lon="132.8907799"><ele>939.59</ele><time>2022-08-26T23:24:20Z</time></trkpt><trkpt lat="33.9502137" lon="132.890561"><ele>945.0733333333334</ele><time>2022-08-26T23:24:54Z</time></trkpt><trkpt lat="33.9502661" lon="132.8903405"><ele>949.23</ele><time>2022-08-26T23:25:05Z</time></trkpt><trkpt lat="33.9503441" lon="132.8901374"><ele>951.2666666666668</ele><time>2022-08-26T23:25:18Z</time></trkpt><trkpt lat="33.9504199" lon="132.8899274"><ele>952.2700000000001</ele><time>2022-08-26T23:25:34Z</time></trkpt><trkpt lat="33.950523" lon="132.8897488"><ele>952.4133333333333</ele><time>2022-08-26T23:25:51Z</time></trkpt><trkpt lat="33.9505286" lon="132.889527"><ele>952.5966666666667</ele><time>2022-08-26T23:26:06Z</time></trkpt><trkpt lat="33.9503641" lon="132.8894304"><ele>953.7266666666668</ele><time>2022-08-26T23:26:22Z</time></trkpt><trkpt lat="33.9503342" lon="132.8892163"><ele>955.6899999999999</ele><time>2022-08-26T23:27:21Z</time></trkpt><trkpt lat="33.9503611" lon="132.8889875"><ele>959.63</ele><time>2022-08-26T23:27:53Z</time></trkpt><trkpt lat="33.9503258" lon="132.8887705"><ele>964.82</ele><time>2022-08-26T23:28:45Z</time></trkpt><trkpt lat="33.950426" lon="132.8889567"><ele>965.29</ele><time>2022-08-26T23:51:38Z</time></trkpt><trkpt lat="33.9505196" lon="132.8891463"><ele>960.6899999999999</ele><time>2022-08-26T23:52:45Z</time></trkpt><trkpt lat="33.9505475" lon="132.8893641"><ele>953.8033333333333</ele><time>2022-08-26T23:53:14Z</time></trkpt><trkpt lat="33.950587" lon="132.8895781"><ele>950.3133333333334</ele><time>2022-08-26T23:53:28Z</time></trkpt><trkpt lat="33.9505559" lon="132.8898026"><ele>949.37</ele><time>2022-08-26T23:53:43Z</time></trkpt><trkpt lat="33.9504804" lon="132.8900058"><ele>948.6700000000001</ele><time>2022-08-26T23:54:00Z</time></trkpt><trkpt lat="33.9504093" lon="132.8902062"><ele>948.0833333333334</ele><time>2022-08-26T23:54:18Z</time></trkpt><trkpt lat="33.9503304" lon="132.8904068"><ele>949.1433333333334</ele><time>2022-08-26T23:54:45Z</time></trkpt><trkpt lat="33.9502869" lon="132.8906234"><ele>948.9200000000001</ele><time>2022-08-26T23:55:04Z</time></trkpt><trkpt lat="33.9501754" lon="132.8908093"><ele>947.1266666666667</ele><time>2022-08-26T23:55:25Z</time></trkpt><trkpt lat="33.9500902" lon="132.8910074"><ele>942.0166666666668</ele><time>2022-08-26T23:55:38Z</time></trkpt><trkpt lat="33.9501032" lon="132.8912254"><ele>934.85</ele><time>2022-08-26T23:55:59Z</time></trkpt><trkpt lat="33.9499304" lon="132.8913098"><ele>929.9233333333333</ele><time>2022-08-26T23:56:20Z</time></trkpt><trkpt lat="33.9497873" lon="132.8914461"><ele>925.43</ele><time>2022-08-26T23:56:39Z</time></trkpt><trkpt lat="33.9496694" lon="132.8916488"><ele>921.9433333333333</ele><time>2022-08-26T23:56:57Z</time></trkpt><trkpt lat="33.9495147" lon="132.8917709"><ele>915.4766666666666</ele><time>2022-08-26T23:57:29Z</time></trkpt><trkpt lat="33.9493941" lon="132.8919357"><ele>907.5666666666666</ele><time>2022-08-26T23:57:46Z</time></trkpt><trkpt lat="33.9492143" lon="132.8919832"><ele>900.81</ele><time>2022-08-26T23:58:02Z</time></trkpt><trkpt lat="33.9490916" lon="132.8921474"><ele>894.6666666666666</ele><time>2022-08-26T23:58:47Z</time></trkpt><trkpt lat="33.9491163" lon="132.892371"><ele>888.32</ele><time>2022-08-26T23:58:54Z</time></trkpt><trkpt lat="33.9490563" lon="132.8925753"><ele>881.1366666666667</ele><time>2022-08-26T23:59:11Z</time></trkpt><trkpt lat="33.9489981" lon="132.8927817"><ele>875.8966666666666</ele><time>2022-08-26T23:59:26Z</time></trkpt><trkpt lat="33.9488195" lon="132.8928514"><ele>878.1666666666666</ele><time>2022-08-26T23:59:39Z</time></trkpt><trkpt lat="33.9486552" lon="132.8929531"><ele>881.5266666666666</ele><time>2022-08-26T23:59:53Z</time></trkpt><trkpt lat="33.9485195" lon="132.893107"><ele>885.2766666666666</ele><time>2022-08-27T00:00:09Z</time></trkpt><trkpt lat="33.9484188" lon="132.8932916"><ele>883.0133333333333</ele><time>2022-08-27T00:00:22Z</time></trkpt><trkpt lat="33.9483192" lon="132.8934846"><ele>880.0600000000001</ele><time>2022-08-27T00:00:53Z</time></trkpt><trkpt lat="33.948158" lon="132.8935939"><ele>876.6133333333333</ele><time>2022-08-27T00:01:06Z</time></trkpt><trkpt lat="33.9480648" lon="132.8938107"><ele>872.63</ele><time>2022-08-27T00:01:39Z</time></trkpt><trkpt lat="33.9479935" lon="132.8940167"><ele>867.8100000000001</ele><time>2022-08-27T00:01:50Z</time></trkpt><trkpt lat="33.9478687" lon="132.8941813"><ele>863.0033333333334</ele><time>2022-08-27T00:02:25Z</time></trkpt><trkpt lat="33.9476897" lon="132.8943212"><ele>860.62</ele><time>2022-08-27T00:02:43Z</time></trkpt><trkpt lat="33.9475075" lon="132.8943231"><ele>859.4200000000001</ele><time>2022-08-27T00:02:59Z</time></trkpt><trkpt lat="33.947329" lon="132.8943877"><ele>857.1933333333333</ele><time>2022-08-27T00:03:18Z</time></trkpt><trkpt lat="33.947155" lon="132.8944534"><ele>855.6533333333333</ele><time>2022-08-27T00:03:36Z</time></trkpt><trkpt lat="33.9469687" lon="132.8944041"><ele>854.4899999999999</ele><time>2022-08-27T00:03:56Z</time></trkpt><trkpt lat="33.9468502" lon="132.894569"><ele>855.9433333333333</ele><time>2022-08-27T00:04:43Z</time></trkpt><trkpt lat="33.9466632" lon="132.8945357"><ele>853.5066666666667</ele><time>2022-08-27T00:05:30Z</time></trkpt><trkpt lat="33.9464949" lon="132.8946481"><ele>849.3133333333334</ele><time>2022-08-27T00:05:41Z</time></trkpt><trkpt lat="33.9463922" lon="132.8948292"><ele>845.4666666666667</ele><time>2022-08-27T00:05:57Z</time></trkpt><trkpt lat="33.9461935" lon="132.8948122"><ele>843.5433333333334</ele><time>2022-08-27T00:06:22Z</time></trkpt><trkpt lat="33.9461156" lon="132.8950091"><ele>845.8066666666667</ele><time>2022-08-27T00:06:46Z</time></trkpt><trkpt lat="33.9460339" lon="132.8952192"><ele>846.27</ele><time>2022-08-27T00:07:29Z</time></trkpt><trkpt lat="33.9458522" lon="132.8952539"><ele>844.88</ele><time>2022-08-27T00:08:02Z</time></trkpt><trkpt lat="33.9456743" lon="132.8952167"><ele>839.8666666666667</ele><time>2022-08-27T00:08:46Z</time></trkpt><trkpt lat="33.9454894" lon="132.8952358"><ele>837.0133333333333</ele><time>2022-08-27T00:09:07Z</time></trkpt><trkpt lat="33.9453173" lon="132.8951624"><ele>837.0600000000001</ele><time>2022-08-27T00:09:23Z</time></trkpt><trkpt lat="33.9452622" lon="132.8949422"><ele>836.6966666666667</ele><time>2022-08-27T00:09:38Z</time></trkpt><trkpt lat="33.9452027" lon="132.8947196"><ele>832.7533333333334</ele><time>2022-08-27T00:09:52Z</time></trkpt><trkpt lat="33.9450393" lon="132.8948177"><ele>831.8366666666667</ele><time>2022-08-27T00:10:41Z</time></trkpt><trkpt lat="33.9450077" lon="132.8950308"><ele>833.62</ele><time>2022-08-27T00:11:08Z</time></trkpt><trkpt lat="33.9448691" lon="132.8951722"><ele>833.4066666666668</ele><time>2022-08-27T00:11:31Z</time></trkpt><trkpt lat="33.9447408" lon="132.8953273"><ele>826.7166666666667</ele><time>2022-08-27T00:12:14Z</time></trkpt><trkpt lat="33.9446737" lon="132.8955307"><ele>820.1966666666667</ele><time>2022-08-27T00:13:04Z</time></trkpt><trkpt lat="33.9445858" lon="132.8957225"><ele>819.1733333333333</ele><time>2022-08-27T00:13:42Z</time></trkpt><trkpt lat="33.9444148" lon="132.8956514"><ele>817.4666666666667</ele><time>2022-08-27T00:14:04Z</time></trkpt><trkpt lat="33.9442275" lon="132.8956875"><ele>813.77</ele><time>2022-08-27T00:14:25Z</time></trkpt><trkpt lat="33.9440465" lon="132.8956498"><ele>807.1666666666666</ele><time>2022-08-27T00:14:54Z</time></trkpt><trkpt lat="33.9438738" lon="132.8957129"><ele>804.7599999999999</ele><time>2022-08-27T00:15:50Z</time></trkpt><trkpt lat="33.9437458" lon="132.8958657"><ele>800.9233333333333</ele><time>2022-08-27T00:16:15Z</time></trkpt><trkpt lat="33.9437536" lon="132.8960911"><ele>800.0466666666666</ele><time>2022-08-27T00:16:25Z</time></trkpt><trkpt lat="33.9436154" lon="132.8962381"><ele>798.38</ele><time>2022-08-27T00:16:34Z</time></trkpt><trkpt lat="33.9434319" lon="132.896222"><ele>795.3966666666666</ele><time>2022-08-27T00:16:46Z</time></trkpt><trkpt lat="33.9432828" lon="132.8963442"><ele>788.0166666666668</ele><time>2022-08-27T00:17:04Z</time></trkpt><trkpt lat="33.9432751" lon="132.8965644"><ele>784.7466666666668</ele><time>2022-08-27T00:17:21Z</time></trkpt><trkpt lat="33.9431592" lon="132.8967415"><ele>783.6666666666666</ele><time>2022-08-27T00:17:41Z</time></trkpt><trkpt lat="33.9430803" lon="132.8969374"><ele>782.6666666666666</ele><time>2022-08-27T00:18:11Z</time></trkpt><trkpt lat="33.9430107" lon="132.8971437"><ele>775.8066666666667</ele><time>2022-08-27T00:18:42Z</time></trkpt><trkpt lat="33.9431963" lon="132.8971859"><ele>769.1266666666667</ele><time>2022-08-27T00:20:09Z</time></trkpt><trkpt lat="33.943381" lon="132.8971669"><ele>764.3566666666666</ele><time>2022-08-27T00:20:25Z</time></trkpt><trkpt lat="33.9434952" lon="132.8973418"><ele>758.44</ele><time>2022-08-27T00:21:57Z</time></trkpt><trkpt lat="33.9433896" lon="132.8975275"><ele>750.7366666666667</ele><time>2022-08-27T00:23:29Z</time></trkpt><trkpt lat="33.9432604" lon="132.8976944"><ele>742.6866666666666</ele><time>2022-08-27T00:23:47Z</time></trkpt><trkpt lat="33.9430884" lon="132.8977987"><ele>737.0</ele><time>2022-08-27T00:24:07Z</time></trkpt><trkpt lat="33.9429248" lon="132.897903"><ele>732.98</ele><time>2022-08-27T00:24:21Z</time></trkpt><trkpt lat="33.9427841" lon="132.8980565"><ele>729.32</ele><time>2022-08-27T00:24:38Z</time></trkpt><trkpt lat="33.9427363" lon="132.8982728"><ele>730.34</ele><time>2022-08-27T00:25:00Z</time></trkpt><trkpt lat="33.9425839" lon="132.8983992"><ele>730.3333333333334</ele><time>2022-08-27T00:25:22Z</time></trkpt><trkpt lat="33.9424636" lon="132.8985784"><ele>728.2166666666667</ele><time>2022-08-27T00:25:36Z</time></trkpt><trkpt lat="33.9422862" lon="132.898534"><ele>718.6833333333334</ele><time>2022-08-27T00:26:06Z</time></trkpt><trkpt lat="33.9421185" lon="132.8986269"><ele>710.5866666666667</ele><time>2022-08-27T00:26:38Z</time></trkpt><trkpt lat="33.9419357" lon="132.8987098"><ele>703.8100000000001</ele><time>2022-08-27T00:26:52Z</time></trkpt><trkpt lat="33.9417689" lon="132.8987929"><ele>701.5533333333333</ele><time>2022-08-27T00:27:05Z</time></trkpt><trkpt lat="33.9415946" lon="132.898857"><ele>699.11</ele><time>2022-08-27T00:27:21Z</time></trkpt><trkpt lat="33.9414109" lon="132.8988514"><ele>696.08</ele><time>2022-08-27T00:27:52Z</time></trkpt><trkpt lat="33.9412314" lon="132.898882"><ele>694.7066666666666</ele><time>2022-08-27T00:28:08Z</time></trkpt><trkpt lat="33.9410467" lon="132.8989049"><ele>694.9366666666666</ele><time>2022-08-27T00:28:24Z</time></trkpt><trkpt lat="33.9408794" lon="132.8988201"><ele>694.4233333333333</ele><time>2022-08-27T00:29:13Z</time></trkpt><trkpt lat="33.9407149" lon="132.8987111"><ele>688.4566666666666</ele><time>2022-08-27T00:29:47Z</time></trkpt><trkpt lat="33.9405353" lon="132.8987345"><ele>681.0266666666666</ele><time>2022-08-27T00:30:02Z</time></trkpt><trkpt lat="33.9403656" lon="132.8988094"><ele>674.6533333333333</ele><time>2022-08-27T00:30:20Z</time></trkpt><trkpt lat="33.9402656" lon="132.8989902"><ele>671.8333333333334</ele><time>2022-08-27T00:30:51Z</time></trkpt><trkpt lat="33.9400831" lon="132.898979"><ele>667.66</ele><time>2022-08-27T00:31:36Z</time></trkpt><trkpt lat="33.9399069" lon="132.8990863"><ele>663.9466666666667</ele><time>2022-08-27T00:31:53Z</time></trkpt><trkpt lat="33.9397469" lon="132.8991863"><ele>659.32</ele><time>2022-08-27T00:32:13Z</time></trkpt><trkpt lat="33.9397001" lon="132.8994006"><ele>656.9433333333333</ele><time>2022-08-27T00:32:59Z</time></trkpt><trkpt lat="33.9395187" lon="132.8994011"><ele>653.5</ele><time>2022-08-27T00:33:18Z</time></trkpt><trkpt lat="33.9393502" lon="132.899486"><ele>649.3233333333333</ele><time>2022-08-27T00:33:29Z</time></trkpt><trkpt lat="33.9391744" lon="132.8995458"><ele>644.3233333333333</ele><time>2022-08-27T00:33:43Z</time></trkpt><trkpt lat="33.938998" lon="132.8996133"><ele>638.9933333333333</ele><time>2022-08-27T00:34:04Z</time></trkpt><trkpt lat="33.9388961" lon="132.899792"><ele>637.83</ele><time>2022-08-27T00:34:38Z</time></trkpt><trkpt lat="33.938727" lon="132.8998985"><ele>638.81</ele><time>2022-08-27T00:34:55Z</time></trkpt><trkpt lat="33.9386919" lon="132.8996774"><ele>636.9966666666668</ele><time>2022-08-27T00:35:04Z</time></trkpt><trkpt lat="33.938668" lon="132.899452"><ele>633.2400000000001</ele><time>2022-08-27T00:35:12Z</time></trkpt><trkpt lat="33.938486" lon="132.8993894"><ele>626.6266666666667</ele><time>2022-08-27T00:35:25Z</time></trkpt><trkpt lat="33.9383073" lon="132.8994228"><ele>624.63</ele><time>2022-08-27T00:35:36Z</time></trkpt><trkpt lat="33.9382067" lon="132.8996098"><ele>618.6266666666667</ele><time>2022-08-27T00:36:01Z</time></trkpt><trkpt lat="33.9380259" lon="132.8996743"><ele>615.9499999999999</ele><time>2022-08-27T00:36:33Z</time></trkpt><trkpt lat="33.9379535" lon="132.8994727"><ele>611.8333333333334</ele><time>2022-08-27T00:37:02Z</time></trkpt><trkpt lat="33.9378052" lon="132.8993424"><ele>609.6733333333333</ele><time>2022-08-27T00:37:12Z</time></trkpt><trkpt lat="33.9376608" lon="132.8992004"><ele>603.56</ele><time>2022-08-27T00:37:26Z</time></trkpt><trkpt lat="33.9375088" lon="132.8990835"><ele>599.25</ele><time>2022-08-27T00:37:40Z</time></trkpt><trkpt lat="33.9374264" lon="132.8992816"><ele>594.9433333333334</ele><time>2022-08-27T00:38:28Z</time></trkpt><trkpt lat="33.9373252" lon="132.8994629"><ele>593.4866666666667</ele><time>2022-08-27T00:38:50Z</time></trkpt><trkpt lat="33.9372461" lon="132.8996581"><ele>593.69</ele><time>2022-08-27T00:39:21Z</time></trkpt><trkpt lat="33.9370637" lon="132.8996795"><ele>589.78</ele><time>2022-08-27T00:39:42Z</time></trkpt><trkpt lat="33.9368939" lon="132.8995792"><ele>586.37</ele><time>2022-08-27T00:43:00Z</time></trkpt><trkpt lat="33.9367116" lon="132.8995747"><ele>583.66</ele><time>2022-08-27T00:43:46Z</time></trkpt><trkpt lat="33.9365371" lon="132.8995116"><ele>588.1533333333333</ele><time>2022-08-27T00:44:02Z</time></trkpt><trkpt lat="33.9363673" lon="132.8996085"><ele>586.71</ele><time>2022-08-27T00:44:16Z</time></trkpt><trkpt lat="33.936198" lon="132.899521"><ele>581.1866666666666</ele><time>2022-08-27T00:44:31Z</time></trkpt><trkpt lat="33.9360869" lon="132.8993438"><ele>571.4533333333334</ele><time>2022-08-27T00:44:46Z</time></trkpt><trkpt lat="33.9359606" lon="132.8991877"><ele>567.3100000000001</ele><time>2022-08-27T00:45:02Z</time></trkpt><trkpt lat="33.9358064" lon="132.89931"><ele>560.2866666666667</ele><time>2022-08-27T00:45:36Z</time></trkpt><trkpt lat="33.9357111" lon="132.8995026"><ele>555.57</ele><time>2022-08-27T00:45:50Z</time></trkpt><trkpt lat="33.9356014" lon="132.8996776"><ele>551.4666666666667</ele><time>2022-08-27T00:46:07Z</time></trkpt><trkpt lat="33.9354533" lon="132.8998085"><ele>550.4633333333333</ele><time>2022-08-27T00:46:25Z</time></trkpt><trkpt lat="33.9353366" lon="132.8999767"><ele>548.4366666666666</ele><time>2022-08-27T00:46:45Z</time></trkpt><trkpt lat="33.9351634" lon="132.8998999"><ele>544.44</ele><time>2022-08-27T00:46:59Z</time></trkpt><trkpt lat="33.9350466" lon="132.899726"><ele>544.1700000000001</ele><time>2022-08-27T00:47:15Z</time></trkpt><trkpt lat="33.9348694" lon="132.8997744"><ele>540.0866666666667</ele><time>2022-08-27T00:47:30Z</time></trkpt><trkpt lat="33.9347203" lon="132.8996438"><ele>535.7766666666668</ele><time>2022-08-27T00:48:15Z</time></trkpt><trkpt lat="33.9347792" lon="132.8994367"><ele>534.0033333333333</ele><time>2022-08-27T00:48:24Z</time></trkpt><trkpt lat="33.9347991" lon="132.8992199"><ele>537.7199999999999</ele><time>2022-08-27T00:48:34Z</time></trkpt><trkpt lat="33.9347419" lon="132.899009"><ele>538.94</ele><time>2022-08-27T00:48:47Z</time></trkpt><trkpt lat="33.9346062" lon="132.8988572"><ele>533.42</ele><time>2022-08-27T00:49:00Z</time></trkpt><trkpt lat="33.9345586" lon="132.89864"><ele>526.7866666666667</ele><time>2022-08-27T00:49:17Z</time></trkpt><trkpt lat="33.9345716" lon="132.8984152"><ele>524.1833333333334</ele><time>2022-08-27T00:49:36Z</time></trkpt><trkpt lat="33.9345127" lon="132.898206"><ele>524.5366666666667</ele><time>2022-08-27T00:49:56Z</time></trkpt><trkpt lat="33.9343449" lon="132.898292"><ele>522.5933333333334</ele><time>2022-08-27T00:50:15Z</time></trkpt><trkpt lat="33.934198" lon="132.8981473"><ele>519.08</ele><time>2022-08-27T00:50:41Z</time></trkpt><trkpt lat="33.9341091" lon="132.8979487"><ele>515.25</ele><time>2022-08-27T00:50:56Z</time></trkpt><trkpt lat="33.9341652" lon="132.8977378"><ele>513.3933333333333</ele><time>2022-08-27T00:51:06Z</time></trkpt><trkpt lat="33.9341994" lon="132.8975102"><ele>511.4566666666667</ele><time>2022-08-27T00:51:19Z</time></trkpt><trkpt lat="33.9342334" lon="132.8972954"><ele>505.04333333333335</ele><time>2022-08-27T00:51:33Z</time></trkpt><trkpt lat="33.9341906" lon="132.8970819"><ele>498.21000000000004</ele><time>2022-08-27T00:51:49Z</time></trkpt><trkpt lat="33.9341659" lon="132.8968609"><ele>491.69000000000005</ele><time>2022-08-27T00:52:14Z</time></trkpt><trkpt lat="33.9340099" lon="132.8967381"><ele>489.28666666666663</ele><time>2022-08-27T00:52:35Z</time></trkpt><trkpt lat="33.9338571" lon="132.8966004"><ele>489.1266666666667</ele><time>2022-08-27T00:52:51Z</time></trkpt><trkpt lat="33.9336763" lon="132.8966082"><ele>490.41333333333336</ele><time>2022-08-27T00:53:06Z</time></trkpt><trkpt lat="33.9335261" lon="132.8967438"><ele>490.5366666666667</ele><time>2022-08-27T00:53:20Z</time></trkpt><trkpt lat="33.9334393" lon="132.8969382"><ele>489.52666666666664</ele><time>2022-08-27T00:53:35Z</time></trkpt><trkpt lat="33.9332693" lon="132.8970297"><ele>487.4166666666667</ele><time>2022-08-27T00:53:49Z</time></trkpt><trkpt lat="33.933078" lon="132.897029"><ele>484.3500000000001</ele><time>2022-08-27T00:54:03Z</time></trkpt><trkpt lat="33.932901" lon="132.8969756"><ele>481.40333333333336</ele><time>2022-08-27T00:54:23Z</time></trkpt><trkpt lat="33.9327348" lon="132.8968567"><ele>477.7633333333333</ele><time>2022-08-27T00:54:52Z</time></trkpt><trkpt lat="33.9325509" lon="132.8968927"><ele>474.8066666666667</ele><time>2022-08-27T00:55:04Z</time></trkpt><trkpt lat="33.9324619" lon="132.8970921"><ele>472.0566666666667</ele><time>2022-08-27T00:55:18Z</time></trkpt><trkpt lat="33.9323245" lon="132.8972397"><ele>472.89000000000004</ele><time>2022-08-27T00:55:31Z</time></trkpt><trkpt lat="33.9321665" lon="132.8973515"><ele>472.1366666666666</ele><time>2022-08-27T00:55:43Z</time></trkpt><trkpt lat="33.932044" lon="132.8975394"><ele>471.9766666666667</ele><time>2022-08-27T00:55:56Z</time></trkpt><trkpt lat="33.9319244" lon="132.8977036"><ele>468.3500000000001</ele><time>2022-08-27T00:56:11Z</time></trkpt><trkpt lat="33.9318654" lon="132.8979116"><ele>468.04</ele><time>2022-08-27T00:56:25Z</time></trkpt><trkpt lat="33.9318012" lon="132.8981281"><ele>468.31666666666666</ele><time>2022-08-27T00:56:46Z</time></trkpt><trkpt lat="33.9316424" lon="132.8982367"><ele>467.5333333333333</ele><time>2022-08-27T00:57:00Z</time></trkpt><trkpt lat="33.9314784" lon="132.8983467"><ele>465.32666666666665</ele><time>2022-08-27T00:57:13Z</time></trkpt><trkpt lat="33.9313384" lon="132.8984907"><ele>462.5</ele><time>2022-08-27T00:57:25Z</time></trkpt><trkpt lat="33.9312115" lon="132.8986515"><ele>463.19000000000005</ele><time>2022-08-27T00:57:39Z</time></trkpt><trkpt lat="33.9310317" lon="132.8986338"><ele>463.31666666666666</ele><time>2022-08-27T00:57:56Z</time></trkpt><trkpt lat="33.930948" lon="132.8984299"><ele>458.70666666666665</ele><time>2022-08-27T00:58:24Z</time></trkpt><trkpt lat="33.9308226" lon="132.8982605"><ele>452.8233333333333</ele><time>2022-08-27T00:58:33Z</time></trkpt><trkpt lat="33.9306971" lon="132.8981044"><ele>448.6233333333333</ele><time>2022-08-27T00:58:44Z</time></trkpt><trkpt lat="33.9305641" lon="132.897957"><ele>447.97333333333336</ele><time>2022-08-27T00:58:56Z</time></trkpt><trkpt lat="33.9303874" lon="132.8980037"><ele>446.1366666666667</ele><time>2022-08-27T00:59:11Z</time></trkpt><trkpt lat="33.9303395" lon="132.8982126"><ele>446.3766666666667</ele><time>2022-08-27T00:59:32Z</time></trkpt><trkpt lat="33.9305217" lon="132.898267"><ele>446.9066666666667</ele><time>2022-08-27T00:59:42Z</time></trkpt><trkpt lat="33.9306143" lon="132.8984624"><ele>448.7633333333333</ele><time>2022-08-27T00:59:57Z</time></trkpt></trkseg></trk></gpx>