<?xml version='1.0' encoding='UTF-8'?><gpx creator="Yama Museum Peak Annotator" xsi:schemaLocation="http://www.topografix.com/GPX/1/1 http://www.topografix.com/GPX/1/1/gpx.xsd" version="1.1" xmlns="http://www.topografix.com/GPX/1/1" xmlns:xsi="http://www.w3.org/2001/XMLSchema-instance"><metadata><bounds maxlat="33.4731631" maxlon="132.9365377" minlat="33.4706698" minlon="132.9353283"/></metadata>  <wpt lat="33.4706698" lon="132.9365377">
    <ele>1141.42</ele>
    <name>小牛城</name>
    <desc>Peak detected at 1141m (prominence: 45m)</desc>
    <sym>Summit</sym>
  </wpt>
<trk><name>小牛城</name><number>1</number><trkseg><trkpt lat="33.4729225" lon="132.9353283"><ele>1093.13</ele><time>2025-08-15T01:51:56Z</time></trkpt><trkpt lat="33.4730859" lon="132.9354358"><ele>1094.19</ele><time>2025-08-15T01:53:00Z</time></trkpt><trkpt lat="33.473051" lon="132.935665"><ele>1094.2966666666669</ele><time>2025-08-15T01:53:51Z</time></trkpt><trkpt lat="33.472933" lon="132.9354818"><ele>1095.14</ele><time>2025-08-15T01:55:24Z</time></trkpt><trkpt lat="33.472718" lon="132.9355227"><ele>1095.8100000000002</ele><time>2025-08-15T01:56:09Z</time></trkpt><trkpt lat="33.4725404" lon="132.9355976"><ele>1097.2866666666666</ele><time>2025-08-15T01:56:48Z</time></trkpt><trkpt lat="33.472359" lon="132.9356065"><ele>1100.4799999999998</ele><time>2025-08-15T01:57:45Z</time></trkpt><trkpt lat="33.4721648" lon="132.9356826"><ele>1104.5233333333335</ele><time>2025-08-15T01:58:21Z</time></trkpt><trkpt lat="33.4719834" lon="132.9356905"><ele>1111.9266666666667</ele><time>2025-08-15T02:00:26Z</time></trkpt><trkpt lat="33.4717968" lon="132.9357077"><ele>1119.9366666666667</ele><time>2025-08-15T02:01:17Z</time></trkpt><trkpt lat="33.4716344" lon="132.9358268"><ele>1129.5666666666666</ele><time>2025-08-15T02:03:23Z</time></trkpt><trkpt lat="33.4714532" lon="132.9359298"><ele>1136.01</ele><time>2025-08-15T02:03:52Z</time></trkpt><trkpt lat="33.4713095" lon="132.9360669"><ele>1139.8400000000001</ele><time>2025-08-15T02:07:00Z</time></trkpt><trkpt lat="33.471165" lon="132.9362278"><ele>1140.5966666666666</ele><time>2025-08-15T02:07:24Z</time></trkpt><trkpt lat="33.4709838" lon="132.9363255"><ele>1140.8133333333333</ele><time>2025-08-15T02:08:03Z</time></trkpt><trkpt lat="33.470819" lon="132.9364142"><ele>1141.1633333333334</ele><time>2025-08-15T02:09:19Z</time></trkpt><trkpt lat="33.4706698" lon="132.9365377"><ele>1141.42</ele><time>2025-08-15T02:15:25Z</time></trkpt><trkpt lat="33.4708691" lon="132.9365043"><ele>1141.6166666666668</ele><time>2025-08-15T02:18:25Z</time></trkpt><trkpt lat="33.4710598" lon="132.9364278"><ele>1140.6133333333335</ele><time>2025-08-15T02:18:53Z</time></trkpt><trkpt lat="33.4713142" lon="132.9364075"><ele>1137.8</ele><time>2025-08-15T02:19:41Z</time></trkpt><trkpt lat="33.4714657" lon="132.9362785"><ele>1135.5766666666668</ele><time>2025-08-15T02:19:59Z</time></trkpt><trkpt lat="33.4716256" lon="132.9361222"><ele>1133.45</ele><time>2025-08-15T02:20:20Z</time></trkpt><trkpt lat="33.4717682" lon="132.9359822"><ele>1133.5500000000002</ele><time>2025-08-15T02:21:14Z</time></trkpt><trkpt lat="33.4719312" lon="132.9358312"><ele>1130.9566666666667</ele><time>2025-08-15T02:21:33Z</time></trkpt><trkpt lat="33.4721097" lon="132.9357779"><ele>1127.7333333333333</ele><time>2025-08-15T02:22:41Z</time></trkpt><trkpt lat="33.4722557" lon="132.9356185"><ele>1119.1866666666667</ele><time>2025-08-15T02:24:07Z</time></trkpt><trkpt lat="33.4724262" lon="132.9356981"><ele>1113.1033333333332</ele><time>2025-08-15T02:24:25Z</time></trkpt><trkpt lat="33.4726195" lon="132.9357251"><ele>1105.76</ele><time>2025-08-15T02:24:52Z</time></trkpt><trkpt lat="33.47275" lon="132.9355642"><ele>1102.3333333333333</ele><time>2025-08-15T02:25:17Z</time></trkpt><trkpt lat="33.472957" lon="132.9355424"><ele>1098.2266666666667</ele><time>2025-08-15T02:25:44Z</time></trkpt><trkpt lat="33.4731631" lon="132.9355633"><ele>1095.9766666666667</ele><time>2025-08-15T02:26:47Z</time></trkpt><trkpt lat="33.4730031" lon="132.9353997"><ele>1095.0600000000002</ele><time>2025-08-15T02:27:03Z</time></trkpt></trkseg></trk></gpx>