<?xml version='1.0' encoding='UTF-8'?><gpx creator="Yama Museum Peak Annotator" xsi:schemaLocation="http://www.topografix.com/GPX/1/1 http://www.topografix.com/GPX/1/1/gpx.xsd" version="1.1" xmlns="http://www.topografix.com/GPX/1/1" xmlns:xsi="http://www.w3.org/2001/XMLSchema-instance"><metadata><bounds maxlat="34.1671328" maxlon="133.0593362" minlat="34.1640532" minlon="133.047568"/></metadata>  <wpt lat="34.1640532" lon="133.047568">
    <ele>260.3866666666667</ele>
    <name>大頭山</name>
    <desc>Peak detected at 260m (prominence: 167m)</desc>
    <sym>Summit</sym>
  </wpt>
<trk><name>大頭山</name><number>1</number><trkseg><trkpt lat="34.1650998" lon="133.0593362"><ele>90.72</ele><time>2025-02-09T00:27:08Z</time></trkpt><trkpt lat="34.1652476" lon="133.0591899"><ele>95.3</ele><time>2025-02-09T00:27:41Z</time></trkpt><trkpt lat="34.1653958" lon="133.0590247"><ele>95.16333333333334</ele><time>2025-02-09T00:27:56Z</time></trkpt><trkpt lat="34.165474" lon="133.0588247"><ele>95.94999999999999</ele><time>2025-02-09T00:28:11Z</time></trkpt><trkpt lat="34.1656127" lon="133.0586581"><ele>93.42666666666666</ele><time>2025-02-09T00:28:27Z</time></trkpt><trkpt lat="34.1657448" lon="133.058482"><ele>90.83999999999999</ele><time>2025-02-09T00:28:42Z</time></trkpt><trkpt lat="34.165897" lon="133.0583147"><ele>87.96999999999998</ele><time>2025-02-09T00:28:54Z</time></trkpt><trkpt lat="34.1660234" lon="133.0581553"><ele>88.59333333333332</ele><time>2025-02-09T00:29:06Z</time></trkpt><trkpt lat="34.1661742" lon="133.0579722"><ele>94.41333333333334</ele><time>2025-02-09T00:29:21Z</time></trkpt><trkpt lat="34.1663183" lon="133.0578318"><ele>101.46666666666665</ele><time>2025-02-09T00:29:37Z</time></trkpt><trkpt lat="34.166409" lon="133.0576119"><ele>105.68333333333334</ele><time>2025-02-09T00:29:54Z</time></trkpt><trkpt lat="34.166533" lon="133.057453"><ele>103.71333333333332</ele><time>2025-02-09T00:30:09Z</time></trkpt><trkpt lat="34.1666097" lon="133.057251"><ele>100.67333333333333</ele><time>2025-02-09T00:30:24Z</time></trkpt><trkpt lat="34.1666369" lon="133.0569934"><ele>97.95666666666666</ele><time>2025-02-09T00:30:43Z</time></trkpt><trkpt lat="34.1665977" lon="133.0567777"><ele>102.06</ele><time>2025-02-09T00:31:00Z</time></trkpt><trkpt lat="34.1665582" lon="133.0565626"><ele>110.34000000000002</ele><time>2025-02-09T00:31:15Z</time></trkpt><trkpt lat="34.1666627" lon="133.056365"><ele>117.66333333333334</ele><time>2025-02-09T00:31:30Z</time></trkpt><trkpt lat="34.1668077" lon="133.0562249"><ele>119.04666666666667</ele><time>2025-02-09T00:31:54Z</time></trkpt><trkpt lat="34.1668595" lon="133.0559783"><ele>116.17666666666668</ele><time>2025-02-09T00:32:09Z</time></trkpt><trkpt lat="34.1668211" lon="133.0557392"><ele>114.41000000000001</ele><time>2025-02-09T00:32:24Z</time></trkpt><trkpt lat="34.1667117" lon="133.0555306"><ele>118.12333333333333</ele><time>2025-02-09T00:32:39Z</time></trkpt><trkpt lat="34.166888" lon="133.0556598"><ele>119.96</ele><time>2025-02-09T00:33:50Z</time></trkpt><trkpt lat="34.1669641" lon="133.0558655"><ele>118.5</ele><time>2025-02-09T00:34:02Z</time></trkpt><trkpt lat="34.1671328" lon="133.05596"><ele>115.10666666666667</ele><time>2025-02-09T00:34:20Z</time></trkpt><trkpt lat="34.1670563" lon="133.0557337"><ele>116.27</ele><time>2025-02-09T00:34:39Z</time></trkpt><trkpt lat="34.1669527" lon="133.0555303"><ele>120.00666666666667</ele><time>2025-02-09T00:34:56Z</time></trkpt><trkpt lat="34.1670908" lon="133.0553701"><ele>124.86000000000001</ele><time>2025-02-09T00:35:13Z</time></trkpt><trkpt lat="34.1670284" lon="133.0551348"><ele>126.92333333333333</ele><time>2025-02-09T00:35:31Z</time></trkpt><trkpt lat="34.1669529" lon="133.0549268"><ele>128.12</ele><time>2025-02-09T00:35:49Z</time></trkpt><trkpt lat="34.1668688" lon="133.0547092"><ele>127.05</ele><time>2025-02-09T00:36:06Z</time></trkpt><trkpt lat="34.1668106" lon="133.054494"><ele>127.71</ele><time>2025-02-09T00:36:24Z</time></trkpt><trkpt lat="34.1668286" lon="133.0542598"><ele>133.35</ele><time>2025-02-09T00:36:55Z</time></trkpt><trkpt lat="34.1669181" lon="133.0540635"><ele>138.47</ele><time>2025-02-09T00:37:09Z</time></trkpt><trkpt lat="34.1669967" lon="133.0538237"><ele>140.97</ele><time>2025-02-09T00:37:28Z</time></trkpt><trkpt lat="34.166994" lon="133.0535879"><ele>140.85666666666668</ele><time>2025-02-09T00:37:45Z</time></trkpt><trkpt lat="34.1669783" lon="133.0533429"><ele>142.97333333333333</ele><time>2025-02-09T00:38:31Z</time></trkpt><trkpt lat="34.1669212" lon="133.0531323"><ele>149.16</ele><time>2025-02-09T00:38:43Z</time></trkpt><trkpt lat="34.1669201" lon="133.0528971"><ele>154.42</ele><time>2025-02-09T00:38:58Z</time></trkpt><trkpt lat="34.1669269" lon="133.0526378"><ele>156.31333333333336</ele><time>2025-02-09T00:39:31Z</time></trkpt><trkpt lat="34.1669619" lon="133.0524244"><ele>156.35333333333335</ele><time>2025-02-09T00:40:25Z</time></trkpt><trkpt lat="34.166968" lon="133.0521777"><ele>157.35333333333332</ele><time>2025-02-09T00:41:04Z</time></trkpt><trkpt lat="34.1668428" lon="133.0519812"><ele>160.0</ele><time>2025-02-09T00:41:26Z</time></trkpt><trkpt lat="34.1667118" lon="133.0517824"><ele>164.47333333333333</ele><time>2025-02-09T00:42:56Z</time></trkpt><trkpt lat="34.1668929" lon="133.0518169"><ele>166.2</ele><time>2025-02-09T00:43:41Z</time></trkpt><trkpt lat="34.1670666" lon="133.0517135"><ele>168.72666666666666</ele><time>2025-02-09T00:44:00Z</time></trkpt><trkpt lat="34.1669878" lon="133.0514835"><ele>169.5666666666667</ele><time>2025-02-09T00:44:51Z</time></trkpt><trkpt lat="34.1669562" lon="133.0512552"><ele>170.67666666666665</ele><time>2025-02-09T00:45:21Z</time></trkpt><trkpt lat="34.1668899" lon="133.0510424"><ele>171.79333333333332</ele><time>2025-02-09T00:47:26Z</time></trkpt><trkpt lat="34.1667009" lon="133.0509724"><ele>174.24333333333334</ele><time>2025-02-09T00:48:05Z</time></trkpt><trkpt lat="34.1665319" lon="133.0508814"><ele>179.34333333333333</ele><time>2025-02-09T00:48:54Z</time></trkpt><trkpt lat="34.1664133" lon="133.0506996"><ele>186.08</ele><time>2025-02-09T00:51:49Z</time></trkpt><trkpt lat="34.1662601" lon="133.050581"><ele>190.70333333333335</ele><time>2025-02-09T00:53:24Z</time></trkpt><trkpt lat="34.1660794" lon="133.0506602"><ele>196.25333333333333</ele><time>2025-02-09T00:54:01Z</time></trkpt><trkpt lat="34.1658917" lon="133.0506295"><ele>200.67</ele><time>2025-02-09T00:54:52Z</time></trkpt><trkpt lat="34.1657156" lon="133.0506901"><ele>207.97333333333333</ele><time>2025-02-09T00:56:10Z</time></trkpt><trkpt lat="34.1655158" lon="133.0507932"><ele>217.25666666666666</ele><time>2025-02-09T00:56:47Z</time></trkpt><trkpt lat="34.1653566" lon="133.0508958"><ele>230.82000000000002</ele><time>2025-02-09T00:58:20Z</time></trkpt><trkpt lat="34.1651869" lon="133.0509822"><ele>245.1</ele><time>2025-02-09T01:02:15Z</time></trkpt><trkpt lat="34.1650218" lon="133.0510964"><ele>255.16</ele><time>2025-02-09T01:02:47Z</time></trkpt><trkpt lat="34.1649131" lon="133.051273"><ele>258.29333333333335</ele><time>2025-02-09T01:03:55Z</time></trkpt><trkpt lat="34.1650116" lon="133.0510873"><ele>257.38</ele><time>2025-02-09T01:07:02Z</time></trkpt><trkpt lat="34.1651036" lon="133.0508841"><ele>256.45</ele><time>2025-02-09T01:07:54Z</time></trkpt><trkpt lat="34.1650502" lon="133.0506694"><ele>252.8466666666667</ele><time>2025-02-09T01:08:51Z</time></trkpt><trkpt lat="34.1649971" lon="133.050449"><ele>247.40333333333334</ele><time>2025-02-09T01:10:56Z</time></trkpt><trkpt lat="34.1649025" lon="133.050254"><ele>237.54333333333332</ele><time>2025-02-09T01:12:00Z</time></trkpt><trkpt lat="34.1648085" lon="133.0500543"><ele>231.41</ele><time>2025-02-09T01:13:44Z</time></trkpt><trkpt lat="34.1647316" lon="133.0498357"><ele>229.67999999999998</ele><time>2025-02-09T01:14:14Z</time></trkpt><trkpt lat="34.1646778" lon="133.0496256"><ele>233.17999999999998</ele><time>2025-02-09T01:15:41Z</time></trkpt><trkpt lat="34.1646642" lon="133.049404"><ele>237.49</ele><time>2025-02-09T01:16:15Z</time></trkpt><trkpt lat="34.1645569" lon="133.0492165"><ele>240.34</ele><time>2025-02-09T01:17:52Z</time></trkpt><trkpt lat="34.1644388" lon="133.0490148"><ele>242.36666666666667</ele><time>2025-02-09T01:18:27Z</time></trkpt><trkpt lat="34.1643348" lon="133.0488303"><ele>243.06333333333336</ele><time>2025-02-09T01:19:47Z</time></trkpt><trkpt lat="34.1643417" lon="133.0485729"><ele>244.6833333333333</ele><time>2025-02-09T01:20:14Z</time></trkpt><trkpt lat="34.164365" lon="133.0483364"><ele>249.1966666666667</ele><time>2025-02-09T01:20:50Z</time></trkpt><trkpt lat="34.1642185" lon="133.0482084"><ele>253.90666666666667</ele><time>2025-02-09T01:22:29Z</time></trkpt><trkpt lat="34.1641576" lon="133.0479858"><ele>257.39</ele><time>2025-02-09T01:24:17Z</time></trkpt><trkpt lat="34.1641457" lon="133.0477636"><ele>258.8666666666666</ele><time>2025-02-09T01:25:00Z</time></trkpt><trkpt lat="34.1640532" lon="133.047568"><ele>260.3866666666667</ele><time>2025-02-09T01:25:36Z</time></trkpt><trkpt lat="34.1641375" lon="133.0479151"><ele>261.0333333333333</ele><time>2025-02-09T01:39:42Z</time></trkpt><trkpt lat="34.1641737" lon="133.04813"><ele>259.5</ele><time>2025-02-09T01:40:55Z</time></trkpt><trkpt lat="34.1642552" lon="133.048328"><ele>257.39000000000004</ele><time>2025-02-09T01:42:49Z</time></trkpt><trkpt lat="34.1642881" lon="133.0485448"><ele>252.74</ele><time>2025-02-09T01:43:52Z</time></trkpt><trkpt lat="34.1642484" lon="133.0487693"><ele>247.08666666666667</ele><time>2025-02-09T01:44:22Z</time></trkpt><trkpt lat="34.1643227" lon="133.0489715"><ele>242.85000000000002</ele><time>2025-02-09T01:44:52Z</time></trkpt><trkpt lat="34.1644672" lon="133.0491092"><ele>242.07333333333335</ele><time>2025-02-09T01:45:53Z</time></trkpt><trkpt lat="34.1645614" lon="133.0492983"><ele>242.45333333333335</ele><time>2025-02-09T01:46:28Z</time></trkpt><trkpt lat="34.1646355" lon="133.0495125"><ele>240.92333333333332</ele><time>2025-02-09T01:46:58Z</time></trkpt><trkpt lat="34.1646715" lon="133.0497382"><ele>238.03666666666666</ele><time>2025-02-09T01:47:52Z</time></trkpt><trkpt lat="34.1647771" lon="133.0499356"><ele>234.17666666666665</ele><time>2025-02-09T01:48:22Z</time></trkpt><trkpt lat="34.1648447" lon="133.0501491"><ele>229.76</ele><time>2025-02-09T01:50:09Z</time></trkpt><trkpt lat="34.1650372" lon="133.0502447"><ele>227.49</ele><time>2025-02-09T01:50:30Z</time></trkpt><trkpt lat="34.1652369" lon="133.05031"><ele>225.67</ele><time>2025-02-09T01:50:53Z</time></trkpt><trkpt lat="34.1653972" lon="133.0504333"><ele>224.51333333333332</ele><time>2025-02-09T01:51:08Z</time></trkpt><trkpt lat="34.1655755" lon="133.050544"><ele>221.9333333333333</ele><time>2025-02-09T01:52:26Z</time></trkpt><trkpt lat="34.16576" lon="133.0505794"><ele>216.58666666666667</ele><time>2025-02-09T01:52:41Z</time></trkpt><trkpt lat="34.1658969" lon="133.0507251"><ele>212.83333333333334</ele><time>2025-02-09T01:52:59Z</time></trkpt><trkpt lat="34.1661004" lon="133.050775"><ele>207.32000000000002</ele><time>2025-02-09T01:53:26Z</time></trkpt><trkpt lat="34.1662008" lon="133.0509869"><ele>203.1</ele><time>2025-02-09T01:55:15Z</time></trkpt><trkpt lat="34.1663963" lon="133.0510469"><ele>195.33666666666667</ele><time>2025-02-09T01:56:40Z</time></trkpt><trkpt lat="34.1665559" lon="133.0512078"><ele>187.9333333333333</ele><time>2025-02-09T01:56:58Z</time></trkpt><trkpt lat="34.1667209" lon="133.051359"><ele>181.37333333333333</ele><time>2025-02-09T01:58:27Z</time></trkpt><trkpt lat="34.1668222" lon="133.0515388"><ele>176.63666666666666</ele><time>2025-02-09T01:59:33Z</time></trkpt><trkpt lat="34.1669456" lon="133.0517136"><ele>173.20666666666668</ele><time>2025-02-09T02:00:54Z</time></trkpt><trkpt lat="34.1669235" lon="133.0519333"><ele>169.14666666666665</ele><time>2025-02-09T02:01:33Z</time></trkpt><trkpt lat="34.1668851" lon="133.0521482"><ele>165.04</ele><time>2025-02-09T02:01:51Z</time></trkpt><trkpt lat="34.1668999" lon="133.0523722"><ele>160.36666666666667</ele><time>2025-02-09T02:02:16Z</time></trkpt><trkpt lat="34.1668746" lon="133.0526229"><ele>157.38666666666668</ele><time>2025-02-09T02:02:37Z</time></trkpt><trkpt lat="34.1668799" lon="133.0528573"><ele>156.65333333333334</ele><time>2025-02-09T02:02:54Z</time></trkpt><trkpt lat="34.1668884" lon="133.0531219"><ele>156.31333333333336</ele><time>2025-02-09T02:03:12Z</time></trkpt><trkpt lat="34.1668916" lon="133.0533757"><ele>154.96</ele><time>2025-02-09T02:03:27Z</time></trkpt><trkpt lat="34.1669336" lon="133.0536113"><ele>149.70000000000002</ele><time>2025-02-09T02:03:42Z</time></trkpt><trkpt lat="34.1669193" lon="133.053863"><ele>144.35333333333332</ele><time>2025-02-09T02:04:01Z</time></trkpt><trkpt lat="34.1668995" lon="133.0540871"><ele>141.69666666666666</ele><time>2025-02-09T02:04:15Z</time></trkpt><trkpt lat="34.1668602" lon="133.0543038"><ele>141.81</ele><time>2025-02-09T02:04:31Z</time></trkpt><trkpt lat="34.1668476" lon="133.0545561"><ele>138.47</ele><time>2025-02-09T02:04:48Z</time></trkpt><trkpt lat="34.1668186" lon="133.0548086"><ele>134.15333333333334</ele><time>2025-02-09T02:05:03Z</time></trkpt><trkpt lat="34.1668794" lon="133.0550529"><ele>128.13333333333333</ele><time>2025-02-09T02:05:18Z</time></trkpt><trkpt lat="34.1669453" lon="133.0552634"><ele>125.76666666666667</ele><time>2025-02-09T02:05:33Z</time></trkpt><trkpt lat="34.1669949" lon="133.0555026"><ele>123.38666666666666</ele><time>2025-02-09T02:05:51Z</time></trkpt><trkpt lat="34.1669704" lon="133.0557237"><ele>121.29333333333334</ele><time>2025-02-09T02:06:06Z</time></trkpt><trkpt lat="34.1670496" lon="133.0559251"><ele>118.37666666666667</ele><time>2025-02-09T02:06:22Z</time></trkpt><trkpt lat="34.1668949" lon="133.0558113"><ele>115.12</ele><time>2025-02-09T02:06:46Z</time></trkpt><trkpt lat="34.1668221" lon="133.0555797"><ele>115.42666666666666</ele><time>2025-02-09T02:07:01Z</time></trkpt><trkpt lat="34.1666533" lon="133.0557042"><ele>117.19333333333333</ele><time>2025-02-09T02:07:31Z</time></trkpt><trkpt lat="34.1666815" lon="133.0559412"><ele>119.58999999999999</ele><time>2025-02-09T02:07:45Z</time></trkpt><trkpt lat="34.1667176" lon="133.0561555"><ele>120.75999999999999</ele><time>2025-02-09T02:08:01Z</time></trkpt><trkpt lat="34.1666285" lon="133.0563939"><ele>122.21666666666668</ele><time>2025-02-09T02:08:18Z</time></trkpt><trkpt lat="34.1665586" lon="133.0566181"><ele>122.62</ele><time>2025-02-09T02:08:33Z</time></trkpt><trkpt lat="34.1665808" lon="133.0568719"><ele>116.99333333333334</ele><time>2025-02-09T02:08:51Z</time></trkpt><trkpt lat="34.166528" lon="133.0570893"><ele>108.83666666666666</ele><time>2025-02-09T02:09:03Z</time></trkpt><trkpt lat="34.1664911" lon="133.0573126"><ele>102.73000000000002</ele><time>2025-02-09T02:09:15Z</time></trkpt><trkpt lat="34.1663682" lon="133.0575088"><ele>103.26333333333334</ele><time>2025-02-09T02:09:31Z</time></trkpt><trkpt lat="34.166211" lon="133.0576425"><ele>108.04</ele><time>2025-02-09T02:09:48Z</time></trkpt><trkpt lat="34.1661491" lon="133.0578489"><ele>108.64666666666666</ele><time>2025-02-09T02:10:25Z</time></trkpt><trkpt lat="34.1660151" lon="133.0579974"><ele>105.12666666666667</ele><time>2025-02-09T02:11:17Z</time></trkpt><trkpt lat="34.1659023" lon="133.0582195"><ele>96.31</ele><time>2025-02-09T02:11:32Z</time></trkpt><trkpt lat="34.1657694" lon="133.0584104"><ele>90.33</ele><time>2025-02-09T02:11:46Z</time></trkpt><trkpt lat="34.1656476" lon="133.0585717"><ele>89.25666666666666</ele><time>2025-02-09T02:12:02Z</time></trkpt><trkpt lat="34.1655013" lon="133.0587351"><ele>92.06333333333333</ele><time>2025-02-09T02:12:16Z</time></trkpt><trkpt lat="34.1653929" lon="133.0589087"><ele>94.97333333333334</ele><time>2025-02-09T02:12:31Z</time></trkpt><trkpt lat="34.165306" lon="133.0591101"><ele>96.35000000000001</ele><time>2025-02-09T02:12:46Z</time></trkpt><trkpt lat="34.1651146" lon="133.0592266"><ele>96.15333333333335</ele><time>2025-02-09T02:13:04Z</time></trkpt></trkseg></trk></gpx>