<?xml version='1.0' encoding='UTF-8'?><gpx creator="Yama Museum Peak Annotator" xsi:schemaLocation="http://www.topografix.com/GPX/1/1 http://www.topografix.com/GPX/1/1/gpx.xsd" version="1.1" xmlns="http://www.topografix.com/GPX/1/1" xmlns:xsi="http://www.w3.org/2001/XMLSchema-instance"><metadata><bounds maxlat="34.0767036" maxlon="132.9252963" minlat="34.074456" minlon="132.9221854"/></metadata>  <wpt lat="34.0752611" lon="132.9233053">
    <ele>50.49</ele>
    <name>花木山</name>
    <desc>Peak detected at 50m (prominence: 41m)</desc>
    <sym>Summit</sym>
  </wpt>
<trk><name>花木山</name><number>1</number><trkseg><trkpt lat="34.0763245" lon="132.9242123"><ele>7.72</ele><time>2022-02-28T04:13:00Z</time></trkpt><trkpt lat="34.0762593" lon="132.9244539"><ele>7.595</ele><time>2022-02-28T04:13:26Z</time></trkpt><trkpt lat="34.0762359" lon="132.924672"><ele>7.37</ele><time>2022-02-28T04:13:51Z</time></trkpt><trkpt lat="34.0761661" lon="132.9248789"><ele>7.046666666666667</ele><time>2022-02-28T04:14:05Z</time></trkpt><trkpt lat="34.0760543" lon="132.9250558"><ele>7.05</ele><time>2022-02-28T04:14:18Z</time></trkpt><trkpt lat="34.0758706" lon="132.925106"><ele>7.516666666666667</ele><time>2022-02-28T04:14:47Z</time></trkpt><trkpt lat="34.0756883" lon="132.9251169"><ele>8.276666666666666</ele><time>2022-02-28T04:15:14Z</time></trkpt><trkpt lat="34.0755797" lon="132.9252963"><ele>8.853333333333333</ele><time>2022-02-28T04:15:28Z</time></trkpt><trkpt lat="34.0754028" lon="132.9252498"><ele>9.783333333333333</ele><time>2022-02-28T04:15:55Z</time></trkpt><trkpt lat="34.0752474" lon="132.925125"><ele>14.006666666666666</ele><time>2022-02-28T04:16:07Z</time></trkpt><trkpt lat="34.0751553" lon="132.9249232"><ele>19.97666666666667</ele><time>2022-02-28T04:16:19Z</time></trkpt><trkpt lat="34.0751376" lon="132.9246996"><ele>28.083333333333332</ele><time>2022-02-28T04:16:32Z</time></trkpt><trkpt lat="34.0750857" lon="132.9244863"><ele>33.42333333333333</ele><time>2022-02-28T04:16:44Z</time></trkpt><trkpt lat="34.0749606" lon="132.9243056"><ele>35.29</ele><time>2022-02-28T04:16:59Z</time></trkpt><trkpt lat="34.0748499" lon="132.9241315"><ele>34.63666666666666</ele><time>2022-02-28T04:17:21Z</time></trkpt><trkpt lat="34.0748026" lon="132.9239183"><ele>35.51</ele><time>2022-02-28T04:18:03Z</time></trkpt><trkpt lat="34.0746205" lon="132.9238717"><ele>39.20333333333334</ele><time>2022-02-28T04:18:28Z</time></trkpt><trkpt lat="34.074456" lon="132.9239756"><ele>42.52666666666667</ele><time>2022-02-28T04:19:46Z</time></trkpt><trkpt lat="34.0744837" lon="132.923761"><ele>43.13333333333333</ele><time>2022-02-28T04:20:58Z</time></trkpt><trkpt lat="34.0745458" lon="132.9235515"><ele>42.38666666666666</ele><time>2022-02-28T04:21:34Z</time></trkpt><trkpt lat="34.0746338" lon="132.9233602"><ele>43.1</ele><time>2022-02-28T04:22:23Z</time></trkpt><trkpt lat="34.0748079" lon="132.9232992"><ele>45.26</ele><time>2022-02-28T04:24:55Z</time></trkpt><trkpt lat="34.074987" lon="132.9233246"><ele>48.13666666666666</ele><time>2022-02-28T04:26:43Z</time></trkpt><trkpt lat="34.0751254" lon="132.9234648"><ele>50.21333333333333</ele><time>2022-02-28T04:27:55Z</time></trkpt><trkpt lat="34.0752611" lon="132.9233053"><ele>50.49</ele><time>2022-02-28T04:35:07Z</time></trkpt><trkpt lat="34.0754089" lon="132.923167"><ele>48.71333333333333</ele><time>2022-02-28T04:35:21Z</time></trkpt><trkpt lat="34.0755885" lon="132.9232127"><ele>45.85</ele><time>2022-02-28T04:36:17Z</time></trkpt><trkpt lat="34.0757656" lon="132.9231543"><ele>42.82</ele><time>2022-02-28T04:36:52Z</time></trkpt><trkpt lat="34.0757083" lon="132.9229469"><ele>40.10666666666666</ele><time>2022-02-28T04:37:55Z</time></trkpt><trkpt lat="34.0757805" lon="132.9227476"><ele>36.25333333333333</ele><time>2022-02-28T04:38:34Z</time></trkpt><trkpt lat="34.0758888" lon="132.9225706"><ele>31.049999999999997</ele><time>2022-02-28T04:39:52Z</time></trkpt><trkpt lat="34.0759031" lon="132.9223544"><ele>22.91333333333333</ele><time>2022-02-28T04:41:22Z</time></trkpt><trkpt lat="34.0760241" lon="132.9221854"><ele>14.089999999999998</ele><time>2022-02-28T04:43:05Z</time></trkpt><trkpt lat="34.0761881" lon="132.9222795"><ele>7.636666666666667</ele><time>2022-02-28T04:43:15Z</time></trkpt><trkpt lat="34.0763511" lon="132.9223758"><ele>5.260000000000001</ele><time>2022-02-28T04:43:27Z</time></trkpt><trkpt lat="34.0765063" lon="132.9224934"><ele>5.7</ele><time>2022-02-28T04:43:42Z</time></trkpt><trkpt lat="34.0767036" lon="132.9224967"><ele>5.423333333333333</ele><time>2022-02-28T04:43:57Z</time></trkpt><trkpt lat="34.0766705" lon="132.9227198"><ele>5.733333333333333</ele><time>2022-02-28T04:44:19Z</time></trkpt><trkpt lat="34.0766778" lon="132.9229395"><ele>6.046666666666667</ele><time>2022-02-28T04:44:34Z</time></trkpt><trkpt lat="34.0766979" lon="132.9231634"><ele>6.926666666666667</ele><time>2022-02-28T04:44:48Z</time></trkpt><trkpt lat="34.0765597" lon="132.923309"><ele>7.666666666666667</ele><time>2022-02-28T04:45:02Z</time></trkpt><trkpt lat="34.0764889" lon="132.9235205"><ele>7.516666666666667</ele><time>2022-02-28T04:45:17Z</time></trkpt><trkpt lat="34.0764711" lon="132.9237379"><ele>7.59</ele><time>2022-02-28T04:45:32Z</time></trkpt><trkpt lat="34.0764253" lon="132.9239502"><ele>7.580000000000001</ele><time>2022-02-28T04:45:49Z</time></trkpt><trkpt lat="34.0763086" lon="132.9241315"><ele>7.673333333333335</ele><time>2022-02-28T04:46:05Z</time></trkpt></trkseg></trk></gpx>