<?xml version='1.0' encoding='UTF-8'?><gpx creator="Yama Museum Peak Annotator" xsi:schemaLocation="http://www.topografix.com/GPX/1/1 http://www.topografix.com/GPX/1/1/gpx.xsd" version="1.1" xmlns="http://www.topografix.com/GPX/1/1" xmlns:xsi="http://www.w3.org/2001/XMLSchema-instance"><metadata><bounds maxlat="33.8952196" maxlon="133.0455824" minlat="33.8915355" minlon="133.0388917"/></metadata>  <wpt lat="33.8924606" lon="133.0391092">
    <ele>211.39459610568747</ele>
    <name>愛ノ山</name>
    <desc>Peak detected at 211m (prominence: 160m)</desc>
    <sym>Summit</sym>
  </wpt>
<trk><name>愛ノ山</name><number>1</number><trkseg><trkpt lat="33.8922582" lon="133.0453836"><ele>42.02097664868343</ele><time>2022-10-21T03:15:00Z</time></trkpt><trkpt lat="33.8923477" lon="133.0451949"><ele>42.02092839536925</ele><time>2022-10-21T03:15:12Z</time></trkpt><trkpt lat="33.8924132" lon="133.0449916"><ele>42.02090313909805</ele><time>2022-10-21T03:15:28Z</time></trkpt><trkpt lat="33.8925061" lon="133.044796"><ele>42.02082866690381</ele><time>2022-10-21T03:15:43Z</time></trkpt><trkpt lat="33.8926572" lon="133.0446736"><ele>42.02068977789569</ele><time>2022-10-21T03:15:58Z</time></trkpt><trkpt lat="33.8928094" lon="133.0445573"><ele>42.02046140527539</ele><time>2022-10-21T03:16:12Z</time></trkpt><trkpt lat="33.8929871" lon="133.0445108"><ele>42.020131408580745</ele><time>2022-10-21T03:16:33Z</time></trkpt><trkpt lat="33.8931735" lon="133.0445212"><ele>42.01974356478406</ele><time>2022-10-21T03:16:54Z</time></trkpt><trkpt lat="33.8933549" lon="133.0445204"><ele>41.38992937323002</ele><time>2022-10-21T03:17:39Z</time></trkpt><trkpt lat="33.8935347" lon="133.0445398"><ele>41.38947598144849</ele><time>2022-10-21T03:18:26Z</time></trkpt><trkpt lat="33.8937184" lon="133.0446217"><ele>41.3890086524674</ele><time>2022-10-21T03:18:37Z</time></trkpt><trkpt lat="33.8938643" lon="133.0447586"><ele>42.017916283470875</ele><time>2022-10-21T03:18:50Z</time></trkpt><trkpt lat="33.894045" lon="133.0448374"><ele>42.01743233841771</ele><time>2022-10-21T03:19:01Z</time></trkpt><trkpt lat="33.8942088" lon="133.0447447"><ele>42.79859949889095</ele><time>2022-10-21T03:19:15Z</time></trkpt><trkpt lat="33.8944006" lon="133.0447281"><ele>42.79816816327917</ele><time>2022-10-21T03:19:31Z</time></trkpt><trkpt lat="33.894584" lon="133.0446863"><ele>42.797762076832036</ele><time>2022-10-21T03:19:45Z</time></trkpt><trkpt lat="33.8947411" lon="133.0445387"><ele>42.01577884189404</ele><time>2022-10-21T03:20:02Z</time></trkpt><trkpt lat="33.8948561" lon="133.0443616"><ele>43.1152454751198</ele><time>2022-10-21T03:20:16Z</time></trkpt><trkpt lat="33.8949002" lon="133.0441481"><ele>44.55016986553343</ele><time>2022-10-21T03:20:28Z</time></trkpt><trkpt lat="33.8949363" lon="133.0439347"><ele>45.26071180290617</ele><time>2022-10-21T03:20:42Z</time></trkpt><trkpt lat="33.8950204" lon="133.0437422"><ele>43.52020820357695</ele><time>2022-10-21T03:21:18Z</time></trkpt><trkpt lat="33.8950193" lon="133.0435056"><ele>44.41376164444665</ele><time>2022-10-21T03:21:32Z</time></trkpt><trkpt lat="33.8950117" lon="133.0432815"><ele>46.52124216868551</ele><time>2022-10-21T03:21:48Z</time></trkpt><trkpt lat="33.8950311" lon="133.0430633"><ele>50.282315479535264</ele><time>2022-10-21T03:22:09Z</time></trkpt><trkpt lat="33.8950791" lon="133.0428505"><ele>51.621847164127054</ele><time>2022-10-21T03:22:36Z</time></trkpt><trkpt lat="33.8950934" lon="133.0426252"><ele>52.71563085741811</ele><time>2022-10-21T03:23:08Z</time></trkpt><trkpt lat="33.8951099" lon="133.0424089"><ele>53.380124160822696</ele><time>2022-10-21T03:23:23Z</time></trkpt><trkpt lat="33.8950831" lon="133.042189"><ele>54.344040134282864</ele><time>2022-10-21T03:23:39Z</time></trkpt><trkpt lat="33.8949933" lon="133.0419873"><ele>54.86131710890896</ele><time>2022-10-21T03:23:54Z</time></trkpt><trkpt lat="33.8948441" lon="133.0418511"><ele>57.03511435094731</ele><time>2022-10-21T03:24:15Z</time></trkpt><trkpt lat="33.8947864" lon="133.0420576"><ele>59.845218976770354</ele><time>2022-10-21T03:24:51Z</time></trkpt><trkpt lat="33.8947737" lon="133.042277"><ele>64.62055510145588</ele><time>2022-10-21T03:25:06Z</time></trkpt><trkpt lat="33.8947217" lon="133.0424894"><ele>68.08814569330677</ele><time>2022-10-21T03:25:26Z</time></trkpt><trkpt lat="33.8947309" lon="133.0427077"><ele>71.58312535929674</ele><time>2022-10-21T03:26:04Z</time></trkpt><trkpt lat="33.8946807" lon="133.0429167"><ele>73.5133405805855</ele><time>2022-10-21T03:26:20Z</time></trkpt><trkpt lat="33.8946408" lon="133.0431311"><ele>76.30691933803938</ele><time>2022-10-21T03:26:32Z</time></trkpt><trkpt lat="33.8945385" lon="133.0433094"><ele>77.80580232387098</ele><time>2022-10-21T03:26:44Z</time></trkpt><trkpt lat="33.8945043" lon="133.0435314"><ele>79.14325535730835</ele><time>2022-10-21T03:27:01Z</time></trkpt><trkpt lat="33.8944165" lon="133.0437232"><ele>80.63395683949014</ele><time>2022-10-21T03:27:24Z</time></trkpt><trkpt lat="33.8942363" lon="133.0437586"><ele>82.94557604350281</ele><time>2022-10-21T03:27:36Z</time></trkpt><trkpt lat="33.8940699" lon="133.0436644"><ele>84.45313059586015</ele><time>2022-10-21T03:27:54Z</time></trkpt><trkpt lat="33.8939432" lon="133.0435016"><ele>86.2840371907419</ele><time>2022-10-21T03:28:09Z</time></trkpt><trkpt lat="33.8938472" lon="133.0433135"><ele>88.21688329062941</ele><time>2022-10-21T03:28:25Z</time></trkpt><trkpt lat="33.8937593" lon="133.0431197"><ele>90.14337331052722</ele><time>2022-10-21T03:28:39Z</time></trkpt><trkpt lat="33.8936404" lon="133.0429551"><ele>91.76540460074148</ele><time>2022-10-21T03:28:57Z</time></trkpt><trkpt lat="33.8935035" lon="133.0428129"><ele>93.10302082222184</ele><time>2022-10-21T03:29:10Z</time></trkpt><trkpt lat="33.8933507" lon="133.0426863"><ele>96.82492455675354</ele><time>2022-10-21T03:29:26Z</time></trkpt><trkpt lat="33.8931631" lon="133.0427066"><ele>100.51745797204093</ele><time>2022-10-21T03:29:45Z</time></trkpt><trkpt lat="33.8930668" lon="133.0428915"><ele>102.22488610075197</ele><time>2022-10-21T03:29:56Z</time></trkpt><trkpt lat="33.8928875" lon="133.0428667"><ele>103.87393821360256</ele><time>2022-10-21T03:30:15Z</time></trkpt><trkpt lat="33.8929208" lon="133.0426525"><ele>105.24666599815492</ele><time>2022-10-21T03:30:31Z</time></trkpt><trkpt lat="33.8929772" lon="133.0424428"><ele>108.71669390640939</ele><time>2022-10-21T03:30:47Z</time></trkpt><trkpt lat="33.8930486" lon="133.0422229"><ele>111.36556693899138</ele><time>2022-10-21T03:31:01Z</time></trkpt><trkpt lat="33.8932304" lon="133.0422446"><ele>113.1186774658387</ele><time>2022-10-21T03:31:15Z</time></trkpt><trkpt lat="33.8932981" lon="133.042034"><ele>120.17283431510548</ele><time>2022-10-21T03:31:29Z</time></trkpt><trkpt lat="33.8931462" lon="133.0419033"><ele>122.0394695474044</ele><time>2022-10-21T03:31:46Z</time></trkpt><trkpt lat="33.8930346" lon="133.0417184"><ele>123.91500741234802</ele><time>2022-10-21T03:32:15Z</time></trkpt><trkpt lat="33.8928375" lon="133.0416957"><ele>122.2719827789302</ele><time>2022-10-21T03:33:01Z</time></trkpt><trkpt lat="33.8926664" lon="133.0416124"><ele>125.17478325310186</ele><time>2022-10-21T03:33:13Z</time></trkpt><trkpt lat="33.8925069" lon="133.041506"><ele>129.52389610945346</ele><time>2022-10-21T03:33:25Z</time></trkpt><trkpt lat="33.8923317" lon="133.0414313"><ele>132.3802339828189</ele><time>2022-10-21T03:33:40Z</time></trkpt><trkpt lat="33.8921534" lon="133.0414978"><ele>134.49252501346916</ele><time>2022-10-21T03:33:57Z</time></trkpt><trkpt lat="33.8919979" lon="133.0416169"><ele>135.13522955999676</ele><time>2022-10-21T03:34:14Z</time></trkpt><trkpt lat="33.8918045" lon="133.0416343"><ele>134.7747006362251</ele><time>2022-10-21T03:34:31Z</time></trkpt><trkpt lat="33.8916645" lon="133.0414843"><ele>136.41801573758548</ele><time>2022-10-21T03:34:45Z</time></trkpt><trkpt lat="33.8916379" lon="133.0412696"><ele>138.3268703022154</ele><time>2022-10-21T03:35:00Z</time></trkpt><trkpt lat="33.8915355" lon="133.0410833"><ele>141.03141183621153</ele><time>2022-10-21T03:35:19Z</time></trkpt><trkpt lat="33.8915953" lon="133.0408767"><ele>142.96286612276455</ele><time>2022-10-21T03:35:50Z</time></trkpt><trkpt lat="33.8917704" lon="133.0408135"><ele>146.4187590305187</ele><time>2022-10-21T03:36:47Z</time></trkpt><trkpt lat="33.8919153" lon="133.0406824"><ele>149.59830240777367</ele><time>2022-10-21T03:36:58Z</time></trkpt><trkpt lat="33.8920551" lon="133.0405436"><ele>153.30024231575885</ele><time>2022-10-21T03:37:14Z</time></trkpt><trkpt lat="33.8922191" lon="133.0404505"><ele>160.3066864993613</ele><time>2022-10-21T03:38:23Z</time></trkpt><trkpt lat="33.8923981" lon="133.0404127"><ele>170.1979089397923</ele><time>2022-10-21T03:38:50Z</time></trkpt><trkpt lat="33.8925785" lon="133.04039"><ele>180.2032789691515</ele><time>2022-10-21T03:39:40Z</time></trkpt><trkpt lat="33.8927202" lon="133.0402535"><ele>187.96186629104716</ele><time>2022-10-21T03:40:04Z</time></trkpt><trkpt lat="33.892815" lon="133.040065"><ele>193.98748725345885</ele><time>2022-10-21T03:40:53Z</time></trkpt><trkpt lat="33.8926675" lon="133.0399307"><ele>196.79596241101945</ele><time>2022-10-21T03:41:08Z</time></trkpt><trkpt lat="33.8925726" lon="133.0397422"><ele>199.17114895747224</ele><time>2022-10-21T03:41:22Z</time></trkpt><trkpt lat="33.8924907" lon="133.039545"><ele>199.23748932482658</ele><time>2022-10-21T03:42:00Z</time></trkpt><trkpt lat="33.8924811" lon="133.0393264"><ele>204.0356565690332</ele><time>2022-10-21T03:43:34Z</time></trkpt><trkpt lat="33.892497" lon="133.0391105"><ele>207.12839046791888</ele><time>2022-10-21T03:44:10Z</time></trkpt><trkpt lat="33.8924998" lon="133.0388917"><ele>210.7264562567531</ele><time>2022-10-21T03:45:28Z</time></trkpt><trkpt lat="33.8924606" lon="133.0391092"><ele>211.39459610568747</ele><time>2022-10-21T03:59:05Z</time></trkpt><trkpt lat="33.8924681" lon="133.0393334"><ele>209.4377748339867</ele><time>2022-10-21T03:59:19Z</time></trkpt><trkpt lat="33.8925379" lon="133.0395515"><ele>208.07062175478464</ele><time>2022-10-21T03:59:35Z</time></trkpt><trkpt lat="33.8925825" lon="133.0397648"><ele>205.43315604875565</ele><time>2022-10-21T04:00:02Z</time></trkpt><trkpt lat="33.8927006" lon="133.0399368"><ele>204.529627320602</ele><time>2022-10-21T04:00:15Z</time></trkpt><trkpt lat="33.8928035" lon="133.0401228"><ele>202.91815985791482</ele><time>2022-10-21T04:00:33Z</time></trkpt><trkpt lat="33.892716" lon="133.0403185"><ele>200.6127460490023</ele><time>2022-10-21T04:01:34Z</time></trkpt><trkpt lat="33.8925965" lon="133.0404838"><ele>195.05265130569316</ele><time>2022-10-21T04:02:14Z</time></trkpt><trkpt lat="33.8924054" lon="133.0404893"><ele>188.29470481866872</ele><time>2022-10-21T04:02:21Z</time></trkpt><trkpt lat="33.8922177" lon="133.0404593"><ele>182.08293423883393</ele><time>2022-10-21T04:02:32Z</time></trkpt><trkpt lat="33.8920815" lon="133.0406157"><ele>176.80819374846376</ele><time>2022-10-21T04:03:04Z</time></trkpt><trkpt lat="33.8919064" lon="133.0406748"><ele>170.84205958628795</ele><time>2022-10-21T04:03:22Z</time></trkpt><trkpt lat="33.891736" lon="133.0407498"><ele>165.2748154477956</ele><time>2022-10-21T04:03:43Z</time></trkpt><trkpt lat="33.8917064" lon="133.0409684"><ele>161.08822549036387</ele><time>2022-10-21T04:04:20Z</time></trkpt><trkpt lat="33.8916521" lon="133.0411785"><ele>157.47406067515172</ele><time>2022-10-21T04:04:34Z</time></trkpt><trkpt lat="33.8916754" lon="133.0413998"><ele>154.06849404553972</ele><time>2022-10-21T04:04:51Z</time></trkpt><trkpt lat="33.8917362" lon="133.041609"><ele>150.7885903869474</ele><time>2022-10-21T04:05:09Z</time></trkpt><trkpt lat="33.8919212" lon="133.0416218"><ele>148.49728525487947</ele><time>2022-10-21T04:05:22Z</time></trkpt><trkpt lat="33.8920822" lon="133.0415236"><ele>147.10576008237868</ele><time>2022-10-21T04:05:37Z</time></trkpt><trkpt lat="33.8921725" lon="133.0413344"><ele>144.92982756553215</ele><time>2022-10-21T04:05:51Z</time></trkpt><trkpt lat="33.8923604" lon="133.0414112"><ele>143.0786469262064</ele><time>2022-10-21T04:06:12Z</time></trkpt><trkpt lat="33.8925182" lon="133.0415269"><ele>140.311707945016</ele><time>2022-10-21T04:06:22Z</time></trkpt><trkpt lat="33.8926916" lon="133.0415975"><ele>139.17781340037283</ele><time>2022-10-21T04:06:34Z</time></trkpt><trkpt lat="33.8928732" lon="133.0416174"><ele>137.00657542983814</ele><time>2022-10-21T04:06:45Z</time></trkpt><trkpt lat="33.8930576" lon="133.041655"><ele>135.19932175472715</ele><time>2022-10-21T04:06:57Z</time></trkpt><trkpt lat="33.8931593" lon="133.0418403"><ele>131.64599789095368</ele><time>2022-10-21T04:07:12Z</time></trkpt><trkpt lat="33.8931746" lon="133.0420601"><ele>129.7413156036389</ele><time>2022-10-21T04:07:25Z</time></trkpt><trkpt lat="33.8930601" lon="133.0422319"><ele>127.71394726499523</ele><time>2022-10-21T04:07:37Z</time></trkpt><trkpt lat="33.8929947" lon="133.0424346"><ele>125.73725259105795</ele><time>2022-10-21T04:07:51Z</time></trkpt><trkpt lat="33.8929392" lon="133.0426427"><ele>122.20587100407408</ele><time>2022-10-21T04:08:05Z</time></trkpt><trkpt lat="33.8929294" lon="133.0428596"><ele>118.7385596192152</ele><time>2022-10-21T04:08:19Z</time></trkpt><trkpt lat="33.8931108" lon="133.0428296"><ele>116.56143900374707</ele><time>2022-10-21T04:08:33Z</time></trkpt><trkpt lat="33.8932338" lon="133.0426466"><ele>113.495198980734</ele><time>2022-10-21T04:08:48Z</time></trkpt><trkpt lat="33.8934125" lon="133.0426801"><ele>111.0063086824174</ele><time>2022-10-21T04:09:04Z</time></trkpt><trkpt lat="33.8935879" lon="133.042789"><ele>107.69715965186252</ele><time>2022-10-21T04:09:18Z</time></trkpt><trkpt lat="33.8936887" lon="133.0429754"><ele>106.07983849402149</ele><time>2022-10-21T04:09:32Z</time></trkpt><trkpt lat="33.8937332" lon="133.043187"><ele>103.93896909987386</ele><time>2022-10-21T04:09:45Z</time></trkpt><trkpt lat="33.8938498" lon="133.0433526"><ele>102.96421812074544</ele><time>2022-10-21T04:09:59Z</time></trkpt><trkpt lat="33.8940099" lon="133.0434868"><ele>100.65840224395716</ele><time>2022-10-21T04:10:13Z</time></trkpt><trkpt lat="33.8941768" lon="133.0435821"><ele>97.86994855598395</ele><time>2022-10-21T04:10:28Z</time></trkpt><trkpt lat="33.8943098" lon="133.0437443"><ele>95.40418021662998</ele><time>2022-10-21T04:10:45Z</time></trkpt><trkpt lat="33.8944723" lon="133.0438426"><ele>93.90794067060479</ele><time>2022-10-21T04:11:00Z</time></trkpt><trkpt lat="33.8945269" lon="133.043633"><ele>93.15811639199654</ele><time>2022-10-21T04:11:14Z</time></trkpt><trkpt lat="33.8945007" lon="133.0434023"><ele>91.0953830759521</ele><time>2022-10-21T04:11:29Z</time></trkpt><trkpt lat="33.8945851" lon="133.0432065"><ele>89.43444906847901</ele><time>2022-10-21T04:11:43Z</time></trkpt><trkpt lat="33.894601" lon="133.0429677"><ele>88.13149131333599</ele><time>2022-10-21T04:11:59Z</time></trkpt><trkpt lat="33.8946695" lon="133.0427592"><ele>86.1809212517223</ele><time>2022-10-21T04:12:13Z</time></trkpt><trkpt lat="33.8946362" lon="133.0425444"><ele>84.3241458234257</ele><time>2022-10-21T04:12:29Z</time></trkpt><trkpt lat="33.8946575" lon="133.0423198"><ele>82.02589078684287</ele><time>2022-10-21T04:12:44Z</time></trkpt><trkpt lat="33.8946995" lon="133.0421047"><ele>80.32560785159264</ele><time>2022-10-21T04:12:58Z</time></trkpt><trkpt lat="33.8946613" lon="133.0418896"><ele>77.33406266718276</ele><time>2022-10-21T04:13:13Z</time></trkpt><trkpt lat="33.8948348" lon="133.0418228"><ele>74.12690148277645</ele><time>2022-10-21T04:13:29Z</time></trkpt><trkpt lat="33.8949453" lon="133.0420014"><ele>71.68431535614627</ele><time>2022-10-21T04:13:39Z</time></trkpt><trkpt lat="33.8950975" lon="133.0421292"><ele>69.10039806336543</ele><time>2022-10-21T04:13:54Z</time></trkpt><trkpt lat="33.895206" lon="133.0423021"><ele>65.54358809220157</ele><time>2022-10-21T04:14:05Z</time></trkpt><trkpt lat="33.8952196" lon="133.0425184"><ele>63.56191306957842</ele><time>2022-10-21T04:14:19Z</time></trkpt><trkpt lat="33.8951995" lon="133.0427408"><ele>62.403162983350306</ele><time>2022-10-21T04:14:32Z</time></trkpt><trkpt lat="33.8951586" lon="133.0429612"><ele>63.43126160805883</ele><time>2022-10-21T04:14:44Z</time></trkpt><trkpt lat="33.8950934" lon="133.043178"><ele>64.09253760694571</ele><time>2022-10-21T04:14:59Z</time></trkpt><trkpt lat="33.8950247" lon="133.0433902"><ele>63.71636659415346</ele><time>2022-10-21T04:15:14Z</time></trkpt><trkpt lat="33.895003" lon="133.0436108"><ele>62.00490273239931</ele><time>2022-10-21T04:15:30Z</time></trkpt><trkpt lat="33.895069" lon="133.0438221"><ele>58.607128304064446</ele><time>2022-10-21T04:15:43Z</time></trkpt><trkpt lat="33.8950932" lon="133.0440431"><ele>56.54768274908607</ele><time>2022-10-21T04:15:58Z</time></trkpt><trkpt lat="33.8950323" lon="133.0442469"><ele>55.558662326643486</ele><time>2022-10-21T04:16:11Z</time></trkpt><trkpt lat="33.8948575" lon="133.044385"><ele>54.58316953195348</ele><time>2022-10-21T04:16:22Z</time></trkpt><trkpt lat="33.8947374" lon="133.0445545"><ele>53.51504700405058</ele><time>2022-10-21T04:16:37Z</time></trkpt><trkpt lat="33.8946389" lon="133.0447402"><ele>52.4592457215327</ele><time>2022-10-21T04:16:51Z</time></trkpt><trkpt lat="33.8944555" lon="133.0446986"><ele>48.04627049655149</ele><time>2022-10-21T04:17:07Z</time></trkpt><trkpt lat="33.8942712" lon="133.0446892"><ele>47.49484908100798</ele><time>2022-10-21T04:17:20Z</time></trkpt><trkpt lat="33.8941052" lon="133.0447824"><ele>47.2329792602863</ele><time>2022-10-21T04:17:32Z</time></trkpt><trkpt lat="33.8939216" lon="133.0447778"><ele>51.62006044794359</ele><time>2022-10-21T04:17:44Z</time></trkpt><trkpt lat="33.8937483" lon="133.0448503"><ele>52.33730069691794</ele><time>2022-10-21T04:17:59Z</time></trkpt><trkpt lat="33.893702" lon="133.0446386"><ele>51.94945766102694</ele><time>2022-10-21T04:18:12Z</time></trkpt><trkpt lat="33.8935154" lon="133.0446163"><ele>54.35438202942159</ele><time>2022-10-21T04:18:28Z</time></trkpt><trkpt lat="33.8933309" lon="133.0446469"><ele>54.68972933718848</ele><time>2022-10-21T04:18:39Z</time></trkpt><trkpt lat="33.8931628" lon="133.0445446"><ele>55.872018811950284</ele><time>2022-10-21T04:18:53Z</time></trkpt><trkpt lat="33.8929824" lon="133.0445369"><ele>53.98265666484104</ele><time>2022-10-21T04:19:06Z</time></trkpt><trkpt lat="33.8928189" lon="133.0446332"><ele>53.5007309013907</ele><time>2022-10-21T04:19:24Z</time></trkpt><trkpt lat="33.8926767" lon="133.0447694"><ele>53.07095830192873</ele><time>2022-10-21T04:19:39Z</time></trkpt><trkpt lat="33.8925544" lon="133.0449363"><ele>52.176897238973446</ele><time>2022-10-21T04:19:53Z</time></trkpt><trkpt lat="33.8924612" lon="133.045128"><ele>51.657484804633974</ele><time>2022-10-21T04:20:10Z</time></trkpt><trkpt lat="33.892415" lon="133.0453441"><ele>50.61298755112997</ele><time>2022-10-21T04:20:22Z</time></trkpt><trkpt lat="33.8922979" lon="133.0455104"><ele>50.34694672397513</ele><time>2022-10-21T04:20:37Z</time></trkpt><trkpt lat="33.8921274" lon="133.0455824"><ele>47.922489405034526</ele><time>2022-10-21T04:26:59Z</time></trkpt></trkseg></trk></gpx>