<?xml version='1.0' encoding='UTF-8'?><gpx creator="Yama Museum Peak Annotator" xsi:schemaLocation="http://www.topografix.com/GPX/1/1 http://www.topografix.com/GPX/1/1/gpx.xsd" version="1.1" xmlns="http://www.topografix.com/GPX/1/1" xmlns:xsi="http://www.w3.org/2001/XMLSchema-instance"><metadata><bounds maxlat="33.4308544" maxlon="132.7107878" minlat="33.4256595" minlon="132.7057596"/></metadata>  <wpt lat="33.4256595" lon="132.7088906">
    <ele>459.07666666666665</ele>
    <name>竜王山</name>
    <desc>Peak detected at 459m (prominence: 176m)</desc>
    <sym>Summit</sym>
  </wpt>
<trk><name>竜王山</name><number>1</number><trkseg><trkpt lat="33.4308544" lon="132.7106541"><ele>271.27</ele><time>2025-03-29T22:01:15Z</time></trkpt><trkpt lat="33.430674" lon="132.7107128"><ele>271.135</ele><time>2025-03-29T22:02:47Z</time></trkpt><trkpt lat="33.4305002" lon="132.7107878"><ele>272.71666666666664</ele><time>2025-03-29T22:03:15Z</time></trkpt><trkpt lat="33.4303257" lon="132.7106458"><ele>274.27666666666664</ele><time>2025-03-29T22:03:42Z</time></trkpt><trkpt lat="33.4301403" lon="132.7105395"><ele>277.26</ele><time>2025-03-29T22:03:54Z</time></trkpt><trkpt lat="33.4299793" lon="132.7104287"><ele>279.52666666666664</ele><time>2025-03-29T22:04:06Z</time></trkpt><trkpt lat="33.4298133" lon="132.7102886"><ele>282.3666666666667</ele><time>2025-03-29T22:04:21Z</time></trkpt><trkpt lat="33.4296757" lon="132.7100981"><ele>284.7166666666667</ele><time>2025-03-29T22:04:36Z</time></trkpt><trkpt lat="33.4296447" lon="132.7098442"><ele>286.00666666666666</ele><time>2025-03-29T22:04:48Z</time></trkpt><trkpt lat="33.4295308" lon="132.7096581"><ele>287.11999999999995</ele><time>2025-03-29T22:05:07Z</time></trkpt><trkpt lat="33.4294338" lon="132.7094673"><ele>288.18666666666667</ele><time>2025-03-29T22:05:26Z</time></trkpt><trkpt lat="33.429287" lon="132.7093054"><ele>288.9633333333333</ele><time>2025-03-29T22:05:47Z</time></trkpt><trkpt lat="33.4290919" lon="132.709237"><ele>288.97999999999996</ele><time>2025-03-29T22:06:02Z</time></trkpt><trkpt lat="33.4290184" lon="132.7090164"><ele>289.45666666666665</ele><time>2025-03-29T22:06:18Z</time></trkpt><trkpt lat="33.429101" lon="132.7087703"><ele>291.8866666666667</ele><time>2025-03-29T22:06:29Z</time></trkpt><trkpt lat="33.4292325" lon="132.7086109"><ele>294.18</ele><time>2025-03-29T22:06:41Z</time></trkpt><trkpt lat="33.4291623" lon="132.708368"><ele>296.96000000000004</ele><time>2025-03-29T22:07:53Z</time></trkpt><trkpt lat="33.4290619" lon="132.7081124"><ele>299.05</ele><time>2025-03-29T22:08:05Z</time></trkpt><trkpt lat="33.4290836" lon="132.7078769"><ele>300.5166666666667</ele><time>2025-03-29T22:08:20Z</time></trkpt><trkpt lat="33.4292657" lon="132.7077235"><ele>301.1533333333333</ele><time>2025-03-29T22:08:36Z</time></trkpt><trkpt lat="33.4293341" lon="132.7074735"><ele>302.9266666666667</ele><time>2025-03-29T22:08:53Z</time></trkpt><trkpt lat="33.4293956" lon="132.7072529"><ele>306.1066666666666</ele><time>2025-03-29T22:09:11Z</time></trkpt><trkpt lat="33.4292119" lon="132.7072585"><ele>309.8466666666667</ele><time>2025-03-29T22:09:26Z</time></trkpt><trkpt lat="33.4290094" lon="132.7072298"><ele>312.55333333333334</ele><time>2025-03-29T22:09:46Z</time></trkpt><trkpt lat="33.4288956" lon="132.7070479"><ele>315.3</ele><time>2025-03-29T22:10:01Z</time></trkpt><trkpt lat="33.4287506" lon="132.706897"><ele>317.03666666666663</ele><time>2025-03-29T22:10:19Z</time></trkpt><trkpt lat="33.4286651" lon="132.706634"><ele>318.61333333333334</ele><time>2025-03-29T22:10:35Z</time></trkpt><trkpt lat="33.4287256" lon="132.7063921"><ele>319.3866666666667</ele><time>2025-03-29T22:10:50Z</time></trkpt><trkpt lat="33.4288005" lon="132.7061847"><ele>318.56</ele><time>2025-03-29T22:11:05Z</time></trkpt><trkpt lat="33.4285948" lon="132.7061162"><ele>319.87999999999994</ele><time>2025-03-29T22:11:20Z</time></trkpt><trkpt lat="33.4284173" lon="132.7060733"><ele>326.17333333333335</ele><time>2025-03-29T22:11:35Z</time></trkpt><trkpt lat="33.4283574" lon="132.7058206"><ele>333.0466666666667</ele><time>2025-03-29T22:11:51Z</time></trkpt><trkpt lat="33.4281761" lon="132.7057596"><ele>338.1166666666666</ele><time>2025-03-29T22:12:17Z</time></trkpt><trkpt lat="33.4280816" lon="132.7059625"><ele>341.55333333333334</ele><time>2025-03-29T22:12:56Z</time></trkpt><trkpt lat="33.4279034" lon="132.7058897"><ele>344.33</ele><time>2025-03-29T22:13:05Z</time></trkpt><trkpt lat="33.427717" lon="132.7059277"><ele>347.71333333333337</ele><time>2025-03-29T22:13:22Z</time></trkpt><trkpt lat="33.427531" lon="132.705939"><ele>348.17333333333335</ele><time>2025-03-29T22:13:39Z</time></trkpt><trkpt lat="33.4273722" lon="132.7057743"><ele>348.62000000000006</ele><time>2025-03-29T22:13:57Z</time></trkpt><trkpt lat="33.4271871" lon="132.7058132"><ele>348.73333333333335</ele><time>2025-03-29T22:14:15Z</time></trkpt><trkpt lat="33.4270902" lon="132.7060003"><ele>351.0533333333333</ele><time>2025-03-29T22:14:33Z</time></trkpt><trkpt lat="33.4269251" lon="132.7061138"><ele>356.01</ele><time>2025-03-29T22:14:49Z</time></trkpt><trkpt lat="33.4267188" lon="132.7060618"><ele>358.7</ele><time>2025-03-29T22:15:04Z</time></trkpt><trkpt lat="33.4265376" lon="132.7059935"><ele>360.3933333333334</ele><time>2025-03-29T22:15:22Z</time></trkpt><trkpt lat="33.4264428" lon="132.7061944"><ele>363.1566666666667</ele><time>2025-03-29T22:15:49Z</time></trkpt><trkpt lat="33.4264286" lon="132.7064099"><ele>369.1266666666667</ele><time>2025-03-29T22:16:10Z</time></trkpt><trkpt lat="33.4262686" lon="132.7065209"><ele>371.65000000000003</ele><time>2025-03-29T22:16:31Z</time></trkpt><trkpt lat="33.4263822" lon="132.7067166"><ele>371.5366666666667</ele><time>2025-03-29T22:16:49Z</time></trkpt><trkpt lat="33.4265459" lon="132.7068198"><ele>369.7266666666667</ele><time>2025-03-29T22:17:08Z</time></trkpt><trkpt lat="33.4266968" lon="132.7069598"><ele>369.82666666666665</ele><time>2025-03-29T22:17:25Z</time></trkpt><trkpt lat="33.4268344" lon="132.7071071"><ele>372.74333333333334</ele><time>2025-03-29T22:17:42Z</time></trkpt><trkpt lat="33.4268536" lon="132.7073273"><ele>376.04</ele><time>2025-03-29T22:19:02Z</time></trkpt><trkpt lat="33.4267688" lon="132.707554"><ele>380.1766666666667</ele><time>2025-03-29T22:19:23Z</time></trkpt><trkpt lat="33.4267806" lon="132.7077935"><ele>383.41333333333336</ele><time>2025-03-29T22:19:52Z</time></trkpt><trkpt lat="33.4268217" lon="132.7080157"><ele>385.91333333333336</ele><time>2025-03-29T22:20:10Z</time></trkpt><trkpt lat="33.4268956" lon="132.7082194"><ele>388.5566666666667</ele><time>2025-03-29T22:20:36Z</time></trkpt><trkpt lat="33.426957" lon="132.7084379"><ele>391.83</ele><time>2025-03-29T22:20:57Z</time></trkpt><trkpt lat="33.4268889" lon="132.7086704"><ele>393.2633333333333</ele><time>2025-03-29T22:21:15Z</time></trkpt><trkpt lat="33.426688" lon="132.7086941"><ele>396.9766666666667</ele><time>2025-03-29T22:22:04Z</time></trkpt><trkpt lat="33.4265455" lon="132.708853"><ele>397.3066666666667</ele><time>2025-03-29T22:22:32Z</time></trkpt><trkpt lat="33.4263778" lon="132.7089782"><ele>400.3066666666667</ele><time>2025-03-29T22:22:52Z</time></trkpt><trkpt lat="33.4262488" lon="132.7091314"><ele>402.4433333333333</ele><time>2025-03-29T22:23:10Z</time></trkpt><trkpt lat="33.4261977" lon="132.7093386"><ele>408.90000000000003</ele><time>2025-03-29T22:23:32Z</time></trkpt><trkpt lat="33.4260687" lon="132.7095074"><ele>416.6366666666667</ele><time>2025-03-29T22:23:56Z</time></trkpt><trkpt lat="33.4260448" lon="132.7097418"><ele>420.8566666666666</ele><time>2025-03-29T22:24:17Z</time></trkpt><trkpt lat="33.425868" lon="132.7098007"><ele>424.1566666666667</ele><time>2025-03-29T22:24:51Z</time></trkpt><trkpt lat="33.4258393" lon="132.7095689"><ele>427.37000000000006</ele><time>2025-03-29T22:25:23Z</time></trkpt><trkpt lat="33.42584" lon="132.7093372"><ele>434.2166666666667</ele><time>2025-03-29T22:25:53Z</time></trkpt><trkpt lat="33.4256626" lon="132.7091647"><ele>442.59666666666664</ele><time>2025-03-29T22:26:20Z</time></trkpt><trkpt lat="33.4256652" lon="132.7089294"><ele>450.56666666666666</ele><time>2025-03-29T22:26:44Z</time></trkpt><trkpt lat="33.425707" lon="132.7086662"><ele>456.7633333333333</ele><time>2025-03-29T22:28:05Z</time></trkpt><trkpt lat="33.4256595" lon="132.7088906"><ele>459.07666666666665</ele><time>2025-03-29T22:29:27Z</time></trkpt><trkpt lat="33.4258372" lon="132.7090545"><ele>455.74333333333334</ele><time>2025-03-29T22:31:42Z</time></trkpt><trkpt lat="33.4258881" lon="132.7092898"><ele>448.0233333333333</ele><time>2025-03-29T22:31:57Z</time></trkpt><trkpt lat="33.4258344" lon="132.7094987"><ele>440.14000000000004</ele><time>2025-03-29T22:32:11Z</time></trkpt><trkpt lat="33.4259028" lon="132.7097128"><ele>433.7533333333334</ele><time>2025-03-29T22:32:20Z</time></trkpt><trkpt lat="33.4259911" lon="132.7099138"><ele>429.09</ele><time>2025-03-29T22:32:32Z</time></trkpt><trkpt lat="33.4260509" lon="132.7096713"><ele>424.1333333333334</ele><time>2025-03-29T22:32:46Z</time></trkpt><trkpt lat="33.4261451" lon="132.7094123"><ele>420.48</ele><time>2025-03-29T22:33:00Z</time></trkpt><trkpt lat="33.4259345" lon="132.7097299"><ele>421.4766666666667</ele><time>2025-03-29T22:33:03Z</time></trkpt><trkpt lat="33.4260019" lon="132.7094298"><ele>423.1666666666667</ele><time>2025-03-29T22:33:15Z</time></trkpt><trkpt lat="33.426044" lon="132.7091824"><ele>425.9266666666667</ele><time>2025-03-29T22:33:30Z</time></trkpt><trkpt lat="33.4261993" lon="132.7090249"><ele>421.71999999999997</ele><time>2025-03-29T22:33:41Z</time></trkpt><trkpt lat="33.4264045" lon="132.7089036"><ele>415.39333333333326</ele><time>2025-03-29T22:33:53Z</time></trkpt><trkpt lat="33.4265839" lon="132.7088409"><ele>404.3066666666667</ele><time>2025-03-29T22:34:03Z</time></trkpt><trkpt lat="33.42675" lon="132.7087459"><ele>399.6033333333333</ele><time>2025-03-29T22:34:20Z</time></trkpt><trkpt lat="33.4269245" lon="132.7086513"><ele>396.41333333333336</ele><time>2025-03-29T22:34:35Z</time></trkpt><trkpt lat="33.4266723" lon="132.7086712"><ele>399.09</ele><time>2025-03-29T22:34:44Z</time></trkpt><trkpt lat="33.4267478" lon="132.708465"><ele>402.75333333333333</ele><time>2025-03-29T22:34:53Z</time></trkpt><trkpt lat="33.4267867" lon="132.7081865"><ele>401.6966666666667</ele><time>2025-03-29T22:35:05Z</time></trkpt><trkpt lat="33.4268053" lon="132.7079566"><ele>396.6066666666666</ele><time>2025-03-29T22:35:16Z</time></trkpt><trkpt lat="33.4266791" lon="132.7077887"><ele>391.00666666666666</ele><time>2025-03-29T22:35:28Z</time></trkpt><trkpt lat="33.4265911" lon="132.7075613"><ele>389.75333333333333</ele><time>2025-03-29T22:35:44Z</time></trkpt><trkpt lat="33.4267169" lon="132.7073338"><ele>388.89333333333326</ele><time>2025-03-29T22:36:04Z</time></trkpt><trkpt lat="33.4268968" lon="132.7072585"><ele>385.0333333333333</ele><time>2025-03-29T22:36:16Z</time></trkpt><trkpt lat="33.4271041" lon="132.7072258"><ele>379.9266666666667</ele><time>2025-03-29T22:36:34Z</time></trkpt><trkpt lat="33.4272371" lon="132.7070793"><ele>377.79333333333335</ele><time>2025-03-29T22:36:47Z</time></trkpt><trkpt lat="33.4274468" lon="132.7070495"><ele>374.09666666666664</ele><time>2025-03-29T22:37:06Z</time></trkpt><trkpt lat="33.4276275" lon="132.7071401"><ele>370.60666666666674</ele><time>2025-03-29T22:37:18Z</time></trkpt><trkpt lat="33.4277215" lon="132.7073362"><ele>364.34666666666675</ele><time>2025-03-29T22:37:37Z</time></trkpt><trkpt lat="33.4278974" lon="132.7074056"><ele>358.40000000000003</ele><time>2025-03-29T22:38:43Z</time></trkpt><trkpt lat="33.4280922" lon="132.7074557"><ele>351.8866666666667</ele><time>2025-03-29T22:39:22Z</time></trkpt><trkpt lat="33.4283087" lon="132.7073591"><ele>346.2366666666667</ele><time>2025-03-29T22:39:34Z</time></trkpt><trkpt lat="33.4284611" lon="132.7072406"><ele>341.5933333333333</ele><time>2025-03-29T22:39:49Z</time></trkpt><trkpt lat="33.4285083" lon="132.7074737"><ele>335.79</ele><time>2025-03-29T22:40:06Z</time></trkpt><trkpt lat="33.4287003" lon="132.7073863"><ele>330.55333333333334</ele><time>2025-03-29T22:40:42Z</time></trkpt><trkpt lat="33.4288884" lon="132.7073708"><ele>324.37333333333333</ele><time>2025-03-29T22:40:57Z</time></trkpt><trkpt lat="33.4290925" lon="132.7074425"><ele>319.6166666666667</ele><time>2025-03-29T22:41:15Z</time></trkpt><trkpt lat="33.4292672" lon="132.7073728"><ele>315.12</ele><time>2025-03-29T22:41:36Z</time></trkpt><trkpt lat="33.4294517" lon="132.7073367"><ele>310.34999999999997</ele><time>2025-03-29T22:42:24Z</time></trkpt><trkpt lat="33.4293959" lon="132.7075938"><ele>307.0566666666667</ele><time>2025-03-29T22:42:39Z</time></trkpt><trkpt lat="33.4293681" lon="132.7078068"><ele>302.13000000000005</ele><time>2025-03-29T22:42:51Z</time></trkpt><trkpt lat="33.4292543" lon="132.7079817"><ele>297.7633333333333</ele><time>2025-03-29T22:43:03Z</time></trkpt><trkpt lat="33.4291019" lon="132.7081014"><ele>296.20666666666665</ele><time>2025-03-29T22:43:16Z</time></trkpt><trkpt lat="33.4291899" lon="132.7083206"><ele>296.75333333333333</ele><time>2025-03-29T22:43:35Z</time></trkpt><trkpt lat="33.4293335" lon="132.7084684"><ele>297.2166666666667</ele><time>2025-03-29T22:43:51Z</time></trkpt><trkpt lat="33.429288" lon="132.7087369"><ele>294.94</ele><time>2025-03-29T22:44:03Z</time></trkpt><trkpt lat="33.4291588" lon="132.7089179"><ele>292.0366666666667</ele><time>2025-03-29T22:44:17Z</time></trkpt><trkpt lat="33.4290517" lon="132.7091131"><ele>290.7866666666667</ele><time>2025-03-29T22:44:30Z</time></trkpt><trkpt lat="33.4291438" lon="132.7093264"><ele>289.9166666666667</ele><time>2025-03-29T22:44:45Z</time></trkpt><trkpt lat="33.4293711" lon="132.7093301"><ele>288.8733333333333</ele><time>2025-03-29T22:45:00Z</time></trkpt><trkpt lat="33.4295776" lon="132.7093776"><ele>287.41333333333336</ele><time>2025-03-29T22:45:15Z</time></trkpt><trkpt lat="33.4296868" lon="132.7095672"><ele>285.3966666666667</ele><time>2025-03-29T22:45:27Z</time></trkpt><trkpt lat="33.4297452" lon="132.7097995"><ele>283.9066666666667</ele><time>2025-03-29T22:45:39Z</time></trkpt><trkpt lat="33.4298061" lon="132.7100058"><ele>282.6033333333333</ele><time>2025-03-29T22:45:51Z</time></trkpt><trkpt lat="33.4299437" lon="132.7101886"><ele>281.15333333333336</ele><time>2025-03-29T22:46:12Z</time></trkpt><trkpt lat="33.4300408" lon="132.7103944"><ele>280.61000000000007</ele><time>2025-03-29T22:46:31Z</time></trkpt><trkpt lat="33.4301509" lon="132.7106108"><ele>280.29</ele><time>2025-03-29T22:46:45Z</time></trkpt><trkpt lat="33.4303409" lon="132.7106535"><ele>279.19666666666666</ele><time>2025-03-29T22:46:58Z</time></trkpt><trkpt lat="33.4305565" lon="132.7106082"><ele>275.14</ele><time>2025-03-29T22:47:10Z</time></trkpt></trkseg></trk></gpx>