<?xml version='1.0' encoding='UTF-8'?><gpx creator="Yama Museum Peak Annotator" xsi:schemaLocation="http://www.topografix.com/GPX/1/1 http://www.topografix.com/GPX/1/1/gpx.xsd" version="1.1" xmlns="http://www.topografix.com/GPX/1/1" xmlns:xsi="http://www.w3.org/2001/XMLSchema-instance"><metadata><bounds maxlat="33.7840563" maxlon="133.2369331" minlat="33.7821985" minlon="133.225532"/></metadata>  <wpt lat="33.7826057" lon="133.2367653">
    <ele>1731.0666666666668</ele>
    <name>東黒森</name>
    <desc>Peak detected at 1731m (prominence: 132m)</desc>
    <sym>Summit</sym>
  </wpt>
<trk><name>東黒森</name><number>1</number><trkseg><trkpt lat="33.7823904" lon="133.225532"><ele>1628.58</ele><time>2025-07-06T00:43:22Z</time></trkpt><trkpt lat="33.7824421" lon="133.2257664"><ele>1626.88</ele><time>2025-07-06T00:44:36Z</time></trkpt><trkpt lat="33.7825566" lon="133.2259393"><ele>1625.9366666666667</ele><time>2025-07-06T00:44:51Z</time></trkpt><trkpt lat="33.7827233" lon="133.2260651"><ele>1623.47</ele><time>2025-07-06T00:45:09Z</time></trkpt><trkpt lat="33.7827986" lon="133.2262798"><ele>1621.72</ele><time>2025-07-06T00:45:32Z</time></trkpt><trkpt lat="33.7828932" lon="133.2264925"><ele>1618.8333333333333</ele><time>2025-07-06T00:45:47Z</time></trkpt><trkpt lat="33.7829694" lon="133.2267015"><ele>1615.6366666666665</ele><time>2025-07-06T00:46:02Z</time></trkpt><trkpt lat="33.7830053" lon="133.2269343"><ele>1612.2900000000002</ele><time>2025-07-06T00:46:17Z</time></trkpt><trkpt lat="33.7830487" lon="133.2271654"><ele>1610.9700000000003</ele><time>2025-07-06T00:46:32Z</time></trkpt><trkpt lat="33.7830535" lon="133.2273999"><ele>1611.4800000000002</ele><time>2025-07-06T00:46:47Z</time></trkpt><trkpt lat="33.7830393" lon="133.2276259"><ele>1612.5233333333333</ele><time>2025-07-06T00:47:02Z</time></trkpt><trkpt lat="33.7830603" lon="133.2278702"><ele>1612.6066666666668</ele><time>2025-07-06T00:47:17Z</time></trkpt><trkpt lat="33.7831103" lon="133.2280964"><ele>1611.89</ele><time>2025-07-06T00:47:32Z</time></trkpt><trkpt lat="33.783148" lon="133.2283351"><ele>1611.0133333333333</ele><time>2025-07-06T00:47:47Z</time></trkpt><trkpt lat="33.7831871" lon="133.2285616"><ele>1609.7633333333333</ele><time>2025-07-06T00:48:02Z</time></trkpt><trkpt lat="33.7832524" lon="133.2287957"><ele>1608.0266666666666</ele><time>2025-07-06T00:48:17Z</time></trkpt><trkpt lat="33.78335" lon="133.2290064"><ele>1605.5333333333335</ele><time>2025-07-06T00:48:37Z</time></trkpt><trkpt lat="33.7834604" lon="133.2292194"><ele>1602.14</ele><time>2025-07-06T00:48:55Z</time></trkpt><trkpt lat="33.7835287" lon="133.2294454"><ele>1598.6133333333335</ele><time>2025-07-06T00:49:22Z</time></trkpt><trkpt lat="33.7835764" lon="133.2296795"><ele>1596.6966666666667</ele><time>2025-07-06T00:49:39Z</time></trkpt><trkpt lat="33.783673" lon="133.2298937"><ele>1594.6633333333332</ele><time>2025-07-06T00:50:05Z</time></trkpt><trkpt lat="33.7837295" lon="133.2301377"><ele>1595.3166666666668</ele><time>2025-07-06T00:50:22Z</time></trkpt><trkpt lat="33.7837451" lon="133.2303915"><ele>1597.01</ele><time>2025-07-06T00:50:46Z</time></trkpt><trkpt lat="33.7838269" lon="133.2305929"><ele>1600.96</ele><time>2025-07-06T00:51:40Z</time></trkpt><trkpt lat="33.7839063" lon="133.2307892"><ele>1603.6233333333332</ele><time>2025-07-06T00:52:28Z</time></trkpt><trkpt lat="33.7839101" lon="133.2310223"><ele>1605.4833333333333</ele><time>2025-07-06T00:53:22Z</time></trkpt><trkpt lat="33.783959" lon="133.2312445"><ele>1608.3933333333334</ele><time>2025-07-06T00:53:52Z</time></trkpt><trkpt lat="33.7839471" lon="133.2314754"><ele>1613.8933333333334</ele><time>2025-07-06T00:54:45Z</time></trkpt><trkpt lat="33.7839404" lon="133.2316951"><ele>1619.11</ele><time>2025-07-06T00:55:26Z</time></trkpt><trkpt lat="33.7839554" lon="133.2319371"><ele>1624.6900000000003</ele><time>2025-07-06T00:57:20Z</time></trkpt><trkpt lat="33.7839954" lon="133.232163"><ele>1629.6533333333334</ele><time>2025-07-06T00:59:13Z</time></trkpt><trkpt lat="33.7839897" lon="133.2323814"><ele>1635.3833333333332</ele><time>2025-07-06T00:59:52Z</time></trkpt><trkpt lat="33.7839182" lon="133.2325967"><ele>1640.1833333333334</ele><time>2025-07-06T01:00:55Z</time></trkpt><trkpt lat="33.7838522" lon="133.2328119"><ele>1643.3966666666668</ele><time>2025-07-06T01:02:52Z</time></trkpt><trkpt lat="33.7837436" lon="133.2329913"><ele>1646.1333333333334</ele><time>2025-07-06T01:03:24Z</time></trkpt><trkpt lat="33.7836482" lon="133.2331851"><ele>1648.1266666666668</ele><time>2025-07-06T01:04:15Z</time></trkpt><trkpt lat="33.7835573" lon="133.2333854"><ele>1650.8233333333335</ele><time>2025-07-06T01:06:09Z</time></trkpt><trkpt lat="33.7834514" lon="133.2335691"><ele>1653.8700000000001</ele><time>2025-07-06T01:07:21Z</time></trkpt><trkpt lat="33.783346" lon="133.2337518"><ele>1658.83</ele><time>2025-07-06T01:09:27Z</time></trkpt><trkpt lat="33.7831891" lon="133.233884"><ele>1664.7166666666665</ele><time>2025-07-06T01:10:30Z</time></trkpt><trkpt lat="33.783031" lon="133.2340042"><ele>1669.38</ele><time>2025-07-06T01:10:54Z</time></trkpt><trkpt lat="33.7828983" lon="133.2341984"><ele>1673.4433333333334</ele><time>2025-07-06T01:11:33Z</time></trkpt><trkpt lat="33.7829139" lon="133.234417"><ele>1676.7700000000002</ele><time>2025-07-06T01:12:00Z</time></trkpt><trkpt lat="33.7829256" lon="133.2346561"><ele>1679.9800000000002</ele><time>2025-07-06T01:12:27Z</time></trkpt><trkpt lat="33.78295" lon="133.2348975"><ele>1682.006666666667</ele><time>2025-07-06T01:12:54Z</time></trkpt><trkpt lat="33.7829007" lon="133.2351269"><ele>1681.5600000000002</ele><time>2025-07-06T01:13:27Z</time></trkpt><trkpt lat="33.7828138" lon="133.2353266"><ele>1681.966666666667</ele><time>2025-07-06T01:13:54Z</time></trkpt><trkpt lat="33.7826789" lon="133.2355046"><ele>1684.43</ele><time>2025-07-06T01:14:48Z</time></trkpt><trkpt lat="33.7825152" lon="133.2356227"><ele>1686.2266666666667</ele><time>2025-07-06T01:15:21Z</time></trkpt><trkpt lat="33.7824212" lon="133.2358284"><ele>1688.2633333333333</ele><time>2025-07-06T01:15:54Z</time></trkpt><trkpt lat="33.7823126" lon="133.2360105"><ele>1689.29</ele><time>2025-07-06T01:16:21Z</time></trkpt><trkpt lat="33.7822528" lon="133.236223"><ele>1690.8700000000001</ele><time>2025-07-06T01:16:48Z</time></trkpt><trkpt lat="33.7821985" lon="133.2364375"><ele>1694.4766666666667</ele><time>2025-07-06T01:17:15Z</time></trkpt><trkpt lat="33.7823891" lon="133.2364708"><ele>1701.3233333333335</ele><time>2025-07-06T01:18:54Z</time></trkpt><trkpt lat="33.7823473" lon="133.2366894"><ele>1710.1333333333332</ele><time>2025-07-06T01:19:33Z</time></trkpt><trkpt lat="33.7825275" lon="133.2365982"><ele>1718.2366666666667</ele><time>2025-07-06T01:20:27Z</time></trkpt><trkpt lat="33.7825713" lon="133.2368129"><ele>1724.0333333333335</ele><time>2025-07-06T01:21:51Z</time></trkpt><trkpt lat="33.7827216" lon="133.2369331"><ele>1728.72</ele><time>2025-07-06T01:23:15Z</time></trkpt><trkpt lat="33.7826057" lon="133.2367653"><ele>1731.0666666666668</ele><time>2025-07-06T01:38:00Z</time></trkpt><trkpt lat="33.7826168" lon="133.2365406"><ele>1729.7966666666669</ele><time>2025-07-06T01:38:44Z</time></trkpt><trkpt lat="33.7824541" lon="133.2366473"><ele>1727.4733333333334</ele><time>2025-07-06T01:39:17Z</time></trkpt><trkpt lat="33.7822998" lon="133.2365349"><ele>1721.6533333333334</ele><time>2025-07-06T01:40:53Z</time></trkpt><trkpt lat="33.7822638" lon="133.2363184"><ele>1710.7933333333333</ele><time>2025-07-06T01:42:28Z</time></trkpt><trkpt lat="33.7823149" lon="133.2361088"><ele>1701.0333333333335</ele><time>2025-07-06T01:42:46Z</time></trkpt><trkpt lat="33.782423" lon="133.2359136"><ele>1694.2966666666669</ele><time>2025-07-06T01:43:12Z</time></trkpt><trkpt lat="33.7824859" lon="133.2357109"><ele>1691.8433333333335</ele><time>2025-07-06T01:43:48Z</time></trkpt><trkpt lat="33.7826364" lon="133.2355639"><ele>1688.5900000000001</ele><time>2025-07-06T01:44:15Z</time></trkpt><trkpt lat="33.7827727" lon="133.2354"><ele>1685.25</ele><time>2025-07-06T01:44:57Z</time></trkpt><trkpt lat="33.7829066" lon="133.2352264"><ele>1682.9366666666667</ele><time>2025-07-06T01:45:22Z</time></trkpt><trkpt lat="33.7829691" lon="133.2350021"><ele>1681.3999999999999</ele><time>2025-07-06T01:45:55Z</time></trkpt><trkpt lat="33.7829501" lon="133.2347662"><ele>1681.5033333333333</ele><time>2025-07-06T01:46:34Z</time></trkpt><trkpt lat="33.7829647" lon="133.2345261"><ele>1683.2733333333333</ele><time>2025-07-06T01:47:34Z</time></trkpt><trkpt lat="33.7829227" lon="133.2343085"><ele>1683.493333333333</ele><time>2025-07-06T01:48:02Z</time></trkpt><trkpt lat="33.7829826" lon="133.2340943"><ele>1680.28</ele><time>2025-07-06T01:48:35Z</time></trkpt><trkpt lat="33.7831176" lon="133.2339335"><ele>1674.926666666667</ele><time>2025-07-06T01:49:32Z</time></trkpt><trkpt lat="33.7832787" lon="133.2338214"><ele>1670.5366666666669</ele><time>2025-07-06T01:50:05Z</time></trkpt><trkpt lat="33.78341" lon="133.2336646"><ele>1666.6133333333335</ele><time>2025-07-06T01:50:41Z</time></trkpt><trkpt lat="33.7835214" lon="133.2334801"><ele>1661.3366666666668</ele><time>2025-07-06T01:51:20Z</time></trkpt><trkpt lat="33.7836296" lon="133.2332944"><ele>1655.92</ele><time>2025-07-06T01:52:05Z</time></trkpt><trkpt lat="33.7837161" lon="133.2331033"><ele>1650.9333333333334</ele><time>2025-07-06T01:52:25Z</time></trkpt><trkpt lat="33.7837953" lon="133.2328937"><ele>1648.426666666667</ele><time>2025-07-06T01:52:49Z</time></trkpt><trkpt lat="33.7839089" lon="133.232719"><ele>1645.9399999999998</ele><time>2025-07-06T01:53:22Z</time></trkpt><trkpt lat="33.7839749" lon="133.232501"><ele>1644.3633333333335</ele><time>2025-07-06T01:53:43Z</time></trkpt><trkpt lat="33.7840563" lon="133.232287"><ele>1641.3400000000001</ele><time>2025-07-06T01:54:04Z</time></trkpt><trkpt lat="33.7840069" lon="133.232062"><ele>1636.9099999999999</ele><time>2025-07-06T01:54:28Z</time></trkpt><trkpt lat="33.7840071" lon="133.2318301"><ele>1630.1433333333334</ele><time>2025-07-06T01:55:00Z</time></trkpt><trkpt lat="33.7839435" lon="133.2316179"><ele>1625.3666666666668</ele><time>2025-07-06T01:55:24Z</time></trkpt><trkpt lat="33.7839946" lon="133.2314004"><ele>1621.6166666666668</ele><time>2025-07-06T01:55:42Z</time></trkpt><trkpt lat="33.7839936" lon="133.2311468"><ele>1617.24</ele><time>2025-07-06T01:56:00Z</time></trkpt><trkpt lat="33.7839215" lon="133.2309392"><ele>1611.7700000000002</ele><time>2025-07-06T01:56:18Z</time></trkpt><trkpt lat="33.783931" lon="133.2307181"><ele>1605.8866666666665</ele><time>2025-07-06T01:56:54Z</time></trkpt><trkpt lat="33.7838387" lon="133.2305212"><ele>1603.9800000000002</ele><time>2025-07-06T01:57:17Z</time></trkpt><trkpt lat="33.7837687" lon="133.2302983"><ele>1602.2133333333334</ele><time>2025-07-06T01:57:41Z</time></trkpt><trkpt lat="33.7837447" lon="133.2300775"><ele>1599.6566666666668</ele><time>2025-07-06T01:57:56Z</time></trkpt><trkpt lat="33.7836904" lon="133.2298507"><ele>1595.706666666667</ele><time>2025-07-06T01:58:11Z</time></trkpt><trkpt lat="33.7835979" lon="133.2296326"><ele>1594.4166666666667</ele><time>2025-07-06T01:58:28Z</time></trkpt><trkpt lat="33.7835477" lon="133.2294104"><ele>1594.6533333333334</ele><time>2025-07-06T01:58:44Z</time></trkpt><trkpt lat="33.7835076" lon="133.2291846"><ele>1595.2866666666669</ele><time>2025-07-06T01:59:01Z</time></trkpt><trkpt lat="33.7833873" lon="133.2289966"><ele>1596.78</ele><time>2025-07-06T01:59:19Z</time></trkpt><trkpt lat="33.7832763" lon="133.2287816"><ele>1600.3066666666666</ele><time>2025-07-06T01:59:43Z</time></trkpt><trkpt lat="33.7832122" lon="133.2285736"><ele>1605.1000000000001</ele><time>2025-07-06T02:00:00Z</time></trkpt><trkpt lat="33.7831791" lon="133.228342"><ele>1608.0266666666666</ele><time>2025-07-06T02:00:17Z</time></trkpt><trkpt lat="33.783145" lon="133.2281211"><ele>1609.68</ele><time>2025-07-06T02:00:34Z</time></trkpt><trkpt lat="33.7831018" lon="133.2278953"><ele>1610.9233333333334</ele><time>2025-07-06T02:00:51Z</time></trkpt><trkpt lat="33.7830804" lon="133.2276713"><ele>1611.61</ele><time>2025-07-06T02:01:08Z</time></trkpt><trkpt lat="33.7830833" lon="133.2274422"><ele>1612.1166666666668</ele><time>2025-07-06T02:01:25Z</time></trkpt><trkpt lat="33.783078" lon="133.2272106"><ele>1611.61</ele><time>2025-07-06T02:01:42Z</time></trkpt><trkpt lat="33.783048" lon="133.2269772"><ele>1610.756666666667</ele><time>2025-07-06T02:02:00Z</time></trkpt><trkpt lat="33.7830078" lon="133.2267438"><ele>1609.506666666667</ele><time>2025-07-06T02:02:17Z</time></trkpt><trkpt lat="33.7829404" lon="133.2265123"><ele>1610.176666666667</ele><time>2025-07-06T02:02:35Z</time></trkpt><trkpt lat="33.7828454" lon="133.2262999"><ele>1613.5233333333335</ele><time>2025-07-06T02:02:52Z</time></trkpt><trkpt lat="33.782756" lon="133.2261003"><ele>1617.7533333333333</ele><time>2025-07-06T02:03:10Z</time></trkpt><trkpt lat="33.7826386" lon="133.2259152"><ele>1621.9233333333334</ele><time>2025-07-06T02:03:28Z</time></trkpt><trkpt lat="33.7824829" lon="133.2257596"><ele>1623.6733333333334</ele><time>2025-07-06T02:03:45Z</time></trkpt><trkpt lat="33.7824053" lon="133.2255518"><ele>1625.6166666666668</ele><time>2025-07-06T02:04:03Z</time></trkpt></trkseg></trk></gpx>