<?xml version='1.0' encoding='UTF-8'?><gpx creator="Yama Museum Peak Annotator" xsi:schemaLocation="http://www.topografix.com/GPX/1/1 http://www.topografix.com/GPX/1/1/gpx.xsd" version="1.1" xmlns="http://www.topografix.com/GPX/1/1" xmlns:xsi="http://www.w3.org/2001/XMLSchema-instance"><metadata><bounds maxlat="33.6602946" maxlon="132.7990438" minlat="33.6472139" minlon="132.791106"/></metadata>  <wpt lat="33.6509595" lon="132.7915875">
    <ele>711</ele>
    <name>笠成山</name>
    <desc>Peak detected at 711m (prominence: 317m)</desc>
    <sym>Summit</sym>
  </wpt>
<trk><name>笠成山</name><number>1</number><trkseg><trkpt lat="33.6602946" lon="132.7960706"><ele>388.27</ele><time>2025-04-13T20:56:48Z</time></trkpt><trkpt lat="33.6600992" lon="132.7960116"><ele>390.74</ele><time>2025-04-13T20:57:45Z</time></trkpt><trkpt lat="33.6599268" lon="132.7960945"><ele>390.99666666666667</ele><time>2025-04-13T20:58:07Z</time></trkpt><trkpt lat="33.6597429" lon="132.796049"><ele>393.54333333333335</ele><time>2025-04-13T20:58:31Z</time></trkpt><trkpt lat="33.6595869" lon="132.795912"><ele>397.04</ele><time>2025-04-13T20:58:52Z</time></trkpt><trkpt lat="33.6597698" lon="132.7959658"><ele>399.53999999999996</ele><time>2025-04-13T20:59:19Z</time></trkpt><trkpt lat="33.659788" lon="132.7957266"><ele>404.71000000000004</ele><time>2025-04-13T20:59:49Z</time></trkpt><trkpt lat="33.6596082" lon="132.7956983"><ele>408.21000000000004</ele><time>2025-04-13T21:00:14Z</time></trkpt><trkpt lat="33.6594223" lon="132.795724"><ele>413.16</ele><time>2025-04-13T21:00:26Z</time></trkpt><trkpt lat="33.6592379" lon="132.7956511"><ele>414.97666666666663</ele><time>2025-04-13T21:00:44Z</time></trkpt><trkpt lat="33.6590892" lon="132.7955048"><ele>419.34999999999997</ele><time>2025-04-13T21:01:05Z</time></trkpt><trkpt lat="33.6588948" lon="132.7954924"><ele>423.70000000000005</ele><time>2025-04-13T21:01:37Z</time></trkpt><trkpt lat="33.6587034" lon="132.7955929"><ele>426.87000000000006</ele><time>2025-04-13T21:01:52Z</time></trkpt><trkpt lat="33.6585531" lon="132.795713"><ele>425.5933333333333</ele><time>2025-04-13T21:02:07Z</time></trkpt><trkpt lat="33.6583989" lon="132.7958304"><ele>423.75</ele><time>2025-04-13T21:02:25Z</time></trkpt><trkpt lat="33.6583852" lon="132.7960467"><ele>422.1333333333334</ele><time>2025-04-13T21:02:54Z</time></trkpt><trkpt lat="33.6585096" lon="132.7962366"><ele>419.98</ele><time>2025-04-13T21:03:09Z</time></trkpt><trkpt lat="33.6586772" lon="132.7963565"><ele>416.60999999999996</ele><time>2025-04-13T21:03:21Z</time></trkpt><trkpt lat="33.6584553" lon="132.7963633"><ele>414.5833333333333</ele><time>2025-04-13T21:03:50Z</time></trkpt><trkpt lat="33.6582763" lon="132.7963335"><ele>413.47</ele><time>2025-04-13T21:04:04Z</time></trkpt><trkpt lat="33.6580757" lon="132.7962372"><ele>415.0566666666667</ele><time>2025-04-13T21:04:19Z</time></trkpt><trkpt lat="33.6578662" lon="132.796164"><ele>415.91</ele><time>2025-04-13T21:04:34Z</time></trkpt><trkpt lat="33.6576839" lon="132.7963463"><ele>414.9666666666667</ele><time>2025-04-13T21:04:46Z</time></trkpt><trkpt lat="33.6576041" lon="132.7965439"><ele>411.12000000000006</ele><time>2025-04-13T21:04:57Z</time></trkpt><trkpt lat="33.6574213" lon="132.7966162"><ele>406.50333333333333</ele><time>2025-04-13T21:05:09Z</time></trkpt><trkpt lat="33.6572334" lon="132.796641"><ele>403.8433333333334</ele><time>2025-04-13T21:05:21Z</time></trkpt><trkpt lat="33.6572792" lon="132.7968797"><ele>402.5233333333333</ele><time>2025-04-13T21:05:57Z</time></trkpt><trkpt lat="33.6572875" lon="132.7971492"><ele>399.8833333333334</ele><time>2025-04-13T21:06:12Z</time></trkpt><trkpt lat="33.6571375" lon="132.7973176"><ele>402.99</ele><time>2025-04-13T21:06:24Z</time></trkpt><trkpt lat="33.6570068" lon="132.7974935"><ele>408.10666666666674</ele><time>2025-04-13T21:06:36Z</time></trkpt><trkpt lat="33.6570438" lon="132.7977532"><ele>412.49666666666667</ele><time>2025-04-13T21:06:51Z</time></trkpt><trkpt lat="33.6569758" lon="132.7979608"><ele>410.02666666666664</ele><time>2025-04-13T21:07:03Z</time></trkpt><trkpt lat="33.6568354" lon="132.7981425"><ele>407.13000000000005</ele><time>2025-04-13T21:07:21Z</time></trkpt><trkpt lat="33.6566401" lon="132.7982664"><ele>408.08666666666664</ele><time>2025-04-13T21:07:36Z</time></trkpt><trkpt lat="33.6564653" lon="132.7983897"><ele>410.71333333333337</ele><time>2025-04-13T21:07:57Z</time></trkpt><trkpt lat="33.6563412" lon="132.7981979"><ele>415.18</ele><time>2025-04-13T21:08:09Z</time></trkpt><trkpt lat="33.6561509" lon="132.7980905"><ele>420.84999999999997</ele><time>2025-04-13T21:08:24Z</time></trkpt><trkpt lat="33.6559923" lon="132.7979777"><ele>428.07666666666665</ele><time>2025-04-13T21:08:42Z</time></trkpt><trkpt lat="33.6557675" lon="132.7979555"><ele>432.9533333333334</ele><time>2025-04-13T21:08:57Z</time></trkpt><trkpt lat="33.6556076" lon="132.7980701"><ele>432.56</ele><time>2025-04-13T21:09:06Z</time></trkpt><trkpt lat="33.6554047" lon="132.7980857"><ele>433.0</ele><time>2025-04-13T21:09:18Z</time></trkpt><trkpt lat="33.6552658" lon="132.798232"><ele>435.2733333333333</ele><time>2025-04-13T21:09:36Z</time></trkpt><trkpt lat="33.6552422" lon="132.7984606"><ele>436.6000000000001</ele><time>2025-04-13T21:09:54Z</time></trkpt><trkpt lat="33.655042" lon="132.7985346"><ele>437.5566666666667</ele><time>2025-04-13T21:10:09Z</time></trkpt><trkpt lat="33.6548681" lon="132.7986661"><ele>436.18000000000006</ele><time>2025-04-13T21:10:24Z</time></trkpt><trkpt lat="33.6547058" lon="132.7988222"><ele>436.38000000000005</ele><time>2025-04-13T21:10:39Z</time></trkpt><trkpt lat="33.6545198" lon="132.7987965"><ele>434.95</ele><time>2025-04-13T21:10:57Z</time></trkpt><trkpt lat="33.6543244" lon="132.7988029"><ele>434.93666666666667</ele><time>2025-04-13T21:11:15Z</time></trkpt><trkpt lat="33.6541367" lon="132.7988345"><ele>437.8333333333333</ele><time>2025-04-13T21:11:44Z</time></trkpt><trkpt lat="33.6539019" lon="132.7989134"><ele>440.1333333333334</ele><time>2025-04-13T21:11:58Z</time></trkpt><trkpt lat="33.653717" lon="132.7990041"><ele>440.56333333333333</ele><time>2025-04-13T21:12:14Z</time></trkpt><trkpt lat="33.6535668" lon="132.7988461"><ele>442.0133333333333</ele><time>2025-04-13T21:12:40Z</time></trkpt><trkpt lat="33.6534755" lon="132.7986553"><ele>446.2666666666667</ele><time>2025-04-13T21:12:58Z</time></trkpt><trkpt lat="33.6533522" lon="132.7984954"><ele>453.75666666666666</ele><time>2025-04-13T21:13:12Z</time></trkpt><trkpt lat="33.6531472" lon="132.7983972"><ele>458.3666666666666</ele><time>2025-04-13T21:13:29Z</time></trkpt><trkpt lat="33.6529594" lon="132.7983939"><ele>461.27333333333337</ele><time>2025-04-13T21:13:41Z</time></trkpt><trkpt lat="33.6528246" lon="132.7985638"><ele>459.33666666666664</ele><time>2025-04-13T21:13:55Z</time></trkpt><trkpt lat="33.6526962" lon="132.7987389"><ele>456.49</ele><time>2025-04-13T21:14:12Z</time></trkpt><trkpt lat="33.6525218" lon="132.7986591"><ele>453.7233333333333</ele><time>2025-04-13T21:14:26Z</time></trkpt><trkpt lat="33.6524997" lon="132.7984373"><ele>457.16</ele><time>2025-04-13T21:14:46Z</time></trkpt><trkpt lat="33.6524105" lon="132.7982083"><ele>463.7866666666667</ele><time>2025-04-13T21:15:06Z</time></trkpt><trkpt lat="33.6522143" lon="132.7982098"><ele>466.93333333333334</ele><time>2025-04-13T21:15:26Z</time></trkpt><trkpt lat="33.6521407" lon="132.7984411"><ele>461.6333333333334</ele><time>2025-04-13T21:15:42Z</time></trkpt><trkpt lat="33.6519394" lon="132.7985063"><ele>454.37999999999994</ele><time>2025-04-13T21:15:57Z</time></trkpt><trkpt lat="33.6517594" lon="132.7985731"><ele>452.07</ele><time>2025-04-13T21:16:09Z</time></trkpt><trkpt lat="33.6515674" lon="132.79858"><ele>455.85666666666674</ele><time>2025-04-13T21:16:26Z</time></trkpt><trkpt lat="33.6514263" lon="132.7984364"><ele>463.21000000000004</ele><time>2025-04-13T21:16:41Z</time></trkpt><trkpt lat="33.651282" lon="132.7982753"><ele>469.01</ele><time>2025-04-13T21:16:58Z</time></trkpt><trkpt lat="33.6510969" lon="132.7982477"><ele>473.15000000000003</ele><time>2025-04-13T21:17:15Z</time></trkpt><trkpt lat="33.6509313" lon="132.7981241"><ele>474.71000000000004</ele><time>2025-04-13T21:17:35Z</time></trkpt><trkpt lat="33.6509512" lon="132.7978824"><ele>478.23333333333335</ele><time>2025-04-13T21:17:52Z</time></trkpt><trkpt lat="33.6510193" lon="132.7976584"><ele>484.37000000000006</ele><time>2025-04-13T21:18:08Z</time></trkpt><trkpt lat="33.6510108" lon="132.7974119"><ele>490.51666666666665</ele><time>2025-04-13T21:18:24Z</time></trkpt><trkpt lat="33.6508765" lon="132.7972584"><ele>489.1233333333333</ele><time>2025-04-13T21:18:39Z</time></trkpt><trkpt lat="33.6506912" lon="132.7972332"><ele>479.74666666666667</ele><time>2025-04-13T21:19:01Z</time></trkpt><trkpt lat="33.6507785" lon="132.7970159"><ele>475.9200000000001</ele><time>2025-04-13T21:19:28Z</time></trkpt><trkpt lat="33.6503909" lon="132.7970675"><ele>477.1333333333334</ele><time>2025-04-13T21:19:40Z</time></trkpt><trkpt lat="33.6502069" lon="132.7970968"><ele>481.97333333333336</ele><time>2025-04-13T21:19:53Z</time></trkpt><trkpt lat="33.6501317" lon="132.7972932"><ele>478.6166666666666</ele><time>2025-04-13T21:20:05Z</time></trkpt><trkpt lat="33.650017" lon="132.7974777"><ele>472.6666666666667</ele><time>2025-04-13T21:20:20Z</time></trkpt><trkpt lat="33.6498215" lon="132.797492"><ele>473.2166666666667</ele><time>2025-04-13T21:20:36Z</time></trkpt><trkpt lat="33.649634" lon="132.7976004"><ele>473.82</ele><time>2025-04-13T21:20:51Z</time></trkpt><trkpt lat="33.649458" lon="132.7976929"><ele>476.81333333333333</ele><time>2025-04-13T21:21:06Z</time></trkpt><trkpt lat="33.6492772" lon="132.797614"><ele>478.32666666666665</ele><time>2025-04-13T21:21:23Z</time></trkpt><trkpt lat="33.6492137" lon="132.7974022"><ele>484.2766666666667</ele><time>2025-04-13T21:22:01Z</time></trkpt><trkpt lat="33.6492606" lon="132.7971734"><ele>489.63000000000005</ele><time>2025-04-13T21:22:17Z</time></trkpt><trkpt lat="33.6493459" lon="132.7969552"><ele>491.8833333333334</ele><time>2025-04-13T21:22:32Z</time></trkpt><trkpt lat="33.6494506" lon="132.7967577"><ele>494.19000000000005</ele><time>2025-04-13T21:22:47Z</time></trkpt><trkpt lat="33.6494562" lon="132.7965245"><ele>497.92333333333335</ele><time>2025-04-13T21:23:01Z</time></trkpt><trkpt lat="33.6493933" lon="132.7962869"><ele>501.81666666666666</ele><time>2025-04-13T21:23:26Z</time></trkpt><trkpt lat="33.6492374" lon="132.7961306"><ele>501.0933333333333</ele><time>2025-04-13T21:23:38Z</time></trkpt><trkpt lat="33.6490647" lon="132.7959521"><ele>498.74333333333334</ele><time>2025-04-13T21:23:50Z</time></trkpt><trkpt lat="33.6491719" lon="132.7957285"><ele>498.43</ele><time>2025-04-13T21:24:08Z</time></trkpt><trkpt lat="33.6493575" lon="132.7956917"><ele>501.7266666666667</ele><time>2025-04-13T21:24:24Z</time></trkpt><trkpt lat="33.6494107" lon="132.7954441"><ele>502.47333333333336</ele><time>2025-04-13T21:24:57Z</time></trkpt><trkpt lat="33.6493326" lon="132.7952273"><ele>500.99</ele><time>2025-04-13T21:25:18Z</time></trkpt><trkpt lat="33.6491897" lon="132.79509"><ele>497.68</ele><time>2025-04-13T21:25:36Z</time></trkpt><trkpt lat="33.6491978" lon="132.794836"><ele>499.33</ele><time>2025-04-13T21:25:56Z</time></trkpt><trkpt lat="33.649205" lon="132.7946177"><ele>501.65333333333336</ele><time>2025-04-13T21:26:14Z</time></trkpt><trkpt lat="33.649133" lon="132.7944045"><ele>505.24333333333334</ele><time>2025-04-13T21:26:31Z</time></trkpt><trkpt lat="33.6489582" lon="132.7943119"><ele>506.30333333333334</ele><time>2025-04-13T21:26:46Z</time></trkpt><trkpt lat="33.6487763" lon="132.7943097"><ele>506.3633333333334</ele><time>2025-04-13T21:27:01Z</time></trkpt><trkpt lat="33.6485889" lon="132.7943515"><ele>505.1966666666667</ele><time>2025-04-13T21:27:17Z</time></trkpt><trkpt lat="33.6484053" lon="132.7943843"><ele>506.64000000000004</ele><time>2025-04-13T21:27:34Z</time></trkpt><trkpt lat="33.6482228" lon="132.7943476"><ele>507.8433333333333</ele><time>2025-04-13T21:27:51Z</time></trkpt><trkpt lat="33.6482525" lon="132.7941317"><ele>512.0866666666667</ele><time>2025-04-13T21:28:03Z</time></trkpt><trkpt lat="33.6483472" lon="132.7939358"><ele>515.8433333333334</ele><time>2025-04-13T21:29:02Z</time></trkpt><trkpt lat="33.6484676" lon="132.7937371"><ele>524.6566666666666</ele><time>2025-04-13T21:29:28Z</time></trkpt><trkpt lat="33.6483737" lon="132.7935078"><ele>530.4033333333333</ele><time>2025-04-13T21:29:44Z</time></trkpt><trkpt lat="33.6481885" lon="132.7933924"><ele>531.4466666666667</ele><time>2025-04-13T21:30:02Z</time></trkpt><trkpt lat="33.6481117" lon="132.793167"><ele>528.2933333333334</ele><time>2025-04-13T21:30:20Z</time></trkpt><trkpt lat="33.6481971" lon="132.7929214"><ele>527.1633333333333</ele><time>2025-04-13T21:30:35Z</time></trkpt><trkpt lat="33.6483107" lon="132.7927225"><ele>532.5766666666667</ele><time>2025-04-13T21:30:52Z</time></trkpt><trkpt lat="33.6484267" lon="132.7925515"><ele>538.36</ele><time>2025-04-13T21:31:23Z</time></trkpt><trkpt lat="33.648553" lon="132.792378"><ele>542.7133333333334</ele><time>2025-04-13T21:32:34Z</time></trkpt><trkpt lat="33.648721" lon="132.7922995"><ele>548.7566666666667</ele><time>2025-04-13T21:33:04Z</time></trkpt><trkpt lat="33.6488893" lon="132.7923833"><ele>555.5933333333334</ele><time>2025-04-13T21:35:41Z</time></trkpt><trkpt lat="33.6490737" lon="132.7924359"><ele>566.5433333333334</ele><time>2025-04-13T21:40:16Z</time></trkpt><trkpt lat="33.6491978" lon="132.7922313"><ele>574.8966666666666</ele><time>2025-04-13T21:41:56Z</time></trkpt><trkpt lat="33.6491844" lon="132.7919976"><ele>584.7666666666667</ele><time>2025-04-13T21:42:16Z</time></trkpt><trkpt lat="33.6493688" lon="132.7920913"><ele>591.9066666666668</ele><time>2025-04-13T21:42:55Z</time></trkpt><trkpt lat="33.6494607" lon="132.7923074"><ele>596.6733333333333</ele><time>2025-04-13T21:43:12Z</time></trkpt><trkpt lat="33.6495228" lon="132.792519"><ele>599.3366666666667</ele><time>2025-04-13T21:43:33Z</time></trkpt><trkpt lat="33.6496097" lon="132.7927154"><ele>599.6133333333333</ele><time>2025-04-13T21:43:48Z</time></trkpt><trkpt lat="33.6497688" lon="132.7928267"><ele>599.8666666666667</ele><time>2025-04-13T21:44:03Z</time></trkpt><trkpt lat="33.6499056" lon="132.7929959"><ele>598.5166666666667</ele><time>2025-04-13T21:44:17Z</time></trkpt><trkpt lat="33.6499861" lon="132.7928001"><ele>600.5133333333333</ele><time>2025-04-13T21:44:58Z</time></trkpt><trkpt lat="33.6499796" lon="132.792569"><ele>606.0</ele><time>2025-04-13T21:45:23Z</time></trkpt><trkpt lat="33.6501682" lon="132.7926373"><ele>613.93</ele><time>2025-04-13T21:46:38Z</time></trkpt><trkpt lat="33.6503441" lon="132.7927053"><ele>620.4233333333333</ele><time>2025-04-13T21:47:03Z</time></trkpt><trkpt lat="33.6502248" lon="132.7925369"><ele>624.3766666666667</ele><time>2025-04-13T21:47:49Z</time></trkpt><trkpt lat="33.6500729" lon="132.7923837"><ele>626.8466666666667</ele><time>2025-04-13T21:48:04Z</time></trkpt><trkpt lat="33.649871" lon="132.7922934"><ele>626.5433333333334</ele><time>2025-04-13T21:48:41Z</time></trkpt><trkpt lat="33.6498221" lon="132.7920847"><ele>628.0533333333334</ele><time>2025-04-13T21:48:56Z</time></trkpt><trkpt lat="33.649689" lon="132.7919183"><ele>628.7766666666668</ele><time>2025-04-13T21:49:10Z</time></trkpt><trkpt lat="33.6495782" lon="132.7917315"><ele>632.0300000000001</ele><time>2025-04-13T21:49:29Z</time></trkpt><trkpt lat="33.6494036" lon="132.7915878"><ele>628.8366666666667</ele><time>2025-04-13T21:49:47Z</time></trkpt><trkpt lat="33.6492293" lon="132.7915316"><ele>624.9533333333334</ele><time>2025-04-13T21:50:01Z</time></trkpt><trkpt lat="33.6491504" lon="132.7913144"><ele>624.63</ele><time>2025-04-13T21:50:23Z</time></trkpt><trkpt lat="33.6489569" lon="132.7912353"><ele>624.8633333333333</ele><time>2025-04-13T21:50:47Z</time></trkpt><trkpt lat="33.649134" lon="132.7911623"><ele>629.5600000000001</ele><time>2025-04-13T21:52:45Z</time></trkpt><trkpt lat="33.649313" lon="132.7911324"><ele>632.9499999999999</ele><time>2025-04-13T21:53:39Z</time></trkpt><trkpt lat="33.6495021" lon="132.7912005"><ele>642.3466666666667</ele><time>2025-04-13T21:54:18Z</time></trkpt><trkpt lat="33.6496676" lon="132.7913085"><ele>650.01</ele><time>2025-04-13T21:55:24Z</time></trkpt><trkpt lat="33.6498474" lon="132.791388"><ele>656.8866666666668</ele><time>2025-04-13T21:56:12Z</time></trkpt><trkpt lat="33.6500308" lon="132.7913606"><ele>665.3333333333334</ele><time>2025-04-13T21:57:09Z</time></trkpt><trkpt lat="33.6502117" lon="132.7913933"><ele>675.46</ele><time>2025-04-13T21:58:06Z</time></trkpt><trkpt lat="33.6503949" lon="132.7914121"><ele>685.1666666666666</ele><time>2025-04-13T21:59:18Z</time></trkpt><trkpt lat="33.6505749" lon="132.7914933"><ele>693.1166666666667</ele><time>2025-04-13T22:00:03Z</time></trkpt><trkpt lat="33.6507623" lon="132.7915367"><ele>699.4499999999999</ele><time>2025-04-13T22:00:54Z</time></trkpt><trkpt lat="33.6509493" lon="132.791539"><ele>705.4766666666668</ele><time>2025-04-13T22:01:39Z</time></trkpt><trkpt lat="33.6511224" lon="132.7914479"><ele>709.0766666666667</ele><time>2025-04-13T22:02:03Z</time></trkpt><trkpt lat="33.6512918" lon="132.7913721"><ele>711.1433333333333</ele><time>2025-04-13T22:03:12Z</time></trkpt><trkpt lat="33.6511086" lon="132.7914441"><ele>711.4266666666667</ele><time>2025-04-13T22:04:36Z</time></trkpt><trkpt lat="33.6509595" lon="132.7915875"><ele>711.0</ele><time>2025-04-13T22:05:57Z</time></trkpt><trkpt lat="33.6511296" lon="132.7916801"><ele>710.08</ele><time>2025-04-13T22:09:53Z</time></trkpt><trkpt lat="33.6512841" lon="132.7915625"><ele>709.2933333333334</ele><time>2025-04-13T22:11:34Z</time></trkpt><trkpt lat="33.6512127" lon="132.7917877"><ele>707.65</ele><time>2025-04-13T22:12:58Z</time></trkpt><trkpt lat="33.6510243" lon="132.7918325"><ele>706.9133333333334</ele><time>2025-04-13T22:14:35Z</time></trkpt><trkpt lat="33.6510135" lon="132.7916167"><ele>707.3233333333334</ele><time>2025-04-13T22:15:14Z</time></trkpt><trkpt lat="33.6508436" lon="132.7914971"><ele>708.2233333333334</ele><time>2025-04-13T22:15:40Z</time></trkpt><trkpt lat="33.6506853" lon="132.7913752"><ele>706.7233333333334</ele><time>2025-04-13T22:16:03Z</time></trkpt><trkpt lat="33.6505111" lon="132.7914732"><ele>702.6133333333333</ele><time>2025-04-13T22:16:21Z</time></trkpt><trkpt lat="33.6502981" lon="132.7913937"><ele>696.3933333333334</ele><time>2025-04-13T22:17:22Z</time></trkpt><trkpt lat="33.6501131" lon="132.7913408"><ele>689.1266666666667</ele><time>2025-04-13T22:17:44Z</time></trkpt><trkpt lat="33.649938" lon="132.7912503"><ele>679.85</ele><time>2025-04-13T22:18:29Z</time></trkpt><trkpt lat="33.6497434" lon="132.7912752"><ele>669.7933333333334</ele><time>2025-04-13T22:19:38Z</time></trkpt><trkpt lat="33.6495652" lon="132.7911671"><ele>660.7600000000001</ele><time>2025-04-13T22:20:41Z</time></trkpt><trkpt lat="33.6493818" lon="132.791106"><ele>652.4133333333333</ele><time>2025-04-13T22:21:11Z</time></trkpt><trkpt lat="33.649198" lon="132.7911087"><ele>644.9766666666667</ele><time>2025-04-13T22:21:35Z</time></trkpt><trkpt lat="33.649001" lon="132.7911324"><ele>637.4333333333334</ele><time>2025-04-13T22:21:59Z</time></trkpt><trkpt lat="33.6491254" lon="132.7913458"><ele>630.33</ele><time>2025-04-13T22:23:08Z</time></trkpt><trkpt lat="33.6492235" lon="132.7915728"><ele>624.4033333333333</ele><time>2025-04-13T22:23:22Z</time></trkpt><trkpt lat="33.6490277" lon="132.791537"><ele>617.0666666666667</ele><time>2025-04-13T22:23:40Z</time></trkpt><trkpt lat="33.6488714" lon="132.7913861"><ele>614.2866666666667</ele><time>2025-04-13T22:23:58Z</time></trkpt><trkpt lat="33.6486541" lon="132.7913668"><ele>610.9133333333334</ele><time>2025-04-13T22:24:14Z</time></trkpt><trkpt lat="33.6484504" lon="132.791316"><ele>610.5300000000001</ele><time>2025-04-13T22:24:29Z</time></trkpt><trkpt lat="33.6485949" lon="132.7914525"><ele>606.6166666666667</ele><time>2025-04-13T22:25:11Z</time></trkpt><trkpt lat="33.648739" lon="132.7916242"><ele>603.0533333333333</ele><time>2025-04-13T22:25:26Z</time></trkpt><trkpt lat="33.6485565" lon="132.7916008"><ele>598.2266666666667</ele><time>2025-04-13T22:25:49Z</time></trkpt><trkpt lat="33.6483767" lon="132.7914692"><ele>596.5233333333334</ele><time>2025-04-13T22:26:05Z</time></trkpt><trkpt lat="33.648311" lon="132.7912289"><ele>598.9533333333334</ele><time>2025-04-13T22:26:17Z</time></trkpt><trkpt lat="33.6481253" lon="132.7911236"><ele>601.6533333333333</ele><time>2025-04-13T22:26:32Z</time></trkpt><trkpt lat="33.6479553" lon="132.7912726"><ele>600.5533333333334</ele><time>2025-04-13T22:26:44Z</time></trkpt><trkpt lat="33.647765" lon="132.791403"><ele>596.2366666666667</ele><time>2025-04-13T22:26:58Z</time></trkpt><trkpt lat="33.6476442" lon="132.7915907"><ele>590.5666666666667</ele><time>2025-04-13T22:27:13Z</time></trkpt><trkpt lat="33.6475289" lon="132.7917813"><ele>585.2933333333334</ele><time>2025-04-13T22:27:25Z</time></trkpt><trkpt lat="33.6473648" lon="132.7918956"><ele>580.6566666666666</ele><time>2025-04-13T22:27:40Z</time></trkpt><trkpt lat="33.6472139" lon="132.7920441"><ele>576.2866666666667</ele><time>2025-04-13T22:27:55Z</time></trkpt><trkpt lat="33.6474075" lon="132.7920619"><ele>572.1966666666667</ele><time>2025-04-13T22:28:17Z</time></trkpt><trkpt lat="33.6475885" lon="132.7920862"><ele>565.7733333333333</ele><time>2025-04-13T22:28:29Z</time></trkpt><trkpt lat="33.6477691" lon="132.7920561"><ele>560.75</ele><time>2025-04-13T22:28:41Z</time></trkpt><trkpt lat="33.6479072" lon="132.7918995"><ele>560.03</ele><time>2025-04-13T22:28:56Z</time></trkpt><trkpt lat="33.6480666" lon="132.791789"><ele>562.9300000000001</ele><time>2025-04-13T22:29:11Z</time></trkpt><trkpt lat="33.6482511" lon="132.7917927"><ele>567.89</ele><time>2025-04-13T22:29:38Z</time></trkpt><trkpt lat="33.6483756" lon="132.791984"><ele>568.0266666666666</ele><time>2025-04-13T22:29:56Z</time></trkpt><trkpt lat="33.6482125" lon="132.792091"><ele>563.57</ele><time>2025-04-13T22:32:23Z</time></trkpt><trkpt lat="33.648322" lon="132.7923174"><ele>552.2033333333334</ele><time>2025-04-13T22:32:38Z</time></trkpt><trkpt lat="33.6483903" lon="132.7925179"><ele>542.5300000000001</ele><time>2025-04-13T22:32:57Z</time></trkpt><trkpt lat="33.6482367" lon="132.7927085"><ele>536.1366666666667</ele><time>2025-04-13T22:33:14Z</time></trkpt><trkpt lat="33.6481164" lon="132.7929299"><ele>531.9533333333334</ele><time>2025-04-13T22:33:29Z</time></trkpt><trkpt lat="33.6480417" lon="132.7931299"><ele>526.2166666666667</ele><time>2025-04-13T22:33:44Z</time></trkpt><trkpt lat="33.6481114" lon="132.7933599"><ele>522.0866666666667</ele><time>2025-04-13T22:33:59Z</time></trkpt><trkpt lat="33.6482662" lon="132.793525"><ele>521.9033333333333</ele><time>2025-04-13T22:34:14Z</time></trkpt><trkpt lat="33.648415" lon="132.7936824"><ele>525.5933333333334</ele><time>2025-04-13T22:34:28Z</time></trkpt><trkpt lat="33.6483759" lon="132.7939176"><ele>526.8366666666667</ele><time>2025-04-13T22:34:44Z</time></trkpt><trkpt lat="33.6482249" lon="132.7940445"><ele>524.67</ele><time>2025-04-13T22:34:59Z</time></trkpt><trkpt lat="33.6482087" lon="132.7942725"><ele>518.7766666666666</ele><time>2025-04-13T22:35:17Z</time></trkpt><trkpt lat="33.6483601" lon="132.7944502"><ele>511.74666666666667</ele><time>2025-04-13T22:35:35Z</time></trkpt><trkpt lat="33.6485421" lon="132.7944263"><ele>506.82666666666665</ele><time>2025-04-13T22:35:50Z</time></trkpt><trkpt lat="33.6487329" lon="132.7943275"><ele>502.41333333333336</ele><time>2025-04-13T22:36:05Z</time></trkpt><trkpt lat="33.6489446" lon="132.7943349"><ele>500.8933333333334</ele><time>2025-04-13T22:36:20Z</time></trkpt><trkpt lat="33.6490835" lon="132.7945212"><ele>500.65333333333336</ele><time>2025-04-13T22:36:35Z</time></trkpt><trkpt lat="33.6491306" lon="132.7947434"><ele>500.81</ele><time>2025-04-13T22:36:53Z</time></trkpt><trkpt lat="33.6491302" lon="132.7949795"><ele>498.98333333333335</ele><time>2025-04-13T22:37:14Z</time></trkpt><trkpt lat="33.6492619" lon="132.7951844"><ele>496.73333333333335</ele><time>2025-04-13T22:37:32Z</time></trkpt><trkpt lat="33.6494463" lon="132.7952237"><ele>498.64000000000004</ele><time>2025-04-13T22:42:32Z</time></trkpt><trkpt lat="33.6493364" lon="132.7954642"><ele>498.49</ele><time>2025-04-13T22:42:44Z</time></trkpt><trkpt lat="33.6491871" lon="132.7956037"><ele>498.1233333333334</ele><time>2025-04-13T22:42:56Z</time></trkpt><trkpt lat="33.6490624" lon="132.795786"><ele>494.7866666666667</ele><time>2025-04-13T22:43:19Z</time></trkpt><trkpt lat="33.6490181" lon="132.796013"><ele>494.25</ele><time>2025-04-13T22:43:35Z</time></trkpt><trkpt lat="33.649171" lon="132.7961391"><ele>494.2733333333333</ele><time>2025-04-13T22:43:50Z</time></trkpt><trkpt lat="33.6492539" lon="132.796356"><ele>492.9066666666667</ele><time>2025-04-13T22:44:07Z</time></trkpt><trkpt lat="33.6493112" lon="132.7965824"><ele>491.7033333333334</ele><time>2025-04-13T22:44:22Z</time></trkpt><trkpt lat="33.6492733" lon="132.796801"><ele>488.5366666666667</ele><time>2025-04-13T22:44:38Z</time></trkpt><trkpt lat="33.6492211" lon="132.7970097"><ele>487.5</ele><time>2025-04-13T22:44:56Z</time></trkpt><trkpt lat="33.6491683" lon="132.7972265"><ele>486.3833333333334</ele><time>2025-04-13T22:45:11Z</time></trkpt><trkpt lat="33.6491709" lon="132.7974493"><ele>487.8066666666667</ele><time>2025-04-13T22:45:24Z</time></trkpt><trkpt lat="33.6493051" lon="132.7976276"><ele>486.71000000000004</ele><time>2025-04-13T22:45:36Z</time></trkpt><trkpt lat="33.6495149" lon="132.7976656"><ele>483.73333333333335</ele><time>2025-04-13T22:45:51Z</time></trkpt><trkpt lat="33.6497253" lon="132.7976413"><ele>477.7533333333334</ele><time>2025-04-13T22:46:06Z</time></trkpt><trkpt lat="33.6499016" lon="132.7975683"><ele>473.17</ele><time>2025-04-13T22:46:21Z</time></trkpt><trkpt lat="33.6500771" lon="132.7974713"><ele>467.43</ele><time>2025-04-13T22:46:36Z</time></trkpt><trkpt lat="33.6501336" lon="132.7972263"><ele>469.83</ele><time>2025-04-13T22:46:51Z</time></trkpt><trkpt lat="33.6502429" lon="132.7970098"><ele>473.98333333333335</ele><time>2025-04-13T22:47:07Z</time></trkpt><trkpt lat="33.6504266" lon="132.7970372"><ele>481.99666666666667</ele><time>2025-04-13T22:47:19Z</time></trkpt><trkpt lat="33.6506288" lon="132.7970967"><ele>480.8333333333333</ele><time>2025-04-13T22:47:34Z</time></trkpt><trkpt lat="33.6508159" lon="132.7971646"><ele>477.1366666666666</ele><time>2025-04-13T22:47:49Z</time></trkpt><trkpt lat="33.6509484" lon="132.797365"><ele>478.56</ele><time>2025-04-13T22:48:07Z</time></trkpt><trkpt lat="33.6509232" lon="132.7976077"><ele>483.07</ele><time>2025-04-13T22:48:23Z</time></trkpt><trkpt lat="33.650877" lon="132.7978201"><ele>485.58</ele><time>2025-04-13T22:48:38Z</time></trkpt><trkpt lat="33.6509085" lon="132.7980497"><ele>481.4566666666667</ele><time>2025-04-13T22:48:56Z</time></trkpt><trkpt lat="33.6510153" lon="132.7982263"><ele>476.21999999999997</ele><time>2025-04-13T22:49:11Z</time></trkpt><trkpt lat="33.6512219" lon="132.7983104"><ele>473.5733333333333</ele><time>2025-04-13T22:49:24Z</time></trkpt><trkpt lat="33.6513813" lon="132.7984216"><ele>471.4866666666667</ele><time>2025-04-13T22:49:36Z</time></trkpt><trkpt lat="33.6515533" lon="132.7984909"><ele>469.60999999999996</ele><time>2025-04-13T22:49:51Z</time></trkpt><trkpt lat="33.6517345" lon="132.7985449"><ele>464.49333333333334</ele><time>2025-04-13T22:50:06Z</time></trkpt><trkpt lat="33.6519299" lon="132.7984267"><ele>458.4533333333334</ele><time>2025-04-13T22:50:24Z</time></trkpt><trkpt lat="33.6520709" lon="132.798236"><ele>455.6933333333333</ele><time>2025-04-13T22:50:39Z</time></trkpt><trkpt lat="33.6522618" lon="132.7982348"><ele>458.00333333333333</ele><time>2025-04-13T22:50:55Z</time></trkpt><trkpt lat="33.6524095" lon="132.7984181"><ele>460.77</ele><time>2025-04-13T22:51:13Z</time></trkpt><trkpt lat="33.6525014" lon="132.7986314"><ele>459.4733333333333</ele><time>2025-04-13T22:51:31Z</time></trkpt><trkpt lat="33.6526061" lon="132.7988095"><ele>454.12000000000006</ele><time>2025-04-13T22:51:46Z</time></trkpt><trkpt lat="33.652806" lon="132.798703"><ele>449.74666666666667</ele><time>2025-04-13T22:52:04Z</time></trkpt><trkpt lat="33.6529819" lon="132.7985429"><ele>448.7266666666667</ele><time>2025-04-13T22:52:22Z</time></trkpt><trkpt lat="33.6531711" lon="132.7984852"><ele>450.91333333333336</ele><time>2025-04-13T22:52:34Z</time></trkpt><trkpt lat="33.6533638" lon="132.7985476"><ele>454.23</ele><time>2025-04-13T22:52:45Z</time></trkpt><trkpt lat="33.6535182" lon="132.7986889"><ele>455.3966666666667</ele><time>2025-04-13T22:53:00Z</time></trkpt><trkpt lat="33.6535709" lon="132.7989288"><ele>451.5466666666667</ele><time>2025-04-13T22:53:12Z</time></trkpt><trkpt lat="33.6537294" lon="132.7990438"><ele>444.16</ele><time>2025-04-13T22:53:27Z</time></trkpt><trkpt lat="33.6539228" lon="132.7989902"><ele>438.3933333333334</ele><time>2025-04-13T22:53:42Z</time></trkpt><trkpt lat="33.6541355" lon="132.7989779"><ele>435.22333333333336</ele><time>2025-04-13T22:53:57Z</time></trkpt><trkpt lat="33.6543511" lon="132.7988929"><ele>434.6933333333334</ele><time>2025-04-13T22:54:13Z</time></trkpt><trkpt lat="33.6545305" lon="132.798866"><ele>433.62000000000006</ele><time>2025-04-13T22:54:24Z</time></trkpt><trkpt lat="33.6547217" lon="132.7989293"><ele>431.86000000000007</ele><time>2025-04-13T22:54:37Z</time></trkpt><trkpt lat="33.6548971" lon="132.7988285"><ele>431.1033333333333</ele><time>2025-04-13T22:54:52Z</time></trkpt><trkpt lat="33.6550602" lon="132.7986766"><ele>431.62999999999994</ele><time>2025-04-13T22:55:07Z</time></trkpt><trkpt lat="33.6552058" lon="132.7985257"><ele>434.29333333333335</ele><time>2025-04-13T22:55:19Z</time></trkpt><trkpt lat="33.6553009" lon="132.7983339"><ele>434.78999999999996</ele><time>2025-04-13T22:55:31Z</time></trkpt><trkpt lat="33.6553876" lon="132.7981162"><ele>433.7166666666667</ele><time>2025-04-13T22:55:43Z</time></trkpt><trkpt lat="33.6555574" lon="132.7980253"><ele>430.97</ele><time>2025-04-13T22:55:58Z</time></trkpt><trkpt lat="33.6557713" lon="132.7980582"><ele>429.73333333333335</ele><time>2025-04-13T22:56:13Z</time></trkpt><trkpt lat="33.6559523" lon="132.7981325"><ele>426.1566666666667</ele><time>2025-04-13T22:56:25Z</time></trkpt><trkpt lat="33.6561725" lon="132.7982023"><ele>422.6766666666667</ele><time>2025-04-13T22:56:44Z</time></trkpt><trkpt lat="33.6563676" lon="132.7982603"><ele>420.3533333333333</ele><time>2025-04-13T22:56:59Z</time></trkpt><trkpt lat="33.6565661" lon="132.7983287"><ele>418.17333333333335</ele><time>2025-04-13T22:57:17Z</time></trkpt><trkpt lat="33.6567691" lon="132.7982487"><ele>415.0533333333333</ele><time>2025-04-13T22:57:34Z</time></trkpt><trkpt lat="33.656965" lon="132.7981711"><ele>407.32</ele><time>2025-04-13T22:57:50Z</time></trkpt><trkpt lat="33.6570737" lon="132.7979829"><ele>400.75333333333333</ele><time>2025-04-13T22:58:02Z</time></trkpt><trkpt lat="33.6571308" lon="132.7977316"><ele>399.22333333333336</ele><time>2025-04-13T22:58:17Z</time></trkpt><trkpt lat="33.6571912" lon="132.7975182"><ele>400.19000000000005</ele><time>2025-04-13T22:58:29Z</time></trkpt><trkpt lat="33.6572136" lon="132.7972546"><ele>401.88000000000005</ele><time>2025-04-13T22:58:44Z</time></trkpt><trkpt lat="33.6573339" lon="132.7970644"><ele>399.55</ele><time>2025-04-13T22:58:56Z</time></trkpt><trkpt lat="33.6572993" lon="132.7968494"><ele>397.9766666666667</ele><time>2025-04-13T22:59:08Z</time></trkpt><trkpt lat="33.6573808" lon="132.796637"><ele>399.1266666666667</ele><time>2025-04-13T22:59:23Z</time></trkpt><trkpt lat="33.6575713" lon="132.796572"><ele>400.47333333333336</ele><time>2025-04-13T22:59:38Z</time></trkpt><trkpt lat="33.6577389" lon="132.7964559"><ele>403.22333333333336</ele><time>2025-04-13T22:59:53Z</time></trkpt><trkpt lat="33.6578989" lon="132.796328"><ele>404.6933333333333</ele><time>2025-04-13T23:00:09Z</time></trkpt><trkpt lat="33.6580944" lon="132.7963213"><ele>408.29333333333335</ele><time>2025-04-13T23:00:24Z</time></trkpt><trkpt lat="33.6582679" lon="132.7963862"><ele>409.28000000000003</ele><time>2025-04-13T23:00:39Z</time></trkpt><trkpt lat="33.6584838" lon="132.7963726"><ele>411.5733333333333</ele><time>2025-04-13T23:00:57Z</time></trkpt><trkpt lat="33.6586716" lon="132.7964088"><ele>411.05999999999995</ele><time>2025-04-13T23:01:15Z</time></trkpt><trkpt lat="33.6586415" lon="132.7961605"><ele>411.3566666666666</ele><time>2025-04-13T23:01:49Z</time></trkpt><trkpt lat="33.6585252" lon="132.7959638"><ele>410.37000000000006</ele><time>2025-04-13T23:02:01Z</time></trkpt><trkpt lat="33.6583868" lon="132.7958093"><ele>414.2966666666666</ele><time>2025-04-13T23:02:16Z</time></trkpt><trkpt lat="33.6585527" lon="132.7957193"><ele>419.12000000000006</ele><time>2025-04-13T23:02:34Z</time></trkpt><trkpt lat="33.6587566" lon="132.7957137"><ele>421.34</ele><time>2025-04-13T23:02:49Z</time></trkpt><trkpt lat="33.6589021" lon="132.7955833"><ele>422.29</ele><time>2025-04-13T23:03:05Z</time></trkpt><trkpt lat="33.6590893" lon="132.795689"><ele>420.8433333333334</ele><time>2025-04-13T23:03:26Z</time></trkpt><trkpt lat="33.659251" lon="132.7957875"><ele>417.4133333333334</ele><time>2025-04-13T23:03:41Z</time></trkpt><trkpt lat="33.6594234" lon="132.7957111"><ele>413.95666666666665</ele><time>2025-04-13T23:03:52Z</time></trkpt><trkpt lat="33.6596149" lon="132.7957478"><ele>412.3066666666667</ele><time>2025-04-13T23:04:07Z</time></trkpt><trkpt lat="33.6597811" lon="132.795888"><ele>410.3066666666667</ele><time>2025-04-13T23:04:22Z</time></trkpt><trkpt lat="33.6595928" lon="132.7958595"><ele>408.82666666666665</ele><time>2025-04-13T23:04:46Z</time></trkpt><trkpt lat="33.659566" lon="132.7960839"><ele>402.58666666666664</ele><time>2025-04-13T23:05:06Z</time></trkpt><trkpt lat="33.6597556" lon="132.7961789"><ele>399.2766666666667</ele><time>2025-04-13T23:05:24Z</time></trkpt><trkpt lat="33.6599341" lon="132.7961481"><ele>392.6333333333334</ele><time>2025-04-13T23:05:39Z</time></trkpt><trkpt lat="33.6601302" lon="132.7960884"><ele>390.28000000000003</ele><time>2025-04-13T23:05:57Z</time></trkpt></trkseg></trk></gpx>