<?xml version='1.0' encoding='UTF-8'?><gpx creator="Yama Museum Peak Annotator" xsi:schemaLocation="http://www.topografix.com/GPX/1/1 http://www.topografix.com/GPX/1/1/gpx.xsd" version="1.1" xmlns="http://www.topografix.com/GPX/1/1" xmlns:xsi="http://www.w3.org/2001/XMLSchema-instance"><metadata><bounds maxlat="33.7313324" maxlon="132.9309531" minlat="33.7239812" minlon="132.9066206"/></metadata>  <wpt lat="33.7260215" lon="132.9136819">
    <ele>1203.3533333333332</ele>
    <name>前々司山</name>
    <desc>Peak detected at 1203m (prominence: 62m)</desc>
    <sym>Summit</sym>
  </wpt>
  <wpt lat="33.7306327" lon="132.9237927">
    <ele>1250.17</ele>
    <name>うなめご</name>
    <desc>Peak detected at 1250m (prominence: 44m)</desc>
    <sym>Summit</sym>
  </wpt>
  <wpt lat="33.7301727" lon="132.9307483">
    <ele>1276.53</ele>
    <name>Peak (1277m)</name>
    <desc>Peak detected at 1277m (prominence: 237m)</desc>
    <sym>Summit</sym>
  </wpt>
<trk><name>陣ヶ森・前々司山・うなめご</name><number>1</number><trkseg><trkpt lat="33.7240248" lon="132.907509"><ele>1031.07</ele><time>2022-05-05T04:29:53Z</time></trkpt><trkpt lat="33.7240864" lon="132.9072972"><ele>1034.065</ele><time>2022-05-05T04:30:48Z</time></trkpt><trkpt lat="33.7241527" lon="132.9075013"><ele>1033.44</ele><time>2022-05-05T04:32:22Z</time></trkpt><trkpt lat="33.7243223" lon="132.9074043"><ele>1036.9333333333334</ele><time>2022-05-05T04:32:35Z</time></trkpt><trkpt lat="33.724478" lon="132.9072637"><ele>1039.97</ele><time>2022-05-05T04:32:51Z</time></trkpt><trkpt lat="33.7246279" lon="132.9071398"><ele>1043.6366666666668</ele><time>2022-05-05T04:33:03Z</time></trkpt><trkpt lat="33.7247484" lon="132.9069651"><ele>1045.69</ele><time>2022-05-05T04:33:17Z</time></trkpt><trkpt lat="33.7248789" lon="132.9071347"><ele>1045.36</ele><time>2022-05-05T04:33:39Z</time></trkpt><trkpt lat="33.7248598" lon="132.9073682"><ele>1045.1900000000003</ele><time>2022-05-05T04:33:50Z</time></trkpt><trkpt lat="33.7249523" lon="132.9075559"><ele>1043.9066666666668</ele><time>2022-05-05T04:34:02Z</time></trkpt><trkpt lat="33.725135" lon="132.9076045"><ele>1043.3500000000001</ele><time>2022-05-05T04:34:14Z</time></trkpt><trkpt lat="33.7253077" lon="132.9075297"><ele>1044.37</ele><time>2022-05-05T04:34:29Z</time></trkpt><trkpt lat="33.7254762" lon="132.9074456"><ele>1046.36</ele><time>2022-05-05T04:34:44Z</time></trkpt><trkpt lat="33.7256514" lon="132.9073901"><ele>1047.56</ele><time>2022-05-05T04:35:07Z</time></trkpt><trkpt lat="33.7258003" lon="132.9072608"><ele>1049.38</ele><time>2022-05-05T04:35:20Z</time></trkpt><trkpt lat="33.7259583" lon="132.9071511"><ele>1049.7233333333336</ele><time>2022-05-05T04:35:31Z</time></trkpt><trkpt lat="33.726134" lon="132.9072076"><ele>1052.5900000000001</ele><time>2022-05-05T04:35:52Z</time></trkpt><trkpt lat="33.72609" lon="132.9074203"><ele>1053.61</ele><time>2022-05-05T04:36:01Z</time></trkpt><trkpt lat="33.7260878" lon="132.9076381"><ele>1056.0433333333333</ele><time>2022-05-05T04:36:13Z</time></trkpt><trkpt lat="33.7259697" lon="132.9078053"><ele>1055.8333333333333</ele><time>2022-05-05T04:36:34Z</time></trkpt><trkpt lat="33.7260423" lon="132.9080075"><ele>1057.2766666666666</ele><time>2022-05-05T04:36:51Z</time></trkpt><trkpt lat="33.7262208" lon="132.9079359"><ele>1058.2233333333334</ele><time>2022-05-05T04:37:06Z</time></trkpt><trkpt lat="33.7263374" lon="132.9077648"><ele>1061.11</ele><time>2022-05-05T04:37:19Z</time></trkpt><trkpt lat="33.7264458" lon="132.9075825"><ele>1063.4666666666665</ele><time>2022-05-05T04:37:32Z</time></trkpt><trkpt lat="33.7265985" lon="132.9074617"><ele>1065.38</ele><time>2022-05-05T04:37:49Z</time></trkpt><trkpt lat="33.726739" lon="132.907602"><ele>1066.64</ele><time>2022-05-05T04:38:05Z</time></trkpt><trkpt lat="33.7269324" lon="132.9076285"><ele>1067.8300000000002</ele><time>2022-05-05T04:38:18Z</time></trkpt><trkpt lat="33.7271005" lon="132.9075445"><ele>1069.5133333333333</ele><time>2022-05-05T04:38:31Z</time></trkpt><trkpt lat="33.7272659" lon="132.9076317"><ele>1073.4933333333333</ele><time>2022-05-05T04:38:52Z</time></trkpt><trkpt lat="33.727188" lon="132.9078323"><ele>1077.7833333333333</ele><time>2022-05-05T04:39:09Z</time></trkpt><trkpt lat="33.7270449" lon="132.9079662"><ele>1081.07</ele><time>2022-05-05T04:39:22Z</time></trkpt><trkpt lat="33.7270103" lon="132.9081859"><ele>1082.6566666666668</ele><time>2022-05-05T04:39:34Z</time></trkpt><trkpt lat="33.7270808" lon="132.9083857"><ele>1083.5633333333333</ele><time>2022-05-05T04:39:50Z</time></trkpt><trkpt lat="33.7272441" lon="132.9084853"><ele>1084.76</ele><time>2022-05-05T04:40:08Z</time></trkpt><trkpt lat="33.7274267" lon="132.9084888"><ele>1089.3500000000001</ele><time>2022-05-05T04:40:22Z</time></trkpt><trkpt lat="33.7275648" lon="132.9086297"><ele>1096.54</ele><time>2022-05-05T04:40:37Z</time></trkpt><trkpt lat="33.7274837" lon="132.9088229"><ele>1103.9466666666667</ele><time>2022-05-05T04:40:49Z</time></trkpt><trkpt lat="33.7274374" lon="132.9090342"><ele>1105.8033333333335</ele><time>2022-05-05T04:41:03Z</time></trkpt><trkpt lat="33.7274244" lon="132.9092517"><ele>1105.84</ele><time>2022-05-05T04:41:17Z</time></trkpt><trkpt lat="33.727505" lon="132.9094501"><ele>1107.22</ele><time>2022-05-05T04:41:34Z</time></trkpt><trkpt lat="33.7275371" lon="132.9096707"><ele>1110.3700000000001</ele><time>2022-05-05T04:41:52Z</time></trkpt><trkpt lat="33.7274342" lon="132.9098538"><ele>1112.2133333333334</ele><time>2022-05-05T04:42:06Z</time></trkpt><trkpt lat="33.7274589" lon="132.9100722"><ele>1112.0866666666668</ele><time>2022-05-05T04:42:20Z</time></trkpt><trkpt lat="33.7275076" lon="132.9102893"><ele>1111.9633333333334</ele><time>2022-05-05T04:42:36Z</time></trkpt><trkpt lat="33.7275612" lon="132.9105027"><ele>1113.2333333333333</ele><time>2022-05-05T04:42:48Z</time></trkpt><trkpt lat="33.7276068" lon="132.9107223"><ele>1115.8266666666666</ele><time>2022-05-05T04:43:25Z</time></trkpt><trkpt lat="33.7274883" lon="132.9108954"><ele>1118.19</ele><time>2022-05-05T04:43:36Z</time></trkpt><trkpt lat="33.7274163" lon="132.9110979"><ele>1120.3433333333332</ele><time>2022-05-05T04:43:49Z</time></trkpt><trkpt lat="33.7274242" lon="132.9113181"><ele>1123.4233333333332</ele><time>2022-05-05T04:44:03Z</time></trkpt><trkpt lat="33.7272658" lon="132.9114333"><ele>1123.88</ele><time>2022-05-05T04:44:18Z</time></trkpt><trkpt lat="33.7271185" lon="132.911559"><ele>1123.1000000000001</ele><time>2022-05-05T04:44:32Z</time></trkpt><trkpt lat="33.7269437" lon="132.9116356"><ele>1120.1266666666668</ele><time>2022-05-05T04:44:46Z</time></trkpt><trkpt lat="33.7268099" lon="132.9114835"><ele>1120.2566666666664</ele><time>2022-05-05T04:45:01Z</time></trkpt><trkpt lat="33.7267736" lon="132.9112656"><ele>1120.0266666666666</ele><time>2022-05-05T04:45:13Z</time></trkpt><trkpt lat="33.7266384" lon="132.9111134"><ele>1120.3000000000002</ele><time>2022-05-05T04:45:26Z</time></trkpt><trkpt lat="33.7264583" lon="132.9110654"><ele>1121.77</ele><time>2022-05-05T04:45:42Z</time></trkpt><trkpt lat="33.7265813" lon="132.9112288"><ele>1126.48</ele><time>2022-05-05T04:46:22Z</time></trkpt><trkpt lat="33.7267223" lon="132.9113794"><ele>1128.9633333333334</ele><time>2022-05-05T04:46:41Z</time></trkpt><trkpt lat="33.7267343" lon="132.9116026"><ele>1130.1966666666667</ele><time>2022-05-05T04:46:54Z</time></trkpt><trkpt lat="33.7267266" lon="132.9118207"><ele>1130.8266666666666</ele><time>2022-05-05T04:47:07Z</time></trkpt><trkpt lat="33.7267583" lon="132.912038"><ele>1135.5333333333335</ele><time>2022-05-05T04:47:23Z</time></trkpt><trkpt lat="33.7266008" lon="132.9119285"><ele>1141.0166666666667</ele><time>2022-05-05T04:47:49Z</time></trkpt><trkpt lat="33.7265833" lon="132.9117118"><ele>1142.5666666666668</ele><time>2022-05-05T04:48:00Z</time></trkpt><trkpt lat="33.7264568" lon="132.9118659"><ele>1144.6833333333332</ele><time>2022-05-05T04:48:24Z</time></trkpt><trkpt lat="33.7264592" lon="132.9121002"><ele>1147.0566666666666</ele><time>2022-05-05T04:48:37Z</time></trkpt><trkpt lat="33.7263584" lon="132.9122906"><ele>1153.4966666666667</ele><time>2022-05-05T04:48:56Z</time></trkpt><trkpt lat="33.7263024" lon="132.9125183"><ele>1159.41</ele><time>2022-05-05T04:49:13Z</time></trkpt><trkpt lat="33.7262662" lon="132.9127304"><ele>1164.4533333333331</ele><time>2022-05-05T04:49:28Z</time></trkpt><trkpt lat="33.7260845" lon="132.9127748"><ele>1167.1833333333334</ele><time>2022-05-05T04:50:43Z</time></trkpt><trkpt lat="33.7259099" lon="132.9128734"><ele>1168.5733333333335</ele><time>2022-05-05T04:50:58Z</time></trkpt><trkpt lat="33.7257901" lon="132.9130395"><ele>1174.3100000000002</ele><time>2022-05-05T04:51:13Z</time></trkpt><trkpt lat="33.7256421" lon="132.9131724"><ele>1181.0033333333333</ele><time>2022-05-05T04:51:55Z</time></trkpt><trkpt lat="33.7255711" lon="132.9133736"><ele>1189.87</ele><time>2022-05-05T04:52:09Z</time></trkpt><trkpt lat="33.7255838" lon="132.913589"><ele>1194.42</ele><time>2022-05-05T04:52:29Z</time></trkpt><trkpt lat="33.7255529" lon="132.9133751"><ele>1196.2266666666667</ele><time>2022-05-05T04:52:46Z</time></trkpt><trkpt lat="33.7257106" lon="132.9132601"><ele>1195.4966666666667</ele><time>2022-05-05T04:53:23Z</time></trkpt><trkpt lat="33.7258865" lon="132.9132036"><ele>1194.3233333333335</ele><time>2022-05-05T04:53:36Z</time></trkpt><trkpt lat="33.7260384" lon="132.91333"><ele>1195.6133333333335</ele><time>2022-05-05T04:53:51Z</time></trkpt><trkpt lat="33.7261131" lon="132.9135265"><ele>1197.3333333333333</ele><time>2022-05-05T04:54:29Z</time></trkpt><trkpt lat="33.7262737" lon="132.913628"><ele>1199.0633333333333</ele><time>2022-05-05T04:54:43Z</time></trkpt><trkpt lat="33.7264609" lon="132.9135879"><ele>1200.2299999999998</ele><time>2022-05-05T04:55:01Z</time></trkpt><trkpt lat="33.726603" lon="132.913455"><ele>1199.8999999999999</ele><time>2022-05-05T04:55:16Z</time></trkpt><trkpt lat="33.7267191" lon="132.9132869"><ele>1197.9266666666665</ele><time>2022-05-05T04:55:46Z</time></trkpt><trkpt lat="33.726731" lon="132.9135072"><ele>1195.5133333333333</ele><time>2022-05-05T04:56:19Z</time></trkpt><trkpt lat="33.7266292" lon="132.9136969"><ele>1194.45</ele><time>2022-05-05T04:56:33Z</time></trkpt><trkpt lat="33.7264818" lon="132.9138248"><ele>1194.51</ele><time>2022-05-05T04:56:47Z</time></trkpt><trkpt lat="33.7263216" lon="132.9139277"><ele>1194.12</ele><time>2022-05-05T04:56:59Z</time></trkpt><trkpt lat="33.7261832" lon="132.9137863"><ele>1196.0166666666667</ele><time>2022-05-05T04:57:31Z</time></trkpt><trkpt lat="33.7260255" lon="132.9136764"><ele>1198.8966666666668</ele><time>2022-05-05T04:57:50Z</time></trkpt><trkpt lat="33.7259085" lon="132.913512"><ele>1202.46</ele><time>2022-05-05T04:58:06Z</time></trkpt><trkpt lat="33.7260215" lon="132.9136819"><ele>1203.3533333333332</ele><time>2022-05-05T05:00:25Z</time></trkpt><trkpt lat="33.7261856" lon="132.913796"><ele>1202.46</ele><time>2022-05-05T05:00:33Z</time></trkpt><trkpt lat="33.7263705" lon="132.9138934"><ele>1198.7966666666666</ele><time>2022-05-05T05:00:47Z</time></trkpt><trkpt lat="33.7264994" lon="132.9140502"><ele>1193.0533333333333</ele><time>2022-05-05T05:01:03Z</time></trkpt><trkpt lat="33.7266828" lon="132.9140698"><ele>1185.1866666666667</ele><time>2022-05-05T05:01:33Z</time></trkpt><trkpt lat="33.7268118" lon="132.9142225"><ele>1177.8333333333333</ele><time>2022-05-05T05:02:06Z</time></trkpt><trkpt lat="33.726987" lon="132.9142754"><ele>1169.2566666666667</ele><time>2022-05-05T05:02:37Z</time></trkpt><trkpt lat="33.7270826" lon="132.9144652"><ele>1163.2333333333333</ele><time>2022-05-05T05:02:56Z</time></trkpt><trkpt lat="33.7271485" lon="132.9146797"><ele>1159.7</ele><time>2022-05-05T05:03:07Z</time></trkpt><trkpt lat="33.7271968" lon="132.914892"><ele>1158.16</ele><time>2022-05-05T05:03:20Z</time></trkpt><trkpt lat="33.7272961" lon="132.9150756"><ele>1156.3866666666668</ele><time>2022-05-05T05:03:31Z</time></trkpt><trkpt lat="33.7274096" lon="132.9152496"><ele>1153.3999999999999</ele><time>2022-05-05T05:03:48Z</time></trkpt><trkpt lat="33.7275087" lon="132.9154307"><ele>1149.9233333333334</ele><time>2022-05-05T05:04:01Z</time></trkpt><trkpt lat="33.7275612" lon="132.9156465"><ele>1146.0833333333333</ele><time>2022-05-05T05:04:15Z</time></trkpt><trkpt lat="33.7276909" lon="132.9158079"><ele>1143.8866666666668</ele><time>2022-05-05T05:04:38Z</time></trkpt><trkpt lat="33.7278381" lon="132.9159606"><ele>1144.55</ele><time>2022-05-05T05:05:07Z</time></trkpt><trkpt lat="33.7279002" lon="132.9161698"><ele>1147.1433333333334</ele><time>2022-05-05T05:05:22Z</time></trkpt><trkpt lat="33.7279812" lon="132.9163647"><ele>1148.3433333333332</ele><time>2022-05-05T05:05:36Z</time></trkpt><trkpt lat="33.7280331" lon="132.9165791"><ele>1148.4233333333332</ele><time>2022-05-05T05:05:50Z</time></trkpt><trkpt lat="33.7280064" lon="132.9168001"><ele>1147.8333333333333</ele><time>2022-05-05T05:06:05Z</time></trkpt><trkpt lat="33.7280394" lon="132.9170176"><ele>1148.5533333333333</ele><time>2022-05-05T05:06:19Z</time></trkpt><trkpt lat="33.7281471" lon="132.9172048"><ele>1147.1499999999999</ele><time>2022-05-05T05:06:30Z</time></trkpt><trkpt lat="33.728209" lon="132.9174164"><ele>1144.9633333333334</ele><time>2022-05-05T05:06:43Z</time></trkpt><trkpt lat="33.7283323" lon="132.9175781"><ele>1142.3233333333335</ele><time>2022-05-05T05:07:04Z</time></trkpt><trkpt lat="33.7284488" lon="132.9177722"><ele>1141.14</ele><time>2022-05-05T05:07:16Z</time></trkpt><trkpt lat="33.7285132" lon="132.917995"><ele>1140.2533333333333</ele><time>2022-05-05T05:07:31Z</time></trkpt><trkpt lat="33.728538" lon="132.9182156"><ele>1140.0866666666668</ele><time>2022-05-05T05:07:49Z</time></trkpt><trkpt lat="33.7286262" lon="132.918408"><ele>1137.04</ele><time>2022-05-05T05:08:06Z</time></trkpt><trkpt lat="33.7286144" lon="132.9186274"><ele>1138.96</ele><time>2022-05-05T05:08:19Z</time></trkpt><trkpt lat="33.7286301" lon="132.9188444"><ele>1139.0766666666666</ele><time>2022-05-05T05:08:35Z</time></trkpt><trkpt lat="33.7286365" lon="132.9190624"><ele>1142.33</ele><time>2022-05-05T05:08:56Z</time></trkpt><trkpt lat="33.7286456" lon="132.9192816"><ele>1140.5466666666664</ele><time>2022-05-05T05:09:10Z</time></trkpt><trkpt lat="33.7285894" lon="132.9194922"><ele>1141.9333333333334</ele><time>2022-05-05T05:09:25Z</time></trkpt><trkpt lat="33.7285544" lon="132.9197064"><ele>1144.5</ele><time>2022-05-05T05:09:54Z</time></trkpt><trkpt lat="33.7285995" lon="132.9199287"><ele>1147.8500000000001</ele><time>2022-05-05T05:10:11Z</time></trkpt><trkpt lat="33.7286657" lon="132.9201401"><ele>1147.8700000000001</ele><time>2022-05-05T05:10:27Z</time></trkpt><trkpt lat="33.728719" lon="132.920347"><ele>1145.6666666666667</ele><time>2022-05-05T05:10:45Z</time></trkpt><trkpt lat="33.728796" lon="132.9205492"><ele>1143.49</ele><time>2022-05-05T05:11:10Z</time></trkpt><trkpt lat="33.7288614" lon="132.9207559"><ele>1145.7533333333333</ele><time>2022-05-05T05:11:27Z</time></trkpt><trkpt lat="33.7289019" lon="132.9209672"><ele>1151.506666666667</ele><time>2022-05-05T05:11:55Z</time></trkpt><trkpt lat="33.7289657" lon="132.921179"><ele>1157.4233333333334</ele><time>2022-05-05T05:12:36Z</time></trkpt><trkpt lat="33.7290284" lon="132.9213815"><ele>1161.4833333333333</ele><time>2022-05-05T05:12:51Z</time></trkpt><trkpt lat="33.7291797" lon="132.9215"><ele>1163.76</ele><time>2022-05-05T05:13:12Z</time></trkpt><trkpt lat="33.7293594" lon="132.9215441"><ele>1167.89</ele><time>2022-05-05T05:13:39Z</time></trkpt><trkpt lat="33.7294888" lon="132.9216984"><ele>1177.7733333333335</ele><time>2022-05-05T05:14:14Z</time></trkpt><trkpt lat="33.7295282" lon="132.9219127"><ele>1190.0633333333333</ele><time>2022-05-05T05:20:46Z</time></trkpt><trkpt lat="33.7296925" lon="132.9220101"><ele>1202.9566666666667</ele><time>2022-05-05T05:21:06Z</time></trkpt><trkpt lat="33.7298483" lon="132.9221217"><ele>1208.7633333333333</ele><time>2022-05-05T05:21:25Z</time></trkpt><trkpt lat="33.7300168" lon="132.9222447"><ele>1213.7900000000002</ele><time>2022-05-05T05:21:43Z</time></trkpt><trkpt lat="33.730103" lon="132.9224403"><ele>1217.84</ele><time>2022-05-05T05:21:59Z</time></trkpt><trkpt lat="33.7301684" lon="132.9226445"><ele>1225.0733333333335</ele><time>2022-05-05T05:22:57Z</time></trkpt><trkpt lat="33.730217" lon="132.9228566"><ele>1231.7066666666667</ele><time>2022-05-05T05:23:19Z</time></trkpt><trkpt lat="33.7302618" lon="132.9230666"><ele>1238.8166666666666</ele><time>2022-05-05T05:24:09Z</time></trkpt><trkpt lat="33.7302891" lon="132.9232802"><ele>1244.4399999999998</ele><time>2022-05-05T05:24:32Z</time></trkpt><trkpt lat="33.730385" lon="132.9234645"><ele>1248.7033333333334</ele><time>2022-05-05T05:24:47Z</time></trkpt><trkpt lat="33.7305335" lon="132.9236065"><ele>1250.2333333333333</ele><time>2022-05-05T05:25:05Z</time></trkpt><trkpt lat="33.7306327" lon="132.9237927"><ele>1250.17</ele><time>2022-05-05T05:25:20Z</time></trkpt><trkpt lat="33.730773" lon="132.923945"><ele>1247.93</ele><time>2022-05-05T05:25:37Z</time></trkpt><trkpt lat="33.7308949" lon="132.9241098"><ele>1245.3300000000002</ele><time>2022-05-05T05:25:53Z</time></trkpt><trkpt lat="33.7309268" lon="132.9243237"><ele>1244.4433333333334</ele><time>2022-05-05T05:26:09Z</time></trkpt><trkpt lat="33.7310441" lon="132.9244932"><ele>1246.6499999999999</ele><time>2022-05-05T05:26:25Z</time></trkpt><trkpt lat="33.7311388" lon="132.9246777"><ele>1249.22</ele><time>2022-05-05T05:26:38Z</time></trkpt><trkpt lat="33.7311463" lon="132.9249004"><ele>1249.1733333333334</ele><time>2022-05-05T05:30:30Z</time></trkpt><trkpt lat="33.7312552" lon="132.9250884"><ele>1246.8133333333333</ele><time>2022-05-05T05:31:39Z</time></trkpt><trkpt lat="33.7313153" lon="132.925293"><ele>1243.6433333333334</ele><time>2022-05-05T05:31:49Z</time></trkpt><trkpt lat="33.7313324" lon="132.9255083"><ele>1239.8866666666665</ele><time>2022-05-05T05:32:03Z</time></trkpt><trkpt lat="33.7312765" lon="132.9257222"><ele>1236.1200000000001</ele><time>2022-05-05T05:32:15Z</time></trkpt><trkpt lat="33.7311949" lon="132.9259341"><ele>1232.78</ele><time>2022-05-05T05:32:35Z</time></trkpt><trkpt lat="33.7311328" lon="132.9261511"><ele>1231.1200000000001</ele><time>2022-05-05T05:33:13Z</time></trkpt><trkpt lat="33.7311223" lon="132.9263766"><ele>1229.8433333333332</ele><time>2022-05-05T05:33:28Z</time></trkpt><trkpt lat="33.7310549" lon="132.9265807"><ele>1228.1933333333334</ele><time>2022-05-05T05:33:41Z</time></trkpt><trkpt lat="33.7309595" lon="132.9267657"><ele>1224.9099999999999</ele><time>2022-05-05T05:33:54Z</time></trkpt><trkpt lat="33.7310787" lon="132.9269283"><ele>1221.9966666666667</ele><time>2022-05-05T05:34:43Z</time></trkpt><trkpt lat="33.731148" lon="132.9271452"><ele>1217.92</ele><time>2022-05-05T05:34:54Z</time></trkpt><trkpt lat="33.7312409" lon="132.9273388"><ele>1213.8400000000001</ele><time>2022-05-05T05:35:05Z</time></trkpt><trkpt lat="33.7311904" lon="132.9275507"><ele>1207.9866666666667</ele><time>2022-05-05T05:35:27Z</time></trkpt><trkpt lat="33.7311293" lon="132.9277546"><ele>1203.8833333333332</ele><time>2022-05-05T05:35:41Z</time></trkpt><trkpt lat="33.7310867" lon="132.9279735"><ele>1201.7466666666667</ele><time>2022-05-05T05:36:00Z</time></trkpt><trkpt lat="33.7310052" lon="132.9281757"><ele>1202.6900000000003</ele><time>2022-05-05T05:36:40Z</time></trkpt><trkpt lat="33.7309345" lon="132.9283786"><ele>1206.2266666666667</ele><time>2022-05-05T05:36:52Z</time></trkpt><trkpt lat="33.7309577" lon="132.9285927"><ele>1212.8033333333333</ele><time>2022-05-05T05:37:59Z</time></trkpt><trkpt lat="33.7308988" lon="132.9287997"><ele>1221.0733333333335</ele><time>2022-05-05T05:38:35Z</time></trkpt><trkpt lat="33.7308797" lon="132.9290152"><ele>1228.89</ele><time>2022-05-05T05:39:37Z</time></trkpt><trkpt lat="33.730718" lon="132.9291147"><ele>1236.3366666666668</ele><time>2022-05-05T05:40:18Z</time></trkpt><trkpt lat="33.7306367" lon="132.9293118"><ele>1244.3566666666668</ele><time>2022-05-05T05:40:56Z</time></trkpt><trkpt lat="33.7306287" lon="132.9295455"><ele>1252.24</ele><time>2022-05-05T05:41:56Z</time></trkpt><trkpt lat="33.73058" lon="132.9297599"><ele>1258.1333333333334</ele><time>2022-05-05T05:42:07Z</time></trkpt><trkpt lat="33.7304866" lon="132.9299489"><ele>1261.1866666666667</ele><time>2022-05-05T05:42:18Z</time></trkpt><trkpt lat="33.7303897" lon="132.9301416"><ele>1264.3133333333335</ele><time>2022-05-05T05:42:36Z</time></trkpt><trkpt lat="33.7303674" lon="132.9303567"><ele>1267.1966666666667</ele><time>2022-05-05T05:43:21Z</time></trkpt><trkpt lat="33.7302768" lon="132.9305462"><ele>1270.8733333333332</ele><time>2022-05-05T05:43:53Z</time></trkpt><trkpt lat="33.7301875" lon="132.9307549"><ele>1273.2366666666667</ele><time>2022-05-05T05:44:09Z</time></trkpt><trkpt lat="33.7301156" lon="132.9309531"><ele>1276.0933333333335</ele><time>2022-05-05T05:44:29Z</time></trkpt><trkpt lat="33.7301727" lon="132.9307483"><ele>1276.53</ele><time>2022-05-05T05:53:21Z</time></trkpt><trkpt lat="33.7302094" lon="132.9305363"><ele>1276.1466666666665</ele><time>2022-05-05T05:53:28Z</time></trkpt><trkpt lat="33.7302786" lon="132.930324"><ele>1273.4166666666667</ele><time>2022-05-05T05:53:57Z</time></trkpt><trkpt lat="33.7303108" lon="132.9301084"><ele>1270.7299999999998</ele><time>2022-05-05T05:54:31Z</time></trkpt><trkpt lat="33.7304711" lon="132.9300046"><ele>1267.3833333333332</ele><time>2022-05-05T05:55:34Z</time></trkpt><trkpt lat="33.7305405" lon="132.9297985"><ele>1264.9033333333334</ele><time>2022-05-05T05:55:48Z</time></trkpt><trkpt lat="33.7306122" lon="132.9295985"><ele>1263.0866666666668</ele><time>2022-05-05T05:57:39Z</time></trkpt><trkpt lat="33.7306125" lon="132.9293796"><ele>1261.76</ele><time>2022-05-05T05:57:57Z</time></trkpt><trkpt lat="33.7306861" lon="132.9291811"><ele>1257.2700000000002</ele><time>2022-05-05T05:59:22Z</time></trkpt><trkpt lat="33.730817" lon="132.9290109"><ele>1249.81</ele><time>2022-05-05T05:59:59Z</time></trkpt><trkpt lat="33.7308618" lon="132.9287906"><ele>1239.68</ele><time>2022-05-05T06:03:51Z</time></trkpt><trkpt lat="33.7309593" lon="132.9285974"><ele>1230.3</ele><time>2022-05-05T06:04:08Z</time></trkpt><trkpt lat="33.7308979" lon="132.9283923"><ele>1222.3033333333333</ele><time>2022-05-05T06:04:31Z</time></trkpt><trkpt lat="33.7309131" lon="132.9281728"><ele>1214.2666666666667</ele><time>2022-05-05T06:04:50Z</time></trkpt><trkpt lat="33.7309874" lon="132.9279734"><ele>1207.9099999999999</ele><time>2022-05-05T06:05:06Z</time></trkpt><trkpt lat="33.7310497" lon="132.9277626"><ele>1203.8233333333333</ele><time>2022-05-05T06:05:25Z</time></trkpt><trkpt lat="33.7311015" lon="132.9275499"><ele>1203.0833333333333</ele><time>2022-05-05T06:05:41Z</time></trkpt><trkpt lat="33.7311755" lon="132.9273484"><ele>1205.1833333333334</ele><time>2022-05-05T06:06:19Z</time></trkpt><trkpt lat="33.7311994" lon="132.9271299"><ele>1208.2066666666667</ele><time>2022-05-05T06:06:42Z</time></trkpt><trkpt lat="33.7310838" lon="132.9269433"><ele>1212.78</ele><time>2022-05-05T06:07:20Z</time></trkpt><trkpt lat="33.7310105" lon="132.926743"><ele>1217.32</ele><time>2022-05-05T06:07:42Z</time></trkpt><trkpt lat="33.7310057" lon="132.9265155"><ele>1221.6000000000001</ele><time>2022-05-05T06:07:58Z</time></trkpt><trkpt lat="33.7310685" lon="132.9263088"><ele>1225.64</ele><time>2022-05-05T06:08:14Z</time></trkpt><trkpt lat="33.7311456" lon="132.9261077"><ele>1228.28</ele><time>2022-05-05T06:08:34Z</time></trkpt><trkpt lat="33.7311076" lon="132.9258874"><ele>1230.8533333333335</ele><time>2022-05-05T06:09:06Z</time></trkpt><trkpt lat="33.7312217" lon="132.9257159"><ele>1232.4066666666668</ele><time>2022-05-05T06:09:29Z</time></trkpt><trkpt lat="33.7312785" lon="132.9254902"><ele>1234.0666666666666</ele><time>2022-05-05T06:09:46Z</time></trkpt><trkpt lat="33.7312705" lon="132.9252727"><ele>1236.68</ele><time>2022-05-05T06:10:06Z</time></trkpt><trkpt lat="33.7312557" lon="132.9250551"><ele>1239.8866666666665</ele><time>2022-05-05T06:10:46Z</time></trkpt><trkpt lat="33.7312358" lon="132.9248229"><ele>1243.5133333333333</ele><time>2022-05-05T06:11:06Z</time></trkpt><trkpt lat="33.731165" lon="132.9246223"><ele>1246.6833333333332</ele><time>2022-05-05T06:11:24Z</time></trkpt><trkpt lat="33.7310218" lon="132.9244872"><ele>1249.0433333333333</ele><time>2022-05-05T06:11:43Z</time></trkpt><trkpt lat="33.7308458" lon="132.9244156"><ele>1249.9433333333334</ele><time>2022-05-05T06:11:59Z</time></trkpt><trkpt lat="33.7307522" lon="132.9242288"><ele>1247.55</ele><time>2022-05-05T06:12:17Z</time></trkpt><trkpt lat="33.730633" lon="132.9240478"><ele>1245.3999999999999</ele><time>2022-05-05T06:12:35Z</time></trkpt><trkpt lat="33.7305658" lon="132.9238407"><ele>1245.2633333333333</ele><time>2022-05-05T06:13:18Z</time></trkpt><trkpt lat="33.7304523" lon="132.9236674"><ele>1247.6566666666665</ele><time>2022-05-05T06:13:35Z</time></trkpt><trkpt lat="33.7303896" lon="132.9234621"><ele>1249.84</ele><time>2022-05-05T06:14:03Z</time></trkpt><trkpt lat="33.7304025" lon="132.9232434"><ele>1249.6266666666668</ele><time>2022-05-05T06:14:56Z</time></trkpt><trkpt lat="33.7303326" lon="132.9230355"><ele>1247.3533333333335</ele><time>2022-05-05T06:15:13Z</time></trkpt><trkpt lat="33.7302035" lon="132.9228835"><ele>1243.0900000000001</ele><time>2022-05-05T06:15:25Z</time></trkpt><trkpt lat="33.73019" lon="132.9226663"><ele>1238.0433333333333</ele><time>2022-05-05T06:15:50Z</time></trkpt><trkpt lat="33.7301146" lon="132.9224659"><ele>1231.7066666666667</ele><time>2022-05-05T06:16:59Z</time></trkpt><trkpt lat="33.7299744" lon="132.9223276"><ele>1226.0566666666666</ele><time>2022-05-05T06:17:12Z</time></trkpt><trkpt lat="33.7298325" lon="132.922188"><ele>1220.0466666666666</ele><time>2022-05-05T06:17:30Z</time></trkpt><trkpt lat="33.7296696" lon="132.9220935"><ele>1216.27</ele><time>2022-05-05T06:17:53Z</time></trkpt><trkpt lat="33.7295857" lon="132.9218956"><ele>1211.8533333333335</ele><time>2022-05-05T06:18:09Z</time></trkpt><trkpt lat="33.7294543" lon="132.9220555"><ele>1206.8633333333335</ele><time>2022-05-05T06:18:41Z</time></trkpt><trkpt lat="33.7294152" lon="132.9218423"><ele>1200.1133333333335</ele><time>2022-05-05T06:19:02Z</time></trkpt><trkpt lat="33.7294574" lon="132.9216312"><ele>1191.993333333333</ele><time>2022-05-05T06:19:15Z</time></trkpt><trkpt lat="33.7292725" lon="132.9216352"><ele>1183.1900000000003</ele><time>2022-05-05T06:19:31Z</time></trkpt><trkpt lat="33.72911" lon="132.9215228"><ele>1174.2700000000002</ele><time>2022-05-05T06:20:05Z</time></trkpt><trkpt lat="33.7290289" lon="132.9213293"><ele>1167.46</ele><time>2022-05-05T06:20:25Z</time></trkpt><trkpt lat="33.7288959" lon="132.9211785"><ele>1163.65</ele><time>2022-05-05T06:20:39Z</time></trkpt><trkpt lat="33.7288217" lon="132.9209744"><ele>1161.8500000000001</ele><time>2022-05-05T06:20:58Z</time></trkpt><trkpt lat="33.7287941" lon="132.9207593"><ele>1158.9799999999998</ele><time>2022-05-05T06:21:11Z</time></trkpt><trkpt lat="33.7287293" lon="132.9205515"><ele>1153.43</ele><time>2022-05-05T06:21:26Z</time></trkpt><trkpt lat="33.7286898" lon="132.9203372"><ele>1148.3466666666666</ele><time>2022-05-05T06:21:46Z</time></trkpt><trkpt lat="33.7285927" lon="132.9201507"><ele>1146.8133333333335</ele><time>2022-05-05T06:22:07Z</time></trkpt><trkpt lat="33.7284977" lon="132.9199639"><ele>1150.9133333333334</ele><time>2022-05-05T06:22:41Z</time></trkpt><trkpt lat="33.7285451" lon="132.9197511"><ele>1154.9366666666667</ele><time>2022-05-05T06:23:11Z</time></trkpt><trkpt lat="33.7284749" lon="132.9195452"><ele>1156.7700000000002</ele><time>2022-05-05T06:23:21Z</time></trkpt><trkpt lat="33.72846" lon="132.9193282"><ele>1155.32</ele><time>2022-05-05T06:23:32Z</time></trkpt><trkpt lat="33.7285054" lon="132.9191103"><ele>1152.9966666666667</ele><time>2022-05-05T06:23:43Z</time></trkpt><trkpt lat="33.728555" lon="132.9188971"><ele>1150.3433333333332</ele><time>2022-05-05T06:23:57Z</time></trkpt><trkpt lat="33.7286323" lon="132.9187003"><ele>1146.0366666666666</ele><time>2022-05-05T06:24:15Z</time></trkpt><trkpt lat="33.7285057" lon="132.9185436"><ele>1145.05</ele><time>2022-05-05T06:24:34Z</time></trkpt><trkpt lat="33.7284504" lon="132.9183299"><ele>1144.24</ele><time>2022-05-05T06:24:53Z</time></trkpt><trkpt lat="33.7283552" lon="132.9181464"><ele>1145.0600000000002</ele><time>2022-05-05T06:25:09Z</time></trkpt><trkpt lat="33.7283951" lon="132.9179202"><ele>1143.5533333333335</ele><time>2022-05-05T06:25:23Z</time></trkpt><trkpt lat="33.7283722" lon="132.9177028"><ele>1142.5366666666666</ele><time>2022-05-05T06:25:37Z</time></trkpt><trkpt lat="33.7282474" lon="132.917544"><ele>1142.3333333333335</ele><time>2022-05-05T06:25:52Z</time></trkpt><trkpt lat="33.7280888" lon="132.9174012"><ele>1142.996666666667</ele><time>2022-05-05T06:26:11Z</time></trkpt><trkpt lat="33.72795" lon="132.9172562"><ele>1145.2666666666667</ele><time>2022-05-05T06:26:27Z</time></trkpt><trkpt lat="33.7279415" lon="132.917018"><ele>1148.0533333333333</ele><time>2022-05-05T06:26:42Z</time></trkpt><trkpt lat="33.7280118" lon="132.9168126"><ele>1149.37</ele><time>2022-05-05T06:26:55Z</time></trkpt><trkpt lat="33.7279421" lon="132.9166062"><ele>1150.0833333333333</ele><time>2022-05-05T06:27:10Z</time></trkpt><trkpt lat="33.7278757" lon="132.916402"><ele>1150.3033333333333</ele><time>2022-05-05T06:27:25Z</time></trkpt><trkpt lat="33.727751" lon="132.9162418"><ele>1151.1866666666667</ele><time>2022-05-05T06:27:42Z</time></trkpt><trkpt lat="33.7277496" lon="132.9160209"><ele>1150.04</ele><time>2022-05-05T06:27:57Z</time></trkpt><trkpt lat="33.7276937" lon="132.915811"><ele>1147.3533333333332</ele><time>2022-05-05T06:28:11Z</time></trkpt><trkpt lat="33.7275144" lon="132.9157402"><ele>1144.2333333333333</ele><time>2022-05-05T06:28:30Z</time></trkpt><trkpt lat="33.727426" lon="132.9155518"><ele>1143.8799999999999</ele><time>2022-05-05T06:29:19Z</time></trkpt><trkpt lat="33.7273906" lon="132.9153396"><ele>1146.5533333333333</ele><time>2022-05-05T06:29:41Z</time></trkpt><trkpt lat="33.727299" lon="132.9151515"><ele>1150.4933333333336</ele><time>2022-05-05T06:30:09Z</time></trkpt><trkpt lat="33.72721" lon="132.9149583"><ele>1153.7666666666667</ele><time>2022-05-05T06:30:53Z</time></trkpt><trkpt lat="33.7271596" lon="132.9147463"><ele>1156.2233333333334</ele><time>2022-05-05T06:31:31Z</time></trkpt><trkpt lat="33.7271043" lon="132.9145296"><ele>1158.3100000000002</ele><time>2022-05-05T06:31:44Z</time></trkpt><trkpt lat="33.7270351" lon="132.9143277"><ele>1160.2933333333333</ele><time>2022-05-05T06:31:58Z</time></trkpt><trkpt lat="33.7269151" lon="132.9141649"><ele>1161.6566666666668</ele><time>2022-05-05T06:32:27Z</time></trkpt><trkpt lat="33.7267365" lon="132.9141054"><ele>1166.4533333333334</ele><time>2022-05-05T06:33:34Z</time></trkpt><trkpt lat="33.7265503" lon="132.9140188"><ele>1174.6466666666668</ele><time>2022-05-05T06:33:56Z</time></trkpt><trkpt lat="33.7263711" lon="132.9139589"><ele>1184.2233333333334</ele><time>2022-05-05T06:34:10Z</time></trkpt><trkpt lat="33.7264585" lon="132.9137659"><ele>1192.61</ele><time>2022-05-05T06:34:30Z</time></trkpt><trkpt lat="33.7266264" lon="132.9136845"><ele>1195.5633333333333</ele><time>2022-05-05T06:34:44Z</time></trkpt><trkpt lat="33.7266987" lon="132.9134862"><ele>1196.0533333333333</ele><time>2022-05-05T06:35:02Z</time></trkpt><trkpt lat="33.7268083" lon="132.9133121"><ele>1193.33</ele><time>2022-05-05T06:35:23Z</time></trkpt><trkpt lat="33.726971" lon="132.9131849"><ele>1189.2866666666666</ele><time>2022-05-05T06:35:42Z</time></trkpt><trkpt lat="33.7271011" lon="132.9130279"><ele>1182.3766666666668</ele><time>2022-05-05T06:35:57Z</time></trkpt><trkpt lat="33.7270739" lon="132.9128098"><ele>1179.24</ele><time>2022-05-05T06:36:11Z</time></trkpt><trkpt lat="33.727205" lon="132.9126605"><ele>1176.61</ele><time>2022-05-05T06:39:12Z</time></trkpt><trkpt lat="33.7273081" lon="132.9124725"><ele>1176.2366666666667</ele><time>2022-05-05T06:40:19Z</time></trkpt><trkpt lat="33.727393" lon="132.9122779"><ele>1170.7333333333333</ele><time>2022-05-05T06:40:40Z</time></trkpt><trkpt lat="33.7275012" lon="132.9120954"><ele>1166.45</ele><time>2022-05-05T06:40:56Z</time></trkpt><trkpt lat="33.7276338" lon="132.9119447"><ele>1159.7733333333333</ele><time>2022-05-05T06:41:13Z</time></trkpt><trkpt lat="33.7276757" lon="132.9117271"><ele>1152.2633333333333</ele><time>2022-05-05T06:41:34Z</time></trkpt><trkpt lat="33.7277038" lon="132.9115102"><ele>1144.2</ele><time>2022-05-05T06:41:54Z</time></trkpt><trkpt lat="33.7276705" lon="132.9112917"><ele>1138.3999999999999</ele><time>2022-05-05T06:42:07Z</time></trkpt><trkpt lat="33.7277327" lon="132.9110886"><ele>1134.7766666666666</ele><time>2022-05-05T06:42:31Z</time></trkpt><trkpt lat="33.7278268" lon="132.9108942"><ele>1131.83</ele><time>2022-05-05T06:42:45Z</time></trkpt><trkpt lat="33.7278576" lon="132.9106787"><ele>1129.4766666666667</ele><time>2022-05-05T06:43:04Z</time></trkpt><trkpt lat="33.7277271" lon="132.9105192"><ele>1126.0133333333333</ele><time>2022-05-05T06:43:22Z</time></trkpt><trkpt lat="33.7277803" lon="132.9103042"><ele>1124.51</ele><time>2022-05-05T06:43:35Z</time></trkpt><trkpt lat="33.7278538" lon="132.9100974"><ele>1124.03</ele><time>2022-05-05T06:43:46Z</time></trkpt><trkpt lat="33.7279218" lon="132.9098911"><ele>1124.8966666666668</ele><time>2022-05-05T06:44:39Z</time></trkpt><trkpt lat="33.7279902" lon="132.909689"><ele>1124.2633333333333</ele><time>2022-05-05T06:44:59Z</time></trkpt><trkpt lat="33.7279448" lon="132.9094792"><ele>1123.8233333333333</ele><time>2022-05-05T06:45:14Z</time></trkpt><trkpt lat="33.7279644" lon="132.9092621"><ele>1123.3733333333332</ele><time>2022-05-05T06:45:51Z</time></trkpt><trkpt lat="33.7279332" lon="132.9090487"><ele>1123.1533333333334</ele><time>2022-05-05T06:46:02Z</time></trkpt><trkpt lat="33.727869" lon="132.908839"><ele>1122.2866666666666</ele><time>2022-05-05T06:46:10Z</time></trkpt><trkpt lat="33.727897" lon="132.9086254"><ele>1121.4933333333336</ele><time>2022-05-05T06:46:22Z</time></trkpt><trkpt lat="33.727879" lon="132.9084102"><ele>1120.7766666666666</ele><time>2022-05-05T06:46:42Z</time></trkpt><trkpt lat="33.7279397" lon="132.9081953"><ele>1120.29</ele><time>2022-05-05T06:46:58Z</time></trkpt><trkpt lat="33.7278824" lon="132.9079829"><ele>1118.6633333333332</ele><time>2022-05-05T06:47:13Z</time></trkpt><trkpt lat="33.7279214" lon="132.9077581"><ele>1116.22</ele><time>2022-05-05T06:47:59Z</time></trkpt><trkpt lat="33.7279339" lon="132.9075381"><ele>1113.2833333333333</ele><time>2022-05-05T06:48:27Z</time></trkpt><trkpt lat="33.7277784" lon="132.9074269"><ele>1111.2833333333335</ele><time>2022-05-05T06:48:48Z</time></trkpt><trkpt lat="33.7276428" lon="132.9072745"><ele>1109.39</ele><time>2022-05-05T06:48:59Z</time></trkpt><trkpt lat="33.7275094" lon="132.9071252"><ele>1106.4566666666667</ele><time>2022-05-05T06:49:11Z</time></trkpt><trkpt lat="33.7273628" lon="132.9069961"><ele>1102.8166666666666</ele><time>2022-05-05T06:49:27Z</time></trkpt><trkpt lat="33.7271725" lon="132.9070164"><ele>1098.3566666666668</ele><time>2022-05-05T06:49:44Z</time></trkpt><trkpt lat="33.7269913" lon="132.9070053"><ele>1094.4</ele><time>2022-05-05T06:50:02Z</time></trkpt><trkpt lat="33.7268313" lon="132.907115"><ele>1088.77</ele><time>2022-05-05T06:50:15Z</time></trkpt><trkpt lat="33.726659" lon="132.9070357"><ele>1083.0533333333333</ele><time>2022-05-05T06:50:27Z</time></trkpt><trkpt lat="33.7264724" lon="132.9070371"><ele>1076.1366666666668</ele><time>2022-05-05T06:50:44Z</time></trkpt><trkpt lat="33.7263846" lon="132.90684"><ele>1071.0633333333335</ele><time>2022-05-05T06:50:58Z</time></trkpt><trkpt lat="33.7263457" lon="132.9066206"><ele>1067.1</ele><time>2022-05-05T06:51:10Z</time></trkpt><trkpt lat="33.7262933" lon="132.9068278"><ele>1065.1166666666666</ele><time>2022-05-05T06:52:51Z</time></trkpt><trkpt lat="33.7263361" lon="132.9070397"><ele>1063.5666666666668</ele><time>2022-05-05T06:53:02Z</time></trkpt><trkpt lat="33.7262647" lon="132.9072384"><ele>1061.4433333333334</ele><time>2022-05-05T06:53:13Z</time></trkpt><trkpt lat="33.7261904" lon="132.9074368"><ele>1059.17</ele><time>2022-05-05T06:53:30Z</time></trkpt><trkpt lat="33.7261074" lon="132.9072406"><ele>1056.1200000000001</ele><time>2022-05-05T06:54:36Z</time></trkpt><trkpt lat="33.7259275" lon="132.9072069"><ele>1052.3266666666666</ele><time>2022-05-05T06:54:45Z</time></trkpt><trkpt lat="33.7257748" lon="132.9073394"><ele>1048.9666666666665</ele><time>2022-05-05T06:55:00Z</time></trkpt><trkpt lat="33.7256264" lon="132.90748"><ele>1044.6899999999998</ele><time>2022-05-05T06:55:18Z</time></trkpt><trkpt lat="33.7254384" lon="132.9074659"><ele>1043.5466666666669</ele><time>2022-05-05T06:55:33Z</time></trkpt><trkpt lat="33.7252714" lon="132.9075851"><ele>1041.5366666666666</ele><time>2022-05-05T06:55:48Z</time></trkpt><trkpt lat="33.7251231" lon="132.9077144"><ele>1041.24</ele><time>2022-05-05T06:56:03Z</time></trkpt><trkpt lat="33.7249347" lon="132.9076788"><ele>1040.97</ele><time>2022-05-05T06:56:18Z</time></trkpt><trkpt lat="33.7248774" lon="132.9074717"><ele>1041.5666666666666</ele><time>2022-05-05T06:56:31Z</time></trkpt><trkpt lat="33.7249534" lon="132.9072675"><ele>1044.1033333333335</ele><time>2022-05-05T06:56:46Z</time></trkpt><trkpt lat="33.7249247" lon="132.9070384"><ele>1046.1266666666668</ele><time>2022-05-05T06:56:58Z</time></trkpt><trkpt lat="33.7247402" lon="132.906982"><ele>1047.8300000000002</ele><time>2022-05-05T06:57:08Z</time></trkpt><trkpt lat="33.7245747" lon="132.9071003"><ele>1048.1266666666668</ele><time>2022-05-05T06:57:23Z</time></trkpt><trkpt lat="33.7244975" lon="132.9073172"><ele>1045.6499999999999</ele><time>2022-05-05T06:57:38Z</time></trkpt><trkpt lat="33.7243781" lon="132.907487"><ele>1042.3166666666666</ele><time>2022-05-05T06:57:52Z</time></trkpt><trkpt lat="33.7241852" lon="132.9074588"><ele>1037.1200000000001</ele><time>2022-05-05T06:58:05Z</time></trkpt><trkpt lat="33.7239812" lon="132.9074495"><ele>1034.0266666666666</ele><time>2022-05-05T06:58:43Z</time></trkpt></trkseg></trk></gpx>