<?xml version='1.0' encoding='UTF-8'?><gpx creator="Yama Museum Peak Annotator" xsi:schemaLocation="http://www.topografix.com/GPX/1/1 http://www.topografix.com/GPX/1/1/gpx.xsd" version="1.1" xmlns="http://www.topografix.com/GPX/1/1" xmlns:xsi="http://www.w3.org/2001/XMLSchema-instance"><metadata><bounds maxlat="33.4634628" maxlon="132.2439665" minlat="33.4621755" minlon="132.2428592"/></metadata><trk><name>遠見山</name><number>1</number><trkseg><trkpt lat="33.4626323" lon="132.243799"><ele>97.3</ele><time>2023-01-21T03:02:38Z</time></trkpt><trkpt lat="33.4624636" lon="132.2436994"><ele>97.52000000000001</ele><time>2023-01-21T03:03:40Z</time></trkpt><trkpt lat="33.4623417" lon="132.2435296"><ele>97.87666666666667</ele><time>2023-01-21T03:03:53Z</time></trkpt><trkpt lat="33.4621755" lon="132.2434351"><ele>97.79333333333334</ele><time>2023-01-21T03:04:07Z</time></trkpt><trkpt lat="33.4621836" lon="132.2432192"><ele>98.69</ele><time>2023-01-21T03:05:40Z</time></trkpt><trkpt lat="33.462235" lon="132.2430129"><ele>101.13666666666667</ele><time>2023-01-21T03:06:34Z</time></trkpt><trkpt lat="33.4623623" lon="132.2428592"><ele>105.96</ele><time>2023-01-21T03:08:52Z</time></trkpt><trkpt lat="33.4625438" lon="132.2429249"><ele>111.71999999999998</ele><time>2023-01-21T03:09:17Z</time></trkpt><trkpt lat="33.4627182" lon="132.2430019"><ele>116.79666666666667</ele><time>2023-01-21T03:09:38Z</time></trkpt><trkpt lat="33.4629002" lon="132.2430427"><ele>120.97666666666667</ele><time>2023-01-21T03:10:05Z</time></trkpt><trkpt lat="33.4630675" lon="132.2431255"><ele>123.66333333333334</ele><time>2023-01-21T03:10:42Z</time></trkpt><trkpt lat="33.4632424" lon="132.2432365"><ele>126.35666666666667</ele><time>2023-01-21T03:11:31Z</time></trkpt><trkpt lat="33.4634248" lon="132.2432895"><ele>128.47333333333333</ele><time>2023-01-21T03:11:46Z</time></trkpt><trkpt lat="33.4634628" lon="132.2435017"><ele>129.33333333333334</ele><time>2023-01-21T03:17:38Z</time></trkpt><trkpt lat="33.4633656" lon="132.243684"><ele>128.16</ele><time>2023-01-21T03:18:16Z</time></trkpt><trkpt lat="33.4632005" lon="132.2437718"><ele>124.47333333333334</ele><time>2023-01-21T03:19:19Z</time></trkpt><trkpt lat="33.4630191" lon="132.2438067"><ele>117.37666666666667</ele><time>2023-01-21T03:19:34Z</time></trkpt><trkpt lat="33.462895" lon="132.2439665"><ele>109.13666666666667</ele><time>2023-01-21T03:20:14Z</time></trkpt><trkpt lat="33.4627598" lon="132.2438222"><ele>102.36</ele><time>2023-01-21T03:20:41Z</time></trkpt></trkseg></trk></gpx>