<?xml version='1.0' encoding='UTF-8'?><gpx creator="Yama Museum Peak Annotator" xsi:schemaLocation="http://www.topografix.com/GPX/1/1 http://www.topografix.com/GPX/1/1/gpx.xsd" version="1.1" xmlns="http://www.topografix.com/GPX/1/1" xmlns:xsi="http://www.w3.org/2001/XMLSchema-instance"><metadata><bounds maxlat="33.8607309" maxlon="132.8171539" minlat="33.8593576" minlon="132.8136217"/></metadata>  <wpt lat="33.859723" lon="132.8152899">
    <ele>145.66</ele>
    <name>Peak (146m)</name>
    <desc>Peak detected at 146m (prominence: 33m)</desc>
    <sym>Summit</sym>
  </wpt>
<trk><name>菊ヶ森</name><number>1</number><trkseg><trkpt lat="33.860554" lon="132.8171539"><ele>104.83</ele><time>2022-03-11T23:31:17Z</time></trkpt><trkpt lat="33.8606156" lon="132.8169414"><ele>103.905</ele><time>2022-03-11T23:31:34Z</time></trkpt><trkpt lat="33.8605599" lon="132.8167298"><ele>104.25999999999999</ele><time>2022-03-11T23:31:45Z</time></trkpt><trkpt lat="33.8605534" lon="132.81651"><ele>104.29666666666667</ele><time>2022-03-11T23:31:57Z</time></trkpt><trkpt lat="33.8605936" lon="132.8162952"><ele>103.69</ele><time>2022-03-11T23:32:15Z</time></trkpt><trkpt lat="33.8606443" lon="132.81607"><ele>102.16333333333334</ele><time>2022-03-11T23:32:30Z</time></trkpt><trkpt lat="33.8607309" lon="132.8158566"><ele>97.29</ele><time>2022-03-11T23:32:38Z</time></trkpt><trkpt lat="33.8607305" lon="132.8156364"><ele>92.87666666666667</ele><time>2022-03-11T23:32:49Z</time></trkpt><trkpt lat="33.8606592" lon="132.8154375"><ele>88.57666666666667</ele><time>2022-03-11T23:32:59Z</time></trkpt><trkpt lat="33.8605253" lon="132.8152777"><ele>87.84666666666665</ele><time>2022-03-11T23:33:10Z</time></trkpt><trkpt lat="33.8604161" lon="132.8150973"><ele>88.18333333333334</ele><time>2022-03-11T23:33:20Z</time></trkpt><trkpt lat="33.8603209" lon="132.8149086"><ele>88.13333333333333</ele><time>2022-03-11T23:33:32Z</time></trkpt><trkpt lat="33.8601847" lon="132.8147652"><ele>88.41000000000001</ele><time>2022-03-11T23:33:43Z</time></trkpt><trkpt lat="33.8600871" lon="132.8145813"><ele>87.87</ele><time>2022-03-11T23:33:55Z</time></trkpt><trkpt lat="33.8599838" lon="132.8144021"><ele>87.10666666666667</ele><time>2022-03-11T23:34:07Z</time></trkpt><trkpt lat="33.8599461" lon="132.8141874"><ele>85.22333333333334</ele><time>2022-03-11T23:34:17Z</time></trkpt><trkpt lat="33.8598141" lon="132.8140375"><ele>84.01333333333334</ele><time>2022-03-11T23:34:31Z</time></trkpt><trkpt lat="33.8598102" lon="132.8138202"><ele>82.81333333333333</ele><time>2022-03-11T23:34:43Z</time></trkpt><trkpt lat="33.859667" lon="132.8136858"><ele>82.14</ele><time>2022-03-11T23:34:52Z</time></trkpt><trkpt lat="33.8594776" lon="132.8136217"><ele>82.25333333333333</ele><time>2022-03-11T23:35:19Z</time></trkpt><trkpt lat="33.8593974" lon="132.8138215"><ele>84.72333333333334</ele><time>2022-03-11T23:36:08Z</time></trkpt><trkpt lat="33.8593576" lon="132.8140378"><ele>88.58999999999999</ele><time>2022-03-11T23:36:33Z</time></trkpt><trkpt lat="33.859394" lon="132.814278"><ele>93.95666666666666</ele><time>2022-03-11T23:37:25Z</time></trkpt><trkpt lat="33.8594392" lon="132.814493"><ele>99.45333333333333</ele><time>2022-03-11T23:37:42Z</time></trkpt><trkpt lat="33.859486" lon="132.8147106"><ele>107.47666666666669</ele><time>2022-03-11T23:39:13Z</time></trkpt><trkpt lat="33.8594232" lon="132.8149172"><ele>116.2</ele><time>2022-03-11T23:40:54Z</time></trkpt><trkpt lat="33.8595272" lon="132.8151081"><ele>127.13333333333333</ele><time>2022-03-11T23:43:41Z</time></trkpt><trkpt lat="33.8593843" lon="132.8152492"><ele>136.27333333333334</ele><time>2022-03-11T23:43:56Z</time></trkpt><trkpt lat="33.859359" lon="132.8154634"><ele>142.87666666666667</ele><time>2022-03-11T23:44:13Z</time></trkpt><trkpt lat="33.8593983" lon="132.8156841"><ele>143.21333333333334</ele><time>2022-03-11T23:44:39Z</time></trkpt><trkpt lat="33.8594556" lon="132.8158958"><ele>139.97333333333333</ele><time>2022-03-11T23:44:56Z</time></trkpt><trkpt lat="33.8595067" lon="132.8161095"><ele>135.70666666666668</ele><time>2022-03-11T23:45:13Z</time></trkpt><trkpt lat="33.8595034" lon="132.8163351"><ele>133.15333333333334</ele><time>2022-03-11T23:45:34Z</time></trkpt><trkpt lat="33.8595219" lon="132.8165537"><ele>131.49666666666667</ele><time>2022-03-11T23:46:01Z</time></trkpt><trkpt lat="33.859497" lon="132.8163375"><ele>130.89666666666668</ele><time>2022-03-11T23:49:19Z</time></trkpt><trkpt lat="33.8594981" lon="132.816114"><ele>131.49666666666667</ele><time>2022-03-11T23:49:32Z</time></trkpt><trkpt lat="33.8594855" lon="132.8158969"><ele>133.15333333333334</ele><time>2022-03-11T23:49:44Z</time></trkpt><trkpt lat="33.8594104" lon="132.8156983"><ele>135.3</ele><time>2022-03-11T23:49:57Z</time></trkpt><trkpt lat="33.859408" lon="132.8154682"><ele>140.38333333333335</ele><time>2022-03-11T23:50:13Z</time></trkpt><trkpt lat="33.8595356" lon="132.8153017"><ele>145.00333333333333</ele><time>2022-03-11T23:52:18Z</time></trkpt><trkpt lat="33.859723" lon="132.8152899"><ele>145.66</ele><time>2022-03-11T23:52:38Z</time></trkpt><trkpt lat="33.8598482" lon="132.8154483"><ele>143.07000000000002</ele><time>2022-03-11T23:52:54Z</time></trkpt><trkpt lat="33.8600118" lon="132.8155497"><ele>137.14666666666668</ele><time>2022-03-11T23:53:08Z</time></trkpt><trkpt lat="33.8601567" lon="132.815706"><ele>131.64</ele><time>2022-03-11T23:53:23Z</time></trkpt><trkpt lat="33.8601799" lon="132.8159244"><ele>127.04666666666667</ele><time>2022-03-11T23:53:39Z</time></trkpt><trkpt lat="33.8601243" lon="132.8161372"><ele>126.37</ele><time>2022-03-11T23:53:58Z</time></trkpt><trkpt lat="33.8602348" lon="132.8163152"><ele>125.03333333333335</ele><time>2022-03-11T23:54:38Z</time></trkpt><trkpt lat="33.8603992" lon="132.8164114"><ele>119.07666666666667</ele><time>2022-03-11T23:55:28Z</time></trkpt><trkpt lat="33.8604283" lon="132.8166265"><ele>112.53333333333335</ele><time>2022-03-11T23:55:38Z</time></trkpt><trkpt lat="33.8603788" lon="132.8168344"><ele>108.46999999999998</ele><time>2022-03-11T23:55:48Z</time></trkpt><trkpt lat="33.8604075" lon="132.8170537"><ele>107.30333333333333</ele><time>2022-03-11T23:56:22Z</time></trkpt></trkseg></trk></gpx>