<?xml version='1.0' encoding='UTF-8'?><gpx creator="Yama Museum Peak Annotator" xsi:schemaLocation="http://www.topografix.com/GPX/1/1 http://www.topografix.com/GPX/1/1/gpx.xsd" version="1.1" xmlns="http://www.topografix.com/GPX/1/1" xmlns:xsi="http://www.w3.org/2001/XMLSchema-instance"><metadata><bounds maxlat="33.794785" maxlon="133.2118692" minlat="33.7858152" minlon="133.1898772"/></metadata>  <wpt lat="33.7943958" lon="133.1932944">
    <ele>1892.6599999999999</ele>
    <name>瓶ヶ森</name>
    <desc>Peak detected at 1893m (prominence: 223m)</desc>
    <sym>Summit</sym>
  </wpt>
  <wpt lat="33.7942477" lon="133.2060388">
    <ele>1850.4420465524036</ele>
    <name>西黒森</name>
    <desc>Peak detected at 1850m (prominence: 165m)</desc>
    <sym>Summit</sym>
  </wpt>
  <wpt lat="33.7890862" lon="133.1926167">
    <ele>1711.8700000000001</ele>
    <name>Peak (1712m)</name>
    <desc>Peak detected at 1712m (prominence: 35m)</desc>
    <sym>Summit</sym>
  </wpt>
<trk><name>男山・瓶ヶ森・西黒森</name><number>1</number><trkseg><trkpt lat="33.7858746" lon="133.1901771"><ele>1667.41</ele><time>2022-07-09T22:25:35Z</time></trkpt><trkpt lat="33.7859926" lon="133.1900008"><ele>1666.185</ele><time>2022-07-09T22:28:10Z</time></trkpt><trkpt lat="33.7861662" lon="133.1900662"><ele>1668.54</ele><time>2022-07-09T22:30:36Z</time></trkpt><trkpt lat="33.7862648" lon="133.1902475"><ele>1672.4366666666667</ele><time>2022-07-09T22:31:08Z</time></trkpt><trkpt lat="33.7864428" lon="133.1902003"><ele>1680.676666666667</ele><time>2022-07-09T22:32:13Z</time></trkpt><trkpt lat="33.786478" lon="133.1899833"><ele>1685.5200000000002</ele><time>2022-07-09T22:32:47Z</time></trkpt><trkpt lat="33.7866373" lon="133.1898772"><ele>1690.5833333333333</ele><time>2022-07-09T22:33:10Z</time></trkpt><trkpt lat="33.7867637" lon="133.1900504"><ele>1695.2099999999998</ele><time>2022-07-09T22:34:11Z</time></trkpt><trkpt lat="33.7868853" lon="133.1902157"><ele>1702.7</ele><time>2022-07-09T22:34:29Z</time></trkpt><trkpt lat="33.7870677" lon="133.1902638"><ele>1710.0733333333335</ele><time>2022-07-09T22:35:42Z</time></trkpt><trkpt lat="33.7872417" lon="133.1903286"><ele>1716.3333333333333</ele><time>2022-07-09T22:36:16Z</time></trkpt><trkpt lat="33.7873677" lon="133.1904875"><ele>1722.5166666666667</ele><time>2022-07-09T22:37:04Z</time></trkpt><trkpt lat="33.7874707" lon="133.1906724"><ele>1726.7933333333333</ele><time>2022-07-09T22:38:52Z</time></trkpt><trkpt lat="33.787649" lon="133.1905986"><ele>1733.51</ele><time>2022-07-09T22:39:12Z</time></trkpt><trkpt lat="33.7878425" lon="133.1905939"><ele>1739.3866666666665</ele><time>2022-07-09T22:42:01Z</time></trkpt><trkpt lat="33.7880186" lon="133.19065"><ele>1747.3433333333335</ele><time>2022-07-09T22:42:25Z</time></trkpt><trkpt lat="33.7881935" lon="133.1907121"><ele>1752.38</ele><time>2022-07-09T22:43:05Z</time></trkpt><trkpt lat="33.7883738" lon="133.190754"><ele>1758.3233333333335</ele><time>2022-07-09T22:43:41Z</time></trkpt><trkpt lat="33.7885417" lon="133.1908343"><ele>1763.0566666666666</ele><time>2022-07-09T22:46:28Z</time></trkpt><trkpt lat="33.7887098" lon="133.1909194"><ele>1768.68</ele><time>2022-07-09T22:48:30Z</time></trkpt><trkpt lat="33.7888892" lon="133.190865"><ele>1773.5</ele><time>2022-07-09T22:50:05Z</time></trkpt><trkpt lat="33.7890872" lon="133.190941"><ele>1779.676666666667</ele><time>2022-07-09T22:51:15Z</time></trkpt><trkpt lat="33.7892507" lon="133.1910558"><ele>1786.8400000000001</ele><time>2022-07-09T22:51:35Z</time></trkpt><trkpt lat="33.7894248" lon="133.191119"><ele>1796.8100000000002</ele><time>2022-07-09T22:52:32Z</time></trkpt><trkpt lat="33.7895938" lon="133.1911959"><ele>1805.8366666666668</ele><time>2022-07-09T22:55:24Z</time></trkpt><trkpt lat="33.7897458" lon="133.1913191"><ele>1814.58</ele><time>2022-07-09T22:55:51Z</time></trkpt><trkpt lat="33.7899269" lon="133.1913866"><ele>1820.3</ele><time>2022-07-09T22:56:57Z</time></trkpt><trkpt lat="33.7901014" lon="133.1914423"><ele>1825.3100000000002</ele><time>2022-07-09T22:57:32Z</time></trkpt><trkpt lat="33.7902026" lon="133.1916245"><ele>1828.5333333333335</ele><time>2022-07-09T22:58:03Z</time></trkpt><trkpt lat="33.7901783" lon="133.1918406"><ele>1827.456666666667</ele><time>2022-07-09T22:59:11Z</time></trkpt><trkpt lat="33.7903527" lon="133.19193"><ele>1829.38</ele><time>2022-07-09T23:06:46Z</time></trkpt><trkpt lat="33.7905346" lon="133.1918892"><ele>1833.4566666666667</ele><time>2022-07-09T23:07:03Z</time></trkpt><trkpt lat="33.7907179" lon="133.1918942"><ele>1842.736666666667</ele><time>2022-07-09T23:07:10Z</time></trkpt><trkpt lat="33.790902" lon="133.1918614"><ele>1847.756666666667</ele><time>2022-07-09T23:07:34Z</time></trkpt><trkpt lat="33.7910792" lon="133.1919206"><ele>1849.4033333333334</ele><time>2022-07-09T23:07:52Z</time></trkpt><trkpt lat="33.791139" lon="133.1921247"><ele>1849.8166666666666</ele><time>2022-07-09T23:09:16Z</time></trkpt><trkpt lat="33.7913198" lon="133.1920776"><ele>1850.8400000000001</ele><time>2022-07-09T23:10:11Z</time></trkpt><trkpt lat="33.7914998" lon="133.1921097"><ele>1851.8333333333333</ele><time>2022-07-09T23:10:39Z</time></trkpt><trkpt lat="33.7916775" lon="133.1920567"><ele>1850.9466666666667</ele><time>2022-07-09T23:10:56Z</time></trkpt><trkpt lat="33.7918451" lon="133.1921387"><ele>1851.0833333333333</ele><time>2022-07-09T23:16:00Z</time></trkpt><trkpt lat="33.7920307" lon="133.1921356"><ele>1851.3033333333333</ele><time>2022-07-09T23:16:47Z</time></trkpt><trkpt lat="33.7922129" lon="133.1921364"><ele>1852.8966666666668</ele><time>2022-07-09T23:17:37Z</time></trkpt><trkpt lat="33.7923942" lon="133.1921532"><ele>1854.4633333333334</ele><time>2022-07-09T23:19:21Z</time></trkpt><trkpt lat="33.7925674" lon="133.1922413"><ele>1855.71</ele><time>2022-07-09T23:19:48Z</time></trkpt><trkpt lat="33.7927315" lon="133.1923318"><ele>1856.9166666666667</ele><time>2022-07-09T23:20:57Z</time></trkpt><trkpt lat="33.7929156" lon="133.192377"><ele>1858.493333333333</ele><time>2022-07-09T23:23:06Z</time></trkpt><trkpt lat="33.793097" lon="133.1923958"><ele>1860.9833333333336</ele><time>2022-07-09T23:24:26Z</time></trkpt><trkpt lat="33.7932774" lon="133.1924497"><ele>1864.3166666666668</ele><time>2022-07-09T23:26:21Z</time></trkpt><trkpt lat="33.7934353" lon="133.1925559"><ele>1867.4366666666667</ele><time>2022-07-09T23:29:06Z</time></trkpt><trkpt lat="33.7935925" lon="133.1926693"><ele>1870.7533333333333</ele><time>2022-07-09T23:31:03Z</time></trkpt><trkpt lat="33.7937249" lon="133.1928566"><ele>1874.0600000000002</ele><time>2022-07-09T23:33:09Z</time></trkpt><trkpt lat="33.7937757" lon="133.1930682"><ele>1876.426666666667</ele><time>2022-07-09T23:35:18Z</time></trkpt><trkpt lat="33.7939332" lon="133.1931784"><ele>1878.4666666666665</ele><time>2022-07-09T23:36:02Z</time></trkpt><trkpt lat="33.7940495" lon="133.1933478"><ele>1880.21</ele><time>2022-07-09T23:37:23Z</time></trkpt><trkpt lat="33.7942276" lon="133.1933914"><ele>1884.18</ele><time>2022-07-09T23:37:54Z</time></trkpt><trkpt lat="33.7944011" lon="133.1933158"><ele>1888.0566666666666</ele><time>2022-07-09T23:38:40Z</time></trkpt><trkpt lat="33.7945732" lon="133.1932367"><ele>1892.1533333333334</ele><time>2022-07-09T23:39:11Z</time></trkpt><trkpt lat="33.7943958" lon="133.1932944"><ele>1892.6599999999999</ele><time>2022-07-09T23:58:06Z</time></trkpt><trkpt lat="33.7942185" lon="133.1933372"><ele>1892.043333333333</ele><time>2022-07-09T23:58:25Z</time></trkpt><trkpt lat="33.7940389" lon="133.1933734"><ele>1888.1333333333332</ele><time>2022-07-09T23:58:46Z</time></trkpt><trkpt lat="33.7939735" lon="133.1935772"><ele>1884.3233333333335</ele><time>2022-07-10T00:00:06Z</time></trkpt><trkpt lat="33.7938704" lon="133.1937558"><ele>1879.3666666666668</ele><time>2022-07-10T00:01:00Z</time></trkpt><trkpt lat="33.7938889" lon="133.1939725"><ele>1874.7466666666667</ele><time>2022-07-10T00:01:54Z</time></trkpt><trkpt lat="33.7939388" lon="133.1941867"><ele>1868.8666666666668</ele><time>2022-07-10T00:03:53Z</time></trkpt><trkpt lat="33.7937913" lon="133.1943261"><ele>1860.9466666666667</ele><time>2022-07-10T00:04:50Z</time></trkpt><trkpt lat="33.7937013" lon="133.1945213"><ele>1850.6466666666668</ele><time>2022-07-10T00:08:23Z</time></trkpt><trkpt lat="33.7938795" lon="133.194468"><ele>1842.7966666666669</ele><time>2022-07-10T00:09:31Z</time></trkpt><trkpt lat="33.7938718" lon="133.1946883"><ele>1835.17</ele><time>2022-07-10T00:09:47Z</time></trkpt><trkpt lat="33.7938071" lon="133.1949012"><ele>1828.1133333333335</ele><time>2022-07-10T00:10:06Z</time></trkpt><trkpt lat="33.7937412" lon="133.1951062"><ele>1819.0366666666669</ele><time>2022-07-10T00:10:30Z</time></trkpt><trkpt lat="33.7939139" lon="133.1950139"><ele>1811.14</ele><time>2022-07-10T00:11:26Z</time></trkpt><trkpt lat="33.7939933" lon="133.1952122"><ele>1802.8833333333334</ele><time>2022-07-10T00:11:44Z</time></trkpt><trkpt lat="33.7938386" lon="133.195327"><ele>1798.5633333333335</ele><time>2022-07-10T00:12:19Z</time></trkpt><trkpt lat="33.7937788" lon="133.1955359"><ele>1793.4233333333334</ele><time>2022-07-10T00:13:13Z</time></trkpt><trkpt lat="33.7939264" lon="133.195677"><ele>1785.58</ele><time>2022-07-10T00:13:36Z</time></trkpt><trkpt lat="33.7937768" lon="133.1958052"><ele>1778.3766666666668</ele><time>2022-07-10T00:14:19Z</time></trkpt><trkpt lat="33.7936877" lon="133.1959967"><ele>1773.096666666667</ele><time>2022-07-10T00:14:52Z</time></trkpt><trkpt lat="33.793839" lon="133.1961172"><ele>1771.42</ele><time>2022-07-10T00:15:05Z</time></trkpt><trkpt lat="33.794019" lon="133.1960854"><ele>1765.4266666666665</ele><time>2022-07-10T00:15:28Z</time></trkpt><trkpt lat="33.7938932" lon="133.1962529"><ele>1760.6633333333332</ele><time>2022-07-10T00:16:19Z</time></trkpt><trkpt lat="33.7940093" lon="133.1964251"><ele>1755.0766666666666</ele><time>2022-07-10T00:16:48Z</time></trkpt><trkpt lat="33.7938697" lon="133.1965635"><ele>1748.6733333333334</ele><time>2022-07-10T00:17:10Z</time></trkpt><trkpt lat="33.7936905" lon="133.1965325"><ele>1741.9433333333334</ele><time>2022-07-10T00:17:21Z</time></trkpt><trkpt lat="33.7938093" lon="133.1967038"><ele>1735.7733333333333</ele><time>2022-07-10T00:17:36Z</time></trkpt><trkpt lat="33.7939909" lon="133.1966959"><ele>1733.5199999999998</ele><time>2022-07-10T00:17:55Z</time></trkpt><trkpt lat="33.7939632" lon="133.1969135"><ele>1728.13</ele><time>2022-07-10T00:18:42Z</time></trkpt><trkpt lat="33.793779" lon="133.1969278"><ele>1725.2300000000002</ele><time>2022-07-10T00:18:58Z</time></trkpt><trkpt lat="33.7939088" lon="133.1970785"><ele>1718.75</ele><time>2022-07-10T00:19:19Z</time></trkpt><trkpt lat="33.7939136" lon="133.1972993"><ele>1712.4166666666667</ele><time>2022-07-10T00:19:31Z</time></trkpt><trkpt lat="33.793732" lon="133.1973494"><ele>1704.6066666666668</ele><time>2022-07-10T00:20:25Z</time></trkpt><trkpt lat="33.793822" lon="133.197542"><ele>1697.6566666666668</ele><time>2022-07-10T00:20:53Z</time></trkpt><trkpt lat="33.793988" lon="133.197451"><ele>1696.2766666666666</ele><time>2022-07-10T00:21:08Z</time></trkpt><trkpt lat="33.7939517" lon="133.1976645"><ele>1692.6966666666667</ele><time>2022-07-10T00:21:24Z</time></trkpt><trkpt lat="33.7937932" lon="133.1975581"><ele>1691.2233333333334</ele><time>2022-07-10T00:21:39Z</time></trkpt><trkpt lat="33.7939467" lon="133.1976754"><ele>1686.6266666666668</ele><time>2022-07-10T00:22:06Z</time></trkpt><trkpt lat="33.793877" lon="133.1978791"><ele>1683.5833333333333</ele><time>2022-07-10T00:22:19Z</time></trkpt><trkpt lat="33.7937036" lon="133.1979439"><ele>1678.1066666666666</ele><time>2022-07-10T00:22:51Z</time></trkpt><trkpt lat="33.793824" lon="133.1981125"><ele>1673.176666666667</ele><time>2022-07-10T00:23:36Z</time></trkpt><trkpt lat="33.7939357" lon="133.1983007"><ele>1676.9134256372824</ele><time>2022-07-10T00:25:49Z</time></trkpt><trkpt lat="33.7938851" lon="133.1985101"><ele>1684.3238858274715</ele><time>2022-07-10T00:26:08Z</time></trkpt><trkpt lat="33.7937592" lon="133.1986677"><ele>1694.205109558606</ele><time>2022-07-10T00:26:50Z</time></trkpt><trkpt lat="33.7938268" lon="133.1988759"><ele>1695.027694733177</ele><time>2022-07-10T00:27:06Z</time></trkpt><trkpt lat="33.7939168" lon="133.199064"><ele>1699.0526014123616</ele><time>2022-07-10T00:27:30Z</time></trkpt><trkpt lat="33.7938321" lon="133.199255"><ele>1702.393583952903</ele><time>2022-07-10T00:27:58Z</time></trkpt><trkpt lat="33.79383" lon="133.1994711"><ele>1706.949613441366</ele><time>2022-07-10T00:28:28Z</time></trkpt><trkpt lat="33.793767" lon="133.1996738"><ele>1704.791723002961</ele><time>2022-07-10T00:29:02Z</time></trkpt><trkpt lat="33.7937142" lon="133.1998817"><ele>1700.3633631770456</ele><time>2022-07-10T00:29:39Z</time></trkpt><trkpt lat="33.7937145" lon="133.2000985"><ele>1698.2537591857708</ele><time>2022-07-10T00:29:58Z</time></trkpt><trkpt lat="33.7938898" lon="133.2001499"><ele>1698.5389892856417</ele><time>2022-07-10T00:30:49Z</time></trkpt><trkpt lat="33.7938927" lon="133.2003713"><ele>1700.4614770135438</ele><time>2022-07-10T00:31:15Z</time></trkpt><trkpt lat="33.793837" lon="133.2005806"><ele>1705.2570074358339</ele><time>2022-07-10T00:31:33Z</time></trkpt><trkpt lat="33.7938499" lon="133.2007994"><ele>1707.8764643040438</ele><time>2022-07-10T00:31:54Z</time></trkpt><trkpt lat="33.7938498" lon="133.2010156"><ele>1708.1190209280933</ele><time>2022-07-10T00:32:12Z</time></trkpt><trkpt lat="33.7939658" lon="133.201208"><ele>1706.7728906523353</ele><time>2022-07-10T00:32:32Z</time></trkpt><trkpt lat="33.7940062" lon="133.2014216"><ele>1706.458687089443</ele><time>2022-07-10T00:33:01Z</time></trkpt><trkpt lat="33.7940955" lon="133.2016177"><ele>1707.964134356718</ele><time>2022-07-10T00:33:21Z</time></trkpt><trkpt lat="33.7942057" lon="133.2014456"><ele>1712.534482537111</ele><time>2022-07-10T00:34:02Z</time></trkpt><trkpt lat="33.794354" lon="133.2015726"><ele>1718.8896386262313</ele><time>2022-07-10T00:34:37Z</time></trkpt><trkpt lat="33.7944588" lon="133.2017579"><ele>1728.5428250043244</ele><time>2022-07-10T00:35:12Z</time></trkpt><trkpt lat="33.7944846" lon="133.2019739"><ele>1732.4171015156053</ele><time>2022-07-10T00:35:41Z</time></trkpt><trkpt lat="33.7944485" lon="133.2021892"><ele>1735.3962237027936</ele><time>2022-07-10T00:36:07Z</time></trkpt><trkpt lat="33.7944705" lon="133.2024062"><ele>1736.3113898251374</ele><time>2022-07-10T00:36:20Z</time></trkpt><trkpt lat="33.794575" lon="133.2025835"><ele>1739.9089686625632</ele><time>2022-07-10T00:36:35Z</time></trkpt><trkpt lat="33.7946224" lon="133.2028007"><ele>1741.911372449367</ele><time>2022-07-10T00:36:51Z</time></trkpt><trkpt lat="33.7946107" lon="133.2030209"><ele>1743.3282084785503</ele><time>2022-07-10T00:37:28Z</time></trkpt><trkpt lat="33.7946147" lon="133.2032419"><ele>1742.8947698886298</ele><time>2022-07-10T00:38:02Z</time></trkpt><trkpt lat="33.7946482" lon="133.2034591"><ele>1745.5292739765498</ele><time>2022-07-10T00:38:24Z</time></trkpt><trkpt lat="33.7946796" lon="133.2036795"><ele>1748.3854730159649</ele><time>2022-07-10T00:38:42Z</time></trkpt><trkpt lat="33.7947234" lon="133.2038908"><ele>1752.2376566578616</ele><time>2022-07-10T00:39:25Z</time></trkpt><trkpt lat="33.7947597" lon="133.2041306"><ele>1760.3090334602382</ele><time>2022-07-10T00:41:13Z</time></trkpt><trkpt lat="33.794785" lon="133.2043482"><ele>1773.4987894973335</ele><time>2022-07-10T00:44:15Z</time></trkpt><trkpt lat="33.7946688" lon="133.2045144"><ele>1788.4554075526958</ele><time>2022-07-10T00:44:47Z</time></trkpt><trkpt lat="33.7945481" lon="133.2046774"><ele>1798.0541668463138</ele><time>2022-07-10T00:45:08Z</time></trkpt><trkpt lat="33.7944574" lon="133.2048695"><ele>1802.5931696343705</ele><time>2022-07-10T00:45:37Z</time></trkpt><trkpt lat="33.7943815" lon="133.2050692"><ele>1805.974377204745</ele><time>2022-07-10T00:46:02Z</time></trkpt><trkpt lat="33.7942822" lon="133.2052572"><ele>1807.4190087387608</ele><time>2022-07-10T00:46:25Z</time></trkpt><trkpt lat="33.7941425" lon="133.2054041"><ele>1808.1396349683089</ele><time>2022-07-10T00:46:43Z</time></trkpt><trkpt lat="33.7939675" lon="133.2054618"><ele>1809.3821026741732</ele><time>2022-07-10T00:47:26Z</time></trkpt><trkpt lat="33.7939421" lon="133.205682"><ele>1814.3578584863299</ele><time>2022-07-10T00:48:27Z</time></trkpt><trkpt lat="33.7940771" lon="133.205826"><ele>1825.6307080994995</ele><time>2022-07-10T00:51:13Z</time></trkpt><trkpt lat="33.7942356" lon="133.2059372"><ele>1838.137326322518</ele><time>2022-07-10T00:52:38Z</time></trkpt><trkpt lat="33.7944202" lon="133.2059744"><ele>1847.2040880082334</ele><time>2022-07-10T00:53:10Z</time></trkpt><trkpt lat="33.7942477" lon="133.2060388"><ele>1850.4420465524036</ele><time>2022-07-10T01:00:25Z</time></trkpt><trkpt lat="33.7941209" lon="133.205875"><ele>1846.638821404941</ele><time>2022-07-10T01:06:59Z</time></trkpt><trkpt lat="33.7940191" lon="133.2056906"><ele>1841.1319527870273</ele><time>2022-07-10T01:07:23Z</time></trkpt><trkpt lat="33.7938745" lon="133.2055608"><ele>1830.7454074082923</ele><time>2022-07-10T01:08:16Z</time></trkpt><trkpt lat="33.7937611" lon="133.2057307"><ele>1823.6157024275017</ele><time>2022-07-10T01:08:46Z</time></trkpt><trkpt lat="33.7936107" lon="133.2058615"><ele>1815.5176771042272</ele><time>2022-07-10T01:09:10Z</time></trkpt><trkpt lat="33.7934365" lon="133.205918"><ele>1810.6418575194314</ele><time>2022-07-10T01:09:27Z</time></trkpt><trkpt lat="33.7933427" lon="133.2061028"><ele>1805.5155683479</ele><time>2022-07-10T01:09:43Z</time></trkpt><trkpt lat="33.7932449" lon="133.2059109"><ele>1801.4706995728864</ele><time>2022-07-10T01:10:08Z</time></trkpt><trkpt lat="33.793161" lon="133.2061114"><ele>1797.1559489949543</ele><time>2022-07-10T01:10:29Z</time></trkpt><trkpt lat="33.7930547" lon="133.2063066"><ele>1791.8585988627826</ele><time>2022-07-10T01:10:43Z</time></trkpt><trkpt lat="33.7932154" lon="133.2064156"><ele>1786.8789837114782</ele><time>2022-07-10T01:11:00Z</time></trkpt><trkpt lat="33.7932717" lon="133.2066221"><ele>1781.6834396874194</ele><time>2022-07-10T01:11:21Z</time></trkpt><trkpt lat="33.7931315" lon="133.2067744"><ele>1777.4247324784726</ele><time>2022-07-10T01:11:36Z</time></trkpt><trkpt lat="33.7929471" lon="133.2068158"><ele>1774.5266559904546</ele><time>2022-07-10T01:11:45Z</time></trkpt><trkpt lat="33.7927954" lon="133.2069351"><ele>1776.416662314945</ele><time>2022-07-10T01:11:57Z</time></trkpt><trkpt lat="33.7926884" lon="133.2071092"><ele>1776.439497936094</ele><time>2022-07-10T01:12:26Z</time></trkpt><trkpt lat="33.7925052" lon="133.2071272"><ele>1778.4548058453147</ele><time>2022-07-10T01:12:42Z</time></trkpt><trkpt lat="33.7923409" lon="133.2072423"><ele>1773.0057573898969</ele><time>2022-07-10T01:13:01Z</time></trkpt><trkpt lat="33.7922852" lon="133.2074549"><ele>1768.9357405873916</ele><time>2022-07-10T01:13:40Z</time></trkpt><trkpt lat="33.7921941" lon="133.2076478"><ele>1767.037303774846</ele><time>2022-07-10T01:14:38Z</time></trkpt><trkpt lat="33.7920773" lon="133.2078244"><ele>1767.930247444022</ele><time>2022-07-10T01:14:48Z</time></trkpt><trkpt lat="33.7919207" lon="133.2079339"><ele>1769.9331729816695</ele><time>2022-07-10T01:14:59Z</time></trkpt><trkpt lat="33.7917518" lon="133.2080169"><ele>1766.7894814653694</ele><time>2022-07-10T01:15:15Z</time></trkpt><trkpt lat="33.7915626" lon="133.2080204"><ele>1763.0514717888855</ele><time>2022-07-10T01:15:39Z</time></trkpt><trkpt lat="33.7914215" lon="133.2078742"><ele>1756.8455935620104</ele><time>2022-07-10T01:16:25Z</time></trkpt><trkpt lat="33.7913753" lon="133.208087"><ele>1751.70797180954</ele><time>2022-07-10T01:16:35Z</time></trkpt><trkpt lat="33.7914192" lon="133.2082973"><ele>1747.4081129632557</ele><time>2022-07-10T01:16:42Z</time></trkpt><trkpt lat="33.7913067" lon="133.2084797"><ele>1744.7457960771153</ele><time>2022-07-10T01:17:01Z</time></trkpt><trkpt lat="33.7911387" lon="133.2084005"><ele>1741.015299153977</ele><time>2022-07-10T01:17:24Z</time></trkpt><trkpt lat="33.7911858" lon="133.2081859"><ele>1735.1006846039224</ele><time>2022-07-10T01:18:13Z</time></trkpt><trkpt lat="33.7910144" lon="133.2082548"><ele>1730.1131745771693</ele><time>2022-07-10T01:18:21Z</time></trkpt><trkpt lat="33.7908874" lon="133.2084195"><ele>1725.823309465263</ele><time>2022-07-10T01:18:31Z</time></trkpt><trkpt lat="33.7909807" lon="133.208662"><ele>1720.989307104027</ele><time>2022-07-10T01:18:38Z</time></trkpt><trkpt lat="33.791036" lon="133.2088729"><ele>1719.6669588099148</ele><time>2022-07-10T01:18:46Z</time></trkpt><trkpt lat="33.7908516" lon="133.2089512"><ele>1716.1465724814698</ele><time>2022-07-10T01:19:11Z</time></trkpt><trkpt lat="33.7906824" lon="133.2088612"><ele>1715.4663371376016</ele><time>2022-07-10T01:19:17Z</time></trkpt><trkpt lat="33.7905028" lon="133.2087962"><ele>1711.245958783679</ele><time>2022-07-10T01:19:29Z</time></trkpt><trkpt lat="33.7903179" lon="133.208806"><ele>1709.5386536180533</ele><time>2022-07-10T01:19:43Z</time></trkpt><trkpt lat="33.790211" lon="133.2089851"><ele>1706.565677528094</ele><time>2022-07-10T01:20:01Z</time></trkpt><trkpt lat="33.7900328" lon="133.2090488"><ele>1700.7525462791764</ele><time>2022-07-10T01:20:52Z</time></trkpt><trkpt lat="33.7900093" lon="133.2092641"><ele>1694.342073995446</ele><time>2022-07-10T01:21:05Z</time></trkpt><trkpt lat="33.789869" lon="133.2094132"><ele>1689.145198551413</ele><time>2022-07-10T01:21:19Z</time></trkpt><trkpt lat="33.7897573" lon="133.2095871"><ele>1685.8261416339863</ele><time>2022-07-10T01:21:33Z</time></trkpt><trkpt lat="33.7896295" lon="133.2097555"><ele>1681.1887937663014</ele><time>2022-07-10T01:21:52Z</time></trkpt><trkpt lat="33.7894728" lon="133.2098725"><ele>1675.377832398276</ele><time>2022-07-10T01:22:13Z</time></trkpt><trkpt lat="33.7893006" lon="133.2097888"><ele>1669.497670773153</ele><time>2022-07-10T01:22:31Z</time></trkpt><trkpt lat="33.7891973" lon="133.2099848"><ele>1664.5138770577194</ele><time>2022-07-10T01:22:46Z</time></trkpt><trkpt lat="33.7892087" lon="133.2102022"><ele>1660.2938225217574</ele><time>2022-07-10T01:22:57Z</time></trkpt><trkpt lat="33.7892142" lon="133.2104225"><ele>1655.819755141659</ele><time>2022-07-10T01:23:11Z</time></trkpt><trkpt lat="33.7891744" lon="133.2106354"><ele>1650.7730208920104</ele><time>2022-07-10T01:23:35Z</time></trkpt><trkpt lat="33.7890783" lon="133.2108231"><ele>1644.921219102008</ele><time>2022-07-10T01:23:54Z</time></trkpt><trkpt lat="33.7891325" lon="133.2110365"><ele>1639.8441542739072</ele><time>2022-07-10T01:24:13Z</time></trkpt><trkpt lat="33.7892232" lon="133.2112428"><ele>1637.2805799375822</ele><time>2022-07-10T01:24:30Z</time></trkpt><trkpt lat="33.7890992" lon="133.2110673"><ele>1636.6096529488566</ele><time>2022-07-10T01:24:54Z</time></trkpt><trkpt lat="33.7891574" lon="133.2112785"><ele>1636.6089178389495</ele><time>2022-07-10T01:25:37Z</time></trkpt><trkpt lat="33.7892672" lon="133.2114627"><ele>1634.9925184332772</ele><time>2022-07-10T01:25:50Z</time></trkpt><trkpt lat="33.7891739" lon="133.2116523"><ele>1634.713947359113</ele><time>2022-07-10T01:26:09Z</time></trkpt><trkpt lat="33.7891932" lon="133.2118692"><ele>1630.2413813114144</ele><time>2022-07-10T01:26:26Z</time></trkpt><trkpt lat="33.7890058" lon="133.2117932"><ele>1626.1945766669905</ele><time>2022-07-10T01:26:36Z</time></trkpt><trkpt lat="33.7890046" lon="133.2115684"><ele>1621.7792165274652</ele><time>2022-07-10T01:26:49Z</time></trkpt><trkpt lat="33.7889892" lon="133.2113222"><ele>1621.74081853778</ele><time>2022-07-10T01:27:03Z</time></trkpt><trkpt lat="33.7889153" lon="133.2111093"><ele>1622.419401108559</ele><time>2022-07-10T01:27:18Z</time></trkpt><trkpt lat="33.7888203" lon="133.2109185"><ele>1624.4145228573295</ele><time>2022-07-10T01:30:33Z</time></trkpt><trkpt lat="33.78884" lon="133.210702"><ele>1625.7762698201232</ele><time>2022-07-10T01:30:51Z</time></trkpt><trkpt lat="33.7888578" lon="133.2104646"><ele>1626.5351994653877</ele><time>2022-07-10T01:31:03Z</time></trkpt><trkpt lat="33.7889025" lon="133.2102412"><ele>1626.1694128391362</ele><time>2022-07-10T01:31:16Z</time></trkpt><trkpt lat="33.7889281" lon="133.2100255"><ele>1626.9157632018923</ele><time>2022-07-10T01:31:30Z</time></trkpt><trkpt lat="33.7888838" lon="133.2098035"><ele>1628.2627191504964</ele><time>2022-07-10T01:31:48Z</time></trkpt><trkpt lat="33.7888297" lon="133.2095963"><ele>1628.5197113094066</ele><time>2022-07-10T01:32:01Z</time></trkpt><trkpt lat="33.7888178" lon="133.2093806"><ele>1629.3475603114646</ele><time>2022-07-10T01:32:16Z</time></trkpt><trkpt lat="33.7888167" lon="133.2091644"><ele>1629.3165321407166</ele><time>2022-07-10T01:32:31Z</time></trkpt><trkpt lat="33.7888793" lon="133.2089553"><ele>1630.756639150355</ele><time>2022-07-10T01:32:44Z</time></trkpt><trkpt lat="33.788955" lon="133.208759"><ele>1630.8038303419971</ele><time>2022-07-10T01:32:58Z</time></trkpt><trkpt lat="33.7889987" lon="133.2085412"><ele>1632.2630302497867</ele><time>2022-07-10T01:33:12Z</time></trkpt><trkpt lat="33.7890476" lon="133.2083319"><ele>1632.1304792089156</ele><time>2022-07-10T01:33:25Z</time></trkpt><trkpt lat="33.7891272" lon="133.2081185"><ele>1632.5801094275328</ele><time>2022-07-10T01:33:38Z</time></trkpt><trkpt lat="33.7892175" lon="133.2079211"><ele>1632.8340088391762</ele><time>2022-07-10T01:33:54Z</time></trkpt><trkpt lat="33.7893869" lon="133.2078351"><ele>1633.830593259816</ele><time>2022-07-10T01:34:10Z</time></trkpt><trkpt lat="33.789574" lon="133.2078239"><ele>1634.2744051515583</ele><time>2022-07-10T01:34:24Z</time></trkpt><trkpt lat="33.7897628" lon="133.2078275"><ele>1634.2507949003063</ele><time>2022-07-10T01:34:37Z</time></trkpt><trkpt lat="33.7899456" lon="133.2077961"><ele>1634.0315087589177</ele><time>2022-07-10T01:34:50Z</time></trkpt><trkpt lat="33.7900935" lon="133.2076723"><ele>1634.6385744104948</ele><time>2022-07-10T01:35:05Z</time></trkpt><trkpt lat="33.7902458" lon="133.2075478"><ele>1634.3638294679251</ele><time>2022-07-10T01:35:18Z</time></trkpt><trkpt lat="33.790372" lon="133.2073813"><ele>1634.1110817119172</ele><time>2022-07-10T01:35:32Z</time></trkpt><trkpt lat="33.7905539" lon="133.2073257"><ele>1634.3560720052465</ele><time>2022-07-10T01:35:47Z</time></trkpt><trkpt lat="33.7906213" lon="133.2071048"><ele>1635.8263239222608</ele><time>2022-07-10T01:36:03Z</time></trkpt><trkpt lat="33.7907237" lon="133.2069021"><ele>1637.3455154006126</ele><time>2022-07-10T01:36:18Z</time></trkpt><trkpt lat="33.7908638" lon="133.2067556"><ele>1637.9147013039094</ele><time>2022-07-10T01:36:34Z</time></trkpt><trkpt lat="33.7910169" lon="133.2066285"><ele>1638.4240271609895</ele><time>2022-07-10T01:36:48Z</time></trkpt><trkpt lat="33.7911645" lon="133.2064814"><ele>1638.3341495682387</ele><time>2022-07-10T01:37:03Z</time></trkpt><trkpt lat="33.791261" lon="133.2062887"><ele>1637.03778440381</ele><time>2022-07-10T01:37:17Z</time></trkpt><trkpt lat="33.7913537" lon="133.2060992"><ele>1636.7594320356213</ele><time>2022-07-10T01:37:32Z</time></trkpt><trkpt lat="33.7914307" lon="133.2059011"><ele>1636.6594756546872</ele><time>2022-07-10T01:37:47Z</time></trkpt><trkpt lat="33.7915263" lon="133.2057166"><ele>1637.6511824711106</ele><time>2022-07-10T01:38:02Z</time></trkpt><trkpt lat="33.7916202" lon="133.2055204"><ele>1637.479676202984</ele><time>2022-07-10T01:38:17Z</time></trkpt><trkpt lat="33.7916775" lon="133.2053115"><ele>1636.4102276137835</ele><time>2022-07-10T01:38:31Z</time></trkpt><trkpt lat="33.791761" lon="133.2051167"><ele>1636.3692808553144</ele><time>2022-07-10T01:38:55Z</time></trkpt><trkpt lat="33.7919072" lon="133.2049606"><ele>1636.2702582174518</ele><time>2022-07-10T01:39:13Z</time></trkpt><trkpt lat="33.7920672" lon="133.204847"><ele>1637.7536686948606</ele><time>2022-07-10T01:39:33Z</time></trkpt><trkpt lat="33.7920752" lon="133.204611"><ele>1638.3814047318463</ele><time>2022-07-10T01:39:45Z</time></trkpt><trkpt lat="33.7921547" lon="133.2044058"><ele>1639.9292034867794</ele><time>2022-07-10T01:39:58Z</time></trkpt><trkpt lat="33.792291" lon="133.2042608"><ele>1638.6575934726918</ele><time>2022-07-10T01:40:11Z</time></trkpt><trkpt lat="33.7924001" lon="133.2040881"><ele>1639.4428453123826</ele><time>2022-07-10T01:40:25Z</time></trkpt><trkpt lat="33.7924377" lon="133.2038565"><ele>1639.112538026433</ele><time>2022-07-10T01:40:38Z</time></trkpt><trkpt lat="33.7925781" lon="133.2037157"><ele>1641.7461300897096</ele><time>2022-07-10T01:40:53Z</time></trkpt><trkpt lat="33.7926937" lon="133.2038818"><ele>1642.144592326431</ele><time>2022-07-10T01:41:03Z</time></trkpt><trkpt lat="33.7928778" lon="133.2039151"><ele>1642.6917324704175</ele><time>2022-07-10T01:41:16Z</time></trkpt><trkpt lat="33.7930517" lon="133.2038456"><ele>1642.060683954924</ele><time>2022-07-10T01:41:28Z</time></trkpt><trkpt lat="33.7931313" lon="133.2036478"><ele>1641.3414784363422</ele><time>2022-07-10T01:41:41Z</time></trkpt><trkpt lat="33.7932741" lon="133.2035144"><ele>1641.7020541070945</ele><time>2022-07-10T01:41:55Z</time></trkpt><trkpt lat="33.7934247" lon="133.2033924"><ele>1641.8256444640126</ele><time>2022-07-10T01:42:11Z</time></trkpt><trkpt lat="33.7934963" lon="133.2031847"><ele>1643.6184833588056</ele><time>2022-07-10T01:42:26Z</time></trkpt><trkpt lat="33.7934975" lon="133.2029661"><ele>1643.515723785002</ele><time>2022-07-10T01:42:40Z</time></trkpt><trkpt lat="33.7934921" lon="133.2027494"><ele>1645.1977083557065</ele><time>2022-07-10T01:42:54Z</time></trkpt><trkpt lat="33.7934949" lon="133.2025268"><ele>1645.9230945756624</ele><time>2022-07-10T01:43:07Z</time></trkpt><trkpt lat="33.7935236" lon="133.2023111"><ele>1647.8890867189168</ele><time>2022-07-10T01:43:20Z</time></trkpt><trkpt lat="33.793514" lon="133.2020755"><ele>1648.366358804961</ele><time>2022-07-10T01:43:33Z</time></trkpt><trkpt lat="33.7934632" lon="133.2018627"><ele>1648.7882081583855</ele><time>2022-07-10T01:43:45Z</time></trkpt><trkpt lat="33.7934515" lon="133.2016446"><ele>1649.4726881464778</ele><time>2022-07-10T01:43:58Z</time></trkpt><trkpt lat="33.7934669" lon="133.2014268"><ele>1650.118700476757</ele><time>2022-07-10T01:44:12Z</time></trkpt><trkpt lat="33.7934585" lon="133.2012039"><ele>1650.6253230105478</ele><time>2022-07-10T01:44:25Z</time></trkpt><trkpt lat="33.7934434" lon="133.2009863"><ele>1650.8256153914456</ele><time>2022-07-10T01:44:39Z</time></trkpt><trkpt lat="33.7934735" lon="133.2007686"><ele>1651.8639699105122</ele><time>2022-07-10T01:44:54Z</time></trkpt><trkpt lat="33.7934216" lon="133.2005554"><ele>1651.909023762476</ele><time>2022-07-10T01:45:12Z</time></trkpt><trkpt lat="33.7933925" lon="133.2003326"><ele>1652.6405169802601</ele><time>2022-07-10T01:45:26Z</time></trkpt><trkpt lat="33.7933567" lon="133.2001169"><ele>1652.9008326481928</ele><time>2022-07-10T01:45:40Z</time></trkpt><trkpt lat="33.7933074" lon="133.1998947"><ele>1654.693549140471</ele><time>2022-07-10T01:45:52Z</time></trkpt><trkpt lat="33.7933561" lon="133.1996749"><ele>1655.5328707339359</ele><time>2022-07-10T01:46:07Z</time></trkpt><trkpt lat="33.7933634" lon="133.1994505"><ele>1656.9751665158758</ele><time>2022-07-10T01:46:20Z</time></trkpt><trkpt lat="33.7934059" lon="133.1992359"><ele>1658.0768878967276</ele><time>2022-07-10T01:46:34Z</time></trkpt><trkpt lat="33.7934445" lon="133.1990201"><ele>1659.1460887545816</ele><time>2022-07-10T01:46:50Z</time></trkpt><trkpt lat="33.7935095" lon="133.1988038"><ele>1659.5688654948742</ele><time>2022-07-10T01:47:04Z</time></trkpt><trkpt lat="33.7935151" lon="133.1985716"><ele>1660.9709075991632</ele><time>2022-07-10T01:47:19Z</time></trkpt><trkpt lat="33.793517" lon="133.1983542"><ele>1662.7887934756825</ele><time>2022-07-10T01:47:34Z</time></trkpt><trkpt lat="33.7935474" lon="133.1981318"><ele>1662.1472587786975</ele><time>2022-07-10T01:47:47Z</time></trkpt><trkpt lat="33.7935625" lon="133.1979153"><ele>1661.8780156092987</ele><time>2022-07-10T01:48:01Z</time></trkpt><trkpt lat="33.7934964" lon="133.1977024"><ele>1662.0700000000004</ele><time>2022-07-10T01:48:18Z</time></trkpt><trkpt lat="33.79335" lon="133.1975663"><ele>1663.7066666666667</ele><time>2022-07-10T01:48:31Z</time></trkpt><trkpt lat="33.7931613" lon="133.1975741"><ele>1661.3766666666668</ele><time>2022-07-10T01:48:45Z</time></trkpt><trkpt lat="33.7929936" lon="133.1976638"><ele>1655.9433333333334</ele><time>2022-07-10T01:48:59Z</time></trkpt><trkpt lat="33.7928325" lon="133.1975561"><ele>1651.0466666666669</ele><time>2022-07-10T01:49:13Z</time></trkpt><trkpt lat="33.7926802" lon="133.1974375"><ele>1650.3400000000001</ele><time>2022-07-10T01:49:27Z</time></trkpt><trkpt lat="33.792499" lon="133.1974546"><ele>1651.2833333333335</ele><time>2022-07-10T01:49:42Z</time></trkpt><trkpt lat="33.7924267" lon="133.1972566"><ele>1653.1366666666665</ele><time>2022-07-10T01:49:54Z</time></trkpt><trkpt lat="33.7924278" lon="133.1970212"><ele>1654.18</ele><time>2022-07-10T01:50:03Z</time></trkpt><trkpt lat="33.7924738" lon="133.1968034"><ele>1656.4133333333332</ele><time>2022-07-10T01:50:13Z</time></trkpt><trkpt lat="33.7925291" lon="133.1965956"><ele>1661.3333333333333</ele><time>2022-07-10T01:50:26Z</time></trkpt><trkpt lat="33.7925703" lon="133.1963805"><ele>1667.8333333333333</ele><time>2022-07-10T01:50:40Z</time></trkpt><trkpt lat="33.7925336" lon="133.1961638"><ele>1675.4466666666667</ele><time>2022-07-10T01:52:00Z</time></trkpt><trkpt lat="33.7924214" lon="133.1959828"><ele>1679.6233333333337</ele><time>2022-07-10T01:52:13Z</time></trkpt><trkpt lat="33.7923519" lon="133.195774"><ele>1679.3999999999999</ele><time>2022-07-10T01:52:29Z</time></trkpt><trkpt lat="33.7923285" lon="133.1955569"><ele>1675.9866666666667</ele><time>2022-07-10T01:52:47Z</time></trkpt><trkpt lat="33.7923307" lon="133.195334"><ele>1673.5233333333333</ele><time>2022-07-10T01:53:02Z</time></trkpt><trkpt lat="33.7922914" lon="133.1951201"><ele>1674.7266666666667</ele><time>2022-07-10T01:53:16Z</time></trkpt><trkpt lat="33.7922596" lon="133.1949063"><ele>1676.26</ele><time>2022-07-10T01:53:29Z</time></trkpt><trkpt lat="33.7921864" lon="133.1947045"><ele>1677.2833333333335</ele><time>2022-07-10T01:53:42Z</time></trkpt><trkpt lat="33.7920491" lon="133.1945604"><ele>1673.176666666667</ele><time>2022-07-10T01:53:57Z</time></trkpt><trkpt lat="33.7918778" lon="133.1944496"><ele>1670.0266666666666</ele><time>2022-07-10T01:54:19Z</time></trkpt><trkpt lat="33.7917035" lon="133.194391"><ele>1666.2533333333333</ele><time>2022-07-10T01:54:35Z</time></trkpt><trkpt lat="33.791613" lon="133.19458"><ele>1664.3366666666668</ele><time>2022-07-10T01:55:14Z</time></trkpt><trkpt lat="33.7914246" lon="133.1946079"><ele>1663.3466666666666</ele><time>2022-07-10T01:55:29Z</time></trkpt><trkpt lat="33.7912407" lon="133.1945493"><ele>1663.1533333333334</ele><time>2022-07-10T01:55:43Z</time></trkpt><trkpt lat="33.791058" lon="133.1945449"><ele>1663.3500000000001</ele><time>2022-07-10T01:55:55Z</time></trkpt><trkpt lat="33.7908864" lon="133.1944495"><ele>1663.4033333333336</ele><time>2022-07-10T01:56:08Z</time></trkpt><trkpt lat="33.7907424" lon="133.1943056"><ele>1664.2433333333336</ele><time>2022-07-10T01:56:22Z</time></trkpt><trkpt lat="33.7906248" lon="133.1941355"><ele>1667.1833333333334</ele><time>2022-07-10T01:56:35Z</time></trkpt><trkpt lat="33.7905427" lon="133.1939292"><ele>1671.5966666666666</ele><time>2022-07-10T01:56:45Z</time></trkpt><trkpt lat="33.7903901" lon="133.1937889"><ele>1675.4333333333334</ele><time>2022-07-10T01:56:59Z</time></trkpt><trkpt lat="33.7902551" lon="133.1936364"><ele>1680.91</ele><time>2022-07-10T01:57:16Z</time></trkpt><trkpt lat="33.7900815" lon="133.1935778"><ele>1684.5466666666669</ele><time>2022-07-10T01:57:30Z</time></trkpt><trkpt lat="33.7898953" lon="133.1935339"><ele>1686.5466666666669</ele><time>2022-07-10T01:57:41Z</time></trkpt><trkpt lat="33.7897408" lon="133.1934084"><ele>1686.716666666667</ele><time>2022-07-10T01:57:55Z</time></trkpt><trkpt lat="33.7895555" lon="133.1933828"><ele>1685.3833333333334</ele><time>2022-07-10T01:58:08Z</time></trkpt><trkpt lat="33.7893725" lon="133.1933638"><ele>1684.2700000000002</ele><time>2022-07-10T01:58:21Z</time></trkpt><trkpt lat="33.789337" lon="133.1931288"><ele>1683.8433333333332</ele><time>2022-07-10T01:58:34Z</time></trkpt><trkpt lat="33.7894061" lon="133.1929283"><ele>1689.1933333333334</ele><time>2022-07-10T01:58:43Z</time></trkpt><trkpt lat="33.7894576" lon="133.1927186"><ele>1703.7633333333333</ele><time>2022-07-10T01:59:00Z</time></trkpt><trkpt lat="33.7892768" lon="133.1926716"><ele>1711.4933333333336</ele><time>2022-07-10T01:59:26Z</time></trkpt><trkpt lat="33.7890862" lon="133.1926167"><ele>1711.8700000000001</ele><time>2022-07-10T01:59:41Z</time></trkpt><trkpt lat="33.7889939" lon="133.1924245"><ele>1702.6899999999998</ele><time>2022-07-10T01:59:55Z</time></trkpt><trkpt lat="33.7891021" lon="133.1922494"><ele>1701.13</ele><time>2022-07-10T02:00:10Z</time></trkpt><trkpt lat="33.7889626" lon="133.1920921"><ele>1702.8533333333332</ele><time>2022-07-10T02:00:24Z</time></trkpt><trkpt lat="33.7887815" lon="133.1920615"><ele>1706.9466666666667</ele><time>2022-07-10T02:00:34Z</time></trkpt><trkpt lat="33.7885964" lon="133.1920546"><ele>1702.93</ele><time>2022-07-10T02:00:46Z</time></trkpt><trkpt lat="33.7884477" lon="133.1919282"><ele>1697.8266666666668</ele><time>2022-07-10T02:00:58Z</time></trkpt><trkpt lat="33.7882861" lon="133.1918279"><ele>1692.0866666666668</ele><time>2022-07-10T02:01:15Z</time></trkpt><trkpt lat="33.7881027" lon="133.1918252"><ele>1689.8766666666668</ele><time>2022-07-10T02:01:29Z</time></trkpt><trkpt lat="33.787994" lon="133.1916483"><ele>1689.8500000000001</ele><time>2022-07-10T02:02:04Z</time></trkpt><trkpt lat="33.787833" lon="133.1915487"><ele>1687.96</ele><time>2022-07-10T02:02:12Z</time></trkpt><trkpt lat="33.7876512" lon="133.1914546"><ele>1688.8999999999999</ele><time>2022-07-10T02:02:26Z</time></trkpt><trkpt lat="33.7874652" lon="133.1914797"><ele>1685.75</ele><time>2022-07-10T02:02:43Z</time></trkpt><trkpt lat="33.7872824" lon="133.191421"><ele>1684.59</ele><time>2022-07-10T02:02:55Z</time></trkpt><trkpt lat="33.7871055" lon="133.1913323"><ele>1682.24</ele><time>2022-07-10T02:03:07Z</time></trkpt><trkpt lat="33.787057" lon="133.1911187"><ele>1683.5633333333333</ele><time>2022-07-10T02:03:20Z</time></trkpt><trkpt lat="33.7870129" lon="133.1909061"><ele>1686.5166666666667</ele><time>2022-07-10T02:03:32Z</time></trkpt><trkpt lat="33.7869319" lon="133.1907124"><ele>1690.6566666666668</ele><time>2022-07-10T02:03:43Z</time></trkpt><trkpt lat="33.7867831" lon="133.1905794"><ele>1693.986666666667</ele><time>2022-07-10T02:03:57Z</time></trkpt><trkpt lat="33.7866335" lon="133.1904415"><ele>1693.9000000000003</ele><time>2022-07-10T02:04:09Z</time></trkpt><trkpt lat="33.7864521" lon="133.1904863"><ele>1691.97</ele><time>2022-07-10T02:04:22Z</time></trkpt><trkpt lat="33.7862777" lon="133.1905953"><ele>1686.3000000000002</ele><time>2022-07-10T02:04:35Z</time></trkpt><trkpt lat="33.7861753" lon="133.1904121"><ele>1681.8966666666668</ele><time>2022-07-10T02:05:05Z</time></trkpt><trkpt lat="33.786155" lon="133.1901868"><ele>1677.8100000000002</ele><time>2022-07-10T02:05:33Z</time></trkpt><trkpt lat="33.7861096" lon="133.1899692"><ele>1674.8500000000001</ele><time>2022-07-10T02:05:44Z</time></trkpt><trkpt lat="33.7859422" lon="133.1900762"><ele>1670.6466666666668</ele><time>2022-07-10T02:06:00Z</time></trkpt><trkpt lat="33.7858152" lon="133.1902328"><ele>1667.3533333333335</ele><time>2022-07-10T02:06:13Z</time></trkpt></trkseg></trk></gpx>