<?xml version='1.0' encoding='UTF-8'?><gpx creator="Yama Museum Peak Annotator" xsi:schemaLocation="http://www.topografix.com/GPX/1/1 http://www.topografix.com/GPX/1/1/gpx.xsd" version="1.1" xmlns="http://www.topografix.com/GPX/1/1" xmlns:xsi="http://www.w3.org/2001/XMLSchema-instance"><metadata><bounds maxlat="33.9693454" maxlon="133.4083968" minlat="33.963908" minlon="133.4033107"/></metadata>  <wpt lat="33.9640455" lon="133.4034525">
    <ele>237.66666666666666</ele>
    <name>北山</name>
    <desc>Peak detected at 238m (prominence: 113m)</desc>
    <sym>Summit</sym>
  </wpt>
<trk><name>北山</name><number>1</number><trkseg><trkpt lat="33.9693454" lon="133.4046855"><ele>114.38</ele><time>2025-01-30T01:12:42Z</time></trkpt><trkpt lat="33.9691433" lon="133.4046847"><ele>118.125</ele><time>2025-01-30T01:13:22Z</time></trkpt><trkpt lat="33.9691945" lon="133.4044459"><ele>120.14666666666666</ele><time>2025-01-30T01:13:49Z</time></trkpt><trkpt lat="33.9692183" lon="133.4042288"><ele>121.76666666666667</ele><time>2025-01-30T01:14:07Z</time></trkpt><trkpt lat="33.9692908" lon="133.4040221"><ele>119.64</ele><time>2025-01-30T01:14:30Z</time></trkpt><trkpt lat="33.9691029" lon="133.4040667"><ele>119.73666666666668</ele><time>2025-01-30T01:14:50Z</time></trkpt><trkpt lat="33.9690662" lon="133.404306"><ele>122.48333333333335</ele><time>2025-01-30T01:15:08Z</time></trkpt><trkpt lat="33.9689149" lon="133.4044624"><ele>128.99333333333334</ele><time>2025-01-30T01:15:28Z</time></trkpt><trkpt lat="33.968803" lon="133.4046459"><ele>134.5533333333333</ele><time>2025-01-30T01:15:48Z</time></trkpt><trkpt lat="33.9686637" lon="133.4047986"><ele>140.42</ele><time>2025-01-30T01:16:26Z</time></trkpt><trkpt lat="33.9686127" lon="133.4050382"><ele>145.29</ele><time>2025-01-30T01:16:49Z</time></trkpt><trkpt lat="33.9685404" lon="133.4052655"><ele>149.13333333333335</ele><time>2025-01-30T01:17:02Z</time></trkpt><trkpt lat="33.9684744" lon="133.4055053"><ele>153.31666666666666</ele><time>2025-01-30T01:17:27Z</time></trkpt><trkpt lat="33.9685135" lon="133.4057287"><ele>155.73333333333332</ele><time>2025-01-30T01:17:39Z</time></trkpt><trkpt lat="33.9686058" lon="133.4059393"><ele>157.58666666666667</ele><time>2025-01-30T01:17:53Z</time></trkpt><trkpt lat="33.9686963" lon="133.4061641"><ele>157.26333333333332</ele><time>2025-01-30T01:18:12Z</time></trkpt><trkpt lat="33.9686326" lon="133.4063735"><ele>157.32</ele><time>2025-01-30T01:18:54Z</time></trkpt><trkpt lat="33.9685368" lon="133.4065855"><ele>155.86333333333334</ele><time>2025-01-30T01:19:12Z</time></trkpt><trkpt lat="33.9684513" lon="133.4068121"><ele>154.65333333333334</ele><time>2025-01-30T01:19:35Z</time></trkpt><trkpt lat="33.9683862" lon="133.4070147"><ele>154.5233333333333</ele><time>2025-01-30T01:19:46Z</time></trkpt><trkpt lat="33.9682986" lon="133.4072256"><ele>156.01666666666668</ele><time>2025-01-30T01:20:13Z</time></trkpt><trkpt lat="33.9681577" lon="133.4073689"><ele>158.6833333333333</ele><time>2025-01-30T01:20:31Z</time></trkpt><trkpt lat="33.9680125" lon="133.4075597"><ele>160.27666666666667</ele><time>2025-01-30T01:20:51Z</time></trkpt><trkpt lat="33.9678697" lon="133.407747"><ele>161.59333333333333</ele><time>2025-01-30T01:21:09Z</time></trkpt><trkpt lat="33.9676621" lon="133.4077953"><ele>164.29</ele><time>2025-01-30T01:21:24Z</time></trkpt><trkpt lat="33.9675104" lon="133.4079146"><ele>169.54666666666665</ele><time>2025-01-30T01:21:45Z</time></trkpt><trkpt lat="33.9674639" lon="133.4081454"><ele>175.63000000000002</ele><time>2025-01-30T01:22:11Z</time></trkpt><trkpt lat="33.9675219" lon="133.4083968"><ele>176.63</ele><time>2025-01-30T01:22:31Z</time></trkpt><trkpt lat="33.9675583" lon="133.4081497"><ele>176.17333333333332</ele><time>2025-01-30T01:24:07Z</time></trkpt><trkpt lat="33.9674998" lon="133.4079337"><ele>174.9666666666667</ele><time>2025-01-30T01:24:31Z</time></trkpt><trkpt lat="33.9672796" lon="133.4078847"><ele>182.38666666666666</ele><time>2025-01-30T01:24:43Z</time></trkpt><trkpt lat="33.9672535" lon="133.4076418"><ele>188.21666666666667</ele><time>2025-01-30T01:25:16Z</time></trkpt><trkpt lat="33.9673947" lon="133.407474"><ele>192.02333333333334</ele><time>2025-01-30T01:26:08Z</time></trkpt><trkpt lat="33.9675477" lon="133.4073493"><ele>188.58666666666667</ele><time>2025-01-30T01:26:42Z</time></trkpt><trkpt lat="33.9674807" lon="133.4071374"><ele>188.35</ele><time>2025-01-30T01:28:16Z</time></trkpt><trkpt lat="33.967308" lon="133.4070466"><ele>192.2266666666667</ele><time>2025-01-30T01:29:02Z</time></trkpt><trkpt lat="33.9671761" lon="133.4068923"><ele>200.79</ele><time>2025-01-30T01:29:38Z</time></trkpt><trkpt lat="33.9670034" lon="133.4068228"><ele>208.8166666666667</ele><time>2025-01-30T01:30:56Z</time></trkpt><trkpt lat="33.966841" lon="133.4069259"><ele>215.83</ele><time>2025-01-30T01:33:44Z</time></trkpt><trkpt lat="33.9668506" lon="133.4067023"><ele>219.84333333333333</ele><time>2025-01-30T01:36:59Z</time></trkpt><trkpt lat="33.96653" lon="133.4069387"><ele>222.85666666666668</ele><time>2025-01-30T01:37:11Z</time></trkpt><trkpt lat="33.9663879" lon="133.407074"><ele>224.51</ele><time>2025-01-30T01:37:41Z</time></trkpt><trkpt lat="33.9662009" lon="133.4070179"><ele>227.36666666666667</ele><time>2025-01-30T01:38:57Z</time></trkpt><trkpt lat="33.9660502" lon="133.4068886"><ele>229.22333333333336</ele><time>2025-01-30T01:39:26Z</time></trkpt><trkpt lat="33.9660016" lon="133.4066766"><ele>231.08</ele><time>2025-01-30T01:39:59Z</time></trkpt><trkpt lat="33.965903" lon="133.4064657"><ele>231.60333333333332</ele><time>2025-01-30T01:40:26Z</time></trkpt><trkpt lat="33.9657843" lon="133.406297"><ele>231.95666666666668</ele><time>2025-01-30T01:40:53Z</time></trkpt><trkpt lat="33.9656696" lon="133.4061288"><ele>232.32666666666668</ele><time>2025-01-30T01:41:17Z</time></trkpt><trkpt lat="33.9654737" lon="133.4061054"><ele>232.26</ele><time>2025-01-30T01:41:44Z</time></trkpt><trkpt lat="33.9652866" lon="133.4061045"><ele>230.52</ele><time>2025-01-30T01:42:11Z</time></trkpt><trkpt lat="33.9650884" lon="133.4060353"><ele>227.15666666666667</ele><time>2025-01-30T01:42:32Z</time></trkpt><trkpt lat="33.9649296" lon="133.4059101"><ele>222.24333333333334</ele><time>2025-01-30T01:42:56Z</time></trkpt><trkpt lat="33.9649153" lon="133.4056785"><ele>218.38000000000002</ele><time>2025-01-30T01:45:16Z</time></trkpt><trkpt lat="33.9648722" lon="133.4054522"><ele>215.78333333333333</ele><time>2025-01-30T01:45:32Z</time></trkpt><trkpt lat="33.9648621" lon="133.4052117"><ele>214.92333333333332</ele><time>2025-01-30T01:45:49Z</time></trkpt><trkpt lat="33.9647964" lon="133.4049849"><ele>216.74</ele><time>2025-01-30T01:46:09Z</time></trkpt><trkpt lat="33.9648613" lon="133.4047714"><ele>217.32000000000002</ele><time>2025-01-30T01:46:43Z</time></trkpt><trkpt lat="33.9647686" lon="133.4045685"><ele>220.2833333333333</ele><time>2025-01-30T01:47:19Z</time></trkpt><trkpt lat="33.9645872" lon="133.4045464"><ele>222.00666666666666</ele><time>2025-01-30T01:48:32Z</time></trkpt><trkpt lat="33.9644304" lon="133.404398"><ele>222.29999999999998</ele><time>2025-01-30T01:49:12Z</time></trkpt><trkpt lat="33.9643796" lon="133.4041802"><ele>219.05000000000004</ele><time>2025-01-30T01:49:36Z</time></trkpt><trkpt lat="33.9642595" lon="133.4040066"><ele>217.03333333333333</ele><time>2025-01-30T01:50:28Z</time></trkpt><trkpt lat="33.9641678" lon="133.4037901"><ele>219.95333333333335</ele><time>2025-01-30T01:51:37Z</time></trkpt><trkpt lat="33.9642113" lon="133.403577"><ele>224.36666666666667</ele><time>2025-01-30T01:52:09Z</time></trkpt><trkpt lat="33.9640463" lon="133.403483"><ele>229.66666666666666</ele><time>2025-01-30T01:52:54Z</time></trkpt><trkpt lat="33.963908" lon="133.4033107"><ele>234.33</ele><time>2025-01-30T01:53:47Z</time></trkpt><trkpt lat="33.9640455" lon="133.4034525"><ele>237.66666666666666</ele><time>2025-01-30T02:00:35Z</time></trkpt><trkpt lat="33.9640831" lon="133.403711"><ele>235.87333333333333</ele><time>2025-01-30T02:01:21Z</time></trkpt><trkpt lat="33.964141" lon="133.4039289"><ele>232.07666666666668</ele><time>2025-01-30T02:01:41Z</time></trkpt><trkpt lat="33.964187" lon="133.4041387"><ele>227.08333333333334</ele><time>2025-01-30T02:02:06Z</time></trkpt><trkpt lat="33.9643696" lon="133.4042763"><ele>221.91333333333333</ele><time>2025-01-30T02:03:09Z</time></trkpt><trkpt lat="33.9644721" lon="133.4044549"><ele>218.9366666666667</ele><time>2025-01-30T02:03:27Z</time></trkpt><trkpt lat="33.9646402" lon="133.4045627"><ele>220.38666666666668</ele><time>2025-01-30T02:03:59Z</time></trkpt><trkpt lat="33.9648148" lon="133.4046486"><ele>222.50666666666666</ele><time>2025-01-30T02:04:33Z</time></trkpt><trkpt lat="33.9648754" lon="133.4048563"><ele>221.22000000000003</ele><time>2025-01-30T02:05:00Z</time></trkpt><trkpt lat="33.9647902" lon="133.4050625"><ele>219.39333333333335</ele><time>2025-01-30T02:05:18Z</time></trkpt><trkpt lat="33.9647809" lon="133.4053049"><ele>220.42333333333337</ele><time>2025-01-30T02:05:39Z</time></trkpt><trkpt lat="33.9647708" lon="133.405521"><ele>222.70666666666668</ele><time>2025-01-30T02:06:15Z</time></trkpt><trkpt lat="33.9648111" lon="133.4057407"><ele>221.65333333333334</ele><time>2025-01-30T02:07:00Z</time></trkpt><trkpt lat="33.9649853" lon="133.4058044"><ele>219.31333333333336</ele><time>2025-01-30T02:08:33Z</time></trkpt><trkpt lat="33.9652116" lon="133.4057888"><ele>217.73333333333335</ele><time>2025-01-30T02:09:08Z</time></trkpt><trkpt lat="33.9653907" lon="133.4058485"><ele>219.43666666666664</ele><time>2025-01-30T02:09:36Z</time></trkpt><trkpt lat="33.9655763" lon="133.4058337"><ele>223.74</ele><time>2025-01-30T02:10:21Z</time></trkpt><trkpt lat="33.9657718" lon="133.405827"><ele>228.08666666666667</ele><time>2025-01-30T02:11:34Z</time></trkpt><trkpt lat="33.965849" lon="133.4056313"><ele>228.9766666666667</ele><time>2025-01-30T02:12:38Z</time></trkpt><trkpt lat="33.9657912" lon="133.4058411"><ele>228.74333333333334</ele><time>2025-01-30T02:13:44Z</time></trkpt><trkpt lat="33.965792" lon="133.4060654"><ele>229.09666666666666</ele><time>2025-01-30T02:14:20Z</time></trkpt><trkpt lat="33.9658034" lon="133.4063022"><ele>231.42666666666665</ele><time>2025-01-30T02:14:41Z</time></trkpt><trkpt lat="33.9658662" lon="133.4065376"><ele>232.10333333333332</ele><time>2025-01-30T02:15:05Z</time></trkpt><trkpt lat="33.9660059" lon="133.4067002"><ele>231.89333333333335</ele><time>2025-01-30T02:15:54Z</time></trkpt><trkpt lat="33.9660874" lon="133.4069255"><ele>231.46</ele><time>2025-01-30T02:16:15Z</time></trkpt><trkpt lat="33.96622" lon="133.4071321"><ele>230.29</ele><time>2025-01-30T02:16:51Z</time></trkpt><trkpt lat="33.9664399" lon="133.40712"><ele>227.95666666666668</ele><time>2025-01-30T02:17:06Z</time></trkpt><trkpt lat="33.9666153" lon="133.4070213"><ele>225.62333333333333</ele><time>2025-01-30T02:17:27Z</time></trkpt><trkpt lat="33.9667879" lon="133.406956"><ele>223.20000000000002</ele><time>2025-01-30T02:18:57Z</time></trkpt><trkpt lat="33.9669603" lon="133.4068624"><ele>221.46666666666667</ele><time>2025-01-30T02:19:51Z</time></trkpt><trkpt lat="33.9671405" lon="133.4068887"><ele>216.71666666666667</ele><time>2025-01-30T02:21:03Z</time></trkpt><trkpt lat="33.9673255" lon="133.4069673"><ele>210.4333333333333</ele><time>2025-01-30T02:21:57Z</time></trkpt><trkpt lat="33.9674718" lon="133.4068291"><ele>203.58333333333334</ele><time>2025-01-30T02:22:32Z</time></trkpt><trkpt lat="33.967415" lon="133.407057"><ele>199.46333333333334</ele><time>2025-01-30T02:23:08Z</time></trkpt><trkpt lat="33.9674722" lon="133.4072662"><ele>194.9466666666667</ele><time>2025-01-30T02:23:52Z</time></trkpt><trkpt lat="33.9673603" lon="133.4074686"><ele>191.46333333333334</ele><time>2025-01-30T02:24:47Z</time></trkpt><trkpt lat="33.9672857" lon="133.4077035"><ele>189.08666666666667</ele><time>2025-01-30T02:25:05Z</time></trkpt><trkpt lat="33.9674205" lon="133.4078556"><ele>188.73000000000002</ele><time>2025-01-30T02:25:20Z</time></trkpt><trkpt lat="33.9674445" lon="133.4080826"><ele>186.51000000000002</ele><time>2025-01-30T02:25:41Z</time></trkpt><trkpt lat="33.9675736" lon="133.4079313"><ele>180.15333333333334</ele><time>2025-01-30T02:26:37Z</time></trkpt><trkpt lat="33.9677212" lon="133.407776"><ele>172.9466666666667</ele><time>2025-01-30T02:26:56Z</time></trkpt><trkpt lat="33.9679291" lon="133.4077172"><ele>165.50333333333333</ele><time>2025-01-30T02:27:14Z</time></trkpt><trkpt lat="33.968088" lon="133.4075457"><ele>161.20666666666668</ele><time>2025-01-30T02:27:32Z</time></trkpt><trkpt lat="33.9682105" lon="133.4073379"><ele>158.37333333333333</ele><time>2025-01-30T02:27:47Z</time></trkpt><trkpt lat="33.9683161" lon="133.4071465"><ele>158.53</ele><time>2025-01-30T02:28:02Z</time></trkpt><trkpt lat="33.968406" lon="133.4069245"><ele>158.17666666666665</ele><time>2025-01-30T02:28:17Z</time></trkpt><trkpt lat="33.968471" lon="133.4066871"><ele>157.74</ele><time>2025-01-30T02:28:32Z</time></trkpt><trkpt lat="33.9686162" lon="133.4064918"><ele>155.31333333333333</ele><time>2025-01-30T02:28:50Z</time></trkpt><trkpt lat="33.9687658" lon="133.4063058"><ele>153.16666666666666</ele><time>2025-01-30T02:29:05Z</time></trkpt><trkpt lat="33.9687295" lon="133.4060859"><ele>152.83</ele><time>2025-01-30T02:29:17Z</time></trkpt><trkpt lat="33.9685877" lon="133.405934"><ele>154.72666666666666</ele><time>2025-01-30T02:29:29Z</time></trkpt><trkpt lat="33.9685084" lon="133.4056942"><ele>156.34333333333333</ele><time>2025-01-30T02:29:44Z</time></trkpt><trkpt lat="33.9684954" lon="133.4054561"><ele>156.04999999999998</ele><time>2025-01-30T02:29:59Z</time></trkpt><trkpt lat="33.9685463" lon="133.4052324"><ele>154.19666666666666</ele><time>2025-01-30T02:30:14Z</time></trkpt><trkpt lat="33.9686123" lon="133.4049857"><ele>152.01333333333335</ele><time>2025-01-30T02:30:29Z</time></trkpt><trkpt lat="33.968664" lon="133.4047461"><ele>148.36666666666667</ele><time>2025-01-30T02:30:44Z</time></trkpt><trkpt lat="33.9687779" lon="133.404546"><ele>143.59333333333333</ele><time>2025-01-30T02:30:59Z</time></trkpt><trkpt lat="33.9689348" lon="133.4044194"><ele>138.75333333333333</ele><time>2025-01-30T02:31:14Z</time></trkpt><trkpt lat="33.9690408" lon="133.4042265"><ele>133.68000000000004</ele><time>2025-01-30T02:31:31Z</time></trkpt><trkpt lat="33.9691602" lon="133.4040607"><ele>128.04</ele><time>2025-01-30T02:31:47Z</time></trkpt><trkpt lat="33.969219" lon="133.4042678"><ele>123.10333333333335</ele><time>2025-01-30T02:32:14Z</time></trkpt><trkpt lat="33.9691685" lon="133.4045105"><ele>121.71333333333332</ele><time>2025-01-30T02:32:29Z</time></trkpt><trkpt lat="33.9691552" lon="133.4047467"><ele>121.85333333333334</ele><time>2025-01-30T02:32:44Z</time></trkpt><trkpt lat="33.9693351" lon="133.4047903"><ele>119.97333333333334</ele><time>2025-01-30T02:32:59Z</time></trkpt></trkseg></trk></gpx>