<?xml version='1.0' encoding='UTF-8'?><gpx creator="Yama Museum Peak Annotator" xsi:schemaLocation="http://www.topografix.com/GPX/1/1 http://www.topografix.com/GPX/1/1/gpx.xsd" version="1.1" xmlns="http://www.topografix.com/GPX/1/1" xmlns:xsi="http://www.w3.org/2001/XMLSchema-instance"><metadata><bounds maxlat="33.8166186" maxlon="132.787544" minlat="33.8141754" minlon="132.7847068"/></metadata>  <wpt lat="33.8164872" lon="132.787544">
    <ele>69.03333333333333</ele>
    <name>星岡山</name>
    <desc>Peak detected at 69m (prominence: 36m)</desc>
    <sym>Summit</sym>
  </wpt>
<trk><name>星岡山</name><number>1</number><trkseg><trkpt lat="33.8142219" lon="132.7848551"><ele>29.44</ele><time>2022-12-31T06:00:21Z</time></trkpt><trkpt lat="33.814214" lon="132.7850737"><ele>31.045</ele><time>2022-12-31T06:01:11Z</time></trkpt><trkpt lat="33.8141754" lon="132.7852885"><ele>32.61333333333334</ele><time>2022-12-31T06:01:44Z</time></trkpt><trkpt lat="33.8143475" lon="132.7853632"><ele>36.71</ele><time>2022-12-31T06:02:16Z</time></trkpt><trkpt lat="33.8144724" lon="132.7855316"><ele>41.42666666666667</ele><time>2022-12-31T06:02:39Z</time></trkpt><trkpt lat="33.8146524" lon="132.7855786"><ele>45.49</ele><time>2022-12-31T06:03:31Z</time></trkpt><trkpt lat="33.8148357" lon="132.7855729"><ele>48.50666666666667</ele><time>2022-12-31T06:03:57Z</time></trkpt><trkpt lat="33.8150052" lon="132.7856531"><ele>50.080000000000005</ele><time>2022-12-31T06:04:14Z</time></trkpt><trkpt lat="33.8151743" lon="132.7857285"><ele>51.660000000000004</ele><time>2022-12-31T06:05:01Z</time></trkpt><trkpt lat="33.8152785" lon="132.785905"><ele>52.02</ele><time>2022-12-31T06:05:26Z</time></trkpt><trkpt lat="33.8154379" lon="132.7860147"><ele>51.080000000000005</ele><time>2022-12-31T06:06:10Z</time></trkpt><trkpt lat="33.8155162" lon="132.7862106"><ele>47.81666666666666</ele><time>2022-12-31T06:06:35Z</time></trkpt><trkpt lat="33.8155807" lon="132.786415"><ele>44.82333333333333</ele><time>2022-12-31T06:07:15Z</time></trkpt><trkpt lat="33.8156774" lon="132.7866073"><ele>44.63333333333333</ele><time>2022-12-31T06:07:26Z</time></trkpt><trkpt lat="33.8157776" lon="132.7867919"><ele>48.376666666666665</ele><time>2022-12-31T06:07:42Z</time></trkpt><trkpt lat="33.8159154" lon="132.7869333"><ele>53.96666666666667</ele><time>2022-12-31T06:07:57Z</time></trkpt><trkpt lat="33.8160786" lon="132.7870369"><ele>58.46666666666667</ele><time>2022-12-31T06:08:15Z</time></trkpt><trkpt lat="33.8162338" lon="132.7871487"><ele>61.72</ele><time>2022-12-31T06:08:32Z</time></trkpt><trkpt lat="33.8163572" lon="132.7873145"><ele>64.00666666666667</ele><time>2022-12-31T06:08:47Z</time></trkpt><trkpt lat="33.8164591" lon="132.7875014"><ele>66.23333333333333</ele><time>2022-12-31T06:09:06Z</time></trkpt><trkpt lat="33.8166186" lon="132.7873899"><ele>69.07</ele><time>2022-12-31T06:09:58Z</time></trkpt><trkpt lat="33.8164872" lon="132.787544"><ele>69.03333333333333</ele><time>2022-12-31T06:12:10Z</time></trkpt><trkpt lat="33.8163587" lon="132.7873869"><ele>67.88333333333334</ele><time>2022-12-31T06:12:26Z</time></trkpt><trkpt lat="33.8162153" lon="132.7872491"><ele>64.86666666666666</ele><time>2022-12-31T06:14:59Z</time></trkpt><trkpt lat="33.8160505" lon="132.7871476"><ele>62.97</ele><time>2022-12-31T06:15:11Z</time></trkpt><trkpt lat="33.81587" lon="132.7871289"><ele>58.88666666666668</ele><time>2022-12-31T06:15:30Z</time></trkpt><trkpt lat="33.8157499" lon="132.7869677"><ele>55.339999999999996</ele><time>2022-12-31T06:15:43Z</time></trkpt><trkpt lat="33.815679" lon="132.7867604"><ele>51.65</ele><time>2022-12-31T06:15:55Z</time></trkpt><trkpt lat="33.81559" lon="132.7865725"><ele>48.156666666666666</ele><time>2022-12-31T06:16:06Z</time></trkpt><trkpt lat="33.8155441" lon="132.7863593"><ele>44.88333333333333</ele><time>2022-12-31T06:16:43Z</time></trkpt><trkpt lat="33.8156097" lon="132.7861555"><ele>42.34</ele><time>2022-12-31T06:16:52Z</time></trkpt><trkpt lat="33.8157206" lon="132.7859678"><ele>41.483333333333334</ele><time>2022-12-31T06:17:17Z</time></trkpt><trkpt lat="33.815876" lon="132.785817"><ele>38.74</ele><time>2022-12-31T06:17:49Z</time></trkpt><trkpt lat="33.8160245" lon="132.7856782"><ele>35.51666666666667</ele><time>2022-12-31T06:17:55Z</time></trkpt><trkpt lat="33.8161723" lon="132.7855303"><ele>32.32</ele><time>2022-12-31T06:18:05Z</time></trkpt><trkpt lat="33.8163331" lon="132.7854156"><ele>30.64</ele><time>2022-12-31T06:18:14Z</time></trkpt><trkpt lat="33.8164826" lon="132.7852869"><ele>29.583333333333332</ele><time>2022-12-31T06:18:25Z</time></trkpt><trkpt lat="33.8163078" lon="132.7852028"><ele>29.26</ele><time>2022-12-31T06:18:46Z</time></trkpt><trkpt lat="33.8161268" lon="132.7852712"><ele>29.05666666666667</ele><time>2022-12-31T06:19:01Z</time></trkpt><trkpt lat="33.8159217" lon="132.785227"><ele>29.02333333333333</ele><time>2022-12-31T06:19:11Z</time></trkpt><trkpt lat="33.8157429" lon="132.785163"><ele>29.113333333333333</ele><time>2022-12-31T06:19:18Z</time></trkpt><trkpt lat="33.8155779" lon="132.7850624"><ele>29.25</ele><time>2022-12-31T06:19:44Z</time></trkpt><trkpt lat="33.8153856" lon="132.7850507"><ele>29.263333333333332</ele><time>2022-12-31T06:19:56Z</time></trkpt><trkpt lat="33.8151982" lon="132.7850307"><ele>29.27333333333333</ele><time>2022-12-31T06:20:01Z</time></trkpt><trkpt lat="33.8150367" lon="132.7849193"><ele>29.209999999999997</ele><time>2022-12-31T06:20:09Z</time></trkpt><trkpt lat="33.8148744" lon="132.784792"><ele>29.156666666666666</ele><time>2022-12-31T06:20:20Z</time></trkpt><trkpt lat="33.814701" lon="132.7847193"><ele>29.133333333333336</ele><time>2022-12-31T06:20:33Z</time></trkpt><trkpt lat="33.814512" lon="132.7847068"><ele>29.093333333333334</ele><time>2022-12-31T06:20:45Z</time></trkpt><trkpt lat="33.81433" lon="132.7847205"><ele>29.223333333333333</ele><time>2022-12-31T06:21:00Z</time></trkpt></trkseg></trk></gpx>