<?xml version='1.0' encoding='UTF-8'?><gpx creator="Yama Museum Peak Annotator" xsi:schemaLocation="http://www.topografix.com/GPX/1/1 http://www.topografix.com/GPX/1/1/gpx.xsd" version="1.1" xmlns="http://www.topografix.com/GPX/1/1" xmlns:xsi="http://www.w3.org/2001/XMLSchema-instance"><metadata><bounds maxlat="33.943352" maxlon="133.5379771" minlat="33.943066" minlon="133.5369205"/></metadata><trk><name>翠波峰</name><number>1</number><trkseg><trkpt lat="33.9431816" lon="133.5377592"><ele>882.62</ele><time>2022-05-07T04:44:03Z</time></trkpt><trkpt lat="33.9431811" lon="133.5379771"><ele>882.78</ele><time>2022-05-07T04:44:42Z</time></trkpt><trkpt lat="33.9431219" lon="133.5377661"><ele>883.0266666666666</ele><time>2022-05-07T04:45:21Z</time></trkpt><trkpt lat="33.9431613" lon="133.5375529"><ele>884.2633333333333</ele><time>2022-05-07T04:45:35Z</time></trkpt><trkpt lat="33.9431629" lon="133.5373354"><ele>886.6999999999999</ele><time>2022-05-07T04:45:50Z</time></trkpt><trkpt lat="33.943066" lon="133.5371451"><ele>889.5633333333334</ele><time>2022-05-07T04:46:11Z</time></trkpt><trkpt lat="33.9431725" lon="133.5369564"><ele>891.4466666666667</ele><time>2022-05-07T04:46:28Z</time></trkpt><trkpt lat="33.943352" lon="133.5369205"><ele>890.8033333333334</ele><time>2022-05-07T04:47:09Z</time></trkpt><trkpt lat="33.9431961" lon="133.5370309"><ele>890.6633333333334</ele><time>2022-05-07T04:47:52Z</time></trkpt><trkpt lat="33.9431772" lon="133.5372522"><ele>890.2833333333334</ele><time>2022-05-07T04:48:14Z</time></trkpt><trkpt lat="33.943204" lon="133.5374816"><ele>890.2400000000001</ele><time>2022-05-07T04:48:31Z</time></trkpt></trkseg></trk></gpx>