<?xml version='1.0' encoding='UTF-8'?><gpx creator="Yama Museum Peak Annotator" xsi:schemaLocation="http://www.topografix.com/GPX/1/1 http://www.topografix.com/GPX/1/1/gpx.xsd" version="1.1" xmlns="http://www.topografix.com/GPX/1/1" xmlns:xsi="http://www.w3.org/2001/XMLSchema-instance"><metadata><bounds maxlat="33.0560134" maxlon="132.6637293" minlat="33.0522263" minlon="132.6581155"/></metadata>  <wpt lat="33.0558602" lon="132.6590657">
    <ele>1061.6229039079428</ele>
    <name>篠山</name>
    <desc>Peak detected at 1062m (prominence: 239m)</desc>
    <sym>Summit</sym>
  </wpt>
<trk><name>篠山</name><number>1</number><trkseg><trkpt lat="33.0522263" lon="132.6637165"><ele>794.7302124142863</ele><time>2022-06-23T04:59:29Z</time></trkpt><trkpt lat="33.0522728" lon="132.6635087"><ele>798.4890562829617</ele><time>2022-06-23T05:00:34Z</time></trkpt><trkpt lat="33.0524527" lon="132.6635261"><ele>798.0615684080258</ele><time>2022-06-23T05:00:48Z</time></trkpt><trkpt lat="33.0526303" lon="132.6634772"><ele>803.4659733678642</ele><time>2022-06-23T05:01:23Z</time></trkpt><trkpt lat="33.0527982" lon="132.6633858"><ele>807.7141616011962</ele><time>2022-06-23T05:01:43Z</time></trkpt><trkpt lat="33.0528442" lon="132.6631777"><ele>817.0113219006494</ele><time>2022-06-23T05:02:23Z</time></trkpt><trkpt lat="33.0530063" lon="132.66328"><ele>825.7719775363303</ele><time>2022-06-23T05:03:12Z</time></trkpt><trkpt lat="33.0531806" lon="132.6632022"><ele>834.8817012714638</ele><time>2022-06-23T05:03:31Z</time></trkpt><trkpt lat="33.0533053" lon="132.6630429"><ele>842.2941744212039</ele><time>2022-06-23T05:03:51Z</time></trkpt><trkpt lat="33.053374" lon="132.6628437"><ele>849.318113276534</ele><time>2022-06-23T05:04:36Z</time></trkpt><trkpt lat="33.0535276" lon="132.6627302"><ele>857.0948918559083</ele><time>2022-06-23T05:05:03Z</time></trkpt><trkpt lat="33.0535992" lon="132.6625335"><ele>866.2836085399726</ele><time>2022-06-23T05:05:48Z</time></trkpt><trkpt lat="33.0534698" lon="132.6623839"><ele>875.8032532728524</ele><time>2022-06-23T05:06:28Z</time></trkpt><trkpt lat="33.0535966" lon="132.6622166"><ele>883.4445265394139</ele><time>2022-06-23T05:06:45Z</time></trkpt><trkpt lat="33.0537582" lon="132.6621212"><ele>890.0196909970683</ele><time>2022-06-23T05:07:05Z</time></trkpt><trkpt lat="33.0538124" lon="132.6619137"><ele>893.7758279940841</ele><time>2022-06-23T05:07:36Z</time></trkpt><trkpt lat="33.0539574" lon="132.66178"><ele>897.9620138243578</ele><time>2022-06-23T05:07:56Z</time></trkpt><trkpt lat="33.0541141" lon="132.6616676"><ele>901.1781316378043</ele><time>2022-06-23T05:08:13Z</time></trkpt><trkpt lat="33.0542176" lon="132.6614868"><ele>905.343580644398</ele><time>2022-06-23T05:08:43Z</time></trkpt><trkpt lat="33.0541657" lon="132.6612785"><ele>909.2553955593535</ele><time>2022-06-23T05:09:01Z</time></trkpt><trkpt lat="33.0539963" lon="132.6613589"><ele>921.2709323756402</ele><time>2022-06-23T05:09:17Z</time></trkpt><trkpt lat="33.0539574" lon="132.6611427"><ele>926.3492417712223</ele><time>2022-06-23T05:09:59Z</time></trkpt><trkpt lat="33.05406" lon="132.660965"><ele>932.1823875714304</ele><time>2022-06-23T05:10:10Z</time></trkpt><trkpt lat="33.0541604" lon="132.6607819"><ele>929.9829922754863</ele><time>2022-06-23T05:10:29Z</time></trkpt><trkpt lat="33.054239" lon="132.6605889"><ele>933.6254056487624</ele><time>2022-06-23T05:10:47Z</time></trkpt><trkpt lat="33.0543264" lon="132.6603978"><ele>938.7573692978784</ele><time>2022-06-23T05:11:39Z</time></trkpt><trkpt lat="33.05447" lon="132.6602675"><ele>945.2578626112396</ele><time>2022-06-23T05:12:11Z</time></trkpt><trkpt lat="33.0546481" lon="132.6602175"><ele>949.6255691873794</ele><time>2022-06-23T05:12:42Z</time></trkpt><trkpt lat="33.0546023" lon="132.6600091"><ele>955.5193659287524</ele><time>2022-06-23T05:13:46Z</time></trkpt><trkpt lat="33.0544963" lon="132.6598347"><ele>960.5097705400872</ele><time>2022-06-23T05:14:16Z</time></trkpt><trkpt lat="33.0543493" lon="132.6597018"><ele>966.9328123287218</ele><time>2022-06-23T05:14:31Z</time></trkpt><trkpt lat="33.0544844" lon="132.659554"><ele>972.5273675022819</ele><time>2022-06-23T05:16:40Z</time></trkpt><trkpt lat="33.054627" lon="132.6594181"><ele>977.3470527441941</ele><time>2022-06-23T05:16:54Z</time></trkpt><trkpt lat="33.0545759" lon="132.6592107"><ele>985.1230264045859</ele><time>2022-06-23T05:18:00Z</time></trkpt><trkpt lat="33.0547625" lon="132.659226"><ele>991.1327074397587</ele><time>2022-06-23T05:18:27Z</time></trkpt><trkpt lat="33.0547569" lon="132.6590112"><ele>1001.4512312823821</ele><time>2022-06-23T05:19:29Z</time></trkpt><trkpt lat="33.0545724" lon="132.6590016"><ele>1009.6970101037863</ele><time>2022-06-23T05:19:46Z</time></trkpt><trkpt lat="33.0546816" lon="132.65882"><ele>1017.7542952365292</ele><time>2022-06-23T05:20:12Z</time></trkpt><trkpt lat="33.0547297" lon="132.6586135"><ele>1021.8041560534903</ele><time>2022-06-23T05:20:35Z</time></trkpt><trkpt lat="33.0548384" lon="132.658407"><ele>1027.5607182503454</ele><time>2022-06-23T05:22:14Z</time></trkpt><trkpt lat="33.055015" lon="132.6584737"><ele>1032.7763308810563</ele><time>2022-06-23T05:23:00Z</time></trkpt><trkpt lat="33.055166" lon="132.6585935"><ele>1039.2486971279798</ele><time>2022-06-23T05:24:03Z</time></trkpt><trkpt lat="33.0553258" lon="132.658693"><ele>1046.0693394700183</ele><time>2022-06-23T05:24:55Z</time></trkpt><trkpt lat="33.0554361" lon="132.6588679"><ele>1051.9362990516984</ele><time>2022-06-23T05:25:10Z</time></trkpt><trkpt lat="33.0556038" lon="132.6589531"><ele>1056.7232972173972</ele><time>2022-06-23T05:26:07Z</time></trkpt><trkpt lat="33.0557383" lon="132.6590986"><ele>1060.0427686781468</ele><time>2022-06-23T05:26:35Z</time></trkpt><trkpt lat="33.0558343" lon="132.6589066"><ele>1062.967617965204</ele><time>2022-06-23T05:28:15Z</time></trkpt><trkpt lat="33.0560134" lon="132.6589382"><ele>1062.6548698069146</ele><time>2022-06-23T05:28:34Z</time></trkpt><trkpt lat="33.0558602" lon="132.6590657"><ele>1061.6229039079428</ele><time>2022-06-23T05:34:24Z</time></trkpt><trkpt lat="33.0557209" lon="132.6589291"><ele>1061.6673691437447</ele><time>2022-06-23T05:35:26Z</time></trkpt><trkpt lat="33.0555381" lon="132.6589323"><ele>1062.893235575297</ele><time>2022-06-23T05:35:50Z</time></trkpt><trkpt lat="33.0554071" lon="132.6587664"><ele>1061.3463277937235</ele><time>2022-06-23T05:37:33Z</time></trkpt><trkpt lat="33.0554542" lon="132.6585492"><ele>1058.005792527615</ele><time>2022-06-23T05:38:14Z</time></trkpt><trkpt lat="33.0555253" lon="132.6583499"><ele>1053.182645931141</ele><time>2022-06-23T05:38:38Z</time></trkpt><trkpt lat="33.0553392" lon="132.6583297"><ele>1048.7394471092432</ele><time>2022-06-23T05:38:54Z</time></trkpt><trkpt lat="33.0551809" lon="132.6582263"><ele>1044.1041002676038</ele><time>2022-06-23T05:39:47Z</time></trkpt><trkpt lat="33.0549824" lon="132.6583545"><ele>1041.5289046296396</ele><time>2022-06-23T05:40:14Z</time></trkpt><trkpt lat="33.0548123" lon="132.6582734"><ele>1037.7760294688494</ele><time>2022-06-23T05:40:34Z</time></trkpt><trkpt lat="33.0546768" lon="132.6581155"><ele>1034.8514131923794</ele><time>2022-06-23T05:40:55Z</time></trkpt><trkpt lat="33.0545081" lon="132.6581962"><ele>1031.741303938926</ele><time>2022-06-23T05:41:10Z</time></trkpt><trkpt lat="33.0545342" lon="132.6584191"><ele>1029.9863360650836</ele><time>2022-06-23T05:41:17Z</time></trkpt><trkpt lat="33.0545437" lon="132.6586366"><ele>1026.6959537008122</ele><time>2022-06-23T05:41:25Z</time></trkpt><trkpt lat="33.0546608" lon="132.6588203"><ele>1022.4440247374009</ele><time>2022-06-23T05:42:05Z</time></trkpt><trkpt lat="33.0546077" lon="132.6590423"><ele>1019.4138359956769</ele><time>2022-06-23T05:42:16Z</time></trkpt><trkpt lat="33.0546543" lon="132.6592496"><ele>1016.8330532287533</ele><time>2022-06-23T05:42:41Z</time></trkpt><trkpt lat="33.0544773" lon="132.6591863"><ele>1013.209062800312</ele><time>2022-06-23T05:43:13Z</time></trkpt><trkpt lat="33.0545862" lon="132.6593646"><ele>1006.2786718017373</ele><time>2022-06-23T05:43:55Z</time></trkpt><trkpt lat="33.0545275" lon="132.6595673"><ele>1000.2526146109839</ele><time>2022-06-23T05:44:14Z</time></trkpt><trkpt lat="33.0543754" lon="132.659431"><ele>995.2199868707215</ele><time>2022-06-23T05:44:31Z</time></trkpt><trkpt lat="33.0544093" lon="132.6596428"><ele>990.5003190254738</ele><time>2022-06-23T05:45:29Z</time></trkpt><trkpt lat="33.0544726" lon="132.6598491"><ele>985.7562197495762</ele><time>2022-06-23T05:45:59Z</time></trkpt><trkpt lat="33.0545707" lon="132.6600314"><ele>980.1781734295095</ele><time>2022-06-23T05:47:36Z</time></trkpt><trkpt lat="33.0545392" lon="132.6602446"><ele>975.3242870436115</ele><time>2022-06-23T05:48:18Z</time></trkpt><trkpt lat="33.054608" lon="132.6604428"><ele>969.01614971251</ele><time>2022-06-23T05:48:36Z</time></trkpt><trkpt lat="33.0544915" lon="132.6606109"><ele>960.9574936798099</ele><time>2022-06-23T05:49:40Z</time></trkpt><trkpt lat="33.0544293" lon="132.660814"><ele>952.9770950540119</ele><time>2022-06-23T05:49:55Z</time></trkpt><trkpt lat="33.0544791" lon="132.6610209"><ele>946.9031505991385</ele><time>2022-06-23T05:50:07Z</time></trkpt><trkpt lat="33.0546588" lon="132.6612157"><ele>938.6853644186773</ele><time>2022-06-23T05:50:55Z</time></trkpt><trkpt lat="33.0545459" lon="132.661401"><ele>932.0676618192805</ele><time>2022-06-23T05:51:37Z</time></trkpt><trkpt lat="33.0543478" lon="132.6613767"><ele>924.2648163336893</ele><time>2022-06-23T05:51:53Z</time></trkpt><trkpt lat="33.0542678" lon="132.6615704"><ele>921.656817073761</ele><time>2022-06-23T05:52:46Z</time></trkpt><trkpt lat="33.0541985" lon="132.6617699"><ele>919.3560605568537</ele><time>2022-06-23T05:53:03Z</time></trkpt><trkpt lat="33.0540971" lon="132.6619581"><ele>916.4249094386756</ele><time>2022-06-23T05:53:16Z</time></trkpt><trkpt lat="33.05397" lon="132.6621116"><ele>914.3627709097254</ele><time>2022-06-23T05:53:29Z</time></trkpt><trkpt lat="33.0539068" lon="132.6623175"><ele>910.3326980885931</ele><time>2022-06-23T05:53:47Z</time></trkpt><trkpt lat="33.0537203" lon="132.662346"><ele>906.3780723339105</ele><time>2022-06-23T05:54:08Z</time></trkpt><trkpt lat="33.053692" lon="132.6625599"><ele>896.6594322682204</ele><time>2022-06-23T05:55:06Z</time></trkpt><trkpt lat="33.0536446" lon="132.6627729"><ele>886.0753488090483</ele><time>2022-06-23T05:55:36Z</time></trkpt><trkpt lat="33.0535408" lon="132.6629621"><ele>876.3041390526843</ele><time>2022-06-23T05:55:50Z</time></trkpt><trkpt lat="33.0534908" lon="132.6631695"><ele>870.4436872537212</ele><time>2022-06-23T05:56:09Z</time></trkpt><trkpt lat="33.053385" lon="132.6633595"><ele>864.2032233933069</ele><time>2022-06-23T05:56:40Z</time></trkpt><trkpt lat="33.0532031" lon="132.6633865"><ele>858.3544928761886</ele><time>2022-06-23T05:56:52Z</time></trkpt><trkpt lat="33.0530259" lon="132.6633047"><ele>851.7136405311006</ele><time>2022-06-23T05:57:04Z</time></trkpt><trkpt lat="33.0529386" lon="132.6630982"><ele>848.1989954706747</ele><time>2022-06-23T05:57:16Z</time></trkpt><trkpt lat="33.0528963" lon="132.6633169"><ele>843.2896947847595</ele><time>2022-06-23T05:57:41Z</time></trkpt><trkpt lat="33.0530641" lon="132.663416"><ele>838.8673626961208</ele><time>2022-06-23T05:57:53Z</time></trkpt><trkpt lat="33.0528854" lon="132.6634675"><ele>833.1935299655387</ele><time>2022-06-23T05:58:12Z</time></trkpt><trkpt lat="33.0527302" lon="132.6635887"><ele>827.8537501839311</ele><time>2022-06-23T05:58:26Z</time></trkpt><trkpt lat="33.0525817" lon="132.6637123"><ele>823.2849932247094</ele><time>2022-06-23T05:58:43Z</time></trkpt><trkpt lat="33.0523989" lon="132.6637293"><ele>818.6794643731058</ele><time>2022-06-23T05:59:01Z</time></trkpt></trkseg></trk></gpx>