<?xml version='1.0' encoding='UTF-8'?><gpx creator="Yama Museum Peak Annotator" xsi:schemaLocation="http://www.topografix.com/GPX/1/1 http://www.topografix.com/GPX/1/1/gpx.xsd" version="1.1" xmlns="http://www.topografix.com/GPX/1/1" xmlns:xsi="http://www.w3.org/2001/XMLSchema-instance"><metadata><bounds maxlat="33.538124" maxlon="132.4690348" minlat="33.5350121" minlon="132.4652314"/></metadata>  <wpt lat="33.5350475" lon="132.4654448">
    <ele>822.6353431394673</ele>
    <name>出石山</name>
    <desc>Peak detected at 823m (prominence: 53m)</desc>
    <sym>Summit</sym>
  </wpt>
<trk><name>出石山</name><number>1</number><trkseg><trkpt lat="33.5380969" lon="132.4690348"><ele>765.7771770193348</ele><time>2022-11-14T04:02:59Z</time></trkpt><trkpt lat="33.5379581" lon="132.4688959"><ele>765.5991518974763</ele><time>2022-11-14T04:03:46Z</time></trkpt><trkpt lat="33.5378386" lon="132.4687258"><ele>767.0738180813993</ele><time>2022-11-14T04:04:03Z</time></trkpt><trkpt lat="33.5376799" lon="132.4686199"><ele>769.5744062992085</ele><time>2022-11-14T04:04:20Z</time></trkpt><trkpt lat="33.5375857" lon="132.4684358"><ele>772.6799977108489</ele><time>2022-11-14T04:04:34Z</time></trkpt><trkpt lat="33.5374003" lon="132.4684219"><ele>774.6676166741287</ele><time>2022-11-14T04:04:51Z</time></trkpt><trkpt lat="33.5372101" lon="132.468346"><ele>776.4820200551334</ele><time>2022-11-14T04:05:12Z</time></trkpt><trkpt lat="33.53704" lon="132.4682611"><ele>778.6798943918834</ele><time>2022-11-14T04:05:23Z</time></trkpt><trkpt lat="33.5369194" lon="132.4680955"><ele>781.170808108859</ele><time>2022-11-14T04:05:36Z</time></trkpt><trkpt lat="33.5367833" lon="132.4679507"><ele>783.1346176032952</ele><time>2022-11-14T04:05:49Z</time></trkpt><trkpt lat="33.5366669" lon="132.467781"><ele>784.348760694614</ele><time>2022-11-14T04:06:03Z</time></trkpt><trkpt lat="33.5365508" lon="132.4676141"><ele>785.3526672295142</ele><time>2022-11-14T04:06:15Z</time></trkpt><trkpt lat="33.5364956" lon="132.4674003"><ele>786.0327695260029</ele><time>2022-11-14T04:06:36Z</time></trkpt><trkpt lat="33.5363459" lon="132.467244"><ele>786.6530154860299</ele><time>2022-11-14T04:06:53Z</time></trkpt><trkpt lat="33.5362023" lon="132.4671105"><ele>786.3047201449759</ele><time>2022-11-14T04:07:09Z</time></trkpt><trkpt lat="33.5361238" lon="132.466909"><ele>786.7212824603174</ele><time>2022-11-14T04:07:21Z</time></trkpt><trkpt lat="33.5359699" lon="132.4667718"><ele>787.2704428372954</ele><time>2022-11-14T04:07:32Z</time></trkpt><trkpt lat="33.5358683" lon="132.4665925"><ele>790.2995951569634</ele><time>2022-11-14T04:08:05Z</time></trkpt><trkpt lat="33.5357497" lon="132.4664242"><ele>794.0473129118603</ele><time>2022-11-14T04:08:24Z</time></trkpt><trkpt lat="33.5356089" lon="132.4662592"><ele>802.3561047166037</ele><time>2022-11-14T04:09:20Z</time></trkpt><trkpt lat="33.5355631" lon="132.4660459"><ele>808.7348467122068</ele><time>2022-11-14T04:09:29Z</time></trkpt><trkpt lat="33.535417" lon="132.4659127"><ele>812.9839321999393</ele><time>2022-11-14T04:09:39Z</time></trkpt><trkpt lat="33.5352769" lon="132.4657716"><ele>814.2507353340743</ele><time>2022-11-14T04:09:52Z</time></trkpt><trkpt lat="33.5351452" lon="132.4656221"><ele>815.7132365482639</ele><time>2022-11-14T04:10:45Z</time></trkpt><trkpt lat="33.5350415" lon="132.4654448"><ele>819.30525980358</ele><time>2022-11-14T04:11:10Z</time></trkpt><trkpt lat="33.5350121" lon="132.4652314"><ele>821.3488623874767</ele><time>2022-11-14T04:12:03Z</time></trkpt><trkpt lat="33.5350475" lon="132.4654448"><ele>822.6353431394673</ele><time>2022-11-14T04:16:20Z</time></trkpt><trkpt lat="33.5351858" lon="132.465584"><ele>821.5966825858004</ele><time>2022-11-14T04:16:45Z</time></trkpt><trkpt lat="33.5353143" lon="132.4657503"><ele>819.7692051269696</ele><time>2022-11-14T04:16:57Z</time></trkpt><trkpt lat="33.535463" lon="132.465873"><ele>817.1052344258442</ele><time>2022-11-14T04:17:20Z</time></trkpt><trkpt lat="33.5354995" lon="132.4660872"><ele>813.5552839316421</ele><time>2022-11-14T04:18:28Z</time></trkpt><trkpt lat="33.5356646" lon="132.4661939"><ele>809.9960251297344</ele><time>2022-11-14T04:18:40Z</time></trkpt><trkpt lat="33.5358324" lon="132.4662738"><ele>803.7205575949819</ele><time>2022-11-14T04:19:24Z</time></trkpt><trkpt lat="33.5359287" lon="132.4664589"><ele>797.383818637164</ele><time>2022-11-14T04:19:42Z</time></trkpt><trkpt lat="33.5359759" lon="132.4666707"><ele>790.360052286442</ele><time>2022-11-14T04:20:00Z</time></trkpt><trkpt lat="33.5360506" lon="132.4668668"><ele>787.1682693090847</ele><time>2022-11-14T04:20:14Z</time></trkpt><trkpt lat="33.5362054" lon="132.4670063"><ele>785.6335682436312</ele><time>2022-11-14T04:20:26Z</time></trkpt><trkpt lat="33.5363327" lon="132.4671632"><ele>785.2036508296973</ele><time>2022-11-14T04:20:37Z</time></trkpt><trkpt lat="33.5364737" lon="132.4672986"><ele>785.0354463690866</ele><time>2022-11-14T04:20:55Z</time></trkpt><trkpt lat="33.5365874" lon="132.4674681"><ele>785.1328645166445</ele><time>2022-11-14T04:21:12Z</time></trkpt><trkpt lat="33.536697" lon="132.4676502"><ele>785.0953118299849</ele><time>2022-11-14T04:21:23Z</time></trkpt><trkpt lat="33.5368009" lon="132.4678278"><ele>784.4871833051399</ele><time>2022-11-14T04:21:35Z</time></trkpt><trkpt lat="33.5369319" lon="132.4679873"><ele>783.1143030575005</ele><time>2022-11-14T04:21:51Z</time></trkpt><trkpt lat="33.5370694" lon="132.4681314"><ele>781.5176495619058</ele><time>2022-11-14T04:22:03Z</time></trkpt><trkpt lat="33.5372133" lon="132.4682622"><ele>779.3523835767637</ele><time>2022-11-14T04:22:17Z</time></trkpt><trkpt lat="33.5373791" lon="132.4683654"><ele>776.5631713764838</ele><time>2022-11-14T04:22:36Z</time></trkpt><trkpt lat="33.5375578" lon="132.4684466"><ele>773.5398085725811</ele><time>2022-11-14T04:22:51Z</time></trkpt><trkpt lat="33.5377272" lon="132.4685331"><ele>771.5970827798163</ele><time>2022-11-14T04:23:05Z</time></trkpt><trkpt lat="33.5378804" lon="132.4686769"><ele>769.7720500926365</ele><time>2022-11-14T04:23:29Z</time></trkpt><trkpt lat="33.5379718" lon="132.4688634"><ele>768.114733629152</ele><time>2022-11-14T04:24:29Z</time></trkpt><trkpt lat="33.538124" lon="132.4689895"><ele>766.1734460048664</ele><time>2022-11-14T04:24:46Z</time></trkpt></trkseg></trk></gpx>