<?xml version='1.0' encoding='UTF-8'?><gpx creator="Yama Museum Peak Annotator" xsi:schemaLocation="http://www.topografix.com/GPX/1/1 http://www.topografix.com/GPX/1/1/gpx.xsd" version="1.1" xmlns="http://www.topografix.com/GPX/1/1" xmlns:xsi="http://www.w3.org/2001/XMLSchema-instance"><metadata><bounds maxlat="34.1598865" maxlon="133.0771928" minlat="34.1585381" minlon="133.0762935"/></metadata>  <wpt lat="34.1597225" lon="133.0770866">
    <ele>235.75333333333333</ele>
    <name>高取山</name>
    <desc>Peak detected at 236m (prominence: 44m)</desc>
    <sym>Summit</sym>
  </wpt>
<trk><name>高取山</name><number>1</number><trkseg><trkpt lat="34.1586399" lon="133.0765748"><ele>183.9</ele><time>2025-02-09T02:27:45Z</time></trkpt><trkpt lat="34.1588019" lon="133.0764674"><ele>184.43</ele><time>2025-02-09T02:31:01Z</time></trkpt><trkpt lat="34.159006" lon="133.0764228"><ele>184.03333333333333</ele><time>2025-02-09T02:31:49Z</time></trkpt><trkpt lat="34.1591894" lon="133.0764445"><ele>185.61666666666667</ele><time>2025-02-09T02:33:34Z</time></trkpt><trkpt lat="34.1593491" lon="133.0765887"><ele>192.60666666666665</ele><time>2025-02-09T02:34:13Z</time></trkpt><trkpt lat="34.159534" lon="133.0766651"><ele>202.9266666666667</ele><time>2025-02-09T02:35:04Z</time></trkpt><trkpt lat="34.1596026" lon="133.0768712"><ele>213.78333333333333</ele><time>2025-02-09T02:35:41Z</time></trkpt><trkpt lat="34.1597207" lon="133.0770713"><ele>222.85666666666668</ele><time>2025-02-09T02:36:43Z</time></trkpt><trkpt lat="34.1598865" lon="133.0771928"><ele>231.77666666666667</ele><time>2025-02-09T02:37:28Z</time></trkpt><trkpt lat="34.1597225" lon="133.0770866"><ele>235.75333333333333</ele><time>2025-02-09T02:46:55Z</time></trkpt><trkpt lat="34.1595604" lon="133.0769551"><ele>232.58</ele><time>2025-02-09T02:47:10Z</time></trkpt><trkpt lat="34.159416" lon="133.0767942"><ele>223.0</ele><time>2025-02-09T02:47:31Z</time></trkpt><trkpt lat="34.1593226" lon="133.076579"><ele>211.85666666666668</ele><time>2025-02-09T02:48:01Z</time></trkpt><trkpt lat="34.1591591" lon="133.0764568"><ele>200.48666666666668</ele><time>2025-02-09T02:48:40Z</time></trkpt><trkpt lat="34.1590109" lon="133.0762935"><ele>190.67999999999998</ele><time>2025-02-09T02:49:09Z</time></trkpt><trkpt lat="34.1588296" lon="133.076343"><ele>186.63000000000002</ele><time>2025-02-09T02:49:45Z</time></trkpt><trkpt lat="34.1587357" lon="133.0765414"><ele>183.88333333333333</ele><time>2025-02-09T02:50:13Z</time></trkpt><trkpt lat="34.1585381" lon="133.0766218"><ele>184.1866666666667</ele><time>2025-02-09T02:50:41Z</time></trkpt></trkseg></trk></gpx>