<?xml version='1.0' encoding='UTF-8'?><gpx creator="Yama Museum Peak Annotator" xsi:schemaLocation="http://www.topografix.com/GPX/1/1 http://www.topografix.com/GPX/1/1/gpx.xsd" version="1.1" xmlns="http://www.topografix.com/GPX/1/1" xmlns:xsi="http://www.w3.org/2001/XMLSchema-instance"><metadata><bounds maxlat="34.1249269" maxlon="132.9450968" minlat="34.1236382" minlon="132.9436641"/></metadata><trk><name>塔ノ峰</name><number>1</number><trkseg><trkpt lat="34.1236382" lon="132.9444901"><ele>115.3</ele><time>2022-12-25T01:46:04Z</time></trkpt><trkpt lat="34.1237429" lon="132.9446754"><ele>115.9</ele><time>2022-12-25T01:46:38Z</time></trkpt><trkpt lat="34.1237388" lon="132.9448974"><ele>115.38</ele><time>2022-12-25T01:46:47Z</time></trkpt><trkpt lat="34.1239227" lon="132.9448618"><ele>115.98666666666668</ele><time>2022-12-25T01:47:00Z</time></trkpt><trkpt lat="34.1239622" lon="132.9446455"><ele>116.67</ele><time>2022-12-25T01:47:41Z</time></trkpt><trkpt lat="34.1241428" lon="132.9446034"><ele>118.57666666666667</ele><time>2022-12-25T01:47:57Z</time></trkpt><trkpt lat="34.1242921" lon="132.9444719"><ele>120.33999999999999</ele><time>2022-12-25T01:48:16Z</time></trkpt><trkpt lat="34.1244252" lon="132.9443204"><ele>122.56</ele><time>2022-12-25T01:48:27Z</time></trkpt><trkpt lat="34.1244768" lon="132.9441046"><ele>125.61333333333334</ele><time>2022-12-25T01:48:48Z</time></trkpt><trkpt lat="34.1245161" lon="132.9438809"><ele>129.55666666666667</ele><time>2022-12-25T01:49:00Z</time></trkpt><trkpt lat="34.1245307" lon="132.9436641"><ele>132.00333333333336</ele><time>2022-12-25T01:49:14Z</time></trkpt><trkpt lat="34.1246387" lon="132.9438396"><ele>135.39666666666668</ele><time>2022-12-25T01:50:02Z</time></trkpt><trkpt lat="34.1248196" lon="132.9438617"><ele>138.67000000000002</ele><time>2022-12-25T01:50:20Z</time></trkpt><trkpt lat="34.1249269" lon="132.9440428"><ele>143.15</ele><time>2022-12-25T01:52:00Z</time></trkpt><trkpt lat="34.1249009" lon="132.9442641"><ele>144.34</ele><time>2022-12-25T01:54:58Z</time></trkpt><trkpt lat="34.1247411" lon="132.9444096"><ele>142.25333333333336</ele><time>2022-12-25T01:55:44Z</time></trkpt><trkpt lat="34.1246349" lon="132.9445895"><ele>137.58666666666667</ele><time>2022-12-25T01:56:37Z</time></trkpt><trkpt lat="34.1244559" lon="132.9446983"><ele>132.77333333333334</ele><time>2022-12-25T01:56:49Z</time></trkpt><trkpt lat="34.1242863" lon="132.9447897"><ele>127.20666666666666</ele><time>2022-12-25T01:57:00Z</time></trkpt><trkpt lat="34.124108" lon="132.9448657"><ele>122.94333333333333</ele><time>2022-12-25T01:57:09Z</time></trkpt><trkpt lat="34.1239732" lon="132.9450114"><ele>117.94666666666667</ele><time>2022-12-25T01:57:21Z</time></trkpt><trkpt lat="34.1237972" lon="132.9450968"><ele>115.09666666666668</ele><time>2022-12-25T01:57:32Z</time></trkpt><trkpt lat="34.1236981" lon="132.9448786"><ele>113.47666666666667</ele><time>2022-12-25T01:57:43Z</time></trkpt></trkseg></trk></gpx>