<?xml version='1.0' encoding='UTF-8'?><gpx creator="Yama Museum Peak Annotator" xsi:schemaLocation="http://www.topografix.com/GPX/1/1 http://www.topografix.com/GPX/1/1/gpx.xsd" version="1.1" xmlns="http://www.topografix.com/GPX/1/1" xmlns:xsi="http://www.w3.org/2001/XMLSchema-instance"><metadata><bounds maxlat="33.5754516" maxlon="132.8438909" minlat="33.5704462" minlon="132.8385456"/></metadata>  <wpt lat="33.5709203" lon="132.8411558">
    <ele>369.3233333333333</ele>
    <name>愛宕山</name>
    <desc>Peak detected at 369m (prominence: 124m)</desc>
    <sym>Summit</sym>
  </wpt>
<trk><name>愛宕山</name><number>1</number><trkseg><trkpt lat="33.5740776" lon="132.8385456"><ele>241.46</ele><time>2026-03-04T00:46:21Z</time></trkpt><trkpt lat="33.5742512" lon="132.8386341"><ele>242.0</ele><time>2026-03-04T00:47:26Z</time></trkpt><trkpt lat="33.5744414" lon="132.8387494"><ele>243.01999999999998</ele><time>2026-03-04T00:47:44Z</time></trkpt><trkpt lat="33.5746088" lon="132.8389019"><ele>244.2166666666667</ele><time>2026-03-04T00:48:02Z</time></trkpt><trkpt lat="33.5747488" lon="132.8390509"><ele>245.13666666666668</ele><time>2026-03-04T00:48:17Z</time></trkpt><trkpt lat="33.5748363" lon="132.8392692"><ele>244.66</ele><time>2026-03-04T00:48:44Z</time></trkpt><trkpt lat="33.5749256" lon="132.8395075"><ele>243.76333333333332</ele><time>2026-03-04T00:48:59Z</time></trkpt><trkpt lat="33.5749948" lon="132.8397354"><ele>242.73000000000002</ele><time>2026-03-04T00:49:14Z</time></trkpt><trkpt lat="33.5750434" lon="132.8399681"><ele>242.53333333333333</ele><time>2026-03-04T00:49:29Z</time></trkpt><trkpt lat="33.5751335" lon="132.8401865"><ele>242.95000000000002</ele><time>2026-03-04T00:49:44Z</time></trkpt><trkpt lat="33.5752004" lon="132.8403895"><ele>243.85999999999999</ele><time>2026-03-04T00:49:59Z</time></trkpt><trkpt lat="33.5752676" lon="132.8406153"><ele>244.94000000000003</ele><time>2026-03-04T00:50:14Z</time></trkpt><trkpt lat="33.5753478" lon="132.8408215"><ele>245.8766666666667</ele><time>2026-03-04T00:50:29Z</time></trkpt><trkpt lat="33.5754242" lon="132.8410666"><ele>246.17</ele><time>2026-03-04T00:51:05Z</time></trkpt><trkpt lat="33.5754267" lon="132.8413067"><ele>245.57000000000002</ele><time>2026-03-04T00:51:20Z</time></trkpt><trkpt lat="33.5752471" lon="132.8413803"><ele>245.42666666666665</ele><time>2026-03-04T00:51:35Z</time></trkpt><trkpt lat="33.5750576" lon="132.8413246"><ele>245.57000000000002</ele><time>2026-03-04T00:51:50Z</time></trkpt><trkpt lat="33.5748705" lon="132.8413705"><ele>247.31333333333336</ele><time>2026-03-04T00:52:07Z</time></trkpt><trkpt lat="33.5746661" lon="132.8413636"><ele>250.19000000000003</ele><time>2026-03-04T00:52:39Z</time></trkpt><trkpt lat="33.5744616" lon="132.8413776"><ele>254.04333333333338</ele><time>2026-03-04T00:53:03Z</time></trkpt><trkpt lat="33.574292" lon="132.8413019"><ele>256.24</ele><time>2026-03-04T00:53:18Z</time></trkpt><trkpt lat="33.5741091" lon="132.8413253"><ele>257.2033333333333</ele><time>2026-03-04T00:53:36Z</time></trkpt><trkpt lat="33.5739168" lon="132.8414392"><ele>258.61999999999995</ele><time>2026-03-04T00:53:51Z</time></trkpt><trkpt lat="33.5737318" lon="132.8414729"><ele>260.92</ele><time>2026-03-04T00:54:06Z</time></trkpt><trkpt lat="33.5735441" lon="132.8415737"><ele>263.2</ele><time>2026-03-04T00:54:21Z</time></trkpt><trkpt lat="33.5733784" lon="132.8416955"><ele>264.8</ele><time>2026-03-04T00:54:39Z</time></trkpt><trkpt lat="33.5732282" lon="132.8418709"><ele>267.38000000000005</ele><time>2026-03-04T00:54:57Z</time></trkpt><trkpt lat="33.5731242" lon="132.8420953"><ele>272.01666666666665</ele><time>2026-03-04T00:55:15Z</time></trkpt><trkpt lat="33.5729582" lon="132.8422018"><ele>276.84</ele><time>2026-03-04T00:55:33Z</time></trkpt><trkpt lat="33.572774" lon="132.842234"><ele>280.26666666666665</ele><time>2026-03-04T00:56:54Z</time></trkpt><trkpt lat="33.5725961" lon="132.8423536"><ele>281.33</ele><time>2026-03-04T00:57:45Z</time></trkpt><trkpt lat="33.5724334" lon="132.8424625"><ele>281.08</ele><time>2026-03-04T00:58:03Z</time></trkpt><trkpt lat="33.572306" lon="132.8426332"><ele>281.7366666666667</ele><time>2026-03-04T00:58:18Z</time></trkpt><trkpt lat="33.5721902" lon="132.8428024"><ele>282.6133333333333</ele><time>2026-03-04T00:58:33Z</time></trkpt><trkpt lat="33.5721316" lon="132.8430439"><ele>285.1433333333334</ele><time>2026-03-04T00:58:51Z</time></trkpt><trkpt lat="33.5720732" lon="132.8432481"><ele>288.68333333333334</ele><time>2026-03-04T00:59:06Z</time></trkpt><trkpt lat="33.5718766" lon="132.8433545"><ele>291.8433333333333</ele><time>2026-03-04T00:59:21Z</time></trkpt><trkpt lat="33.5716635" lon="132.8434264"><ele>293.93666666666667</ele><time>2026-03-04T00:59:36Z</time></trkpt><trkpt lat="33.5714994" lon="132.8435192"><ele>294.06666666666666</ele><time>2026-03-04T00:59:51Z</time></trkpt><trkpt lat="33.5713054" lon="132.8436243"><ele>294.9433333333333</ele><time>2026-03-04T01:00:09Z</time></trkpt><trkpt lat="33.5711042" lon="132.8436826"><ele>297.05333333333334</ele><time>2026-03-04T01:00:27Z</time></trkpt><trkpt lat="33.5708909" lon="132.8437133"><ele>298.78000000000003</ele><time>2026-03-04T01:00:45Z</time></trkpt><trkpt lat="33.5707074" lon="132.8438097"><ele>300.05</ele><time>2026-03-04T01:01:03Z</time></trkpt><trkpt lat="33.5705123" lon="132.8438909"><ele>300.90000000000003</ele><time>2026-03-04T01:01:21Z</time></trkpt><trkpt lat="33.5704462" lon="132.8436575"><ele>300.87999999999994</ele><time>2026-03-04T01:01:56Z</time></trkpt><trkpt lat="33.5705288" lon="132.8434424"><ele>301.25666666666666</ele><time>2026-03-04T01:02:11Z</time></trkpt><trkpt lat="33.5706662" lon="132.8432928"><ele>301.03000000000003</ele><time>2026-03-04T01:02:26Z</time></trkpt><trkpt lat="33.5707388" lon="132.8430579"><ele>302.98333333333335</ele><time>2026-03-04T01:02:53Z</time></trkpt><trkpt lat="33.5708091" lon="132.8428217"><ele>304.52</ele><time>2026-03-04T01:03:11Z</time></trkpt><trkpt lat="33.5709503" lon="132.8426507"><ele>305.32666666666665</ele><time>2026-03-04T01:03:32Z</time></trkpt><trkpt lat="33.5711163" lon="132.8425073"><ele>304.9733333333333</ele><time>2026-03-04T01:03:47Z</time></trkpt><trkpt lat="33.5712793" lon="132.8423737"><ele>304.04333333333335</ele><time>2026-03-04T01:04:02Z</time></trkpt><trkpt lat="33.5714618" lon="132.8422985"><ele>302.12999999999994</ele><time>2026-03-04T01:04:17Z</time></trkpt><trkpt lat="33.571645" lon="132.8422295"><ele>299.3</ele><time>2026-03-04T01:04:32Z</time></trkpt><trkpt lat="33.5718301" lon="132.842182"><ele>295.19666666666666</ele><time>2026-03-04T01:04:46Z</time></trkpt><trkpt lat="33.5719499" lon="132.8420198"><ele>292.28</ele><time>2026-03-04T01:05:10Z</time></trkpt><trkpt lat="33.5721106" lon="132.8418822"><ele>289.55333333333334</ele><time>2026-03-04T01:05:25Z</time></trkpt><trkpt lat="33.5721483" lon="132.8416373"><ele>290.5733333333333</ele><time>2026-03-04T01:05:43Z</time></trkpt><trkpt lat="33.5723005" lon="132.8415081"><ele>290.06333333333333</ele><time>2026-03-04T01:05:58Z</time></trkpt><trkpt lat="33.5724383" lon="132.841355"><ele>290.5366666666667</ele><time>2026-03-04T01:06:19Z</time></trkpt><trkpt lat="33.5725515" lon="132.8411871"><ele>289.22333333333336</ele><time>2026-03-04T01:06:36Z</time></trkpt><trkpt lat="33.5727312" lon="132.8411374"><ele>288.70666666666665</ele><time>2026-03-04T01:06:50Z</time></trkpt><trkpt lat="33.5728992" lon="132.8410252"><ele>288.50666666666666</ele><time>2026-03-04T01:07:11Z</time></trkpt><trkpt lat="33.5730213" lon="132.8408425"><ele>291.08</ele><time>2026-03-04T01:07:38Z</time></trkpt><trkpt lat="33.5728423" lon="132.8408054"><ele>295.87</ele><time>2026-03-04T01:08:28Z</time></trkpt><trkpt lat="33.5726555" lon="132.8408031"><ele>302.22</ele><time>2026-03-04T01:09:16Z</time></trkpt><trkpt lat="33.5724835" lon="132.8407302"><ele>309.8333333333333</ele><time>2026-03-04T01:09:46Z</time></trkpt><trkpt lat="33.5723194" lon="132.840632"><ele>317.6666666666667</ele><time>2026-03-04T01:11:01Z</time></trkpt><trkpt lat="33.5721378" lon="132.8406595"><ele>325.7266666666667</ele><time>2026-03-04T01:11:55Z</time></trkpt><trkpt lat="33.5719508" lon="132.8406408"><ele>331.6033333333333</ele><time>2026-03-04T01:12:22Z</time></trkpt><trkpt lat="33.5717649" lon="132.8406538"><ele>338.98</ele><time>2026-03-04T01:13:34Z</time></trkpt><trkpt lat="33.5715909" lon="132.8407403"><ele>345.7633333333333</ele><time>2026-03-04T01:14:16Z</time></trkpt><trkpt lat="33.5714353" lon="132.8408603"><ele>352.3866666666667</ele><time>2026-03-04T01:14:57Z</time></trkpt><trkpt lat="33.5712565" lon="132.8408076"><ele>358.6000000000001</ele><time>2026-03-04T01:15:30Z</time></trkpt><trkpt lat="33.5711044" lon="132.8409267"><ele>364.79333333333335</ele><time>2026-03-04T01:16:15Z</time></trkpt><trkpt lat="33.571106" lon="132.8411527"><ele>368.0233333333333</ele><time>2026-03-04T01:17:24Z</time></trkpt><trkpt lat="33.5709203" lon="132.8411558"><ele>369.3233333333333</ele><time>2026-03-04T01:18:03Z</time></trkpt><trkpt lat="33.5711098" lon="132.8411078"><ele>368.34999999999997</ele><time>2026-03-04T01:19:32Z</time></trkpt><trkpt lat="33.5712723" lon="132.840956"><ele>367.4666666666667</ele><time>2026-03-04T01:19:56Z</time></trkpt><trkpt lat="33.5714309" lon="132.8408507"><ele>363.3966666666667</ele><time>2026-03-04T01:20:23Z</time></trkpt><trkpt lat="33.5716256" lon="132.8407526"><ele>358.17666666666673</ele><time>2026-03-04T01:20:41Z</time></trkpt><trkpt lat="33.5718057" lon="132.8408057"><ele>349.2866666666667</ele><time>2026-03-04T01:21:51Z</time></trkpt><trkpt lat="33.5719296" lon="132.840639"><ele>343.72333333333336</ele><time>2026-03-04T01:23:06Z</time></trkpt><trkpt lat="33.57211" lon="132.8407286"><ele>335.99333333333334</ele><time>2026-03-04T01:23:54Z</time></trkpt><trkpt lat="33.5722954" lon="132.8406965"><ele>330.71999999999997</ele><time>2026-03-04T01:25:45Z</time></trkpt><trkpt lat="33.5724497" lon="132.8405663"><ele>324.5333333333333</ele><time>2026-03-04T01:26:26Z</time></trkpt><trkpt lat="33.5726534" lon="132.8405837"><ele>320.89000000000004</ele><time>2026-03-04T01:29:20Z</time></trkpt><trkpt lat="33.5728346" lon="132.8406029"><ele>317.3566666666666</ele><time>2026-03-04T01:29:38Z</time></trkpt><trkpt lat="33.5730228" lon="132.8405657"><ele>311.49333333333334</ele><time>2026-03-04T01:30:02Z</time></trkpt><trkpt lat="33.5732353" lon="132.8406081"><ele>306.07666666666665</ele><time>2026-03-04T01:30:50Z</time></trkpt><trkpt lat="33.5734253" lon="132.8405734"><ele>302.11333333333334</ele><time>2026-03-04T01:31:16Z</time></trkpt><trkpt lat="33.5736133" lon="132.8405535"><ele>298.05</ele><time>2026-03-04T01:31:40Z</time></trkpt><trkpt lat="33.5737931" lon="132.8405897"><ele>293.1766666666667</ele><time>2026-03-04T01:32:13Z</time></trkpt><trkpt lat="33.5739854" lon="132.8406012"><ele>287.57</ele><time>2026-03-04T01:32:37Z</time></trkpt><trkpt lat="33.5741676" lon="132.8406397"><ele>282.82</ele><time>2026-03-04T01:33:12Z</time></trkpt><trkpt lat="33.5743783" lon="132.8406733"><ele>276.7866666666667</ele><time>2026-03-04T01:33:45Z</time></trkpt><trkpt lat="33.5745626" lon="132.840747"><ele>268.6033333333333</ele><time>2026-03-04T01:34:48Z</time></trkpt><trkpt lat="33.5744108" lon="132.8406294"><ele>265.80333333333334</ele><time>2026-03-04T01:35:57Z</time></trkpt><trkpt lat="33.5742569" lon="132.8405044"><ele>267.56666666666666</ele><time>2026-03-04T01:36:14Z</time></trkpt><trkpt lat="33.5741719" lon="132.8402974"><ele>269.18333333333334</ele><time>2026-03-04T01:36:59Z</time></trkpt><trkpt lat="33.5739906" lon="132.8402077"><ele>267.23333333333335</ele><time>2026-03-04T01:37:16Z</time></trkpt><trkpt lat="33.5738308" lon="132.8400736"><ele>263.49333333333334</ele><time>2026-03-04T01:37:31Z</time></trkpt><trkpt lat="33.5736535" lon="132.8399781"><ele>259.99</ele><time>2026-03-04T01:37:46Z</time></trkpt><trkpt lat="33.5738395" lon="132.8400272"><ele>257.64666666666665</ele><time>2026-03-04T01:38:21Z</time></trkpt><trkpt lat="33.5740442" lon="132.8400138"><ele>254.15333333333334</ele><time>2026-03-04T01:38:42Z</time></trkpt><trkpt lat="33.5742312" lon="132.8399978"><ele>252.71666666666667</ele><time>2026-03-04T01:39:45Z</time></trkpt><trkpt lat="33.5744108" lon="132.8400414"><ele>249.11333333333334</ele><time>2026-03-04T01:40:12Z</time></trkpt><trkpt lat="33.5746056" lon="132.8401299"><ele>245.78666666666666</ele><time>2026-03-04T01:40:30Z</time></trkpt><trkpt lat="33.5747189" lon="132.8402998"><ele>243.89333333333335</ele><time>2026-03-04T01:40:45Z</time></trkpt><trkpt lat="33.5747654" lon="132.8405195"><ele>243.04666666666665</ele><time>2026-03-04T01:41:06Z</time></trkpt><trkpt lat="33.5747773" lon="132.8407483"><ele>243.91</ele><time>2026-03-04T01:41:23Z</time></trkpt><trkpt lat="33.5747333" lon="132.8409816"><ele>245.14333333333335</ele><time>2026-03-04T01:41:39Z</time></trkpt><trkpt lat="33.5748557" lon="132.8411686"><ele>246.03666666666666</ele><time>2026-03-04T01:41:53Z</time></trkpt><trkpt lat="33.5749834" lon="132.8413453"><ele>246.78333333333333</ele><time>2026-03-04T01:42:05Z</time></trkpt><trkpt lat="33.57519" lon="132.8413831"><ele>246.79333333333332</ele><time>2026-03-04T01:42:20Z</time></trkpt><trkpt lat="33.5753781" lon="132.8413849"><ele>246.22333333333336</ele><time>2026-03-04T01:42:34Z</time></trkpt><trkpt lat="33.5754516" lon="132.8411819"><ele>245.97333333333336</ele><time>2026-03-04T01:42:49Z</time></trkpt><trkpt lat="33.5753846" lon="132.8409463"><ele>245.9266666666667</ele><time>2026-03-04T01:43:06Z</time></trkpt><trkpt lat="33.5753149" lon="132.8407215"><ele>246.61333333333334</ele><time>2026-03-04T01:43:21Z</time></trkpt><trkpt lat="33.5752447" lon="132.8404733"><ele>246.52666666666664</ele><time>2026-03-04T01:43:39Z</time></trkpt><trkpt lat="33.5752025" lon="132.8402635"><ele>245.97333333333333</ele><time>2026-03-04T01:43:53Z</time></trkpt><trkpt lat="33.5751239" lon="132.8400603"><ele>244.98666666666668</ele><time>2026-03-04T01:44:08Z</time></trkpt><trkpt lat="33.5750281" lon="132.8398318"><ele>244.01333333333332</ele><time>2026-03-04T01:44:25Z</time></trkpt><trkpt lat="33.5749719" lon="132.8396177"><ele>243.3033333333333</ele><time>2026-03-04T01:44:40Z</time></trkpt><trkpt lat="33.5748897" lon="132.8394058"><ele>242.99666666666667</ele><time>2026-03-04T01:44:55Z</time></trkpt><trkpt lat="33.574793" lon="132.8391878"><ele>243.18333333333337</ele><time>2026-03-04T01:45:13Z</time></trkpt><trkpt lat="33.574704" lon="132.8389944"><ele>244.04666666666665</ele><time>2026-03-04T01:45:28Z</time></trkpt><trkpt lat="33.5745626" lon="132.8388223"><ele>244.63333333333335</ele><time>2026-03-04T01:45:43Z</time></trkpt><trkpt lat="33.5744275" lon="132.8386454"><ele>245.17999999999998</ele><time>2026-03-04T01:46:03Z</time></trkpt><trkpt lat="33.5742538" lon="132.8385708"><ele>245.11666666666665</ele><time>2026-03-04T01:46:17Z</time></trkpt></trkseg></trk></gpx>