<?xml version='1.0' encoding='UTF-8'?><gpx creator="Yama Museum Peak Annotator" xsi:schemaLocation="http://www.topografix.com/GPX/1/1 http://www.topografix.com/GPX/1/1/gpx.xsd" version="1.1" xmlns="http://www.topografix.com/GPX/1/1" xmlns:xsi="http://www.w3.org/2001/XMLSchema-instance"><metadata><bounds maxlat="33.3706007" maxlon="132.4536564" minlat="33.3640233" minlon="132.4478324"/></metadata>  <wpt lat="33.3653822" lon="132.4528183">
    <ele>592.0266666666666</ele>
    <name>堂所山</name>
    <desc>Peak detected at 592m (prominence: 130m)</desc>
    <sym>Summit</sym>
  </wpt>
<trk><name>堂所山</name><number>1</number><trkseg><trkpt lat="33.3699767" lon="132.451058"><ele>461.66</ele><time>2025-10-26T02:45:44Z</time></trkpt><trkpt lat="33.3697693" lon="132.4509738"><ele>463.12</ele><time>2025-10-26T02:46:08Z</time></trkpt><trkpt lat="33.3695457" lon="132.4510012"><ele>465.49</ele><time>2025-10-26T02:46:23Z</time></trkpt><trkpt lat="33.3693935" lon="132.4508836"><ele>467.10999999999996</ele><time>2025-10-26T02:46:35Z</time></trkpt><trkpt lat="33.3695622" lon="132.4507913"><ele>466.2833333333333</ele><time>2025-10-26T02:47:14Z</time></trkpt><trkpt lat="33.3697425" lon="132.4506983"><ele>462.0366666666667</ele><time>2025-10-26T02:47:35Z</time></trkpt><trkpt lat="33.3699463" lon="132.4506683"><ele>457.6133333333334</ele><time>2025-10-26T02:47:51Z</time></trkpt><trkpt lat="33.3701767" lon="132.4502606"><ele>456.93333333333334</ele><time>2025-10-26T02:47:53Z</time></trkpt><trkpt lat="33.3701413" lon="132.4500278"><ele>461.78666666666663</ele><time>2025-10-26T02:48:08Z</time></trkpt><trkpt lat="33.3699871" lon="132.4499085"><ele>469.79333333333335</ele><time>2025-10-26T02:48:20Z</time></trkpt><trkpt lat="33.3698307" lon="132.4497733"><ele>477.48</ele><time>2025-10-26T02:48:32Z</time></trkpt><trkpt lat="33.3696947" lon="132.4496039"><ele>482.03999999999996</ele><time>2025-10-26T02:48:44Z</time></trkpt><trkpt lat="33.3696402" lon="132.4493799"><ele>483.45</ele><time>2025-10-26T02:48:56Z</time></trkpt><trkpt lat="33.3695297" lon="132.4491642"><ele>481.41333333333336</ele><time>2025-10-26T02:49:11Z</time></trkpt><trkpt lat="33.369415" lon="132.4489905"><ele>477.45666666666665</ele><time>2025-10-26T02:49:23Z</time></trkpt><trkpt lat="33.3692103" lon="132.4489197"><ele>475.94</ele><time>2025-10-26T02:49:41Z</time></trkpt><trkpt lat="33.3689858" lon="132.4489387"><ele>476.3966666666667</ele><time>2025-10-26T02:49:57Z</time></trkpt><trkpt lat="33.3687897" lon="132.4488462"><ele>477.01666666666665</ele><time>2025-10-26T02:50:09Z</time></trkpt><trkpt lat="33.3686315" lon="132.4487065"><ele>476.8433333333333</ele><time>2025-10-26T02:50:27Z</time></trkpt><trkpt lat="33.3685621" lon="132.4485058"><ele>475.2066666666667</ele><time>2025-10-26T02:50:42Z</time></trkpt><trkpt lat="33.3683614" lon="132.4483897"><ele>476.00666666666666</ele><time>2025-10-26T02:50:58Z</time></trkpt><trkpt lat="33.3681808" lon="132.4482607"><ele>477.23</ele><time>2025-10-26T02:51:13Z</time></trkpt><trkpt lat="33.3680497" lon="132.4480903"><ele>478.9433333333333</ele><time>2025-10-26T02:51:25Z</time></trkpt><trkpt lat="33.3678949" lon="132.4479639"><ele>478.67</ele><time>2025-10-26T02:51:37Z</time></trkpt><trkpt lat="33.36772" lon="132.4478776"><ele>477.9866666666667</ele><time>2025-10-26T02:52:22Z</time></trkpt><trkpt lat="33.3675564" lon="132.4480228"><ele>478.28999999999996</ele><time>2025-10-26T02:52:49Z</time></trkpt><trkpt lat="33.3673687" lon="132.4480902"><ele>478.78</ele><time>2025-10-26T02:53:07Z</time></trkpt><trkpt lat="33.3671776" lon="132.4481831"><ele>479.49</ele><time>2025-10-26T02:53:22Z</time></trkpt><trkpt lat="33.3670199" lon="132.4483112"><ele>480.31666666666666</ele><time>2025-10-26T02:53:37Z</time></trkpt><trkpt lat="33.3668281" lon="132.4483487"><ele>482.75333333333333</ele><time>2025-10-26T02:53:49Z</time></trkpt><trkpt lat="33.3666578" lon="132.4484275"><ele>484.1933333333333</ele><time>2025-10-26T02:54:01Z</time></trkpt><trkpt lat="33.3665047" lon="132.4485417"><ele>483.8766666666666</ele><time>2025-10-26T02:54:13Z</time></trkpt><trkpt lat="33.3664017" lon="132.4487813"><ele>483.39000000000004</ele><time>2025-10-26T02:54:29Z</time></trkpt><trkpt lat="33.3663692" lon="132.4490236"><ele>483.78333333333336</ele><time>2025-10-26T02:54:44Z</time></trkpt><trkpt lat="33.3663028" lon="132.44923"><ele>486.66</ele><time>2025-10-26T02:54:59Z</time></trkpt><trkpt lat="33.3661223" lon="132.4490999"><ele>489.1366666666667</ele><time>2025-10-26T02:55:26Z</time></trkpt><trkpt lat="33.3660254" lon="132.4489164"><ele>491.99333333333334</ele><time>2025-10-26T02:55:44Z</time></trkpt><trkpt lat="33.3658934" lon="132.448749"><ele>494.59</ele><time>2025-10-26T02:56:05Z</time></trkpt><trkpt lat="33.365703" lon="132.4486537"><ele>498.47</ele><time>2025-10-26T02:56:20Z</time></trkpt><trkpt lat="33.3655262" lon="132.4487242"><ele>502.13000000000005</ele><time>2025-10-26T02:56:38Z</time></trkpt><trkpt lat="33.3654781" lon="132.4489549"><ele>503.97</ele><time>2025-10-26T02:56:54Z</time></trkpt><trkpt lat="33.3655472" lon="132.4491553"><ele>504.42</ele><time>2025-10-26T02:57:05Z</time></trkpt><trkpt lat="33.3656527" lon="132.4493313"><ele>505.32</ele><time>2025-10-26T02:57:20Z</time></trkpt><trkpt lat="33.3655769" lon="132.4495441"><ele>509.02333333333337</ele><time>2025-10-26T02:57:36Z</time></trkpt><trkpt lat="33.3653658" lon="132.4495538"><ele>511.87000000000006</ele><time>2025-10-26T02:57:51Z</time></trkpt><trkpt lat="33.3651729" lon="132.4495215"><ele>511.6966666666667</ele><time>2025-10-26T02:58:06Z</time></trkpt><trkpt lat="33.3649926" lon="132.4495258"><ele>508.65000000000003</ele><time>2025-10-26T02:58:18Z</time></trkpt><trkpt lat="33.364788" lon="132.4496104"><ele>508.25666666666666</ele><time>2025-10-26T02:58:39Z</time></trkpt><trkpt lat="33.3645835" lon="132.4496789"><ele>512.8766666666667</ele><time>2025-10-26T02:58:57Z</time></trkpt><trkpt lat="33.3648724" lon="132.4497407"><ele>516.3066666666667</ele><time>2025-10-26T02:59:07Z</time></trkpt><trkpt lat="33.364634" lon="132.4497237"><ele>519.43</ele><time>2025-10-26T02:59:28Z</time></trkpt><trkpt lat="33.3644112" lon="132.4497995"><ele>521.8033333333333</ele><time>2025-10-26T02:59:40Z</time></trkpt><trkpt lat="33.3642021" lon="132.4497661"><ele>525.7833333333333</ele><time>2025-10-26T02:59:52Z</time></trkpt><trkpt lat="33.3640288" lon="132.4499083"><ele>528.09</ele><time>2025-10-26T03:00:07Z</time></trkpt><trkpt lat="33.3640233" lon="132.4501623"><ele>529.0666666666667</ele><time>2025-10-26T03:00:28Z</time></trkpt><trkpt lat="33.3640989" lon="132.4503894"><ele>531.3433333333334</ele><time>2025-10-26T03:00:44Z</time></trkpt><trkpt lat="33.3641961" lon="132.4505898"><ele>533.1866666666667</ele><time>2025-10-26T03:01:04Z</time></trkpt><trkpt lat="33.3642149" lon="132.4508227"><ele>532.46</ele><time>2025-10-26T03:01:36Z</time></trkpt><trkpt lat="33.3643923" lon="132.4509057"><ele>534.46</ele><time>2025-10-26T03:01:49Z</time></trkpt><trkpt lat="33.3644297" lon="132.4511348"><ele>531.5566666666666</ele><time>2025-10-26T03:02:25Z</time></trkpt><trkpt lat="33.3646163" lon="132.4511893"><ele>532.2466666666667</ele><time>2025-10-26T03:02:37Z</time></trkpt><trkpt lat="33.3647664" lon="132.4510685"><ele>534.4933333333333</ele><time>2025-10-26T03:02:56Z</time></trkpt><trkpt lat="33.364948" lon="132.4510468"><ele>541.75</ele><time>2025-10-26T03:03:12Z</time></trkpt><trkpt lat="33.3651464" lon="132.4510127"><ele>546.9533333333334</ele><time>2025-10-26T03:03:35Z</time></trkpt><trkpt lat="33.3652078" lon="132.4512362"><ele>547.9933333333333</ele><time>2025-10-26T03:03:56Z</time></trkpt><trkpt lat="33.3652364" lon="132.4514737"><ele>551.0533333333334</ele><time>2025-10-26T03:04:11Z</time></trkpt><trkpt lat="33.3651744" lon="132.4517128"><ele>554.9900000000001</ele><time>2025-10-26T03:04:29Z</time></trkpt><trkpt lat="33.3649747" lon="132.451857"><ele>556.2533333333334</ele><time>2025-10-26T03:04:50Z</time></trkpt><trkpt lat="33.3647783" lon="132.4519667"><ele>556.1633333333333</ele><time>2025-10-26T03:05:02Z</time></trkpt><trkpt lat="33.3646588" lon="132.4521634"><ele>557.5433333333334</ele><time>2025-10-26T03:05:15Z</time></trkpt><trkpt lat="33.3644902" lon="132.4522531"><ele>559.75</ele><time>2025-10-26T03:05:30Z</time></trkpt><trkpt lat="33.3644783" lon="132.4525121"><ele>563.6666666666666</ele><time>2025-10-26T03:05:49Z</time></trkpt><trkpt lat="33.3645861" lon="132.4526928"><ele>566.63</ele><time>2025-10-26T03:06:08Z</time></trkpt><trkpt lat="33.3647723" lon="132.4527784"><ele>571.3566666666667</ele><time>2025-10-26T03:06:25Z</time></trkpt><trkpt lat="33.3649501" lon="132.4528628"><ele>575.3566666666667</ele><time>2025-10-26T03:06:43Z</time></trkpt><trkpt lat="33.3650865" lon="132.4530043"><ele>576.8033333333334</ele><time>2025-10-26T03:06:58Z</time></trkpt><trkpt lat="33.3652605" lon="132.453128"><ele>578.9433333333333</ele><time>2025-10-26T03:07:14Z</time></trkpt><trkpt lat="33.3654321" lon="132.4532396"><ele>578.75</ele><time>2025-10-26T03:07:29Z</time></trkpt><trkpt lat="33.365605" lon="132.4533128"><ele>582.6233333333333</ele><time>2025-10-26T03:07:45Z</time></trkpt><trkpt lat="33.3657586" lon="132.4534928"><ele>583.9233333333333</ele><time>2025-10-26T03:08:00Z</time></trkpt><trkpt lat="33.3658911" lon="132.4536564"><ele>586.4933333333333</ele><time>2025-10-26T03:08:15Z</time></trkpt><trkpt lat="33.3658128" lon="132.4534594"><ele>587.0100000000001</ele><time>2025-10-26T03:10:50Z</time></trkpt><trkpt lat="33.3657874" lon="132.4532441"><ele>588.8633333333333</ele><time>2025-10-26T03:11:17Z</time></trkpt><trkpt lat="33.3657426" lon="132.453001"><ele>590.4366666666666</ele><time>2025-10-26T03:12:02Z</time></trkpt><trkpt lat="33.3655617" lon="132.4529335"><ele>591.3433333333332</ele><time>2025-10-26T03:12:23Z</time></trkpt><trkpt lat="33.3653822" lon="132.4528183"><ele>592.0266666666666</ele><time>2025-10-26T03:13:55Z</time></trkpt><trkpt lat="33.3652339" lon="132.4526762"><ele>591.76</ele><time>2025-10-26T03:14:22Z</time></trkpt><trkpt lat="33.3651274" lon="132.4524865"><ele>589.5766666666667</ele><time>2025-10-26T03:14:42Z</time></trkpt><trkpt lat="33.3649913" lon="132.4523323"><ele>584.2333333333332</ele><time>2025-10-26T03:15:04Z</time></trkpt><trkpt lat="33.365072" lon="132.4521364"><ele>577.0966666666667</ele><time>2025-10-26T03:15:25Z</time></trkpt><trkpt lat="33.3652582" lon="132.4521337"><ele>573.4033333333333</ele><time>2025-10-26T03:15:46Z</time></trkpt><trkpt lat="33.3652758" lon="132.4518878"><ele>569.9533333333334</ele><time>2025-10-26T03:16:46Z</time></trkpt><trkpt lat="33.3652147" lon="132.4516144"><ele>565.6</ele><time>2025-10-26T03:16:59Z</time></trkpt><trkpt lat="33.3652276" lon="132.4513973"><ele>558.4533333333334</ele><time>2025-10-26T03:17:11Z</time></trkpt><trkpt lat="33.3651755" lon="132.4511813"><ele>553.0733333333334</ele><time>2025-10-26T03:17:26Z</time></trkpt><trkpt lat="33.3650081" lon="132.4510419"><ele>549.9933333333333</ele><time>2025-10-26T03:17:41Z</time></trkpt><trkpt lat="33.3648306" lon="132.451081"><ele>548.0933333333332</ele><time>2025-10-26T03:17:59Z</time></trkpt><trkpt lat="33.3647342" lon="132.4512883"><ele>542.6</ele><time>2025-10-26T03:18:15Z</time></trkpt><trkpt lat="33.3645184" lon="132.4512196"><ele>536.1033333333334</ele><time>2025-10-26T03:18:30Z</time></trkpt><trkpt lat="33.3644111" lon="132.4510174"><ele>530.4866666666667</ele><time>2025-10-26T03:18:41Z</time></trkpt><trkpt lat="33.3642895" lon="132.4508487"><ele>529.5066666666667</ele><time>2025-10-26T03:18:56Z</time></trkpt><trkpt lat="33.364154" lon="132.4507014"><ele>529.3100000000001</ele><time>2025-10-26T03:19:10Z</time></trkpt><trkpt lat="33.3640967" lon="132.4504474"><ele>530.1866666666666</ele><time>2025-10-26T03:19:25Z</time></trkpt><trkpt lat="33.3640671" lon="132.450186"><ele>530.4733333333334</ele><time>2025-10-26T03:19:39Z</time></trkpt><trkpt lat="33.3640799" lon="132.4499307"><ele>530.97</ele><time>2025-10-26T03:19:50Z</time></trkpt><trkpt lat="33.3640711" lon="132.4497156"><ele>528.59</ele><time>2025-10-26T03:19:59Z</time></trkpt><trkpt lat="33.3642143" lon="132.449578"><ele>525.9433333333333</ele><time>2025-10-26T03:20:13Z</time></trkpt><trkpt lat="33.3644293" lon="132.4495873"><ele>523.67</ele><time>2025-10-26T03:20:27Z</time></trkpt><trkpt lat="33.364669" lon="132.4496171"><ele>519.9733333333334</ele><time>2025-10-26T03:20:39Z</time></trkpt><trkpt lat="33.3649012" lon="132.4496412"><ele>516.2366666666667</ele><time>2025-10-26T03:20:51Z</time></trkpt><trkpt lat="33.3650789" lon="132.449489"><ele>510.82666666666665</ele><time>2025-10-26T03:21:03Z</time></trkpt><trkpt lat="33.3652754" lon="132.449417"><ele>506.50666666666666</ele><time>2025-10-26T03:21:12Z</time></trkpt><trkpt lat="33.3654705" lon="132.4493244"><ele>503.3433333333333</ele><time>2025-10-26T03:21:21Z</time></trkpt><trkpt lat="33.3654964" lon="132.4490727"><ele>502.4533333333334</ele><time>2025-10-26T03:21:33Z</time></trkpt><trkpt lat="33.3654885" lon="132.4488264"><ele>502.88000000000005</ele><time>2025-10-26T03:21:45Z</time></trkpt><trkpt lat="33.3655719" lon="132.4486175"><ele>503.56666666666666</ele><time>2025-10-26T03:22:00Z</time></trkpt><trkpt lat="33.3657616" lon="132.4486928"><ele>503.5366666666667</ele><time>2025-10-26T03:22:12Z</time></trkpt><trkpt lat="33.3659716" lon="132.4487062"><ele>500.52666666666664</ele><time>2025-10-26T03:22:27Z</time></trkpt><trkpt lat="33.3660936" lon="132.4488831"><ele>495.7033333333334</ele><time>2025-10-26T03:22:41Z</time></trkpt><trkpt lat="33.366184" lon="132.4491197"><ele>491.27666666666664</ele><time>2025-10-26T03:22:55Z</time></trkpt><trkpt lat="33.3662877" lon="132.4493154"><ele>490.6166666666666</ele><time>2025-10-26T03:23:10Z</time></trkpt><trkpt lat="33.3664294" lon="132.4491436"><ele>489.8966666666667</ele><time>2025-10-26T03:23:27Z</time></trkpt><trkpt lat="33.3663675" lon="132.4489164"><ele>487.97333333333336</ele><time>2025-10-26T03:23:42Z</time></trkpt><trkpt lat="33.3664196" lon="132.4486687"><ele>484.0466666666667</ele><time>2025-10-26T03:23:59Z</time></trkpt><trkpt lat="33.3664989" lon="132.4484713"><ele>480.7</ele><time>2025-10-26T03:24:11Z</time></trkpt><trkpt lat="33.3666523" lon="132.4483308"><ele>478.21999999999997</ele><time>2025-10-26T03:24:22Z</time></trkpt><trkpt lat="33.3668464" lon="132.4482079"><ele>477.1933333333333</ele><time>2025-10-26T03:24:37Z</time></trkpt><trkpt lat="33.367065" lon="132.4481713"><ele>477.81</ele><time>2025-10-26T03:24:49Z</time></trkpt><trkpt lat="33.3672742" lon="132.4481068"><ele>478.53</ele><time>2025-10-26T03:25:04Z</time></trkpt><trkpt lat="33.3674411" lon="132.4479391"><ele>478.6333333333334</ele><time>2025-10-26T03:25:22Z</time></trkpt><trkpt lat="33.3676138" lon="132.4478324"><ele>478.2</ele><time>2025-10-26T03:25:40Z</time></trkpt><trkpt lat="33.3677967" lon="132.4479114"><ele>478.4266666666667</ele><time>2025-10-26T03:25:54Z</time></trkpt><trkpt lat="33.3679927" lon="132.4479663"><ele>477.7966666666667</ele><time>2025-10-26T03:26:06Z</time></trkpt><trkpt lat="33.3681791" lon="132.4479834"><ele>473.78999999999996</ele><time>2025-10-26T03:26:18Z</time></trkpt><trkpt lat="33.3683839" lon="132.4480745"><ele>468.3866666666667</ele><time>2025-10-26T03:26:36Z</time></trkpt><trkpt lat="33.368499" lon="132.4482754"><ele>466.77666666666664</ele><time>2025-10-26T03:26:54Z</time></trkpt><trkpt lat="33.3685382" lon="132.4484955"><ele>469.06666666666666</ele><time>2025-10-26T03:27:06Z</time></trkpt><trkpt lat="33.3686714" lon="132.4486415"><ele>472.37000000000006</ele><time>2025-10-26T03:27:18Z</time></trkpt><trkpt lat="33.3688727" lon="132.4487045"><ele>473.4133333333334</ele><time>2025-10-26T03:27:33Z</time></trkpt><trkpt lat="33.3690742" lon="132.4486798"><ele>473.1266666666667</ele><time>2025-10-26T03:27:51Z</time></trkpt><trkpt lat="33.3692732" lon="132.4487"><ele>472.5733333333333</ele><time>2025-10-26T03:28:09Z</time></trkpt><trkpt lat="33.3694352" lon="132.4488788"><ele>471.8333333333333</ele><time>2025-10-26T03:28:25Z</time></trkpt><trkpt lat="33.3695825" lon="132.4490425"><ele>471.57666666666665</ele><time>2025-10-26T03:28:37Z</time></trkpt><trkpt lat="33.3697093" lon="132.4492157"><ele>471.93</ele><time>2025-10-26T03:28:49Z</time></trkpt><trkpt lat="33.3698203" lon="132.4494118"><ele>472.3066666666667</ele><time>2025-10-26T03:29:01Z</time></trkpt><trkpt lat="33.3699424" lon="132.449598"><ele>473.50666666666666</ele><time>2025-10-26T03:29:12Z</time></trkpt><trkpt lat="33.3700627" lon="132.4497753"><ele>474.28000000000003</ele><time>2025-10-26T03:29:28Z</time></trkpt><trkpt lat="33.3700837" lon="132.4500186"><ele>474.4066666666667</ele><time>2025-10-26T03:29:46Z</time></trkpt><trkpt lat="33.3700625" lon="132.4502445"><ele>470.06</ele><time>2025-10-26T03:30:01Z</time></trkpt><trkpt lat="33.3699577" lon="132.4504451"><ele>464.6466666666667</ele><time>2025-10-26T03:30:13Z</time></trkpt><trkpt lat="33.3697977" lon="132.4506003"><ele>459.46333333333337</ele><time>2025-10-26T03:30:28Z</time></trkpt><trkpt lat="33.3695904" lon="132.4506878"><ele>459.1333333333334</ele><time>2025-10-26T03:30:43Z</time></trkpt><trkpt lat="33.3695204" lon="132.450906"><ele>461.57666666666665</ele><time>2025-10-26T03:31:04Z</time></trkpt><trkpt lat="33.3697051" lon="132.4508966"><ele>463.0933333333334</ele><time>2025-10-26T03:31:19Z</time></trkpt><trkpt lat="33.3698578" lon="132.4507573"><ele>461.7966666666666</ele><time>2025-10-26T03:31:30Z</time></trkpt><trkpt lat="33.3700528" lon="132.4507829"><ele>456.70666666666665</ele><time>2025-10-26T03:31:48Z</time></trkpt><trkpt lat="33.3700753" lon="132.4510136"><ele>455.81</ele><time>2025-10-26T03:32:00Z</time></trkpt><trkpt lat="33.3702439" lon="132.4511759"><ele>454.92666666666673</ele><time>2025-10-26T03:32:18Z</time></trkpt><trkpt lat="33.3704187" lon="132.4512556"><ele>455.97666666666663</ele><time>2025-10-26T03:32:33Z</time></trkpt><trkpt lat="33.3706007" lon="132.4513653"><ele>454.9433333333333</ele><time>2025-10-26T03:32:51Z</time></trkpt></trkseg></trk></gpx>