<?xml version='1.0' encoding='UTF-8'?><gpx creator="Yama Museum Peak Annotator" xsi:schemaLocation="http://www.topografix.com/GPX/1/1 http://www.topografix.com/GPX/1/1/gpx.xsd" version="1.1" xmlns="http://www.topografix.com/GPX/1/1" xmlns:xsi="http://www.w3.org/2001/XMLSchema-instance"><metadata><bounds maxlat="33.5948313" maxlon="132.483027" minlat="33.58993" minlon="132.4730081"/></metadata>  <wpt lat="33.5944697" lon="132.4784739">
    <ele>472.13310176947385</ele>
    <name>斎藤山</name>
    <desc>Peak detected at 472m (prominence: 225m)</desc>
    <sym>Summit</sym>
  </wpt>
<trk><name>斎藤山</name><number>1</number><trkseg><trkpt lat="33.5902332" lon="132.4730324"><ele>231.05150501632806</ele><time>2024-03-16T04:58:32Z</time></trkpt><trkpt lat="33.5902097" lon="132.4732534"><ele>230.99586323495808</ele><time>2024-03-16T04:59:05Z</time></trkpt><trkpt lat="33.5901584" lon="132.4734678"><ele>230.69929299400823</ele><time>2024-03-16T04:59:19Z</time></trkpt><trkpt lat="33.5901127" lon="132.4736835"><ele>231.14989785081704</ele><time>2024-03-16T04:59:35Z</time></trkpt><trkpt lat="33.5901094" lon="132.4739005"><ele>231.85599538980614</ele><time>2024-03-16T04:59:50Z</time></trkpt><trkpt lat="33.5901357" lon="132.4741284"><ele>233.0482040542055</ele><time>2024-03-16T05:00:05Z</time></trkpt><trkpt lat="33.5902099" lon="132.4743325"><ele>234.0642458329605</ele><time>2024-03-16T05:00:19Z</time></trkpt><trkpt lat="33.5901148" lon="132.4745178"><ele>235.32279796638045</ele><time>2024-03-16T05:00:33Z</time></trkpt><trkpt lat="33.5900349" lon="132.4747148"><ele>236.22632924752762</ele><time>2024-03-16T05:00:45Z</time></trkpt><trkpt lat="33.5899799" lon="132.4749284"><ele>238.42241320849385</ele><time>2024-03-16T05:01:01Z</time></trkpt><trkpt lat="33.5899875" lon="132.4751506"><ele>238.94131931315584</ele><time>2024-03-16T05:01:13Z</time></trkpt><trkpt lat="33.5900113" lon="132.4753709"><ele>240.83911697804797</ele><time>2024-03-16T05:01:27Z</time></trkpt><trkpt lat="33.5900016" lon="132.4755988"><ele>240.31869308706473</ele><time>2024-03-16T05:01:42Z</time></trkpt><trkpt lat="33.5900214" lon="132.4758181"><ele>241.42094793054147</ele><time>2024-03-16T05:01:58Z</time></trkpt><trkpt lat="33.5900146" lon="132.476034"><ele>243.02937692827018</ele><time>2024-03-16T05:02:12Z</time></trkpt><trkpt lat="33.5900722" lon="132.4762425"><ele>245.20314653531742</ele><time>2024-03-16T05:02:26Z</time></trkpt><trkpt lat="33.590113" lon="132.4764547"><ele>246.778621748313</ele><time>2024-03-16T05:02:39Z</time></trkpt><trkpt lat="33.5900433" lon="132.4766669"><ele>247.3183440515589</ele><time>2024-03-16T05:02:55Z</time></trkpt><trkpt lat="33.58993" lon="132.4768453"><ele>249.9243030320514</ele><time>2024-03-16T05:03:09Z</time></trkpt><trkpt lat="33.590034" lon="132.4770249"><ele>256.9836786974709</ele><time>2024-03-16T05:04:27Z</time></trkpt><trkpt lat="33.5900201" lon="132.4772473"><ele>263.5784973595902</ele><time>2024-03-16T05:04:46Z</time></trkpt><trkpt lat="33.5900042" lon="132.4774783"><ele>268.44973445709985</ele><time>2024-03-16T05:05:04Z</time></trkpt><trkpt lat="33.5900039" lon="132.4776953"><ele>271.1992991625545</ele><time>2024-03-16T05:05:19Z</time></trkpt><trkpt lat="33.5901165" lon="132.4775169"><ele>275.9003013259981</ele><time>2024-03-16T05:05:59Z</time></trkpt><trkpt lat="33.5901686" lon="132.4773103"><ele>280.9681068955447</ele><time>2024-03-16T05:06:15Z</time></trkpt><trkpt lat="33.5902899" lon="132.4774812"><ele>285.16535597732803</ele><time>2024-03-16T05:06:40Z</time></trkpt><trkpt lat="33.5903029" lon="132.4776964"><ele>287.7735939902396</ele><time>2024-03-16T05:07:02Z</time></trkpt><trkpt lat="33.5903226" lon="132.4779112"><ele>290.9406890385488</ele><time>2024-03-16T05:07:20Z</time></trkpt><trkpt lat="33.5903477" lon="132.478131"><ele>293.46168998273305</ele><time>2024-03-16T05:07:36Z</time></trkpt><trkpt lat="33.5904287" lon="132.4783338"><ele>296.34869635100193</ele><time>2024-03-16T05:07:49Z</time></trkpt><trkpt lat="33.5905435" lon="132.4785061"><ele>298.1869002746749</ele><time>2024-03-16T05:08:06Z</time></trkpt><trkpt lat="33.5906408" lon="132.4786895"><ele>300.3268297599814</ele><time>2024-03-16T05:08:23Z</time></trkpt><trkpt lat="33.5907662" lon="132.4788507"><ele>302.00475679131074</ele><time>2024-03-16T05:08:40Z</time></trkpt><trkpt lat="33.5908791" lon="132.4790254"><ele>304.3926914850938</ele><time>2024-03-16T05:08:59Z</time></trkpt><trkpt lat="33.591023" lon="132.4791621"><ele>306.5318355686865</ele><time>2024-03-16T05:09:17Z</time></trkpt><trkpt lat="33.5911619" lon="132.4793069"><ele>308.54569085333645</ele><time>2024-03-16T05:09:33Z</time></trkpt><trkpt lat="33.5912348" lon="132.4795141"><ele>310.7211375298217</ele><time>2024-03-16T05:10:00Z</time></trkpt><trkpt lat="33.5911688" lon="132.479721"><ele>313.2711791487041</ele><time>2024-03-16T05:10:37Z</time></trkpt><trkpt lat="33.591101" lon="132.4799236"><ele>316.2583687551146</ele><time>2024-03-16T05:10:53Z</time></trkpt><trkpt lat="33.5910017" lon="132.4801054"><ele>318.8846070198169</ele><time>2024-03-16T05:11:12Z</time></trkpt><trkpt lat="33.5910204" lon="132.4803236"><ele>321.42348286095563</ele><time>2024-03-16T05:11:26Z</time></trkpt><trkpt lat="33.5910659" lon="132.4805394"><ele>323.0702024060297</ele><time>2024-03-16T05:11:42Z</time></trkpt><trkpt lat="33.5911069" lon="132.4803257"><ele>325.21840636649694</ele><time>2024-03-16T05:12:12Z</time></trkpt><trkpt lat="33.5912278" lon="132.4801646"><ele>326.5071359339457</ele><time>2024-03-16T05:12:28Z</time></trkpt><trkpt lat="33.5913298" lon="132.4799811"><ele>329.23828365686774</ele><time>2024-03-16T05:12:51Z</time></trkpt><trkpt lat="33.5914358" lon="132.4801618"><ele>333.93714675404095</ele><time>2024-03-16T05:14:13Z</time></trkpt><trkpt lat="33.5914819" lon="132.4803812"><ele>339.0438133272329</ele><time>2024-03-16T05:14:29Z</time></trkpt><trkpt lat="33.5915478" lon="132.4806056"><ele>344.0066302335261</ele><time>2024-03-16T05:14:55Z</time></trkpt><trkpt lat="33.5915742" lon="132.4808215"><ele>346.2840685483309</ele><time>2024-03-16T05:15:10Z</time></trkpt><trkpt lat="33.5916883" lon="132.4809924"><ele>348.880096101756</ele><time>2024-03-16T05:15:26Z</time></trkpt><trkpt lat="33.5918178" lon="132.4811593"><ele>350.8984842855495</ele><time>2024-03-16T05:15:45Z</time></trkpt><trkpt lat="33.5919115" lon="132.4813482"><ele>352.30167030647</ele><time>2024-03-16T05:16:01Z</time></trkpt><trkpt lat="33.5920513" lon="132.481485"><ele>353.46033610422654</ele><time>2024-03-16T05:16:25Z</time></trkpt><trkpt lat="33.592221" lon="132.4815655"><ele>354.67919741817224</ele><time>2024-03-16T05:16:44Z</time></trkpt><trkpt lat="33.5923461" lon="132.4817357"><ele>358.13439254292615</ele><time>2024-03-16T05:17:37Z</time></trkpt><trkpt lat="33.5924312" lon="132.4819338"><ele>361.0006730268519</ele><time>2024-03-16T05:17:58Z</time></trkpt><trkpt lat="33.5924719" lon="132.4821471"><ele>363.1858819134941</ele><time>2024-03-16T05:18:16Z</time></trkpt><trkpt lat="33.5924948" lon="132.4823628"><ele>364.7359756598196</ele><time>2024-03-16T05:18:32Z</time></trkpt><trkpt lat="33.5925477" lon="132.482571"><ele>366.9687006400327</ele><time>2024-03-16T05:19:25Z</time></trkpt><trkpt lat="33.5924827" lon="132.4827731"><ele>369.99804880873154</ele><time>2024-03-16T05:19:45Z</time></trkpt><trkpt lat="33.5924607" lon="132.4829976"><ele>372.50725807826774</ele><time>2024-03-16T05:20:03Z</time></trkpt><trkpt lat="33.5925892" lon="132.4828407"><ele>376.4153946346051</ele><time>2024-03-16T05:20:39Z</time></trkpt><trkpt lat="33.5926776" lon="132.4826443"><ele>379.294550794067</ele><time>2024-03-16T05:20:55Z</time></trkpt><trkpt lat="33.5927052" lon="132.4824282"><ele>381.0660044826636</ele><time>2024-03-16T05:21:25Z</time></trkpt><trkpt lat="33.5927576" lon="132.4822192"><ele>381.4128989338121</ele><time>2024-03-16T05:21:58Z</time></trkpt><trkpt lat="33.592709" lon="132.4820064"><ele>382.60400722385515</ele><time>2024-03-16T05:22:12Z</time></trkpt><trkpt lat="33.5926682" lon="132.4817829"><ele>384.3945358487993</ele><time>2024-03-16T05:22:25Z</time></trkpt><trkpt lat="33.5925933" lon="132.4815868"><ele>385.47564608518275</ele><time>2024-03-16T05:22:39Z</time></trkpt><trkpt lat="33.5925419" lon="132.4813793"><ele>385.71418124254643</ele><time>2024-03-16T05:22:56Z</time></trkpt><trkpt lat="33.5925202" lon="132.4811616"><ele>385.7675821095024</ele><time>2024-03-16T05:23:12Z</time></trkpt><trkpt lat="33.5924507" lon="132.4809545"><ele>386.91166011086193</ele><time>2024-03-16T05:23:31Z</time></trkpt><trkpt lat="33.5923468" lon="132.4807556"><ele>388.48508249316063</ele><time>2024-03-16T05:23:44Z</time></trkpt><trkpt lat="33.5922633" lon="132.4805623"><ele>390.6341713379283</ele><time>2024-03-16T05:24:02Z</time></trkpt><trkpt lat="33.5922898" lon="132.4803372"><ele>392.9500827180718</ele><time>2024-03-16T05:24:20Z</time></trkpt><trkpt lat="33.5922664" lon="132.480121"><ele>395.2047050376306</ele><time>2024-03-16T05:24:34Z</time></trkpt><trkpt lat="33.5922299" lon="132.4799093"><ele>397.6528706081638</ele><time>2024-03-16T05:24:51Z</time></trkpt><trkpt lat="33.5922117" lon="132.4796889"><ele>399.62612946717474</ele><time>2024-03-16T05:25:07Z</time></trkpt><trkpt lat="33.5922207" lon="132.4794665"><ele>401.906015772086</ele><time>2024-03-16T05:25:31Z</time></trkpt><trkpt lat="33.5922587" lon="132.4792448"><ele>404.24360017111024</ele><time>2024-03-16T05:25:48Z</time></trkpt><trkpt lat="33.5923022" lon="132.4790307"><ele>406.54065527867846</ele><time>2024-03-16T05:26:06Z</time></trkpt><trkpt lat="33.5923912" lon="132.4788403"><ele>409.31687703083935</ele><time>2024-03-16T05:26:22Z</time></trkpt><trkpt lat="33.5925456" lon="132.478725"><ele>411.29728064879237</ele><time>2024-03-16T05:26:37Z</time></trkpt><trkpt lat="33.5925689" lon="132.4785088"><ele>412.7979254488326</ele><time>2024-03-16T05:26:52Z</time></trkpt><trkpt lat="33.5927204" lon="132.4786338"><ele>414.6530703626675</ele><time>2024-03-16T05:27:21Z</time></trkpt><trkpt lat="33.5926801" lon="132.4788445"><ele>417.22052347356316</ele><time>2024-03-16T05:27:36Z</time></trkpt><trkpt lat="33.5926561" lon="132.4790583"><ele>419.52500585800755</ele><time>2024-03-16T05:27:58Z</time></trkpt><trkpt lat="33.5927208" lon="132.4792606"><ele>421.45994805797824</ele><time>2024-03-16T05:28:12Z</time></trkpt><trkpt lat="33.5928083" lon="132.4794538"><ele>421.6976750212527</ele><time>2024-03-16T05:28:26Z</time></trkpt><trkpt lat="33.5927739" lon="132.4792362"><ele>423.9518809641668</ele><time>2024-03-16T05:28:59Z</time></trkpt><trkpt lat="33.5927809" lon="132.4790141"><ele>426.7287815578081</ele><time>2024-03-16T05:29:15Z</time></trkpt><trkpt lat="33.5928958" lon="132.4788412"><ele>431.046681409756</ele><time>2024-03-16T05:29:31Z</time></trkpt><trkpt lat="33.5929605" lon="132.478634"><ele>433.3930007183738</ele><time>2024-03-16T05:29:47Z</time></trkpt><trkpt lat="33.5928983" lon="132.4784314"><ele>435.46878137877155</ele><time>2024-03-16T05:30:03Z</time></trkpt><trkpt lat="33.5929343" lon="132.4782186"><ele>436.81931185917</ele><time>2024-03-16T05:30:22Z</time></trkpt><trkpt lat="33.5930791" lon="132.4780736"><ele>439.45240059373253</ele><time>2024-03-16T05:30:40Z</time></trkpt><trkpt lat="33.5932538" lon="132.4780138"><ele>442.7411204694413</ele><time>2024-03-16T05:31:05Z</time></trkpt><trkpt lat="33.5934375" lon="132.4780075"><ele>445.84729751081954</ele><time>2024-03-16T05:31:34Z</time></trkpt><trkpt lat="33.5936214" lon="132.4779719"><ele>449.3201258799452</ele><time>2024-03-16T05:31:59Z</time></trkpt><trkpt lat="33.5938" lon="132.4779385"><ele>450.15025066458475</ele><time>2024-03-16T05:32:16Z</time></trkpt><trkpt lat="33.5939534" lon="132.4778132"><ele>452.5735278795419</ele><time>2024-03-16T05:32:35Z</time></trkpt><trkpt lat="33.5941205" lon="132.4778954"><ele>454.74522504579505</ele><time>2024-03-16T05:33:45Z</time></trkpt><trkpt lat="33.5940338" lon="132.4780865"><ele>457.928746147074</ele><time>2024-03-16T05:34:05Z</time></trkpt><trkpt lat="33.5938886" lon="132.4782161"><ele>460.7391650107286</ele><time>2024-03-16T05:34:24Z</time></trkpt><trkpt lat="33.5937264" lon="132.4783258"><ele>462.4606246830142</ele><time>2024-03-16T05:34:38Z</time></trkpt><trkpt lat="33.5936167" lon="132.4784989"><ele>464.8651816047275</ele><time>2024-03-16T05:35:00Z</time></trkpt><trkpt lat="33.5937643" lon="132.4786281"><ele>466.08674252116725</ele><time>2024-03-16T05:35:21Z</time></trkpt><trkpt lat="33.5939457" lon="132.4785807"><ele>468.506936561684</ele><time>2024-03-16T05:36:00Z</time></trkpt><trkpt lat="33.5941005" lon="132.4784666"><ele>472.174849625627</ele><time>2024-03-16T05:36:22Z</time></trkpt><trkpt lat="33.594286" lon="132.4784386"><ele>472.8390147572938</ele><time>2024-03-16T05:38:28Z</time></trkpt><trkpt lat="33.5944697" lon="132.4784739"><ele>472.13310176947385</ele><time>2024-03-16T05:38:53Z</time></trkpt><trkpt lat="33.5946463" lon="132.4785362"><ele>470.75686626399414</ele><time>2024-03-16T05:39:21Z</time></trkpt><trkpt lat="33.5948313" lon="132.478545"><ele>469.6936751905916</ele><time>2024-03-16T05:39:36Z</time></trkpt><trkpt lat="33.5946836" lon="132.478415"><ele>468.16309845522136</ele><time>2024-03-16T05:44:03Z</time></trkpt><trkpt lat="33.5945062" lon="132.4783711"><ele>465.2030503131908</ele><time>2024-03-16T05:44:27Z</time></trkpt><trkpt lat="33.5943345" lon="132.4783018"><ele>464.7300249316143</ele><time>2024-03-16T05:44:54Z</time></trkpt><trkpt lat="33.5941567" lon="132.4782544"><ele>464.4380060738715</ele><time>2024-03-16T05:45:15Z</time></trkpt><trkpt lat="33.593982" lon="132.4783239"><ele>462.1972427550697</ele><time>2024-03-16T05:45:32Z</time></trkpt><trkpt lat="33.5938132" lon="132.4784306"><ele>461.26094849773244</ele><time>2024-03-16T05:45:49Z</time></trkpt><trkpt lat="33.5937354" lon="132.4786324"><ele>460.32912646629046</ele><time>2024-03-16T05:46:08Z</time></trkpt><trkpt lat="33.5935966" lon="132.4784885"><ele>459.9520943081734</ele><time>2024-03-16T05:46:23Z</time></trkpt><trkpt lat="33.5936714" lon="132.4782883"><ele>457.72382104455255</ele><time>2024-03-16T05:46:38Z</time></trkpt><trkpt lat="33.5938171" lon="132.4781525"><ele>454.9933827272742</ele><time>2024-03-16T05:46:51Z</time></trkpt><trkpt lat="33.5939662" lon="132.4780134"><ele>452.1759871501447</ele><time>2024-03-16T05:47:06Z</time></trkpt><trkpt lat="33.5940648" lon="132.4778294"><ele>450.08350787722264</ele><time>2024-03-16T05:47:21Z</time></trkpt><trkpt lat="33.5939308" lon="132.4779848"><ele>446.8002775350048</ele><time>2024-03-16T05:47:55Z</time></trkpt><trkpt lat="33.5937452" lon="132.4780355"><ele>443.9748183510455</ele><time>2024-03-16T05:48:08Z</time></trkpt><trkpt lat="33.5935598" lon="132.4780363"><ele>440.2837275086728</ele><time>2024-03-16T05:48:21Z</time></trkpt><trkpt lat="33.5933757" lon="132.478042"><ele>438.01140989476585</ele><time>2024-03-16T05:48:35Z</time></trkpt><trkpt lat="33.5932057" lon="132.4781161"><ele>435.9203999308825</ele><time>2024-03-16T05:48:48Z</time></trkpt><trkpt lat="33.5930344" lon="132.4782106"><ele>433.3895674103365</ele><time>2024-03-16T05:49:05Z</time></trkpt><trkpt lat="33.5929862" lon="132.4784324"><ele>430.7726219323845</ele><time>2024-03-16T05:49:22Z</time></trkpt><trkpt lat="33.5930234" lon="132.4786463"><ele>428.02169746087725</ele><time>2024-03-16T05:49:37Z</time></trkpt><trkpt lat="33.5929729" lon="132.4788618"><ele>426.0330819342792</ele><time>2024-03-16T05:49:51Z</time></trkpt><trkpt lat="33.5928728" lon="132.4790435"><ele>424.17296882139885</ele><time>2024-03-16T05:50:03Z</time></trkpt><trkpt lat="33.5928361" lon="132.4792554"><ele>422.0762771559642</ele><time>2024-03-16T05:50:16Z</time></trkpt><trkpt lat="33.5928395" lon="132.4794762"><ele>419.1743763494862</ele><time>2024-03-16T05:50:31Z</time></trkpt><trkpt lat="33.5926816" lon="132.47937"><ele>416.5266267702679</ele><time>2024-03-16T05:50:50Z</time></trkpt><trkpt lat="33.5925946" lon="132.4791771"><ele>414.184370315438</ele><time>2024-03-16T05:51:04Z</time></trkpt><trkpt lat="33.5926178" lon="132.478949"><ele>413.02313794479414</ele><time>2024-03-16T05:51:18Z</time></trkpt><trkpt lat="33.5926808" lon="132.4787446"><ele>411.1916614392392</ele><time>2024-03-16T05:51:31Z</time></trkpt><trkpt lat="33.5926374" lon="132.4785277"><ele>410.41541231367836</ele><time>2024-03-16T05:51:44Z</time></trkpt><trkpt lat="33.5925648" lon="132.4787264"><ele>407.4481926777116</ele><time>2024-03-16T05:52:12Z</time></trkpt><trkpt lat="33.592422" lon="132.4788679"><ele>404.850196158156</ele><time>2024-03-16T05:52:27Z</time></trkpt><trkpt lat="33.5923497" lon="132.4790675"><ele>401.49189241894146</ele><time>2024-03-16T05:52:40Z</time></trkpt><trkpt lat="33.5923143" lon="132.4792807"><ele>399.7537000245322</ele><time>2024-03-16T05:52:56Z</time></trkpt><trkpt lat="33.5922956" lon="132.4795025"><ele>397.2651539215023</ele><time>2024-03-16T05:53:09Z</time></trkpt><trkpt lat="33.5923007" lon="132.4797316"><ele>395.28011106546563</ele><time>2024-03-16T05:53:21Z</time></trkpt><trkpt lat="33.5923369" lon="132.4799535"><ele>392.91314815856487</ele><time>2024-03-16T05:53:33Z</time></trkpt><trkpt lat="33.5922885" lon="132.4801666"><ele>391.37651264914285</ele><time>2024-03-16T05:53:48Z</time></trkpt><trkpt lat="33.5923227" lon="132.480383"><ele>388.74747571744086</ele><time>2024-03-16T05:54:03Z</time></trkpt><trkpt lat="33.5923293" lon="132.4806078"><ele>386.59134295853545</ele><time>2024-03-16T05:54:16Z</time></trkpt><trkpt lat="33.5924141" lon="132.4808041"><ele>383.8524412514746</ele><time>2024-03-16T05:54:29Z</time></trkpt><trkpt lat="33.5924969" lon="132.4810008"><ele>382.18802391459934</ele><time>2024-03-16T05:54:42Z</time></trkpt><trkpt lat="33.5925344" lon="132.4812179"><ele>380.32195848297323</ele><time>2024-03-16T05:54:58Z</time></trkpt><trkpt lat="33.5926116" lon="132.4814168"><ele>378.9106696515425</ele><time>2024-03-16T05:55:11Z</time></trkpt><trkpt lat="33.5927009" lon="132.4816208"><ele>377.06770340931234</ele><time>2024-03-16T05:55:25Z</time></trkpt><trkpt lat="33.5927199" lon="132.4818428"><ele>375.9806130988511</ele><time>2024-03-16T05:55:39Z</time></trkpt><trkpt lat="33.5927853" lon="132.4820467"><ele>376.18389496194294</ele><time>2024-03-16T05:55:52Z</time></trkpt><trkpt lat="33.5928118" lon="132.4822677"><ele>376.66272240935314</ele><time>2024-03-16T05:56:07Z</time></trkpt><trkpt lat="33.5928151" lon="132.482494"><ele>376.61388259274395</ele><time>2024-03-16T05:56:18Z</time></trkpt><trkpt lat="33.5927786" lon="132.4827194"><ele>375.7514580812596</ele><time>2024-03-16T05:56:31Z</time></trkpt><trkpt lat="33.5926656" lon="132.4828992"><ele>374.36568620863926</ele><time>2024-03-16T05:56:44Z</time></trkpt><trkpt lat="33.5925162" lon="132.483027"><ele>373.46799755453384</ele><time>2024-03-16T05:56:55Z</time></trkpt><trkpt lat="33.5924574" lon="132.4828207"><ele>371.10804653385804</ele><time>2024-03-16T05:57:27Z</time></trkpt><trkpt lat="33.5924855" lon="132.4825961"><ele>368.200132604077</ele><time>2024-03-16T05:57:39Z</time></trkpt><trkpt lat="33.5924455" lon="132.4823817"><ele>364.9008207361478</ele><time>2024-03-16T05:57:51Z</time></trkpt><trkpt lat="33.5923887" lon="132.4821641"><ele>362.3107475426827</ele><time>2024-03-16T05:58:05Z</time></trkpt><trkpt lat="33.5923392" lon="132.4819477"><ele>359.8180437129124</ele><time>2024-03-16T05:58:20Z</time></trkpt><trkpt lat="33.5922608" lon="132.4817403"><ele>356.9235628007628</ele><time>2024-03-16T05:58:33Z</time></trkpt><trkpt lat="33.5921596" lon="132.4815556"><ele>354.13158611686777</ele><time>2024-03-16T05:58:47Z</time></trkpt><trkpt lat="33.5919942" lon="132.4814697"><ele>351.93633790331114</ele><time>2024-03-16T05:59:04Z</time></trkpt><trkpt lat="33.5919003" lon="132.4812695"><ele>350.5485829272038</ele><time>2024-03-16T05:59:16Z</time></trkpt><trkpt lat="33.5917843" lon="132.4810904"><ele>349.477641693838</ele><time>2024-03-16T05:59:30Z</time></trkpt><trkpt lat="33.591629" lon="132.48097"><ele>347.9822424201953</ele><time>2024-03-16T05:59:43Z</time></trkpt><trkpt lat="33.591506" lon="132.4808113"><ele>346.80538345350305</ele><time>2024-03-16T05:59:59Z</time></trkpt><trkpt lat="33.5915075" lon="132.4805929"><ele>344.80185404875834</ele><time>2024-03-16T06:00:11Z</time></trkpt><trkpt lat="33.5914126" lon="132.4804"><ele>343.10991966933244</ele><time>2024-03-16T06:00:24Z</time></trkpt><trkpt lat="33.5913738" lon="132.4801775"><ele>340.0146604108432</ele><time>2024-03-16T06:00:40Z</time></trkpt><trkpt lat="33.5913768" lon="132.479951"><ele>336.7210455539628</ele><time>2024-03-16T06:00:54Z</time></trkpt><trkpt lat="33.5912842" lon="132.4801436"><ele>332.9825971891117</ele><time>2024-03-16T06:01:23Z</time></trkpt><trkpt lat="33.5911614" lon="132.4803099"><ele>329.82947103247756</ele><time>2024-03-16T06:01:37Z</time></trkpt><trkpt lat="33.5911206" lon="132.4805243"><ele>326.7486331007978</ele><time>2024-03-16T06:01:50Z</time></trkpt><trkpt lat="33.591003" lon="132.4803554"><ele>323.7336010540816</ele><time>2024-03-16T06:02:12Z</time></trkpt><trkpt lat="33.5910613" lon="132.4801448"><ele>320.57018125235174</ele><time>2024-03-16T06:02:26Z</time></trkpt><trkpt lat="33.5911516" lon="132.4799462"><ele>318.4946503110629</ele><time>2024-03-16T06:02:40Z</time></trkpt><trkpt lat="33.5911491" lon="132.4797086"><ele>316.3733961056803</ele><time>2024-03-16T06:02:54Z</time></trkpt><trkpt lat="33.5911394" lon="132.4794917"><ele>313.8126473495559</ele><time>2024-03-16T06:03:06Z</time></trkpt><trkpt lat="33.5910919" lon="132.4792703"><ele>311.3021624257948</ele><time>2024-03-16T06:03:22Z</time></trkpt><trkpt lat="33.5909332" lon="132.4791642"><ele>309.8892635425568</ele><time>2024-03-16T06:03:38Z</time></trkpt><trkpt lat="33.5907558" lon="132.479093"><ele>308.713420912254</ele><time>2024-03-16T06:03:53Z</time></trkpt><trkpt lat="33.5906616" lon="132.478893"><ele>307.06053428848907</ele><time>2024-03-16T06:04:07Z</time></trkpt><trkpt lat="33.5905616" lon="132.4787075"><ele>304.52957135681453</ele><time>2024-03-16T06:04:19Z</time></trkpt><trkpt lat="33.5904689" lon="132.478518"><ele>304.4049175932897</ele><time>2024-03-16T06:04:36Z</time></trkpt><trkpt lat="33.5903724" lon="132.4783267"><ele>302.10650030451774</ele><time>2024-03-16T06:04:50Z</time></trkpt><trkpt lat="33.5903099" lon="132.4781227"><ele>300.5920749053751</ele><time>2024-03-16T06:05:03Z</time></trkpt><trkpt lat="33.5902688" lon="132.4779078"><ele>296.1366111819547</ele><time>2024-03-16T06:05:17Z</time></trkpt><trkpt lat="33.5902591" lon="132.477684"><ele>293.7382010348936</ele><time>2024-03-16T06:05:33Z</time></trkpt><trkpt lat="33.5902447" lon="132.4774474"><ele>290.5562458959316</ele><time>2024-03-16T06:05:45Z</time></trkpt><trkpt lat="33.5901527" lon="132.4776333"><ele>286.78632972089144</ele><time>2024-03-16T06:06:17Z</time></trkpt><trkpt lat="33.5900807" lon="132.4778313"><ele>283.80141422143697</ele><time>2024-03-16T06:06:30Z</time></trkpt><trkpt lat="33.5899678" lon="132.4776627"><ele>280.66613452263306</ele><time>2024-03-16T06:06:45Z</time></trkpt><trkpt lat="33.5899864" lon="132.4774435"><ele>278.86454662904634</ele><time>2024-03-16T06:06:58Z</time></trkpt><trkpt lat="33.5900325" lon="132.4772245"><ele>276.2244008151326</ele><time>2024-03-16T06:07:11Z</time></trkpt><trkpt lat="33.5900101" lon="132.4770075"><ele>273.98589440240363</ele><time>2024-03-16T06:07:23Z</time></trkpt><trkpt lat="33.5901051" lon="132.4768192"><ele>271.8694138805335</ele><time>2024-03-16T06:07:36Z</time></trkpt><trkpt lat="33.5899488" lon="132.4769429"><ele>269.45039644466146</ele><time>2024-03-16T06:07:59Z</time></trkpt><trkpt lat="33.5899829" lon="132.4767279"><ele>266.3100428090342</ele><time>2024-03-16T06:08:12Z</time></trkpt><trkpt lat="33.5900378" lon="132.4765163"><ele>263.75925174647347</ele><time>2024-03-16T06:08:25Z</time></trkpt><trkpt lat="33.5899942" lon="132.4762944"><ele>261.4273079212799</ele><time>2024-03-16T06:08:39Z</time></trkpt><trkpt lat="33.5899615" lon="132.476079"><ele>261.17203852965923</ele><time>2024-03-16T06:08:52Z</time></trkpt><trkpt lat="33.5899635" lon="132.4758418"><ele>260.1084853488357</ele><time>2024-03-16T06:09:05Z</time></trkpt><trkpt lat="33.5899729" lon="132.4756211"><ele>259.581373811932</ele><time>2024-03-16T06:09:19Z</time></trkpt><trkpt lat="33.5899691" lon="132.4753929"><ele>257.82768923746545</ele><time>2024-03-16T06:09:32Z</time></trkpt><trkpt lat="33.589965" lon="132.475174"><ele>256.2931399518505</ele><time>2024-03-16T06:09:46Z</time></trkpt><trkpt lat="33.5899489" lon="132.4749521"><ele>255.04573422325095</ele><time>2024-03-16T06:10:01Z</time></trkpt><trkpt lat="33.5900244" lon="132.4747501"><ele>253.48371603229407</ele><time>2024-03-16T06:10:14Z</time></trkpt><trkpt lat="33.5900648" lon="132.4745386"><ele>252.59207967849048</ele><time>2024-03-16T06:10:25Z</time></trkpt><trkpt lat="33.5901323" lon="132.4743213"><ele>250.66747859926352</ele><time>2024-03-16T06:10:36Z</time></trkpt><trkpt lat="33.5901545" lon="132.4741052"><ele>249.360083459444</ele><time>2024-03-16T06:10:50Z</time></trkpt><trkpt lat="33.5901386" lon="132.4738893"><ele>247.57910022374244</ele><time>2024-03-16T06:11:06Z</time></trkpt><trkpt lat="33.5901199" lon="132.4736683"><ele>247.38000131910607</ele><time>2024-03-16T06:11:19Z</time></trkpt><trkpt lat="33.5901016" lon="132.4734381"><ele>246.71911084204774</ele><time>2024-03-16T06:11:31Z</time></trkpt><trkpt lat="33.5901499" lon="132.4732196"><ele>247.03961064995096</ele><time>2024-03-16T06:11:45Z</time></trkpt><trkpt lat="33.5902101" lon="132.4730081"><ele>246.21527161617465</ele><time>2024-03-16T06:11:58Z</time></trkpt></trkseg></trk></gpx>