<?xml version='1.0' encoding='UTF-8'?><gpx creator="Yama Museum Peak Annotator" xsi:schemaLocation="http://www.topografix.com/GPX/1/1 http://www.topografix.com/GPX/1/1/gpx.xsd" version="1.1" xmlns="http://www.topografix.com/GPX/1/1" xmlns:xsi="http://www.w3.org/2001/XMLSchema-instance"><metadata><bounds maxlat="33.8797812" maxlon="133.3885769" minlat="33.8465017" minlon="133.3253683"/></metadata>  <wpt lat="33.8754953" lon="133.3399899">
    <ele>1621.9866666666667</ele>
    <name>西赤石山</name>
    <desc>Peak detected at 1622m (prominence: 88m)</desc>
    <sym>Summit</sym>
  </wpt>
  <wpt lat="33.879673" lon="133.3538898">
    <ele>1631.9833333333333</ele>
    <name>物住頭</name>
    <desc>Peak detected at 1632m (prominence: 44m)</desc>
    <sym>Summit</sym>
  </wpt>
  <wpt lat="33.8762013" lon="133.3626992">
    <ele>1651.7766666666666</ele>
    <name>前赤石山</name>
    <desc>Peak detected at 1652m (prominence: 104m)</desc>
    <sym>Summit</sym>
  </wpt>
  <wpt lat="33.8752971" lon="133.3737015">
    <ele>1699.1266666666668</ele>
    <name>八巻山</name>
    <desc>Peak detected at 1699m (prominence: 866m)</desc>
    <sym>Summit</sym>
  </wpt>
<trk><name>東山・西赤石山・物住頭・前赤石山・東赤石山・八巻山</name><number>1</number><trkseg><trkpt lat="33.8519866" lon="133.3469"><ele>828.14</ele><time>2022-10-07T21:12:14Z</time></trkpt><trkpt lat="33.8520648" lon="133.3466743"><ele>831.7</ele><time>2022-10-07T21:14:29Z</time></trkpt><trkpt lat="33.8518845" lon="133.3465743"><ele>831.66</ele><time>2022-10-07T21:14:57Z</time></trkpt><trkpt lat="33.8519413" lon="133.3463578"><ele>834.2933333333334</ele><time>2022-10-07T21:15:18Z</time></trkpt><trkpt lat="33.8519989" lon="133.3461385"><ele>835.3133333333334</ele><time>2022-10-07T21:15:42Z</time></trkpt><trkpt lat="33.8520018" lon="133.345908"><ele>837.7200000000001</ele><time>2022-10-07T21:16:00Z</time></trkpt><trkpt lat="33.8519664" lon="133.3456877"><ele>840.2566666666667</ele><time>2022-10-07T21:16:22Z</time></trkpt><trkpt lat="33.8518707" lon="133.3454912"><ele>841.3866666666667</ele><time>2022-10-07T21:16:39Z</time></trkpt><trkpt lat="33.8518289" lon="133.3452652"><ele>845.9466666666667</ele><time>2022-10-07T21:17:06Z</time></trkpt><trkpt lat="33.8517847" lon="133.3450365"><ele>848.0933333333334</ele><time>2022-10-07T21:17:30Z</time></trkpt><trkpt lat="33.8517273" lon="133.3447927"><ele>850.2566666666668</ele><time>2022-10-07T21:17:51Z</time></trkpt><trkpt lat="33.8517347" lon="133.3445731"><ele>849.2966666666666</ele><time>2022-10-07T21:18:12Z</time></trkpt><trkpt lat="33.8518165" lon="133.344379"><ele>853.4533333333334</ele><time>2022-10-07T21:18:42Z</time></trkpt><trkpt lat="33.8519706" lon="133.344239"><ele>860.9900000000001</ele><time>2022-10-07T21:19:12Z</time></trkpt><trkpt lat="33.8521051" lon="133.3440655"><ele>867.84</ele><time>2022-10-07T21:19:34Z</time></trkpt><trkpt lat="33.8522952" lon="133.3440527"><ele>873.0466666666667</ele><time>2022-10-07T21:19:55Z</time></trkpt><trkpt lat="33.8524656" lon="133.3439381"><ele>878.36</ele><time>2022-10-07T21:20:21Z</time></trkpt><trkpt lat="33.8525928" lon="133.3437768"><ele>883.6333333333333</ele><time>2022-10-07T21:20:42Z</time></trkpt><trkpt lat="33.8527615" lon="133.3436675"><ele>889.4200000000001</ele><time>2022-10-07T21:21:10Z</time></trkpt><trkpt lat="33.852903" lon="133.3435036"><ele>894.0866666666667</ele><time>2022-10-07T21:21:30Z</time></trkpt><trkpt lat="33.8528273" lon="133.3433045"><ele>899.9</ele><time>2022-10-07T21:21:51Z</time></trkpt><trkpt lat="33.8528287" lon="133.3430883"><ele>904.6666666666666</ele><time>2022-10-07T21:22:12Z</time></trkpt><trkpt lat="33.852845" lon="133.3428526"><ele>907.8000000000001</ele><time>2022-10-07T21:22:34Z</time></trkpt><trkpt lat="33.8528796" lon="133.3426169"><ele>909.2633333333333</ele><time>2022-10-07T21:22:57Z</time></trkpt><trkpt lat="33.8530253" lon="133.3424642"><ele>911.12</ele><time>2022-10-07T21:23:19Z</time></trkpt><trkpt lat="33.8531422" lon="133.3422801"><ele>912.0600000000001</ele><time>2022-10-07T21:23:40Z</time></trkpt><trkpt lat="33.8532626" lon="133.3421084"><ele>913.79</ele><time>2022-10-07T21:23:51Z</time></trkpt><trkpt lat="33.8533728" lon="133.3417911"><ele>910.5033333333334</ele><time>2022-10-07T21:24:17Z</time></trkpt><trkpt lat="33.8535235" lon="133.3416289"><ele>910.02</ele><time>2022-10-07T21:24:33Z</time></trkpt><trkpt lat="33.8536045" lon="133.3414147"><ele>910.1733333333335</ele><time>2022-10-07T21:24:48Z</time></trkpt><trkpt lat="33.8537783" lon="133.3413063"><ele>912.2833333333333</ele><time>2022-10-07T21:25:00Z</time></trkpt><trkpt lat="33.8538988" lon="133.3411452"><ele>911.5666666666666</ele><time>2022-10-07T21:25:19Z</time></trkpt><trkpt lat="33.8538753" lon="133.3408957"><ele>910.57</ele><time>2022-10-07T21:26:10Z</time></trkpt><trkpt lat="33.8539012" lon="133.340663"><ele>911.4733333333334</ele><time>2022-10-07T21:26:31Z</time></trkpt><trkpt lat="33.8538913" lon="133.3404429"><ele>914.9366666666668</ele><time>2022-10-07T21:26:53Z</time></trkpt><trkpt lat="33.853927" lon="133.340207"><ele>917.54</ele><time>2022-10-07T21:27:16Z</time></trkpt><trkpt lat="33.8540293" lon="133.3400027"><ele>918.4233333333333</ele><time>2022-10-07T21:27:37Z</time></trkpt><trkpt lat="33.8541952" lon="133.339883"><ele>919.4366666666666</ele><time>2022-10-07T21:27:59Z</time></trkpt><trkpt lat="33.85437" lon="133.3397619"><ele>922.0666666666666</ele><time>2022-10-07T21:28:19Z</time></trkpt><trkpt lat="33.8544952" lon="133.3395922"><ele>926.4433333333333</ele><time>2022-10-07T21:28:40Z</time></trkpt><trkpt lat="33.8545796" lon="133.3393845"><ele>930.0466666666666</ele><time>2022-10-07T21:29:04Z</time></trkpt><trkpt lat="33.8545644" lon="133.3391683"><ele>933.4233333333333</ele><time>2022-10-07T21:29:22Z</time></trkpt><trkpt lat="33.854455" lon="133.3389828"><ele>935.3266666666667</ele><time>2022-10-07T21:29:43Z</time></trkpt><trkpt lat="33.8544201" lon="133.3387686"><ele>936.2633333333333</ele><time>2022-10-07T21:30:01Z</time></trkpt><trkpt lat="33.8543283" lon="133.3385724"><ele>937.5333333333333</ele><time>2022-10-07T21:30:26Z</time></trkpt><trkpt lat="33.8543584" lon="133.3383118"><ele>939.0066666666667</ele><time>2022-10-07T21:30:50Z</time></trkpt><trkpt lat="33.854451" lon="133.3380999"><ele>940.41</ele><time>2022-10-07T21:31:08Z</time></trkpt><trkpt lat="33.8546277" lon="133.3379992"><ele>941.3266666666667</ele><time>2022-10-07T21:31:30Z</time></trkpt><trkpt lat="33.8547683" lon="133.3378634"><ele>942.39</ele><time>2022-10-07T21:31:58Z</time></trkpt><trkpt lat="33.8547935" lon="133.3375962"><ele>942.6733333333333</ele><time>2022-10-07T21:32:21Z</time></trkpt><trkpt lat="33.8547318" lon="133.3373612"><ele>943.5733333333334</ele><time>2022-10-07T21:32:56Z</time></trkpt><trkpt lat="33.8546548" lon="133.3371281"><ele>946.2266666666668</ele><time>2022-10-07T21:33:08Z</time></trkpt><trkpt lat="33.8546548" lon="133.3368847"><ele>949.4433333333333</ele><time>2022-10-07T21:33:24Z</time></trkpt><trkpt lat="33.8546844" lon="133.3366323"><ele>952.1833333333334</ele><time>2022-10-07T21:33:39Z</time></trkpt><trkpt lat="33.854651" lon="133.3364107"><ele>953.5100000000001</ele><time>2022-10-07T21:33:56Z</time></trkpt><trkpt lat="33.8546085" lon="133.3361882"><ele>955.7466666666668</ele><time>2022-10-07T21:34:14Z</time></trkpt><trkpt lat="33.8547247" lon="133.3360075"><ele>957.6866666666666</ele><time>2022-10-07T21:34:40Z</time></trkpt><trkpt lat="33.8546537" lon="133.3358017"><ele>960.9699999999999</ele><time>2022-10-07T21:35:04Z</time></trkpt><trkpt lat="33.8547132" lon="133.3355912"><ele>963.89</ele><time>2022-10-07T21:35:24Z</time></trkpt><trkpt lat="33.8548223" lon="133.335353"><ele>967.84</ele><time>2022-10-07T21:35:59Z</time></trkpt><trkpt lat="33.8549295" lon="133.335165"><ele>972.1433333333333</ele><time>2022-10-07T21:36:11Z</time></trkpt><trkpt lat="33.8550506" lon="133.3349586"><ele>977.81</ele><time>2022-10-07T21:36:29Z</time></trkpt><trkpt lat="33.8551482" lon="133.3347712"><ele>982.37</ele><time>2022-10-07T21:36:55Z</time></trkpt><trkpt lat="33.8551783" lon="133.3345401"><ele>984.0733333333334</ele><time>2022-10-07T21:37:25Z</time></trkpt><trkpt lat="33.8551354" lon="133.3343076"><ele>985.6233333333333</ele><time>2022-10-07T21:37:55Z</time></trkpt><trkpt lat="33.8550709" lon="133.3341022"><ele>986.9166666666666</ele><time>2022-10-07T21:38:16Z</time></trkpt><trkpt lat="33.854985" lon="133.3339088"><ele>988.9499999999999</ele><time>2022-10-07T21:38:51Z</time></trkpt><trkpt lat="33.8549168" lon="133.3336758"><ele>989.8933333333333</ele><time>2022-10-07T21:39:33Z</time></trkpt><trkpt lat="33.8547884" lon="133.3334943"><ele>992.1133333333333</ele><time>2022-10-07T21:39:51Z</time></trkpt><trkpt lat="33.8548354" lon="133.3332577"><ele>994.3000000000001</ele><time>2022-10-07T21:40:10Z</time></trkpt><trkpt lat="33.8547426" lon="133.3330568"><ele>997.16</ele><time>2022-10-07T21:40:34Z</time></trkpt><trkpt lat="33.854562" lon="133.3328921"><ele>1001.1899999999999</ele><time>2022-10-07T21:40:46Z</time></trkpt><trkpt lat="33.8545736" lon="133.3326724"><ele>1006.2199999999999</ele><time>2022-10-07T21:41:03Z</time></trkpt><trkpt lat="33.8545556" lon="133.3324229"><ele>1013.4633333333333</ele><time>2022-10-07T21:41:31Z</time></trkpt><trkpt lat="33.8543728" lon="133.3324839"><ele>1019.7833333333333</ele><time>2022-10-07T21:42:12Z</time></trkpt><trkpt lat="33.8544607" lon="133.3322609"><ele>1027.33</ele><time>2022-10-07T21:42:33Z</time></trkpt><trkpt lat="33.8545979" lon="133.3321149"><ele>1031.39</ele><time>2022-10-07T21:42:45Z</time></trkpt><trkpt lat="33.8547755" lon="133.3319872"><ele>1032.34</ele><time>2022-10-07T21:43:04Z</time></trkpt><trkpt lat="33.8549708" lon="133.3319177"><ele>1029.3966666666668</ele><time>2022-10-07T21:43:30Z</time></trkpt><trkpt lat="33.8551482" lon="133.3318684"><ele>1026.26</ele><time>2022-10-07T21:43:40Z</time></trkpt><trkpt lat="33.8551965" lon="133.331656"><ele>1025.6466666666668</ele><time>2022-10-07T21:44:00Z</time></trkpt><trkpt lat="33.8553115" lon="133.3318338"><ele>1026.74</ele><time>2022-10-07T21:44:30Z</time></trkpt><trkpt lat="33.8553804" lon="133.3316098"><ele>1028.9366666666667</ele><time>2022-10-07T21:45:01Z</time></trkpt><trkpt lat="33.8553705" lon="133.3313905"><ele>1031.2733333333333</ele><time>2022-10-07T21:45:22Z</time></trkpt><trkpt lat="33.8555279" lon="133.3312402"><ele>1034.4666666666667</ele><time>2022-10-07T21:45:42Z</time></trkpt><trkpt lat="33.8557092" lon="133.3311425"><ele>1039.1533333333334</ele><time>2022-10-07T21:46:00Z</time></trkpt><trkpt lat="33.855901" lon="133.3311798"><ele>1044.68</ele><time>2022-10-07T21:46:18Z</time></trkpt><trkpt lat="33.8560926" lon="133.3311584"><ele>1049.8433333333332</ele><time>2022-10-07T21:46:40Z</time></trkpt><trkpt lat="33.856241" lon="133.3310137"><ele>1054.3933333333334</ele><time>2022-10-07T21:47:12Z</time></trkpt><trkpt lat="33.8563877" lon="133.3308547"><ele>1056.8</ele><time>2022-10-07T21:47:39Z</time></trkpt><trkpt lat="33.8564641" lon="133.3306457"><ele>1060.8799999999999</ele><time>2022-10-07T21:48:03Z</time></trkpt><trkpt lat="33.8564831" lon="133.3304153"><ele>1065.1166666666668</ele><time>2022-10-07T21:48:27Z</time></trkpt><trkpt lat="33.8564683" lon="133.3301925"><ele>1070.69</ele><time>2022-10-07T21:48:51Z</time></trkpt><trkpt lat="33.8565748" lon="133.3303695"><ele>1071.2700000000002</ele><time>2022-10-07T21:49:49Z</time></trkpt><trkpt lat="33.8567826" lon="133.3304135"><ele>1069.716666666667</ele><time>2022-10-07T21:50:10Z</time></trkpt><trkpt lat="33.8568803" lon="133.330609"><ele>1068.39</ele><time>2022-10-07T21:50:43Z</time></trkpt><trkpt lat="33.8570396" lon="133.3307285"><ele>1071.8933333333332</ele><time>2022-10-07T21:51:16Z</time></trkpt><trkpt lat="33.8570024" lon="133.330516"><ele>1074.5366666666666</ele><time>2022-10-07T21:52:09Z</time></trkpt><trkpt lat="33.8571368" lon="133.3303486"><ele>1079.2</ele><time>2022-10-07T21:52:48Z</time></trkpt><trkpt lat="33.8572215" lon="133.3301424"><ele>1081.6733333333332</ele><time>2022-10-07T21:53:30Z</time></trkpt><trkpt lat="33.857389" lon="133.330022"><ele>1088.3066666666666</ele><time>2022-10-07T21:53:48Z</time></trkpt><trkpt lat="33.8575779" lon="133.329972"><ele>1092.0566666666666</ele><time>2022-10-07T21:54:12Z</time></trkpt><trkpt lat="33.8577514" lon="133.3300788"><ele>1101.8</ele><time>2022-10-07T21:54:33Z</time></trkpt><trkpt lat="33.8579514" lon="133.3299841"><ele>1108.3500000000001</ele><time>2022-10-07T21:54:52Z</time></trkpt><trkpt lat="33.8579939" lon="133.3297661"><ele>1110.3100000000002</ele><time>2022-10-07T21:55:03Z</time></trkpt><trkpt lat="33.8580979" lon="133.3295556"><ele>1106.3866666666665</ele><time>2022-10-07T21:55:21Z</time></trkpt><trkpt lat="33.8579724" lon="133.3294002"><ele>1100.6266666666668</ele><time>2022-10-07T21:55:40Z</time></trkpt><trkpt lat="33.8577751" lon="133.329357"><ele>1100.2299999999998</ele><time>2022-10-07T21:56:07Z</time></trkpt><trkpt lat="33.857743" lon="133.3291434"><ele>1101.1000000000001</ele><time>2022-10-07T21:56:52Z</time></trkpt><trkpt lat="33.8578344" lon="133.3289557"><ele>1106.01</ele><time>2022-10-07T21:57:25Z</time></trkpt><trkpt lat="33.8579428" lon="133.3287496"><ele>1110.3866666666665</ele><time>2022-10-07T21:57:47Z</time></trkpt><trkpt lat="33.8579745" lon="133.3285182"><ele>1114.4466666666667</ele><time>2022-10-07T21:58:07Z</time></trkpt><trkpt lat="33.8580505" lon="133.3282952"><ele>1117.9366666666665</ele><time>2022-10-07T21:58:31Z</time></trkpt><trkpt lat="33.8581444" lon="133.3281103"><ele>1121.2666666666667</ele><time>2022-10-07T21:58:53Z</time></trkpt><trkpt lat="33.8582765" lon="133.3279561"><ele>1125.79</ele><time>2022-10-07T21:59:14Z</time></trkpt><trkpt lat="33.8583885" lon="133.3277742"><ele>1130.95</ele><time>2022-10-07T21:59:41Z</time></trkpt><trkpt lat="33.8585786" lon="133.3276419"><ele>1136.99</ele><time>2022-10-07T22:00:05Z</time></trkpt><trkpt lat="33.8587228" lon="133.3275003"><ele>1141.6333333333332</ele><time>2022-10-07T22:00:29Z</time></trkpt><trkpt lat="33.8588742" lon="133.3273678"><ele>1145.91</ele><time>2022-10-07T22:00:58Z</time></trkpt><trkpt lat="33.8590591" lon="133.3273605"><ele>1149.6566666666668</ele><time>2022-10-07T22:01:19Z</time></trkpt><trkpt lat="33.8592661" lon="133.3273465"><ele>1153.8333333333333</ele><time>2022-10-07T22:01:40Z</time></trkpt><trkpt lat="33.8594604" lon="133.3274043"><ele>1157.94</ele><time>2022-10-07T22:02:07Z</time></trkpt><trkpt lat="33.8596399" lon="133.3274706"><ele>1163.8133333333335</ele><time>2022-10-07T22:02:37Z</time></trkpt><trkpt lat="33.8597534" lon="133.3272887"><ele>1168.8266666666668</ele><time>2022-10-07T22:03:07Z</time></trkpt><trkpt lat="33.8599372" lon="133.3272349"><ele>1172.9266666666665</ele><time>2022-10-07T22:03:39Z</time></trkpt><trkpt lat="33.8601128" lon="133.3271498"><ele>1175.1200000000001</ele><time>2022-10-07T22:04:24Z</time></trkpt><trkpt lat="33.8602972" lon="133.3270981"><ele>1179.0966666666666</ele><time>2022-10-07T22:04:36Z</time></trkpt><trkpt lat="33.8604626" lon="133.3270116"><ele>1182.99</ele><time>2022-10-07T22:04:56Z</time></trkpt><trkpt lat="33.8605498" lon="133.3268139"><ele>1187.2966666666669</ele><time>2022-10-07T22:05:24Z</time></trkpt><trkpt lat="33.8606701" lon="133.3266509"><ele>1191.7866666666666</ele><time>2022-10-07T22:05:58Z</time></trkpt><trkpt lat="33.8608598" lon="133.3266087"><ele>1197.9</ele><time>2022-10-07T22:06:28Z</time></trkpt><trkpt lat="33.8609852" lon="133.3267698"><ele>1203.3466666666666</ele><time>2022-10-07T22:06:53Z</time></trkpt><trkpt lat="33.8608021" lon="133.3267493"><ele>1204.3500000000001</ele><time>2022-10-07T22:11:10Z</time></trkpt><trkpt lat="33.8607388" lon="133.3265299"><ele>1205.0666666666666</ele><time>2022-10-07T22:11:41Z</time></trkpt><trkpt lat="33.8608913" lon="133.3264068"><ele>1207.7433333333333</ele><time>2022-10-07T22:12:02Z</time></trkpt><trkpt lat="33.8608755" lon="133.3261855"><ele>1216.07</ele><time>2022-10-07T22:12:29Z</time></trkpt><trkpt lat="33.8610714" lon="133.3261479"><ele>1222.0633333333333</ele><time>2022-10-07T22:13:17Z</time></trkpt><trkpt lat="33.8612546" lon="133.3261261"><ele>1226.4266666666665</ele><time>2022-10-07T22:13:41Z</time></trkpt><trkpt lat="33.8613759" lon="133.3263098"><ele>1229.3</ele><time>2022-10-07T22:14:20Z</time></trkpt><trkpt lat="33.8615539" lon="133.3261999"><ele>1235.9099999999999</ele><time>2022-10-07T22:14:55Z</time></trkpt><trkpt lat="33.8616019" lon="133.3264138"><ele>1242.1466666666668</ele><time>2022-10-07T22:15:25Z</time></trkpt><trkpt lat="33.8617136" lon="133.3262384"><ele>1249.0</ele><time>2022-10-07T22:16:16Z</time></trkpt><trkpt lat="33.8618585" lon="133.326065"><ele>1257.3566666666668</ele><time>2022-10-07T22:17:28Z</time></trkpt><trkpt lat="33.8619515" lon="133.3258586"><ele>1269.3600000000001</ele><time>2022-10-07T22:18:10Z</time></trkpt><trkpt lat="33.8619751" lon="133.3256335"><ele>1278.8633333333335</ele><time>2022-10-07T22:18:46Z</time></trkpt><trkpt lat="33.8621006" lon="133.3254746"><ele>1285.6633333333332</ele><time>2022-10-07T22:19:40Z</time></trkpt><trkpt lat="33.8622728" lon="133.3253978"><ele>1289.0033333333333</ele><time>2022-10-07T22:20:19Z</time></trkpt><trkpt lat="33.8624525" lon="133.3253683"><ele>1291.9233333333334</ele><time>2022-10-07T22:20:37Z</time></trkpt><trkpt lat="33.8624608" lon="133.3255889"><ele>1293.11</ele><time>2022-10-07T22:22:01Z</time></trkpt><trkpt lat="33.8624649" lon="133.3258395"><ele>1294.46</ele><time>2022-10-07T22:22:13Z</time></trkpt><trkpt lat="33.8625448" lon="133.326059"><ele>1296.9666666666667</ele><time>2022-10-07T22:22:31Z</time></trkpt><trkpt lat="33.8625239" lon="133.3263037"><ele>1300.1200000000001</ele><time>2022-10-07T22:23:01Z</time></trkpt><trkpt lat="33.8627106" lon="133.3263597"><ele>1301.9866666666667</ele><time>2022-10-07T22:23:25Z</time></trkpt><trkpt lat="33.8626109" lon="133.3265474"><ele>1304.7966666666669</ele><time>2022-10-07T22:23:44Z</time></trkpt><trkpt lat="33.8626756" lon="133.3267736"><ele>1307.9866666666667</ele><time>2022-10-07T22:24:03Z</time></trkpt><trkpt lat="33.8627105" lon="133.3270042"><ele>1311.4800000000002</ele><time>2022-10-07T22:24:21Z</time></trkpt><trkpt lat="33.8628036" lon="133.3272182"><ele>1315.9566666666667</ele><time>2022-10-07T22:24:42Z</time></trkpt><trkpt lat="33.8627696" lon="133.3274543"><ele>1320.6133333333335</ele><time>2022-10-07T22:25:39Z</time></trkpt><trkpt lat="33.8627245" lon="133.3276646"><ele>1327.45</ele><time>2022-10-07T22:26:24Z</time></trkpt><trkpt lat="33.8627403" lon="133.3278848"><ele>1334.3466666666666</ele><time>2022-10-07T22:27:45Z</time></trkpt><trkpt lat="33.8627465" lon="133.3281102"><ele>1342.9933333333333</ele><time>2022-10-07T22:28:27Z</time></trkpt><trkpt lat="33.8627686" lon="133.3283397"><ele>1349.9766666666667</ele><time>2022-10-07T22:29:19Z</time></trkpt><trkpt lat="33.8629031" lon="133.3284936"><ele>1354.8400000000001</ele><time>2022-10-07T22:29:39Z</time></trkpt><trkpt lat="33.8630324" lon="133.3286491"><ele>1356.8166666666666</ele><time>2022-10-07T22:30:19Z</time></trkpt><trkpt lat="33.8631338" lon="133.3288469"><ele>1358.9866666666667</ele><time>2022-10-07T22:30:40Z</time></trkpt><trkpt lat="33.8631104" lon="133.3290822"><ele>1362.7466666666667</ele><time>2022-10-07T22:31:43Z</time></trkpt><trkpt lat="33.8631612" lon="133.3293026"><ele>1367.0400000000002</ele><time>2022-10-07T22:32:22Z</time></trkpt><trkpt lat="33.8631698" lon="133.3295301"><ele>1373.2600000000002</ele><time>2022-10-07T22:33:22Z</time></trkpt><trkpt lat="33.8631485" lon="133.3297586"><ele>1378.0033333333333</ele><time>2022-10-07T22:34:10Z</time></trkpt><trkpt lat="33.8632423" lon="133.3299682"><ele>1381.9133333333332</ele><time>2022-10-07T22:34:31Z</time></trkpt><trkpt lat="33.8632976" lon="133.3301868"><ele>1385.1666666666667</ele><time>2022-10-07T22:34:49Z</time></trkpt><trkpt lat="33.8634235" lon="133.3303419"><ele>1387.8933333333334</ele><time>2022-10-07T22:35:10Z</time></trkpt><trkpt lat="33.8635053" lon="133.3305653"><ele>1390.47</ele><time>2022-10-07T22:35:34Z</time></trkpt><trkpt lat="33.8636675" lon="133.3306932"><ele>1390.8966666666665</ele><time>2022-10-07T22:37:28Z</time></trkpt><trkpt lat="33.8638238" lon="133.3308752"><ele>1390.72</ele><time>2022-10-07T22:41:06Z</time></trkpt><trkpt lat="33.8639513" lon="133.3310349"><ele>1389.3866666666665</ele><time>2022-10-07T22:41:30Z</time></trkpt><trkpt lat="33.864043" lon="133.3312326"><ele>1386.7333333333333</ele><time>2022-10-07T22:42:21Z</time></trkpt><trkpt lat="33.8641789" lon="133.3314113"><ele>1384.83</ele><time>2022-10-07T22:42:48Z</time></trkpt><trkpt lat="33.8642723" lon="133.3315989"><ele>1385.8166666666666</ele><time>2022-10-07T22:43:21Z</time></trkpt><trkpt lat="33.8643646" lon="133.3318067"><ele>1392.3566666666666</ele><time>2022-10-07T22:43:42Z</time></trkpt><trkpt lat="33.8643742" lon="133.3320361"><ele>1398.9866666666667</ele><time>2022-10-07T22:44:18Z</time></trkpt><trkpt lat="33.8643885" lon="133.332256"><ele>1405.0766666666666</ele><time>2022-10-07T22:44:42Z</time></trkpt><trkpt lat="33.8643893" lon="133.3324766"><ele>1407.8433333333332</ele><time>2022-10-07T22:45:15Z</time></trkpt><trkpt lat="33.8643549" lon="133.3327008"><ele>1412.33</ele><time>2022-10-07T22:45:39Z</time></trkpt><trkpt lat="33.8645299" lon="133.332606"><ele>1418.2766666666666</ele><time>2022-10-07T22:47:24Z</time></trkpt><trkpt lat="33.864709" lon="133.3325152"><ele>1424.6333333333332</ele><time>2022-10-07T22:47:51Z</time></trkpt><trkpt lat="33.8649019" lon="133.3325161"><ele>1429.22</ele><time>2022-10-07T22:48:15Z</time></trkpt><trkpt lat="33.865071" lon="133.3326366"><ele>1431.28</ele><time>2022-10-07T22:48:36Z</time></trkpt><trkpt lat="33.8652473" lon="133.3327016"><ele>1433.57</ele><time>2022-10-07T22:49:00Z</time></trkpt><trkpt lat="33.8654367" lon="133.3327235"><ele>1436.8700000000001</ele><time>2022-10-07T22:49:24Z</time></trkpt><trkpt lat="33.8656137" lon="133.3327792"><ele>1441.75</ele><time>2022-10-07T22:49:45Z</time></trkpt><trkpt lat="33.8658069" lon="133.332812"><ele>1446.5833333333333</ele><time>2022-10-07T22:50:15Z</time></trkpt><trkpt lat="33.8660013" lon="133.3327761"><ele>1452.11</ele><time>2022-10-07T22:50:51Z</time></trkpt><trkpt lat="33.8661261" lon="133.3329411"><ele>1457.33</ele><time>2022-10-07T22:51:40Z</time></trkpt><trkpt lat="33.8663217" lon="133.3329808"><ele>1461.0033333333333</ele><time>2022-10-07T22:52:15Z</time></trkpt><trkpt lat="33.8665121" lon="133.3330223"><ele>1464.9266666666665</ele><time>2022-10-07T22:52:51Z</time></trkpt><trkpt lat="33.8666974" lon="133.3330392"><ele>1468.7166666666665</ele><time>2022-10-07T22:53:21Z</time></trkpt><trkpt lat="33.8668386" lon="133.333177"><ele>1474.7700000000002</ele><time>2022-10-07T22:53:51Z</time></trkpt><trkpt lat="33.8669535" lon="133.3333697"><ele>1478.05</ele><time>2022-10-07T22:54:18Z</time></trkpt><trkpt lat="33.8670981" lon="133.3335157"><ele>1478.5900000000001</ele><time>2022-10-07T22:54:39Z</time></trkpt><trkpt lat="33.8671547" lon="133.3337291"><ele>1476.346666666667</ele><time>2022-10-07T22:55:00Z</time></trkpt><trkpt lat="33.8672571" lon="133.3339359"><ele>1473.03</ele><time>2022-10-07T22:55:24Z</time></trkpt><trkpt lat="33.8673891" lon="133.334103"><ele>1469.6033333333332</ele><time>2022-10-07T22:56:03Z</time></trkpt><trkpt lat="33.8675804" lon="133.3340914"><ele>1465.1733333333334</ele><time>2022-10-07T22:56:24Z</time></trkpt><trkpt lat="33.8677483" lon="133.334184"><ele>1460.5533333333333</ele><time>2022-10-07T22:56:42Z</time></trkpt><trkpt lat="33.8678924" lon="133.3343385"><ele>1456.5266666666666</ele><time>2022-10-07T22:57:09Z</time></trkpt><trkpt lat="33.8680433" lon="133.3344635"><ele>1454.1333333333334</ele><time>2022-10-07T22:57:33Z</time></trkpt><trkpt lat="33.8681782" lon="133.3346256"><ele>1452.9133333333332</ele><time>2022-10-07T22:58:00Z</time></trkpt><trkpt lat="33.8683165" lon="133.3348218"><ele>1452.9666666666665</ele><time>2022-10-07T22:58:44Z</time></trkpt><trkpt lat="33.8684683" lon="133.3349578"><ele>1452.716666666667</ele><time>2022-10-07T22:58:59Z</time></trkpt><trkpt lat="33.8685821" lon="133.3351549"><ele>1454.5366666666666</ele><time>2022-10-07T22:59:20Z</time></trkpt><trkpt lat="33.8687233" lon="133.335308"><ele>1456.6466666666668</ele><time>2022-10-07T22:59:53Z</time></trkpt><trkpt lat="33.8688389" lon="133.3354868"><ele>1460.466666666667</ele><time>2022-10-07T23:00:14Z</time></trkpt><trkpt lat="33.869035" lon="133.3355452"><ele>1463.6433333333334</ele><time>2022-10-07T23:00:35Z</time></trkpt><trkpt lat="33.8692198" lon="133.3356216"><ele>1468.1033333333332</ele><time>2022-10-07T23:01:20Z</time></trkpt><trkpt lat="33.8693955" lon="133.3357159"><ele>1473.5</ele><time>2022-10-07T23:02:26Z</time></trkpt><trkpt lat="33.8695535" lon="133.3358658"><ele>1480.5833333333333</ele><time>2022-10-07T23:02:59Z</time></trkpt><trkpt lat="33.8696761" lon="133.3360252"><ele>1486.5666666666666</ele><time>2022-10-07T23:03:17Z</time></trkpt><trkpt lat="33.8697796" lon="133.3362342"><ele>1490.7166666666665</ele><time>2022-10-07T23:03:38Z</time></trkpt><trkpt lat="33.8699144" lon="133.3363989"><ele>1492.8133333333335</ele><time>2022-10-07T23:03:59Z</time></trkpt><trkpt lat="33.8700871" lon="133.3364619"><ele>1494.8766666666668</ele><time>2022-10-07T23:04:20Z</time></trkpt><trkpt lat="33.8702609" lon="133.3363885"><ele>1496.3333333333333</ele><time>2022-10-07T23:04:47Z</time></trkpt><trkpt lat="33.8704553" lon="133.3363431"><ele>1499.0433333333333</ele><time>2022-10-07T23:05:29Z</time></trkpt><trkpt lat="33.8706424" lon="133.3363111"><ele>1504.5133333333333</ele><time>2022-10-07T23:06:08Z</time></trkpt><trkpt lat="33.8708235" lon="133.3362277"><ele>1510.1433333333334</ele><time>2022-10-07T23:06:38Z</time></trkpt><trkpt lat="33.8709913" lon="133.3363285"><ele>1511.9266666666665</ele><time>2022-10-07T23:07:02Z</time></trkpt><trkpt lat="33.8711671" lon="133.3364022"><ele>1510.8566666666666</ele><time>2022-10-07T23:07:26Z</time></trkpt><trkpt lat="33.8713561" lon="133.3364297"><ele>1511.7233333333334</ele><time>2022-10-07T23:07:53Z</time></trkpt><trkpt lat="33.8714832" lon="133.3365856"><ele>1517.6000000000001</ele><time>2022-10-07T23:11:02Z</time></trkpt><trkpt lat="33.8716625" lon="133.3366161"><ele>1526.6800000000003</ele><time>2022-10-07T23:12:14Z</time></trkpt><trkpt lat="33.8718293" lon="133.3367338"><ele>1537.5333333333335</ele><time>2022-10-07T23:12:50Z</time></trkpt><trkpt lat="33.8720029" lon="133.3368353"><ele>1545.956666666667</ele><time>2022-10-07T23:13:17Z</time></trkpt><trkpt lat="33.8721506" lon="133.3369635"><ele>1550.3533333333335</ele><time>2022-10-07T23:13:41Z</time></trkpt><trkpt lat="33.8720104" lon="133.3371084"><ele>1551.4166666666667</ele><time>2022-10-07T23:14:14Z</time></trkpt><trkpt lat="33.8721745" lon="133.3372594"><ele>1552.8666666666668</ele><time>2022-10-07T23:14:47Z</time></trkpt><trkpt lat="33.8722558" lon="133.3374596"><ele>1554.2033333333336</ele><time>2022-10-07T23:15:17Z</time></trkpt><trkpt lat="33.8724312" lon="133.3375696"><ele>1557.2433333333336</ele><time>2022-10-07T23:15:38Z</time></trkpt><trkpt lat="33.8726192" lon="133.3375685"><ele>1559.3366666666668</ele><time>2022-10-07T23:16:02Z</time></trkpt><trkpt lat="33.8728052" lon="133.3376389"><ele>1561.9166666666667</ele><time>2022-10-07T23:16:26Z</time></trkpt><trkpt lat="33.8729712" lon="133.3374851"><ele>1562.2933333333333</ele><time>2022-10-07T23:16:47Z</time></trkpt><trkpt lat="33.873153" lon="133.3374321"><ele>1561.3166666666668</ele><time>2022-10-07T23:17:05Z</time></trkpt><trkpt lat="33.873337" lon="133.3375455"><ele>1560.4800000000002</ele><time>2022-10-07T23:17:29Z</time></trkpt><trkpt lat="33.8735052" lon="133.3376555"><ele>1558.2300000000002</ele><time>2022-10-07T23:17:59Z</time></trkpt><trkpt lat="33.8736618" lon="133.3377791"><ele>1556.2766666666666</ele><time>2022-10-07T23:18:14Z</time></trkpt><trkpt lat="33.8737851" lon="133.3379591"><ele>1553.6733333333334</ele><time>2022-10-07T23:18:38Z</time></trkpt><trkpt lat="33.8738763" lon="133.3381709"><ele>1552.8466666666666</ele><time>2022-10-07T23:18:59Z</time></trkpt><trkpt lat="33.8740674" lon="133.3382899"><ele>1554.5966666666666</ele><time>2022-10-07T23:19:20Z</time></trkpt><trkpt lat="33.8742455" lon="133.3384021"><ele>1557.4666666666665</ele><time>2022-10-07T23:19:47Z</time></trkpt><trkpt lat="33.8744176" lon="133.3384943"><ele>1561.4966666666667</ele><time>2022-10-07T23:20:11Z</time></trkpt><trkpt lat="33.8745899" lon="133.338591"><ele>1565.1533333333334</ele><time>2022-10-07T23:20:41Z</time></trkpt><trkpt lat="33.8747728" lon="133.338557"><ele>1571.0633333333335</ele><time>2022-10-07T23:21:26Z</time></trkpt><trkpt lat="33.874952" lon="133.3386002"><ele>1576.6066666666666</ele><time>2022-10-07T23:22:02Z</time></trkpt><trkpt lat="33.8750589" lon="133.338777"><ele>1581.7633333333333</ele><time>2022-10-07T23:22:38Z</time></trkpt><trkpt lat="33.8752327" lon="133.3388537"><ele>1583.8066666666666</ele><time>2022-10-07T23:23:23Z</time></trkpt><trkpt lat="33.875256" lon="133.3390828"><ele>1587.51</ele><time>2022-10-07T23:23:59Z</time></trkpt><trkpt lat="33.8753537" lon="133.3392703"><ele>1595.2966666666669</ele><time>2022-10-07T23:24:35Z</time></trkpt><trkpt lat="33.8755289" lon="133.3393311"><ele>1604.006666666667</ele><time>2022-10-07T23:25:38Z</time></trkpt><trkpt lat="33.8755974" lon="133.3395382"><ele>1613.95</ele><time>2022-10-07T23:32:50Z</time></trkpt><trkpt lat="33.8755509" lon="133.3397822"><ele>1618.53</ele><time>2022-10-07T23:33:05Z</time></trkpt><trkpt lat="33.8754953" lon="133.3399899"><ele>1621.9866666666667</ele><time>2022-10-07T23:33:23Z</time></trkpt><trkpt lat="33.8755442" lon="133.3402055"><ele>1620.8000000000002</ele><time>2022-10-07T23:33:41Z</time></trkpt><trkpt lat="33.8755781" lon="133.3404234"><ele>1616.8500000000001</ele><time>2022-10-07T23:34:02Z</time></trkpt><trkpt lat="33.8756205" lon="133.3406451"><ele>1610.2066666666667</ele><time>2022-10-07T23:34:32Z</time></trkpt><trkpt lat="33.8756813" lon="133.3408754"><ele>1603.3466666666666</ele><time>2022-10-07T23:35:00Z</time></trkpt><trkpt lat="33.8757107" lon="133.3411086"><ele>1597.7833333333335</ele><time>2022-10-07T23:35:18Z</time></trkpt><trkpt lat="33.8757217" lon="133.3413401"><ele>1594.9833333333333</ele><time>2022-10-07T23:35:38Z</time></trkpt><trkpt lat="33.8756645" lon="133.341582"><ele>1592.8366666666668</ele><time>2022-10-07T23:40:05Z</time></trkpt><trkpt lat="33.8757392" lon="133.3417896"><ele>1591.926666666667</ele><time>2022-10-07T23:40:23Z</time></trkpt><trkpt lat="33.8757737" lon="133.3420072"><ele>1590.2300000000002</ele><time>2022-10-07T23:40:41Z</time></trkpt><trkpt lat="33.8758122" lon="133.3422238"><ele>1587.9066666666668</ele><time>2022-10-07T23:41:02Z</time></trkpt><trkpt lat="33.8758866" lon="133.342429"><ele>1585.5433333333333</ele><time>2022-10-07T23:41:14Z</time></trkpt><trkpt lat="33.8759666" lon="133.342633"><ele>1583.42</ele><time>2022-10-07T23:41:38Z</time></trkpt><trkpt lat="33.876019" lon="133.3428557"><ele>1581.7</ele><time>2022-10-07T23:41:59Z</time></trkpt><trkpt lat="33.8760833" lon="133.3430622"><ele>1578.28</ele><time>2022-10-07T23:42:32Z</time></trkpt><trkpt lat="33.8762399" lon="133.343238"><ele>1573.1633333333336</ele><time>2022-10-07T23:42:50Z</time></trkpt><trkpt lat="33.8763335" lon="133.3434717"><ele>1567.6899999999998</ele><time>2022-10-07T23:43:08Z</time></trkpt><trkpt lat="33.8764302" lon="133.3436616"><ele>1564.6733333333334</ele><time>2022-10-07T23:43:30Z</time></trkpt><trkpt lat="33.8765917" lon="133.3437832"><ele>1562.83</ele><time>2022-10-07T23:43:44Z</time></trkpt><trkpt lat="33.8766947" lon="133.3439636"><ele>1561.6033333333335</ele><time>2022-10-07T23:44:00Z</time></trkpt><trkpt lat="33.8768623" lon="133.3441046"><ele>1560.7299999999998</ele><time>2022-10-07T23:44:24Z</time></trkpt><trkpt lat="33.8770305" lon="133.3442159"><ele>1561.1066666666666</ele><time>2022-10-07T23:44:41Z</time></trkpt><trkpt lat="33.8771643" lon="133.3443875"><ele>1561.3233333333335</ele><time>2022-10-07T23:45:00Z</time></trkpt><trkpt lat="33.8771692" lon="133.3446118"><ele>1561.1366666666665</ele><time>2022-10-07T23:45:14Z</time></trkpt><trkpt lat="33.8771275" lon="133.3448442"><ele>1560.0200000000002</ele><time>2022-10-07T23:45:35Z</time></trkpt><trkpt lat="33.877183" lon="133.3450593"><ele>1557.2466666666667</ele><time>2022-10-07T23:45:59Z</time></trkpt><trkpt lat="33.8772726" lon="133.3452589"><ele>1552.9766666666667</ele><time>2022-10-07T23:46:17Z</time></trkpt><trkpt lat="33.8774012" lon="133.3454742"><ele>1548.3966666666668</ele><time>2022-10-07T23:46:39Z</time></trkpt><trkpt lat="33.8774594" lon="133.3457023"><ele>1545.7866666666669</ele><time>2022-10-07T23:47:00Z</time></trkpt><trkpt lat="33.8775325" lon="133.3459157"><ele>1544.28</ele><time>2022-10-07T23:47:20Z</time></trkpt><trkpt lat="33.8776187" lon="133.3461295"><ele>1543.3266666666666</ele><time>2022-10-07T23:47:44Z</time></trkpt><trkpt lat="33.8776958" lon="133.3463345"><ele>1542.0666666666668</ele><time>2022-10-07T23:47:59Z</time></trkpt><trkpt lat="33.8778001" lon="133.3465373"><ele>1540.5333333333335</ele><time>2022-10-07T23:48:21Z</time></trkpt><trkpt lat="33.8778959" lon="133.3467634"><ele>1539.0566666666666</ele><time>2022-10-07T23:48:45Z</time></trkpt><trkpt lat="33.8779858" lon="133.3469797"><ele>1536.7</ele><time>2022-10-07T23:49:20Z</time></trkpt><trkpt lat="33.8780073" lon="133.3472381"><ele>1534.7033333333336</ele><time>2022-10-07T23:49:41Z</time></trkpt><trkpt lat="33.878008" lon="133.3474747"><ele>1533.1066666666666</ele><time>2022-10-07T23:49:59Z</time></trkpt><trkpt lat="33.8780199" lon="133.3477162"><ele>1532.4366666666665</ele><time>2022-10-07T23:50:20Z</time></trkpt><trkpt lat="33.8780996" lon="133.3479166"><ele>1531.6333333333334</ele><time>2022-10-07T23:50:45Z</time></trkpt><trkpt lat="33.8782221" lon="133.3480863"><ele>1529.7266666666667</ele><time>2022-10-07T23:51:03Z</time></trkpt><trkpt lat="33.8782154" lon="133.3483219"><ele>1529.1233333333337</ele><time>2022-10-07T23:51:20Z</time></trkpt><trkpt lat="33.8782498" lon="133.3485739"><ele>1529.266666666667</ele><time>2022-10-07T23:51:41Z</time></trkpt><trkpt lat="33.8783511" lon="133.3488257"><ele>1530.6500000000003</ele><time>2022-10-07T23:52:35Z</time></trkpt><trkpt lat="33.8783971" lon="133.3490555"><ele>1531.7166666666665</ele><time>2022-10-07T23:52:47Z</time></trkpt><trkpt lat="33.8785158" lon="133.3492708"><ele>1532.6666666666667</ele><time>2022-10-07T23:53:11Z</time></trkpt><trkpt lat="33.8785916" lon="133.3494705"><ele>1533.96</ele><time>2022-10-07T23:53:29Z</time></trkpt><trkpt lat="33.8786226" lon="133.3496849"><ele>1534.6066666666666</ele><time>2022-10-07T23:53:53Z</time></trkpt><trkpt lat="33.8786644" lon="133.3499147"><ele>1536.1066666666666</ele><time>2022-10-07T23:54:20Z</time></trkpt><trkpt lat="33.8786395" lon="133.3501567"><ele>1538.9366666666667</ele><time>2022-10-07T23:54:41Z</time></trkpt><trkpt lat="33.8786843" lon="133.3503996"><ele>1543.8233333333335</ele><time>2022-10-07T23:55:23Z</time></trkpt><trkpt lat="33.8787165" lon="133.3506141"><ele>1548.5200000000002</ele><time>2022-10-07T23:56:47Z</time></trkpt><trkpt lat="33.8787524" lon="133.3508371"><ele>1552.5533333333333</ele><time>2022-10-07T23:57:20Z</time></trkpt><trkpt lat="33.8788323" lon="133.3510588"><ele>1555.8433333333332</ele><time>2022-10-07T23:57:44Z</time></trkpt><trkpt lat="33.8789136" lon="133.3512542"><ele>1559.2066666666667</ele><time>2022-10-07T23:58:12Z</time></trkpt><trkpt lat="33.8789763" lon="133.3515034"><ele>1562.8333333333333</ele><time>2022-10-07T23:58:51Z</time></trkpt><trkpt lat="33.8790249" lon="133.3517205"><ele>1566.5</ele><time>2022-10-07T23:59:35Z</time></trkpt><trkpt lat="33.8790641" lon="133.3519323"><ele>1570.6466666666668</ele><time>2022-10-07T23:59:53Z</time></trkpt><trkpt lat="33.8791462" lon="133.3521404"><ele>1575.83</ele><time>2022-10-08T00:00:38Z</time></trkpt><trkpt lat="33.8791953" lon="133.3523698"><ele>1581.6899999999998</ele><time>2022-10-08T00:00:50Z</time></trkpt><trkpt lat="33.879173" lon="133.3525955"><ele>1589.7233333333334</ele><time>2022-10-08T00:02:26Z</time></trkpt><trkpt lat="33.8792488" lon="133.3528742"><ele>1599.7433333333336</ele><time>2022-10-08T00:03:38Z</time></trkpt><trkpt lat="33.8792966" lon="133.3530886"><ele>1610.5033333333333</ele><time>2022-10-08T00:04:05Z</time></trkpt><trkpt lat="33.8793475" lon="133.3533181"><ele>1618.9099999999999</ele><time>2022-10-08T00:04:44Z</time></trkpt><trkpt lat="33.8794051" lon="133.3535465"><ele>1625.1200000000001</ele><time>2022-10-08T00:05:08Z</time></trkpt><trkpt lat="33.8795442" lon="133.3537372"><ele>1629.0933333333335</ele><time>2022-10-08T00:05:41Z</time></trkpt><trkpt lat="33.879673" lon="133.3538898"><ele>1631.9833333333333</ele><time>2022-10-08T00:11:50Z</time></trkpt><trkpt lat="33.8796522" lon="133.3541521"><ele>1632.1633333333332</ele><time>2022-10-08T00:20:40Z</time></trkpt><trkpt lat="33.8796559" lon="133.3544157"><ele>1629.9966666666667</ele><time>2022-10-08T00:20:46Z</time></trkpt><trkpt lat="33.8796739" lon="133.3546611"><ele>1624.9133333333332</ele><time>2022-10-08T00:21:07Z</time></trkpt><trkpt lat="33.8796917" lon="133.3548911"><ele>1616.3799999999999</ele><time>2022-10-08T00:21:34Z</time></trkpt><trkpt lat="33.8797148" lon="133.3551171"><ele>1607.5</ele><time>2022-10-08T00:21:52Z</time></trkpt><trkpt lat="33.8797812" lon="133.3553649"><ele>1598.2933333333333</ele><time>2022-10-08T00:22:10Z</time></trkpt><trkpt lat="33.8797678" lon="133.3555814"><ele>1591.2600000000002</ele><time>2022-10-08T00:22:34Z</time></trkpt><trkpt lat="33.8797638" lon="133.3557994"><ele>1585.6266666666668</ele><time>2022-10-08T00:22:53Z</time></trkpt><trkpt lat="33.8797596" lon="133.3560628"><ele>1583.956666666667</ele><time>2022-10-08T00:23:34Z</time></trkpt><trkpt lat="33.8797622" lon="133.3562908"><ele>1584.4800000000002</ele><time>2022-10-08T00:23:56Z</time></trkpt><trkpt lat="33.8797061" lon="133.3565061"><ele>1586.8266666666666</ele><time>2022-10-08T00:24:27Z</time></trkpt><trkpt lat="33.8795379" lon="133.3566029"><ele>1589.63</ele><time>2022-10-08T00:24:59Z</time></trkpt><trkpt lat="33.8794868" lon="133.3568134"><ele>1592.9866666666667</ele><time>2022-10-08T00:26:32Z</time></trkpt><trkpt lat="33.8792062" lon="133.3570251"><ele>1599.7833333333335</ele><time>2022-10-08T00:27:37Z</time></trkpt><trkpt lat="33.8793118" lon="133.3568466"><ele>1602.14</ele><time>2022-10-08T00:31:00Z</time></trkpt><trkpt lat="33.879479" lon="133.3567618"><ele>1602.1033333333335</ele><time>2022-10-08T00:31:37Z</time></trkpt><trkpt lat="33.8793496" lon="133.3566078"><ele>1597.1499999999999</ele><time>2022-10-08T00:32:11Z</time></trkpt><trkpt lat="33.8791642" lon="133.3565129"><ele>1590.3466666666666</ele><time>2022-10-08T00:32:20Z</time></trkpt><trkpt lat="33.8789868" lon="133.3566023"><ele>1586.45</ele><time>2022-10-08T00:32:56Z</time></trkpt><trkpt lat="33.8788464" lon="133.3567876"><ele>1584.9666666666665</ele><time>2022-10-08T00:33:29Z</time></trkpt><trkpt lat="33.8786569" lon="133.356884"><ele>1586.8166666666668</ele><time>2022-10-08T00:34:43Z</time></trkpt><trkpt lat="33.8785225" lon="133.3570563"><ele>1586.6966666666667</ele><time>2022-10-08T00:35:44Z</time></trkpt><trkpt lat="33.8784039" lon="133.3572441"><ele>1585.256666666667</ele><time>2022-10-08T00:36:02Z</time></trkpt><trkpt lat="33.8784574" lon="133.3574718"><ele>1588.6566666666668</ele><time>2022-10-08T00:36:31Z</time></trkpt><trkpt lat="33.8783649" lon="133.3576657"><ele>1592.9233333333334</ele><time>2022-10-08T00:37:53Z</time></trkpt><trkpt lat="33.8783326" lon="133.357887"><ele>1598.07</ele><time>2022-10-08T00:38:26Z</time></trkpt><trkpt lat="33.8782897" lon="133.3581037"><ele>1600.0133333333333</ele><time>2022-10-08T00:38:53Z</time></trkpt><trkpt lat="33.8781782" lon="133.358289"><ele>1600.5733333333335</ele><time>2022-10-08T00:40:49Z</time></trkpt><trkpt lat="33.8782159" lon="133.3585324"><ele>1602.0833333333333</ele><time>2022-10-08T00:41:49Z</time></trkpt><trkpt lat="33.878165" lon="133.358754"><ele>1604.0966666666666</ele><time>2022-10-08T00:45:14Z</time></trkpt><trkpt lat="33.8781963" lon="133.3589671"><ele>1614.1666666666667</ele><time>2022-10-08T00:46:43Z</time></trkpt><trkpt lat="33.8780222" lon="133.3591062"><ele>1620.9400000000003</ele><time>2022-10-08T00:46:53Z</time></trkpt><trkpt lat="33.8779123" lon="133.3592917"><ele>1629.7033333333336</ele><time>2022-10-08T00:47:26Z</time></trkpt><trkpt lat="33.8778261" lon="133.3594948"><ele>1628.966666666667</ele><time>2022-10-08T00:47:56Z</time></trkpt><trkpt lat="33.8777802" lon="133.359706"><ele>1628.9166666666667</ele><time>2022-10-08T00:48:34Z</time></trkpt><trkpt lat="33.8777079" lon="133.3599666"><ele>1623.8633333333335</ele><time>2022-10-08T00:49:14Z</time></trkpt><trkpt lat="33.8776645" lon="133.3601789"><ele>1619.8266666666666</ele><time>2022-10-08T00:49:15Z</time></trkpt><trkpt lat="33.8776962" lon="133.3604002"><ele>1618.4133333333332</ele><time>2022-10-08T00:49:40Z</time></trkpt><trkpt lat="33.8775507" lon="133.3605639"><ele>1618.2133333333334</ele><time>2022-10-08T00:50:34Z</time></trkpt><trkpt lat="33.8774547" lon="133.3607686"><ele>1617.5633333333335</ele><time>2022-10-08T00:50:52Z</time></trkpt><trkpt lat="33.8773755" lon="133.3609696"><ele>1613.7466666666667</ele><time>2022-10-08T00:51:10Z</time></trkpt><trkpt lat="33.8773018" lon="133.361167"><ele>1609.96</ele><time>2022-10-08T00:51:48Z</time></trkpt><trkpt lat="33.8771759" lon="133.3613239"><ele>1609.8466666666666</ele><time>2022-10-08T00:52:37Z</time></trkpt><trkpt lat="33.8770968" lon="133.3615362"><ele>1612.55</ele><time>2022-10-08T00:52:49Z</time></trkpt><trkpt lat="33.8769478" lon="133.361792"><ele>1620.426666666667</ele><time>2022-10-08T00:53:40Z</time></trkpt><trkpt lat="33.8767818" lon="133.3619413"><ele>1628.1499999999999</ele><time>2022-10-08T00:56:02Z</time></trkpt><trkpt lat="33.8766452" lon="133.3620851"><ele>1634.3166666666668</ele><time>2022-10-08T00:56:17Z</time></trkpt><trkpt lat="33.8764619" lon="133.3620821"><ele>1636.5866666666668</ele><time>2022-10-08T00:56:57Z</time></trkpt><trkpt lat="33.876325" lon="133.3622387"><ele>1641.7433333333336</ele><time>2022-10-08T00:57:30Z</time></trkpt><trkpt lat="33.8762575" lon="133.3624836"><ele>1647.9966666666667</ele><time>2022-10-08T00:58:27Z</time></trkpt><trkpt lat="33.8762013" lon="133.3626992"><ele>1651.7766666666666</ele><time>2022-10-08T01:00:38Z</time></trkpt><trkpt lat="33.8761854" lon="133.3629699"><ele>1647.6233333333332</ele><time>2022-10-08T01:01:38Z</time></trkpt><trkpt lat="33.8762265" lon="133.3631808"><ele>1639.9466666666667</ele><time>2022-10-08T01:02:14Z</time></trkpt><trkpt lat="33.8762402" lon="133.363415"><ele>1632.3466666666666</ele><time>2022-10-08T01:02:50Z</time></trkpt><trkpt lat="33.8761883" lon="133.3636259"><ele>1627.29</ele><time>2022-10-08T01:03:18Z</time></trkpt><trkpt lat="33.876168" lon="133.3638442"><ele>1621.4866666666667</ele><time>2022-10-08T01:04:09Z</time></trkpt><trkpt lat="33.8761408" lon="133.3640632"><ele>1616.95</ele><time>2022-10-08T01:04:39Z</time></trkpt><trkpt lat="33.8760992" lon="133.3643227"><ele>1611.1433333333334</ele><time>2022-10-08T01:05:21Z</time></trkpt><trkpt lat="33.8760072" lon="133.3645149"><ele>1605.5533333333333</ele><time>2022-10-08T01:05:42Z</time></trkpt><trkpt lat="33.8759341" lon="133.3647195"><ele>1600.0933333333332</ele><time>2022-10-08T01:06:39Z</time></trkpt><trkpt lat="33.8758287" lon="133.3649079"><ele>1594.3966666666665</ele><time>2022-10-08T01:07:45Z</time></trkpt><trkpt lat="33.8757447" lon="133.3651093"><ele>1588.89</ele><time>2022-10-08T01:08:24Z</time></trkpt><trkpt lat="33.8756811" lon="133.3653196"><ele>1583.4566666666667</ele><time>2022-10-08T01:08:48Z</time></trkpt><trkpt lat="33.8755502" lon="133.3654957"><ele>1579.45</ele><time>2022-10-08T01:09:12Z</time></trkpt><trkpt lat="33.875535" lon="133.3657199"><ele>1576.03</ele><time>2022-10-08T01:10:09Z</time></trkpt><trkpt lat="33.8754598" lon="133.3659476"><ele>1572.1900000000003</ele><time>2022-10-08T01:10:24Z</time></trkpt><trkpt lat="33.8754587" lon="133.366165"><ele>1569.5566666666666</ele><time>2022-10-08T01:11:09Z</time></trkpt><trkpt lat="33.8753406" lon="133.3663472"><ele>1567.7466666666667</ele><time>2022-10-08T01:11:24Z</time></trkpt><trkpt lat="33.8752224" lon="133.3665142"><ele>1565.2033333333336</ele><time>2022-10-08T01:11:39Z</time></trkpt><trkpt lat="33.8751293" lon="133.3667247"><ele>1561.7066666666667</ele><time>2022-10-08T01:12:36Z</time></trkpt><trkpt lat="33.8750832" lon="133.3669495"><ele>1558.1133333333335</ele><time>2022-10-08T01:12:51Z</time></trkpt><trkpt lat="33.875026" lon="133.3671692"><ele>1554.63</ele><time>2022-10-08T01:13:36Z</time></trkpt><trkpt lat="33.875019" lon="133.3673913"><ele>1551.2666666666667</ele><time>2022-10-08T01:15:14Z</time></trkpt><trkpt lat="33.8749478" lon="133.3675966"><ele>1549.13</ele><time>2022-10-08T01:17:44Z</time></trkpt><trkpt lat="33.8747652" lon="133.3675979"><ele>1547.6333333333332</ele><time>2022-10-08T01:19:03Z</time></trkpt><trkpt lat="33.8746343" lon="133.3677712"><ele>1546.3633333333335</ele><time>2022-10-08T01:20:08Z</time></trkpt><trkpt lat="33.874532" lon="133.3679524"><ele>1544.1866666666665</ele><time>2022-10-08T01:20:26Z</time></trkpt><trkpt lat="33.8744532" lon="133.3681503"><ele>1543.323333333333</ele><time>2022-10-08T01:20:50Z</time></trkpt><trkpt lat="33.8743231" lon="133.3683079"><ele>1542.243333333333</ele><time>2022-10-08T01:21:05Z</time></trkpt><trkpt lat="33.8742391" lon="133.3685007"><ele>1541.5333333333335</ele><time>2022-10-08T01:21:29Z</time></trkpt><trkpt lat="33.8741667" lon="133.3687117"><ele>1541.4133333333332</ele><time>2022-10-08T01:21:53Z</time></trkpt><trkpt lat="33.8741546" lon="133.3689307"><ele>1543.0566666666666</ele><time>2022-10-08T01:22:23Z</time></trkpt><trkpt lat="33.8741428" lon="133.3691814"><ele>1546.1200000000001</ele><time>2022-10-08T01:23:11Z</time></trkpt><trkpt lat="33.8741027" lon="133.3694139"><ele>1549.493333333333</ele><time>2022-10-08T01:23:29Z</time></trkpt><trkpt lat="33.8740433" lon="133.3696266"><ele>1551.5866666666668</ele><time>2022-10-08T01:23:53Z</time></trkpt><trkpt lat="33.8738925" lon="133.3697493"><ele>1551.1166666666668</ele><time>2022-10-08T01:24:11Z</time></trkpt><trkpt lat="33.8739243" lon="133.3699999"><ele>1551.4633333333334</ele><time>2022-10-08T01:24:50Z</time></trkpt><trkpt lat="33.8739616" lon="133.3702279"><ele>1552.8133333333335</ele><time>2022-10-08T01:25:44Z</time></trkpt><trkpt lat="33.8739866" lon="133.3704564"><ele>1558.38</ele><time>2022-10-08T01:26:06Z</time></trkpt><trkpt lat="33.8740268" lon="133.3706851"><ele>1563.72</ele><time>2022-10-08T01:27:32Z</time></trkpt><trkpt lat="33.8740514" lon="133.3709028"><ele>1571.0833333333333</ele><time>2022-10-08T01:27:51Z</time></trkpt><trkpt lat="33.874083" lon="133.3711469"><ele>1575.993333333333</ele><time>2022-10-08T01:29:08Z</time></trkpt><trkpt lat="33.8740353" lon="133.3713602"><ele>1577.4333333333334</ele><time>2022-10-08T01:29:20Z</time></trkpt><trkpt lat="33.8739904" lon="133.3715947"><ele>1576.1899999999998</ele><time>2022-10-08T01:29:38Z</time></trkpt><trkpt lat="33.8740102" lon="133.3718123"><ele>1575.82</ele><time>2022-10-08T01:30:14Z</time></trkpt><trkpt lat="33.8739759" lon="133.3720817"><ele>1578.32</ele><time>2022-10-08T01:31:30Z</time></trkpt><trkpt lat="33.8738721" lon="133.3723323"><ele>1580.67</ele><time>2022-10-08T01:31:47Z</time></trkpt><trkpt lat="33.8740674" lon="133.3723444"><ele>1586.9833333333336</ele><time>2022-10-08T01:34:25Z</time></trkpt><trkpt lat="33.874284" lon="133.3722819"><ele>1595.9966666666667</ele><time>2022-10-08T01:35:37Z</time></trkpt><trkpt lat="33.8744617" lon="133.3722091"><ele>1607.17</ele><time>2022-10-08T01:36:31Z</time></trkpt><trkpt lat="33.8746332" lon="133.3721225"><ele>1616.9833333333333</ele><time>2022-10-08T01:37:28Z</time></trkpt><trkpt lat="33.874801" lon="133.3722262"><ele>1627.8333333333333</ele><time>2022-10-08T01:38:11Z</time></trkpt><trkpt lat="33.8749716" lon="133.3723058"><ele>1639.8866666666665</ele><time>2022-10-08T01:39:10Z</time></trkpt><trkpt lat="33.8751306" lon="133.3724556"><ele>1652.97</ele><time>2022-10-08T01:40:43Z</time></trkpt><trkpt lat="33.8751899" lon="133.3726727"><ele>1663.9566666666667</ele><time>2022-10-08T01:41:13Z</time></trkpt><trkpt lat="33.8750793" lon="133.3728597"><ele>1672.3366666666668</ele><time>2022-10-08T01:42:01Z</time></trkpt><trkpt lat="33.8751129" lon="133.3730746"><ele>1677.11</ele><time>2022-10-08T01:42:37Z</time></trkpt><trkpt lat="33.8752036" lon="133.3732694"><ele>1682.9733333333334</ele><time>2022-10-08T01:44:13Z</time></trkpt><trkpt lat="33.8752798" lon="133.373473"><ele>1689.14</ele><time>2022-10-08T01:44:31Z</time></trkpt><trkpt lat="33.8752699" lon="133.3736889"><ele>1695.1900000000003</ele><time>2022-10-08T01:46:46Z</time></trkpt><trkpt lat="33.8752214" lon="133.3739005"><ele>1697.8366666666668</ele><time>2022-10-08T01:47:16Z</time></trkpt><trkpt lat="33.8752971" lon="133.3737015"><ele>1699.1266666666668</ele><time>2022-10-08T01:56:30Z</time></trkpt><trkpt lat="33.8752542" lon="133.3734885"><ele>1697.5033333333333</ele><time>2022-10-08T01:57:30Z</time></trkpt><trkpt lat="33.8752093" lon="133.3732713"><ele>1694.8566666666666</ele><time>2022-10-08T01:58:54Z</time></trkpt><trkpt lat="33.8751431" lon="133.3729387"><ele>1688.8166666666668</ele><time>2022-10-08T02:02:03Z</time></trkpt><trkpt lat="33.8751576" lon="133.3726821"><ele>1682.256666666667</ele><time>2022-10-08T02:02:10Z</time></trkpt><trkpt lat="33.875123" lon="133.3724683"><ele>1673.7533333333333</ele><time>2022-10-08T02:02:54Z</time></trkpt><trkpt lat="33.8751514" lon="133.3722497"><ele>1667.0833333333333</ele><time>2022-10-08T02:04:24Z</time></trkpt><trkpt lat="33.8752689" lon="133.3720468"><ele>1661.7766666666666</ele><time>2022-10-08T02:04:54Z</time></trkpt><trkpt lat="33.8752606" lon="133.3718193"><ele>1658.8999999999999</ele><time>2022-10-08T02:05:18Z</time></trkpt><trkpt lat="33.8752818" lon="133.371589"><ele>1661.5833333333333</ele><time>2022-10-08T02:07:57Z</time></trkpt><trkpt lat="33.8753953" lon="133.3714012"><ele>1664.1233333333332</ele><time>2022-10-08T02:09:36Z</time></trkpt><trkpt lat="33.8755458" lon="133.3712744"><ele>1667.9433333333334</ele><time>2022-10-08T02:11:21Z</time></trkpt><trkpt lat="33.8756528" lon="133.371087"><ele>1669.21</ele><time>2022-10-08T02:12:39Z</time></trkpt><trkpt lat="33.8757387" lon="133.3708873"><ele>1671.8766666666668</ele><time>2022-10-08T02:14:57Z</time></trkpt><trkpt lat="33.8758072" lon="133.3706141"><ele>1673.5900000000001</ele><time>2022-10-08T02:15:13Z</time></trkpt><trkpt lat="33.8758535" lon="133.3703982"><ele>1674.6366666666665</ele><time>2022-10-08T02:16:06Z</time></trkpt><trkpt lat="33.8759087" lon="133.3701914"><ele>1675.4333333333334</ele><time>2022-10-08T02:17:33Z</time></trkpt><trkpt lat="33.8758915" lon="133.3699716"><ele>1675.96</ele><time>2022-10-08T02:18:30Z</time></trkpt><trkpt lat="33.8759807" lon="133.3697459"><ele>1676.96</ele><time>2022-10-08T02:21:17Z</time></trkpt><trkpt lat="33.8761309" lon="133.3696251"><ele>1679.2699999999998</ele><time>2022-10-08T02:36:06Z</time></trkpt><trkpt lat="33.8762733" lon="133.369492"><ele>1679.4233333333334</ele><time>2022-10-08T02:39:45Z</time></trkpt><trkpt lat="33.8763061" lon="133.3692782"><ele>1675.9966666666667</ele><time>2022-10-08T02:40:13Z</time></trkpt><trkpt lat="33.8762974" lon="133.3690074"><ele>1668.7733333333335</ele><time>2022-10-08T02:46:05Z</time></trkpt><trkpt lat="33.8762841" lon="133.3687741"><ele>1661.7700000000002</ele><time>2022-10-08T02:47:26Z</time></trkpt><trkpt lat="33.8761088" lon="133.3686805"><ele>1652.8033333333333</ele><time>2022-10-08T02:50:20Z</time></trkpt><trkpt lat="33.8759319" lon="133.3685813"><ele>1643.3633333333335</ele><time>2022-10-08T02:50:35Z</time></trkpt><trkpt lat="33.8757512" lon="133.3685283"><ele>1630.5500000000002</ele><time>2022-10-08T02:52:17Z</time></trkpt><trkpt lat="33.8755508" lon="133.3685024"><ele>1619.4966666666667</ele><time>2022-10-08T02:53:50Z</time></trkpt><trkpt lat="33.8753637" lon="133.36853"><ele>1607.75</ele><time>2022-10-08T02:55:36Z</time></trkpt><trkpt lat="33.875274" lon="133.3683393"><ele>1597.4033333333334</ele><time>2022-10-08T02:56:09Z</time></trkpt><trkpt lat="33.8751285" lon="133.3682107"><ele>1586.0466666666669</ele><time>2022-10-08T02:59:15Z</time></trkpt><trkpt lat="33.8750645" lon="133.3679718"><ele>1574.6433333333334</ele><time>2022-10-08T02:59:36Z</time></trkpt><trkpt lat="33.8749769" lon="133.3677782"><ele>1564.8233333333335</ele><time>2022-10-08T03:00:45Z</time></trkpt><trkpt lat="33.8748028" lon="133.3677121"><ele>1555.63</ele><time>2022-10-08T03:01:42Z</time></trkpt><trkpt lat="33.8746243" lon="133.3677744"><ele>1549.0800000000002</ele><time>2022-10-08T03:03:12Z</time></trkpt><trkpt lat="33.8744345" lon="133.3677734"><ele>1542.99</ele><time>2022-10-08T03:03:36Z</time></trkpt><trkpt lat="33.8742626" lon="133.3678529"><ele>1537.5666666666668</ele><time>2022-10-08T03:04:06Z</time></trkpt><trkpt lat="33.8741008" lon="133.3677009"><ele>1530.4300000000003</ele><time>2022-10-08T03:04:43Z</time></trkpt><trkpt lat="33.8739455" lon="133.3678247"><ele>1524.1566666666668</ele><time>2022-10-08T03:05:13Z</time></trkpt><trkpt lat="33.8737534" lon="133.3678168"><ele>1518.5966666666666</ele><time>2022-10-08T03:05:54Z</time></trkpt><trkpt lat="33.8735606" lon="133.3678066"><ele>1514.3133333333335</ele><time>2022-10-08T03:06:12Z</time></trkpt><trkpt lat="33.8733835" lon="133.3679028"><ele>1509.2933333333333</ele><time>2022-10-08T03:06:33Z</time></trkpt><trkpt lat="33.8731998" lon="133.3678454"><ele>1504.45</ele><time>2022-10-08T03:07:06Z</time></trkpt><trkpt lat="33.8729701" lon="133.3678065"><ele>1498.2666666666667</ele><time>2022-10-08T03:08:00Z</time></trkpt><trkpt lat="33.8727919" lon="133.3678496"><ele>1492.6633333333336</ele><time>2022-10-08T03:08:24Z</time></trkpt><trkpt lat="33.8726041" lon="133.3678968"><ele>1486.0533333333333</ele><time>2022-10-08T03:08:48Z</time></trkpt><trkpt lat="33.8724048" lon="133.3679045"><ele>1479.7466666666667</ele><time>2022-10-08T03:09:24Z</time></trkpt><trkpt lat="33.8723378" lon="133.3681239"><ele>1474.7133333333334</ele><time>2022-10-08T03:09:57Z</time></trkpt><trkpt lat="33.8721539" lon="133.3681314"><ele>1470.8066666666666</ele><time>2022-10-08T03:10:21Z</time></trkpt><trkpt lat="33.8719782" lon="133.3682177"><ele>1466.1333333333334</ele><time>2022-10-08T03:10:48Z</time></trkpt><trkpt lat="33.87182" lon="133.368339"><ele>1460.0833333333333</ele><time>2022-10-08T03:11:28Z</time></trkpt><trkpt lat="33.8716907" lon="133.3685031"><ele>1454.1166666666668</ele><time>2022-10-08T03:11:54Z</time></trkpt><trkpt lat="33.8714978" lon="133.3685171"><ele>1449.22</ele><time>2022-10-08T03:12:12Z</time></trkpt><trkpt lat="33.871344" lon="133.3686807"><ele>1443.1733333333334</ele><time>2022-10-08T03:12:39Z</time></trkpt><trkpt lat="33.8712874" lon="133.3688881"><ele>1437.0066666666664</ele><time>2022-10-08T03:13:03Z</time></trkpt><trkpt lat="33.8711146" lon="133.3689761"><ele>1427.6233333333332</ele><time>2022-10-08T03:15:16Z</time></trkpt><trkpt lat="33.8710806" lon="133.3691997"><ele>1420.2699999999998</ele><time>2022-10-08T03:15:37Z</time></trkpt><trkpt lat="33.8709713" lon="133.3693825"><ele>1411.2733333333333</ele><time>2022-10-08T03:16:00Z</time></trkpt><trkpt lat="33.8707979" lon="133.3694508"><ele>1403.5600000000002</ele><time>2022-10-08T03:16:52Z</time></trkpt><trkpt lat="33.8707322" lon="133.3696552"><ele>1392.5266666666666</ele><time>2022-10-08T03:17:13Z</time></trkpt><trkpt lat="33.8706724" lon="133.3698737"><ele>1382.2933333333333</ele><time>2022-10-08T03:17:54Z</time></trkpt><trkpt lat="33.8706177" lon="133.3700818"><ele>1373.0600000000002</ele><time>2022-10-08T03:18:42Z</time></trkpt><trkpt lat="33.87049" lon="133.370238"><ele>1366.2633333333333</ele><time>2022-10-08T03:18:58Z</time></trkpt><trkpt lat="33.870319" lon="133.3703658"><ele>1359.3966666666665</ele><time>2022-10-08T03:19:21Z</time></trkpt><trkpt lat="33.8701456" lon="133.3704749"><ele>1353.99</ele><time>2022-10-08T03:19:36Z</time></trkpt><trkpt lat="33.8699901" lon="133.3705884"><ele>1348.8866666666665</ele><time>2022-10-08T03:20:09Z</time></trkpt><trkpt lat="33.8698866" lon="133.3707916"><ele>1345.3500000000001</ele><time>2022-10-08T03:20:37Z</time></trkpt><trkpt lat="33.8697155" lon="133.3709263"><ele>1340.7133333333334</ele><time>2022-10-08T03:20:55Z</time></trkpt><trkpt lat="33.8695238" lon="133.3710287"><ele>1336.23</ele><time>2022-10-08T03:23:05Z</time></trkpt><trkpt lat="33.8694535" lon="133.3712413"><ele>1331.8166666666668</ele><time>2022-10-08T03:23:51Z</time></trkpt><trkpt lat="33.8694534" lon="133.3714934"><ele>1329.0433333333333</ele><time>2022-10-08T03:24:03Z</time></trkpt><trkpt lat="33.8693422" lon="133.3717157"><ele>1326.51</ele><time>2022-10-08T03:24:30Z</time></trkpt><trkpt lat="33.8692664" lon="133.3719593"><ele>1324.0600000000002</ele><time>2022-10-08T03:24:45Z</time></trkpt><trkpt lat="33.8691079" lon="133.372107"><ele>1321.5033333333333</ele><time>2022-10-08T03:25:00Z</time></trkpt><trkpt lat="33.8691599" lon="133.3723167"><ele>1316.4666666666667</ele><time>2022-10-08T03:25:21Z</time></trkpt><trkpt lat="33.868969" lon="133.3724983"><ele>1311.1200000000001</ele><time>2022-10-08T03:26:03Z</time></trkpt><trkpt lat="33.8687891" lon="133.3725395"><ele>1306.7533333333333</ele><time>2022-10-08T03:26:21Z</time></trkpt><trkpt lat="33.868637" lon="133.3726584"><ele>1304.5133333333333</ele><time>2022-10-08T03:26:44Z</time></trkpt><trkpt lat="33.8684662" lon="133.3727848"><ele>1301.9066666666668</ele><time>2022-10-08T03:27:14Z</time></trkpt><trkpt lat="33.8683221" lon="133.3729626"><ele>1297.6366666666665</ele><time>2022-10-08T03:28:36Z</time></trkpt><trkpt lat="33.8681413" lon="133.3730171"><ele>1293.7933333333333</ele><time>2022-10-08T03:29:53Z</time></trkpt><trkpt lat="33.8679761" lon="133.3732009"><ele>1291.0</ele><time>2022-10-08T03:30:00Z</time></trkpt><trkpt lat="33.867793" lon="133.3731128"><ele>1285.8966666666665</ele><time>2022-10-08T03:30:15Z</time></trkpt><trkpt lat="33.867618" lon="133.3730597"><ele>1279.8866666666665</ele><time>2022-10-08T03:30:54Z</time></trkpt><trkpt lat="33.8674292" lon="133.37301"><ele>1273.8700000000001</ele><time>2022-10-08T03:31:09Z</time></trkpt><trkpt lat="33.8672693" lon="133.37288"><ele>1273.7266666666667</ele><time>2022-10-08T03:31:59Z</time></trkpt><trkpt lat="33.8670909" lon="133.3727438"><ele>1275.4166666666667</ele><time>2022-10-08T03:32:14Z</time></trkpt><trkpt lat="33.8669145" lon="133.372805"><ele>1275.8366666666668</ele><time>2022-10-08T03:32:24Z</time></trkpt><trkpt lat="33.8667344" lon="133.3728159"><ele>1273.0</ele><time>2022-10-08T03:33:20Z</time></trkpt><trkpt lat="33.8667326" lon="133.3725532"><ele>1272.0933333333332</ele><time>2022-10-08T03:33:44Z</time></trkpt><trkpt lat="33.8666474" lon="133.3723527"><ele>1273.1533333333334</ele><time>2022-10-08T03:33:56Z</time></trkpt><trkpt lat="33.8664348" lon="133.372419"><ele>1274.7333333333333</ele><time>2022-10-08T03:35:06Z</time></trkpt><trkpt lat="33.8663072" lon="133.3725731"><ele>1273.0566666666666</ele><time>2022-10-08T03:35:18Z</time></trkpt><trkpt lat="33.8661744" lon="133.3727514"><ele>1270.4433333333334</ele><time>2022-10-08T03:35:27Z</time></trkpt><trkpt lat="33.8660772" lon="133.3729468"><ele>1267.6133333333335</ele><time>2022-10-08T03:36:00Z</time></trkpt><trkpt lat="33.866003" lon="133.3731783"><ele>1262.8766666666668</ele><time>2022-10-08T03:36:21Z</time></trkpt><trkpt lat="33.8658895" lon="133.3733748"><ele>1257.5666666666668</ele><time>2022-10-08T03:36:39Z</time></trkpt><trkpt lat="33.8657889" lon="133.3735576"><ele>1250.5466666666669</ele><time>2022-10-08T03:36:56Z</time></trkpt><trkpt lat="33.8656222" lon="133.373662"><ele>1246.1433333333334</ele><time>2022-10-08T03:37:14Z</time></trkpt><trkpt lat="33.8654945" lon="133.373492"><ele>1244.74</ele><time>2022-10-08T03:37:42Z</time></trkpt><trkpt lat="33.8653423" lon="133.3736325"><ele>1243.0866666666668</ele><time>2022-10-08T03:38:39Z</time></trkpt><trkpt lat="33.8651559" lon="133.3736397"><ele>1241.6933333333334</ele><time>2022-10-08T03:39:09Z</time></trkpt><trkpt lat="33.864941" lon="133.3736835"><ele>1236.6133333333335</ele><time>2022-10-08T03:41:20Z</time></trkpt><trkpt lat="33.8647813" lon="133.3737988"><ele>1234.0233333333335</ele><time>2022-10-08T03:41:45Z</time></trkpt><trkpt lat="33.8646908" lon="133.3740579"><ele>1229.0733333333335</ele><time>2022-10-08T03:43:03Z</time></trkpt><trkpt lat="33.8646323" lon="133.3744077"><ele>1224.03</ele><time>2022-10-08T03:43:09Z</time></trkpt><trkpt lat="33.8644559" lon="133.3744897"><ele>1218.89</ele><time>2022-10-08T03:46:26Z</time></trkpt><trkpt lat="33.8642676" lon="133.3745598"><ele>1217.2366666666667</ele><time>2022-10-08T03:48:12Z</time></trkpt><trkpt lat="33.8641036" lon="133.3746534"><ele>1220.7133333333334</ele><time>2022-10-08T03:48:44Z</time></trkpt><trkpt lat="33.8638558" lon="133.3744276"><ele>1220.9033333333334</ele><time>2022-10-08T03:48:56Z</time></trkpt><trkpt lat="33.8636772" lon="133.3743613"><ele>1217.8866666666665</ele><time>2022-10-08T03:49:10Z</time></trkpt><trkpt lat="33.8634898" lon="133.3743413"><ele>1209.3966666666668</ele><time>2022-10-08T03:49:32Z</time></trkpt><trkpt lat="33.8634077" lon="133.3745533"><ele>1204.89</ele><time>2022-10-08T03:49:49Z</time></trkpt><trkpt lat="33.8633556" lon="133.3747612"><ele>1200.9633333333331</ele><time>2022-10-08T03:50:22Z</time></trkpt><trkpt lat="33.8633126" lon="133.3750205"><ele>1200.3433333333335</ele><time>2022-10-08T03:50:44Z</time></trkpt><trkpt lat="33.8633851" lon="133.3752201"><ele>1202.8433333333335</ele><time>2022-10-08T03:51:29Z</time></trkpt><trkpt lat="33.8633705" lon="133.3754676"><ele>1206.83</ele><time>2022-10-08T03:52:05Z</time></trkpt><trkpt lat="33.8633804" lon="133.3757066"><ele>1209.29</ele><time>2022-10-08T03:52:23Z</time></trkpt><trkpt lat="33.8632359" lon="133.3758486"><ele>1202.6266666666668</ele><time>2022-10-08T03:54:12Z</time></trkpt><trkpt lat="33.8631195" lon="133.3760286"><ele>1191.2133333333334</ele><time>2022-10-08T03:54:31Z</time></trkpt><trkpt lat="33.86306" lon="133.376245"><ele>1178.1733333333332</ele><time>2022-10-08T03:55:48Z</time></trkpt><trkpt lat="33.8629356" lon="133.3764029"><ele>1168.5833333333333</ele><time>2022-10-08T03:56:50Z</time></trkpt><trkpt lat="33.8627937" lon="133.3765437"><ele>1159.82</ele><time>2022-10-08T03:57:29Z</time></trkpt><trkpt lat="33.8627475" lon="133.3767672"><ele>1151.15</ele><time>2022-10-08T03:57:51Z</time></trkpt><trkpt lat="33.8627203" lon="133.3770038"><ele>1144.3233333333335</ele><time>2022-10-08T03:58:57Z</time></trkpt><trkpt lat="33.8625825" lon="133.3772516"><ele>1135.5433333333333</ele><time>2022-10-08T03:59:03Z</time></trkpt><trkpt lat="33.8624477" lon="133.3774256"><ele>1126.0033333333333</ele><time>2022-10-08T03:59:32Z</time></trkpt><trkpt lat="33.8622937" lon="133.3775558"><ele>1114.2533333333333</ele><time>2022-10-08T03:59:50Z</time></trkpt><trkpt lat="33.86225" lon="133.3773267"><ele>1105.06</ele><time>2022-10-08T04:00:14Z</time></trkpt><trkpt lat="33.8621183" lon="133.3774803"><ele>1094.28</ele><time>2022-10-08T04:00:47Z</time></trkpt><trkpt lat="33.8619484" lon="133.3775995"><ele>1081.8833333333334</ele><time>2022-10-08T04:01:41Z</time></trkpt><trkpt lat="33.8617805" lon="133.3776937"><ele>1067.29</ele><time>2022-10-08T04:02:39Z</time></trkpt><trkpt lat="33.8616458" lon="133.3778488"><ele>1055.5666666666668</ele><time>2022-10-08T04:04:05Z</time></trkpt><trkpt lat="33.8615403" lon="133.37803"><ele>1048.54</ele><time>2022-10-08T04:04:11Z</time></trkpt><trkpt lat="33.8613969" lon="133.3782089"><ele>1047.4766666666667</ele><time>2022-10-08T04:04:18Z</time></trkpt><trkpt lat="33.8612565" lon="133.3780456"><ele>1043.2766666666666</ele><time>2022-10-08T04:05:11Z</time></trkpt><trkpt lat="33.8610648" lon="133.3780517"><ele>1034.9266666666667</ele><time>2022-10-08T04:05:47Z</time></trkpt><trkpt lat="33.8609233" lon="133.3782036"><ele>1025.7866666666666</ele><time>2022-10-08T04:06:11Z</time></trkpt><trkpt lat="33.8608433" lon="133.3783987"><ele>1021.6333333333333</ele><time>2022-10-08T04:06:44Z</time></trkpt><trkpt lat="33.8607401" lon="133.3785946"><ele>1021.85</ele><time>2022-10-08T04:07:03Z</time></trkpt><trkpt lat="33.8605802" lon="133.3787078"><ele>1018.7666666666668</ele><time>2022-10-08T04:07:20Z</time></trkpt><trkpt lat="33.8604869" lon="133.3789121"><ele>1014.4633333333335</ele><time>2022-10-08T04:07:42Z</time></trkpt><trkpt lat="33.8604225" lon="133.3791214"><ele>1008.4433333333335</ele><time>2022-10-08T04:09:25Z</time></trkpt><trkpt lat="33.8604179" lon="133.379339"><ele>1005.8933333333334</ele><time>2022-10-08T04:10:13Z</time></trkpt><trkpt lat="33.8603046" lon="133.3795343"><ele>1001.6133333333333</ele><time>2022-10-08T04:10:26Z</time></trkpt><trkpt lat="33.8602352" lon="133.3797499"><ele>996.0966666666667</ele><time>2022-10-08T04:11:20Z</time></trkpt><trkpt lat="33.8602622" lon="133.3799664"><ele>990.1533333333333</ele><time>2022-10-08T04:11:40Z</time></trkpt><trkpt lat="33.8602359" lon="133.3801834"><ele>986.7433333333333</ele><time>2022-10-08T04:12:07Z</time></trkpt><trkpt lat="33.8600676" lon="133.3802801"><ele>979.8066666666667</ele><time>2022-10-08T04:13:11Z</time></trkpt><trkpt lat="33.859919" lon="133.3804069"><ele>971.3733333333333</ele><time>2022-10-08T04:13:59Z</time></trkpt><trkpt lat="33.8597952" lon="133.3805935"><ele>960.73</ele><time>2022-10-08T04:15:13Z</time></trkpt><trkpt lat="33.8597636" lon="133.3808361"><ele>955.8566666666667</ele><time>2022-10-08T04:15:29Z</time></trkpt><trkpt lat="33.8597345" lon="133.3810604"><ele>951.4866666666667</ele><time>2022-10-08T04:16:02Z</time></trkpt><trkpt lat="33.8595598" lon="133.3811286"><ele>941.2966666666667</ele><time>2022-10-08T04:18:59Z</time></trkpt><trkpt lat="33.8594424" lon="133.3813857"><ele>929.5266666666668</ele><time>2022-10-08T04:24:42Z</time></trkpt><trkpt lat="33.8595369" lon="133.3816128"><ele>918.73</ele><time>2022-10-08T04:24:51Z</time></trkpt><trkpt lat="33.859552" lon="133.3818451"><ele>915.0033333333334</ele><time>2022-10-08T04:25:15Z</time></trkpt><trkpt lat="33.8594541" lon="133.3820429"><ele>914.2833333333333</ele><time>2022-10-08T04:25:39Z</time></trkpt><trkpt lat="33.8593208" lon="133.3821965"><ele>917.23</ele><time>2022-10-08T04:26:06Z</time></trkpt><trkpt lat="33.8592232" lon="133.3824062"><ele>922.1633333333333</ele><time>2022-10-08T04:26:33Z</time></trkpt><trkpt lat="33.8590512" lon="133.3825544"><ele>925.0566666666667</ele><time>2022-10-08T04:26:51Z</time></trkpt><trkpt lat="33.858955" lon="133.3827502"><ele>922.6733333333333</ele><time>2022-10-08T04:27:33Z</time></trkpt><trkpt lat="33.8588527" lon="133.3829455"><ele>921.0466666666667</ele><time>2022-10-08T04:27:53Z</time></trkpt><trkpt lat="33.8587572" lon="133.3831316"><ele>917.5833333333334</ele><time>2022-10-08T04:28:11Z</time></trkpt><trkpt lat="33.8585993" lon="133.3832582"><ele>916.0933333333334</ele><time>2022-10-08T04:28:38Z</time></trkpt><trkpt lat="33.8584691" lon="133.3834533"><ele>910.7599999999999</ele><time>2022-10-08T04:29:12Z</time></trkpt><trkpt lat="33.8585014" lon="133.3836668"><ele>903.77</ele><time>2022-10-08T04:29:54Z</time></trkpt><trkpt lat="33.8583614" lon="133.3838345"><ele>896.07</ele><time>2022-10-08T04:31:00Z</time></trkpt><trkpt lat="33.8582816" lon="133.3840285"><ele>889.4233333333333</ele><time>2022-10-08T04:31:14Z</time></trkpt><trkpt lat="33.8581803" lon="133.3842111"><ele>886.13</ele><time>2022-10-08T04:31:32Z</time></trkpt><trkpt lat="33.8580669" lon="133.3844056"><ele>882.2700000000001</ele><time>2022-10-08T04:31:54Z</time></trkpt><trkpt lat="33.8579007" lon="133.3845381"><ele>876.6600000000002</ele><time>2022-10-08T04:32:17Z</time></trkpt><trkpt lat="33.8577144" lon="133.3845665"><ele>870.9233333333333</ele><time>2022-10-08T04:32:41Z</time></trkpt><trkpt lat="33.8575332" lon="133.3845097"><ele>864.11</ele><time>2022-10-08T04:33:18Z</time></trkpt><trkpt lat="33.8573896" lon="133.3843461"><ele>859.0266666666666</ele><time>2022-10-08T04:34:44Z</time></trkpt><trkpt lat="33.8572074" lon="133.3842645"><ele>853.9699999999999</ele><time>2022-10-08T04:34:59Z</time></trkpt><trkpt lat="33.8570554" lon="133.3844291"><ele>842.7866666666667</ele><time>2022-10-08T04:35:17Z</time></trkpt><trkpt lat="33.8568765" lon="133.3844691"><ele>833.8800000000001</ele><time>2022-10-08T04:35:35Z</time></trkpt><trkpt lat="33.8566634" lon="133.3845169"><ele>826.9200000000001</ele><time>2022-10-08T04:36:23Z</time></trkpt><trkpt lat="33.8565086" lon="133.3846308"><ele>831.3100000000001</ele><time>2022-10-08T04:37:20Z</time></trkpt><trkpt lat="33.8564771" lon="133.3848708"><ele>829.6533333333333</ele><time>2022-10-08T04:37:53Z</time></trkpt><trkpt lat="33.8563327" lon="133.3850207"><ele>826.9133333333333</ele><time>2022-10-08T04:38:11Z</time></trkpt><trkpt lat="33.8561534" lon="133.3849703"><ele>827.1233333333333</ele><time>2022-10-08T04:38:29Z</time></trkpt><trkpt lat="33.8560893" lon="133.3852049"><ele>827.5333333333334</ele><time>2022-10-08T04:39:41Z</time></trkpt><trkpt lat="33.8559485" lon="133.3853408"><ele>826.6233333333333</ele><time>2022-10-08T04:40:31Z</time></trkpt><trkpt lat="33.8558411" lon="133.385519"><ele>817.1933333333333</ele><time>2022-10-08T04:41:20Z</time></trkpt><trkpt lat="33.8557373" lon="133.3857211"><ele>807.54</ele><time>2022-10-08T04:41:29Z</time></trkpt><trkpt lat="33.8555223" lon="133.3856833"><ele>801.4333333333334</ele><time>2022-10-08T04:41:44Z</time></trkpt><trkpt lat="33.8553414" lon="133.3857175"><ele>797.0300000000001</ele><time>2022-10-08T04:42:05Z</time></trkpt><trkpt lat="33.855195" lon="133.3858636"><ele>797.2166666666667</ele><time>2022-10-08T04:42:35Z</time></trkpt><trkpt lat="33.8551552" lon="133.3860783"><ele>795.4733333333334</ele><time>2022-10-08T04:44:05Z</time></trkpt><trkpt lat="33.8551749" lon="133.3863011"><ele>793.3233333333334</ele><time>2022-10-08T04:44:19Z</time></trkpt><trkpt lat="33.8551629" lon="133.3865431"><ele>791.08</ele><time>2022-10-08T04:44:37Z</time></trkpt><trkpt lat="33.8550277" lon="133.386754"><ele>787.5533333333333</ele><time>2022-10-08T04:44:52Z</time></trkpt><trkpt lat="33.8549988" lon="133.3870083"><ele>784.6999999999999</ele><time>2022-10-08T04:45:16Z</time></trkpt><trkpt lat="33.8548664" lon="133.3871859"><ele>782.3333333333334</ele><time>2022-10-08T04:45:40Z</time></trkpt><trkpt lat="33.8547647" lon="133.3873809"><ele>780.87</ele><time>2022-10-08T04:45:55Z</time></trkpt><trkpt lat="33.8546953" lon="133.3875808"><ele>780.0633333333334</ele><time>2022-10-08T04:46:25Z</time></trkpt><trkpt lat="33.8545014" lon="133.3876782"><ele>780.0733333333334</ele><time>2022-10-08T04:46:49Z</time></trkpt><trkpt lat="33.8543317" lon="133.3877681"><ele>779.77</ele><time>2022-10-08T04:47:03Z</time></trkpt><trkpt lat="33.8541761" lon="133.3879203"><ele>777.8666666666667</ele><time>2022-10-08T04:47:39Z</time></trkpt><trkpt lat="33.85401" lon="133.3880163"><ele>769.3933333333333</ele><time>2022-10-08T04:47:53Z</time></trkpt><trkpt lat="33.8538209" lon="133.3881061"><ele>760.18</ele><time>2022-10-08T04:48:08Z</time></trkpt><trkpt lat="33.8536216" lon="133.3881679"><ele>754.1</ele><time>2022-10-08T04:48:24Z</time></trkpt><trkpt lat="33.8534188" lon="133.3881548"><ele>754.0233333333334</ele><time>2022-10-08T04:48:52Z</time></trkpt><trkpt lat="33.8532393" lon="133.3882333"><ele>754.9866666666667</ele><time>2022-10-08T04:49:21Z</time></trkpt><trkpt lat="33.8530618" lon="133.3882902"><ele>754.4399999999999</ele><time>2022-10-08T04:49:27Z</time></trkpt><trkpt lat="33.8528188" lon="133.3882199"><ele>753.7800000000001</ele><time>2022-10-08T04:49:43Z</time></trkpt><trkpt lat="33.8526416" lon="133.3881795"><ele>753.9733333333334</ele><time>2022-10-08T04:50:31Z</time></trkpt><trkpt lat="33.8525178" lon="133.3883698"><ele>752.9033333333333</ele><time>2022-10-08T04:50:53Z</time></trkpt><trkpt lat="33.8524344" lon="133.3885769"><ele>750.6466666666666</ele><time>2022-10-08T04:51:01Z</time></trkpt><trkpt lat="33.8522613" lon="133.3884305"><ele>749.29</ele><time>2022-10-08T04:51:15Z</time></trkpt><trkpt lat="33.8521323" lon="133.3882449"><ele>749.23</ele><time>2022-10-08T04:51:27Z</time></trkpt><trkpt lat="33.8521494" lon="133.388015"><ele>751.5200000000001</ele><time>2022-10-08T04:51:40Z</time></trkpt><trkpt lat="33.8520148" lon="133.3877615"><ele>751.04</ele><time>2022-10-08T04:52:16Z</time></trkpt><trkpt lat="33.8518706" lon="133.3876167"><ele>748.2166666666667</ele><time>2022-10-08T04:52:25Z</time></trkpt><trkpt lat="33.8517871" lon="133.3874079"><ele>744.54</ele><time>2022-10-08T04:52:40Z</time></trkpt><trkpt lat="33.8516716" lon="133.3872373"><ele>741.8933333333334</ele><time>2022-10-08T04:53:01Z</time></trkpt><trkpt lat="33.8515113" lon="133.387128"><ele>736.2333333333335</ele><time>2022-10-08T04:53:40Z</time></trkpt><trkpt lat="33.8513338" lon="133.386997"><ele>727.9699999999999</ele><time>2022-10-08T04:53:55Z</time></trkpt><trkpt lat="33.8512279" lon="133.3868005"><ele>720.5300000000001</ele><time>2022-10-08T04:54:10Z</time></trkpt><trkpt lat="33.8512463" lon="133.3865804"><ele>722.9533333333334</ele><time>2022-10-08T04:54:16Z</time></trkpt><trkpt lat="33.8510309" lon="133.3864848"><ele>722.9333333333334</ele><time>2022-10-08T04:54:52Z</time></trkpt><trkpt lat="33.8508843" lon="133.3862891"><ele>719.1066666666666</ele><time>2022-10-08T04:55:01Z</time></trkpt><trkpt lat="33.8507339" lon="133.3861658"><ele>709.77</ele><time>2022-10-08T04:55:58Z</time></trkpt><trkpt lat="33.8505798" lon="133.3860078"><ele>704.9466666666666</ele><time>2022-10-08T04:56:37Z</time></trkpt><trkpt lat="33.8503747" lon="133.3860045"><ele>698.7566666666667</ele><time>2022-10-08T04:57:55Z</time></trkpt><trkpt lat="33.8501817" lon="133.3859981"><ele>690.7033333333334</ele><time>2022-10-08T04:58:07Z</time></trkpt><trkpt lat="33.8500001" lon="133.3860486"><ele>679.2533333333334</ele><time>2022-10-08T04:58:19Z</time></trkpt><trkpt lat="33.8497838" lon="133.3859972"><ele>671.1633333333333</ele><time>2022-10-08T04:58:43Z</time></trkpt><trkpt lat="33.8496595" lon="133.3858371"><ele>665.9900000000001</ele><time>2022-10-08T04:58:55Z</time></trkpt><trkpt lat="33.8494952" lon="133.3856599"><ele>664.0233333333334</ele><time>2022-10-08T04:59:21Z</time></trkpt><trkpt lat="33.849401" lon="133.3854591"><ele>664.3</ele><time>2022-10-08T04:59:34Z</time></trkpt><trkpt lat="33.8492325" lon="133.3853145"><ele>663.86</ele><time>2022-10-08T04:59:52Z</time></trkpt><trkpt lat="33.8490452" lon="133.3852093"><ele>663.2766666666666</ele><time>2022-10-08T05:00:07Z</time></trkpt><trkpt lat="33.8489935" lon="133.3850004"><ele>663.4866666666667</ele><time>2022-10-08T05:04:11Z</time></trkpt><trkpt lat="33.8488141" lon="133.3849082"><ele>664.5033333333333</ele><time>2022-10-08T05:09:05Z</time></trkpt><trkpt lat="33.8486663" lon="133.3847319"><ele>668.2199999999999</ele><time>2022-10-08T05:09:24Z</time></trkpt><trkpt lat="33.8485584" lon="133.3845338"><ele>671.2966666666666</ele><time>2022-10-08T05:09:38Z</time></trkpt><trkpt lat="33.8484738" lon="133.3843271"><ele>674.7566666666667</ele><time>2022-10-08T05:09:51Z</time></trkpt><trkpt lat="33.8485145" lon="133.3840652"><ele>677.0933333333334</ele><time>2022-10-08T05:10:06Z</time></trkpt><trkpt lat="33.8485674" lon="133.3838285"><ele>680.3566666666667</ele><time>2022-10-08T05:10:21Z</time></trkpt><trkpt lat="33.8485636" lon="133.3836089"><ele>683.9900000000001</ele><time>2022-10-08T05:10:45Z</time></trkpt><trkpt lat="33.8485935" lon="133.3833612"><ele>686.1533333333333</ele><time>2022-10-08T05:11:03Z</time></trkpt><trkpt lat="33.8485882" lon="133.3831126"><ele>686.3000000000001</ele><time>2022-10-08T05:11:21Z</time></trkpt><trkpt lat="33.8484917" lon="133.3829242"><ele>685.6966666666667</ele><time>2022-10-08T05:11:35Z</time></trkpt><trkpt lat="33.8483459" lon="133.382723"><ele>686.0033333333334</ele><time>2022-10-08T05:11:54Z</time></trkpt><trkpt lat="33.848251" lon="133.3825241"><ele>687.3000000000001</ele><time>2022-10-08T05:12:09Z</time></trkpt><trkpt lat="33.8481729" lon="133.3823192"><ele>691.1333333333333</ele><time>2022-10-08T05:12:24Z</time></trkpt><trkpt lat="33.8480043" lon="133.3822099"><ele>693.48</ele><time>2022-10-08T05:12:41Z</time></trkpt><trkpt lat="33.8477781" lon="133.3821896"><ele>692.5833333333334</ele><time>2022-10-08T05:12:59Z</time></trkpt><trkpt lat="33.8476014" lon="133.3820575"><ele>689.9566666666668</ele><time>2022-10-08T05:13:18Z</time></trkpt><trkpt lat="33.8475695" lon="133.3818109"><ele>690.3533333333335</ele><time>2022-10-08T05:13:29Z</time></trkpt><trkpt lat="33.8475491" lon="133.3815613"><ele>695.4666666666667</ele><time>2022-10-08T05:13:44Z</time></trkpt><trkpt lat="33.8475418" lon="133.3813108"><ele>702.14</ele><time>2022-10-08T05:14:00Z</time></trkpt><trkpt lat="33.847559" lon="133.3810936"><ele>707.8633333333333</ele><time>2022-10-08T05:14:14Z</time></trkpt><trkpt lat="33.8478838" lon="133.3810005"><ele>720.0666666666666</ele><time>2022-10-08T05:14:27Z</time></trkpt><trkpt lat="33.8476986" lon="133.3808753"><ele>726.8033333333333</ele><time>2022-10-08T05:14:33Z</time></trkpt><trkpt lat="33.8475414" lon="133.3807409"><ele>728.8566666666666</ele><time>2022-10-08T05:14:42Z</time></trkpt><trkpt lat="33.8473551" lon="133.3806505"><ele>717.3133333333334</ele><time>2022-10-08T05:14:51Z</time></trkpt><trkpt lat="33.84718" lon="133.3805341"><ele>705.6433333333333</ele><time>2022-10-08T05:15:05Z</time></trkpt><trkpt lat="33.8470747" lon="133.3803457"><ele>695.8433333333332</ele><time>2022-10-08T05:15:17Z</time></trkpt><trkpt lat="33.8470934" lon="133.3801263"><ele>691.2366666666667</ele><time>2022-10-08T05:15:34Z</time></trkpt><trkpt lat="33.8471227" lon="133.3799017"><ele>692.0100000000001</ele><time>2022-10-08T05:15:49Z</time></trkpt><trkpt lat="33.8470998" lon="133.3796715"><ele>693.8033333333333</ele><time>2022-10-08T05:16:03Z</time></trkpt><trkpt lat="33.8470775" lon="133.3794458"><ele>695.1866666666668</ele><time>2022-10-08T05:16:19Z</time></trkpt><trkpt lat="33.8469997" lon="133.3792262"><ele>694.0766666666667</ele><time>2022-10-08T05:16:33Z</time></trkpt><trkpt lat="33.8469881" lon="133.3789827"><ele>693.8333333333334</ele><time>2022-10-08T05:16:51Z</time></trkpt><trkpt lat="33.8469844" lon="133.3787645"><ele>693.7866666666667</ele><time>2022-10-08T05:17:09Z</time></trkpt><trkpt lat="33.8469168" lon="133.3785637"><ele>694.18</ele><time>2022-10-08T05:17:17Z</time></trkpt><trkpt lat="33.8468218" lon="133.3783726"><ele>693.5433333333334</ele><time>2022-10-08T05:17:28Z</time></trkpt><trkpt lat="33.8467694" lon="133.378163"><ele>692.9900000000001</ele><time>2022-10-08T05:17:40Z</time></trkpt><trkpt lat="33.8467226" lon="133.3779516"><ele>692.88</ele><time>2022-10-08T05:17:53Z</time></trkpt><trkpt lat="33.846701" lon="133.3777296"><ele>694.5766666666667</ele><time>2022-10-08T05:18:10Z</time></trkpt><trkpt lat="33.8465937" lon="133.3775513"><ele>694.7066666666666</ele><time>2022-10-08T05:18:23Z</time></trkpt><trkpt lat="33.8465017" lon="133.3773654"><ele>694.1466666666666</ele><time>2022-10-08T05:18:38Z</time></trkpt><trkpt lat="33.8466132" lon="133.3771763"><ele>693.5966666666667</ele><time>2022-10-08T05:18:49Z</time></trkpt><trkpt lat="33.8467996" lon="133.3771275"><ele>696.2133333333333</ele><time>2022-10-08T05:19:29Z</time></trkpt><trkpt lat="33.8468518" lon="133.376912"><ele>698.0</ele><time>2022-10-08T05:19:50Z</time></trkpt><trkpt lat="33.8469276" lon="133.3766995"><ele>698.41</ele><time>2022-10-08T05:19:59Z</time></trkpt><trkpt lat="33.8469566" lon="133.3764844"><ele>695.5633333333334</ele><time>2022-10-08T05:20:11Z</time></trkpt><trkpt lat="33.8469829" lon="133.3762664"><ele>694.2366666666667</ele><time>2022-10-08T05:20:24Z</time></trkpt><trkpt lat="33.8471348" lon="133.3761458"><ele>694.6566666666668</ele><time>2022-10-08T05:20:34Z</time></trkpt><trkpt lat="33.8473002" lon="133.3760576"><ele>701.8233333333334</ele><time>2022-10-08T05:20:44Z</time></trkpt><trkpt lat="33.8473776" lon="133.3758615"><ele>708.6833333333334</ele><time>2022-10-08T05:20:58Z</time></trkpt><trkpt lat="33.8474428" lon="133.3756439"><ele>714.7400000000001</ele><time>2022-10-08T05:21:12Z</time></trkpt><trkpt lat="33.8474378" lon="133.3754248"><ele>713.9633333333333</ele><time>2022-10-08T05:21:24Z</time></trkpt><trkpt lat="33.8474464" lon="133.3752048"><ele>710.6733333333333</ele><time>2022-10-08T05:21:40Z</time></trkpt><trkpt lat="33.8474931" lon="133.3749932"><ele>708.9433333333333</ele><time>2022-10-08T05:22:20Z</time></trkpt><trkpt lat="33.8475663" lon="133.3747824"><ele>708.37</ele><time>2022-10-08T05:22:35Z</time></trkpt><trkpt lat="33.8476398" lon="133.3745701"><ele>710.5166666666668</ele><time>2022-10-08T05:22:50Z</time></trkpt><trkpt lat="33.8475286" lon="133.3743856"><ele>706.2766666666668</ele><time>2022-10-08T05:23:02Z</time></trkpt><trkpt lat="33.84736" lon="133.3743088"><ele>702.0933333333334</ele><time>2022-10-08T05:23:18Z</time></trkpt><trkpt lat="33.8472564" lon="133.374106"><ele>700.2833333333334</ele><time>2022-10-08T05:23:33Z</time></trkpt><trkpt lat="33.8471652" lon="133.3739146"><ele>703.2800000000001</ele><time>2022-10-08T05:23:45Z</time></trkpt><trkpt lat="33.8470602" lon="133.3737069"><ele>707.0266666666666</ele><time>2022-10-08T05:23:59Z</time></trkpt><trkpt lat="33.8469142" lon="133.3735495"><ele>707.69</ele><time>2022-10-08T05:24:14Z</time></trkpt><trkpt lat="33.8468682" lon="133.3733351"><ele>708.4233333333333</ele><time>2022-10-08T05:24:31Z</time></trkpt><trkpt lat="33.8468045" lon="133.3731249"><ele>709.8299999999999</ele><time>2022-10-08T05:24:44Z</time></trkpt><trkpt lat="33.8468396" lon="133.3729124"><ele>712.5933333333334</ele><time>2022-10-08T05:25:04Z</time></trkpt><trkpt lat="33.8469623" lon="133.3727353"><ele>714.6366666666667</ele><time>2022-10-08T05:25:21Z</time></trkpt><trkpt lat="33.8470542" lon="133.3725493"><ele>716.1033333333334</ele><time>2022-10-08T05:25:34Z</time></trkpt><trkpt lat="33.8471167" lon="133.3723355"><ele>716.68</ele><time>2022-10-08T05:25:47Z</time></trkpt><trkpt lat="33.8471728" lon="133.372111"><ele>716.7166666666667</ele><time>2022-10-08T05:26:01Z</time></trkpt><trkpt lat="33.8471194" lon="133.3718966"><ele>715.62</ele><time>2022-10-08T05:26:12Z</time></trkpt><trkpt lat="33.8471475" lon="133.3716762"><ele>713.9433333333333</ele><time>2022-10-08T05:26:28Z</time></trkpt><trkpt lat="33.8472019" lon="133.3714611"><ele>713.2066666666666</ele><time>2022-10-08T05:26:43Z</time></trkpt><trkpt lat="33.8472364" lon="133.371246"><ele>712.4399999999999</ele><time>2022-10-08T05:26:56Z</time></trkpt><trkpt lat="33.847326" lon="133.3710545"><ele>713.2266666666666</ele><time>2022-10-08T05:27:11Z</time></trkpt><trkpt lat="33.847397" lon="133.3708279"><ele>713.2333333333332</ele><time>2022-10-08T05:27:24Z</time></trkpt><trkpt lat="33.8475395" lon="133.3706895"><ele>714.02</ele><time>2022-10-08T05:27:37Z</time></trkpt><trkpt lat="33.8476889" lon="133.3705638"><ele>712.9699999999999</ele><time>2022-10-08T05:27:51Z</time></trkpt><trkpt lat="33.8478893" lon="133.3705933"><ele>713.9466666666667</ele><time>2022-10-08T05:28:05Z</time></trkpt><trkpt lat="33.848073" lon="133.3705733"><ele>715.5833333333334</ele><time>2022-10-08T05:28:22Z</time></trkpt><trkpt lat="33.848145" lon="133.3703743"><ele>717.2800000000001</ele><time>2022-10-08T05:29:28Z</time></trkpt><trkpt lat="33.8482586" lon="133.3701883"><ele>717.6999999999999</ele><time>2022-10-08T05:30:23Z</time></trkpt><trkpt lat="33.8483978" lon="133.3700485"><ele>717.4733333333334</ele><time>2022-10-08T05:32:19Z</time></trkpt><trkpt lat="33.8485291" lon="133.3698922"><ele>717.4633333333335</ele><time>2022-10-08T05:32:35Z</time></trkpt><trkpt lat="33.8485458" lon="133.3696633"><ele>716.8733333333333</ele><time>2022-10-08T05:32:46Z</time></trkpt><trkpt lat="33.8485763" lon="133.3694482"><ele>715.2266666666666</ele><time>2022-10-08T05:32:57Z</time></trkpt><trkpt lat="33.8486165" lon="133.3692286"><ele>714.6466666666666</ele><time>2022-10-08T05:33:09Z</time></trkpt><trkpt lat="33.8487587" lon="133.3690718"><ele>716.7533333333334</ele><time>2022-10-08T05:33:19Z</time></trkpt><trkpt lat="33.8488434" lon="133.3688722"><ele>721.2733333333334</ele><time>2022-10-08T05:33:29Z</time></trkpt><trkpt lat="33.8489136" lon="133.3686685"><ele>728.4100000000002</ele><time>2022-10-08T05:33:46Z</time></trkpt><trkpt lat="33.8487953" lon="133.3685011"><ele>728.5766666666667</ele><time>2022-10-08T05:33:56Z</time></trkpt><trkpt lat="33.8486686" lon="133.3683399"><ele>725.1466666666666</ele><time>2022-10-08T05:34:08Z</time></trkpt><trkpt lat="33.8486065" lon="133.3681316"><ele>719.3266666666668</ele><time>2022-10-08T05:34:21Z</time></trkpt><trkpt lat="33.848528" lon="133.3679344"><ele>716.8133333333334</ele><time>2022-10-08T05:34:34Z</time></trkpt><trkpt lat="33.8484231" lon="133.3677471"><ele>715.98</ele><time>2022-10-08T05:34:48Z</time></trkpt><trkpt lat="33.8483858" lon="133.3675282"><ele>713.7733333333334</ele><time>2022-10-08T05:35:03Z</time></trkpt><trkpt lat="33.8483255" lon="133.3673235"><ele>712.77</ele><time>2022-10-08T05:35:19Z</time></trkpt><trkpt lat="33.8483044" lon="133.3671061"><ele>711.0499999999998</ele><time>2022-10-08T05:35:32Z</time></trkpt><trkpt lat="33.8483159" lon="133.36689"><ele>709.6433333333333</ele><time>2022-10-08T05:35:45Z</time></trkpt><trkpt lat="33.8483625" lon="133.3666699"><ele>708.1766666666666</ele><time>2022-10-08T05:35:59Z</time></trkpt><trkpt lat="33.8483777" lon="133.3664539"><ele>707.73</ele><time>2022-10-08T05:36:14Z</time></trkpt><trkpt lat="33.8484265" lon="133.3662451"><ele>707.7066666666666</ele><time>2022-10-08T05:36:31Z</time></trkpt><trkpt lat="33.8485984" lon="133.3661686"><ele>708.0433333333334</ele><time>2022-10-08T05:36:44Z</time></trkpt><trkpt lat="33.8487187" lon="133.3660025"><ele>708.5100000000001</ele><time>2022-10-08T05:36:58Z</time></trkpt><trkpt lat="33.8488463" lon="133.3658485"><ele>708.9633333333335</ele><time>2022-10-08T05:37:10Z</time></trkpt><trkpt lat="33.8490022" lon="133.3656957"><ele>709.19</ele><time>2022-10-08T05:37:25Z</time></trkpt><trkpt lat="33.849127" lon="133.3655186"><ele>709.39</ele><time>2022-10-08T05:37:42Z</time></trkpt><trkpt lat="33.8492256" lon="133.3653274"><ele>710.1366666666667</ele><time>2022-10-08T05:38:00Z</time></trkpt><trkpt lat="33.8492803" lon="133.3651186"><ele>711.1066666666667</ele><time>2022-10-08T05:38:15Z</time></trkpt><trkpt lat="33.8493723" lon="133.3649317"><ele>712.4699999999999</ele><time>2022-10-08T05:38:33Z</time></trkpt><trkpt lat="33.8495138" lon="133.3647923"><ele>715.3966666666666</ele><time>2022-10-08T05:38:49Z</time></trkpt><trkpt lat="33.8495476" lon="133.3645753"><ele>720.7800000000001</ele><time>2022-10-08T05:39:03Z</time></trkpt><trkpt lat="33.8495804" lon="133.3643562"><ele>722.32</ele><time>2022-10-08T05:39:16Z</time></trkpt><trkpt lat="33.8495383" lon="133.3641436"><ele>723.4200000000001</ele><time>2022-10-08T05:39:29Z</time></trkpt><trkpt lat="33.8494458" lon="133.3639458"><ele>719.3833333333332</ele><time>2022-10-08T05:39:43Z</time></trkpt><trkpt lat="33.8493105" lon="133.3637914"><ele>718.09</ele><time>2022-10-08T05:39:56Z</time></trkpt><trkpt lat="33.8491996" lon="133.3636167"><ele>715.5666666666666</ele><time>2022-10-08T05:40:11Z</time></trkpt><trkpt lat="33.8490878" lon="133.3634411"><ele>715.3733333333333</ele><time>2022-10-08T05:40:27Z</time></trkpt><trkpt lat="33.8490073" lon="133.3632437"><ele>716.0099999999999</ele><time>2022-10-08T05:40:41Z</time></trkpt><trkpt lat="33.8489255" lon="133.3630353"><ele>718.7966666666667</ele><time>2022-10-08T05:40:59Z</time></trkpt><trkpt lat="33.8488975" lon="133.3628103"><ele>722.5366666666667</ele><time>2022-10-08T05:41:12Z</time></trkpt><trkpt lat="33.8489126" lon="133.3625858"><ele>726.12</ele><time>2022-10-08T05:41:25Z</time></trkpt><trkpt lat="33.8489087" lon="133.3623686"><ele>727.02</ele><time>2022-10-08T05:41:39Z</time></trkpt><trkpt lat="33.8489486" lon="133.3621574"><ele>726.65</ele><time>2022-10-08T05:41:54Z</time></trkpt><trkpt lat="33.8489725" lon="133.3619332"><ele>726.6466666666666</ele><time>2022-10-08T05:42:07Z</time></trkpt><trkpt lat="33.8489654" lon="133.3617149"><ele>725.9533333333334</ele><time>2022-10-08T05:42:18Z</time></trkpt><trkpt lat="33.8488854" lon="133.3615139"><ele>723.9499999999999</ele><time>2022-10-08T05:42:29Z</time></trkpt><trkpt lat="33.8488184" lon="133.3613127"><ele>721.3866666666667</ele><time>2022-10-08T05:42:40Z</time></trkpt><trkpt lat="33.8488861" lon="133.3611045"><ele>719.9433333333333</ele><time>2022-10-08T05:42:54Z</time></trkpt><trkpt lat="33.8490451" lon="133.3609885"><ele>721.75</ele><time>2022-10-08T05:43:08Z</time></trkpt><trkpt lat="33.849023" lon="133.3607597"><ele>724.2033333333334</ele><time>2022-10-08T05:43:21Z</time></trkpt><trkpt lat="33.8489942" lon="133.3605422"><ele>730.9699999999999</ele><time>2022-10-08T05:43:41Z</time></trkpt><trkpt lat="33.8489205" lon="133.3603423"><ele>743.7466666666666</ele><time>2022-10-08T05:43:57Z</time></trkpt><trkpt lat="33.8487475" lon="133.3602504"><ele>747.3166666666667</ele><time>2022-10-08T05:44:12Z</time></trkpt><trkpt lat="33.848584" lon="133.3601418"><ele>744.1833333333334</ele><time>2022-10-08T05:44:26Z</time></trkpt><trkpt lat="33.8484356" lon="133.3600119"><ele>733.8533333333334</ele><time>2022-10-08T05:44:40Z</time></trkpt><trkpt lat="33.8482575" lon="133.3599173"><ele>731.1033333333334</ele><time>2022-10-08T05:44:56Z</time></trkpt><trkpt lat="33.8482609" lon="133.3597009"><ele>731.6766666666667</ele><time>2022-10-08T05:45:13Z</time></trkpt><trkpt lat="33.848378" lon="133.359523"><ele>732.6566666666668</ele><time>2022-10-08T05:45:28Z</time></trkpt><trkpt lat="33.8485145" lon="133.359372"><ele>735.6700000000001</ele><time>2022-10-08T05:45:42Z</time></trkpt><trkpt lat="33.8485928" lon="133.3591747"><ele>736.9000000000001</ele><time>2022-10-08T05:45:54Z</time></trkpt><trkpt lat="33.8487858" lon="133.3591268"><ele>738.0099999999999</ele><time>2022-10-08T05:46:09Z</time></trkpt><trkpt lat="33.8489646" lon="133.3591621"><ele>739.2466666666668</ele><time>2022-10-08T05:46:28Z</time></trkpt><trkpt lat="33.8491338" lon="133.3590444"><ele>740.1933333333333</ele><time>2022-10-08T05:46:39Z</time></trkpt><trkpt lat="33.8493173" lon="133.3590386"><ele>740.6266666666667</ele><time>2022-10-08T05:46:52Z</time></trkpt><trkpt lat="33.8494936" lon="133.3591125"><ele>742.6333333333333</ele><time>2022-10-08T05:47:07Z</time></trkpt><trkpt lat="33.8496638" lon="133.3590386"><ele>745.1</ele><time>2022-10-08T05:47:20Z</time></trkpt><trkpt lat="33.849791" lon="133.3588819"><ele>747.2333333333332</ele><time>2022-10-08T05:47:43Z</time></trkpt><trkpt lat="33.849842" lon="133.3586711"><ele>747.61</ele><time>2022-10-08T05:47:55Z</time></trkpt><trkpt lat="33.8498345" lon="133.358449"><ele>748.8466666666667</ele><time>2022-10-08T05:48:07Z</time></trkpt><trkpt lat="33.8497478" lon="133.3582499"><ele>749.36</ele><time>2022-10-08T05:48:19Z</time></trkpt><trkpt lat="33.8497042" lon="133.3580351"><ele>748.44</ele><time>2022-10-08T05:48:32Z</time></trkpt><trkpt lat="33.849679" lon="133.3578027"><ele>747.0233333333334</ele><time>2022-10-08T05:48:46Z</time></trkpt><trkpt lat="33.8496009" lon="133.3575911"><ele>745.2966666666666</ele><time>2022-10-08T05:49:00Z</time></trkpt><trkpt lat="33.8497005" lon="133.3574059"><ele>744.7066666666666</ele><time>2022-10-08T05:49:13Z</time></trkpt><trkpt lat="33.8498262" lon="133.3572495"><ele>744.79</ele><time>2022-10-08T05:49:25Z</time></trkpt><trkpt lat="33.8498857" lon="133.3570366"><ele>746.0133333333333</ele><time>2022-10-08T05:49:38Z</time></trkpt><trkpt lat="33.8499138" lon="133.3568178"><ele>747.1</ele><time>2022-10-08T05:49:51Z</time></trkpt><trkpt lat="33.8498232" lon="133.3566302"><ele>747.2866666666667</ele><time>2022-10-08T05:52:11Z</time></trkpt><trkpt lat="33.8497937" lon="133.3564142"><ele>747.5033333333334</ele><time>2022-10-08T05:52:21Z</time></trkpt><trkpt lat="33.849762" lon="133.3561882"><ele>747.4699999999999</ele><time>2022-10-08T05:52:34Z</time></trkpt><trkpt lat="33.8498257" lon="133.3559851"><ele>749.2266666666668</ele><time>2022-10-08T05:52:45Z</time></trkpt><trkpt lat="33.849742" lon="133.3557798"><ele>749.6833333333334</ele><time>2022-10-08T05:53:00Z</time></trkpt><trkpt lat="33.8496216" lon="133.355607"><ele>750.1333333333333</ele><time>2022-10-08T05:53:12Z</time></trkpt><trkpt lat="33.8495539" lon="133.3554037"><ele>749.66</ele><time>2022-10-08T05:53:23Z</time></trkpt><trkpt lat="33.8495294" lon="133.355182"><ele>750.35</ele><time>2022-10-08T05:53:36Z</time></trkpt><trkpt lat="33.8495156" lon="133.3549644"><ele>751.17</ele><time>2022-10-08T05:53:48Z</time></trkpt><trkpt lat="33.8495683" lon="133.3547552"><ele>751.8966666666666</ele><time>2022-10-08T05:54:04Z</time></trkpt><trkpt lat="33.8496863" lon="133.3545858"><ele>753.6566666666666</ele><time>2022-10-08T05:54:20Z</time></trkpt><trkpt lat="33.8497597" lon="133.3543781"><ele>754.5933333333332</ele><time>2022-10-08T05:54:32Z</time></trkpt><trkpt lat="33.8498971" lon="133.3542151"><ele>754.68</ele><time>2022-10-08T05:54:48Z</time></trkpt><trkpt lat="33.8500787" lon="133.3541616"><ele>755.0266666666666</ele><time>2022-10-08T05:55:03Z</time></trkpt><trkpt lat="33.8502716" lon="133.3541331"><ele>757.9966666666668</ele><time>2022-10-08T05:55:18Z</time></trkpt><trkpt lat="33.8504388" lon="133.3540467"><ele>761.2966666666666</ele><time>2022-10-08T05:55:38Z</time></trkpt><trkpt lat="33.8506096" lon="133.3539765"><ele>764.2133333333335</ele><time>2022-10-08T05:55:51Z</time></trkpt><trkpt lat="33.850785" lon="133.3539262"><ele>765.1</ele><time>2022-10-08T05:56:05Z</time></trkpt><trkpt lat="33.8509441" lon="133.353819"><ele>766.0133333333333</ele><time>2022-10-08T05:56:19Z</time></trkpt><trkpt lat="33.8510389" lon="133.3536201"><ele>766.08</ele><time>2022-10-08T05:56:30Z</time></trkpt><trkpt lat="33.8511173" lon="133.3534222"><ele>765.5633333333334</ele><time>2022-10-08T05:56:43Z</time></trkpt><trkpt lat="33.8512009" lon="133.3532229"><ele>764.9233333333333</ele><time>2022-10-08T05:56:56Z</time></trkpt><trkpt lat="33.8512261" lon="133.3529912"><ele>764.1366666666667</ele><time>2022-10-08T05:57:20Z</time></trkpt><trkpt lat="33.8512683" lon="133.3527755"><ele>764.14</ele><time>2022-10-08T05:57:38Z</time></trkpt><trkpt lat="33.8512284" lon="133.3525413"><ele>764.2466666666666</ele><time>2022-10-08T05:58:00Z</time></trkpt><trkpt lat="33.8511829" lon="133.3523284"><ele>764.7766666666666</ele><time>2022-10-08T05:58:17Z</time></trkpt><trkpt lat="33.8511861" lon="133.3521105"><ele>765.2666666666668</ele><time>2022-10-08T05:58:35Z</time></trkpt><trkpt lat="33.8513483" lon="133.3519905"><ele>766.9933333333333</ele><time>2022-10-08T05:58:52Z</time></trkpt><trkpt lat="33.8515371" lon="133.3519175"><ele>770.8633333333333</ele><time>2022-10-08T05:59:11Z</time></trkpt><trkpt lat="33.8516735" lon="133.351749"><ele>775.9133333333334</ele><time>2022-10-08T05:59:26Z</time></trkpt><trkpt lat="33.8518012" lon="133.3515947"><ele>778.0933333333334</ele><time>2022-10-08T06:00:28Z</time></trkpt><trkpt lat="33.8519622" lon="133.3514874"><ele>777.9566666666666</ele><time>2022-10-08T06:00:55Z</time></trkpt><trkpt lat="33.8520531" lon="133.3512936"><ele>774.8766666666667</ele><time>2022-10-08T06:01:09Z</time></trkpt><trkpt lat="33.852142" lon="133.351098"><ele>772.6466666666666</ele><time>2022-10-08T06:01:19Z</time></trkpt><trkpt lat="33.8522334" lon="133.3509069"><ele>770.7700000000001</ele><time>2022-10-08T06:01:30Z</time></trkpt><trkpt lat="33.8523845" lon="133.3507562"><ele>771.1366666666667</ele><time>2022-10-08T06:01:41Z</time></trkpt><trkpt lat="33.8525529" lon="133.3506488"><ele>772.3766666666667</ele><time>2022-10-08T06:01:54Z</time></trkpt><trkpt lat="33.8527339" lon="133.3506099"><ele>773.6866666666666</ele><time>2022-10-08T06:02:08Z</time></trkpt><trkpt lat="33.852901" lon="133.3507189"><ele>775.7366666666667</ele><time>2022-10-08T06:02:21Z</time></trkpt><trkpt lat="33.8529548" lon="133.3509266"><ele>777.1733333333333</ele><time>2022-10-08T06:02:32Z</time></trkpt><trkpt lat="33.8530705" lon="133.3510943"><ele>777.5166666666668</ele><time>2022-10-08T06:02:46Z</time></trkpt><trkpt lat="33.8532426" lon="133.3510161"><ele>778.3133333333334</ele><time>2022-10-08T06:03:02Z</time></trkpt><trkpt lat="33.8534192" lon="133.3509576"><ele>779.9266666666666</ele><time>2022-10-08T06:03:14Z</time></trkpt><trkpt lat="33.8536008" lon="133.3509591"><ele>782.1666666666666</ele><time>2022-10-08T06:03:29Z</time></trkpt><trkpt lat="33.8537863" lon="133.3508505"><ele>782.8766666666667</ele><time>2022-10-08T06:03:42Z</time></trkpt><trkpt lat="33.8539516" lon="133.3507596"><ele>785.9133333333333</ele><time>2022-10-08T06:03:58Z</time></trkpt><trkpt lat="33.8539485" lon="133.3510336"><ele>784.85</ele><time>2022-10-08T06:04:02Z</time></trkpt><trkpt lat="33.8538197" lon="133.350875"><ele>784.4200000000001</ele><time>2022-10-08T06:04:29Z</time></trkpt><trkpt lat="33.8536281" lon="133.3508197"><ele>783.8766666666667</ele><time>2022-10-08T06:04:39Z</time></trkpt><trkpt lat="33.8534326" lon="133.350862"><ele>785.9466666666667</ele><time>2022-10-08T06:04:50Z</time></trkpt><trkpt lat="33.8532285" lon="133.3508861"><ele>786.1566666666668</ele><time>2022-10-08T06:05:00Z</time></trkpt><trkpt lat="33.8531283" lon="133.3506728"><ele>784.6833333333334</ele><time>2022-10-08T06:05:15Z</time></trkpt><trkpt lat="33.8530886" lon="133.350453"><ele>783.0100000000001</ele><time>2022-10-08T06:05:27Z</time></trkpt><trkpt lat="33.8529886" lon="133.3502695"><ele>782.0033333333334</ele><time>2022-10-08T06:05:43Z</time></trkpt><trkpt lat="33.8528175" lon="133.3501876"><ele>783.7633333333333</ele><time>2022-10-08T06:05:59Z</time></trkpt><trkpt lat="33.852624" lon="133.3502634"><ele>787.9033333333333</ele><time>2022-10-08T06:06:15Z</time></trkpt><trkpt lat="33.8524458" lon="133.3502229"><ele>794.2833333333333</ele><time>2022-10-08T06:06:41Z</time></trkpt><trkpt lat="33.8523351" lon="133.3500464"><ele>800.8766666666667</ele><time>2022-10-08T06:06:53Z</time></trkpt><trkpt lat="33.8522023" lon="133.3498951"><ele>806.2933333333334</ele><time>2022-10-08T06:07:11Z</time></trkpt><trkpt lat="33.8522198" lon="133.3496786"><ele>809.87</ele><time>2022-10-08T06:07:28Z</time></trkpt><trkpt lat="33.8522256" lon="133.3494613"><ele>810.3166666666666</ele><time>2022-10-08T06:07:46Z</time></trkpt><trkpt lat="33.8522726" lon="133.3492496"><ele>812.4233333333333</ele><time>2022-10-08T06:08:01Z</time></trkpt><trkpt lat="33.8522403" lon="133.3490272"><ele>813.4233333333333</ele><time>2022-10-08T06:08:17Z</time></trkpt><trkpt lat="33.8523074" lon="133.3488208"><ele>814.5966666666667</ele><time>2022-10-08T06:08:31Z</time></trkpt><trkpt lat="33.8522773" lon="133.3486046"><ele>815.7033333333334</ele><time>2022-10-08T06:08:45Z</time></trkpt><trkpt lat="33.8521406" lon="133.3484609"><ele>816.3466666666667</ele><time>2022-10-08T06:09:02Z</time></trkpt><trkpt lat="33.8520159" lon="133.3483013"><ele>815.86</ele><time>2022-10-08T06:09:17Z</time></trkpt><trkpt lat="33.851906" lon="133.3481263"><ele>814.6633333333333</ele><time>2022-10-08T06:09:31Z</time></trkpt><trkpt lat="33.8518251" lon="133.3479266"><ele>816.9366666666666</ele><time>2022-10-08T06:09:45Z</time></trkpt><trkpt lat="33.8517413" lon="133.3477335"><ele>819.5933333333334</ele><time>2022-10-08T06:10:04Z</time></trkpt><trkpt lat="33.8517388" lon="133.347515"><ele>822.5366666666667</ele><time>2022-10-08T06:10:19Z</time></trkpt><trkpt lat="33.8518162" lon="133.3473011"><ele>825.2833333333333</ele><time>2022-10-08T06:10:36Z</time></trkpt><trkpt lat="33.851945" lon="133.3471138"><ele>827.6700000000001</ele><time>2022-10-08T06:11:16Z</time></trkpt><trkpt lat="33.8518865" lon="133.3469041"><ele>828.6999999999999</ele><time>2022-10-08T06:12:02Z</time></trkpt></trkseg></trk></gpx>