<?xml version='1.0' encoding='UTF-8'?><gpx creator="Yama Museum Peak Annotator" xsi:schemaLocation="http://www.topografix.com/GPX/1/1 http://www.topografix.com/GPX/1/1/gpx.xsd" version="1.1" xmlns="http://www.topografix.com/GPX/1/1" xmlns:xsi="http://www.w3.org/2001/XMLSchema-instance"><metadata><bounds maxlat="34.2689074" maxlon="133.201725" minlat="34.265616" minlon="133.1993664"/></metadata>  <wpt lat="34.2687521" lon="133.1998766">
    <ele>52.94</ele>
    <name>伊勢山</name>
    <desc>Peak detected at 53m (prominence: 40m)</desc>
    <sym>Summit</sym>
  </wpt>
<trk><name>伊勢山</name><number>1</number><trkseg><trkpt lat="34.2675562" lon="133.2014436"><ele>8.69</ele><time>2022-09-15T02:02:04Z</time></trkpt><trkpt lat="34.2677258" lon="133.2015249"><ele>8.36</ele><time>2022-09-15T02:02:32Z</time></trkpt><trkpt lat="34.2678913" lon="133.2016387"><ele>8.143333333333333</ele><time>2022-09-15T02:02:45Z</time></trkpt><trkpt lat="34.2680614" lon="133.201725"><ele>7.803333333333332</ele><time>2022-09-15T02:03:01Z</time></trkpt><trkpt lat="34.2681844" lon="133.2015654"><ele>8.52</ele><time>2022-09-15T02:03:34Z</time></trkpt><trkpt lat="34.2683661" lon="133.2015348"><ele>9.746666666666668</ele><time>2022-09-15T02:03:48Z</time></trkpt><trkpt lat="34.2683836" lon="133.2013176"><ele>13.183333333333332</ele><time>2022-09-15T02:03:59Z</time></trkpt><trkpt lat="34.2684612" lon="133.2011155"><ele>17.776666666666667</ele><time>2022-09-15T02:04:16Z</time></trkpt><trkpt lat="34.2686406" lon="133.2010614"><ele>23.433333333333334</ele><time>2022-09-15T02:04:36Z</time></trkpt><trkpt lat="34.2687639" lon="133.2009009"><ele>29.543333333333333</ele><time>2022-09-15T02:05:20Z</time></trkpt><trkpt lat="34.268881" lon="133.2007338"><ele>34.196666666666665</ele><time>2022-09-15T02:06:52Z</time></trkpt><trkpt lat="34.2689074" lon="133.2005082"><ele>41.153333333333336</ele><time>2022-09-15T02:07:29Z</time></trkpt><trkpt lat="34.2688153" lon="133.2003162"><ele>46.546666666666674</ele><time>2022-09-15T02:09:10Z</time></trkpt><trkpt lat="34.2687926" lon="133.2000922"><ele>52.30666666666667</ele><time>2022-09-15T02:17:14Z</time></trkpt><trkpt lat="34.2687521" lon="133.1998766"><ele>52.94</ele><time>2022-09-15T02:18:43Z</time></trkpt><trkpt lat="34.2686435" lon="133.1996974"><ele>48.70666666666667</ele><time>2022-09-15T02:19:06Z</time></trkpt><trkpt lat="34.2685129" lon="133.1995379"><ele>41.29666666666667</ele><time>2022-09-15T02:19:36Z</time></trkpt><trkpt lat="34.2683695" lon="133.1994039"><ele>31.869999999999994</ele><time>2022-09-15T02:20:39Z</time></trkpt><trkpt lat="34.2681868" lon="133.1993853"><ele>21.80666666666667</ele><time>2022-09-15T02:21:03Z</time></trkpt><trkpt lat="34.2680061" lon="133.1993664"><ele>12.263333333333335</ele><time>2022-09-15T02:21:36Z</time></trkpt><trkpt lat="34.2678959" lon="133.1995547"><ele>7.776666666666666</ele><time>2022-09-15T02:22:36Z</time></trkpt><trkpt lat="34.2677114" lon="133.1995876"><ele>5.656666666666666</ele><time>2022-09-15T02:22:47Z</time></trkpt><trkpt lat="34.2675313" lon="133.1996265"><ele>4.993333333333333</ele><time>2022-09-15T02:22:59Z</time></trkpt><trkpt lat="34.2673561" lon="133.1996984"><ele>2.1599999999999997</ele><time>2022-09-15T02:23:12Z</time></trkpt><trkpt lat="34.2671791" lon="133.199791"><ele>1.4600000000000002</ele><time>2022-09-15T02:23:26Z</time></trkpt><trkpt lat="34.2669903" lon="133.1998249"><ele>0.7433333333333335</ele><time>2022-09-15T02:23:38Z</time></trkpt><trkpt lat="34.2668121" lon="133.1998909"><ele>0.6333333333333334</ele><time>2022-09-15T02:23:54Z</time></trkpt><trkpt lat="34.2666409" lon="133.1999705"><ele>0.4033333333333333</ele><time>2022-09-15T02:24:09Z</time></trkpt><trkpt lat="34.266474" lon="133.2000535"><ele>0.5666666666666668</ele><time>2022-09-15T02:24:21Z</time></trkpt><trkpt lat="34.2662979" lon="133.2001137"><ele>0.5066666666666667</ele><time>2022-09-15T02:24:33Z</time></trkpt><trkpt lat="34.266126" lon="133.200191"><ele>0.53</ele><time>2022-09-15T02:24:45Z</time></trkpt><trkpt lat="34.2659461" lon="133.2002315"><ele>0.52</ele><time>2022-09-15T02:24:56Z</time></trkpt><trkpt lat="34.2657897" lon="133.2003462"><ele>1.33</ele><time>2022-09-15T02:25:08Z</time></trkpt><trkpt lat="34.265616" lon="133.2004135"><ele>2.56</ele><time>2022-09-15T02:25:28Z</time></trkpt><trkpt lat="34.2656432" lon="133.2006324"><ele>4.01</ele><time>2022-09-15T02:25:43Z</time></trkpt><trkpt lat="34.2658226" lon="133.2006801"><ele>4.226666666666667</ele><time>2022-09-15T02:25:53Z</time></trkpt><trkpt lat="34.2660083" lon="133.2006969"><ele>3.8299999999999996</ele><time>2022-09-15T02:26:07Z</time></trkpt><trkpt lat="34.2661691" lon="133.2007993"><ele>3.7566666666666664</ele><time>2022-09-15T02:26:23Z</time></trkpt><trkpt lat="34.2663259" lon="133.2009151"><ele>4.7700000000000005</ele><time>2022-09-15T02:26:40Z</time></trkpt><trkpt lat="34.2664977" lon="133.2009839"><ele>6.076666666666667</ele><time>2022-09-15T02:26:56Z</time></trkpt><trkpt lat="34.2666669" lon="133.2010833"><ele>7.273333333333333</ele><time>2022-09-15T02:27:10Z</time></trkpt><trkpt lat="34.2668369" lon="133.2011723"><ele>7.989999999999999</ele><time>2022-09-15T02:27:23Z</time></trkpt><trkpt lat="34.2670257" lon="133.2011945"><ele>8.436666666666667</ele><time>2022-09-15T02:27:36Z</time></trkpt><trkpt lat="34.2672131" lon="133.201191"><ele>8.28</ele><time>2022-09-15T02:27:50Z</time></trkpt><trkpt lat="34.2673069" lon="133.2013858"><ele>7.883333333333333</ele><time>2022-09-15T02:28:05Z</time></trkpt><trkpt lat="34.267486" lon="133.2014525"><ele>8.020000000000001</ele><time>2022-09-15T02:28:19Z</time></trkpt></trkseg></trk></gpx>