<?xml version='1.0' encoding='UTF-8'?><gpx creator="Yama Museum Peak Annotator" xsi:schemaLocation="http://www.topografix.com/GPX/1/1 http://www.topografix.com/GPX/1/1/gpx.xsd" version="1.1" xmlns="http://www.topografix.com/GPX/1/1" xmlns:xsi="http://www.w3.org/2001/XMLSchema-instance"><metadata><bounds maxlat="33.930573" maxlon="133.0554669" minlat="33.9279707" minlon="133.054123"/></metadata><trk><name>佐々久山</name><number>1</number><trkseg><trkpt lat="33.9304599" lon="133.0551457"><ele>19.53</ele><time>2022-12-25T06:08:42Z</time></trkpt><trkpt lat="33.9303232" lon="133.0552934"><ele>19.72</ele><time>2022-12-25T06:09:22Z</time></trkpt><trkpt lat="33.9301626" lon="133.0554075"><ele>20.396666666666665</ele><time>2022-12-25T06:09:38Z</time></trkpt><trkpt lat="33.9299844" lon="133.0554669"><ele>22.55666666666667</ele><time>2022-12-25T06:09:51Z</time></trkpt><trkpt lat="33.9298059" lon="133.0554202"><ele>25.296666666666667</ele><time>2022-12-25T06:10:08Z</time></trkpt><trkpt lat="33.9296077" lon="133.0553943"><ele>28.75</ele><time>2022-12-25T06:10:32Z</time></trkpt><trkpt lat="33.9294283" lon="133.0553386"><ele>30.686666666666667</ele><time>2022-12-25T06:11:19Z</time></trkpt><trkpt lat="33.9292573" lon="133.0554178"><ele>31.423333333333332</ele><time>2022-12-25T06:11:32Z</time></trkpt><trkpt lat="33.9291025" lon="133.0552964"><ele>30.766666666666666</ele><time>2022-12-25T06:11:47Z</time></trkpt><trkpt lat="33.9289805" lon="133.0551223"><ele>30.92</ele><time>2022-12-25T06:12:02Z</time></trkpt><trkpt lat="33.9288954" lon="133.0549237"><ele>31.856666666666666</ele><time>2022-12-25T06:12:31Z</time></trkpt><trkpt lat="33.9287691" lon="133.0547676"><ele>33.93666666666667</ele><time>2022-12-25T06:12:44Z</time></trkpt><trkpt lat="33.9286031" lon="133.054665"><ele>34.49666666666667</ele><time>2022-12-25T06:12:58Z</time></trkpt><trkpt lat="33.9284241" lon="133.0545971"><ele>34.71666666666667</ele><time>2022-12-25T06:13:14Z</time></trkpt><trkpt lat="33.9282928" lon="133.0544439"><ele>35.26333333333334</ele><time>2022-12-25T06:13:38Z</time></trkpt><trkpt lat="33.9281413" lon="133.0543167"><ele>36.81333333333334</ele><time>2022-12-25T06:14:52Z</time></trkpt><trkpt lat="33.9279707" lon="133.0544069"><ele>38.336666666666666</ele><time>2022-12-25T06:15:30Z</time></trkpt><trkpt lat="33.9281381" lon="133.0543192"><ele>38.53333333333334</ele><time>2022-12-25T06:16:18Z</time></trkpt><trkpt lat="33.927998" lon="133.0541671"><ele>36.77666666666667</ele><time>2022-12-25T06:17:07Z</time></trkpt><trkpt lat="33.9281761" lon="133.054123"><ele>35.75666666666667</ele><time>2022-12-25T06:17:32Z</time></trkpt><trkpt lat="33.9283572" lon="133.0541451"><ele>38.32666666666666</ele><time>2022-12-25T06:17:43Z</time></trkpt><trkpt lat="33.9285028" lon="133.0542754"><ele>43.326666666666675</ele><time>2022-12-25T06:18:09Z</time></trkpt><trkpt lat="33.9286806" lon="133.0542355"><ele>48.53</ele><time>2022-12-25T06:18:41Z</time></trkpt><trkpt lat="33.9288569" lon="133.0542892"><ele>50.24000000000001</ele><time>2022-12-25T06:21:22Z</time></trkpt><trkpt lat="33.9289995" lon="133.0544249"><ele>49.833333333333336</ele><time>2022-12-25T06:21:41Z</time></trkpt><trkpt lat="33.9291565" lon="133.0545436"><ele>48.04333333333333</ele><time>2022-12-25T06:22:10Z</time></trkpt><trkpt lat="33.9293279" lon="133.0544627"><ele>44.89666666666667</ele><time>2022-12-25T06:22:26Z</time></trkpt><trkpt lat="33.9294775" lon="133.0543393"><ele>41.79333333333333</ele><time>2022-12-25T06:22:43Z</time></trkpt><trkpt lat="33.929553" lon="133.054548"><ele>40.25</ele><time>2022-12-25T06:23:10Z</time></trkpt><trkpt lat="33.9296635" lon="133.0547258"><ele>38.6</ele><time>2022-12-25T06:23:19Z</time></trkpt><trkpt lat="33.9295585" lon="133.0549125"><ele>38.660000000000004</ele><time>2022-12-25T06:23:37Z</time></trkpt><trkpt lat="33.9294864" lon="133.0551134"><ele>37.93333333333334</ele><time>2022-12-25T06:24:10Z</time></trkpt><trkpt lat="33.9295349" lon="133.0553266"><ele>37.05666666666667</ele><time>2022-12-25T06:24:49Z</time></trkpt><trkpt lat="33.929699" lon="133.0554255"><ele>33.99333333333333</ele><time>2022-12-25T06:25:07Z</time></trkpt><trkpt lat="33.9298827" lon="133.055427"><ele>30.26</ele><time>2022-12-25T06:25:20Z</time></trkpt><trkpt lat="33.9300875" lon="133.05538"><ele>26.22666666666667</ele><time>2022-12-25T06:25:32Z</time></trkpt><trkpt lat="33.9302252" lon="133.0552334"><ele>23.183333333333337</ele><time>2022-12-25T06:25:52Z</time></trkpt><trkpt lat="33.9304073" lon="133.0551984"><ele>20.546666666666667</ele><time>2022-12-25T06:26:05Z</time></trkpt><trkpt lat="33.930573" lon="133.0551014"><ele>19.596666666666668</ele><time>2022-12-25T06:26:20Z</time></trkpt></trkseg></trk></gpx>