<?xml version='1.0' encoding='UTF-8'?><gpx creator="Yama Museum Peak Annotator" xsi:schemaLocation="http://www.topografix.com/GPX/1/1 http://www.topografix.com/GPX/1/1/gpx.xsd" version="1.1" xmlns="http://www.topografix.com/GPX/1/1" xmlns:xsi="http://www.w3.org/2001/XMLSchema-instance"><metadata><bounds maxlat="34.181095" maxlon="133.0667739" minlat="34.174601" minlon="133.0530598"/></metadata>  <wpt lat="34.1747341" lon="133.0532069">
    <ele>374.65000000000003</ele>
    <name>念仏山</name>
    <desc>Peak detected at 375m (prominence: 216m)</desc>
    <sym>Summit</sym>
  </wpt>
<trk><name>念仏山</name><number>1</number><trkseg><trkpt lat="34.1804646" lon="133.0667739"><ele>149.75</ele><time>2025-02-08T23:01:53Z</time></trkpt><trkpt lat="34.1806575" lon="133.0667391"><ele>152.965</ele><time>2025-02-08T23:02:15Z</time></trkpt><trkpt lat="34.1808407" lon="133.0666509"><ele>154.87</ele><time>2025-02-08T23:02:32Z</time></trkpt><trkpt lat="34.181" lon="133.066531"><ele>158.20333333333335</ele><time>2025-02-08T23:02:46Z</time></trkpt><trkpt lat="34.1810446" lon="133.0662926"><ele>161.29999999999998</ele><time>2025-02-08T23:02:58Z</time></trkpt><trkpt lat="34.1809217" lon="133.0660759"><ele>164.89333333333335</ele><time>2025-02-08T23:03:28Z</time></trkpt><trkpt lat="34.1809801" lon="133.0662995"><ele>168.07333333333335</ele><time>2025-02-08T23:03:34Z</time></trkpt><trkpt lat="34.1808393" lon="133.0661188"><ele>170.51666666666668</ele><time>2025-02-08T23:03:50Z</time></trkpt><trkpt lat="34.1807516" lon="133.0659115"><ele>172.15666666666667</ele><time>2025-02-08T23:04:08Z</time></trkpt><trkpt lat="34.1806174" lon="133.0657587"><ele>173.61333333333334</ele><time>2025-02-08T23:04:32Z</time></trkpt><trkpt lat="34.1806613" lon="133.0655426"><ele>176.4533333333333</ele><time>2025-02-08T23:04:56Z</time></trkpt><trkpt lat="34.180637" lon="133.0653"><ele>179.83666666666667</ele><time>2025-02-08T23:05:13Z</time></trkpt><trkpt lat="34.1806737" lon="133.0650761"><ele>185.3066666666667</ele><time>2025-02-08T23:05:34Z</time></trkpt><trkpt lat="34.1808186" lon="133.0649349"><ele>189.98000000000002</ele><time>2025-02-08T23:05:50Z</time></trkpt><trkpt lat="34.1809827" lon="133.0647947"><ele>193.32666666666668</ele><time>2025-02-08T23:06:10Z</time></trkpt><trkpt lat="34.1808523" lon="133.0646006"><ele>195.75</ele><time>2025-02-08T23:06:28Z</time></trkpt><trkpt lat="34.1807597" lon="133.0643788"><ele>198.98333333333332</ele><time>2025-02-08T23:06:46Z</time></trkpt><trkpt lat="34.1806734" lon="133.064175"><ele>203.07333333333335</ele><time>2025-02-08T23:07:04Z</time></trkpt><trkpt lat="34.1805376" lon="133.0643299"><ele>208.70000000000002</ele><time>2025-02-08T23:08:18Z</time></trkpt><trkpt lat="34.1803392" lon="133.0643347"><ele>214.29</ele><time>2025-02-08T23:08:41Z</time></trkpt><trkpt lat="34.180272" lon="133.0640988"><ele>219.8133333333333</ele><time>2025-02-08T23:09:01Z</time></trkpt><trkpt lat="34.1802431" lon="133.0638817"><ele>222.59333333333333</ele><time>2025-02-08T23:09:18Z</time></trkpt><trkpt lat="34.1801886" lon="133.0636437"><ele>225.04</ele><time>2025-02-08T23:09:38Z</time></trkpt><trkpt lat="34.1800846" lon="133.0634269"><ele>228.89666666666668</ele><time>2025-02-08T23:10:05Z</time></trkpt><trkpt lat="34.1799813" lon="133.0632088"><ele>236.27666666666667</ele><time>2025-02-08T23:11:11Z</time></trkpt><trkpt lat="34.1798969" lon="133.0629994"><ele>243.06333333333336</ele><time>2025-02-08T23:11:26Z</time></trkpt><trkpt lat="34.1798445" lon="133.0627754"><ele>249.92666666666665</ele><time>2025-02-08T23:11:47Z</time></trkpt><trkpt lat="34.1797954" lon="133.0625524"><ele>255.15333333333334</ele><time>2025-02-08T23:12:18Z</time></trkpt><trkpt lat="34.1798133" lon="133.0623359"><ele>260.9666666666667</ele><time>2025-02-08T23:12:36Z</time></trkpt><trkpt lat="34.1798513" lon="133.062087"><ele>264.79999999999995</ele><time>2025-02-08T23:12:59Z</time></trkpt><trkpt lat="34.1798466" lon="133.0618611"><ele>267.0466666666667</ele><time>2025-02-08T23:13:16Z</time></trkpt><trkpt lat="34.1798413" lon="133.0616435"><ele>266.48</ele><time>2025-02-08T23:13:30Z</time></trkpt><trkpt lat="34.1798485" lon="133.0614074"><ele>265.3433333333333</ele><time>2025-02-08T23:14:25Z</time></trkpt><trkpt lat="34.1798684" lon="133.0611579"><ele>263.97333333333336</ele><time>2025-02-08T23:14:43Z</time></trkpt><trkpt lat="34.1799454" lon="133.0609214"><ele>263.43</ele><time>2025-02-08T23:14:58Z</time></trkpt><trkpt lat="34.1801017" lon="133.0607961"><ele>264.99333333333334</ele><time>2025-02-08T23:15:16Z</time></trkpt><trkpt lat="34.1802633" lon="133.060663"><ele>267.75333333333333</ele><time>2025-02-08T23:15:35Z</time></trkpt><trkpt lat="34.1803828" lon="133.060484"><ele>270.6766666666667</ele><time>2025-02-08T23:15:52Z</time></trkpt><trkpt lat="34.1803042" lon="133.0602681"><ele>273.0566666666667</ele><time>2025-02-08T23:16:10Z</time></trkpt><trkpt lat="34.1801572" lon="133.0601333"><ele>275.84</ele><time>2025-02-08T23:16:27Z</time></trkpt><trkpt lat="34.1801624" lon="133.0598892"><ele>278.96</ele><time>2025-02-08T23:16:44Z</time></trkpt><trkpt lat="34.1801913" lon="133.0596497"><ele>282.37</ele><time>2025-02-08T23:17:01Z</time></trkpt><trkpt lat="34.1803045" lon="133.0594395"><ele>285.0566666666667</ele><time>2025-02-08T23:17:21Z</time></trkpt><trkpt lat="34.1802263" lon="133.0592241"><ele>286.6666666666667</ele><time>2025-02-08T23:17:52Z</time></trkpt><trkpt lat="34.1800344" lon="133.0591998"><ele>288.00666666666666</ele><time>2025-02-08T23:18:06Z</time></trkpt><trkpt lat="34.1798377" lon="133.0591631"><ele>290.31666666666666</ele><time>2025-02-08T23:18:24Z</time></trkpt><trkpt lat="34.1796817" lon="133.0590515"><ele>294.1366666666667</ele><time>2025-02-08T23:18:41Z</time></trkpt><trkpt lat="34.1795495" lon="133.058879"><ele>297.99666666666667</ele><time>2025-02-08T23:18:58Z</time></trkpt><trkpt lat="34.1794831" lon="133.0586408"><ele>301.17333333333335</ele><time>2025-02-08T23:19:20Z</time></trkpt><trkpt lat="34.179433" lon="133.058406"><ele>303.4533333333333</ele><time>2025-02-08T23:19:39Z</time></trkpt><trkpt lat="34.1793442" lon="133.058194"><ele>306.3633333333333</ele><time>2025-02-08T23:19:56Z</time></trkpt><trkpt lat="34.1792305" lon="133.0580076"><ele>308.8766666666667</ele><time>2025-02-08T23:24:43Z</time></trkpt><trkpt lat="34.1790866" lon="133.0578344"><ele>311.77666666666664</ele><time>2025-02-08T23:24:58Z</time></trkpt><trkpt lat="34.1788946" lon="133.0577626"><ele>313.73333333333335</ele><time>2025-02-08T23:25:16Z</time></trkpt><trkpt lat="34.1786851" lon="133.0578313"><ele>316.02666666666664</ele><time>2025-02-08T23:25:31Z</time></trkpt><trkpt lat="34.1785108" lon="133.0578917"><ele>318.3566666666666</ele><time>2025-02-08T23:25:43Z</time></trkpt><trkpt lat="34.1783198" lon="133.0577772"><ele>320.92333333333335</ele><time>2025-02-08T23:25:58Z</time></trkpt><trkpt lat="34.1782903" lon="133.0575221"><ele>322.13000000000005</ele><time>2025-02-08T23:26:16Z</time></trkpt><trkpt lat="34.1781927" lon="133.05731"><ele>322.97666666666663</ele><time>2025-02-08T23:26:31Z</time></trkpt><trkpt lat="34.1781056" lon="133.0570722"><ele>322.74333333333334</ele><time>2025-02-08T23:26:49Z</time></trkpt><trkpt lat="34.1780383" lon="133.0568577"><ele>323.07</ele><time>2025-02-08T23:27:04Z</time></trkpt><trkpt lat="34.177964" lon="133.0566214"><ele>322.80333333333334</ele><time>2025-02-08T23:27:19Z</time></trkpt><trkpt lat="34.1779325" lon="133.0563956"><ele>322.78000000000003</ele><time>2025-02-08T23:27:34Z</time></trkpt><trkpt lat="34.1780191" lon="133.0561917"><ele>325.0966666666667</ele><time>2025-02-08T23:27:49Z</time></trkpt><trkpt lat="34.1779472" lon="133.0559733"><ele>328.68</ele><time>2025-02-08T23:28:07Z</time></trkpt><trkpt lat="34.1777904" lon="133.055801"><ele>333.50666666666666</ele><time>2025-02-08T23:28:25Z</time></trkpt><trkpt lat="34.1776093" lon="133.055765"><ele>336.0933333333333</ele><time>2025-02-08T23:28:46Z</time></trkpt><trkpt lat="34.1774212" lon="133.055767"><ele>338.68333333333334</ele><time>2025-02-08T23:29:00Z</time></trkpt><trkpt lat="34.177344" lon="133.0555708"><ele>340.1266666666667</ele><time>2025-02-08T23:29:33Z</time></trkpt><trkpt lat="34.1774994" lon="133.0554323"><ele>342.37000000000006</ele><time>2025-02-08T23:29:51Z</time></trkpt><trkpt lat="34.1776193" lon="133.0552484"><ele>344.4633333333333</ele><time>2025-02-08T23:30:09Z</time></trkpt><trkpt lat="34.1777182" lon="133.0550198"><ele>347.07666666666665</ele><time>2025-02-08T23:30:28Z</time></trkpt><trkpt lat="34.1776739" lon="133.0547963"><ele>348.91</ele><time>2025-02-08T23:30:45Z</time></trkpt><trkpt lat="34.1776331" lon="133.0545553"><ele>349.98</ele><time>2025-02-08T23:31:10Z</time></trkpt><trkpt lat="34.177637" lon="133.0543144"><ele>350.10999999999996</ele><time>2025-02-08T23:31:25Z</time></trkpt><trkpt lat="34.1774551" lon="133.0542097"><ele>350.22333333333336</ele><time>2025-02-08T23:31:41Z</time></trkpt><trkpt lat="34.1773473" lon="133.0540207"><ele>350.3433333333333</ele><time>2025-02-08T23:31:57Z</time></trkpt><trkpt lat="34.1772918" lon="133.0537847"><ele>350.6366666666666</ele><time>2025-02-08T23:32:25Z</time></trkpt><trkpt lat="34.1772051" lon="133.0535533"><ele>350.9466666666667</ele><time>2025-02-08T23:33:43Z</time></trkpt><trkpt lat="34.1769925" lon="133.0534592"><ele>351.02666666666664</ele><time>2025-02-08T23:33:55Z</time></trkpt><trkpt lat="34.1768646" lon="133.0532967"><ele>351.2966666666666</ele><time>2025-02-08T23:34:07Z</time></trkpt><trkpt lat="34.1767007" lon="133.0531808"><ele>351.73</ele><time>2025-02-08T23:34:22Z</time></trkpt><trkpt lat="34.176499" lon="133.0531716"><ele>352.43</ele><time>2025-02-08T23:34:40Z</time></trkpt><trkpt lat="34.1763261" lon="133.0532361"><ele>352.89000000000004</ele><time>2025-02-08T23:34:55Z</time></trkpt><trkpt lat="34.1761213" lon="133.0532392"><ele>353.16333333333336</ele><time>2025-02-08T23:35:37Z</time></trkpt><trkpt lat="34.1759329" lon="133.053212"><ele>354.1466666666667</ele><time>2025-02-08T23:35:49Z</time></trkpt><trkpt lat="34.1757559" lon="133.0531458"><ele>356.40000000000003</ele><time>2025-02-08T23:36:01Z</time></trkpt><trkpt lat="34.1755643" lon="133.0531873"><ele>359.4566666666667</ele><time>2025-02-08T23:36:16Z</time></trkpt><trkpt lat="34.1753715" lon="133.0532129"><ele>362.31666666666666</ele><time>2025-02-08T23:36:33Z</time></trkpt><trkpt lat="34.1751823" lon="133.0531244"><ele>364.74666666666667</ele><time>2025-02-08T23:36:49Z</time></trkpt><trkpt lat="34.1749844" lon="133.0531403"><ele>367.10999999999996</ele><time>2025-02-08T23:37:07Z</time></trkpt><trkpt lat="34.1747851" lon="133.0531121"><ele>369.9666666666667</ele><time>2025-02-08T23:37:31Z</time></trkpt><trkpt lat="34.174601" lon="133.0530598"><ele>373.7266666666667</ele><time>2025-02-08T23:38:36Z</time></trkpt><trkpt lat="34.1747341" lon="133.0532069"><ele>374.65000000000003</ele><time>2025-02-08T23:43:10Z</time></trkpt><trkpt lat="34.1749429" lon="133.0531695"><ele>373.8733333333334</ele><time>2025-02-08T23:43:28Z</time></trkpt><trkpt lat="34.1751265" lon="133.0531567"><ele>370.3666666666666</ele><time>2025-02-08T23:43:43Z</time></trkpt><trkpt lat="34.1753324" lon="133.0532179"><ele>367.7033333333333</ele><time>2025-02-08T23:43:58Z</time></trkpt><trkpt lat="34.1755098" lon="133.0532575"><ele>365.1133333333333</ele><time>2025-02-08T23:44:13Z</time></trkpt><trkpt lat="34.1757136" lon="133.0532096"><ele>362.8433333333333</ele><time>2025-02-08T23:44:28Z</time></trkpt><trkpt lat="34.1759152" lon="133.0532388"><ele>359.98333333333335</ele><time>2025-02-08T23:44:46Z</time></trkpt><trkpt lat="34.1761032" lon="133.0532036"><ele>356.81333333333333</ele><time>2025-02-08T23:45:13Z</time></trkpt><trkpt lat="34.1762843" lon="133.0532263"><ele>354.20666666666665</ele><time>2025-02-08T23:45:26Z</time></trkpt><trkpt lat="34.1764898" lon="133.0532308"><ele>352.96000000000004</ele><time>2025-02-08T23:45:37Z</time></trkpt><trkpt lat="34.1767041" lon="133.053219"><ele>352.42</ele><time>2025-02-08T23:45:53Z</time></trkpt><trkpt lat="34.1768802" lon="133.0533591"><ele>351.95666666666665</ele><time>2025-02-08T23:46:10Z</time></trkpt><trkpt lat="34.1770362" lon="133.0535145"><ele>351.72333333333336</ele><time>2025-02-08T23:46:25Z</time></trkpt><trkpt lat="34.1772063" lon="133.0536568"><ele>351.36999999999995</ele><time>2025-02-08T23:46:40Z</time></trkpt><trkpt lat="34.1773532" lon="133.0538086"><ele>351.1066666666666</ele><time>2025-02-08T23:46:55Z</time></trkpt><trkpt lat="34.1773869" lon="133.0540466"><ele>350.89000000000004</ele><time>2025-02-08T23:47:10Z</time></trkpt><trkpt lat="34.1774513" lon="133.0542716"><ele>350.77666666666664</ele><time>2025-02-08T23:47:25Z</time></trkpt><trkpt lat="34.1776302" lon="133.054408"><ele>350.54333333333335</ele><time>2025-02-08T23:47:40Z</time></trkpt><trkpt lat="34.1776748" lon="133.0546352"><ele>350.31333333333333</ele><time>2025-02-08T23:47:55Z</time></trkpt><trkpt lat="34.177619" lon="133.0548829"><ele>350.10999999999996</ele><time>2025-02-08T23:48:10Z</time></trkpt><trkpt lat="34.1776477" lon="133.0551351"><ele>348.93666666666667</ele><time>2025-02-08T23:48:26Z</time></trkpt><trkpt lat="34.1775213" lon="133.0553284"><ele>347.1266666666667</ele><time>2025-02-08T23:48:43Z</time></trkpt><trkpt lat="34.177366" lon="133.055469"><ele>344.0733333333333</ele><time>2025-02-08T23:48:58Z</time></trkpt><trkpt lat="34.1773367" lon="133.0556986"><ele>342.3866666666667</ele><time>2025-02-08T23:49:13Z</time></trkpt><trkpt lat="34.1774829" lon="133.0558425"><ele>340.83000000000004</ele><time>2025-02-08T23:49:28Z</time></trkpt><trkpt lat="34.1776688" lon="133.0558866"><ele>338.32666666666665</ele><time>2025-02-08T23:49:40Z</time></trkpt><trkpt lat="34.1778575" lon="133.0559591"><ele>334.27666666666664</ele><time>2025-02-08T23:49:52Z</time></trkpt><trkpt lat="34.1779146" lon="133.0561712"><ele>330.00333333333333</ele><time>2025-02-08T23:50:06Z</time></trkpt><trkpt lat="34.177892" lon="133.0563992"><ele>326.55</ele><time>2025-02-08T23:50:24Z</time></trkpt><trkpt lat="34.1779288" lon="133.056627"><ele>324.3866666666667</ele><time>2025-02-08T23:50:39Z</time></trkpt><trkpt lat="34.1780431" lon="133.0568565"><ele>323.02333333333337</ele><time>2025-02-08T23:50:54Z</time></trkpt><trkpt lat="34.178114" lon="133.0571086"><ele>323.0466666666667</ele><time>2025-02-08T23:51:09Z</time></trkpt><trkpt lat="34.1781517" lon="133.0573251"><ele>323.07</ele><time>2025-02-08T23:51:21Z</time></trkpt><trkpt lat="34.1782523" lon="133.0575625"><ele>322.74333333333334</ele><time>2025-02-08T23:51:37Z</time></trkpt><trkpt lat="34.1783403" lon="133.0577669"><ele>322.97666666666663</ele><time>2025-02-08T23:51:52Z</time></trkpt><trkpt lat="34.1785597" lon="133.0577693"><ele>321.6133333333333</ele><time>2025-02-08T23:52:10Z</time></trkpt><trkpt lat="34.1787654" lon="133.0578042"><ele>319.9633333333333</ele><time>2025-02-08T23:52:25Z</time></trkpt><trkpt lat="34.1789587" lon="133.057836"><ele>316.7366666666667</ele><time>2025-02-08T23:52:40Z</time></trkpt><trkpt lat="34.1791695" lon="133.0579152"><ele>314.5166666666667</ele><time>2025-02-08T23:52:54Z</time></trkpt><trkpt lat="34.1792886" lon="133.0580933"><ele>312.31333333333333</ele><time>2025-02-08T23:53:06Z</time></trkpt><trkpt lat="34.1793917" lon="133.058302"><ele>310.37666666666667</ele><time>2025-02-08T23:53:18Z</time></trkpt><trkpt lat="34.179456" lon="133.0585551"><ele>307.8966666666667</ele><time>2025-02-08T23:53:32Z</time></trkpt><trkpt lat="34.1794966" lon="133.0588057"><ele>305.0133333333333</ele><time>2025-02-08T23:53:46Z</time></trkpt><trkpt lat="34.1795751" lon="133.0590333"><ele>301.84000000000003</ele><time>2025-02-08T23:54:00Z</time></trkpt><trkpt lat="34.1797382" lon="133.0591676"><ele>298.9666666666667</ele><time>2025-02-08T23:54:11Z</time></trkpt><trkpt lat="34.1799247" lon="133.0592231"><ele>295.9533333333334</ele><time>2025-02-08T23:54:22Z</time></trkpt><trkpt lat="34.1801098" lon="133.0592715"><ele>292.62333333333333</ele><time>2025-02-08T23:54:34Z</time></trkpt><trkpt lat="34.1803063" lon="133.0593517"><ele>289.47666666666663</ele><time>2025-02-08T23:54:49Z</time></trkpt><trkpt lat="34.1802608" lon="133.0595872"><ele>287.08</ele><time>2025-02-08T23:55:07Z</time></trkpt><trkpt lat="34.1801702" lon="133.0598128"><ele>285.08666666666664</ele><time>2025-02-08T23:55:22Z</time></trkpt><trkpt lat="34.1801279" lon="133.0600387"><ele>283.25333333333333</ele><time>2025-02-08T23:55:37Z</time></trkpt><trkpt lat="34.1802317" lon="133.0602464"><ele>280.18</ele><time>2025-02-08T23:55:52Z</time></trkpt><trkpt lat="34.1803126" lon="133.0604712"><ele>277.47</ele><time>2025-02-08T23:56:06Z</time></trkpt><trkpt lat="34.180191" lon="133.0606616"><ele>274.06</ele><time>2025-02-08T23:56:21Z</time></trkpt><trkpt lat="34.1800426" lon="133.0608386"><ele>270.25</ele><time>2025-02-08T23:56:35Z</time></trkpt><trkpt lat="34.1798879" lon="133.0609906"><ele>266.18</ele><time>2025-02-08T23:56:49Z</time></trkpt><trkpt lat="34.1797893" lon="133.0612028"><ele>263.57</ele><time>2025-02-08T23:57:01Z</time></trkpt><trkpt lat="34.1797951" lon="133.0614333"><ele>263.1066666666667</ele><time>2025-02-08T23:57:16Z</time></trkpt><trkpt lat="34.179847" lon="133.0616435"><ele>264.09</ele><time>2025-02-08T23:57:28Z</time></trkpt><trkpt lat="34.1798187" lon="133.0618767"><ele>265.36333333333334</ele><time>2025-02-08T23:57:43Z</time></trkpt><trkpt lat="34.1797979" lon="133.0621329"><ele>266.4766666666667</ele><time>2025-02-08T23:57:58Z</time></trkpt><trkpt lat="34.179756" lon="133.062378"><ele>266.26000000000005</ele><time>2025-02-08T23:58:12Z</time></trkpt><trkpt lat="34.1797376" lon="133.0626354"><ele>263.30333333333334</ele><time>2025-02-08T23:58:49Z</time></trkpt><trkpt lat="34.1797987" lon="133.0628953"><ele>258.74</ele><time>2025-02-08T23:59:01Z</time></trkpt><trkpt lat="34.1798979" lon="133.0631299"><ele>253.07666666666668</ele><time>2025-02-08T23:59:12Z</time></trkpt><trkpt lat="34.1800244" lon="133.0632916"><ele>247.41666666666666</ele><time>2025-02-08T23:59:24Z</time></trkpt><trkpt lat="34.1800959" lon="133.0635342"><ele>240.85666666666665</ele><time>2025-02-08T23:59:38Z</time></trkpt><trkpt lat="34.1801655" lon="133.0637605"><ele>234.77</ele><time>2025-02-08T23:59:52Z</time></trkpt><trkpt lat="34.1802128" lon="133.0639987"><ele>228.64</ele><time>2025-02-09T00:00:07Z</time></trkpt><trkpt lat="34.1802775" lon="133.0642244"><ele>225.08333333333334</ele><time>2025-02-09T00:00:21Z</time></trkpt><trkpt lat="34.1804646" lon="133.0643446"><ele>221.13333333333333</ele><time>2025-02-09T00:00:38Z</time></trkpt><trkpt lat="34.1805571" lon="133.0641137"><ele>218.0666666666667</ele><time>2025-02-09T00:00:53Z</time></trkpt><trkpt lat="34.1805741" lon="133.0638712"><ele>213.97333333333336</ele><time>2025-02-09T00:01:07Z</time></trkpt><trkpt lat="34.1806795" lon="133.064074"><ele>210.4333333333333</ele><time>2025-02-09T00:01:22Z</time></trkpt><trkpt lat="34.1807125" lon="133.0642954"><ele>207.26</ele><time>2025-02-09T00:01:34Z</time></trkpt><trkpt lat="34.1807887" lon="133.0645226"><ele>204.17666666666665</ele><time>2025-02-09T00:01:49Z</time></trkpt><trkpt lat="34.1808676" lon="133.0647556"><ele>201.21666666666667</ele><time>2025-02-09T00:02:04Z</time></trkpt><trkpt lat="34.1807554" lon="133.0649551"><ele>197.27666666666667</ele><time>2025-02-09T00:02:25Z</time></trkpt><trkpt lat="34.1805771" lon="133.0651086"><ele>193.89000000000001</ele><time>2025-02-09T00:02:39Z</time></trkpt><trkpt lat="34.1805432" lon="133.0653422"><ele>188.91666666666666</ele><time>2025-02-09T00:02:51Z</time></trkpt><trkpt lat="34.1805848" lon="133.0655612"><ele>184.47000000000003</ele><time>2025-02-09T00:03:02Z</time></trkpt><trkpt lat="34.1806485" lon="133.0657653"><ele>179.36</ele><time>2025-02-09T00:03:14Z</time></trkpt><trkpt lat="34.180738" lon="133.0659877"><ele>176.03333333333333</ele><time>2025-02-09T00:03:25Z</time></trkpt><trkpt lat="34.1808125" lon="133.0662039"><ele>173.7166666666667</ele><time>2025-02-09T00:03:40Z</time></trkpt><trkpt lat="34.1809753" lon="133.0662982"><ele>171.48</ele><time>2025-02-09T00:03:52Z</time></trkpt><trkpt lat="34.181095" lon="133.0664834"><ele>166.94333333333336</ele><time>2025-02-09T00:04:09Z</time></trkpt><trkpt lat="34.180896" lon="133.0665919"><ele>162.34</ele><time>2025-02-09T00:04:24Z</time></trkpt><trkpt lat="34.1806987" lon="133.0666003"><ele>158.96333333333334</ele><time>2025-02-09T00:04:36Z</time></trkpt><trkpt lat="34.1805126" lon="133.0666842"><ele>157.34333333333333</ele><time>2025-02-09T00:04:51Z</time></trkpt><trkpt lat="34.1803311" lon="133.0666696"><ele>153.97</ele><time>2025-02-09T00:05:03Z</time></trkpt></trkseg></trk></gpx>