<?xml version='1.0' encoding='UTF-8'?><gpx creator="Yama Museum Peak Annotator" xsi:schemaLocation="http://www.topografix.com/GPX/1/1 http://www.topografix.com/GPX/1/1/gpx.xsd" version="1.1" xmlns="http://www.topografix.com/GPX/1/1" xmlns:xsi="http://www.w3.org/2001/XMLSchema-instance"><metadata><bounds maxlat="34.0867774" maxlon="132.9742244" minlat="34.0852262" minlon="132.9708714"/></metadata>  <wpt lat="34.0853958" lon="132.9709549">
    <ele>239.86</ele>
    <name>近見山</name>
    <desc>Peak detected at 240m (prominence: 69m)</desc>
    <sym>Summit</sym>
  </wpt>
<trk><name>近見山</name><number>1</number><trkseg><trkpt lat="34.0864865" lon="132.9742244"><ele>150.56</ele><time>2022-12-25T02:41:13Z</time></trkpt><trkpt lat="34.0865269" lon="132.9740102"><ele>152.89</ele><time>2022-12-25T02:42:38Z</time></trkpt><trkpt lat="34.0864886" lon="132.9737918"><ele>155.24666666666667</ele><time>2022-12-25T02:42:54Z</time></trkpt><trkpt lat="34.0865745" lon="132.9735984"><ele>159.18666666666667</ele><time>2022-12-25T02:43:47Z</time></trkpt><trkpt lat="34.0864096" lon="132.9735"><ele>163.73666666666668</ele><time>2022-12-25T02:44:23Z</time></trkpt><trkpt lat="34.0863398" lon="132.9732929"><ele>169.19</ele><time>2022-12-25T02:44:37Z</time></trkpt><trkpt lat="34.0862762" lon="132.9730791"><ele>177.42999999999998</ele><time>2022-12-25T02:45:04Z</time></trkpt><trkpt lat="34.0861815" lon="132.9728778"><ele>186.26</ele><time>2022-12-25T02:46:36Z</time></trkpt><trkpt lat="34.086294" lon="132.972699"><ele>193.12</ele><time>2022-12-25T02:46:48Z</time></trkpt><trkpt lat="34.0864403" lon="132.9725602"><ele>196.4433333333333</ele><time>2022-12-25T02:47:01Z</time></trkpt><trkpt lat="34.0865302" lon="132.9723661"><ele>198.1866666666667</ele><time>2022-12-25T02:47:12Z</time></trkpt><trkpt lat="34.0865655" lon="132.972145"><ele>202.85333333333332</ele><time>2022-12-25T02:47:27Z</time></trkpt><trkpt lat="34.0866732" lon="132.9719626"><ele>207.53</ele><time>2022-12-25T02:47:54Z</time></trkpt><trkpt lat="34.0867573" lon="132.9717522"><ele>210.4333333333333</ele><time>2022-12-25T02:48:07Z</time></trkpt><trkpt lat="34.0865875" lon="132.9718362"><ele>211.38333333333333</ele><time>2022-12-25T02:48:44Z</time></trkpt><trkpt lat="34.0864048" lon="132.9718873"><ele>214.19000000000003</ele><time>2022-12-25T02:49:40Z</time></trkpt><trkpt lat="34.0862325" lon="132.9719673"><ele>219.85</ele><time>2022-12-25T02:49:53Z</time></trkpt><trkpt lat="34.0860603" lon="132.9718909"><ele>227.09333333333333</ele><time>2022-12-25T02:50:15Z</time></trkpt><trkpt lat="34.0858856" lon="132.9718191"><ele>233.83</ele><time>2022-12-25T02:50:49Z</time></trkpt><trkpt lat="34.0857202" lon="132.9717295"><ele>238.11333333333334</ele><time>2022-12-25T02:52:06Z</time></trkpt><trkpt lat="34.0856451" lon="132.971524"><ele>237.51666666666665</ele><time>2022-12-25T02:52:26Z</time></trkpt><trkpt lat="34.0855594" lon="132.9713055"><ele>235.18666666666664</ele><time>2022-12-25T02:52:37Z</time></trkpt><trkpt lat="34.0855443" lon="132.9710817"><ele>233.95666666666668</ele><time>2022-12-25T02:52:48Z</time></trkpt><trkpt lat="34.0853926" lon="132.9709585"><ele>235.73666666666668</ele><time>2022-12-25T02:53:36Z</time></trkpt><trkpt lat="34.0852262" lon="132.9708714"><ele>238.66333333333333</ele><time>2022-12-25T02:54:37Z</time></trkpt><trkpt lat="34.0853958" lon="132.9709549"><ele>239.86</ele><time>2022-12-25T02:55:44Z</time></trkpt><trkpt lat="34.0855104" lon="132.9711281"><ele>238.66333333333333</ele><time>2022-12-25T02:57:01Z</time></trkpt><trkpt lat="34.0855985" lon="132.9713241"><ele>235.16666666666666</ele><time>2022-12-25T02:57:14Z</time></trkpt><trkpt lat="34.0856423" lon="132.9715346"><ele>233.38666666666668</ele><time>2022-12-25T02:57:30Z</time></trkpt><trkpt lat="34.0857582" lon="132.9717018"><ele>234.89333333333335</ele><time>2022-12-25T02:57:47Z</time></trkpt><trkpt lat="34.0859397" lon="132.9716882"><ele>236.95333333333335</ele><time>2022-12-25T02:59:21Z</time></trkpt><trkpt lat="34.0860876" lon="132.971825"><ele>236.84666666666666</ele><time>2022-12-25T03:04:27Z</time></trkpt><trkpt lat="34.0862707" lon="132.9717595"><ele>232.43333333333337</ele><time>2022-12-25T03:05:12Z</time></trkpt><trkpt lat="34.0864458" lon="132.9716852"><ele>224.58333333333334</ele><time>2022-12-25T03:05:23Z</time></trkpt><trkpt lat="34.0866225" lon="132.9716209"><ele>215.95333333333335</ele><time>2022-12-25T03:05:35Z</time></trkpt><trkpt lat="34.0867774" lon="132.9715"><ele>207.29333333333332</ele><time>2022-12-25T03:05:52Z</time></trkpt><trkpt lat="34.0867578" lon="132.9717349"><ele>205.12333333333333</ele><time>2022-12-25T03:06:07Z</time></trkpt><trkpt lat="34.086733" lon="132.9719506"><ele>205.64</ele><time>2022-12-25T03:06:20Z</time></trkpt><trkpt lat="34.0866426" lon="132.9721437"><ele>208.28</ele><time>2022-12-25T03:06:36Z</time></trkpt><trkpt lat="34.0865996" lon="132.9723651"><ele>204.93666666666664</ele><time>2022-12-25T03:06:53Z</time></trkpt><trkpt lat="34.0864041" lon="132.9723637"><ele>203.98666666666668</ele><time>2022-12-25T03:07:08Z</time></trkpt><trkpt lat="34.0863461" lon="132.9725866"><ele>201.95333333333335</ele><time>2022-12-25T03:07:27Z</time></trkpt><trkpt lat="34.0863993" lon="132.972803"><ele>199.85333333333332</ele><time>2022-12-25T03:07:44Z</time></trkpt><trkpt lat="34.0864622" lon="132.9730093"><ele>191.39</ele><time>2022-12-25T03:08:00Z</time></trkpt><trkpt lat="34.0864816" lon="132.9732304"><ele>182.14333333333335</ele><time>2022-12-25T03:08:16Z</time></trkpt><trkpt lat="34.0865123" lon="132.973445"><ele>174.64000000000001</ele><time>2022-12-25T03:08:40Z</time></trkpt><trkpt lat="34.0866299" lon="132.9736193"><ele>168.50333333333333</ele><time>2022-12-25T03:09:32Z</time></trkpt><trkpt lat="34.0866161" lon="132.9738414"><ele>162.75</ele><time>2022-12-25T03:09:47Z</time></trkpt></trkseg></trk></gpx>