<?xml version='1.0' encoding='UTF-8'?><gpx creator="Yama Museum Peak Annotator" xsi:schemaLocation="http://www.topografix.com/GPX/1/1 http://www.topografix.com/GPX/1/1/gpx.xsd" version="1.1" xmlns="http://www.topografix.com/GPX/1/1" xmlns:xsi="http://www.w3.org/2001/XMLSchema-instance"><metadata><bounds maxlat="34.0065676" maxlon="132.8200358" minlat="34.0030442" minlon="132.8179512"/></metadata>  <wpt lat="34.0063802" lon="132.8186843">
    <ele>289.7633333333333</ele>
    <name>名石山</name>
    <desc>Peak detected at 290m (prominence: 95m)</desc>
    <sym>Summit</sym>
  </wpt>
<trk><name>名石山</name><number>1</number><trkseg><trkpt lat="34.0032364" lon="132.8185444"><ele>184.88</ele><time>2024-05-15T02:16:58Z</time></trkpt><trkpt lat="34.003387" lon="132.8184245"><ele>190.755</ele><time>2024-05-15T02:17:58Z</time></trkpt><trkpt lat="34.0033753" lon="132.8181909"><ele>193.36333333333334</ele><time>2024-05-15T02:18:53Z</time></trkpt><trkpt lat="34.0035273" lon="132.8183205"><ele>199.48333333333335</ele><time>2024-05-15T02:19:59Z</time></trkpt><trkpt lat="34.0036292" lon="132.8185163"><ele>201.30000000000004</ele><time>2024-05-15T02:20:16Z</time></trkpt><trkpt lat="34.0037848" lon="132.8186544"><ele>201.44333333333336</ele><time>2024-05-15T02:20:33Z</time></trkpt><trkpt lat="34.0039968" lon="132.8186412"><ele>201.09</ele><time>2024-05-15T02:20:47Z</time></trkpt><trkpt lat="34.0041905" lon="132.8186626"><ele>202.28</ele><time>2024-05-15T02:21:04Z</time></trkpt><trkpt lat="34.004302" lon="132.8188929"><ele>202.78666666666666</ele><time>2024-05-15T02:21:22Z</time></trkpt><trkpt lat="34.0044863" lon="132.8189558"><ele>203.66333333333333</ele><time>2024-05-15T02:22:02Z</time></trkpt><trkpt lat="34.0045916" lon="132.8191807"><ele>204.62</ele><time>2024-05-15T02:22:26Z</time></trkpt><trkpt lat="34.0047533" lon="132.8192806"><ele>208.1866666666667</ele><time>2024-05-15T02:22:38Z</time></trkpt><trkpt lat="34.0049234" lon="132.8193728"><ele>211.6966666666667</ele><time>2024-05-15T02:22:52Z</time></trkpt><trkpt lat="34.0049814" lon="132.8195827"><ele>215.76333333333335</ele><time>2024-05-15T02:23:12Z</time></trkpt><trkpt lat="34.0047753" lon="132.819632"><ele>215.36</ele><time>2024-05-15T02:23:26Z</time></trkpt><trkpt lat="34.0046619" lon="132.8198325"><ele>215.32666666666668</ele><time>2024-05-15T02:23:41Z</time></trkpt><trkpt lat="34.0048172" lon="132.8199508"><ele>216.1833333333333</ele><time>2024-05-15T02:24:41Z</time></trkpt><trkpt lat="34.0050244" lon="132.8199336"><ele>222.93666666666664</ele><time>2024-05-15T02:25:02Z</time></trkpt><trkpt lat="34.0051873" lon="132.8198149"><ele>228.79</ele><time>2024-05-15T02:25:39Z</time></trkpt><trkpt lat="34.0053668" lon="132.8196995"><ele>233.18333333333337</ele><time>2024-05-15T02:26:12Z</time></trkpt><trkpt lat="34.005443" lon="132.819502"><ele>236.35999999999999</ele><time>2024-05-15T02:26:24Z</time></trkpt><trkpt lat="34.0056127" lon="132.8193612"><ele>241.38333333333333</ele><time>2024-05-15T02:26:46Z</time></trkpt><trkpt lat="34.005732" lon="132.8191517"><ele>247.91333333333333</ele><time>2024-05-15T02:27:09Z</time></trkpt><trkpt lat="34.0058921" lon="132.819006"><ele>255.9666666666667</ele><time>2024-05-15T02:27:35Z</time></trkpt><trkpt lat="34.0057431" lon="132.8188622"><ele>259.7733333333333</ele><time>2024-05-15T02:28:42Z</time></trkpt><trkpt lat="34.0058684" lon="132.8190323"><ele>262.41</ele><time>2024-05-15T02:29:20Z</time></trkpt><trkpt lat="34.006045" lon="132.8189586"><ele>263.83666666666664</ele><time>2024-05-15T02:29:44Z</time></trkpt><trkpt lat="34.0062303" lon="132.8189492"><ele>270.6766666666667</ele><time>2024-05-15T02:30:24Z</time></trkpt><trkpt lat="34.0063999" lon="132.8188297"><ele>278.94</ele><time>2024-05-15T02:30:56Z</time></trkpt><trkpt lat="34.0065676" lon="132.8187294"><ele>286.9733333333333</ele><time>2024-05-15T02:31:26Z</time></trkpt><trkpt lat="34.0063802" lon="132.8186843"><ele>289.7633333333333</ele><time>2024-05-15T02:31:58Z</time></trkpt><trkpt lat="34.0063283" lon="132.8188975"><ele>287.78666666666663</ele><time>2024-05-15T02:43:15Z</time></trkpt><trkpt lat="34.0061175" lon="132.8189863"><ele>280.7133333333333</ele><time>2024-05-15T02:43:29Z</time></trkpt><trkpt lat="34.0059365" lon="132.8189942"><ele>273.29333333333335</ele><time>2024-05-15T02:43:55Z</time></trkpt><trkpt lat="34.0057716" lon="132.8191221"><ele>265.1233333333333</ele><time>2024-05-15T02:44:28Z</time></trkpt><trkpt lat="34.0056099" lon="132.8192675"><ele>258.07</ele><time>2024-05-15T02:44:42Z</time></trkpt><trkpt lat="34.0055002" lon="132.8194509"><ele>250.5633333333333</ele><time>2024-05-15T02:44:57Z</time></trkpt><trkpt lat="34.0053397" lon="132.8195736"><ele>243.01666666666665</ele><time>2024-05-15T02:45:11Z</time></trkpt><trkpt lat="34.0052514" lon="132.8197838"><ele>237.76666666666668</ele><time>2024-05-15T02:45:26Z</time></trkpt><trkpt lat="34.0050688" lon="132.8198677"><ele>233.23333333333335</ele><time>2024-05-15T02:45:48Z</time></trkpt><trkpt lat="34.0048558" lon="132.8198616"><ele>228.49333333333334</ele><time>2024-05-15T02:46:31Z</time></trkpt><trkpt lat="34.0047467" lon="132.8200358"><ele>224.61666666666667</ele><time>2024-05-15T02:46:43Z</time></trkpt><trkpt lat="34.0046106" lon="132.819882"><ele>218.59333333333333</ele><time>2024-05-15T02:47:00Z</time></trkpt><trkpt lat="34.0047374" lon="132.8196896"><ele>215.72333333333336</ele><time>2024-05-15T02:47:16Z</time></trkpt><trkpt lat="34.0049165" lon="132.8196592"><ele>214.7966666666667</ele><time>2024-05-15T02:47:34Z</time></trkpt><trkpt lat="34.0047861" lon="132.8194526"><ele>213.45333333333335</ele><time>2024-05-15T02:47:53Z</time></trkpt><trkpt lat="34.0046475" lon="132.8192923"><ele>212.07000000000002</ele><time>2024-05-15T02:48:08Z</time></trkpt><trkpt lat="34.0045095" lon="132.8191077"><ele>207.98333333333335</ele><time>2024-05-15T02:48:22Z</time></trkpt><trkpt lat="34.0044312" lon="132.818892"><ele>206.26</ele><time>2024-05-15T02:48:40Z</time></trkpt><trkpt lat="34.0042747" lon="132.8187004"><ele>204.44000000000003</ele><time>2024-05-15T02:48:55Z</time></trkpt><trkpt lat="34.004053" lon="132.8186979"><ele>202.96</ele><time>2024-05-15T02:49:11Z</time></trkpt><trkpt lat="34.0038621" lon="132.8186089"><ele>203.59333333333333</ele><time>2024-05-15T02:49:29Z</time></trkpt><trkpt lat="34.0038598" lon="132.8183853"><ele>205.32666666666668</ele><time>2024-05-15T02:49:44Z</time></trkpt><trkpt lat="34.0036756" lon="132.8182207"><ele>207.07000000000002</ele><time>2024-05-15T02:50:02Z</time></trkpt><trkpt lat="34.0034563" lon="132.8181654"><ele>206.05999999999997</ele><time>2024-05-15T02:50:14Z</time></trkpt><trkpt lat="34.0033747" lon="132.8179512"><ele>202.29999999999998</ele><time>2024-05-15T02:50:26Z</time></trkpt><trkpt lat="34.003337" lon="132.818191"><ele>198.0233333333333</ele><time>2024-05-15T02:50:50Z</time></trkpt><trkpt lat="34.0033729" lon="132.8184119"><ele>196.4333333333333</ele><time>2024-05-15T02:51:05Z</time></trkpt><trkpt lat="34.0033298" lon="132.8186235"><ele>192.71</ele><time>2024-05-15T02:51:24Z</time></trkpt><trkpt lat="34.0031775" lon="132.8184591"><ele>188.78666666666666</ele><time>2024-05-15T02:51:41Z</time></trkpt><trkpt lat="34.0030442" lon="132.8183009"><ele>183.04666666666665</ele><time>2024-05-15T02:51:57Z</time></trkpt></trkseg></trk></gpx>