<?xml version='1.0' encoding='UTF-8'?><gpx creator="Yama Museum Peak Annotator" xsi:schemaLocation="http://www.topografix.com/GPX/1/1 http://www.topografix.com/GPX/1/1/gpx.xsd" version="1.1" xmlns="http://www.topografix.com/GPX/1/1" xmlns:xsi="http://www.w3.org/2001/XMLSchema-instance"><metadata><bounds maxlat="33.6832083" maxlon="132.8278062" minlat="33.6654254" minlon="132.8150579"/></metadata>  <wpt lat="33.6707038" lon="132.8271198">
    <ele>1008.4066666666666</ele>
    <name>北ヶ森</name>
    <desc>Peak detected at 1008m (prominence: 106m)</desc>
    <sym>Summit</sym>
  </wpt>
<trk><name>北ヶ森・高土の峰</name><number>1</number><trkseg><trkpt lat="33.6807563" lon="132.8219771"><ele>902.0</ele><time>2025-03-23T02:12:32Z</time></trkpt><trkpt lat="33.6805934" lon="132.8218679"><ele>901.505</ele><time>2025-03-23T02:13:29Z</time></trkpt><trkpt lat="33.6804071" lon="132.8218369"><ele>900.6466666666666</ele><time>2025-03-23T02:13:41Z</time></trkpt><trkpt lat="33.6801991" lon="132.8218987"><ele>900.0533333333333</ele><time>2025-03-23T02:13:56Z</time></trkpt><trkpt lat="33.6800622" lon="132.8220393"><ele>900.2166666666667</ele><time>2025-03-23T02:14:12Z</time></trkpt><trkpt lat="33.6798909" lon="132.8221568"><ele>900.3733333333333</ele><time>2025-03-23T02:14:36Z</time></trkpt><trkpt lat="33.6798613" lon="132.8224006"><ele>900.5100000000001</ele><time>2025-03-23T02:14:51Z</time></trkpt><trkpt lat="33.6797526" lon="132.8226027"><ele>901.6633333333333</ele><time>2025-03-23T02:15:09Z</time></trkpt><trkpt lat="33.6796358" lon="132.8227876"><ele>904.3533333333335</ele><time>2025-03-23T02:15:27Z</time></trkpt><trkpt lat="33.6794381" lon="132.8226789"><ele>907.8100000000001</ele><time>2025-03-23T02:15:42Z</time></trkpt><trkpt lat="33.6793025" lon="132.8225273"><ele>910.91</ele><time>2025-03-23T02:15:56Z</time></trkpt><trkpt lat="33.6792258" lon="132.8223142"><ele>915.23</ele><time>2025-03-23T02:16:23Z</time></trkpt><trkpt lat="33.679087" lon="132.8221289"><ele>920.5866666666667</ele><time>2025-03-23T02:16:41Z</time></trkpt><trkpt lat="33.6788967" lon="132.8221335"><ele>921.8933333333334</ele><time>2025-03-23T02:16:55Z</time></trkpt><trkpt lat="33.678718" lon="132.8220712"><ele>921.4733333333334</ele><time>2025-03-23T02:17:15Z</time></trkpt><trkpt lat="33.6786015" lon="132.8218876"><ele>920.7700000000001</ele><time>2025-03-23T02:17:32Z</time></trkpt><trkpt lat="33.6784058" lon="132.8218287"><ele>923.6766666666667</ele><time>2025-03-23T02:17:49Z</time></trkpt><trkpt lat="33.6782017" lon="132.8217737"><ele>927.5533333333334</ele><time>2025-03-23T02:18:08Z</time></trkpt><trkpt lat="33.6780099" lon="132.8218156"><ele>929.2133333333335</ele><time>2025-03-23T02:18:36Z</time></trkpt><trkpt lat="33.6778344" lon="132.8219292"><ele>930.9766666666668</ele><time>2025-03-23T02:18:50Z</time></trkpt><trkpt lat="33.6776511" lon="132.8219409"><ele>931.82</ele><time>2025-03-23T02:19:08Z</time></trkpt><trkpt lat="33.6774373" lon="132.821898"><ele>933.6566666666668</ele><time>2025-03-23T02:19:27Z</time></trkpt><trkpt lat="33.6772454" lon="132.8219526"><ele>936.12</ele><time>2025-03-23T02:19:42Z</time></trkpt><trkpt lat="33.6771623" lon="132.8221599"><ele>938.5200000000001</ele><time>2025-03-23T02:19:56Z</time></trkpt><trkpt lat="33.677047" lon="132.8223679"><ele>940.1133333333333</ele><time>2025-03-23T02:20:15Z</time></trkpt><trkpt lat="33.6768434" lon="132.8222845"><ele>941.66</ele><time>2025-03-23T02:20:29Z</time></trkpt><trkpt lat="33.6766519" lon="132.8222257"><ele>942.8066666666667</ele><time>2025-03-23T02:20:47Z</time></trkpt><trkpt lat="33.6764595" lon="132.8220925"><ele>945.5533333333333</ele><time>2025-03-23T02:21:02Z</time></trkpt><trkpt lat="33.6763169" lon="132.8219569"><ele>948.8233333333334</ele><time>2025-03-23T02:21:17Z</time></trkpt><trkpt lat="33.6762253" lon="132.8221617"><ele>949.9633333333333</ele><time>2025-03-23T02:21:35Z</time></trkpt><trkpt lat="33.6761503" lon="132.8223801"><ele>948.7233333333334</ele><time>2025-03-23T02:21:45Z</time></trkpt><trkpt lat="33.6759628" lon="132.8224835"><ele>946.3666666666667</ele><time>2025-03-23T02:21:59Z</time></trkpt><trkpt lat="33.6758182" lon="132.8226296"><ele>947.4533333333334</ele><time>2025-03-23T02:22:15Z</time></trkpt><trkpt lat="33.6756448" lon="132.8227527"><ele>951.25</ele><time>2025-03-23T02:22:32Z</time></trkpt><trkpt lat="33.675537" lon="132.8229822"><ele>954.4466666666667</ele><time>2025-03-23T02:22:50Z</time></trkpt><trkpt lat="33.6753675" lon="132.8231165"><ele>956.4499999999999</ele><time>2025-03-23T02:23:08Z</time></trkpt><trkpt lat="33.6752371" lon="132.8232739"><ele>957.1833333333334</ele><time>2025-03-23T02:23:42Z</time></trkpt><trkpt lat="33.6751943" lon="132.8235278"><ele>959.1666666666666</ele><time>2025-03-23T02:24:12Z</time></trkpt><trkpt lat="33.6751851" lon="132.8237686"><ele>961.87</ele><time>2025-03-23T02:24:30Z</time></trkpt><trkpt lat="33.6752487" lon="132.8239949"><ele>965.2066666666666</ele><time>2025-03-23T02:24:48Z</time></trkpt><trkpt lat="33.67508" lon="132.8241256"><ele>967.68</ele><time>2025-03-23T02:25:17Z</time></trkpt><trkpt lat="33.6750056" lon="132.824324"><ele>969.4533333333334</ele><time>2025-03-23T02:25:29Z</time></trkpt><trkpt lat="33.674909" lon="132.8245269"><ele>969.6300000000001</ele><time>2025-03-23T02:25:44Z</time></trkpt><trkpt lat="33.6747023" lon="132.8245819"><ele>968.5466666666667</ele><time>2025-03-23T02:25:59Z</time></trkpt><trkpt lat="33.6745894" lon="132.8243973"><ele>967.73</ele><time>2025-03-23T02:26:17Z</time></trkpt><trkpt lat="33.6745056" lon="132.8241861"><ele>967.96</ele><time>2025-03-23T02:26:38Z</time></trkpt><trkpt lat="33.674351" lon="132.8240447"><ele>968.07</ele><time>2025-03-23T02:26:53Z</time></trkpt><trkpt lat="33.6741583" lon="132.8239862"><ele>968.6466666666666</ele><time>2025-03-23T02:27:14Z</time></trkpt><trkpt lat="33.6740019" lon="132.8241108"><ele>968.3333333333334</ele><time>2025-03-23T02:27:32Z</time></trkpt><trkpt lat="33.6738743" lon="132.8242662"><ele>968.5233333333334</ele><time>2025-03-23T02:28:14Z</time></trkpt><trkpt lat="33.6736717" lon="132.8242431"><ele>966.8000000000001</ele><time>2025-03-23T02:29:08Z</time></trkpt><trkpt lat="33.6734782" lon="132.8243687"><ele>966.0733333333334</ele><time>2025-03-23T02:29:41Z</time></trkpt><trkpt lat="33.6734242" lon="132.8245805"><ele>967.5933333333334</ele><time>2025-03-23T02:30:11Z</time></trkpt><trkpt lat="33.6732378" lon="132.8245452"><ele>970.4866666666667</ele><time>2025-03-23T02:30:35Z</time></trkpt><trkpt lat="33.6730573" lon="132.8245977"><ele>972.93</ele><time>2025-03-23T02:30:53Z</time></trkpt><trkpt lat="33.6728562" lon="132.8246416"><ele>974.3866666666667</ele><time>2025-03-23T02:31:11Z</time></trkpt><trkpt lat="33.6726758" lon="132.8247103"><ele>975.7333333333332</ele><time>2025-03-23T02:31:29Z</time></trkpt><trkpt lat="33.6724952" lon="132.8248093"><ele>976.0866666666667</ele><time>2025-03-23T02:31:50Z</time></trkpt><trkpt lat="33.6723595" lon="132.8250283"><ele>975.9800000000001</ele><time>2025-03-23T02:32:08Z</time></trkpt><trkpt lat="33.6722601" lon="132.8252402"><ele>977.0166666666668</ele><time>2025-03-23T02:32:35Z</time></trkpt><trkpt lat="33.6721078" lon="132.8254029"><ele>979.48</ele><time>2025-03-23T02:33:26Z</time></trkpt><trkpt lat="33.6719151" lon="132.8254679"><ele>982.8533333333334</ele><time>2025-03-23T02:33:43Z</time></trkpt><trkpt lat="33.6717519" lon="132.8253728"><ele>985.9100000000002</ele><time>2025-03-23T02:34:35Z</time></trkpt><trkpt lat="33.6715718" lon="132.8252713"><ele>989.2166666666667</ele><time>2025-03-23T02:35:29Z</time></trkpt><trkpt lat="33.6713928" lon="132.8252152"><ele>994.6166666666667</ele><time>2025-03-23T02:35:56Z</time></trkpt><trkpt lat="33.6712472" lon="132.825055"><ele>1000.85</ele><time>2025-03-23T02:36:42Z</time></trkpt><trkpt lat="33.6710612" lon="132.8251771"><ele>1005.8966666666666</ele><time>2025-03-23T02:40:22Z</time></trkpt><trkpt lat="33.6709468" lon="132.8253636"><ele>1006.4499999999999</ele><time>2025-03-23T02:40:44Z</time></trkpt><trkpt lat="33.6709108" lon="132.8255787"><ele>1004.61</ele><time>2025-03-23T02:43:58Z</time></trkpt><trkpt lat="33.6709149" lon="132.8258066"><ele>1003.1833333333334</ele><time>2025-03-23T02:52:01Z</time></trkpt><trkpt lat="33.670824" lon="132.826024"><ele>1002.9366666666666</ele><time>2025-03-23T02:52:31Z</time></trkpt><trkpt lat="33.6708165" lon="132.826268"><ele>1003.15</ele><time>2025-03-23T02:52:55Z</time></trkpt><trkpt lat="33.6707812" lon="132.8264933"><ele>1002.7199999999999</ele><time>2025-03-23T02:53:16Z</time></trkpt><trkpt lat="33.670828" lon="132.8267297"><ele>1004.1733333333333</ele><time>2025-03-23T02:53:40Z</time></trkpt><trkpt lat="33.6708433" lon="132.8269499"><ele>1006.5166666666668</ele><time>2025-03-23T02:54:09Z</time></trkpt><trkpt lat="33.6707038" lon="132.8271198"><ele>1008.4066666666666</ele><time>2025-03-23T02:54:42Z</time></trkpt><trkpt lat="33.6705411" lon="132.8272534"><ele>1007.1033333333334</ele><time>2025-03-23T02:55:06Z</time></trkpt><trkpt lat="33.6703704" lon="132.8273513"><ele>1004.6866666666666</ele><time>2025-03-23T02:55:30Z</time></trkpt><trkpt lat="33.6702024" lon="132.8274393"><ele>1001.0566666666667</ele><time>2025-03-23T02:56:33Z</time></trkpt><trkpt lat="33.6700902" lon="132.8276324"><ele>999.7966666666667</ele><time>2025-03-23T02:56:51Z</time></trkpt><trkpt lat="33.6699062" lon="132.8277639"><ele>998.0900000000001</ele><time>2025-03-23T02:57:08Z</time></trkpt><trkpt lat="33.669724" lon="132.8278062"><ele>999.2433333333333</ele><time>2025-03-23T02:57:26Z</time></trkpt><trkpt lat="33.6695208" lon="132.8277638"><ele>996.7966666666667</ele><time>2025-03-23T02:57:44Z</time></trkpt><trkpt lat="33.66933" lon="132.8278027"><ele>995.5500000000001</ele><time>2025-03-23T02:57:59Z</time></trkpt><trkpt lat="33.6694659" lon="132.8276525"><ele>990.73</ele><time>2025-03-23T02:59:10Z</time></trkpt><trkpt lat="33.6696436" lon="132.8275825"><ele>987.6333333333333</ele><time>2025-03-23T02:59:25Z</time></trkpt><trkpt lat="33.6698128" lon="132.8274972"><ele>983.39</ele><time>2025-03-23T02:59:40Z</time></trkpt><trkpt lat="33.6699602" lon="132.8273246"><ele>979.9666666666667</ele><time>2025-03-23T02:59:58Z</time></trkpt><trkpt lat="33.6697708" lon="132.8273498"><ele>974.8566666666667</ele><time>2025-03-23T03:00:16Z</time></trkpt><trkpt lat="33.6695637" lon="132.8273864"><ele>971.0433333333334</ele><time>2025-03-23T03:00:36Z</time></trkpt><trkpt lat="33.6693504" lon="132.8273706"><ele>968.6700000000001</ele><time>2025-03-23T03:00:57Z</time></trkpt><trkpt lat="33.6691593" lon="132.8272988"><ele>966.2466666666668</ele><time>2025-03-23T03:01:15Z</time></trkpt><trkpt lat="33.6689621" lon="132.8272363"><ele>959.7533333333334</ele><time>2025-03-23T03:02:21Z</time></trkpt><trkpt lat="33.6689086" lon="132.8270127"><ele>950.6666666666666</ele><time>2025-03-23T03:04:42Z</time></trkpt><trkpt lat="33.6687782" lon="132.826857"><ele>941.92</ele><time>2025-03-23T03:05:15Z</time></trkpt><trkpt lat="33.6686415" lon="132.8266574"><ele>932.0466666666667</ele><time>2025-03-23T03:05:48Z</time></trkpt><trkpt lat="33.6685114" lon="132.8264785"><ele>923.4</ele><time>2025-03-23T03:06:12Z</time></trkpt><trkpt lat="33.6683755" lon="132.8263124"><ele>918.4366666666666</ele><time>2025-03-23T03:07:12Z</time></trkpt><trkpt lat="33.6683065" lon="132.8261122"><ele>918.1933333333333</ele><time>2025-03-23T03:07:38Z</time></trkpt><trkpt lat="33.6683791" lon="132.8259131"><ele>917.1033333333334</ele><time>2025-03-23T03:08:11Z</time></trkpt><trkpt lat="33.6683168" lon="132.825649"><ele>913.0799999999999</ele><time>2025-03-23T03:09:38Z</time></trkpt><trkpt lat="33.6682852" lon="132.8254258"><ele>907.2166666666667</ele><time>2025-03-23T03:09:56Z</time></trkpt><trkpt lat="33.6681616" lon="132.8252503"><ele>904.9200000000001</ele><time>2025-03-23T03:10:16Z</time></trkpt><trkpt lat="33.668024" lon="132.8251071"><ele>904.0099999999999</ele><time>2025-03-23T03:10:37Z</time></trkpt><trkpt lat="33.6679101" lon="132.8249303"><ele>904.1433333333334</ele><time>2025-03-23T03:12:13Z</time></trkpt><trkpt lat="33.6678425" lon="132.8247226"><ele>902.7000000000002</ele><time>2025-03-23T03:12:39Z</time></trkpt><trkpt lat="33.6676923" lon="132.8245853"><ele>897.18</ele><time>2025-03-23T03:13:15Z</time></trkpt><trkpt lat="33.6675144" lon="132.8246207"><ele>888.7800000000001</ele><time>2025-03-23T03:14:51Z</time></trkpt><trkpt lat="33.6673563" lon="132.8245118"><ele>876.9699999999999</ele><time>2025-03-23T03:16:15Z</time></trkpt><trkpt lat="33.6672167" lon="132.8243728"><ele>865.6833333333334</ele><time>2025-03-23T03:17:15Z</time></trkpt><trkpt lat="33.6670376" lon="132.8244002"><ele>853.3966666666666</ele><time>2025-03-23T03:18:09Z</time></trkpt><trkpt lat="33.6668597" lon="132.8243372"><ele>841.6633333333333</ele><time>2025-03-23T03:18:54Z</time></trkpt><trkpt lat="33.666878" lon="132.824099"><ele>831.9566666666666</ele><time>2025-03-23T03:20:18Z</time></trkpt><trkpt lat="33.6668877" lon="132.823872"><ele>824.6166666666667</ele><time>2025-03-23T03:21:12Z</time></trkpt><trkpt lat="33.6668639" lon="132.823657"><ele>816.0733333333333</ele><time>2025-03-23T03:21:53Z</time></trkpt><trkpt lat="33.6668316" lon="132.8234432"><ele>805.4233333333333</ele><time>2025-03-23T03:22:35Z</time></trkpt><trkpt lat="33.6667084" lon="132.8232849"><ele>792.9766666666666</ele><time>2025-03-23T03:23:23Z</time></trkpt><trkpt lat="33.6665908" lon="132.8230883"><ele>781.4666666666667</ele><time>2025-03-23T03:24:04Z</time></trkpt><trkpt lat="33.6664849" lon="132.8229009"><ele>768.7166666666667</ele><time>2025-03-23T03:24:25Z</time></trkpt><trkpt lat="33.666417" lon="132.8226791"><ele>758.8833333333333</ele><time>2025-03-23T03:24:55Z</time></trkpt><trkpt lat="33.6662955" lon="132.8225076"><ele>753.5300000000001</ele><time>2025-03-23T03:25:19Z</time></trkpt><trkpt lat="33.66614" lon="132.8223484"><ele>755.5066666666667</ele><time>2025-03-23T03:25:55Z</time></trkpt><trkpt lat="33.6660583" lon="132.8221472"><ele>761.2400000000001</ele><time>2025-03-23T03:26:34Z</time></trkpt><trkpt lat="33.6659191" lon="132.8219765"><ele>767.59</ele><time>2025-03-23T03:27:01Z</time></trkpt><trkpt lat="33.6657574" lon="132.8218392"><ele>772.46</ele><time>2025-03-23T03:27:27Z</time></trkpt><trkpt lat="33.6656274" lon="132.8216731"><ele>775.7433333333333</ele><time>2025-03-23T03:28:02Z</time></trkpt><trkpt lat="33.6655611" lon="132.8214614"><ele>779.0033333333334</ele><time>2025-03-23T03:28:44Z</time></trkpt><trkpt lat="33.6654672" lon="132.8212629"><ele>783.41</ele><time>2025-03-23T03:29:08Z</time></trkpt><trkpt lat="33.6654254" lon="132.8210443"><ele>787.3699999999999</ele><time>2025-03-23T03:29:41Z</time></trkpt><trkpt lat="33.6655589" lon="132.8211899"><ele>788.8166666666666</ele><time>2025-03-23T03:34:17Z</time></trkpt><trkpt lat="33.6657074" lon="132.8213368"><ele>785.3033333333333</ele><time>2025-03-23T03:37:56Z</time></trkpt><trkpt lat="33.6658453" lon="132.8214807"><ele>778.5066666666667</ele><time>2025-03-23T03:38:40Z</time></trkpt><trkpt lat="33.6659943" lon="132.8216058"><ele>771.5799999999999</ele><time>2025-03-23T03:39:07Z</time></trkpt><trkpt lat="33.6661825" lon="132.8215753"><ele>763.9766666666666</ele><time>2025-03-23T03:39:31Z</time></trkpt><trkpt lat="33.6663437" lon="132.8216861"><ele>756.2833333333333</ele><time>2025-03-23T03:40:46Z</time></trkpt><trkpt lat="33.6664521" lon="132.821864"><ele>746.39</ele><time>2025-03-23T03:41:22Z</time></trkpt><trkpt lat="33.6666349" lon="132.8219076"><ele>736.64</ele><time>2025-03-23T03:42:01Z</time></trkpt><trkpt lat="33.6668172" lon="132.8219087"><ele>725.7199999999999</ele><time>2025-03-23T03:43:01Z</time></trkpt><trkpt lat="33.666931" lon="132.8217397"><ele>715.46</ele><time>2025-03-23T03:44:49Z</time></trkpt><trkpt lat="33.6670337" lon="132.8215173"><ele>705.0866666666667</ele><time>2025-03-23T03:45:13Z</time></trkpt><trkpt lat="33.66714" lon="132.8213397"><ele>696.1933333333333</ele><time>2025-03-23T03:45:31Z</time></trkpt><trkpt lat="33.6670166" lon="132.8211381"><ele>690.88</ele><time>2025-03-23T03:46:04Z</time></trkpt><trkpt lat="33.6670391" lon="132.8209107"><ele>687.8533333333334</ele><time>2025-03-23T03:46:19Z</time></trkpt><trkpt lat="33.6670717" lon="132.8206791"><ele>685.1666666666666</ele><time>2025-03-23T03:46:36Z</time></trkpt><trkpt lat="33.6670887" lon="132.8204424"><ele>680.75</ele><time>2025-03-23T03:46:54Z</time></trkpt><trkpt lat="33.6671831" lon="132.8202496"><ele>676.0266666666666</ele><time>2025-03-23T03:47:08Z</time></trkpt><trkpt lat="33.6672045" lon="132.8200078"><ele>672.4866666666667</ele><time>2025-03-23T03:47:26Z</time></trkpt><trkpt lat="33.66718" lon="132.8197739"><ele>668.7033333333334</ele><time>2025-03-23T03:47:40Z</time></trkpt><trkpt lat="33.6673289" lon="132.8199303"><ele>664.6333333333333</ele><time>2025-03-23T03:48:12Z</time></trkpt><trkpt lat="33.6674997" lon="132.8200248"><ele>660.5766666666667</ele><time>2025-03-23T03:48:45Z</time></trkpt><trkpt lat="33.6677015" lon="132.8200216"><ele>657.9633333333333</ele><time>2025-03-23T03:49:11Z</time></trkpt><trkpt lat="33.6678598" lon="132.8198815"><ele>659.03</ele><time>2025-03-23T03:49:26Z</time></trkpt><trkpt lat="33.6678522" lon="132.8196465"><ele>658.14</ele><time>2025-03-23T03:49:49Z</time></trkpt><trkpt lat="33.667924" lon="132.8194047"><ele>656.7066666666668</ele><time>2025-03-23T03:50:06Z</time></trkpt><trkpt lat="33.6679762" lon="132.819145"><ele>651.96</ele><time>2025-03-23T03:50:24Z</time></trkpt><trkpt lat="33.6680229" lon="132.8189172"><ele>649.9000000000001</ele><time>2025-03-23T03:50:39Z</time></trkpt><trkpt lat="33.668035" lon="132.8186632"><ele>647.5333333333334</ele><time>2025-03-23T03:50:57Z</time></trkpt><trkpt lat="33.6680347" lon="132.8184353"><ele>646.0099999999999</ele><time>2025-03-23T03:51:12Z</time></trkpt><trkpt lat="33.668042" lon="132.8181822"><ele>644.39</ele><time>2025-03-23T03:51:39Z</time></trkpt><trkpt lat="33.6681502" lon="132.8179818"><ele>643.13</ele><time>2025-03-23T03:51:54Z</time></trkpt><trkpt lat="33.6683459" lon="132.8180496"><ele>641.4933333333333</ele><time>2025-03-23T03:52:12Z</time></trkpt><trkpt lat="33.6684825" lon="132.8182171"><ele>640.2366666666667</ele><time>2025-03-23T03:52:30Z</time></trkpt><trkpt lat="33.6686073" lon="132.8184058"><ele>639.4133333333333</ele><time>2025-03-23T03:52:45Z</time></trkpt><trkpt lat="33.6687813" lon="132.8184678"><ele>638.7933333333334</ele><time>2025-03-23T03:53:00Z</time></trkpt><trkpt lat="33.6688726" lon="132.8182577"><ele>637.5600000000001</ele><time>2025-03-23T03:53:15Z</time></trkpt><trkpt lat="33.6689634" lon="132.8180214"><ele>636.2733333333334</ele><time>2025-03-23T03:53:30Z</time></trkpt><trkpt lat="33.6689559" lon="132.8177911"><ele>636.5300000000001</ele><time>2025-03-23T03:53:44Z</time></trkpt><trkpt lat="33.6688431" lon="132.8176225"><ele>636.0733333333334</ele><time>2025-03-23T03:53:56Z</time></trkpt><trkpt lat="33.668842" lon="132.8173665"><ele>635.7700000000001</ele><time>2025-03-23T03:54:14Z</time></trkpt><trkpt lat="33.6687461" lon="132.817138"><ele>633.4233333333333</ele><time>2025-03-23T03:54:35Z</time></trkpt><trkpt lat="33.6686277" lon="132.8169504"><ele>627.8933333333334</ele><time>2025-03-23T03:54:52Z</time></trkpt><trkpt lat="33.6686849" lon="132.8167305"><ele>622.3333333333334</ele><time>2025-03-23T03:55:07Z</time></trkpt><trkpt lat="33.6688109" lon="132.8165699"><ele>618.0933333333334</ele><time>2025-03-23T03:56:13Z</time></trkpt><trkpt lat="33.6688726" lon="132.816356"><ele>617.4</ele><time>2025-03-23T03:56:28Z</time></trkpt><trkpt lat="33.668999" lon="132.8161779"><ele>616.2599999999999</ele><time>2025-03-23T03:56:46Z</time></trkpt><trkpt lat="33.6691609" lon="132.8160777"><ele>615.1833333333334</ele><time>2025-03-23T03:57:01Z</time></trkpt><trkpt lat="33.669303" lon="132.8159113"><ele>615.52</ele><time>2025-03-23T03:57:16Z</time></trkpt><trkpt lat="33.669424" lon="132.8157338"><ele>615.3533333333334</ele><time>2025-03-23T03:57:31Z</time></trkpt><trkpt lat="33.6692807" lon="132.8158833"><ele>615.4866666666667</ele><time>2025-03-23T03:58:16Z</time></trkpt><trkpt lat="33.6691211" lon="132.816046"><ele>614.5933333333334</ele><time>2025-03-23T03:58:33Z</time></trkpt><trkpt lat="33.6692286" lon="132.8162261"><ele>615.8333333333334</ele><time>2025-03-23T03:58:57Z</time></trkpt><trkpt lat="33.6694127" lon="132.8161496"><ele>617.1066666666667</ele><time>2025-03-23T03:59:14Z</time></trkpt><trkpt lat="33.6696214" lon="132.8161693"><ele>620.3133333333334</ele><time>2025-03-23T03:59:37Z</time></trkpt><trkpt lat="33.6698151" lon="132.8161874"><ele>622.1066666666667</ele><time>2025-03-23T03:59:57Z</time></trkpt><trkpt lat="33.669961" lon="132.8163504"><ele>624.9766666666667</ele><time>2025-03-23T04:00:17Z</time></trkpt><trkpt lat="33.6701138" lon="132.8165136"><ele>627.3966666666666</ele><time>2025-03-23T04:00:37Z</time></trkpt><trkpt lat="33.6702484" lon="132.8166596"><ele>631.3100000000001</ele><time>2025-03-23T04:01:03Z</time></trkpt><trkpt lat="33.6704086" lon="132.8168196"><ele>635.2766666666666</ele><time>2025-03-23T04:01:30Z</time></trkpt><trkpt lat="33.6704952" lon="132.8170099"><ele>639.4733333333334</ele><time>2025-03-23T04:01:53Z</time></trkpt><trkpt lat="33.6706506" lon="132.8171379"><ele>642.5666666666667</ele><time>2025-03-23T04:02:14Z</time></trkpt><trkpt lat="33.6708476" lon="132.8172288"><ele>644.1866666666667</ele><time>2025-03-23T04:02:31Z</time></trkpt><trkpt lat="33.6710517" lon="132.8172411"><ele>644.5833333333334</ele><time>2025-03-23T04:02:48Z</time></trkpt><trkpt lat="33.6711704" lon="132.8174123"><ele>645.7666666666667</ele><time>2025-03-23T04:03:02Z</time></trkpt><trkpt lat="33.6713651" lon="132.8174848"><ele>646.52</ele><time>2025-03-23T04:03:29Z</time></trkpt><trkpt lat="33.6715479" lon="132.8175299"><ele>647.5500000000001</ele><time>2025-03-23T04:03:44Z</time></trkpt><trkpt lat="33.6717335" lon="132.8175752"><ele>647.9633333333334</ele><time>2025-03-23T04:03:59Z</time></trkpt><trkpt lat="33.6719148" lon="132.8176339"><ele>649.25</ele><time>2025-03-23T04:04:25Z</time></trkpt><trkpt lat="33.6719949" lon="132.8178445"><ele>652.42</ele><time>2025-03-23T04:04:46Z</time></trkpt><trkpt lat="33.6721957" lon="132.817882"><ele>655.1766666666666</ele><time>2025-03-23T04:05:06Z</time></trkpt><trkpt lat="33.6723942" lon="132.8178749"><ele>658.7133333333334</ele><time>2025-03-23T04:05:21Z</time></trkpt><trkpt lat="33.6725706" lon="132.8178168"><ele>661.8833333333333</ele><time>2025-03-23T04:05:42Z</time></trkpt><trkpt lat="33.6726758" lon="132.8176373"><ele>665.8066666666667</ele><time>2025-03-23T04:05:59Z</time></trkpt><trkpt lat="33.6727507" lon="132.8174332"><ele>668.7566666666667</ele><time>2025-03-23T04:06:16Z</time></trkpt><trkpt lat="33.6729405" lon="132.8173394"><ele>671.8100000000001</ele><time>2025-03-23T04:06:42Z</time></trkpt><trkpt lat="33.6731248" lon="132.8172772"><ele>673.2400000000001</ele><time>2025-03-23T04:07:03Z</time></trkpt><trkpt lat="33.6733194" lon="132.8172945"><ele>674.5133333333333</ele><time>2025-03-23T04:07:23Z</time></trkpt><trkpt lat="33.6735325" lon="132.8172957"><ele>673.4733333333334</ele><time>2025-03-23T04:07:40Z</time></trkpt><trkpt lat="33.6737344" lon="132.8172189"><ele>675.7566666666667</ele><time>2025-03-23T04:08:01Z</time></trkpt><trkpt lat="33.6737349" lon="132.8169686"><ele>678.8233333333334</ele><time>2025-03-23T04:08:16Z</time></trkpt><trkpt lat="33.6737196" lon="132.816734"><ele>682.6166666666668</ele><time>2025-03-23T04:08:33Z</time></trkpt><trkpt lat="33.6737124" lon="132.8165136"><ele>682.8266666666667</ele><time>2025-03-23T04:08:50Z</time></trkpt><trkpt lat="33.6738654" lon="132.816377"><ele>680.39</ele><time>2025-03-23T04:09:06Z</time></trkpt><trkpt lat="33.6740126" lon="132.8165612"><ele>682.1966666666667</ele><time>2025-03-23T04:09:27Z</time></trkpt><trkpt lat="33.6741246" lon="132.8167527"><ele>686.3466666666667</ele><time>2025-03-23T04:09:44Z</time></trkpt><trkpt lat="33.6743032" lon="132.8167839"><ele>690.5533333333333</ele><time>2025-03-23T04:10:07Z</time></trkpt><trkpt lat="33.6743843" lon="132.8165529"><ele>687.7733333333334</ele><time>2025-03-23T04:10:22Z</time></trkpt><trkpt lat="33.6745084" lon="132.8163307"><ele>685.8266666666667</ele><time>2025-03-23T04:10:37Z</time></trkpt><trkpt lat="33.6745611" lon="132.8161042"><ele>684.3233333333333</ele><time>2025-03-23T04:10:52Z</time></trkpt><trkpt lat="33.6745085" lon="132.8158812"><ele>684.89</ele><time>2025-03-23T04:11:22Z</time></trkpt><trkpt lat="33.6743707" lon="132.8157152"><ele>682.6666666666666</ele><time>2025-03-23T04:11:37Z</time></trkpt><trkpt lat="33.6742902" lon="132.8155141"><ele>680.41</ele><time>2025-03-23T04:12:01Z</time></trkpt><trkpt lat="33.6743618" lon="132.8152983"><ele>677.5866666666667</ele><time>2025-03-23T04:12:16Z</time></trkpt><trkpt lat="33.6745342" lon="132.815211"><ele>674.4833333333333</ele><time>2025-03-23T04:12:34Z</time></trkpt><trkpt lat="33.6747157" lon="132.8152671"><ele>673.1966666666666</ele><time>2025-03-23T04:12:52Z</time></trkpt><trkpt lat="33.6749027" lon="132.8151264"><ele>671.39</ele><time>2025-03-23T04:13:07Z</time></trkpt><trkpt lat="33.6750809" lon="132.8150579"><ele>671.5766666666667</ele><time>2025-03-23T04:13:33Z</time></trkpt><trkpt lat="33.6752831" lon="132.8151364"><ele>671.9933333333333</ele><time>2025-03-23T04:13:51Z</time></trkpt><trkpt lat="33.6754602" lon="132.815226"><ele>675.5233333333333</ele><time>2025-03-23T04:14:11Z</time></trkpt><trkpt lat="33.6755591" lon="132.8154435"><ele>680.8466666666667</ele><time>2025-03-23T04:14:31Z</time></trkpt><trkpt lat="33.6756773" lon="132.815607"><ele>684.7833333333333</ele><time>2025-03-23T04:14:48Z</time></trkpt><trkpt lat="33.6758628" lon="132.8156092"><ele>688.0300000000001</ele><time>2025-03-23T04:15:02Z</time></trkpt><trkpt lat="33.6760612" lon="132.8155845"><ele>688.0733333333334</ele><time>2025-03-23T04:15:35Z</time></trkpt><trkpt lat="33.6761392" lon="132.8158184"><ele>691.0966666666667</ele><time>2025-03-23T04:15:55Z</time></trkpt><trkpt lat="33.6761599" lon="132.8160411"><ele>695.5833333333334</ele><time>2025-03-23T04:16:09Z</time></trkpt><trkpt lat="33.6762945" lon="132.8161882"><ele>701.3966666666666</ele><time>2025-03-23T04:16:23Z</time></trkpt><trkpt lat="33.6764946" lon="132.8162203"><ele>704.23</ele><time>2025-03-23T04:16:40Z</time></trkpt><trkpt lat="33.6766843" lon="132.8162219"><ele>703.9433333333333</ele><time>2025-03-23T04:17:04Z</time></trkpt><trkpt lat="33.6768806" lon="132.81624"><ele>702.7400000000001</ele><time>2025-03-23T04:17:21Z</time></trkpt><trkpt lat="33.6770739" lon="132.8162467"><ele>701.0633333333334</ele><time>2025-03-23T04:17:37Z</time></trkpt><trkpt lat="33.6772451" lon="132.8163495"><ele>700.7833333333334</ele><time>2025-03-23T04:18:03Z</time></trkpt><trkpt lat="33.6774513" lon="132.816387"><ele>701.4399999999999</ele><time>2025-03-23T04:18:21Z</time></trkpt><trkpt lat="33.6776309" lon="132.8163307"><ele>703.7233333333334</ele><time>2025-03-23T04:18:35Z</time></trkpt><trkpt lat="33.6778229" lon="132.8162767"><ele>706.1833333333333</ele><time>2025-03-23T04:18:52Z</time></trkpt><trkpt lat="33.6780194" lon="132.8162064"><ele>708.7466666666666</ele><time>2025-03-23T04:19:10Z</time></trkpt><trkpt lat="33.6782157" lon="132.8161229"><ele>710.9533333333334</ele><time>2025-03-23T04:19:27Z</time></trkpt><trkpt lat="33.6784048" lon="132.8161431"><ele>713.4266666666667</ele><time>2025-03-23T04:19:44Z</time></trkpt><trkpt lat="33.6785835" lon="132.8162138"><ele>715.0533333333333</ele><time>2025-03-23T04:20:41Z</time></trkpt><trkpt lat="33.6787332" lon="132.8163559"><ele>716.3833333333333</ele><time>2025-03-23T04:21:02Z</time></trkpt><trkpt lat="33.6789039" lon="132.8164875"><ele>717.9566666666668</ele><time>2025-03-23T04:21:17Z</time></trkpt><trkpt lat="33.6790682" lon="132.8166077"><ele>719.3566666666667</ele><time>2025-03-23T04:21:32Z</time></trkpt><trkpt lat="33.6792424" lon="132.8167034"><ele>722.5066666666667</ele><time>2025-03-23T04:21:49Z</time></trkpt><trkpt lat="33.6794185" lon="132.8167869"><ele>725.2466666666666</ele><time>2025-03-23T04:22:04Z</time></trkpt><trkpt lat="33.6796091" lon="132.8168086"><ele>727.4433333333333</ele><time>2025-03-23T04:22:19Z</time></trkpt><trkpt lat="33.6797969" lon="132.8168548"><ele>728.1666666666666</ele><time>2025-03-23T04:22:34Z</time></trkpt><trkpt lat="33.6799458" lon="132.8169767"><ele>727.57</ele><time>2025-03-23T04:22:48Z</time></trkpt><trkpt lat="33.6800585" lon="132.8171961"><ele>729.6333333333333</ele><time>2025-03-23T04:23:06Z</time></trkpt><trkpt lat="33.6802063" lon="132.8173653"><ele>731.9766666666668</ele><time>2025-03-23T04:23:21Z</time></trkpt><trkpt lat="33.6804022" lon="132.8174571"><ele>733.0</ele><time>2025-03-23T04:23:39Z</time></trkpt><trkpt lat="33.6806095" lon="132.8175052"><ele>732.6533333333333</ele><time>2025-03-23T04:24:00Z</time></trkpt><trkpt lat="33.6807996" lon="132.817461"><ele>730.3533333333334</ele><time>2025-03-23T04:24:15Z</time></trkpt><trkpt lat="33.6810118" lon="132.8174479"><ele>731.15</ele><time>2025-03-23T04:24:33Z</time></trkpt><trkpt lat="33.6812302" lon="132.8174826"><ele>732.6466666666666</ele><time>2025-03-23T04:24:51Z</time></trkpt><trkpt lat="33.6814123" lon="132.8175864"><ele>736.8833333333333</ele><time>2025-03-23T04:25:07Z</time></trkpt><trkpt lat="33.681566" lon="132.8177755"><ele>740.39</ele><time>2025-03-23T04:25:26Z</time></trkpt><trkpt lat="33.6817003" lon="132.8179204"><ele>741.5100000000001</ele><time>2025-03-23T04:25:41Z</time></trkpt><trkpt lat="33.6818356" lon="132.8180834"><ele>741.3133333333334</ele><time>2025-03-23T04:25:58Z</time></trkpt><trkpt lat="33.6819093" lon="132.8183054"><ele>741.5</ele><time>2025-03-23T04:26:27Z</time></trkpt><trkpt lat="33.6819703" lon="132.81853"><ele>744.2433333333333</ele><time>2025-03-23T04:26:44Z</time></trkpt><trkpt lat="33.6820507" lon="132.8187537"><ele>747.3033333333333</ele><time>2025-03-23T04:27:02Z</time></trkpt><trkpt lat="33.6820974" lon="132.8189725"><ele>749.89</ele><time>2025-03-23T04:27:20Z</time></trkpt><trkpt lat="33.6822044" lon="132.8191913"><ele>750.8433333333334</ele><time>2025-03-23T04:27:41Z</time></trkpt><trkpt lat="33.682252" lon="132.819409"><ele>751.7766666666666</ele><time>2025-03-23T04:28:11Z</time></trkpt><trkpt lat="33.6820599" lon="132.8194355"><ele>754.4100000000002</ele><time>2025-03-23T04:28:46Z</time></trkpt><trkpt lat="33.6819567" lon="132.8192259"><ele>757.1433333333334</ele><time>2025-03-23T04:29:06Z</time></trkpt><trkpt lat="33.6818864" lon="132.8190179"><ele>759.1100000000001</ele><time>2025-03-23T04:29:23Z</time></trkpt><trkpt lat="33.6817963" lon="132.8188096"><ele>758.6133333333333</ele><time>2025-03-23T04:29:40Z</time></trkpt><trkpt lat="33.681694" lon="132.8185995"><ele>757.69</ele><time>2025-03-23T04:29:57Z</time></trkpt><trkpt lat="33.6815416" lon="132.8184521"><ele>757.7266666666668</ele><time>2025-03-23T04:30:14Z</time></trkpt><trkpt lat="33.6813795" lon="132.8183157"><ele>757.9166666666666</ele><time>2025-03-23T04:30:34Z</time></trkpt><trkpt lat="33.6811861" lon="132.8182559"><ele>760.5833333333334</ele><time>2025-03-23T04:30:51Z</time></trkpt><trkpt lat="33.6810112" lon="132.8181848"><ele>763.8166666666666</ele><time>2025-03-23T04:31:08Z</time></trkpt><trkpt lat="33.6808172" lon="132.818178"><ele>766.1766666666667</ele><time>2025-03-23T04:31:24Z</time></trkpt><trkpt lat="33.6806732" lon="132.8183554"><ele>767.6566666666668</ele><time>2025-03-23T04:31:41Z</time></trkpt><trkpt lat="33.6807508" lon="132.8185895"><ele>770.8433333333334</ele><time>2025-03-23T04:31:59Z</time></trkpt><trkpt lat="33.6809072" lon="132.8187428"><ele>774.8066666666667</ele><time>2025-03-23T04:32:15Z</time></trkpt><trkpt lat="33.6810675" lon="132.8188485"><ele>777.7666666666668</ele><time>2025-03-23T04:32:31Z</time></trkpt><trkpt lat="33.681223" lon="132.8189603"><ele>777.9166666666666</ele><time>2025-03-23T04:32:46Z</time></trkpt><trkpt lat="33.6813888" lon="132.8191205"><ele>777.5966666666667</ele><time>2025-03-23T04:33:03Z</time></trkpt><trkpt lat="33.681498" lon="132.8193195"><ele>776.9066666666666</ele><time>2025-03-23T04:33:20Z</time></trkpt><trkpt lat="33.6815294" lon="132.8195495"><ele>776.6033333333334</ele><time>2025-03-23T04:33:40Z</time></trkpt><trkpt lat="33.681514" lon="132.8197693"><ele>777.54</ele><time>2025-03-23T04:33:58Z</time></trkpt><trkpt lat="33.6813269" lon="132.8197725"><ele>780.77</ele><time>2025-03-23T04:34:24Z</time></trkpt><trkpt lat="33.681214" lon="132.8195835"><ele>783.6533333333333</ele><time>2025-03-23T04:34:44Z</time></trkpt><trkpt lat="33.6811661" lon="132.8193505"><ele>785.2333333333335</ele><time>2025-03-23T04:35:01Z</time></trkpt><trkpt lat="33.6809935" lon="132.8192469"><ele>785.35</ele><time>2025-03-23T04:35:22Z</time></trkpt><trkpt lat="33.6807948" lon="132.8192586"><ele>786.4900000000001</ele><time>2025-03-23T04:35:39Z</time></trkpt><trkpt lat="33.680586" lon="132.8192112"><ele>792.2733333333334</ele><time>2025-03-23T04:36:51Z</time></trkpt><trkpt lat="33.6804521" lon="132.8190331"><ele>798.4266666666667</ele><time>2025-03-23T04:37:09Z</time></trkpt><trkpt lat="33.6803559" lon="132.81885"><ele>802.9633333333335</ele><time>2025-03-23T04:37:25Z</time></trkpt><trkpt lat="33.6801829" lon="132.818742"><ele>804.3566666666667</ele><time>2025-03-23T04:37:58Z</time></trkpt><trkpt lat="33.6800234" lon="132.8188466"><ele>805.1933333333335</ele><time>2025-03-23T04:38:28Z</time></trkpt><trkpt lat="33.6800377" lon="132.8190724"><ele>807.4900000000001</ele><time>2025-03-23T04:38:48Z</time></trkpt><trkpt lat="33.6800875" lon="132.8192888"><ele>809.9933333333333</ele><time>2025-03-23T04:39:06Z</time></trkpt><trkpt lat="33.680215" lon="132.8194466"><ele>813.0133333333333</ele><time>2025-03-23T04:39:38Z</time></trkpt><trkpt lat="33.6803022" lon="132.8196729"><ele>816.5266666666666</ele><time>2025-03-23T04:39:55Z</time></trkpt><trkpt lat="33.6803748" lon="132.8198954"><ele>819.5300000000001</ele><time>2025-03-23T04:40:15Z</time></trkpt><trkpt lat="33.6804279" lon="132.8201388"><ele>821.0766666666667</ele><time>2025-03-23T04:40:35Z</time></trkpt><trkpt lat="33.6804356" lon="132.820383"><ele>822.85</ele><time>2025-03-23T04:40:56Z</time></trkpt><trkpt lat="33.680452" lon="132.8206257"><ele>826.8066666666667</ele><time>2025-03-23T04:41:16Z</time></trkpt><trkpt lat="33.6805714" lon="132.8208148"><ele>831.82</ele><time>2025-03-23T04:41:33Z</time></trkpt><trkpt lat="33.6807462" lon="132.8209152"><ele>835.1766666666666</ele><time>2025-03-23T04:41:50Z</time></trkpt><trkpt lat="33.6809199" lon="132.8210132"><ele>836.2199999999999</ele><time>2025-03-23T04:42:08Z</time></trkpt><trkpt lat="33.6810977" lon="132.8210768"><ele>836.5133333333333</ele><time>2025-03-23T04:42:35Z</time></trkpt><trkpt lat="33.6812605" lon="132.821221"><ele>837.1133333333333</ele><time>2025-03-23T04:42:55Z</time></trkpt><trkpt lat="33.6813586" lon="132.8214196"><ele>836.1133333333333</ele><time>2025-03-23T04:43:14Z</time></trkpt><trkpt lat="33.6814003" lon="132.8216335"><ele>836.69</ele><time>2025-03-23T04:43:34Z</time></trkpt><trkpt lat="33.6814143" lon="132.8218865"><ele>839.27</ele><time>2025-03-23T04:43:54Z</time></trkpt><trkpt lat="33.6815611" lon="132.8220415"><ele>843.1466666666666</ele><time>2025-03-23T04:44:08Z</time></trkpt><trkpt lat="33.6817726" lon="132.8219703"><ele>849.5500000000001</ele><time>2025-03-23T04:44:22Z</time></trkpt><trkpt lat="33.6819487" lon="132.8218649"><ele>852.9066666666668</ele><time>2025-03-23T04:44:36Z</time></trkpt><trkpt lat="33.6821125" lon="132.8217632"><ele>855.87</ele><time>2025-03-23T04:44:49Z</time></trkpt><trkpt lat="33.6822933" lon="132.821674"><ele>855.3333333333334</ele><time>2025-03-23T04:45:07Z</time></trkpt><trkpt lat="33.6824796" lon="132.8216316"><ele>856.4666666666666</ele><time>2025-03-23T04:45:24Z</time></trkpt><trkpt lat="33.6826703" lon="132.8216248"><ele>858.2766666666666</ele><time>2025-03-23T04:45:51Z</time></trkpt><trkpt lat="33.6828613" lon="132.8216727"><ele>858.9366666666666</ele><time>2025-03-23T04:46:11Z</time></trkpt><trkpt lat="33.6830662" lon="132.8216948"><ele>858.2800000000001</ele><time>2025-03-23T04:46:30Z</time></trkpt><trkpt lat="33.6832083" lon="132.8218614"><ele>859.5433333333334</ele><time>2025-03-23T04:46:50Z</time></trkpt><trkpt lat="33.6831707" lon="132.8220916"><ele>862.8233333333334</ele><time>2025-03-23T04:47:13Z</time></trkpt><trkpt lat="33.6830742" lon="132.8223029"><ele>868.2633333333333</ele><time>2025-03-23T04:47:36Z</time></trkpt><trkpt lat="33.6828916" lon="132.8223708"><ele>872.7366666666667</ele><time>2025-03-23T04:48:12Z</time></trkpt><trkpt lat="33.6827825" lon="132.8221759"><ele>878.2199999999999</ele><time>2025-03-23T04:48:27Z</time></trkpt><trkpt lat="33.6827248" lon="132.8219419"><ele>880.8133333333334</ele><time>2025-03-23T04:48:47Z</time></trkpt><trkpt lat="33.682532" lon="132.8218512"><ele>881.2999999999998</ele><time>2025-03-23T04:49:05Z</time></trkpt><trkpt lat="33.6823579" lon="132.8219542"><ele>880.4833333333335</ele><time>2025-03-23T04:49:19Z</time></trkpt><trkpt lat="33.6821821" lon="132.8220311"><ele>879.86</ele><time>2025-03-23T04:49:34Z</time></trkpt><trkpt lat="33.682013" lon="132.8221319"><ele>880.4433333333333</ele><time>2025-03-23T04:49:49Z</time></trkpt><trkpt lat="33.6818578" lon="132.8222494"><ele>880.9266666666666</ele><time>2025-03-23T04:50:04Z</time></trkpt><trkpt lat="33.6817112" lon="132.8224004"><ele>882.7233333333334</ele><time>2025-03-23T04:50:22Z</time></trkpt><trkpt lat="33.6815674" lon="132.822536"><ele>883.2733333333332</ele><time>2025-03-23T04:50:39Z</time></trkpt><trkpt lat="33.6813819" lon="132.8224997"><ele>882.8299999999999</ele><time>2025-03-23T04:51:06Z</time></trkpt><trkpt lat="33.6812048" lon="132.8224345"><ele>885.3566666666666</ele><time>2025-03-23T04:51:23Z</time></trkpt><trkpt lat="33.6810509" lon="132.822316"><ele>889.87</ele><time>2025-03-23T04:51:40Z</time></trkpt><trkpt lat="33.6809157" lon="132.8221206"><ele>895.4866666666667</ele><time>2025-03-23T04:52:00Z</time></trkpt></trkseg></trk></gpx>