<?xml version='1.0' encoding='UTF-8'?><gpx creator="Yama Museum Peak Annotator" xsi:schemaLocation="http://www.topografix.com/GPX/1/1 http://www.topografix.com/GPX/1/1/gpx.xsd" version="1.1" xmlns="http://www.topografix.com/GPX/1/1" xmlns:xsi="http://www.w3.org/2001/XMLSchema-instance"><metadata><bounds maxlat="33.8260794" maxlon="133.1793643" minlat="33.8095673" minlon="133.154101"/></metadata>  <wpt lat="33.8130309" lon="133.154101">
    <ele>1152.69</ele>
    <name>二ノ岳</name>
    <desc>Peak detected at 1153m (prominence: 209m)</desc>
    <sym>Summit</sym>
  </wpt>
  <wpt lat="33.8259035" lon="133.1757371">
    <ele>1351.1733333333334</ele>
    <name>高森</name>
    <desc>Peak detected at 1351m (prominence: 50m)</desc>
    <sym>Summit</sym>
  </wpt>
  <wpt lat="33.8209712" lon="133.1775059">
    <ele>1361.2233333333334</ele>
    <name>Peak (1361m)</name>
    <desc>Peak detected at 1361m (prominence: 782m)</desc>
    <sym>Summit</sym>
  </wpt>
<trk><name>二ノ岳・高森</name><number>1</number><trkseg><trkpt lat="33.8098388" lon="133.1668957"><ele>564.41</ele><time>2023-10-21T21:44:35Z</time></trkpt><trkpt lat="33.8097309" lon="133.1667154"><ele>561.905</ele><time>2023-10-21T21:46:50Z</time></trkpt><trkpt lat="33.8096803" lon="133.166507"><ele>561.0500000000001</ele><time>2023-10-21T21:47:03Z</time></trkpt><trkpt lat="33.809658" lon="133.1662908"><ele>559.0</ele><time>2023-10-21T21:47:16Z</time></trkpt><trkpt lat="33.8096107" lon="133.1660794"><ele>558.61</ele><time>2023-10-21T21:47:31Z</time></trkpt><trkpt lat="33.8095673" lon="133.1658625"><ele>558.7466666666667</ele><time>2023-10-21T21:47:46Z</time></trkpt><trkpt lat="33.809691" lon="133.1660342"><ele>559.04</ele><time>2023-10-21T21:48:49Z</time></trkpt><trkpt lat="33.8098734" lon="133.1660029"><ele>560.8033333333333</ele><time>2023-10-21T21:49:37Z</time></trkpt><trkpt lat="33.8100381" lon="133.1658963"><ele>565.09</ele><time>2023-10-21T21:50:36Z</time></trkpt><trkpt lat="33.8102178" lon="133.1658654"><ele>571.4033333333333</ele><time>2023-10-21T21:52:44Z</time></trkpt><trkpt lat="33.8103746" lon="133.1657452"><ele>578.1033333333334</ele><time>2023-10-21T21:53:01Z</time></trkpt><trkpt lat="33.8104868" lon="133.1655746"><ele>585.2433333333333</ele><time>2023-10-21T21:53:27Z</time></trkpt><trkpt lat="33.8106655" lon="133.1655301"><ele>594.0166666666668</ele><time>2023-10-21T21:56:31Z</time></trkpt><trkpt lat="33.8107908" lon="133.1653668"><ele>605.63</ele><time>2023-10-21T21:56:47Z</time></trkpt><trkpt lat="33.8109421" lon="133.1652359"><ele>617.0166666666668</ele><time>2023-10-21T21:57:06Z</time></trkpt><trkpt lat="33.8111226" lon="133.165189"><ele>628.5066666666667</ele><time>2023-10-21T21:57:28Z</time></trkpt><trkpt lat="33.811285" lon="133.1650894"><ele>637.34</ele><time>2023-10-21T21:57:55Z</time></trkpt><trkpt lat="33.8109915" lon="133.1652863"><ele>636.7266666666666</ele><time>2023-10-21T21:58:02Z</time></trkpt><trkpt lat="33.8107784" lon="133.1654287"><ele>628.4833333333332</ele><time>2023-10-21T21:58:04Z</time></trkpt><trkpt lat="33.8109249" lon="133.1652973"><ele>621.3833333333333</ele><time>2023-10-21T21:58:32Z</time></trkpt><trkpt lat="33.8110739" lon="133.1651615"><ele>624.8966666666666</ele><time>2023-10-21T21:58:43Z</time></trkpt><trkpt lat="33.8112597" lon="133.1651329"><ele>633.9633333333333</ele><time>2023-10-21T21:58:58Z</time></trkpt><trkpt lat="33.8114354" lon="133.1651892"><ele>640.3133333333334</ele><time>2023-10-21T21:59:30Z</time></trkpt><trkpt lat="33.8115613" lon="133.1650332"><ele>644.7800000000001</ele><time>2023-10-21T21:59:58Z</time></trkpt><trkpt lat="33.8116353" lon="133.1648315"><ele>652.0033333333333</ele><time>2023-10-21T22:02:06Z</time></trkpt><trkpt lat="33.8117987" lon="133.1647347"><ele>661.9399999999999</ele><time>2023-10-21T22:03:13Z</time></trkpt><trkpt lat="33.811962" lon="133.1648358"><ele>671.0966666666667</ele><time>2023-10-21T22:04:00Z</time></trkpt><trkpt lat="33.8121428" lon="133.1648601"><ele>677.9699999999999</ele><time>2023-10-21T22:04:35Z</time></trkpt><trkpt lat="33.8123247" lon="133.1648582"><ele>686.5499999999998</ele><time>2023-10-21T22:05:25Z</time></trkpt><trkpt lat="33.8124156" lon="133.1650511"><ele>692.9433333333333</ele><time>2023-10-21T22:06:36Z</time></trkpt><trkpt lat="33.8125962" lon="133.165019"><ele>702.3299999999999</ele><time>2023-10-21T22:07:54Z</time></trkpt><trkpt lat="33.8126109" lon="133.164803"><ele>711.4933333333333</ele><time>2023-10-21T22:08:43Z</time></trkpt><trkpt lat="33.8125411" lon="133.1645988"><ele>720.4833333333332</ele><time>2023-10-21T22:13:37Z</time></trkpt><trkpt lat="33.8126648" lon="133.1644398"><ele>727.71</ele><time>2023-10-21T22:15:41Z</time></trkpt><trkpt lat="33.8128337" lon="133.1645163"><ele>735.1433333333334</ele><time>2023-10-21T22:16:31Z</time></trkpt><trkpt lat="33.8129379" lon="133.1643388"><ele>746.5300000000001</ele><time>2023-10-21T22:18:49Z</time></trkpt><trkpt lat="33.8130193" lon="133.1641458"><ele>758.59</ele><time>2023-10-21T22:19:37Z</time></trkpt><trkpt lat="33.8130534" lon="133.1639329"><ele>769.9433333333333</ele><time>2023-10-21T22:20:35Z</time></trkpt><trkpt lat="33.8132117" lon="133.1640372"><ele>781.4866666666667</ele><time>2023-10-21T22:23:51Z</time></trkpt><trkpt lat="33.8133514" lon="133.1641744"><ele>792.7399999999999</ele><time>2023-10-21T22:25:46Z</time></trkpt><trkpt lat="33.8134473" lon="133.1643583"><ele>800.6433333333334</ele><time>2023-10-21T22:26:22Z</time></trkpt><trkpt lat="33.8135788" lon="133.1645073"><ele>806.88</ele><time>2023-10-21T22:27:07Z</time></trkpt><trkpt lat="33.8136113" lon="133.1642913"><ele>813.2466666666666</ele><time>2023-10-21T22:28:08Z</time></trkpt><trkpt lat="33.8136216" lon="133.1640734"><ele>822.2133333333335</ele><time>2023-10-21T22:29:03Z</time></trkpt><trkpt lat="33.813802" lon="133.1640996"><ele>831.3933333333334</ele><time>2023-10-21T22:30:56Z</time></trkpt><trkpt lat="33.8139305" lon="133.1639392"><ele>841.4500000000002</ele><time>2023-10-21T22:32:10Z</time></trkpt><trkpt lat="33.8140278" lon="133.163751"><ele>851.2800000000001</ele><time>2023-10-21T22:33:06Z</time></trkpt><trkpt lat="33.8140641" lon="133.1635392"><ele>862.3166666666667</ele><time>2023-10-21T22:34:23Z</time></trkpt><trkpt lat="33.8142246" lon="133.1634385"><ele>871.3566666666667</ele><time>2023-10-21T22:35:23Z</time></trkpt><trkpt lat="33.8144064" lon="133.1634003"><ele>878.6466666666666</ele><time>2023-10-21T22:36:16Z</time></trkpt><trkpt lat="33.8145818" lon="133.1634619"><ele>883.7066666666666</ele><time>2023-10-21T22:36:49Z</time></trkpt><trkpt lat="33.8147634" lon="133.1634733"><ele>889.1666666666666</ele><time>2023-10-21T22:37:34Z</time></trkpt><trkpt lat="33.8149438" lon="133.1634624"><ele>895.2400000000001</ele><time>2023-10-21T22:38:10Z</time></trkpt><trkpt lat="33.8151126" lon="133.1633778"><ele>904.1633333333333</ele><time>2023-10-21T22:38:55Z</time></trkpt><trkpt lat="33.8152852" lon="133.1634616"><ele>910.37</ele><time>2023-10-21T22:39:24Z</time></trkpt><trkpt lat="33.8154561" lon="133.1635437"><ele>915.5566666666667</ele><time>2023-10-21T22:39:55Z</time></trkpt><trkpt lat="33.8156273" lon="133.1636121"><ele>917.9166666666666</ele><time>2023-10-21T22:40:43Z</time></trkpt><trkpt lat="33.8157861" lon="133.1637255"><ele>922.9166666666666</ele><time>2023-10-21T22:41:50Z</time></trkpt><trkpt lat="33.8159289" lon="133.1638605"><ele>929.2466666666668</ele><time>2023-10-21T22:42:17Z</time></trkpt><trkpt lat="33.8160314" lon="133.1636795"><ele>936.6133333333333</ele><time>2023-10-21T22:44:05Z</time></trkpt><trkpt lat="33.8159682" lon="133.1634739"><ele>942.14</ele><time>2023-10-21T22:50:40Z</time></trkpt><trkpt lat="33.8158721" lon="133.1632903"><ele>946.9966666666668</ele><time>2023-10-21T22:51:14Z</time></trkpt><trkpt lat="33.8157913" lon="133.1630901"><ele>950.6300000000001</ele><time>2023-10-21T22:51:42Z</time></trkpt><trkpt lat="33.8157586" lon="133.162876"><ele>954.7566666666668</ele><time>2023-10-21T22:52:11Z</time></trkpt><trkpt lat="33.8156005" lon="133.1627717"><ele>958.4333333333334</ele><time>2023-10-21T22:53:04Z</time></trkpt><trkpt lat="33.8154546" lon="133.1626375"><ele>961.6300000000001</ele><time>2023-10-21T22:53:48Z</time></trkpt><trkpt lat="33.8153205" lon="133.1624914"><ele>964.4666666666667</ele><time>2023-10-21T22:54:15Z</time></trkpt><trkpt lat="33.8151749" lon="133.1623623"><ele>967.6033333333334</ele><time>2023-10-21T22:54:43Z</time></trkpt><trkpt lat="33.8151048" lon="133.162162"><ele>971.36</ele><time>2023-10-21T22:55:22Z</time></trkpt><trkpt lat="33.8150287" lon="133.1619642"><ele>975.7866666666667</ele><time>2023-10-21T22:56:09Z</time></trkpt><trkpt lat="33.8149703" lon="133.161758"><ele>980.93</ele><time>2023-10-21T22:56:54Z</time></trkpt><trkpt lat="33.8149306" lon="133.1615429"><ele>987.0366666666667</ele><time>2023-10-21T22:57:34Z</time></trkpt><trkpt lat="33.8148508" lon="133.1613422"><ele>993.2599999999999</ele><time>2023-10-21T22:58:34Z</time></trkpt><trkpt lat="33.8147594" lon="133.1611524"><ele>998.73</ele><time>2023-10-21T22:59:11Z</time></trkpt><trkpt lat="33.8146773" lon="133.1609597"><ele>1004.0733333333334</ele><time>2023-10-21T23:00:41Z</time></trkpt><trkpt lat="33.8147644" lon="133.1607642"><ele>1010.0266666666666</ele><time>2023-10-21T23:03:06Z</time></trkpt><trkpt lat="33.8147496" lon="133.160543"><ele>1018.6366666666667</ele><time>2023-10-21T23:04:26Z</time></trkpt><trkpt lat="33.8147204" lon="133.1603212"><ele>1026.2266666666667</ele><time>2023-10-21T23:07:22Z</time></trkpt><trkpt lat="33.8145981" lon="133.1601608"><ele>1031.7966666666666</ele><time>2023-10-21T23:07:42Z</time></trkpt><trkpt lat="33.8144593" lon="133.1600092"><ele>1033.6499999999999</ele><time>2023-10-21T23:08:04Z</time></trkpt><trkpt lat="33.8143527" lon="133.1598294"><ele>1035.9966666666667</ele><time>2023-10-21T23:08:27Z</time></trkpt><trkpt lat="33.8142519" lon="133.1596487"><ele>1040.7299999999998</ele><time>2023-10-21T23:08:59Z</time></trkpt><trkpt lat="33.8142844" lon="133.1594321"><ele>1047.8300000000002</ele><time>2023-10-21T23:10:00Z</time></trkpt><trkpt lat="33.8143186" lon="133.159218"><ele>1054.7133333333334</ele><time>2023-10-21T23:10:57Z</time></trkpt><trkpt lat="33.8141885" lon="133.1590661"><ele>1061.1866666666667</ele><time>2023-10-21T23:12:26Z</time></trkpt><trkpt lat="33.8140388" lon="133.1589376"><ele>1067.2666666666667</ele><time>2023-10-21T23:13:01Z</time></trkpt><trkpt lat="33.8139697" lon="133.1587364"><ele>1074.9466666666667</ele><time>2023-10-21T23:13:47Z</time></trkpt><trkpt lat="33.8138107" lon="133.1586309"><ele>1083.16</ele><time>2023-10-21T23:14:33Z</time></trkpt><trkpt lat="33.8137309" lon="133.1584282"><ele>1090.3566666666666</ele><time>2023-10-21T23:15:06Z</time></trkpt><trkpt lat="33.8135941" lon="133.1582853"><ele>1096.8133333333333</ele><time>2023-10-21T23:15:51Z</time></trkpt><trkpt lat="33.8135895" lon="133.1580689"><ele>1101.4366666666667</ele><time>2023-10-21T23:16:24Z</time></trkpt><trkpt lat="33.8134467" lon="133.1579287"><ele>1106.4933333333336</ele><time>2023-10-21T23:17:51Z</time></trkpt><trkpt lat="33.8132871" lon="133.1578242"><ele>1110.8533333333335</ele><time>2023-10-21T23:18:55Z</time></trkpt><trkpt lat="33.8131494" lon="133.1576806"><ele>1116.0633333333335</ele><time>2023-10-21T23:19:29Z</time></trkpt><trkpt lat="33.8131452" lon="133.1574622"><ele>1122.0466666666669</ele><time>2023-10-21T23:20:01Z</time></trkpt><trkpt lat="33.8131051" lon="133.1572511"><ele>1128.0566666666666</ele><time>2023-10-21T23:20:48Z</time></trkpt><trkpt lat="33.812973" lon="133.1571027"><ele>1134.57</ele><time>2023-10-21T23:22:12Z</time></trkpt><trkpt lat="33.8128472" lon="133.1569385"><ele>1141.1266666666668</ele><time>2023-10-21T23:23:20Z</time></trkpt><trkpt lat="33.8127797" lon="133.1567341"><ele>1146.7</ele><time>2023-10-21T23:23:56Z</time></trkpt><trkpt lat="33.8127413" lon="133.1565224"><ele>1149.68</ele><time>2023-10-21T23:24:20Z</time></trkpt><trkpt lat="33.8127706" lon="133.1562943"><ele>1150.0266666666666</ele><time>2023-10-21T23:24:50Z</time></trkpt><trkpt lat="33.8128119" lon="133.1560801"><ele>1150.0433333333333</ele><time>2023-10-21T23:25:36Z</time></trkpt><trkpt lat="33.8127013" lon="133.1559051"><ele>1150.1000000000001</ele><time>2023-10-21T23:25:57Z</time></trkpt><trkpt lat="33.812689" lon="133.155682"><ele>1150.18</ele><time>2023-10-21T23:26:26Z</time></trkpt><trkpt lat="33.8126794" lon="133.1554593"><ele>1150.32</ele><time>2023-10-21T23:26:47Z</time></trkpt><trkpt lat="33.8127267" lon="133.1552414"><ele>1150.3933333333334</ele><time>2023-10-21T23:27:18Z</time></trkpt><trkpt lat="33.8127736" lon="133.1550316"><ele>1150.2700000000002</ele><time>2023-10-21T23:27:38Z</time></trkpt><trkpt lat="33.8128241" lon="133.1548195"><ele>1149.9833333333333</ele><time>2023-10-21T23:28:05Z</time></trkpt><trkpt lat="33.8127369" lon="133.1546288"><ele>1150.7133333333334</ele><time>2023-10-21T23:28:34Z</time></trkpt><trkpt lat="33.8128365" lon="133.1544448"><ele>1151.2066666666667</ele><time>2023-10-21T23:28:56Z</time></trkpt><trkpt lat="33.8128883" lon="133.1542351"><ele>1152.3566666666668</ele><time>2023-10-21T23:29:14Z</time></trkpt><trkpt lat="33.8130309" lon="133.154101"><ele>1152.69</ele><time>2023-10-21T23:29:53Z</time></trkpt><trkpt lat="33.8129127" lon="133.1542671"><ele>1153.2433333333333</ele><time>2023-10-21T23:39:47Z</time></trkpt><trkpt lat="33.8128233" lon="133.1544716"><ele>1152.2966666666669</ele><time>2023-10-21T23:40:44Z</time></trkpt><trkpt lat="33.8128789" lon="133.1546884"><ele>1151.1599999999999</ele><time>2023-10-21T23:43:11Z</time></trkpt><trkpt lat="33.8129486" lon="133.1548956"><ele>1149.5266666666666</ele><time>2023-10-21T23:43:26Z</time></trkpt><trkpt lat="33.8128324" lon="133.1550613"><ele>1149.0133333333333</ele><time>2023-10-21T23:43:59Z</time></trkpt><trkpt lat="33.8127953" lon="133.1552832"><ele>1148.9633333333334</ele><time>2023-10-21T23:44:21Z</time></trkpt><trkpt lat="33.8128273" lon="133.1555143"><ele>1149.4933333333333</ele><time>2023-10-21T23:44:33Z</time></trkpt><trkpt lat="33.8127879" lon="133.1557258"><ele>1150.0</ele><time>2023-10-21T23:45:08Z</time></trkpt><trkpt lat="33.8127682" lon="133.1559802"><ele>1150.01</ele><time>2023-10-21T23:45:39Z</time></trkpt><trkpt lat="33.8129012" lon="133.1562337"><ele>1149.8433333333332</ele><time>2023-10-21T23:45:55Z</time></trkpt><trkpt lat="33.8129649" lon="133.1564839"><ele>1148.9333333333334</ele><time>2023-10-21T23:46:06Z</time></trkpt><trkpt lat="33.8130107" lon="133.1567088"><ele>1147.6666666666667</ele><time>2023-10-21T23:46:30Z</time></trkpt><trkpt lat="33.8131542" lon="133.1568675"><ele>1144.86</ele><time>2023-10-21T23:46:51Z</time></trkpt><trkpt lat="33.81311" lon="133.1570813"><ele>1141.25</ele><time>2023-10-21T23:47:57Z</time></trkpt><trkpt lat="33.8132088" lon="133.157367"><ele>1135.6333333333334</ele><time>2023-10-21T23:48:42Z</time></trkpt><trkpt lat="33.8132953" lon="133.1575648"><ele>1129.0833333333333</ele><time>2023-10-21T23:48:46Z</time></trkpt><trkpt lat="33.8133904" lon="133.1577519"><ele>1121.6133333333335</ele><time>2023-10-21T23:49:00Z</time></trkpt><trkpt lat="33.813566" lon="133.1578227"><ele>1114.6899999999998</ele><time>2023-10-21T23:49:45Z</time></trkpt><trkpt lat="33.8136491" lon="133.1580227"><ele>1108.6466666666668</ele><time>2023-10-21T23:49:57Z</time></trkpt><trkpt lat="33.8138" lon="133.1581769"><ele>1102.2633333333333</ele><time>2023-10-21T23:51:22Z</time></trkpt><trkpt lat="33.8137646" lon="133.1584275"><ele>1097.3933333333334</ele><time>2023-10-21T23:51:35Z</time></trkpt><trkpt lat="33.8138791" lon="133.1586305"><ele>1093.3233333333335</ele><time>2023-10-21T23:51:47Z</time></trkpt><trkpt lat="33.8140483" lon="133.1587366"><ele>1087.74</ele><time>2023-10-21T23:52:11Z</time></trkpt><trkpt lat="33.8141337" lon="133.1589336"><ele>1080.16</ele><time>2023-10-21T23:52:29Z</time></trkpt><trkpt lat="33.8142841" lon="133.1590629"><ele>1071.5633333333333</ele><time>2023-10-21T23:52:53Z</time></trkpt><trkpt lat="33.8144137" lon="133.1592515"><ele>1064.6766666666665</ele><time>2023-10-21T23:53:19Z</time></trkpt><trkpt lat="33.8143605" lon="133.1594827"><ele>1058.3300000000002</ele><time>2023-10-21T23:53:55Z</time></trkpt><trkpt lat="33.8142691" lon="133.1596832"><ele>1052.6433333333334</ele><time>2023-10-21T23:54:11Z</time></trkpt><trkpt lat="33.8143911" lon="133.1598826"><ele>1045.4066666666668</ele><time>2023-10-21T23:54:28Z</time></trkpt><trkpt lat="33.8145044" lon="133.1600514"><ele>1038.993333333333</ele><time>2023-10-21T23:54:53Z</time></trkpt><trkpt lat="33.8146146" lon="133.1602246"><ele>1033.9066666666665</ele><time>2023-10-21T23:55:07Z</time></trkpt><trkpt lat="33.8146833" lon="133.1604271"><ele>1032.2833333333335</ele><time>2023-10-21T23:55:34Z</time></trkpt><trkpt lat="33.8146963" lon="133.160657"><ele>1028.6166666666666</ele><time>2023-10-21T23:55:52Z</time></trkpt><trkpt lat="33.8146388" lon="133.1608706"><ele>1021.09</ele><time>2023-10-21T23:56:38Z</time></trkpt><trkpt lat="33.8146681" lon="133.1611097"><ele>1011.7533333333332</ele><time>2023-10-21T23:57:25Z</time></trkpt><trkpt lat="33.8147902" lon="133.1612715"><ele>1004.6066666666667</ele><time>2023-10-21T23:57:50Z</time></trkpt><trkpt lat="33.8149004" lon="133.1614623"><ele>999.5600000000001</ele><time>2023-10-21T23:58:04Z</time></trkpt><trkpt lat="33.8149756" lon="133.1616671"><ele>995.1066666666666</ele><time>2023-10-21T23:58:19Z</time></trkpt><trkpt lat="33.8150136" lon="133.1618786"><ele>989.09</ele><time>2023-10-21T23:58:41Z</time></trkpt><trkpt lat="33.8150706" lon="133.1621147"><ele>982.3366666666667</ele><time>2023-10-21T23:59:19Z</time></trkpt><trkpt lat="33.8150777" lon="133.1623452"><ele>975.1</ele><time>2023-10-21T23:59:55Z</time></trkpt><trkpt lat="33.8152571" lon="133.162418"><ele>970.9499999999999</ele><time>2023-10-22T00:00:07Z</time></trkpt><trkpt lat="33.8154128" lon="133.1625778"><ele>967.7466666666666</ele><time>2023-10-22T00:00:25Z</time></trkpt><trkpt lat="33.8155656" lon="133.1627568"><ele>965.9133333333333</ele><time>2023-10-22T00:00:43Z</time></trkpt><trkpt lat="33.8157381" lon="133.162839"><ele>962.1366666666667</ele><time>2023-10-22T00:00:58Z</time></trkpt><trkpt lat="33.8157945" lon="133.1630565"><ele>958.4533333333334</ele><time>2023-10-22T00:01:22Z</time></trkpt><trkpt lat="33.8158419" lon="133.1632865"><ele>954.7566666666667</ele><time>2023-10-22T00:01:43Z</time></trkpt><trkpt lat="33.8159524" lon="133.1634614"><ele>950.6300000000001</ele><time>2023-10-22T00:02:13Z</time></trkpt><trkpt lat="33.816015" lon="133.1636708"><ele>946.7800000000001</ele><time>2023-10-22T00:02:31Z</time></trkpt><trkpt lat="33.8160866" lon="133.1638699"><ele>943.7633333333333</ele><time>2023-10-22T00:02:55Z</time></trkpt><trkpt lat="33.8162264" lon="133.1640126"><ele>942.5300000000001</ele><time>2023-10-22T00:03:13Z</time></trkpt><trkpt lat="33.8163484" lon="133.1642033"><ele>942.4433333333333</ele><time>2023-10-22T00:03:41Z</time></trkpt><trkpt lat="33.8164374" lon="133.164418"><ele>942.9499999999999</ele><time>2023-10-22T00:04:01Z</time></trkpt><trkpt lat="33.81648" lon="133.1646433"><ele>945.5166666666668</ele><time>2023-10-22T00:04:22Z</time></trkpt><trkpt lat="33.8165015" lon="133.1648604"><ele>949.3000000000001</ele><time>2023-10-22T00:04:49Z</time></trkpt><trkpt lat="33.8165842" lon="133.165056"><ele>953.02</ele><time>2023-10-22T00:05:29Z</time></trkpt><trkpt lat="33.8166924" lon="133.1652513"><ele>954.5</ele><time>2023-10-22T00:05:53Z</time></trkpt><trkpt lat="33.8167044" lon="133.1654804"><ele>957.9566666666666</ele><time>2023-10-22T00:06:20Z</time></trkpt><trkpt lat="33.8167654" lon="133.1656992"><ele>962.0266666666666</ele><time>2023-10-22T00:06:50Z</time></trkpt><trkpt lat="33.8167268" lon="133.1659183"><ele>968.3333333333334</ele><time>2023-10-22T00:07:34Z</time></trkpt><trkpt lat="33.816774" lon="133.1661381"><ele>971.37</ele><time>2023-10-22T00:07:50Z</time></trkpt><trkpt lat="33.8168955" lon="133.1663024"><ele>971.6033333333334</ele><time>2023-10-22T00:08:02Z</time></trkpt><trkpt lat="33.8169403" lon="133.1665202"><ele>970.5633333333334</ele><time>2023-10-22T00:08:23Z</time></trkpt><trkpt lat="33.8170778" lon="133.1666891"><ele>969.2633333333333</ele><time>2023-10-22T00:08:56Z</time></trkpt><trkpt lat="33.8171585" lon="133.1668874"><ele>968.57</ele><time>2023-10-22T00:11:24Z</time></trkpt><trkpt lat="33.8172879" lon="133.1670383"><ele>966.1633333333334</ele><time>2023-10-22T00:12:20Z</time></trkpt><trkpt lat="33.8173991" lon="133.1672147"><ele>965.2833333333333</ele><time>2023-10-22T00:12:59Z</time></trkpt><trkpt lat="33.8174873" lon="133.1674103"><ele>966.6966666666667</ele><time>2023-10-22T00:13:25Z</time></trkpt><trkpt lat="33.8176161" lon="133.167565"><ele>969.7633333333333</ele><time>2023-10-22T00:14:08Z</time></trkpt><trkpt lat="33.8177589" lon="133.1676984"><ele>974.4499999999999</ele><time>2023-10-22T00:14:46Z</time></trkpt><trkpt lat="33.8179236" lon="133.1677995"><ele>978.96</ele><time>2023-10-22T00:15:14Z</time></trkpt><trkpt lat="33.8180855" lon="133.1678993"><ele>983.1366666666667</ele><time>2023-10-22T00:15:49Z</time></trkpt><trkpt lat="33.8182104" lon="133.1680607"><ele>987.6766666666666</ele><time>2023-10-22T00:16:28Z</time></trkpt><trkpt lat="33.818333" lon="133.1682231"><ele>995.1666666666666</ele><time>2023-10-22T00:17:29Z</time></trkpt><trkpt lat="33.8184756" lon="133.168356"><ele>1004.7533333333332</ele><time>2023-10-22T00:18:36Z</time></trkpt><trkpt lat="33.8186586" lon="133.1683516"><ele>1012.4499999999999</ele><time>2023-10-22T00:20:16Z</time></trkpt><trkpt lat="33.8187972" lon="133.1685"><ele>1021.5066666666667</ele><time>2023-10-22T00:21:44Z</time></trkpt><trkpt lat="33.8189281" lon="133.1686516"><ele>1032.18</ele><time>2023-10-22T00:23:44Z</time></trkpt><trkpt lat="33.8190368" lon="133.1688344"><ele>1044.1866666666667</ele><time>2023-10-22T00:24:26Z</time></trkpt><trkpt lat="33.8191551" lon="133.1690214"><ele>1053.67</ele><time>2023-10-22T00:26:33Z</time></trkpt><trkpt lat="33.8192503" lon="133.1692093"><ele>1061.5500000000002</ele><time>2023-10-22T00:27:57Z</time></trkpt><trkpt lat="33.819398" lon="133.1693335"><ele>1069.7333333333333</ele><time>2023-10-22T00:28:39Z</time></trkpt><trkpt lat="33.8195707" lon="133.1694024"><ele>1075.7833333333335</ele><time>2023-10-22T00:29:08Z</time></trkpt><trkpt lat="33.8197339" lon="133.1695186"><ele>1080.0766666666668</ele><time>2023-10-22T00:29:38Z</time></trkpt><trkpt lat="33.8199091" lon="133.169584"><ele>1083.0200000000002</ele><time>2023-10-22T00:30:01Z</time></trkpt><trkpt lat="33.8200743" lon="133.1696832"><ele>1086.6000000000001</ele><time>2023-10-22T00:30:41Z</time></trkpt><trkpt lat="33.8202571" lon="133.1696948"><ele>1090.59</ele><time>2023-10-22T00:31:15Z</time></trkpt><trkpt lat="33.820407" lon="133.169817"><ele>1094.49</ele><time>2023-10-22T00:31:42Z</time></trkpt><trkpt lat="33.8205346" lon="133.1699704"><ele>1098.2533333333333</ele><time>2023-10-22T00:32:08Z</time></trkpt><trkpt lat="33.8206859" lon="133.1700943"><ele>1101.1566666666668</ele><time>2023-10-22T00:32:45Z</time></trkpt><trkpt lat="33.8208052" lon="133.170263"><ele>1102.8766666666668</ele><time>2023-10-22T00:33:10Z</time></trkpt><trkpt lat="33.820885" lon="133.1704654"><ele>1104.3366666666668</ele><time>2023-10-22T00:33:30Z</time></trkpt><trkpt lat="33.8208786" lon="133.1706818"><ele>1107.19</ele><time>2023-10-22T00:33:52Z</time></trkpt><trkpt lat="33.8208869" lon="133.1708988"><ele>1112.1466666666668</ele><time>2023-10-22T00:34:36Z</time></trkpt><trkpt lat="33.8210202" lon="133.1710477"><ele>1117.49</ele><time>2023-10-22T00:35:33Z</time></trkpt><trkpt lat="33.8210476" lon="133.1712627"><ele>1121.8700000000001</ele><time>2023-10-22T00:36:13Z</time></trkpt><trkpt lat="33.8210627" lon="133.1714864"><ele>1124.53</ele><time>2023-10-22T00:38:48Z</time></trkpt><trkpt lat="33.8211052" lon="133.1716967"><ele>1127.01</ele><time>2023-10-22T00:39:25Z</time></trkpt><trkpt lat="33.8212164" lon="133.1718732"><ele>1129.13</ele><time>2023-10-22T00:39:50Z</time></trkpt><trkpt lat="33.8213281" lon="133.1720468"><ele>1131.1166666666668</ele><time>2023-10-22T00:40:11Z</time></trkpt><trkpt lat="33.8214825" lon="133.1721733"><ele>1132.3266666666666</ele><time>2023-10-22T00:40:53Z</time></trkpt><trkpt lat="33.8216417" lon="133.1722882"><ele>1134.2066666666667</ele><time>2023-10-22T00:41:21Z</time></trkpt><trkpt lat="33.8216873" lon="133.1724973"><ele>1137.0533333333333</ele><time>2023-10-22T00:42:26Z</time></trkpt><trkpt lat="33.8217542" lon="133.1727022"><ele>1141.93</ele><time>2023-10-22T00:44:36Z</time></trkpt><trkpt lat="33.8216936" lon="133.172906"><ele>1148.0466666666669</ele><time>2023-10-22T00:45:24Z</time></trkpt><trkpt lat="33.8217473" lon="133.1731187"><ele>1156.42</ele><time>2023-10-22T00:46:53Z</time></trkpt><trkpt lat="33.8217639" lon="133.1733412"><ele>1165.0600000000002</ele><time>2023-10-22T00:47:54Z</time></trkpt><trkpt lat="33.8217696" lon="133.1735647"><ele>1175.4466666666667</ele><time>2023-10-22T00:50:33Z</time></trkpt><trkpt lat="33.8217338" lon="133.1737796"><ele>1184.8833333333334</ele><time>2023-10-22T00:51:28Z</time></trkpt><trkpt lat="33.8217371" lon="133.1740006"><ele>1195.3500000000001</ele><time>2023-10-22T00:51:55Z</time></trkpt><trkpt lat="33.8217546" lon="133.1742166"><ele>1205.5833333333335</ele><time>2023-10-22T00:52:47Z</time></trkpt><trkpt lat="33.8217106" lon="133.1744263"><ele>1215.8333333333333</ele><time>2023-10-22T00:54:06Z</time></trkpt><trkpt lat="33.821756" lon="133.1746377"><ele>1226.7333333333333</ele><time>2023-10-22T01:04:38Z</time></trkpt><trkpt lat="33.8217757" lon="133.174855"><ele>1238.4</ele><time>2023-10-22T01:06:56Z</time></trkpt><trkpt lat="33.8218743" lon="133.1750377"><ele>1251.1933333333334</ele><time>2023-10-22T01:08:29Z</time></trkpt><trkpt lat="33.8219888" lon="133.1752048"><ele>1262.8799999999999</ele><time>2023-10-22T01:09:57Z</time></trkpt><trkpt lat="33.8221612" lon="133.1752881"><ele>1274.1066666666666</ele><time>2023-10-22T01:10:57Z</time></trkpt><trkpt lat="33.822332" lon="133.1753659"><ele>1284.7300000000002</ele><time>2023-10-22T01:12:39Z</time></trkpt><trkpt lat="33.8224443" lon="133.1755435"><ele>1292.7433333333333</ele><time>2023-10-22T01:13:18Z</time></trkpt><trkpt lat="33.8224456" lon="133.1757622"><ele>1299.0</ele><time>2023-10-22T01:14:25Z</time></trkpt><trkpt lat="33.8224625" lon="133.1759773"><ele>1304.0266666666666</ele><time>2023-10-22T01:15:10Z</time></trkpt><trkpt lat="33.8225986" lon="133.176126"><ele>1308.0566666666666</ele><time>2023-10-22T01:17:31Z</time></trkpt><trkpt lat="33.8227857" lon="133.1761346"><ele>1308.2866666666666</ele><time>2023-10-22T01:18:35Z</time></trkpt><trkpt lat="33.8229539" lon="133.1760534"><ele>1304.3566666666668</ele><time>2023-10-22T01:19:56Z</time></trkpt><trkpt lat="33.8231395" lon="133.1760398"><ele>1299.4333333333334</ele><time>2023-10-22T01:20:30Z</time></trkpt><trkpt lat="33.8233202" lon="133.1760363"><ele>1294.8933333333334</ele><time>2023-10-22T01:20:56Z</time></trkpt><trkpt lat="33.8234901" lon="133.1759585"><ele>1292.94</ele><time>2023-10-22T01:21:40Z</time></trkpt><trkpt lat="33.8236303" lon="133.1758186"><ele>1295.6166666666666</ele><time>2023-10-22T01:22:46Z</time></trkpt><trkpt lat="33.8237901" lon="133.1757101"><ele>1301.52</ele><time>2023-10-22T01:24:01Z</time></trkpt><trkpt lat="33.8239758" lon="133.1757164"><ele>1308.6433333333334</ele><time>2023-10-22T01:25:12Z</time></trkpt><trkpt lat="33.824141" lon="133.1756207"><ele>1313.6666666666667</ele><time>2023-10-22T01:25:51Z</time></trkpt><trkpt lat="33.8242947" lon="133.1755072"><ele>1320.46</ele><time>2023-10-22T01:27:05Z</time></trkpt><trkpt lat="33.8244761" lon="133.1754948"><ele>1327.9166666666667</ele><time>2023-10-22T01:28:46Z</time></trkpt><trkpt lat="33.8246512" lon="133.1754393"><ele>1337.5166666666667</ele><time>2023-10-22T01:31:15Z</time></trkpt><trkpt lat="33.8248338" lon="133.1754754"><ele>1343.8066666666666</ele><time>2023-10-22T01:31:48Z</time></trkpt><trkpt lat="33.825007" lon="133.1755509"><ele>1348.0466666666666</ele><time>2023-10-22T01:32:23Z</time></trkpt><trkpt lat="33.8251864" lon="133.1756011"><ele>1347.6533333333334</ele><time>2023-10-22T01:32:58Z</time></trkpt><trkpt lat="33.8253537" lon="133.1756924"><ele>1345.3</ele><time>2023-10-22T01:33:25Z</time></trkpt><trkpt lat="33.8255294" lon="133.1757504"><ele>1342.8266666666668</ele><time>2023-10-22T01:34:01Z</time></trkpt><trkpt lat="33.8257144" lon="133.1757182"><ele>1341.92</ele><time>2023-10-22T01:34:34Z</time></trkpt><trkpt lat="33.8258971" lon="133.175698"><ele>1344.36</ele><time>2023-10-22T01:35:35Z</time></trkpt><trkpt lat="33.8260794" lon="133.1756664"><ele>1349.0766666666666</ele><time>2023-10-22T01:36:16Z</time></trkpt><trkpt lat="33.8259035" lon="133.1757371"><ele>1351.1733333333334</ele><time>2023-10-22T01:45:28Z</time></trkpt><trkpt lat="33.8257196" lon="133.175729"><ele>1349.0766666666668</ele><time>2023-10-22T01:46:24Z</time></trkpt><trkpt lat="33.8255402" lon="133.1757566"><ele>1343.2</ele><time>2023-10-22T01:46:58Z</time></trkpt><trkpt lat="33.8253701" lon="133.1756839"><ele>1340.7933333333333</ele><time>2023-10-22T01:47:38Z</time></trkpt><trkpt lat="33.8252021" lon="133.1756006"><ele>1341.7</ele><time>2023-10-22T01:48:04Z</time></trkpt><trkpt lat="33.8250304" lon="133.1755342"><ele>1345.3700000000001</ele><time>2023-10-22T01:48:49Z</time></trkpt><trkpt lat="33.824854" lon="133.1754742"><ele>1347.69</ele><time>2023-10-22T01:49:23Z</time></trkpt><trkpt lat="33.8246688" lon="133.1754555"><ele>1348.0833333333333</ele><time>2023-10-22T01:50:01Z</time></trkpt><trkpt lat="33.8244952" lon="133.1755243"><ele>1344.22</ele><time>2023-10-22T01:51:04Z</time></trkpt><trkpt lat="33.8243136" lon="133.1755217"><ele>1337.93</ele><time>2023-10-22T01:51:40Z</time></trkpt><trkpt lat="33.82414" lon="133.1755819"><ele>1327.44</ele><time>2023-10-22T01:52:46Z</time></trkpt><trkpt lat="33.8240162" lon="133.1757453"><ele>1319.6866666666667</ele><time>2023-10-22T01:53:31Z</time></trkpt><trkpt lat="33.8238354" lon="133.1757547"><ele>1313.3633333333335</ele><time>2023-10-22T01:54:05Z</time></trkpt><trkpt lat="33.8236647" lon="133.175836"><ele>1310.6466666666668</ele><time>2023-10-22T01:54:31Z</time></trkpt><trkpt lat="33.823521" lon="133.17597"><ele>1303.6933333333334</ele><time>2023-10-22T01:55:32Z</time></trkpt><trkpt lat="33.8233583" lon="133.1760682"><ele>1297.32</ele><time>2023-10-22T01:56:32Z</time></trkpt><trkpt lat="33.8231756" lon="133.1760868"><ele>1292.7966666666669</ele><time>2023-10-22T01:57:15Z</time></trkpt><trkpt lat="33.8229964" lon="133.1761133"><ele>1294.5566666666666</ele><time>2023-10-22T01:58:18Z</time></trkpt><trkpt lat="33.8228172" lon="133.1761576"><ele>1298.4266666666667</ele><time>2023-10-22T02:00:02Z</time></trkpt><trkpt lat="33.8226341" lon="133.1761643"><ele>1303.78</ele><time>2023-10-22T02:01:08Z</time></trkpt><trkpt lat="33.8224502" lon="133.1761408"><ele>1309.6366666666668</ele><time>2023-10-22T02:02:10Z</time></trkpt><trkpt lat="33.822341" lon="133.176319"><ele>1316.2233333333334</ele><time>2023-10-22T02:02:44Z</time></trkpt><trkpt lat="33.8222005" lon="133.1764557"><ele>1322.0966666666668</ele><time>2023-10-22T02:04:20Z</time></trkpt><trkpt lat="33.8220432" lon="133.1765649"><ele>1326.9400000000003</ele><time>2023-10-22T02:05:00Z</time></trkpt><trkpt lat="33.8218715" lon="133.1766341"><ele>1330.6666666666667</ele><time>2023-10-22T02:07:00Z</time></trkpt><trkpt lat="33.8216913" lon="133.17668"><ele>1334.21</ele><time>2023-10-22T02:07:36Z</time></trkpt><trkpt lat="33.8215667" lon="133.176841"><ele>1340.7366666666667</ele><time>2023-10-22T02:09:16Z</time></trkpt><trkpt lat="33.8213852" lon="133.176848"><ele>1348.18</ele><time>2023-10-22T02:11:38Z</time></trkpt><trkpt lat="33.821216" lon="133.1769364"><ele>1356.3633333333335</ele><time>2023-10-22T02:12:34Z</time></trkpt><trkpt lat="33.8210852" lon="133.1770874"><ele>1359.9166666666667</ele><time>2023-10-22T02:14:41Z</time></trkpt><trkpt lat="33.8209981" lon="133.1772832"><ele>1361.2466666666667</ele><time>2023-10-22T02:15:28Z</time></trkpt><trkpt lat="33.8209712" lon="133.1775059"><ele>1361.2233333333334</ele><time>2023-10-22T02:16:15Z</time></trkpt><trkpt lat="33.8210289" lon="133.1777143"><ele>1361.1533333333334</ele><time>2023-10-22T02:16:38Z</time></trkpt><trkpt lat="33.820962" lon="133.1779164"><ele>1359.0866666666668</ele><time>2023-10-22T02:17:25Z</time></trkpt><trkpt lat="33.8208318" lon="133.1780732"><ele>1352.3266666666666</ele><time>2023-10-22T02:19:38Z</time></trkpt><trkpt lat="33.820649" lon="133.1781196"><ele>1341.1466666666668</ele><time>2023-10-22T02:20:25Z</time></trkpt><trkpt lat="33.8204761" lon="133.1781898"><ele>1328.7133333333334</ele><time>2023-10-22T02:21:14Z</time></trkpt><trkpt lat="33.8202957" lon="133.1782272"><ele>1315.8766666666668</ele><time>2023-10-22T02:22:11Z</time></trkpt><trkpt lat="33.8201199" lon="133.1782942"><ele>1303.17</ele><time>2023-10-22T02:22:54Z</time></trkpt><trkpt lat="33.8199359" lon="133.1783071"><ele>1289.4933333333336</ele><time>2023-10-22T02:23:52Z</time></trkpt><trkpt lat="33.8197648" lon="133.1783856"><ele>1277.42</ele><time>2023-10-22T02:24:30Z</time></trkpt><trkpt lat="33.8195916" lon="133.1784674"><ele>1266.8933333333334</ele><time>2023-10-22T02:25:04Z</time></trkpt><trkpt lat="33.8194317" lon="133.1785769"><ele>1257.15</ele><time>2023-10-22T02:29:19Z</time></trkpt><trkpt lat="33.8192303" lon="133.1787108"><ele>1247.1699999999998</ele><time>2023-10-22T02:29:50Z</time></trkpt><trkpt lat="33.8190796" lon="133.1788424"><ele>1239.0533333333333</ele><time>2023-10-22T02:29:59Z</time></trkpt><trkpt lat="33.8188813" lon="133.1787708"><ele>1234.0833333333333</ele><time>2023-10-22T02:30:13Z</time></trkpt><trkpt lat="33.8187032" lon="133.178698"><ele>1230.3733333333332</ele><time>2023-10-22T02:30:35Z</time></trkpt><trkpt lat="33.8185178" lon="133.1788057"><ele>1226.17</ele><time>2023-10-22T02:30:44Z</time></trkpt><trkpt lat="33.8183917" lon="133.1789933"><ele>1219.8833333333334</ele><time>2023-10-22T02:30:59Z</time></trkpt><trkpt lat="33.8182119" lon="133.1790323"><ele>1213.8300000000002</ele><time>2023-10-22T02:31:22Z</time></trkpt><trkpt lat="33.8180315" lon="133.1790439"><ele>1208.5866666666668</ele><time>2023-10-22T02:31:44Z</time></trkpt><trkpt lat="33.8179223" lon="133.1792193"><ele>1205.2633333333333</ele><time>2023-10-22T02:32:51Z</time></trkpt><trkpt lat="33.8177728" lon="133.1793643"><ele>1204.46</ele><time>2023-10-22T02:34:50Z</time></trkpt><trkpt lat="33.8179507" lon="133.1792891"><ele>1203.2633333333333</ele><time>2023-10-22T02:50:15Z</time></trkpt><trkpt lat="33.8178618" lon="133.1790903"><ele>1202.2433333333336</ele><time>2023-10-22T02:53:25Z</time></trkpt><trkpt lat="33.8178491" lon="133.1788671"><ele>1196.77</ele><time>2023-10-22T02:53:41Z</time></trkpt><trkpt lat="33.8177955" lon="133.1786339"><ele>1187.0333333333335</ele><time>2023-10-22T02:54:22Z</time></trkpt><trkpt lat="33.8177687" lon="133.1784112"><ele>1176.9933333333333</ele><time>2023-10-22T02:54:43Z</time></trkpt><trkpt lat="33.8178446" lon="133.1782102"><ele>1170.8766666666668</ele><time>2023-10-22T02:54:58Z</time></trkpt><trkpt lat="33.8177243" lon="133.1780332"><ele>1165.6933333333334</ele><time>2023-10-22T02:55:22Z</time></trkpt><trkpt lat="33.8176586" lon="133.1778206"><ele>1157.6333333333332</ele><time>2023-10-22T02:55:42Z</time></trkpt><trkpt lat="33.8174747" lon="133.1777342"><ele>1145.1333333333332</ele><time>2023-10-22T02:56:43Z</time></trkpt><trkpt lat="33.8174616" lon="133.1775098"><ele>1134.09</ele><time>2023-10-22T02:57:17Z</time></trkpt><trkpt lat="33.8173509" lon="133.1773215"><ele>1123.15</ele><time>2023-10-22T02:57:35Z</time></trkpt><trkpt lat="33.8172498" lon="133.1771423"><ele>1113.76</ele><time>2023-10-22T02:57:53Z</time></trkpt><trkpt lat="33.8171026" lon="133.1770078"><ele>1104.9133333333334</ele><time>2023-10-22T02:58:29Z</time></trkpt><trkpt lat="33.8169056" lon="133.1769313"><ele>1097.7133333333334</ele><time>2023-10-22T02:58:46Z</time></trkpt><trkpt lat="33.8167112" lon="133.1768891"><ele>1088.1766666666667</ele><time>2023-10-22T02:59:04Z</time></trkpt><trkpt lat="33.8168415" lon="133.1767345"><ele>1084.5633333333333</ele><time>2023-10-22T02:59:22Z</time></trkpt><trkpt lat="33.8167413" lon="133.1765127"><ele>1080.7633333333333</ele><time>2023-10-22T03:00:10Z</time></trkpt><trkpt lat="33.8166406" lon="133.1763185"><ele>1081.9033333333334</ele><time>2023-10-22T03:00:25Z</time></trkpt><trkpt lat="33.8165564" lon="133.1761"><ele>1077.7066666666667</ele><time>2023-10-22T03:00:40Z</time></trkpt><trkpt lat="33.816471" lon="133.1758778"><ele>1073.0100000000002</ele><time>2023-10-22T03:00:55Z</time></trkpt><trkpt lat="33.8163705" lon="133.1756405"><ele>1066.3066666666666</ele><time>2023-10-22T03:01:10Z</time></trkpt><trkpt lat="33.8163083" lon="133.1754153"><ele>1059.8666666666668</ele><time>2023-10-22T03:01:46Z</time></trkpt><trkpt lat="33.8162584" lon="133.1751767"><ele>1054.05</ele><time>2023-10-22T03:02:02Z</time></trkpt><trkpt lat="33.8161913" lon="133.1749741"><ele>1047.6066666666668</ele><time>2023-10-22T03:02:16Z</time></trkpt><trkpt lat="33.8160379" lon="133.1748017"><ele>1042.0166666666667</ele><time>2023-10-22T03:02:34Z</time></trkpt><trkpt lat="33.8159171" lon="133.1745871"><ele>1036.14</ele><time>2023-10-22T03:02:52Z</time></trkpt><trkpt lat="33.8158282" lon="133.1743962"><ele>1030.4333333333334</ele><time>2023-10-22T03:03:07Z</time></trkpt><trkpt lat="33.8156509" lon="133.1743161"><ele>1022.2466666666668</ele><time>2023-10-22T03:03:43Z</time></trkpt><trkpt lat="33.8154585" lon="133.1742996"><ele>1013.5666666666666</ele><time>2023-10-22T03:04:14Z</time></trkpt><trkpt lat="33.8152809" lon="133.1741769"><ele>1001.5533333333334</ele><time>2023-10-22T03:04:40Z</time></trkpt><trkpt lat="33.8151131" lon="133.1742844"><ele>990.8333333333334</ele><time>2023-10-22T03:05:10Z</time></trkpt><trkpt lat="33.8149361" lon="133.174375"><ele>979.8266666666667</ele><time>2023-10-22T03:05:26Z</time></trkpt><trkpt lat="33.8147641" lon="133.1744663"><ele>972.3133333333334</ele><time>2023-10-22T03:05:47Z</time></trkpt><trkpt lat="33.814561" lon="133.1744931"><ele>963.4366666666668</ele><time>2023-10-22T03:06:08Z</time></trkpt><trkpt lat="33.8143776" lon="133.1743731"><ele>955.1966666666667</ele><time>2023-10-22T03:09:11Z</time></trkpt><trkpt lat="33.8141888" lon="133.1744905"><ele>945.93</ele><time>2023-10-22T03:09:26Z</time></trkpt><trkpt lat="33.8140063" lon="133.1745825"><ele>935.4933333333333</ele><time>2023-10-22T03:10:00Z</time></trkpt><trkpt lat="33.8138247" lon="133.1745701"><ele>925.2133333333335</ele><time>2023-10-22T03:10:23Z</time></trkpt><trkpt lat="33.8136496" lon="133.1746257"><ele>915.21</ele><time>2023-10-22T03:11:08Z</time></trkpt><trkpt lat="33.8134747" lon="133.1745653"><ele>908.4933333333333</ele><time>2023-10-22T03:11:32Z</time></trkpt><trkpt lat="33.8133103" lon="133.1744755"><ele>897.1566666666668</ele><time>2023-10-22T03:12:05Z</time></trkpt><trkpt lat="33.8132091" lon="133.1742869"><ele>887.3066666666667</ele><time>2023-10-22T03:12:29Z</time></trkpt><trkpt lat="33.813171" lon="133.1740331"><ele>879.5166666666668</ele><time>2023-10-22T03:12:44Z</time></trkpt><trkpt lat="33.8129843" lon="133.1740193"><ele>873.46</ele><time>2023-10-22T03:13:11Z</time></trkpt><trkpt lat="33.8128601" lon="133.1738481"><ele>866.3233333333334</ele><time>2023-10-22T03:13:41Z</time></trkpt><trkpt lat="33.8127502" lon="133.1736731"><ele>856.9066666666668</ele><time>2023-10-22T03:14:38Z</time></trkpt><trkpt lat="33.8125684" lon="133.173586"><ele>848.3666666666667</ele><time>2023-10-22T03:15:06Z</time></trkpt><trkpt lat="33.8124859" lon="133.1733683"><ele>841.1766666666667</ele><time>2023-10-22T03:15:47Z</time></trkpt><trkpt lat="33.8123232" lon="133.1732574"><ele>832.4733333333334</ele><time>2023-10-22T03:16:24Z</time></trkpt><trkpt lat="33.8121915" lon="133.1734377"><ele>824.9666666666667</ele><time>2023-10-22T03:17:02Z</time></trkpt><trkpt lat="33.8119894" lon="133.1733552"><ele>815.4900000000001</ele><time>2023-10-22T03:17:32Z</time></trkpt><trkpt lat="33.8117896" lon="133.1734302"><ele>805.6033333333334</ele><time>2023-10-22T03:17:57Z</time></trkpt><trkpt lat="33.8116098" lon="133.1733548"><ele>796.9266666666667</ele><time>2023-10-22T03:18:33Z</time></trkpt><trkpt lat="33.8114245" lon="133.1732951"><ele>790.7533333333334</ele><time>2023-10-22T03:18:54Z</time></trkpt><trkpt lat="33.8112449" lon="133.1732362"><ele>786.2033333333333</ele><time>2023-10-22T03:19:11Z</time></trkpt><trkpt lat="33.8110309" lon="133.1732065"><ele>780.9833333333332</ele><time>2023-10-22T03:19:26Z</time></trkpt><trkpt lat="33.8108408" lon="133.1732923"><ele>773.6466666666666</ele><time>2023-10-22T03:19:45Z</time></trkpt><trkpt lat="33.81066" lon="133.1732159"><ele>765.7933333333334</ele><time>2023-10-22T03:20:03Z</time></trkpt><trkpt lat="33.810498" lon="133.1730673"><ele>758.1300000000001</ele><time>2023-10-22T03:20:17Z</time></trkpt><trkpt lat="33.8103826" lon="133.1728752"><ele>749.6733333333333</ele><time>2023-10-22T03:20:39Z</time></trkpt><trkpt lat="33.8102327" lon="133.1727185"><ele>738.5900000000001</ele><time>2023-10-22T03:20:57Z</time></trkpt><trkpt lat="33.8102668" lon="133.1724961"><ele>728.6466666666666</ele><time>2023-10-22T03:21:12Z</time></trkpt><trkpt lat="33.8103944" lon="133.1723378"><ele>719.46</ele><time>2023-10-22T03:21:27Z</time></trkpt><trkpt lat="33.8105487" lon="133.1721918"><ele>711.6333333333333</ele><time>2023-10-22T03:22:18Z</time></trkpt><trkpt lat="33.8105198" lon="133.1719541"><ele>700.7433333333333</ele><time>2023-10-22T03:25:11Z</time></trkpt><trkpt lat="33.8104996" lon="133.1717348"><ele>691.2166666666667</ele><time>2023-10-22T03:25:44Z</time></trkpt><trkpt lat="33.8104672" lon="133.1715214"><ele>683.7333333333332</ele><time>2023-10-22T03:26:21Z</time></trkpt><trkpt lat="33.810466" lon="133.1712611"><ele>679.9333333333333</ele><time>2023-10-22T03:27:09Z</time></trkpt><trkpt lat="33.8104446" lon="133.1710255"><ele>676.3666666666667</ele><time>2023-10-22T03:27:29Z</time></trkpt><trkpt lat="33.810349" lon="133.1708218"><ele>672.7733333333333</ele><time>2023-10-22T03:27:45Z</time></trkpt><trkpt lat="33.810406" lon="133.1705823"><ele>670.2766666666666</ele><time>2023-10-22T03:28:06Z</time></trkpt><trkpt lat="33.8102952" lon="133.1703892"><ele>665.41</ele><time>2023-10-22T03:28:36Z</time></trkpt><trkpt lat="33.8103895" lon="133.1701652"><ele>663.2000000000002</ele><time>2023-10-22T03:28:54Z</time></trkpt><trkpt lat="33.8104085" lon="133.1699495"><ele>658.8033333333334</ele><time>2023-10-22T03:29:14Z</time></trkpt><trkpt lat="33.8103144" lon="133.1697466"><ele>652.34</ele><time>2023-10-22T03:29:29Z</time></trkpt><trkpt lat="33.8103651" lon="133.1695088"><ele>643.7933333333334</ele><time>2023-10-22T03:29:53Z</time></trkpt><trkpt lat="33.8105247" lon="133.1696269"><ele>641.16</ele><time>2023-10-22T03:30:02Z</time></trkpt><trkpt lat="33.8104262" lon="133.1694373"><ele>640.7166666666667</ele><time>2023-10-22T03:31:41Z</time></trkpt><trkpt lat="33.8104774" lon="133.1692164"><ele>640.3066666666667</ele><time>2023-10-22T03:32:09Z</time></trkpt><trkpt lat="33.8104785" lon="133.1689643"><ele>633.7033333333334</ele><time>2023-10-22T03:35:56Z</time></trkpt><trkpt lat="33.8104146" lon="133.1687577"><ele>626.8866666666667</ele><time>2023-10-22T03:36:11Z</time></trkpt><trkpt lat="33.8104717" lon="133.1685502"><ele>620.64</ele><time>2023-10-22T03:37:05Z</time></trkpt><trkpt lat="33.8102771" lon="133.1685172"><ele>612.06</ele><time>2023-10-22T03:37:35Z</time></trkpt><trkpt lat="33.8101359" lon="133.1683401"><ele>603.5266666666666</ele><time>2023-10-22T03:38:11Z</time></trkpt><trkpt lat="33.8101197" lon="133.1681131"><ele>595.16</ele><time>2023-10-22T03:38:35Z</time></trkpt><trkpt lat="33.8101443" lon="133.1678876"><ele>591.3633333333333</ele><time>2023-10-22T03:39:05Z</time></trkpt><trkpt lat="33.8100504" lon="133.1676899"><ele>589.7900000000001</ele><time>2023-10-22T03:40:14Z</time></trkpt><trkpt lat="33.8099703" lon="133.1674828"><ele>585.9933333333333</ele><time>2023-10-22T03:40:32Z</time></trkpt><trkpt lat="33.8098733" lon="133.1672686"><ele>578.6866666666666</ele><time>2023-10-22T03:40:52Z</time></trkpt><trkpt lat="33.8098186" lon="133.167054"><ele>571.34</ele><time>2023-10-22T03:41:11Z</time></trkpt></trkseg></trk></gpx>