<?xml version='1.0' encoding='UTF-8'?><gpx creator="Yama Museum Peak Annotator" xsi:schemaLocation="http://www.topografix.com/GPX/1/1 http://www.topografix.com/GPX/1/1/gpx.xsd" version="1.1" xmlns="http://www.topografix.com/GPX/1/1" xmlns:xsi="http://www.w3.org/2001/XMLSchema-instance"><metadata><bounds maxlat="33.0342378" maxlon="132.5334884" minlat="33.0319585" minlon="132.5315664"/></metadata>  <wpt lat="33.0342378" lon="132.5322872">
    <ele>780.6233333333334</ele>
    <name>観音岳</name>
    <desc>Peak detected at 781m (prominence: 62m)</desc>
    <sym>Summit</sym>
  </wpt>
<trk><name>観音岳</name><number>1</number><trkseg><trkpt lat="33.0327337" lon="132.5334884"><ele>704.15</ele><time>2024-03-02T23:44:14Z</time></trkpt><trkpt lat="33.0327142" lon="132.5332684"><ele>708.96</ele><time>2024-03-02T23:45:55Z</time></trkpt><trkpt lat="33.0327965" lon="132.5330765"><ele>710.9733333333334</ele><time>2024-03-02T23:46:33Z</time></trkpt><trkpt lat="33.0328109" lon="132.5328623"><ele>715.6133333333333</ele><time>2024-03-02T23:46:55Z</time></trkpt><trkpt lat="33.0326605" lon="132.532742"><ele>718.4766666666668</ele><time>2024-03-02T23:47:30Z</time></trkpt><trkpt lat="33.0324827" lon="132.5327057"><ele>724.54</ele><time>2024-03-02T23:49:03Z</time></trkpt><trkpt lat="33.0322977" lon="132.5327052"><ele>731.3000000000001</ele><time>2024-03-02T23:49:25Z</time></trkpt><trkpt lat="33.0321213" lon="132.5326568"><ele>738.0066666666667</ele><time>2024-03-02T23:49:49Z</time></trkpt><trkpt lat="33.0320088" lon="132.532477"><ele>741.8433333333332</ele><time>2024-03-02T23:50:15Z</time></trkpt><trkpt lat="33.0319585" lon="132.5322695"><ele>745.0</ele><time>2024-03-02T23:50:33Z</time></trkpt><trkpt lat="33.0320123" lon="132.5320576"><ele>747.6266666666667</ele><time>2024-03-02T23:52:10Z</time></trkpt><trkpt lat="33.0320368" lon="132.5318411"><ele>751.1133333333333</ele><time>2024-03-02T23:52:23Z</time></trkpt><trkpt lat="33.0320905" lon="132.5316284"><ele>754.69</ele><time>2024-03-02T23:52:43Z</time></trkpt><trkpt lat="33.0322632" lon="132.5315664"><ele>758.39</ele><time>2024-03-02T23:53:20Z</time></trkpt><trkpt lat="33.032443" lon="132.5316096"><ele>759.4700000000001</ele><time>2024-03-02T23:53:39Z</time></trkpt><trkpt lat="33.0326265" lon="132.5316077"><ele>758.7433333333333</ele><time>2024-03-02T23:53:56Z</time></trkpt><trkpt lat="33.0328217" lon="132.5316027"><ele>755.8266666666667</ele><time>2024-03-02T23:54:19Z</time></trkpt><trkpt lat="33.0330049" lon="132.5316019"><ele>755.16</ele><time>2024-03-02T23:54:32Z</time></trkpt><trkpt lat="33.0331827" lon="132.5316511"><ele>756.7000000000002</ele><time>2024-03-02T23:54:48Z</time></trkpt><trkpt lat="33.0333652" lon="132.5316881"><ele>761.6833333333333</ele><time>2024-03-02T23:55:13Z</time></trkpt><trkpt lat="33.033543" lon="132.531727"><ele>766.9533333333334</ele><time>2024-03-02T23:55:34Z</time></trkpt><trkpt lat="33.0337174" lon="132.5317848"><ele>772.54</ele><time>2024-03-02T23:55:48Z</time></trkpt><trkpt lat="33.0338988" lon="132.531837"><ele>776.3800000000001</ele><time>2024-03-02T23:56:06Z</time></trkpt><trkpt lat="33.0340717" lon="132.5319037"><ele>778.89</ele><time>2024-03-02T23:56:28Z</time></trkpt><trkpt lat="33.0341632" lon="132.532089"><ele>779.8333333333334</ele><time>2024-03-02T23:56:46Z</time></trkpt><trkpt lat="33.0342378" lon="132.5322872"><ele>780.6233333333334</ele><time>2024-03-02T23:57:26Z</time></trkpt><trkpt lat="33.034081" lon="132.5323999"><ele>780.7199999999999</ele><time>2024-03-03T00:03:18Z</time></trkpt><trkpt lat="33.0339009" lon="132.532358"><ele>777.3133333333334</ele><time>2024-03-03T00:03:59Z</time></trkpt><trkpt lat="33.0337182" lon="132.5323904"><ele>769.2233333333334</ele><time>2024-03-03T00:04:40Z</time></trkpt><trkpt lat="33.0335484" lon="132.5323071"><ele>758.4833333333332</ele><time>2024-03-03T00:05:04Z</time></trkpt><trkpt lat="33.0334263" lon="132.5324726"><ele>749.0433333333334</ele><time>2024-03-03T00:06:09Z</time></trkpt><trkpt lat="33.0333229" lon="132.5326577"><ele>741.1866666666666</ele><time>2024-03-03T00:06:55Z</time></trkpt><trkpt lat="33.0331714" lon="132.5327862"><ele>735.0366666666667</ele><time>2024-03-03T00:07:11Z</time></trkpt><trkpt lat="33.0331113" lon="132.532991"><ele>728.0466666666667</ele><time>2024-03-03T00:07:39Z</time></trkpt><trkpt lat="33.0330438" lon="132.5331913"><ele>722.4033333333333</ele><time>2024-03-03T00:08:08Z</time></trkpt><trkpt lat="33.0328791" lon="132.5332851"><ele>716.9066666666666</ele><time>2024-03-03T00:08:32Z</time></trkpt><trkpt lat="33.0327564" lon="132.5334548"><ele>712.7566666666667</ele><time>2024-03-03T00:09:02Z</time></trkpt></trkseg></trk></gpx>