<?xml version='1.0' encoding='UTF-8'?><gpx creator="Yama Museum Peak Annotator" xsi:schemaLocation="http://www.topografix.com/GPX/1/1 http://www.topografix.com/GPX/1/1/gpx.xsd" version="1.1" xmlns="http://www.topografix.com/GPX/1/1" xmlns:xsi="http://www.w3.org/2001/XMLSchema-instance"><metadata><bounds maxlat="33.9202513" maxlon="132.811089" minlat="33.9138814" minlon="132.8074921"/></metadata>  <wpt lat="33.9200756" lon="132.807533">
    <ele>449.0333333333333</ele>
    <name>横山</name>
    <desc>Peak detected at 449m (prominence: 48m)</desc>
    <sym>Summit</sym>
  </wpt>
<trk><name>横山(横山城址)</name><number>1</number><trkseg><trkpt lat="33.9140929" lon="132.8102672"><ele>400.69</ele><time>2022-06-28T23:48:51Z</time></trkpt><trkpt lat="33.9142287" lon="132.8104307"><ele>400.685</ele><time>2022-06-28T23:49:09Z</time></trkpt><trkpt lat="33.9141668" lon="132.8102217"><ele>400.78999999999996</ele><time>2022-06-28T23:50:40Z</time></trkpt><trkpt lat="33.9140464" lon="132.8100516"><ele>399.94000000000005</ele><time>2022-06-28T23:50:53Z</time></trkpt><trkpt lat="33.9141774" lon="132.8102014"><ele>399.99666666666667</ele><time>2022-06-28T23:51:37Z</time></trkpt><trkpt lat="33.9143223" lon="132.8103343"><ele>400.13000000000005</ele><time>2022-06-28T23:51:53Z</time></trkpt><trkpt lat="33.9142802" lon="132.8105463"><ele>401.2</ele><time>2022-06-28T23:52:23Z</time></trkpt><trkpt lat="33.9140972" lon="132.8105381"><ele>401.2033333333334</ele><time>2022-06-28T23:52:56Z</time></trkpt><trkpt lat="33.9142622" lon="132.8104419"><ele>401.06333333333333</ele><time>2022-06-28T23:55:01Z</time></trkpt><trkpt lat="33.9141116" lon="132.8103085"><ele>400.8333333333333</ele><time>2022-06-28T23:55:44Z</time></trkpt><trkpt lat="33.9140177" lon="132.8101168"><ele>399.75</ele><time>2022-06-28T23:55:58Z</time></trkpt><trkpt lat="33.9141635" lon="132.8102477"><ele>399.75666666666666</ele><time>2022-06-28T23:58:55Z</time></trkpt><trkpt lat="33.9143258" lon="132.81035"><ele>400.00333333333333</ele><time>2022-06-28T23:59:11Z</time></trkpt><trkpt lat="33.9145064" lon="132.8103202"><ele>401.3300000000001</ele><time>2022-06-28T23:59:29Z</time></trkpt><trkpt lat="33.9146888" lon="132.8102625"><ele>402.08666666666664</ele><time>2022-06-28T23:59:51Z</time></trkpt><trkpt lat="33.9146265" lon="132.8104678"><ele>402.25333333333333</ele><time>2022-06-29T00:00:13Z</time></trkpt><trkpt lat="33.9144566" lon="132.8105561"><ele>402.20000000000005</ele><time>2022-06-29T00:00:30Z</time></trkpt><trkpt lat="33.9142749" lon="132.8105497"><ele>401.56</ele><time>2022-06-29T00:00:50Z</time></trkpt><trkpt lat="33.9140774" lon="132.8105598"><ele>402.07</ele><time>2022-06-29T00:03:29Z</time></trkpt><trkpt lat="33.9142441" lon="132.8104701"><ele>401.95666666666665</ele><time>2022-06-29T00:11:43Z</time></trkpt><trkpt lat="33.9144136" lon="132.8103677"><ele>402.02666666666664</ele><time>2022-06-29T00:11:59Z</time></trkpt><trkpt lat="33.914441" lon="132.8101258"><ele>401.25</ele><time>2022-06-29T00:12:19Z</time></trkpt><trkpt lat="33.9142606" lon="132.8101185"><ele>401.34</ele><time>2022-06-29T00:12:31Z</time></trkpt><trkpt lat="33.9141036" lon="132.8099914"><ele>400.24</ele><time>2022-06-29T00:12:55Z</time></trkpt><trkpt lat="33.9141073" lon="132.8102338"><ele>400.1033333333333</ele><time>2022-06-29T00:13:51Z</time></trkpt><trkpt lat="33.9140527" lon="132.8100159"><ele>398.6666666666667</ele><time>2022-06-29T00:15:30Z</time></trkpt><trkpt lat="33.9142254" lon="132.8100954"><ele>399.3933333333334</ele><time>2022-06-29T00:19:28Z</time></trkpt><trkpt lat="33.9142277" lon="132.8103215"><ele>399.4466666666667</ele><time>2022-06-29T00:20:16Z</time></trkpt><trkpt lat="33.9141811" lon="132.8105341"><ele>400.71999999999997</ele><time>2022-06-29T00:20:37Z</time></trkpt><trkpt lat="33.9139995" lon="132.810445"><ele>400.8866666666667</ele><time>2022-06-29T00:24:29Z</time></trkpt><trkpt lat="33.9140018" lon="132.8106671"><ele>403.3833333333334</ele><time>2022-06-29T00:24:56Z</time></trkpt><trkpt lat="33.9138814" lon="132.810498"><ele>405.9066666666667</ele><time>2022-06-29T00:26:07Z</time></trkpt><trkpt lat="33.91406" lon="132.8104483"><ele>405.71999999999997</ele><time>2022-06-29T00:40:00Z</time></trkpt><trkpt lat="33.9142622" lon="132.8104169"><ele>403.26666666666665</ele><time>2022-06-29T00:44:27Z</time></trkpt><trkpt lat="33.9144508" lon="132.8103858"><ele>401.02666666666664</ele><time>2022-06-29T00:46:10Z</time></trkpt><trkpt lat="33.9146308" lon="132.810349"><ele>401.72</ele><time>2022-06-29T00:46:30Z</time></trkpt><trkpt lat="33.9148134" lon="132.8103258"><ele>403.47</ele><time>2022-06-29T00:46:46Z</time></trkpt><trkpt lat="33.9149713" lon="132.8102082"><ele>405.9466666666667</ele><time>2022-06-29T00:47:03Z</time></trkpt><trkpt lat="33.9151244" lon="132.8103377"><ele>408.7633333333334</ele><time>2022-06-29T00:47:19Z</time></trkpt><trkpt lat="33.9152553" lon="132.8104912"><ele>411.0833333333333</ele><time>2022-06-29T00:47:32Z</time></trkpt><trkpt lat="33.9154413" lon="132.8105259"><ele>412.89000000000004</ele><time>2022-06-29T00:47:44Z</time></trkpt><trkpt lat="33.9156275" lon="132.8105506"><ele>413.6366666666667</ele><time>2022-06-29T00:47:57Z</time></trkpt><trkpt lat="33.915809" lon="132.8105534"><ele>413.31333333333333</ele><time>2022-06-29T00:48:30Z</time></trkpt><trkpt lat="33.9159776" lon="132.8106351"><ele>411.12000000000006</ele><time>2022-06-29T00:48:47Z</time></trkpt><trkpt lat="33.9161568" lon="132.8106716"><ele>410.10999999999996</ele><time>2022-06-29T00:48:58Z</time></trkpt><trkpt lat="33.9163279" lon="132.8107665"><ele>409.23</ele><time>2022-06-29T00:49:10Z</time></trkpt><trkpt lat="33.9165204" lon="132.8107898"><ele>411.06</ele><time>2022-06-29T00:49:24Z</time></trkpt><trkpt lat="33.9167025" lon="132.8107548"><ele>413.02666666666664</ele><time>2022-06-29T00:49:38Z</time></trkpt><trkpt lat="33.9168854" lon="132.8107306"><ele>415.89000000000004</ele><time>2022-06-29T00:49:55Z</time></trkpt><trkpt lat="33.9169895" lon="132.8109078"><ele>416.7366666666667</ele><time>2022-06-29T00:50:26Z</time></trkpt><trkpt lat="33.917107" lon="132.811089"><ele>417.3333333333333</ele><time>2022-06-29T00:50:46Z</time></trkpt><trkpt lat="33.9172673" lon="132.8109815"><ele>417.7333333333333</ele><time>2022-06-29T00:51:47Z</time></trkpt><trkpt lat="33.9174493" lon="132.8110116"><ele>419.3233333333333</ele><time>2022-06-29T00:52:08Z</time></trkpt><trkpt lat="33.917611" lon="132.8109017"><ele>421.21000000000004</ele><time>2022-06-29T00:52:25Z</time></trkpt><trkpt lat="33.9176949" lon="132.810685"><ele>423.01</ele><time>2022-06-29T00:52:40Z</time></trkpt><trkpt lat="33.9176762" lon="132.8104659"><ele>425.1466666666667</ele><time>2022-06-29T00:52:54Z</time></trkpt><trkpt lat="33.917815" lon="132.8103271"><ele>427.34999999999997</ele><time>2022-06-29T00:53:11Z</time></trkpt><trkpt lat="33.9179867" lon="132.8102519"><ele>430.20666666666665</ele><time>2022-06-29T00:53:26Z</time></trkpt><trkpt lat="33.918103" lon="132.8100744"><ele>431.0166666666667</ele><time>2022-06-29T00:54:00Z</time></trkpt><trkpt lat="33.9182923" lon="132.8100979"><ele>431.4466666666667</ele><time>2022-06-29T00:54:21Z</time></trkpt><trkpt lat="33.9183828" lon="132.8099091"><ele>429.42</ele><time>2022-06-29T00:54:34Z</time></trkpt><trkpt lat="33.9184836" lon="132.8097222"><ele>429.7033333333334</ele><time>2022-06-29T00:57:08Z</time></trkpt><trkpt lat="33.9185936" lon="132.8095497"><ele>430.68666666666667</ele><time>2022-06-29T00:57:42Z</time></trkpt><trkpt lat="33.9187432" lon="132.8094122"><ele>434.8333333333333</ele><time>2022-06-29T00:59:17Z</time></trkpt><trkpt lat="33.9186335" lon="132.8092402"><ele>435.31</ele><time>2022-06-29T00:59:51Z</time></trkpt><trkpt lat="33.918816" lon="132.8091909"><ele>437.25333333333333</ele><time>2022-06-29T01:01:31Z</time></trkpt><trkpt lat="33.9189076" lon="132.8090026"><ele>436.8</ele><time>2022-06-29T01:02:11Z</time></trkpt><trkpt lat="33.9190874" lon="132.8090406"><ele>439.5233333333333</ele><time>2022-06-29T01:08:41Z</time></trkpt><trkpt lat="33.9192635" lon="132.8089914"><ele>439.50666666666666</ele><time>2022-06-29T01:08:57Z</time></trkpt><trkpt lat="33.9194324" lon="132.8089139"><ele>439.97</ele><time>2022-06-29T01:09:10Z</time></trkpt><trkpt lat="33.9195393" lon="132.8087326"><ele>439.27</ele><time>2022-06-29T01:09:22Z</time></trkpt><trkpt lat="33.9195445" lon="132.8085152"><ele>437.92333333333335</ele><time>2022-06-29T01:09:54Z</time></trkpt><trkpt lat="33.919703" lon="132.8083936"><ele>437.52666666666664</ele><time>2022-06-29T01:10:55Z</time></trkpt><trkpt lat="33.9197907" lon="132.808191"><ele>438.59666666666664</ele><time>2022-06-29T01:11:30Z</time></trkpt><trkpt lat="33.9198529" lon="132.8079878"><ele>440.96000000000004</ele><time>2022-06-29T01:11:43Z</time></trkpt><trkpt lat="33.9199288" lon="132.8077909"><ele>442.92333333333335</ele><time>2022-06-29T01:12:05Z</time></trkpt><trkpt lat="33.9200976" lon="132.8077125"><ele>445.46333333333337</ele><time>2022-06-29T01:12:30Z</time></trkpt><trkpt lat="33.9201036" lon="132.8074921"><ele>447.8533333333333</ele><time>2022-06-29T01:12:51Z</time></trkpt><trkpt lat="33.9202513" lon="132.8076191"><ele>448.53000000000003</ele><time>2022-06-29T01:15:46Z</time></trkpt><trkpt lat="33.9200756" lon="132.807533"><ele>449.0333333333333</ele><time>2022-06-29T01:17:43Z</time></trkpt><trkpt lat="33.9200428" lon="132.8077482"><ele>448.0233333333333</ele><time>2022-06-29T01:30:24Z</time></trkpt><trkpt lat="33.9199603" lon="132.8079451"><ele>447.1566666666667</ele><time>2022-06-29T01:30:50Z</time></trkpt><trkpt lat="33.9198654" lon="132.808144"><ele>443.86000000000007</ele><time>2022-06-29T01:31:55Z</time></trkpt><trkpt lat="33.9197701" lon="132.8083506"><ele>441.24</ele><time>2022-06-29T01:32:15Z</time></trkpt><trkpt lat="33.9196652" lon="132.8085407"><ele>439.5566666666667</ele><time>2022-06-29T01:32:31Z</time></trkpt><trkpt lat="33.9196522" lon="132.8087593"><ele>438.7733333333333</ele><time>2022-06-29T01:32:44Z</time></trkpt><trkpt lat="33.919528" lon="132.8089199"><ele>438.87999999999994</ele><time>2022-06-29T01:33:11Z</time></trkpt><trkpt lat="33.9193491" lon="132.808884"><ele>438.8433333333333</ele><time>2022-06-29T01:33:51Z</time></trkpt><trkpt lat="33.919197" lon="132.809011"><ele>439.50333333333333</ele><time>2022-06-29T01:34:18Z</time></trkpt><trkpt lat="33.9190148" lon="132.8089618"><ele>439.12000000000006</ele><time>2022-06-29T01:35:15Z</time></trkpt><trkpt lat="33.9188683" lon="132.8091005"><ele>439.53333333333336</ele><time>2022-06-29T01:38:09Z</time></trkpt><trkpt lat="33.9187336" lon="132.8092501"><ele>439.09666666666664</ele><time>2022-06-29T01:38:34Z</time></trkpt><trkpt lat="33.9186877" lon="132.8094613"><ele>438.42333333333335</ele><time>2022-06-29T01:40:30Z</time></trkpt><trkpt lat="33.9186524" lon="132.8096779"><ele>435.28</ele><time>2022-06-29T01:41:00Z</time></trkpt><trkpt lat="33.9185854" lon="132.8098829"><ele>428.68</ele><time>2022-06-29T01:41:17Z</time></trkpt><trkpt lat="33.9184548" lon="132.810045"><ele>423.68666666666667</ele><time>2022-06-29T01:41:35Z</time></trkpt><trkpt lat="33.9182996" lon="132.8101556"><ele>423.18333333333334</ele><time>2022-06-29T01:42:16Z</time></trkpt><trkpt lat="33.9181176" lon="132.8101376"><ele>427.85999999999996</ele><time>2022-06-29T01:42:47Z</time></trkpt><trkpt lat="33.9179501" lon="132.8102582"><ele>431.77333333333337</ele><time>2022-06-29T01:43:00Z</time></trkpt><trkpt lat="33.9178409" lon="132.8104604"><ele>431.18</ele><time>2022-06-29T01:43:15Z</time></trkpt><trkpt lat="33.9177081" lon="132.8106205"><ele>428.85999999999996</ele><time>2022-06-29T01:43:30Z</time></trkpt><trkpt lat="33.9176567" lon="132.8108461"><ele>425.77666666666664</ele><time>2022-06-29T01:43:52Z</time></trkpt><trkpt lat="33.9175121" lon="132.810984"><ele>424.1166666666666</ele><time>2022-06-29T01:44:11Z</time></trkpt><trkpt lat="33.9173304" lon="132.8109649"><ele>422.5566666666667</ele><time>2022-06-29T01:44:25Z</time></trkpt><trkpt lat="33.9171497" lon="132.8109285"><ele>420.68666666666667</ele><time>2022-06-29T01:44:40Z</time></trkpt><trkpt lat="33.9169621" lon="132.8108827"><ele>419.08</ele><time>2022-06-29T01:44:57Z</time></trkpt><trkpt lat="33.9167821" lon="132.8108496"><ele>417.00666666666666</ele><time>2022-06-29T01:45:11Z</time></trkpt><trkpt lat="33.9165928" lon="132.810805"><ele>415.29333333333335</ele><time>2022-06-29T01:45:37Z</time></trkpt><trkpt lat="33.9164146" lon="132.8107683"><ele>412.97</ele><time>2022-06-29T01:45:51Z</time></trkpt><trkpt lat="33.9162393" lon="132.8107064"><ele>411.52666666666664</ele><time>2022-06-29T01:46:05Z</time></trkpt><trkpt lat="33.9160539" lon="132.8106878"><ele>409.8733333333333</ele><time>2022-06-29T01:46:19Z</time></trkpt><trkpt lat="33.915868" lon="132.8106781"><ele>409.47333333333336</ele><time>2022-06-29T01:46:36Z</time></trkpt><trkpt lat="33.9156853" lon="132.8106753"><ele>409.08</ele><time>2022-06-29T01:46:53Z</time></trkpt><trkpt lat="33.9155003" lon="132.8106358"><ele>409.10666666666674</ele><time>2022-06-29T01:47:11Z</time></trkpt><trkpt lat="33.9153175" lon="132.8106286"><ele>410.03000000000003</ele><time>2022-06-29T01:47:26Z</time></trkpt><trkpt lat="33.9151537" lon="132.81052"><ele>410.7633333333333</ele><time>2022-06-29T01:47:40Z</time></trkpt><trkpt lat="33.915016" lon="132.8103736"><ele>411.7133333333333</ele><time>2022-06-29T01:47:54Z</time></trkpt><trkpt lat="33.9148333" lon="132.8103515"><ele>409.7833333333333</ele><time>2022-06-29T01:48:09Z</time></trkpt><trkpt lat="33.9146472" lon="132.8103944"><ele>406.6233333333333</ele><time>2022-06-29T01:48:26Z</time></trkpt><trkpt lat="33.9144688" lon="132.8104685"><ele>403.3999999999999</ele><time>2022-06-29T01:48:39Z</time></trkpt><trkpt lat="33.9142862" lon="132.8104291"><ele>401.65000000000003</ele><time>2022-06-29T01:48:53Z</time></trkpt><trkpt lat="33.9141473" lon="132.8102815"><ele>401.1033333333333</ele><time>2022-06-29T01:49:06Z</time></trkpt><trkpt lat="33.9141108" lon="132.810064"><ele>400.3500000000001</ele><time>2022-06-29T01:49:20Z</time></trkpt><trkpt lat="33.9139325" lon="132.809979"><ele>398.21</ele><time>2022-06-29T01:51:08Z</time></trkpt></trkseg></trk></gpx>