<?xml version='1.0' encoding='UTF-8'?><gpx creator="Yama Museum Peak Annotator" xsi:schemaLocation="http://www.topografix.com/GPX/1/1 http://www.topografix.com/GPX/1/1/gpx.xsd" version="1.1" xmlns="http://www.topografix.com/GPX/1/1" xmlns:xsi="http://www.w3.org/2001/XMLSchema-instance"><metadata><bounds maxlat="33.9145738" maxlon="132.6874691" minlat="33.9107208" minlon="132.6846951"/></metadata>  <wpt lat="33.9108676" lon="132.6865172">
    <ele>111.76333333333332</ele>
    <name>泰の山</name>
    <desc>Peak detected at 112m (prominence: 74m)</desc>
    <sym>Summit</sym>
  </wpt>
<trk><name>泰の山</name><number>1</number><trkseg><trkpt lat="33.9144886" lon="132.6874244"><ele>30.87</ele><time>2022-10-14T04:42:38Z</time></trkpt><trkpt lat="33.9145077" lon="132.687202"><ele>31.634999999999998</ele><time>2022-10-14T04:43:51Z</time></trkpt><trkpt lat="33.914435" lon="132.6869883"><ele>33.29333333333333</ele><time>2022-10-14T04:44:06Z</time></trkpt><trkpt lat="33.9143981" lon="132.6867762"><ele>36.79333333333333</ele><time>2022-10-14T04:44:38Z</time></trkpt><trkpt lat="33.9142435" lon="132.6866649"><ele>42.31333333333333</ele><time>2022-10-14T04:44:58Z</time></trkpt><trkpt lat="33.9144339" lon="132.6866113"><ele>45.379999999999995</ele><time>2022-10-14T04:45:11Z</time></trkpt><trkpt lat="33.9142572" lon="132.686554"><ele>48.78333333333334</ele><time>2022-10-14T04:45:52Z</time></trkpt><trkpt lat="33.9140783" lon="132.6865141"><ele>53.31333333333333</ele><time>2022-10-14T04:48:32Z</time></trkpt><trkpt lat="33.9139006" lon="132.6865534"><ele>59.306666666666665</ele><time>2022-10-14T04:50:12Z</time></trkpt><trkpt lat="33.9138978" lon="132.6863345"><ele>65.64</ele><time>2022-10-14T04:51:51Z</time></trkpt><trkpt lat="33.9139953" lon="132.6861517"><ele>67.22666666666667</ele><time>2022-10-14T04:52:05Z</time></trkpt><trkpt lat="33.9141724" lon="132.6861097"><ele>65.62333333333333</ele><time>2022-10-14T04:54:14Z</time></trkpt><trkpt lat="33.9141767" lon="132.6858581"><ele>63.84666666666667</ele><time>2022-10-14T04:55:45Z</time></trkpt><trkpt lat="33.9141749" lon="132.6856404"><ele>67.34666666666668</ele><time>2022-10-14T04:55:56Z</time></trkpt><trkpt lat="33.9143614" lon="132.6856247"><ele>73.06</ele><time>2022-10-14T05:00:41Z</time></trkpt><trkpt lat="33.9142098" lon="132.6854974"><ele>78.23</ele><time>2022-10-14T05:01:04Z</time></trkpt><trkpt lat="33.9141433" lon="132.6852861"><ele>81.51333333333334</ele><time>2022-10-14T05:01:22Z</time></trkpt><trkpt lat="33.9141377" lon="132.6850632"><ele>87.02</ele><time>2022-10-14T05:01:42Z</time></trkpt><trkpt lat="33.9142493" lon="132.6848901"><ele>91.16333333333334</ele><time>2022-10-14T05:02:44Z</time></trkpt><trkpt lat="33.9141671" lon="132.6846951"><ele>96.28666666666668</ele><time>2022-10-14T05:03:32Z</time></trkpt><trkpt lat="33.9141807" lon="132.6849111"><ele>97.48</ele><time>2022-10-14T05:09:32Z</time></trkpt><trkpt lat="33.9142139" lon="132.6851244"><ele>96.93</ele><time>2022-10-14T05:10:04Z</time></trkpt><trkpt lat="33.9142145" lon="132.6853421"><ele>90.96999999999998</ele><time>2022-10-14T05:11:13Z</time></trkpt><trkpt lat="33.9141803" lon="132.6855576"><ele>85.81666666666666</ele><time>2022-10-14T05:11:34Z</time></trkpt><trkpt lat="33.9141852" lon="132.6857823"><ele>78.55333333333334</ele><time>2022-10-14T05:12:53Z</time></trkpt><trkpt lat="33.9141893" lon="132.6859993"><ele>70.54</ele><time>2022-10-14T05:13:11Z</time></trkpt><trkpt lat="33.9140951" lon="132.6861904"><ele>64.33333333333333</ele><time>2022-10-14T05:14:27Z</time></trkpt><trkpt lat="33.9139248" lon="132.6862639"><ele>64.61</ele><time>2022-10-14T05:15:21Z</time></trkpt><trkpt lat="33.913748" lon="132.6863105"><ele>67.96333333333332</ele><time>2022-10-14T05:18:36Z</time></trkpt><trkpt lat="33.9136397" lon="132.686137"><ele>71.58333333333333</ele><time>2022-10-14T05:21:51Z</time></trkpt><trkpt lat="33.9135143" lon="132.6859702"><ele>73.84333333333335</ele><time>2022-10-14T05:23:03Z</time></trkpt><trkpt lat="33.9133617" lon="132.6858301"><ele>78.15666666666668</ele><time>2022-10-14T05:23:25Z</time></trkpt><trkpt lat="33.913257" lon="132.6856525"><ele>83.15666666666667</ele><time>2022-10-14T05:24:15Z</time></trkpt><trkpt lat="33.9132505" lon="132.6854343"><ele>86.97666666666667</ele><time>2022-10-14T05:24:28Z</time></trkpt><trkpt lat="33.9131068" lon="132.6852937"><ele>88.29666666666667</ele><time>2022-10-14T05:25:02Z</time></trkpt><trkpt lat="33.9129339" lon="132.6852151"><ele>87.47333333333334</ele><time>2022-10-14T05:25:17Z</time></trkpt><trkpt lat="33.9128471" lon="132.6850166"><ele>86.26</ele><time>2022-10-14T05:25:31Z</time></trkpt><trkpt lat="33.9127255" lon="132.6848563"><ele>84.64</ele><time>2022-10-14T05:25:45Z</time></trkpt><trkpt lat="33.9125708" lon="132.6847403"><ele>83.69333333333334</ele><time>2022-10-14T05:26:01Z</time></trkpt><trkpt lat="33.9124457" lon="132.6849018"><ele>81.85666666666667</ele><time>2022-10-14T05:26:14Z</time></trkpt><trkpt lat="33.9122798" lon="132.6849905"><ele>80.08666666666667</ele><time>2022-10-14T05:26:30Z</time></trkpt><trkpt lat="33.9121351" lon="132.6851346"><ele>78.83333333333333</ele><time>2022-10-14T05:26:45Z</time></trkpt><trkpt lat="33.9120059" lon="132.6852856"><ele>79.11333333333334</ele><time>2022-10-14T05:27:00Z</time></trkpt><trkpt lat="33.9118256" lon="132.685312"><ele>80.23</ele><time>2022-10-14T05:27:18Z</time></trkpt><trkpt lat="33.9116415" lon="132.6853283"><ele>81.67666666666666</ele><time>2022-10-14T05:27:34Z</time></trkpt><trkpt lat="33.91154" lon="132.6851492"><ele>82.08333333333333</ele><time>2022-10-14T05:27:46Z</time></trkpt><trkpt lat="33.9116956" lon="132.6852619"><ele>82.36333333333333</ele><time>2022-10-14T05:28:00Z</time></trkpt><trkpt lat="33.9118827" lon="132.68529"><ele>81.58666666666666</ele><time>2022-10-14T05:28:15Z</time></trkpt><trkpt lat="33.9117994" lon="132.6854891"><ele>81.47666666666667</ele><time>2022-10-14T05:28:46Z</time></trkpt><trkpt lat="33.9116115" lon="132.6855327"><ele>81.45333333333333</ele><time>2022-10-14T05:29:04Z</time></trkpt><trkpt lat="33.9114274" lon="132.6855198"><ele>82.68</ele><time>2022-10-14T05:29:21Z</time></trkpt><trkpt lat="33.9113202" lon="132.6856948"><ele>84.19666666666666</ele><time>2022-10-14T05:29:35Z</time></trkpt><trkpt lat="33.9111605" lon="132.6857974"><ele>85.55666666666667</ele><time>2022-10-14T05:29:51Z</time></trkpt><trkpt lat="33.9111175" lon="132.6860078"><ele>88.62333333333333</ele><time>2022-10-14T05:32:16Z</time></trkpt><trkpt lat="33.9109915" lon="132.6861625"><ele>93.00333333333333</ele><time>2022-10-14T05:34:21Z</time></trkpt><trkpt lat="33.9110124" lon="132.6863852"><ele>100.25666666666667</ele><time>2022-10-14T05:37:16Z</time></trkpt><trkpt lat="33.9108805" lon="132.6865441"><ele>105.82</ele><time>2022-10-14T05:37:43Z</time></trkpt><trkpt lat="33.9107208" lon="132.6866479"><ele>110.27</ele><time>2022-10-14T05:38:57Z</time></trkpt><trkpt lat="33.9108676" lon="132.6865172"><ele>111.76333333333332</ele><time>2022-10-14T05:43:37Z</time></trkpt><trkpt lat="33.9110328" lon="132.6866242"><ele>108.72666666666667</ele><time>2022-10-14T05:44:46Z</time></trkpt><trkpt lat="33.911189" lon="132.6865139"><ele>103.53000000000002</ele><time>2022-10-14T05:45:38Z</time></trkpt><trkpt lat="33.9110499" lon="132.6863701"><ele>100.89</ele><time>2022-10-14T05:48:51Z</time></trkpt><trkpt lat="33.9108833" lon="132.6862638"><ele>103.36000000000001</ele><time>2022-10-14T05:49:05Z</time></trkpt><trkpt lat="33.9109997" lon="132.6860975"><ele>104.10666666666668</ele><time>2022-10-14T05:49:34Z</time></trkpt><trkpt lat="33.9111578" lon="132.6859831"><ele>99.68</ele><time>2022-10-14T05:51:01Z</time></trkpt><trkpt lat="33.9112896" lon="132.6858231"><ele>92.58</ele><time>2022-10-14T05:51:13Z</time></trkpt><trkpt lat="33.9114158" lon="132.6856436"><ele>88.00999999999999</ele><time>2022-10-14T05:51:27Z</time></trkpt><trkpt lat="33.9115781" lon="132.6855421"><ele>85.35333333333334</ele><time>2022-10-14T05:51:42Z</time></trkpt><trkpt lat="33.9117585" lon="132.685588"><ele>82.49666666666667</ele><time>2022-10-14T05:51:59Z</time></trkpt><trkpt lat="33.9119142" lon="132.6854615"><ele>80.82333333333334</ele><time>2022-10-14T05:52:13Z</time></trkpt><trkpt lat="33.9119217" lon="132.6852418"><ele>80.08</ele><time>2022-10-14T05:52:28Z</time></trkpt><trkpt lat="33.9120978" lon="132.6851762"><ele>80.23</ele><time>2022-10-14T05:52:39Z</time></trkpt><trkpt lat="33.9122472" lon="132.6850494"><ele>79.41</ele><time>2022-10-14T05:52:53Z</time></trkpt><trkpt lat="33.9124109" lon="132.6849057"><ele>78.98666666666668</ele><time>2022-10-14T05:53:08Z</time></trkpt><trkpt lat="33.9125541" lon="132.6847728"><ele>80.08666666666666</ele><time>2022-10-14T05:53:23Z</time></trkpt><trkpt lat="33.91274" lon="132.6847892"><ele>82.70333333333333</ele><time>2022-10-14T05:53:49Z</time></trkpt><trkpt lat="33.9128768" lon="132.6849373"><ele>84.81666666666666</ele><time>2022-10-14T05:54:05Z</time></trkpt><trkpt lat="33.9129789" lon="132.6851245"><ele>86.92666666666666</ele><time>2022-10-14T05:54:19Z</time></trkpt><trkpt lat="33.9130992" lon="132.6852858"><ele>87.7</ele><time>2022-10-14T05:54:36Z</time></trkpt><trkpt lat="33.9132614" lon="132.6853842"><ele>89.00666666666666</ele><time>2022-10-14T05:54:55Z</time></trkpt><trkpt lat="33.9132375" lon="132.6856004"><ele>88.66666666666667</ele><time>2022-10-14T05:55:24Z</time></trkpt><trkpt lat="33.9132727" lon="132.6858131"><ele>87.60333333333334</ele><time>2022-10-14T05:55:42Z</time></trkpt><trkpt lat="33.9134365" lon="132.6859148"><ele>84.28666666666668</ele><time>2022-10-14T05:56:01Z</time></trkpt><trkpt lat="33.9135403" lon="132.6857371"><ele>83.35333333333334</ele><time>2022-10-14T05:56:38Z</time></trkpt><trkpt lat="33.9134888" lon="132.6855293"><ele>84.63666666666667</ele><time>2022-10-14T05:59:28Z</time></trkpt><trkpt lat="33.9135795" lon="132.6857295"><ele>86.37666666666667</ele><time>2022-10-14T06:00:26Z</time></trkpt><trkpt lat="33.913548" lon="132.6859495"><ele>84.09</ele><time>2022-10-14T06:01:44Z</time></trkpt><trkpt lat="33.9136249" lon="132.6861459"><ele>78.84666666666668</ele><time>2022-10-14T06:04:16Z</time></trkpt><trkpt lat="33.9137385" lon="132.6863146"><ele>74.17</ele><time>2022-10-14T06:05:32Z</time></trkpt><trkpt lat="33.9138597" lon="132.6864748"><ele>69.92</ele><time>2022-10-14T06:06:52Z</time></trkpt><trkpt lat="33.9140281" lon="132.6865552"><ele>65.82333333333334</ele><time>2022-10-14T06:08:50Z</time></trkpt><trkpt lat="33.9142092" lon="132.6865351"><ele>60.14333333333334</ele><time>2022-10-14T06:09:22Z</time></trkpt><trkpt lat="33.9143662" lon="132.6866471"><ele>54.02333333333333</ele><time>2022-10-14T06:10:29Z</time></trkpt><trkpt lat="33.9144093" lon="132.6868586"><ele>46.68000000000001</ele><time>2022-10-14T06:10:48Z</time></trkpt><trkpt lat="33.9144997" lon="132.6870463"><ele>39.56666666666666</ele><time>2022-10-14T06:11:04Z</time></trkpt><trkpt lat="33.9145738" lon="132.687245"><ele>33.28333333333333</ele><time>2022-10-14T06:11:23Z</time></trkpt><trkpt lat="33.9145355" lon="132.6874691"><ele>29.26</ele><time>2022-10-14T06:11:38Z</time></trkpt></trkseg></trk></gpx>