<?xml version='1.0' encoding='UTF-8'?><gpx creator="Yama Museum Peak Annotator" xsi:schemaLocation="http://www.topografix.com/GPX/1/1 http://www.topografix.com/GPX/1/1/gpx.xsd" version="1.1" xmlns="http://www.topografix.com/GPX/1/1" xmlns:xsi="http://www.w3.org/2001/XMLSchema-instance"><metadata><bounds maxlat="33.9019201" maxlon="132.9986177" minlat="33.8937336" minlon="132.992323"/></metadata>  <wpt lat="33.9017492" lon="132.9949732">
    <ele>811.0092135228584</ele>
    <name>黒滝山</name>
    <desc>Peak detected at 811m (prominence: 421m)</desc>
    <sym>Summit</sym>
  </wpt>
<trk><name>黒滝山・木久ヶ森</name><number>1</number><trkseg><trkpt lat="33.8938289" lon="132.996704"><ele>373.0981245269119</ele><time>2023-04-18T01:53:48Z</time></trkpt><trkpt lat="33.8937336" lon="132.9965192"><ele>373.73368519068026</ele><time>2023-04-18T01:54:41Z</time></trkpt><trkpt lat="33.8938463" lon="132.9963432"><ele>375.27455271528885</ele><time>2023-04-18T01:55:05Z</time></trkpt><trkpt lat="33.8939862" lon="132.9962015"><ele>377.85590039577073</ele><time>2023-04-18T01:55:21Z</time></trkpt><trkpt lat="33.8940778" lon="132.9960065"><ele>381.12190676178767</ele><time>2023-04-18T01:55:37Z</time></trkpt><trkpt lat="33.8942196" lon="132.9958588"><ele>383.60397802894414</ele><time>2023-04-18T01:55:52Z</time></trkpt><trkpt lat="33.8943451" lon="132.9956936"><ele>386.3499121253033</ele><time>2023-04-18T01:56:08Z</time></trkpt><trkpt lat="33.8945326" lon="132.9956413"><ele>388.78871006044324</ele><time>2023-04-18T01:56:21Z</time></trkpt><trkpt lat="33.8947177" lon="132.995671"><ele>391.7682446872097</ele><time>2023-04-18T01:56:34Z</time></trkpt><trkpt lat="33.8949043" lon="132.9956768"><ele>394.57693635263786</ele><time>2023-04-18T01:56:46Z</time></trkpt><trkpt lat="33.8950424" lon="132.9955279"><ele>397.40815303610043</ele><time>2023-04-18T01:56:55Z</time></trkpt><trkpt lat="33.8952275" lon="132.9955452"><ele>400.155903400145</ele><time>2023-04-18T01:57:14Z</time></trkpt><trkpt lat="33.8953978" lon="132.99565"><ele>403.20160372181243</ele><time>2023-04-18T01:57:24Z</time></trkpt><trkpt lat="33.895601" lon="132.9956175"><ele>408.08009236392826</ele><time>2023-04-18T01:57:56Z</time></trkpt><trkpt lat="33.8957884" lon="132.9956498"><ele>412.58143396996894</ele><time>2023-04-18T01:58:26Z</time></trkpt><trkpt lat="33.8959382" lon="132.9957756"><ele>417.0629056399004</ele><time>2023-04-18T01:58:41Z</time></trkpt><trkpt lat="33.8961061" lon="132.9958546"><ele>421.97552420982674</ele><time>2023-04-18T01:59:15Z</time></trkpt><trkpt lat="33.8962269" lon="132.9956848"><ele>426.573546606717</ele><time>2023-04-18T01:59:27Z</time></trkpt><trkpt lat="33.8962865" lon="132.9954769"><ele>430.5053102634084</ele><time>2023-04-18T01:59:38Z</time></trkpt><trkpt lat="33.896354" lon="132.9952763"><ele>431.85276888846266</ele><time>2023-04-18T01:59:49Z</time></trkpt><trkpt lat="33.8964392" lon="132.995085"><ele>434.03444279045476</ele><time>2023-04-18T02:00:03Z</time></trkpt><trkpt lat="33.8965575" lon="132.9952528"><ele>435.99791223098015</ele><time>2023-04-18T02:00:39Z</time></trkpt><trkpt lat="33.8966986" lon="132.9951038"><ele>438.2347595078401</ele><time>2023-04-18T02:00:53Z</time></trkpt><trkpt lat="33.8968222" lon="132.9949385"><ele>440.46035920520876</ele><time>2023-04-18T02:01:10Z</time></trkpt><trkpt lat="33.8969599" lon="132.994794"><ele>444.5355615789079</ele><time>2023-04-18T02:01:39Z</time></trkpt><trkpt lat="33.897092" lon="132.9946418"><ele>449.3759074189856</ele><time>2023-04-18T02:01:56Z</time></trkpt><trkpt lat="33.8972138" lon="132.9944729"><ele>454.3282952770726</ele><time>2023-04-18T02:02:15Z</time></trkpt><trkpt lat="33.8973299" lon="132.9943024"><ele>459.2564750933008</ele><time>2023-04-18T02:02:51Z</time></trkpt><trkpt lat="33.897421" lon="132.9941142"><ele>465.0578818629633</ele><time>2023-04-18T02:03:23Z</time></trkpt><trkpt lat="33.8974489" lon="132.9938906"><ele>470.9710958850181</ele><time>2023-04-18T02:03:41Z</time></trkpt><trkpt lat="33.8974986" lon="132.9936817"><ele>475.5039085323171</ele><time>2023-04-18T02:03:56Z</time></trkpt><trkpt lat="33.8975697" lon="132.9934744"><ele>478.5606250599789</ele><time>2023-04-18T02:04:11Z</time></trkpt><trkpt lat="33.8976334" lon="132.9932638"><ele>481.4677002179455</ele><time>2023-04-18T02:04:28Z</time></trkpt><trkpt lat="33.8976433" lon="132.9930423"><ele>485.35902405675074</ele><time>2023-04-18T02:05:37Z</time></trkpt><trkpt lat="33.897824" lon="132.9930199"><ele>491.94524697043795</ele><time>2023-04-18T02:07:32Z</time></trkpt><trkpt lat="33.8980112" lon="132.9929669"><ele>506.5578769073788</ele><time>2023-04-18T02:09:54Z</time></trkpt><trkpt lat="33.8981921" lon="132.9929795"><ele>522.957372123168</ele><time>2023-04-18T02:11:02Z</time></trkpt><trkpt lat="33.8983509" lon="132.9928761"><ele>539.9356810934551</ele><time>2023-04-18T02:19:53Z</time></trkpt><trkpt lat="33.8985152" lon="132.9927863"><ele>545.6139172619446</ele><time>2023-04-18T02:23:41Z</time></trkpt><trkpt lat="33.8986513" lon="132.9926376"><ele>552.2431733029855</ele><time>2023-04-18T02:24:59Z</time></trkpt><trkpt lat="33.8988466" lon="132.9925174"><ele>557.2614851040245</ele><time>2023-04-18T02:25:48Z</time></trkpt><trkpt lat="33.8990052" lon="132.9924134"><ele>572.6266484951808</ele><time>2023-04-18T02:29:29Z</time></trkpt><trkpt lat="33.8991737" lon="132.9923325"><ele>588.1283458533607</ele><time>2023-04-18T02:30:45Z</time></trkpt><trkpt lat="33.8993545" lon="132.992323"><ele>606.1472102852096</ele><time>2023-04-18T02:32:26Z</time></trkpt><trkpt lat="33.8995297" lon="132.9923862"><ele>618.6415393955177</ele><time>2023-04-18T02:33:33Z</time></trkpt><trkpt lat="33.8997115" lon="132.9923854"><ele>631.2029534054104</ele><time>2023-04-18T02:34:49Z</time></trkpt><trkpt lat="33.8998543" lon="132.9925238"><ele>643.6615346668995</ele><time>2023-04-18T02:36:03Z</time></trkpt><trkpt lat="33.9000182" lon="132.9926286"><ele>653.3858271730952</ele><time>2023-04-18T02:36:29Z</time></trkpt><trkpt lat="33.90018" lon="132.9927247"><ele>660.0891346563698</ele><time>2023-04-18T02:37:37Z</time></trkpt><trkpt lat="33.9003581" lon="132.9926726"><ele>667.701895429806</ele><time>2023-04-18T02:40:18Z</time></trkpt><trkpt lat="33.9005059" lon="132.9928062"><ele>681.249908057825</ele><time>2023-04-18T02:42:47Z</time></trkpt><trkpt lat="33.9006051" lon="132.9929885"><ele>697.0961253839745</ele><time>2023-04-18T02:43:32Z</time></trkpt><trkpt lat="33.9007381" lon="132.9931694"><ele>706.3784797659138</ele><time>2023-04-18T02:43:47Z</time></trkpt><trkpt lat="33.900944" lon="132.9931341"><ele>720.7208827249191</ele><time>2023-04-18T02:47:03Z</time></trkpt><trkpt lat="33.9011423" lon="132.993195"><ele>734.7693655727517</ele><time>2023-04-18T02:48:10Z</time></trkpt><trkpt lat="33.9012755" lon="132.9933659"><ele>754.246867919854</ele><time>2023-04-18T02:49:44Z</time></trkpt><trkpt lat="33.9014144" lon="132.9935128"><ele>763.0991277022982</ele><time>2023-04-18T02:50:11Z</time></trkpt><trkpt lat="33.9015667" lon="132.9936287"><ele>771.8479525949842</ele><time>2023-04-18T02:57:24Z</time></trkpt><trkpt lat="33.9017076" lon="132.9938527"><ele>784.7762981458754</ele><time>2023-04-18T02:59:50Z</time></trkpt><trkpt lat="33.9018254" lon="132.9940711"><ele>797.7283060976952</ele><time>2023-04-18T02:59:56Z</time></trkpt><trkpt lat="33.9018501" lon="132.9942881"><ele>807.2481999443165</ele><time>2023-04-18T03:00:20Z</time></trkpt><trkpt lat="33.9018565" lon="132.9945116"><ele>808.139535123342</ele><time>2023-04-18T03:00:38Z</time></trkpt><trkpt lat="33.9018285" lon="132.9947291"><ele>808.5503113440665</ele><time>2023-04-18T03:00:52Z</time></trkpt><trkpt lat="33.9017816" lon="132.9949421"><ele>808.9254212419904</ele><time>2023-04-18T03:01:07Z</time></trkpt><trkpt lat="33.9017699" lon="132.9951635"><ele>808.9460198948242</ele><time>2023-04-18T03:01:29Z</time></trkpt><trkpt lat="33.901765" lon="132.9953801"><ele>809.5658925335391</ele><time>2023-04-18T03:01:49Z</time></trkpt><trkpt lat="33.9019201" lon="132.9955208"><ele>809.541442309268</ele><time>2023-04-18T03:02:23Z</time></trkpt><trkpt lat="33.9017509" lon="132.9956019"><ele>808.4594799533397</ele><time>2023-04-18T03:03:34Z</time></trkpt><trkpt lat="33.9016465" lon="132.9957826"><ele>806.2190711160337</ele><time>2023-04-18T03:03:50Z</time></trkpt><trkpt lat="33.9016246" lon="132.9959976"><ele>802.5321264626465</ele><time>2023-04-18T03:04:07Z</time></trkpt><trkpt lat="33.9016278" lon="132.996223"><ele>798.5412239493613</ele><time>2023-04-18T03:04:27Z</time></trkpt><trkpt lat="33.9015597" lon="132.9964311"><ele>792.2142697445121</ele><time>2023-04-18T03:04:52Z</time></trkpt><trkpt lat="33.9014376" lon="132.9965959"><ele>782.1424265308366</ele><time>2023-04-18T03:05:48Z</time></trkpt><trkpt lat="33.9013895" lon="132.9968085"><ele>771.8318757379911</ele><time>2023-04-18T03:05:59Z</time></trkpt><trkpt lat="33.9013882" lon="132.9970354"><ele>762.9903342010252</ele><time>2023-04-18T03:06:12Z</time></trkpt><trkpt lat="33.9014232" lon="132.9972533"><ele>758.2003953486583</ele><time>2023-04-18T03:06:22Z</time></trkpt><trkpt lat="33.9013707" lon="132.9974641"><ele>750.9198520172109</ele><time>2023-04-18T03:07:26Z</time></trkpt><trkpt lat="33.9013851" lon="132.9976829"><ele>745.7652398859087</ele><time>2023-04-18T03:07:33Z</time></trkpt><trkpt lat="33.9013752" lon="132.9979031"><ele>740.8028990775838</ele><time>2023-04-18T03:07:45Z</time></trkpt><trkpt lat="33.9013566" lon="132.9981234"><ele>741.6273954522554</ele><time>2023-04-18T03:08:27Z</time></trkpt><trkpt lat="33.9013752" lon="132.9983436"><ele>746.581681636694</ele><time>2023-04-18T03:10:09Z</time></trkpt><trkpt lat="33.9012018" lon="132.9984036"><ele>753.369846376987</ele><time>2023-04-18T03:10:57Z</time></trkpt><trkpt lat="33.9011335" lon="132.9986038"><ele>757.5011559995286</ele><time>2023-04-18T03:12:07Z</time></trkpt><trkpt lat="33.9013226" lon="132.9986177"><ele>757.3322622823777</ele><time>2023-04-18T03:12:32Z</time></trkpt><trkpt lat="33.9015083" lon="132.9986055"><ele>756.8732575393366</ele><time>2023-04-18T03:12:44Z</time></trkpt><trkpt lat="33.9013242" lon="132.9985789"><ele>753.3083328006193</ele><time>2023-04-18T03:31:09Z</time></trkpt><trkpt lat="33.9013137" lon="132.9983597"><ele>747.0503518989486</ele><time>2023-04-18T03:31:25Z</time></trkpt><trkpt lat="33.9012918" lon="132.9981445"><ele>740.7769351726207</ele><time>2023-04-18T03:31:38Z</time></trkpt><trkpt lat="33.901272" lon="132.9979278"><ele>739.8870219651026</ele><time>2023-04-18T03:32:00Z</time></trkpt><trkpt lat="33.9012651" lon="132.9977114"><ele>742.3003596564755</ele><time>2023-04-18T03:32:26Z</time></trkpt><trkpt lat="33.9013124" lon="132.9975026"><ele>746.6672811160046</ele><time>2023-04-18T03:32:52Z</time></trkpt><trkpt lat="33.9013309" lon="132.9972858"><ele>751.5370141104444</ele><time>2023-04-18T03:33:17Z</time></trkpt><trkpt lat="33.901346" lon="132.9970688"><ele>759.2557490628893</ele><time>2023-04-18T03:34:26Z</time></trkpt><trkpt lat="33.9013589" lon="132.9968526"><ele>767.1425163187919</ele><time>2023-04-18T03:35:08Z</time></trkpt><trkpt lat="33.9013604" lon="132.996634"><ele>777.3180356244842</ele><time>2023-04-18T03:36:06Z</time></trkpt><trkpt lat="33.9014409" lon="132.9964396"><ele>784.1114646728851</ele><time>2023-04-18T03:36:29Z</time></trkpt><trkpt lat="33.9014967" lon="132.996228"><ele>791.5324803021995</ele><time>2023-04-18T03:37:16Z</time></trkpt><trkpt lat="33.9015499" lon="132.9960157"><ele>796.5001372022703</ele><time>2023-04-18T03:37:35Z</time></trkpt><trkpt lat="33.9016452" lon="132.9958284"><ele>802.6514412021548</ele><time>2023-04-18T03:38:04Z</time></trkpt><trkpt lat="33.9017043" lon="132.9956197"><ele>807.5049566411332</ele><time>2023-04-18T03:38:35Z</time></trkpt><trkpt lat="33.9017532" lon="132.9954111"><ele>810.928743279721</ele><time>2023-04-18T03:39:04Z</time></trkpt><trkpt lat="33.9017687" lon="132.995189"><ele>812.036651367837</ele><time>2023-04-18T03:40:23Z</time></trkpt><trkpt lat="33.9017492" lon="132.9949732"><ele>811.0092135228584</ele><time>2023-04-18T03:40:48Z</time></trkpt><trkpt lat="33.901758" lon="132.9947547"><ele>809.7614662288</ele><time>2023-04-18T03:41:26Z</time></trkpt><trkpt lat="33.9018335" lon="132.9945525"><ele>809.0816043950613</ele><time>2023-04-18T03:42:34Z</time></trkpt><trkpt lat="33.901817" lon="132.9943316"><ele>808.4068470038947</ele><time>2023-04-18T03:42:50Z</time></trkpt><trkpt lat="33.901769" lon="132.9941223"><ele>806.2179576771682</ele><time>2023-04-18T03:43:10Z</time></trkpt><trkpt lat="33.9017618" lon="132.9939052"><ele>803.198190253143</ele><time>2023-04-18T03:43:54Z</time></trkpt><trkpt lat="33.9015907" lon="132.9938344"><ele>797.8970086221801</ele><time>2023-04-18T03:44:46Z</time></trkpt><trkpt lat="33.9015799" lon="132.9936181"><ele>788.2301035502677</ele><time>2023-04-18T03:46:46Z</time></trkpt><trkpt lat="33.9013936" lon="132.9936234"><ele>775.1650789091194</ele><time>2023-04-18T03:47:52Z</time></trkpt><trkpt lat="33.9012722" lon="132.9934623"><ele>762.4459261107055</ele><time>2023-04-18T03:48:22Z</time></trkpt><trkpt lat="33.9011488" lon="132.9933022"><ele>751.0425691206315</ele><time>2023-04-18T03:49:04Z</time></trkpt><trkpt lat="33.9009831" lon="132.9932013"><ele>741.3579923845173</ele><time>2023-04-18T03:49:22Z</time></trkpt><trkpt lat="33.9008016" lon="132.9931957"><ele>731.0701802789769</ele><time>2023-04-18T03:50:19Z</time></trkpt><trkpt lat="33.9006431" lon="132.9930765"><ele>717.0244577793916</ele><time>2023-04-18T03:52:03Z</time></trkpt><trkpt lat="33.9004906" lon="132.9929383"><ele>704.2697507211718</ele><time>2023-04-18T03:52:12Z</time></trkpt><trkpt lat="33.9003101" lon="132.9928831"><ele>693.8977845893928</ele><time>2023-04-18T03:52:26Z</time></trkpt><trkpt lat="33.9002493" lon="132.9926588"><ele>687.7699054308681</ele><time>2023-04-18T03:53:24Z</time></trkpt><trkpt lat="33.9001343" lon="132.9928321"><ele>681.5366066365654</ele><time>2023-04-18T03:53:48Z</time></trkpt><trkpt lat="33.8999586" lon="132.9928846"><ele>676.8335022363514</ele><time>2023-04-18T03:54:01Z</time></trkpt><trkpt lat="33.8998727" lon="132.9926879"><ele>672.8186627994658</ele><time>2023-04-18T03:56:05Z</time></trkpt><trkpt lat="33.8997867" lon="132.9924901"><ele>667.1675002376029</ele><time>2023-04-18T03:56:43Z</time></trkpt><trkpt lat="33.8996308" lon="132.9923778"><ele>658.2328130303514</ele><time>2023-04-18T03:57:25Z</time></trkpt><trkpt lat="33.8994492" lon="132.9923598"><ele>651.3194308019275</ele><time>2023-04-18T03:57:39Z</time></trkpt><trkpt lat="33.8992676" lon="132.9923728"><ele>641.5521222429775</ele><time>2023-04-18T03:59:09Z</time></trkpt><trkpt lat="33.8991409" lon="132.9925268"><ele>626.9596720733167</ele><time>2023-04-18T04:02:51Z</time></trkpt><trkpt lat="33.8989608" lon="132.992541"><ele>608.5524115922299</ele><time>2023-04-18T04:03:46Z</time></trkpt><trkpt lat="33.8987789" lon="132.9925488"><ele>592.3708581059163</ele><time>2023-04-18T04:04:24Z</time></trkpt><trkpt lat="33.8985925" lon="132.9926108"><ele>582.8740358675876</ele><time>2023-04-18T04:04:37Z</time></trkpt><trkpt lat="33.8985342" lon="132.9928181"><ele>570.9438676675455</ele><time>2023-04-18T04:05:46Z</time></trkpt><trkpt lat="33.8984083" lon="132.9929736"><ele>562.2774695835594</ele><time>2023-04-18T04:06:51Z</time></trkpt><trkpt lat="33.8982266" lon="132.9929619"><ele>550.3075786514064</ele><time>2023-04-18T04:07:57Z</time></trkpt><trkpt lat="33.8980652" lon="132.9930655"><ele>540.2587718959886</ele><time>2023-04-18T04:09:19Z</time></trkpt><trkpt lat="33.8980007" lon="132.9932721"><ele>525.5416835974521</ele><time>2023-04-18T04:09:57Z</time></trkpt><trkpt lat="33.8978452" lon="132.9933941"><ele>512.0779356103507</ele><time>2023-04-18T04:10:35Z</time></trkpt><trkpt lat="33.8976951" lon="132.9935161"><ele>501.39836980780393</ele><time>2023-04-18T04:11:07Z</time></trkpt><trkpt lat="33.8975912" lon="132.9936938"><ele>493.13556585504415</ele><time>2023-04-18T04:11:32Z</time></trkpt><trkpt lat="33.8975496" lon="132.9939042"><ele>486.0079520080476</ele><time>2023-04-18T04:11:46Z</time></trkpt><trkpt lat="33.8975367" lon="132.9941259"><ele>480.0512071477003</ele><time>2023-04-18T04:12:01Z</time></trkpt><trkpt lat="33.8974751" lon="132.9943383"><ele>475.7046136103404</ele><time>2023-04-18T04:12:14Z</time></trkpt><trkpt lat="33.8973515" lon="132.9945008"><ele>472.16048833461576</ele><time>2023-04-18T04:12:25Z</time></trkpt><trkpt lat="33.8972473" lon="132.9946818"><ele>469.2901502711552</ele><time>2023-04-18T04:12:36Z</time></trkpt><trkpt lat="33.8971789" lon="132.9948895"><ele>465.9965895482583</ele><time>2023-04-18T04:12:48Z</time></trkpt><trkpt lat="33.8970446" lon="132.9950446"><ele>462.3973731262602</ele><time>2023-04-18T04:13:00Z</time></trkpt><trkpt lat="33.8969012" lon="132.9951815"><ele>458.0069312802787</ele><time>2023-04-18T04:13:15Z</time></trkpt><trkpt lat="33.8967594" lon="132.9953293"><ele>454.00246738217834</ele><time>2023-04-18T04:13:29Z</time></trkpt><trkpt lat="33.8965824" lon="132.9954093"><ele>450.1479348045493</ele><time>2023-04-18T04:13:40Z</time></trkpt><trkpt lat="33.8964313" lon="132.9955326"><ele>447.4158126458712</ele><time>2023-04-18T04:13:50Z</time></trkpt><trkpt lat="33.8962697" lon="132.99563"><ele>444.4782038616069</ele><time>2023-04-18T04:14:04Z</time></trkpt><trkpt lat="33.896177" lon="132.9958172"><ele>441.7419469221016</ele><time>2023-04-18T04:14:18Z</time></trkpt><trkpt lat="33.8959939" lon="132.995802"><ele>438.81938712656944</ele><time>2023-04-18T04:14:32Z</time></trkpt><trkpt lat="33.895872" lon="132.9956329"><ele>435.0167085274088</ele><time>2023-04-18T04:14:44Z</time></trkpt><trkpt lat="33.895717" lon="132.9957594"><ele>430.8617477658798</ele><time>2023-04-18T04:15:00Z</time></trkpt><trkpt lat="33.8955562" lon="132.9958579"><ele>425.19272358404277</ele><time>2023-04-18T04:15:23Z</time></trkpt><trkpt lat="33.8953785" lon="132.9957721"><ele>420.82329432336206</ele><time>2023-04-18T04:16:03Z</time></trkpt><trkpt lat="33.895191" lon="132.9957516"><ele>416.6215407402221</ele><time>2023-04-18T04:16:15Z</time></trkpt><trkpt lat="33.8950106" lon="132.9957623"><ele>413.85250831362436</ele><time>2023-04-18T04:16:29Z</time></trkpt><trkpt lat="33.894825" lon="132.9957682"><ele>410.6251461491576</ele><time>2023-04-18T04:16:42Z</time></trkpt><trkpt lat="33.8946396" lon="132.9957626"><ele>406.89986522016005</ele><time>2023-04-18T04:17:29Z</time></trkpt><trkpt lat="33.8944541" lon="132.9957662"><ele>403.37792378902367</ele><time>2023-04-18T04:17:41Z</time></trkpt><trkpt lat="33.8943261" lon="132.9959201"><ele>399.83763475684077</ele><time>2023-04-18T04:17:57Z</time></trkpt><trkpt lat="33.8941948" lon="132.9960729"><ele>396.2711313487595</ele><time>2023-04-18T04:18:54Z</time></trkpt><trkpt lat="33.8940366" lon="132.9962146"><ele>392.4710038570147</ele><time>2023-04-18T04:19:06Z</time></trkpt><trkpt lat="33.8939471" lon="132.9964107"><ele>389.1760889795408</ele><time>2023-04-18T04:19:19Z</time></trkpt><trkpt lat="33.8939197" lon="132.9966274"><ele>386.8052215533744</ele><time>2023-04-18T04:19:32Z</time></trkpt></trkseg></trk></gpx>