<?xml version='1.0' encoding='UTF-8'?><gpx creator="Yama Museum Peak Annotator" xsi:schemaLocation="http://www.topografix.com/GPX/1/1 http://www.topografix.com/GPX/1/1/gpx.xsd" version="1.1" xmlns="http://www.topografix.com/GPX/1/1" xmlns:xsi="http://www.w3.org/2001/XMLSchema-instance"><metadata><bounds maxlat="33.9990714" maxlon="132.7992984" minlat="33.9830074" minlon="132.7809593"/></metadata>  <wpt lat="33.9989521" lon="132.785492">
    <ele>190.94333333333336</ele>
    <name>尾ノ峰</name>
    <desc>Peak detected at 191m (prominence: 132m)</desc>
    <sym>Summit</sym>
  </wpt>
  <wpt lat="33.9926561" lon="132.7813592">
    <ele>156.4466666666667</ele>
    <name>新城山</name>
    <desc>Peak detected at 156m (prominence: 51m)</desc>
    <sym>Summit</sym>
  </wpt>
  <wpt lat="33.9932805" lon="132.7899177">
    <ele>206.86333333333332</ele>
    <name>腰折山</name>
    <desc>Peak detected at 207m (prominence: 76m)</desc>
    <sym>Summit</sym>
  </wpt>
  <wpt lat="33.9922702" lon="132.7992645">
    <ele>299.12666666666667</ele>
    <name>恵良山</name>
    <desc>Peak detected at 299m (prominence: 256m)</desc>
    <sym>Summit</sym>
  </wpt>
<trk><name>尾ノ峰・新城山・腰折山・恵良山</name><number>1</number><trkseg><trkpt lat="33.993404" lon="132.7861685"><ele>54.03</ele><time>2022-01-28T03:28:14Z</time></trkpt><trkpt lat="33.9935837" lon="132.7861409"><ele>55.6</ele><time>2022-01-28T03:28:53Z</time></trkpt><trkpt lat="33.9937601" lon="132.7861948"><ele>57.49666666666667</ele><time>2022-01-28T03:29:18Z</time></trkpt><trkpt lat="33.9939347" lon="132.7862888"><ele>60.43666666666667</ele><time>2022-01-28T03:29:37Z</time></trkpt><trkpt lat="33.9941092" lon="132.786372"><ele>63.39666666666667</ele><time>2022-01-28T03:29:54Z</time></trkpt><trkpt lat="33.9942807" lon="132.7864498"><ele>65.52333333333333</ele><time>2022-01-28T03:30:09Z</time></trkpt><trkpt lat="33.9944503" lon="132.7865394"><ele>67.53666666666668</ele><time>2022-01-28T03:30:27Z</time></trkpt><trkpt lat="33.9946173" lon="132.7866224"><ele>69.34333333333333</ele><time>2022-01-28T03:30:43Z</time></trkpt><trkpt lat="33.994771" lon="132.7867396"><ele>71.24333333333334</ele><time>2022-01-28T03:30:58Z</time></trkpt><trkpt lat="33.9948414" lon="132.7869465"><ele>73.59666666666668</ele><time>2022-01-28T03:31:12Z</time></trkpt><trkpt lat="33.9950239" lon="132.7869284"><ele>76.24</ele><time>2022-01-28T03:31:28Z</time></trkpt><trkpt lat="33.9948956" lon="132.7867666"><ele>76.77666666666669</ele><time>2022-01-28T03:31:58Z</time></trkpt><trkpt lat="33.9947845" lon="132.7865886"><ele>76.44</ele><time>2022-01-28T03:32:13Z</time></trkpt><trkpt lat="33.9946025" lon="132.7865328"><ele>73.82666666666667</ele><time>2022-01-28T03:32:28Z</time></trkpt><trkpt lat="33.9944664" lon="132.7863883"><ele>72.77666666666666</ele><time>2022-01-28T03:32:41Z</time></trkpt><trkpt lat="33.9942778" lon="132.7863834"><ele>70.96333333333332</ele><time>2022-01-28T03:33:13Z</time></trkpt><trkpt lat="33.9941319" lon="132.7862298"><ele>71.08666666666666</ele><time>2022-01-28T03:33:33Z</time></trkpt><trkpt lat="33.9940226" lon="132.7860439"><ele>71.36</ele><time>2022-01-28T03:33:43Z</time></trkpt><trkpt lat="33.9939307" lon="132.7858467"><ele>71.72333333333334</ele><time>2022-01-28T03:33:55Z</time></trkpt><trkpt lat="33.9938411" lon="132.7856508"><ele>70.80333333333334</ele><time>2022-01-28T03:34:09Z</time></trkpt><trkpt lat="33.9940217" lon="132.7856263"><ele>72.42333333333333</ele><time>2022-01-28T03:34:20Z</time></trkpt><trkpt lat="33.9941699" lon="132.7857678"><ele>75.99666666666667</ele><time>2022-01-28T03:34:35Z</time></trkpt><trkpt lat="33.9942547" lon="132.7859626"><ele>79.18333333333334</ele><time>2022-01-28T03:34:50Z</time></trkpt><trkpt lat="33.9943862" lon="132.7861132"><ele>79.04333333333334</ele><time>2022-01-28T03:35:08Z</time></trkpt><trkpt lat="33.9945169" lon="132.7859633"><ele>81.48</ele><time>2022-01-28T03:35:24Z</time></trkpt><trkpt lat="33.994682" lon="132.7858762"><ele>87.02</ele><time>2022-01-28T03:36:00Z</time></trkpt><trkpt lat="33.9948663" lon="132.785885"><ele>95.27333333333335</ele><time>2022-01-28T03:36:50Z</time></trkpt><trkpt lat="33.9950309" lon="132.785783"><ele>101.99666666666667</ele><time>2022-01-28T03:37:30Z</time></trkpt><trkpt lat="33.9952146" lon="132.7857987"><ele>104.64666666666666</ele><time>2022-01-28T03:37:50Z</time></trkpt><trkpt lat="33.9953923" lon="132.7857284"><ele>104.82666666666667</ele><time>2022-01-28T03:38:09Z</time></trkpt><trkpt lat="33.9954922" lon="132.7855451"><ele>108.48666666666666</ele><time>2022-01-28T03:38:28Z</time></trkpt><trkpt lat="33.995668" lon="132.7854847"><ele>113.42</ele><time>2022-01-28T03:38:48Z</time></trkpt><trkpt lat="33.9958419" lon="132.7854254"><ele>120.48333333333333</ele><time>2022-01-28T03:39:06Z</time></trkpt><trkpt lat="33.9960012" lon="132.7855326"><ele>122.92</ele><time>2022-01-28T03:39:25Z</time></trkpt><trkpt lat="33.9961854" lon="132.7855297"><ele>130.19</ele><time>2022-01-28T03:39:45Z</time></trkpt><trkpt lat="33.9962956" lon="132.7857145"><ele>134.57666666666668</ele><time>2022-01-28T03:40:03Z</time></trkpt><trkpt lat="33.9964473" lon="132.7858379"><ele>137.75666666666666</ele><time>2022-01-28T03:40:20Z</time></trkpt><trkpt lat="33.9965821" lon="132.7859822"><ele>137.86</ele><time>2022-01-28T03:40:51Z</time></trkpt><trkpt lat="33.9967393" lon="132.7860938"><ele>141.64333333333335</ele><time>2022-01-28T03:42:01Z</time></trkpt><trkpt lat="33.9968827" lon="132.7862263"><ele>147.78666666666666</ele><time>2022-01-28T03:42:36Z</time></trkpt><trkpt lat="33.9970712" lon="132.7862229"><ele>154.64</ele><time>2022-01-28T03:43:15Z</time></trkpt><trkpt lat="33.997231" lon="132.7861122"><ele>160.0666666666667</ele><time>2022-01-28T03:43:25Z</time></trkpt><trkpt lat="33.9972938" lon="132.7859067"><ele>163.18666666666664</ele><time>2022-01-28T03:43:41Z</time></trkpt><trkpt lat="33.9974564" lon="132.7857959"><ele>164.29999999999998</ele><time>2022-01-28T03:43:57Z</time></trkpt><trkpt lat="33.9976064" lon="132.7856743"><ele>164.13</ele><time>2022-01-28T03:44:12Z</time></trkpt><trkpt lat="33.9977841" lon="132.785742"><ele>164.41333333333333</ele><time>2022-01-28T03:44:29Z</time></trkpt><trkpt lat="33.9979672" lon="132.7857329"><ele>163.62333333333333</ele><time>2022-01-28T03:44:46Z</time></trkpt><trkpt lat="33.9981556" lon="132.7857516"><ele>164.64666666666668</ele><time>2022-01-28T03:45:04Z</time></trkpt><trkpt lat="33.9983078" lon="132.7856167"><ele>163.02</ele><time>2022-01-28T03:45:20Z</time></trkpt><trkpt lat="33.9983692" lon="132.7854068"><ele>161.16666666666666</ele><time>2022-01-28T03:45:34Z</time></trkpt><trkpt lat="33.9984778" lon="132.7852287"><ele>160.97333333333333</ele><time>2022-01-28T03:45:52Z</time></trkpt><trkpt lat="33.9986592" lon="132.7852331"><ele>165.18999999999997</ele><time>2022-01-28T03:46:54Z</time></trkpt><trkpt lat="33.9988168" lon="132.7853444"><ele>175.16666666666666</ele><time>2022-01-28T03:47:46Z</time></trkpt><trkpt lat="33.9989499" lon="132.7854942"><ele>183.33666666666667</ele><time>2022-01-28T03:48:30Z</time></trkpt><trkpt lat="33.9990714" lon="132.7853284"><ele>189.36333333333334</ele><time>2022-01-28T03:53:59Z</time></trkpt><trkpt lat="33.9989521" lon="132.785492"><ele>190.94333333333336</ele><time>2022-01-28T03:54:55Z</time></trkpt><trkpt lat="33.9988119" lon="132.7856346"><ele>190.14666666666668</ele><time>2022-01-28T03:55:36Z</time></trkpt><trkpt lat="33.9986928" lon="132.7857985"><ele>185.07666666666668</ele><time>2022-01-28T03:57:13Z</time></trkpt><trkpt lat="33.9985163" lon="132.7858751"><ele>179.65666666666667</ele><time>2022-01-28T03:57:24Z</time></trkpt><trkpt lat="33.9983385" lon="132.7859376"><ele>174.04</ele><time>2022-01-28T03:57:38Z</time></trkpt><trkpt lat="33.9981685" lon="132.7860363"><ele>170.93333333333337</ele><time>2022-01-28T03:57:52Z</time></trkpt><trkpt lat="33.9979896" lon="132.7860637"><ele>168.18000000000004</ele><time>2022-01-28T03:58:05Z</time></trkpt><trkpt lat="33.9978597" lon="132.7858828"><ele>166.50333333333333</ele><time>2022-01-28T03:58:28Z</time></trkpt><trkpt lat="33.9979766" lon="132.7856948"><ele>164.89333333333335</ele><time>2022-01-28T03:58:40Z</time></trkpt><trkpt lat="33.9978112" lon="132.7859503"><ele>165.86333333333334</ele><time>2022-01-28T03:58:56Z</time></trkpt><trkpt lat="33.9979752" lon="132.7860706"><ele>165.78</ele><time>2022-01-28T03:59:04Z</time></trkpt><trkpt lat="33.9979003" lon="132.7862749"><ele>165.31333333333336</ele><time>2022-01-28T03:59:55Z</time></trkpt><trkpt lat="33.9977064" lon="132.7863028"><ele>165.11333333333334</ele><time>2022-01-28T04:01:01Z</time></trkpt><trkpt lat="33.9975301" lon="132.786226"><ele>166.48333333333335</ele><time>2022-01-28T04:01:15Z</time></trkpt><trkpt lat="33.997346" lon="132.7862106"><ele>168.33666666666667</ele><time>2022-01-28T04:01:56Z</time></trkpt><trkpt lat="33.9971646" lon="132.7861955"><ele>166.00333333333333</ele><time>2022-01-28T04:02:14Z</time></trkpt><trkpt lat="33.9969934" lon="132.786309"><ele>161.68666666666667</ele><time>2022-01-28T04:03:11Z</time></trkpt><trkpt lat="33.9969042" lon="132.7865178"><ele>155.32</ele><time>2022-01-28T04:03:26Z</time></trkpt><trkpt lat="33.9968008" lon="132.786698"><ele>149.06333333333333</ele><time>2022-01-28T04:03:40Z</time></trkpt><trkpt lat="33.9966921" lon="132.7868867"><ele>142.42999999999998</ele><time>2022-01-28T04:03:57Z</time></trkpt><trkpt lat="33.9966157" lon="132.7866777"><ele>141.46333333333334</ele><time>2022-01-28T04:05:06Z</time></trkpt><trkpt lat="33.9964596" lon="132.7868113"><ele>138.42</ele><time>2022-01-28T04:05:30Z</time></trkpt><trkpt lat="33.9963771" lon="132.7866075"><ele>135.03333333333333</ele><time>2022-01-28T04:06:02Z</time></trkpt><trkpt lat="33.9964959" lon="132.7864386"><ele>131.71666666666667</ele><time>2022-01-28T04:07:04Z</time></trkpt><trkpt lat="33.9966467" lon="132.7862939"><ele>135.37333333333333</ele><time>2022-01-28T04:07:32Z</time></trkpt><trkpt lat="33.9965602" lon="132.7860986"><ele>139.20666666666668</ele><time>2022-01-28T04:07:48Z</time></trkpt><trkpt lat="33.9964015" lon="132.7859884"><ele>139.53333333333333</ele><time>2022-01-28T04:08:00Z</time></trkpt><trkpt lat="33.9962615" lon="132.7858324"><ele>134.99333333333334</ele><time>2022-01-28T04:09:16Z</time></trkpt><trkpt lat="33.9961411" lon="132.7856659"><ele>131.92666666666665</ele><time>2022-01-28T04:09:29Z</time></trkpt><trkpt lat="33.9959461" lon="132.7856493"><ele>126.18333333333335</ele><time>2022-01-28T04:09:43Z</time></trkpt><trkpt lat="33.9958422" lon="132.7854583"><ele>123.67666666666668</ele><time>2022-01-28T04:11:08Z</time></trkpt><trkpt lat="33.9956602" lon="132.7853988"><ele>121.67666666666668</ele><time>2022-01-28T04:11:26Z</time></trkpt><trkpt lat="33.9954748" lon="132.7854489"><ele>124.08666666666666</ele><time>2022-01-28T04:11:51Z</time></trkpt><trkpt lat="33.9953122" lon="132.7855453"><ele>123.58</ele><time>2022-01-28T04:12:11Z</time></trkpt><trkpt lat="33.995149" lon="132.7854465"><ele>123.29666666666667</ele><time>2022-01-28T04:13:00Z</time></trkpt><trkpt lat="33.9949657" lon="132.7854144"><ele>122.42</ele><time>2022-01-28T04:13:19Z</time></trkpt><trkpt lat="33.994783" lon="132.7853655"><ele>122.77666666666666</ele><time>2022-01-28T04:14:37Z</time></trkpt><trkpt lat="33.9946585" lon="132.7852071"><ele>124.73</ele><time>2022-01-28T04:14:47Z</time></trkpt><trkpt lat="33.994589" lon="132.7850056"><ele>127.30333333333333</ele><time>2022-01-28T04:15:14Z</time></trkpt><trkpt lat="33.9944648" lon="132.7848437"><ele>130.44666666666666</ele><time>2022-01-28T04:15:39Z</time></trkpt><trkpt lat="33.9943536" lon="132.7846725"><ele>132.16666666666666</ele><time>2022-01-28T04:16:02Z</time></trkpt><trkpt lat="33.9942379" lon="132.7844817"><ele>134.63666666666668</ele><time>2022-01-28T04:16:22Z</time></trkpt><trkpt lat="33.9940614" lon="132.7844057"><ele>137.24333333333334</ele><time>2022-01-28T04:16:48Z</time></trkpt><trkpt lat="33.9938836" lon="132.784457"><ele>137.60666666666665</ele><time>2022-01-28T04:17:09Z</time></trkpt><trkpt lat="33.9937046" lon="132.7844254"><ele>136.63666666666666</ele><time>2022-01-28T04:17:24Z</time></trkpt><trkpt lat="33.9935679" lon="132.7842732"><ele>133.1833333333333</ele><time>2022-01-28T04:17:45Z</time></trkpt><trkpt lat="33.9937433" lon="132.784222"><ele>132.61</ele><time>2022-01-28T04:19:10Z</time></trkpt><trkpt lat="33.99369" lon="132.784011"><ele>127.31666666666668</ele><time>2022-01-28T04:19:41Z</time></trkpt><trkpt lat="33.9936015" lon="132.7838178"><ele>121.14</ele><time>2022-01-28T04:19:52Z</time></trkpt><trkpt lat="33.9935581" lon="132.7836033"><ele>112.17333333333333</ele><time>2022-01-28T04:20:21Z</time></trkpt><trkpt lat="33.9934969" lon="132.7833982"><ele>107.01333333333334</ele><time>2022-01-28T04:20:48Z</time></trkpt><trkpt lat="33.993538" lon="132.7831835"><ele>104.04666666666667</ele><time>2022-01-28T04:21:11Z</time></trkpt><trkpt lat="33.9934543" lon="132.7829878"><ele>102.73</ele><time>2022-01-28T04:21:32Z</time></trkpt><trkpt lat="33.9933311" lon="132.7828285"><ele>102.90666666666668</ele><time>2022-01-28T04:21:51Z</time></trkpt><trkpt lat="33.9932489" lon="132.7826338"><ele>105.90333333333332</ele><time>2022-01-28T04:22:22Z</time></trkpt><trkpt lat="33.9931079" lon="132.7824865"><ele>109.28666666666668</ele><time>2022-01-28T04:22:42Z</time></trkpt><trkpt lat="33.9929881" lon="132.7823199"><ele>114.5</ele><time>2022-01-28T04:23:07Z</time></trkpt><trkpt lat="33.9929785" lon="132.7821031"><ele>117.65333333333335</ele><time>2022-01-28T04:23:30Z</time></trkpt><trkpt lat="33.9929336" lon="132.7818912"><ele>121.86666666666667</ele><time>2022-01-28T04:24:06Z</time></trkpt><trkpt lat="33.9928521" lon="132.7816941"><ele>127.38999999999999</ele><time>2022-01-28T04:25:03Z</time></trkpt><trkpt lat="33.9927766" lon="132.7814949"><ele>135.86333333333334</ele><time>2022-01-28T04:26:06Z</time></trkpt><trkpt lat="33.9926498" lon="132.78134"><ele>147.21333333333334</ele><time>2022-01-28T04:26:57Z</time></trkpt><trkpt lat="33.9927619" lon="132.7811693"><ele>152.99</ele><time>2022-01-28T04:27:46Z</time></trkpt><trkpt lat="33.99282" lon="132.7809593"><ele>155.31666666666666</ele><time>2022-01-28T04:28:18Z</time></trkpt><trkpt lat="33.9927202" lon="132.78115"><ele>154.43666666666667</ele><time>2022-01-28T04:29:00Z</time></trkpt><trkpt lat="33.9926561" lon="132.7813592"><ele>156.4466666666667</ele><time>2022-01-28T04:30:51Z</time></trkpt><trkpt lat="33.9924473" lon="132.781404"><ele>157.65</ele><time>2022-01-28T04:35:46Z</time></trkpt><trkpt lat="33.9922609" lon="132.7813629"><ele>156.11333333333334</ele><time>2022-01-28T04:35:58Z</time></trkpt><trkpt lat="33.9920757" lon="132.7813509"><ele>151.06333333333336</ele><time>2022-01-28T04:36:23Z</time></trkpt><trkpt lat="33.9921659" lon="132.7815455"><ele>148.37</ele><time>2022-01-28T04:37:25Z</time></trkpt><trkpt lat="33.9921314" lon="132.7814859"><ele>148.52</ele><time>2022-01-28T04:40:03Z</time></trkpt><trkpt lat="33.991951" lon="132.7815007"><ele>150.56333333333333</ele><time>2022-01-28T04:44:16Z</time></trkpt><trkpt lat="33.9918348" lon="132.7816706"><ele>148.28</ele><time>2022-01-28T04:45:13Z</time></trkpt><trkpt lat="33.9916728" lon="132.7817737"><ele>141.79999999999998</ele><time>2022-01-28T04:46:48Z</time></trkpt><trkpt lat="33.9915931" lon="132.7819711"><ele>131.97666666666666</ele><time>2022-01-28T04:48:25Z</time></trkpt><trkpt lat="33.9914822" lon="132.7821473"><ele>122.55666666666667</ele><time>2022-01-28T04:48:38Z</time></trkpt><trkpt lat="33.9914784" lon="132.7823671"><ele>114.57333333333332</ele><time>2022-01-28T04:49:06Z</time></trkpt><trkpt lat="33.9913938" lon="132.7825592"><ele>109.41666666666667</ele><time>2022-01-28T04:50:04Z</time></trkpt><trkpt lat="33.9912923" lon="132.7827484"><ele>104.67</ele><time>2022-01-28T04:50:25Z</time></trkpt><trkpt lat="33.9911345" lon="132.7828675"><ele>102.26666666666667</ele><time>2022-01-28T04:50:51Z</time></trkpt><trkpt lat="33.9911718" lon="132.7830957"><ele>100.30333333333334</ele><time>2022-01-28T04:53:21Z</time></trkpt><trkpt lat="33.991351" lon="132.7831827"><ele>95.05666666666667</ele><time>2022-01-28T04:53:41Z</time></trkpt><trkpt lat="33.9915291" lon="132.7832259"><ele>86.67333333333333</ele><time>2022-01-28T04:54:15Z</time></trkpt><trkpt lat="33.9915815" lon="132.7834384"><ele>74.74333333333333</ele><time>2022-01-28T04:55:15Z</time></trkpt><trkpt lat="33.9916979" lon="132.783606"><ele>64.33666666666666</ele><time>2022-01-28T04:55:45Z</time></trkpt><trkpt lat="33.9916872" lon="132.7838236"><ele>55.24666666666667</ele><time>2022-01-28T04:56:01Z</time></trkpt><trkpt lat="33.991752" lon="132.7840318"><ele>48.96000000000001</ele><time>2022-01-28T04:56:13Z</time></trkpt><trkpt lat="33.9919362" lon="132.784025"><ele>47.18</ele><time>2022-01-28T04:57:09Z</time></trkpt><trkpt lat="33.9921161" lon="132.7840778"><ele>46.669999999999995</ele><time>2022-01-28T04:57:28Z</time></trkpt><trkpt lat="33.9922127" lon="132.784279"><ele>49.663333333333334</ele><time>2022-01-28T04:57:50Z</time></trkpt><trkpt lat="33.9921059" lon="132.7844627"><ele>52.903333333333336</ele><time>2022-01-28T04:58:04Z</time></trkpt><trkpt lat="33.9920968" lon="132.7846824"><ele>55.89333333333334</ele><time>2022-01-28T04:58:18Z</time></trkpt><trkpt lat="33.9921579" lon="132.7848948"><ele>58.10666666666666</ele><time>2022-01-28T04:58:31Z</time></trkpt><trkpt lat="33.9923166" lon="132.7850078"><ele>60.68666666666667</ele><time>2022-01-28T04:58:42Z</time></trkpt><trkpt lat="33.9924346" lon="132.785185"><ele>63.27</ele><time>2022-01-28T04:58:56Z</time></trkpt><trkpt lat="33.9925271" lon="132.7853787"><ele>63.93000000000001</ele><time>2022-01-28T04:59:25Z</time></trkpt><trkpt lat="33.9927062" lon="132.7854218"><ele>63.98666666666667</ele><time>2022-01-28T04:59:40Z</time></trkpt><trkpt lat="33.9928802" lon="132.785499"><ele>64.13666666666667</ele><time>2022-01-28T04:59:54Z</time></trkpt><trkpt lat="33.9930305" lon="132.7856197"><ele>64.84666666666668</ele><time>2022-01-28T05:00:27Z</time></trkpt><trkpt lat="33.9931829" lon="132.7857393"><ele>64.19333333333334</ele><time>2022-01-28T05:00:44Z</time></trkpt><trkpt lat="33.9933625" lon="132.7856786"><ele>63.99666666666667</ele><time>2022-01-28T05:01:01Z</time></trkpt><trkpt lat="33.9934902" lon="132.7858452"><ele>62.83666666666667</ele><time>2022-01-28T05:01:20Z</time></trkpt><trkpt lat="33.9936696" lon="132.7858005"><ele>63.13333333333333</ele><time>2022-01-28T05:01:33Z</time></trkpt><trkpt lat="33.9937703" lon="132.7856201"><ele>64.25666666666667</ele><time>2022-01-28T05:01:46Z</time></trkpt><trkpt lat="33.9939041" lon="132.7857681"><ele>67.11333333333333</ele><time>2022-01-28T05:02:00Z</time></trkpt><trkpt lat="33.9939675" lon="132.785976"><ele>69.61</ele><time>2022-01-28T05:02:12Z</time></trkpt><trkpt lat="33.9940515" lon="132.7862043"><ele>70.64666666666666</ele><time>2022-01-28T05:02:27Z</time></trkpt><trkpt lat="33.9942173" lon="132.7862997"><ele>71.08333333333334</ele><time>2022-01-28T05:02:41Z</time></trkpt><trkpt lat="33.9943996" lon="132.7862906"><ele>71.93333333333334</ele><time>2022-01-28T05:02:57Z</time></trkpt><trkpt lat="33.9945585" lon="132.7864116"><ele>73.19333333333333</ele><time>2022-01-28T05:03:16Z</time></trkpt><trkpt lat="33.9946599" lon="132.7865916"><ele>73.82333333333334</ele><time>2022-01-28T05:03:31Z</time></trkpt><trkpt lat="33.9947989" lon="132.7867313"><ele>73.64</ele><time>2022-01-28T05:03:47Z</time></trkpt><trkpt lat="33.9948797" lon="132.7869286"><ele>74.03666666666668</ele><time>2022-01-28T05:04:04Z</time></trkpt><trkpt lat="33.9947226" lon="132.7870496"><ele>74.37</ele><time>2022-01-28T05:04:25Z</time></trkpt><trkpt lat="33.9945576" lon="132.7869427"><ele>73.75666666666667</ele><time>2022-01-28T05:04:41Z</time></trkpt><trkpt lat="33.9944554" lon="132.7867629"><ele>70.91666666666667</ele><time>2022-01-28T05:05:01Z</time></trkpt><trkpt lat="33.9943309" lon="132.786605"><ele>68.51666666666667</ele><time>2022-01-28T05:05:31Z</time></trkpt><trkpt lat="33.9941572" lon="132.7865201"><ele>66.12666666666667</ele><time>2022-01-28T05:05:42Z</time></trkpt><trkpt lat="33.9939762" lon="132.7865487"><ele>64.55666666666666</ele><time>2022-01-28T05:05:54Z</time></trkpt><trkpt lat="33.9937932" lon="132.7865245"><ele>62.89000000000001</ele><time>2022-01-28T05:06:08Z</time></trkpt><trkpt lat="33.9936313" lon="132.7863997"><ele>60.29333333333333</ele><time>2022-01-28T05:06:23Z</time></trkpt><trkpt lat="33.9934519" lon="132.7862945"><ele>57.29333333333333</ele><time>2022-01-28T05:06:38Z</time></trkpt><trkpt lat="33.9932789" lon="132.7862306"><ele>53.76666666666666</ele><time>2022-01-28T05:06:52Z</time></trkpt><trkpt lat="33.9930878" lon="132.7861985"><ele>51.21666666666666</ele><time>2022-01-28T05:07:08Z</time></trkpt><trkpt lat="33.9929086" lon="132.7861738"><ele>49.49</ele><time>2022-01-28T05:07:21Z</time></trkpt><trkpt lat="33.9927211" lon="132.7861607"><ele>47.67000000000001</ele><time>2022-01-28T05:07:35Z</time></trkpt><trkpt lat="33.9925327" lon="132.7861456"><ele>45.88666666666666</ele><time>2022-01-28T05:07:48Z</time></trkpt><trkpt lat="33.9923691" lon="132.7860529"><ele>43.04</ele><time>2022-01-28T05:08:05Z</time></trkpt><trkpt lat="33.9921865" lon="132.7860129"><ele>40.83</ele><time>2022-01-28T05:08:23Z</time></trkpt><trkpt lat="33.9920761" lon="132.786193"><ele>40.01666666666667</ele><time>2022-01-28T05:08:40Z</time></trkpt><trkpt lat="33.9919681" lon="132.7863673"><ele>41.56333333333334</ele><time>2022-01-28T05:09:51Z</time></trkpt><trkpt lat="33.9918654" lon="132.7865513"><ele>45.14333333333334</ele><time>2022-01-28T05:10:04Z</time></trkpt><trkpt lat="33.991713" lon="132.7866703"><ele>48.89000000000001</ele><time>2022-01-28T05:10:23Z</time></trkpt><trkpt lat="33.9915352" lon="132.7865978"><ele>51.80666666666667</ele><time>2022-01-28T05:10:39Z</time></trkpt><trkpt lat="33.9913497" lon="132.7865407"><ele>53.43666666666667</ele><time>2022-01-28T05:10:59Z</time></trkpt><trkpt lat="33.9911923" lon="132.7866523"><ele>53.25666666666666</ele><time>2022-01-28T05:11:21Z</time></trkpt><trkpt lat="33.9912544" lon="132.786867"><ele>54.830000000000005</ele><time>2022-01-28T05:11:48Z</time></trkpt><trkpt lat="33.9913978" lon="132.7870071"><ele>58.81333333333333</ele><time>2022-01-28T05:12:04Z</time></trkpt><trkpt lat="33.9915363" lon="132.7871569"><ele>66.30666666666667</ele><time>2022-01-28T05:12:33Z</time></trkpt><trkpt lat="33.9915699" lon="132.7873806"><ele>74.16000000000001</ele><time>2022-01-28T05:14:20Z</time></trkpt><trkpt lat="33.9917355" lon="132.7874861"><ele>82.35333333333334</ele><time>2022-01-28T05:15:07Z</time></trkpt><trkpt lat="33.9918718" lon="132.7876304"><ele>90.62666666666667</ele><time>2022-01-28T05:16:16Z</time></trkpt><trkpt lat="33.9920317" lon="132.7877369"><ele>98.94</ele><time>2022-01-28T05:17:09Z</time></trkpt><trkpt lat="33.9921787" lon="132.7878706"><ele>107.11000000000001</ele><time>2022-01-28T05:17:57Z</time></trkpt><trkpt lat="33.9923533" lon="132.7879303"><ele>118.21</ele><time>2022-01-28T05:19:25Z</time></trkpt><trkpt lat="33.9924776" lon="132.7880944"><ele>132.36</ele><time>2022-01-28T05:20:07Z</time></trkpt><trkpt lat="33.9926474" lon="132.7881756"><ele>146.75666666666666</ele><time>2022-01-28T05:20:36Z</time></trkpt><trkpt lat="33.9928254" lon="132.788244"><ele>157.65333333333334</ele><time>2022-01-28T05:21:59Z</time></trkpt><trkpt lat="33.9929744" lon="132.7883706"><ele>164.79</ele><time>2022-01-28T05:23:39Z</time></trkpt><trkpt lat="33.9931022" lon="132.7885254"><ele>171.79333333333332</ele><time>2022-01-28T05:24:14Z</time></trkpt><trkpt lat="33.9931334" lon="132.78874"><ele>178.65333333333334</ele><time>2022-01-28T05:24:50Z</time></trkpt><trkpt lat="33.9932256" lon="132.7889272"><ele>186.73666666666668</ele><time>2022-01-28T05:25:25Z</time></trkpt><trkpt lat="33.9933498" lon="132.7890931"><ele>192.9</ele><time>2022-01-28T05:26:17Z</time></trkpt><trkpt lat="33.9932593" lon="132.7892942"><ele>199.29999999999998</ele><time>2022-01-28T05:26:47Z</time></trkpt><trkpt lat="33.9934038" lon="132.7894257"><ele>202.00333333333333</ele><time>2022-01-28T05:27:36Z</time></trkpt><trkpt lat="33.9933446" lon="132.7897133"><ele>206.5566666666667</ele><time>2022-01-28T05:27:53Z</time></trkpt><trkpt lat="33.9932805" lon="132.7899177"><ele>206.86333333333332</ele><time>2022-01-28T05:30:02Z</time></trkpt><trkpt lat="33.9934581" lon="132.790001"><ele>206.71</ele><time>2022-01-28T05:33:33Z</time></trkpt><trkpt lat="33.9936246" lon="132.7900957"><ele>201.15666666666667</ele><time>2022-01-28T05:34:34Z</time></trkpt><trkpt lat="33.9938042" lon="132.7900666"><ele>196.47666666666666</ele><time>2022-01-28T05:34:48Z</time></trkpt><trkpt lat="33.993923" lon="132.7902384"><ele>191.13666666666666</ele><time>2022-01-28T05:35:28Z</time></trkpt><trkpt lat="33.9940717" lon="132.7903662"><ele>186.49333333333334</ele><time>2022-01-28T05:35:47Z</time></trkpt><trkpt lat="33.9941559" lon="132.7905585"><ele>181.33</ele><time>2022-01-28T05:36:15Z</time></trkpt><trkpt lat="33.9943273" lon="132.7906348"><ele>172.5666666666667</ele><time>2022-01-28T05:36:40Z</time></trkpt><trkpt lat="33.9943786" lon="132.7908472"><ele>165.35666666666668</ele><time>2022-01-28T05:36:55Z</time></trkpt><trkpt lat="33.9943819" lon="132.7910729"><ele>160.42666666666665</ele><time>2022-01-28T05:37:06Z</time></trkpt><trkpt lat="33.9944208" lon="132.7912904"><ele>160.3</ele><time>2022-01-28T05:37:21Z</time></trkpt><trkpt lat="33.9944235" lon="132.7915214"><ele>158.97666666666666</ele><time>2022-01-28T05:37:35Z</time></trkpt><trkpt lat="33.9945503" lon="132.7916993"><ele>156.24666666666667</ele><time>2022-01-28T05:37:54Z</time></trkpt><trkpt lat="33.9946566" lon="132.791878"><ele>153.27</ele><time>2022-01-28T05:38:09Z</time></trkpt><trkpt lat="33.9946547" lon="132.7921005"><ele>149.30666666666667</ele><time>2022-01-28T05:38:28Z</time></trkpt><trkpt lat="33.9945928" lon="132.7923067"><ele>144.54333333333332</ele><time>2022-01-28T05:38:40Z</time></trkpt><trkpt lat="33.9944481" lon="132.7924382"><ele>139.21666666666667</ele><time>2022-01-28T05:38:54Z</time></trkpt><trkpt lat="33.994413" lon="132.7926627"><ele>134.59666666666666</ele><time>2022-01-28T05:39:17Z</time></trkpt><trkpt lat="33.994327" lon="132.7928532"><ele>130.84333333333333</ele><time>2022-01-28T05:39:36Z</time></trkpt><trkpt lat="33.9942177" lon="132.7930447"><ele>128.78666666666666</ele><time>2022-01-28T05:39:57Z</time></trkpt><trkpt lat="33.9942091" lon="132.7932677"><ele>127.55666666666667</ele><time>2022-01-28T05:40:10Z</time></trkpt><trkpt lat="33.9942157" lon="132.7934875"><ele>128.04333333333332</ele><time>2022-01-28T05:40:29Z</time></trkpt><trkpt lat="33.9943029" lon="132.79368"><ele>129.49</ele><time>2022-01-28T05:40:59Z</time></trkpt><trkpt lat="33.9943889" lon="132.7938711"><ele>132.2</ele><time>2022-01-28T05:41:45Z</time></trkpt><trkpt lat="33.9942613" lon="132.7940274"><ele>135.25</ele><time>2022-01-28T05:42:10Z</time></trkpt><trkpt lat="33.994131" lon="132.7941793"><ele>137.48</ele><time>2022-01-28T05:42:26Z</time></trkpt><trkpt lat="33.9939568" lon="132.7942585"><ele>140.65333333333334</ele><time>2022-01-28T05:42:38Z</time></trkpt><trkpt lat="33.993813" lon="132.7943937"><ele>142.33333333333334</ele><time>2022-01-28T05:43:04Z</time></trkpt><trkpt lat="33.9938113" lon="132.7946176"><ele>144.88333333333333</ele><time>2022-01-28T05:43:33Z</time></trkpt><trkpt lat="33.9937526" lon="132.7948227"><ele>147.0</ele><time>2022-01-28T05:44:02Z</time></trkpt><trkpt lat="33.9936375" lon="132.7950069"><ele>149.21666666666667</ele><time>2022-01-28T05:46:41Z</time></trkpt><trkpt lat="33.9935389" lon="132.7952074"><ele>150.92666666666665</ele><time>2022-01-28T05:47:13Z</time></trkpt><trkpt lat="33.9933601" lon="132.7952697"><ele>153.68333333333337</ele><time>2022-01-28T05:47:32Z</time></trkpt><trkpt lat="33.9932029" lon="132.7953761"><ele>155.75666666666666</ele><time>2022-01-28T05:47:51Z</time></trkpt><trkpt lat="33.9932864" lon="132.7955789"><ele>153.68333333333334</ele><time>2022-01-28T05:48:15Z</time></trkpt><trkpt lat="33.9932211" lon="132.7957894"><ele>148.20000000000002</ele><time>2022-01-28T05:48:33Z</time></trkpt><trkpt lat="33.9931321" lon="132.7959924"><ele>144.45666666666668</ele><time>2022-01-28T05:48:48Z</time></trkpt><trkpt lat="33.9933057" lon="132.7960577"><ele>143.83</ele><time>2022-01-28T05:49:27Z</time></trkpt><trkpt lat="33.9933865" lon="132.7962514"><ele>144.67333333333332</ele><time>2022-01-28T05:49:47Z</time></trkpt><trkpt lat="33.9933368" lon="132.7964719"><ele>145.56333333333336</ele><time>2022-01-28T05:50:04Z</time></trkpt><trkpt lat="33.993405" lon="132.7966849"><ele>145.81333333333333</ele><time>2022-01-28T05:50:18Z</time></trkpt><trkpt lat="33.9935535" lon="132.79681"><ele>144.13</ele><time>2022-01-28T05:50:33Z</time></trkpt><trkpt lat="33.993584" lon="132.7970702"><ele>144.87</ele><time>2022-01-28T05:50:59Z</time></trkpt><trkpt lat="33.9933736" lon="132.7969791"><ele>148.28333333333333</ele><time>2022-01-28T05:51:18Z</time></trkpt><trkpt lat="33.9933424" lon="132.7972212"><ele>158.79</ele><time>2022-01-28T05:51:24Z</time></trkpt><trkpt lat="33.993439" lon="132.7974069"><ele>168.10333333333332</ele><time>2022-01-28T05:52:18Z</time></trkpt><trkpt lat="33.9935187" lon="132.7976025"><ele>179.9766666666667</ele><time>2022-01-28T05:52:33Z</time></trkpt><trkpt lat="33.9937118" lon="132.7976013"><ele>184.1966666666667</ele><time>2022-01-28T05:52:47Z</time></trkpt><trkpt lat="33.9938188" lon="132.7974257"><ele>181.91</ele><time>2022-01-28T05:53:01Z</time></trkpt><trkpt lat="33.9939656" lon="132.7972992"><ele>171.70666666666668</ele><time>2022-01-28T05:53:23Z</time></trkpt><trkpt lat="33.9940469" lon="132.7974948"><ele>165.4266666666667</ele><time>2022-01-28T05:54:38Z</time></trkpt><trkpt lat="33.9939072" lon="132.797632"><ele>167.88</ele><time>2022-01-28T05:55:11Z</time></trkpt><trkpt lat="33.9937923" lon="132.7978028"><ele>176.51000000000002</ele><time>2022-01-28T05:55:43Z</time></trkpt><trkpt lat="33.9936136" lon="132.7978443"><ele>186.72333333333336</ele><time>2022-01-28T05:56:23Z</time></trkpt><trkpt lat="33.9934315" lon="132.7978746"><ele>194.63666666666668</ele><time>2022-01-28T05:57:31Z</time></trkpt><trkpt lat="33.9932715" lon="132.7977684"><ele>201.63333333333335</ele><time>2022-01-28T05:58:31Z</time></trkpt><trkpt lat="33.9930954" lon="132.7978182"><ele>209.92333333333332</ele><time>2022-01-28T05:59:20Z</time></trkpt><trkpt lat="33.9929145" lon="132.797847"><ele>220.35666666666665</ele><time>2022-01-28T06:00:19Z</time></trkpt><trkpt lat="33.9929577" lon="132.7980572"><ele>230.99666666666667</ele><time>2022-01-28T06:03:21Z</time></trkpt><trkpt lat="33.9929685" lon="132.7982806"><ele>239.55333333333337</ele><time>2022-01-28T06:03:57Z</time></trkpt><trkpt lat="33.9928169" lon="132.7983994"><ele>248.72333333333336</ele><time>2022-01-28T06:04:35Z</time></trkpt><trkpt lat="33.9926781" lon="132.7985482"><ele>262.00333333333333</ele><time>2022-01-28T06:05:48Z</time></trkpt><trkpt lat="33.9925003" lon="132.7985931"><ele>276.44</ele><time>2022-01-28T06:06:53Z</time></trkpt><trkpt lat="33.9924342" lon="132.7987954"><ele>287.9533333333333</ele><time>2022-01-28T06:08:00Z</time></trkpt><trkpt lat="33.9925099" lon="132.7989922"><ele>292.49333333333334</ele><time>2022-01-28T06:08:32Z</time></trkpt><trkpt lat="33.9926488" lon="132.7991578"><ele>283.98333333333335</ele><time>2022-01-28T06:10:08Z</time></trkpt><trkpt lat="33.9925084" lon="132.7992984"><ele>279.3533333333333</ele><time>2022-01-28T06:12:56Z</time></trkpt><trkpt lat="33.9924641" lon="132.7990748"><ele>280.79333333333335</ele><time>2022-01-28T06:15:13Z</time></trkpt><trkpt lat="33.992644" lon="132.7990973"><ele>282.69666666666666</ele><time>2022-01-28T06:15:36Z</time></trkpt><trkpt lat="33.992802" lon="132.7989872"><ele>273.67</ele><time>2022-01-28T06:16:01Z</time></trkpt><trkpt lat="33.9926403" lon="132.7988576"><ele>267.87333333333333</ele><time>2022-01-28T06:16:15Z</time></trkpt><trkpt lat="33.9924591" lon="132.7988584"><ele>276.49</ele><time>2022-01-28T06:16:45Z</time></trkpt><trkpt lat="33.9923394" lon="132.7986947"><ele>289.77333333333337</ele><time>2022-01-28T06:17:38Z</time></trkpt><trkpt lat="33.9923239" lon="132.7984763"><ele>293.57</ele><time>2022-01-28T06:18:11Z</time></trkpt><trkpt lat="33.9922644" lon="132.7986839"><ele>293.06</ele><time>2022-01-28T06:23:12Z</time></trkpt><trkpt lat="33.992204" lon="132.7988927"><ele>294.3933333333333</ele><time>2022-01-28T06:23:54Z</time></trkpt><trkpt lat="33.9922262" lon="132.7991112"><ele>297.55333333333334</ele><time>2022-01-28T06:24:44Z</time></trkpt><trkpt lat="33.9924084" lon="132.7991234"><ele>298.5366666666667</ele><time>2022-01-28T06:25:08Z</time></trkpt><trkpt lat="33.9922702" lon="132.7992645"><ele>299.12666666666667</ele><time>2022-01-28T06:29:34Z</time></trkpt><trkpt lat="33.9921762" lon="132.7990751"><ele>298.5833333333333</ele><time>2022-01-28T06:30:29Z</time></trkpt><trkpt lat="33.9922257" lon="132.79886"><ele>298.43666666666667</ele><time>2022-01-28T06:32:54Z</time></trkpt><trkpt lat="33.9923196" lon="132.7986738"><ele>296.3766666666667</ele><time>2022-01-28T06:33:49Z</time></trkpt><trkpt lat="33.9922005" lon="132.7985097"><ele>293.1933333333333</ele><time>2022-01-28T06:34:14Z</time></trkpt><trkpt lat="33.9922229" lon="132.7982877"><ele>289.0833333333333</ele><time>2022-01-28T06:34:37Z</time></trkpt><trkpt lat="33.9920798" lon="132.7981545"><ele>281.3333333333333</ele><time>2022-01-28T06:35:47Z</time></trkpt><trkpt lat="33.9918669" lon="132.7980592"><ele>269.56</ele><time>2022-01-28T06:37:16Z</time></trkpt><trkpt lat="33.9917547" lon="132.7982315"><ele>257.73999999999995</ele><time>2022-01-28T06:38:09Z</time></trkpt><trkpt lat="33.9917204" lon="132.7984462"><ele>251.62333333333333</ele><time>2022-01-28T06:38:27Z</time></trkpt><trkpt lat="33.9916137" lon="132.7982697"><ele>246.56000000000003</ele><time>2022-01-28T06:38:38Z</time></trkpt><trkpt lat="33.9915601" lon="132.7980561"><ele>242.00666666666666</ele><time>2022-01-28T06:39:17Z</time></trkpt><trkpt lat="33.9914602" lon="132.7982372"><ele>234.01999999999998</ele><time>2022-01-28T06:39:39Z</time></trkpt><trkpt lat="33.9913737" lon="132.7980436"><ele>228.07333333333335</ele><time>2022-01-28T06:40:13Z</time></trkpt><trkpt lat="33.9913208" lon="132.7978351"><ele>219.54</ele><time>2022-01-28T06:40:49Z</time></trkpt><trkpt lat="33.991166" lon="132.7979519"><ele>211.32333333333335</ele><time>2022-01-28T06:41:02Z</time></trkpt><trkpt lat="33.9911189" lon="132.7981719"><ele>204.37</ele><time>2022-01-28T06:41:15Z</time></trkpt><trkpt lat="33.9910716" lon="132.7979249"><ele>200.03666666666666</ele><time>2022-01-28T06:41:41Z</time></trkpt><trkpt lat="33.9909454" lon="132.798082"><ele>195.6</ele><time>2022-01-28T06:42:05Z</time></trkpt><trkpt lat="33.990839" lon="132.7982576"><ele>189.42</ele><time>2022-01-28T06:42:33Z</time></trkpt><trkpt lat="33.9907409" lon="132.798062"><ele>183.17333333333332</ele><time>2022-01-28T06:42:43Z</time></trkpt><trkpt lat="33.9905728" lon="132.7981442"><ele>176.53333333333333</ele><time>2022-01-28T06:42:59Z</time></trkpt><trkpt lat="33.9903961" lon="132.7982123"><ele>169.16333333333333</ele><time>2022-01-28T06:43:43Z</time></trkpt><trkpt lat="33.9905759" lon="132.7981087"><ele>166.77666666666667</ele><time>2022-01-28T06:43:57Z</time></trkpt><trkpt lat="33.9903946" lon="132.7981236"><ele>163.71333333333334</ele><time>2022-01-28T06:44:08Z</time></trkpt><trkpt lat="33.9904826" lon="132.7979184"><ele>164.51</ele><time>2022-01-28T06:44:33Z</time></trkpt><trkpt lat="33.9906006" lon="132.7977539"><ele>162.25</ele><time>2022-01-28T06:44:45Z</time></trkpt><trkpt lat="33.9906316" lon="132.7975353"><ele>162.79</ele><time>2022-01-28T06:44:57Z</time></trkpt><trkpt lat="33.9906575" lon="132.7973164"><ele>160.50333333333333</ele><time>2022-01-28T06:45:10Z</time></trkpt><trkpt lat="33.9907456" lon="132.7971269"><ele>156.95666666666668</ele><time>2022-01-28T06:45:23Z</time></trkpt><trkpt lat="33.990593" lon="132.7970013"><ele>151.46</ele><time>2022-01-28T06:45:38Z</time></trkpt><trkpt lat="33.9905363" lon="132.7972261"><ele>149.02333333333334</ele><time>2022-01-28T06:45:50Z</time></trkpt><trkpt lat="33.9906192" lon="132.797434"><ele>150.21666666666667</ele><time>2022-01-28T06:46:02Z</time></trkpt><trkpt lat="33.9905336" lon="132.7976348"><ele>154.0066666666667</ele><time>2022-01-28T06:46:17Z</time></trkpt><trkpt lat="33.9903667" lon="132.7977225"><ele>156.22</ele><time>2022-01-28T06:46:28Z</time></trkpt><trkpt lat="33.9902191" lon="132.7978477"><ele>155.07333333333335</ele><time>2022-01-28T06:46:42Z</time></trkpt><trkpt lat="33.9900719" lon="132.7979737"><ele>152.0233333333333</ele><time>2022-01-28T06:46:55Z</time></trkpt><trkpt lat="33.9898944" lon="132.7980434"><ele>147.83666666666667</ele><time>2022-01-28T06:47:10Z</time></trkpt><trkpt lat="33.9897134" lon="132.7980185"><ele>142.3033333333333</ele><time>2022-01-28T06:47:25Z</time></trkpt><trkpt lat="33.9895287" lon="132.7980423"><ele>136.31333333333333</ele><time>2022-01-28T06:47:41Z</time></trkpt><trkpt lat="33.9893632" lon="132.798147"><ele>131.19333333333333</ele><time>2022-01-28T06:47:53Z</time></trkpt><trkpt lat="33.9891842" lon="132.7980679"><ele>126.41333333333334</ele><time>2022-01-28T06:48:06Z</time></trkpt><trkpt lat="33.9888206" lon="132.7980317"><ele>120.77333333333333</ele><time>2022-01-28T06:48:33Z</time></trkpt><trkpt lat="33.9886592" lon="132.7981311"><ele>115.55000000000001</ele><time>2022-01-28T06:48:45Z</time></trkpt><trkpt lat="33.9885267" lon="132.7982834"><ele>108.67333333333333</ele><time>2022-01-28T06:48:59Z</time></trkpt><trkpt lat="33.9883937" lon="132.7984335"><ele>102.74333333333334</ele><time>2022-01-28T06:49:13Z</time></trkpt><trkpt lat="33.9882352" lon="132.7985478"><ele>95.19333333333333</ele><time>2022-01-28T06:49:25Z</time></trkpt><trkpt lat="33.9880539" lon="132.7985904"><ele>89.23</ele><time>2022-01-28T06:49:37Z</time></trkpt><trkpt lat="33.9879366" lon="132.7984239"><ele>86.45666666666666</ele><time>2022-01-28T06:49:45Z</time></trkpt><trkpt lat="33.9878649" lon="132.7982182"><ele>87.78000000000002</ele><time>2022-01-28T06:49:55Z</time></trkpt><trkpt lat="33.9876868" lon="132.7982887"><ele>89.01666666666665</ele><time>2022-01-28T06:50:11Z</time></trkpt><trkpt lat="33.9875207" lon="132.7983809"><ele>86.75999999999999</ele><time>2022-01-28T06:50:27Z</time></trkpt><trkpt lat="33.9874314" lon="132.7981682"><ele>84.18</ele><time>2022-01-28T06:50:47Z</time></trkpt><trkpt lat="33.9872592" lon="132.7981037"><ele>82.66333333333334</ele><time>2022-01-28T06:53:23Z</time></trkpt><trkpt lat="33.9870923" lon="132.7980012"><ele>82.34333333333335</ele><time>2022-01-28T06:53:45Z</time></trkpt><trkpt lat="33.9869307" lon="132.7978861"><ele>80.47000000000001</ele><time>2022-01-28T06:53:55Z</time></trkpt><trkpt lat="33.9867526" lon="132.7977817"><ele>78.56</ele><time>2022-01-28T06:54:07Z</time></trkpt><trkpt lat="33.9865861" lon="132.7976911"><ele>75.84666666666668</ele><time>2022-01-28T06:54:19Z</time></trkpt><trkpt lat="33.9864144" lon="132.7976058"><ele>71.43666666666667</ele><time>2022-01-28T06:54:35Z</time></trkpt><trkpt lat="33.9862683" lon="132.7974641"><ele>65.40333333333334</ele><time>2022-01-28T06:54:56Z</time></trkpt><trkpt lat="33.9861461" lon="132.7973044"><ele>59.38333333333333</ele><time>2022-01-28T06:55:08Z</time></trkpt><trkpt lat="33.9859859" lon="132.7971806"><ele>54.31333333333333</ele><time>2022-01-28T06:55:20Z</time></trkpt><trkpt lat="33.9858063" lon="132.7971517"><ele>50.413333333333334</ele><time>2022-01-28T06:55:34Z</time></trkpt><trkpt lat="33.9857475" lon="132.7969439"><ele>47.163333333333334</ele><time>2022-01-28T06:55:49Z</time></trkpt><trkpt lat="33.9857152" lon="132.7967264"><ele>44.63</ele><time>2022-01-28T06:56:07Z</time></trkpt><trkpt lat="33.9855359" lon="132.7966544"><ele>43.07333333333333</ele><time>2022-01-28T06:56:31Z</time></trkpt><trkpt lat="33.985391" lon="132.7967882"><ele>41.580000000000005</ele><time>2022-01-28T06:56:47Z</time></trkpt><trkpt lat="33.9852345" lon="132.7969056"><ele>39.699999999999996</ele><time>2022-01-28T06:57:01Z</time></trkpt><trkpt lat="33.9850484" lon="132.7968991"><ele>37.78333333333333</ele><time>2022-01-28T06:57:15Z</time></trkpt><trkpt lat="33.9848933" lon="132.7967805"><ele>38.07</ele><time>2022-01-28T06:57:49Z</time></trkpt><trkpt lat="33.9847196" lon="132.7966963"><ele>39.38333333333333</ele><time>2022-01-28T06:58:01Z</time></trkpt><trkpt lat="33.9845462" lon="132.7966188"><ele>38.723333333333336</ele><time>2022-01-28T06:58:13Z</time></trkpt><trkpt lat="33.984377" lon="132.7965391"><ele>35.97</ele><time>2022-01-28T06:58:26Z</time></trkpt><trkpt lat="33.9843164" lon="132.7963305"><ele>32.663333333333334</ele><time>2022-01-28T06:58:39Z</time></trkpt><trkpt lat="33.9842708" lon="132.7961189"><ele>29.736666666666668</ele><time>2022-01-28T06:58:51Z</time></trkpt><trkpt lat="33.9842829" lon="132.7958984"><ele>26.853333333333335</ele><time>2022-01-28T06:59:03Z</time></trkpt><trkpt lat="33.9841802" lon="132.7957192"><ele>23.55</ele><time>2022-01-28T06:59:23Z</time></trkpt><trkpt lat="33.984018" lon="132.7958315"><ele>21.41333333333333</ele><time>2022-01-28T06:59:33Z</time></trkpt><trkpt lat="33.9838275" lon="132.7958537"><ele>19.933333333333337</ele><time>2022-01-28T06:59:48Z</time></trkpt><trkpt lat="33.983644" lon="132.7958432"><ele>19.05</ele><time>2022-01-28T07:00:02Z</time></trkpt><trkpt lat="33.9834587" lon="132.7958467"><ele>18.430000000000003</ele><time>2022-01-28T07:00:17Z</time></trkpt><trkpt lat="33.9833062" lon="132.7957226"><ele>17.94333333333333</ele><time>2022-01-28T07:00:36Z</time></trkpt><trkpt lat="33.983378" lon="132.7955209"><ele>17.86</ele><time>2022-01-28T07:00:46Z</time></trkpt><trkpt lat="33.983424" lon="132.7953049"><ele>18.01</ele><time>2022-01-28T07:01:02Z</time></trkpt><trkpt lat="33.9834501" lon="132.7950798"><ele>18.363333333333333</ele><time>2022-01-28T07:01:18Z</time></trkpt><trkpt lat="33.9834292" lon="132.7948628"><ele>18.400000000000002</ele><time>2022-01-28T07:02:33Z</time></trkpt><trkpt lat="33.9833335" lon="132.7946727"><ele>18.21666666666667</ele><time>2022-01-28T07:02:45Z</time></trkpt><trkpt lat="33.9833182" lon="132.794451"><ele>17.903333333333332</ele><time>2022-01-28T07:02:58Z</time></trkpt><trkpt lat="33.983355" lon="132.7942301"><ele>17.593333333333334</ele><time>2022-01-28T07:03:11Z</time></trkpt><trkpt lat="33.9833798" lon="132.7940154"><ele>17.223333333333333</ele><time>2022-01-28T07:03:23Z</time></trkpt><trkpt lat="33.9834618" lon="132.7938162"><ele>16.743333333333336</ele><time>2022-01-28T07:03:53Z</time></trkpt><trkpt lat="33.9835519" lon="132.7936099"><ele>16.253333333333334</ele><time>2022-01-28T07:04:01Z</time></trkpt><trkpt lat="33.9836497" lon="132.7934141"><ele>16.016666666666666</ele><time>2022-01-28T07:04:10Z</time></trkpt><trkpt lat="33.9836977" lon="132.7932053"><ele>15.616666666666667</ele><time>2022-01-28T07:04:23Z</time></trkpt><trkpt lat="33.9835434" lon="132.7930488"><ele>15.270000000000001</ele><time>2022-01-28T07:04:42Z</time></trkpt><trkpt lat="33.983467" lon="132.7928466"><ele>14.616666666666667</ele><time>2022-01-28T07:04:56Z</time></trkpt><trkpt lat="33.983482" lon="132.7926267"><ele>14.143333333333333</ele><time>2022-01-28T07:05:10Z</time></trkpt><trkpt lat="33.9835398" lon="132.7924104"><ele>13.543333333333335</ele><time>2022-01-28T07:05:22Z</time></trkpt><trkpt lat="33.9835524" lon="132.7921895"><ele>13.13</ele><time>2022-01-28T07:05:36Z</time></trkpt><trkpt lat="33.9836292" lon="132.7919789"><ele>12.896666666666667</ele><time>2022-01-28T07:05:53Z</time></trkpt><trkpt lat="33.9836375" lon="132.7917595"><ele>12.876666666666667</ele><time>2022-01-28T07:06:05Z</time></trkpt><trkpt lat="33.9836494" lon="132.7915425"><ele>12.876666666666667</ele><time>2022-01-28T07:06:20Z</time></trkpt><trkpt lat="33.9836932" lon="132.7913283"><ele>12.836666666666666</ele><time>2022-01-28T07:06:35Z</time></trkpt><trkpt lat="33.983794" lon="132.7911456"><ele>12.596666666666666</ele><time>2022-01-28T07:06:51Z</time></trkpt><trkpt lat="33.9837014" lon="132.7909551"><ele>12.286666666666667</ele><time>2022-01-28T07:07:02Z</time></trkpt><trkpt lat="33.9837072" lon="132.7907344"><ele>12.003333333333332</ele><time>2022-01-28T07:07:17Z</time></trkpt><trkpt lat="33.9836718" lon="132.7905155"><ele>11.969999999999999</ele><time>2022-01-28T07:07:32Z</time></trkpt><trkpt lat="33.9836808" lon="132.7902948"><ele>12.043333333333331</ele><time>2022-01-28T07:08:00Z</time></trkpt><trkpt lat="33.9837321" lon="132.7900573"><ele>11.893333333333333</ele><time>2022-01-28T07:08:10Z</time></trkpt><trkpt lat="33.9837196" lon="132.7898388"><ele>11.300000000000002</ele><time>2022-01-28T07:08:21Z</time></trkpt><trkpt lat="33.983708" lon="132.789612"><ele>10.549999999999999</ele><time>2022-01-28T07:08:33Z</time></trkpt><trkpt lat="33.9837665" lon="132.7894015"><ele>9.92</ele><time>2022-01-28T07:08:45Z</time></trkpt><trkpt lat="33.9838257" lon="132.7891825"><ele>9.673333333333334</ele><time>2022-01-28T07:09:00Z</time></trkpt><trkpt lat="33.9838818" lon="132.788974"><ele>9.656666666666666</ele><time>2022-01-28T07:09:19Z</time></trkpt><trkpt lat="33.9838785" lon="132.7887558"><ele>9.726666666666667</ele><time>2022-01-28T07:09:36Z</time></trkpt><trkpt lat="33.9838971" lon="132.7885347"><ele>9.786666666666667</ele><time>2022-01-28T07:09:54Z</time></trkpt><trkpt lat="33.9838704" lon="132.7883081"><ele>9.74</ele><time>2022-01-28T07:10:07Z</time></trkpt><trkpt lat="33.983819" lon="132.7880966"><ele>9.643333333333333</ele><time>2022-01-28T07:10:18Z</time></trkpt><trkpt lat="33.9837992" lon="132.7878774"><ele>9.623333333333333</ele><time>2022-01-28T07:10:43Z</time></trkpt><trkpt lat="33.9836208" lon="132.7877961"><ele>9.686666666666666</ele><time>2022-01-28T07:10:55Z</time></trkpt><trkpt lat="33.98345" lon="132.7877007"><ele>9.793333333333333</ele><time>2022-01-28T07:11:09Z</time></trkpt><trkpt lat="33.9832702" lon="132.7876563"><ele>9.796666666666667</ele><time>2022-01-28T07:11:22Z</time></trkpt><trkpt lat="33.9831294" lon="132.7878036"><ele>9.706666666666667</ele><time>2022-01-28T07:11:31Z</time></trkpt><trkpt lat="33.9830074" lon="132.7876432"><ele>9.616666666666667</ele><time>2022-01-28T07:11:48Z</time></trkpt><trkpt lat="33.9830335" lon="132.7874237"><ele>9.549999999999999</ele><time>2022-01-28T07:12:00Z</time></trkpt><trkpt lat="33.9831117" lon="132.7872175"><ele>9.496666666666668</ele><time>2022-01-28T07:12:13Z</time></trkpt><trkpt lat="33.9832281" lon="132.7870405"><ele>9.443333333333333</ele><time>2022-01-28T07:12:28Z</time></trkpt><trkpt lat="33.9832642" lon="132.7868206"><ele>9.366666666666667</ele><time>2022-01-28T07:12:49Z</time></trkpt><trkpt lat="33.9832451" lon="132.7865984"><ele>9.266666666666667</ele><time>2022-01-28T07:13:32Z</time></trkpt><trkpt lat="33.9833194" lon="132.786396"><ele>9.093333333333334</ele><time>2022-01-28T07:13:45Z</time></trkpt><trkpt lat="33.9833874" lon="132.7861841"><ele>8.920000000000002</ele><time>2022-01-28T07:14:00Z</time></trkpt><trkpt lat="33.9833738" lon="132.7859661"><ele>8.773333333333333</ele><time>2022-01-28T07:14:15Z</time></trkpt><trkpt lat="33.9834348" lon="132.7857568"><ele>8.729999999999999</ele><time>2022-01-28T07:14:29Z</time></trkpt><trkpt lat="33.9835071" lon="132.7855575"><ele>8.826666666666666</ele><time>2022-01-28T07:14:42Z</time></trkpt><trkpt lat="33.983593" lon="132.7853532"><ele>9.043333333333333</ele><time>2022-01-28T07:14:59Z</time></trkpt><trkpt lat="33.9836618" lon="132.7851454"><ele>9.146666666666667</ele><time>2022-01-28T07:15:17Z</time></trkpt><trkpt lat="33.9835908" lon="132.784925"><ele>8.986666666666666</ele><time>2022-01-28T07:15:32Z</time></trkpt><trkpt lat="33.9836545" lon="132.7847095"><ele>8.526666666666667</ele><time>2022-01-28T07:15:46Z</time></trkpt><trkpt lat="33.9837652" lon="132.7845376"><ele>8.0</ele><time>2022-01-28T07:16:02Z</time></trkpt><trkpt lat="33.9836923" lon="132.7843319"><ele>7.609999999999999</ele><time>2022-01-28T07:16:13Z</time></trkpt><trkpt lat="33.9837666" lon="132.7841252"><ele>7.276666666666667</ele><time>2022-01-28T07:16:27Z</time></trkpt><trkpt lat="33.9838887" lon="132.7839494"><ele>6.923333333333333</ele><time>2022-01-28T07:16:43Z</time></trkpt><trkpt lat="33.9839311" lon="132.783736"><ele>6.55</ele><time>2022-01-28T07:16:56Z</time></trkpt><trkpt lat="33.9839909" lon="132.7835294"><ele>6.216666666666666</ele><time>2022-01-28T07:17:09Z</time></trkpt><trkpt lat="33.9841343" lon="132.7833771"><ele>5.8999999999999995</ele><time>2022-01-28T07:17:31Z</time></trkpt><trkpt lat="33.9842137" lon="132.7831815"><ele>5.546666666666667</ele><time>2022-01-28T07:17:45Z</time></trkpt><trkpt lat="33.9844016" lon="132.7831862"><ele>5.196666666666666</ele><time>2022-01-28T07:18:17Z</time></trkpt><trkpt lat="33.9845765" lon="132.7832587"><ele>5.003333333333333</ele><time>2022-01-28T07:18:31Z</time></trkpt><trkpt lat="33.9847541" lon="132.7833157"><ele>4.903333333333333</ele><time>2022-01-28T07:18:46Z</time></trkpt><trkpt lat="33.9849375" lon="132.7833393"><ele>4.9</ele><time>2022-01-28T07:19:04Z</time></trkpt><trkpt lat="33.9851204" lon="132.7833437"><ele>4.9</ele><time>2022-01-28T07:19:19Z</time></trkpt><trkpt lat="33.985266" lon="132.7834979"><ele>4.9</ele><time>2022-01-28T07:19:35Z</time></trkpt><trkpt lat="33.9854514" lon="132.7835331"><ele>4.9</ele><time>2022-01-28T07:19:48Z</time></trkpt><trkpt lat="33.9856313" lon="132.78356"><ele>4.9</ele><time>2022-01-28T07:20:10Z</time></trkpt><trkpt lat="33.9857981" lon="132.7836721"><ele>4.9</ele><time>2022-01-28T07:20:22Z</time></trkpt><trkpt lat="33.9859746" lon="132.7837325"><ele>4.9</ele><time>2022-01-28T07:20:38Z</time></trkpt><trkpt lat="33.9861541" lon="132.7837564"><ele>4.9</ele><time>2022-01-28T07:20:53Z</time></trkpt><trkpt lat="33.9863385" lon="132.7837859"><ele>4.9</ele><time>2022-01-28T07:21:12Z</time></trkpt><trkpt lat="33.98652" lon="132.7837901"><ele>4.9</ele><time>2022-01-28T07:21:29Z</time></trkpt><trkpt lat="33.9867016" lon="132.7838407"><ele>4.9</ele><time>2022-01-28T07:21:46Z</time></trkpt><trkpt lat="33.9868707" lon="132.7839313"><ele>4.9</ele><time>2022-01-28T07:22:06Z</time></trkpt><trkpt lat="33.9870439" lon="132.7840025"><ele>4.9</ele><time>2022-01-28T07:22:18Z</time></trkpt><trkpt lat="33.9872339" lon="132.7840268"><ele>5.343333333333334</ele><time>2022-01-28T07:22:30Z</time></trkpt><trkpt lat="33.9874158" lon="132.7840551"><ele>6.163333333333334</ele><time>2022-01-28T07:22:44Z</time></trkpt><trkpt lat="33.987588" lon="132.7841474"><ele>7.419999999999999</ele><time>2022-01-28T07:22:59Z</time></trkpt><trkpt lat="33.9877587" lon="132.7842208"><ele>8.5</ele><time>2022-01-28T07:23:13Z</time></trkpt><trkpt lat="33.9878486" lon="132.7844099"><ele>9.666666666666666</ele><time>2022-01-28T07:23:27Z</time></trkpt><trkpt lat="33.9880302" lon="132.7844346"><ele>10.253333333333332</ele><time>2022-01-28T07:24:14Z</time></trkpt><trkpt lat="33.9882172" lon="132.7844238"><ele>10.38</ele><time>2022-01-28T07:24:29Z</time></trkpt><trkpt lat="33.9884" lon="132.7844566"><ele>10.253333333333334</ele><time>2022-01-28T07:24:52Z</time></trkpt><trkpt lat="33.9885304" lon="132.7846258"><ele>10.643333333333333</ele><time>2022-01-28T07:25:31Z</time></trkpt><trkpt lat="33.9887119" lon="132.7846361"><ele>11.5</ele><time>2022-01-28T07:25:45Z</time></trkpt><trkpt lat="33.9888927" lon="132.7846783"><ele>12.459999999999999</ele><time>2022-01-28T07:25:59Z</time></trkpt><trkpt lat="33.9890777" lon="132.7847438"><ele>13.479999999999999</ele><time>2022-01-28T07:26:16Z</time></trkpt><trkpt lat="33.989249" lon="132.7848162"><ele>14.416666666666666</ele><time>2022-01-28T07:26:30Z</time></trkpt><trkpt lat="33.9894136" lon="132.7849158"><ele>15.479999999999999</ele><time>2022-01-28T07:26:46Z</time></trkpt><trkpt lat="33.9895819" lon="132.7850105"><ele>16.48</ele><time>2022-01-28T07:27:33Z</time></trkpt><trkpt lat="33.9897569" lon="132.7849265"><ele>17.526666666666667</ele><time>2022-01-28T07:27:47Z</time></trkpt><trkpt lat="33.989935" lon="132.7848784"><ele>19.386666666666667</ele><time>2022-01-28T07:28:02Z</time></trkpt><trkpt lat="33.9901093" lon="132.7849608"><ele>20.886666666666667</ele><time>2022-01-28T07:28:20Z</time></trkpt><trkpt lat="33.9902902" lon="132.7850081"><ele>23.036666666666665</ele><time>2022-01-28T07:28:34Z</time></trkpt><trkpt lat="33.9904445" lon="132.7851204"><ele>24.176666666666666</ele><time>2022-01-28T07:28:47Z</time></trkpt><trkpt lat="33.9906112" lon="132.7852194"><ele>25.653333333333336</ele><time>2022-01-28T07:29:02Z</time></trkpt><trkpt lat="33.9907782" lon="132.7853027"><ele>26.646666666666665</ele><time>2022-01-28T07:29:16Z</time></trkpt><trkpt lat="33.9909528" lon="132.7853661"><ele>27.55666666666667</ele><time>2022-01-28T07:29:31Z</time></trkpt><trkpt lat="33.9911363" lon="132.7853889"><ele>28.69333333333333</ele><time>2022-01-28T07:29:47Z</time></trkpt><trkpt lat="33.9913216" lon="132.7853922"><ele>29.840000000000003</ele><time>2022-01-28T07:30:04Z</time></trkpt><trkpt lat="33.9915086" lon="132.7853848"><ele>31.843333333333334</ele><time>2022-01-28T07:30:22Z</time></trkpt><trkpt lat="33.9916677" lon="132.7854953"><ele>33.46333333333333</ele><time>2022-01-28T07:30:38Z</time></trkpt><trkpt lat="33.9918518" lon="132.7855531"><ele>35.5</ele><time>2022-01-28T07:30:52Z</time></trkpt><trkpt lat="33.9920205" lon="132.7856506"><ele>36.77</ele><time>2022-01-28T07:31:07Z</time></trkpt><trkpt lat="33.9921363" lon="132.7858207"><ele>37.92</ele><time>2022-01-28T07:31:22Z</time></trkpt><trkpt lat="33.9922981" lon="132.7859338"><ele>38.42333333333333</ele><time>2022-01-28T07:31:38Z</time></trkpt><trkpt lat="33.9924749" lon="132.7859764"><ele>38.99666666666667</ele><time>2022-01-28T07:31:53Z</time></trkpt><trkpt lat="33.992644" lon="132.7860562"><ele>40.656666666666666</ele><time>2022-01-28T07:32:10Z</time></trkpt><trkpt lat="33.9928244" lon="132.7860416"><ele>42.54</ele><time>2022-01-28T07:32:30Z</time></trkpt><trkpt lat="33.9930017" lon="132.7860835"><ele>45.126666666666665</ele><time>2022-01-28T07:32:51Z</time></trkpt><trkpt lat="33.9931449" lon="132.7862228"><ele>47.13333333333333</ele><time>2022-01-28T07:33:09Z</time></trkpt></trkseg></trk></gpx>