<?xml version='1.0' encoding='UTF-8'?><gpx creator="Yama Museum Peak Annotator" xsi:schemaLocation="http://www.topografix.com/GPX/1/1 http://www.topografix.com/GPX/1/1/gpx.xsd" version="1.1" xmlns="http://www.topografix.com/GPX/1/1" xmlns:xsi="http://www.w3.org/2001/XMLSchema-instance"><metadata><bounds maxlat="33.5011003" maxlon="132.3551766" minlat="33.4991987" minlon="132.3536191"/></metadata>  <wpt lat="33.5004147" lon="132.3547022">
    <ele>408.84971455495605</ele>
    <name>堂堂山</name>
    <desc>Peak detected at 409m (prominence: 34m)</desc>
    <sym>Summit</sym>
  </wpt>
<trk><name>堂堂山</name><number>1</number><trkseg><trkpt lat="33.4992162" lon="132.3551766"><ele>366.9296291766759</ele><time>2025-10-23T07:38:33Z</time></trkpt><trkpt lat="33.4992607" lon="132.3549392"><ele>368.0725294454186</ele><time>2025-10-23T07:39:02Z</time></trkpt><trkpt lat="33.4993703" lon="132.3547677"><ele>369.12211450681303</ele><time>2025-10-23T07:39:13Z</time></trkpt><trkpt lat="33.4994695" lon="132.354566"><ele>371.66156625022296</ele><time>2025-10-23T07:39:28Z</time></trkpt><trkpt lat="33.4996225" lon="132.3543808"><ele>374.16393947064574</ele><time>2025-10-23T07:39:42Z</time></trkpt><trkpt lat="33.4997348" lon="132.3541736"><ele>376.6204741933102</ele><time>2025-10-23T07:40:00Z</time></trkpt><trkpt lat="33.4998335" lon="132.3539329"><ele>378.8437953682591</ele><time>2025-10-23T07:40:17Z</time></trkpt><trkpt lat="33.4999352" lon="132.3537365"><ele>380.8613617643369</ele><time>2025-10-23T07:40:29Z</time></trkpt><trkpt lat="33.5001504" lon="132.3537179"><ele>383.2268379786795</ele><time>2025-10-23T07:40:59Z</time></trkpt><trkpt lat="33.5003283" lon="132.3536191"><ele>385.0557973213642</ele><time>2025-10-23T07:41:11Z</time></trkpt><trkpt lat="33.5004762" lon="132.3537543"><ele>386.9046244279323</ele><time>2025-10-23T07:41:23Z</time></trkpt><trkpt lat="33.500391" lon="132.3539515"><ele>388.92874150044054</ele><time>2025-10-23T07:41:38Z</time></trkpt><trkpt lat="33.5002939" lon="132.3541516"><ele>391.6818987832632</ele><time>2025-10-23T07:41:56Z</time></trkpt><trkpt lat="33.5001818" lon="132.3543803"><ele>394.46156734834125</ele><time>2025-10-23T07:42:11Z</time></trkpt><trkpt lat="33.5000838" lon="132.3545953"><ele>396.78446760757316</ele><time>2025-10-23T07:42:25Z</time></trkpt><trkpt lat="33.5002064" lon="132.3548091"><ele>398.68707663501687</ele><time>2025-10-23T07:42:40Z</time></trkpt><trkpt lat="33.5004244" lon="132.3548709"><ele>400.46248620871717</ele><time>2025-10-23T07:42:55Z</time></trkpt><trkpt lat="33.5006164" lon="132.3548396"><ele>401.8941926167049</ele><time>2025-10-23T07:43:10Z</time></trkpt><trkpt lat="33.5007984" lon="132.3548236"><ele>402.9908516703446</ele><time>2025-10-23T07:43:26Z</time></trkpt><trkpt lat="33.5009239" lon="132.3550308"><ele>404.00477982487695</ele><time>2025-10-23T07:43:43Z</time></trkpt><trkpt lat="33.5011003" lon="132.3550784"><ele>406.0997845669267</ele><time>2025-10-23T07:44:25Z</time></trkpt><trkpt lat="33.5009613" lon="132.3548949"><ele>407.41237597001424</ele><time>2025-10-23T07:45:13Z</time></trkpt><trkpt lat="33.500808" lon="132.3547268"><ele>408.22195287014046</ele><time>2025-10-23T07:45:36Z</time></trkpt><trkpt lat="33.5005963" lon="132.3547406"><ele>407.20884898515163</ele><time>2025-10-23T07:45:48Z</time></trkpt><trkpt lat="33.5004147" lon="132.3547022"><ele>408.84971455495605</ele><time>2025-10-23T07:46:59Z</time></trkpt><trkpt lat="33.5005964" lon="132.3546476"><ele>408.50457111969143</ele><time>2025-10-23T07:47:37Z</time></trkpt><trkpt lat="33.5005056" lon="132.3548558"><ele>407.4752768062843</ele><time>2025-10-23T07:48:13Z</time></trkpt><trkpt lat="33.5003352" lon="132.3549294"><ele>403.7355823388554</ele><time>2025-10-23T07:48:27Z</time></trkpt><trkpt lat="33.5002119" lon="132.3547625"><ele>401.27730980826647</ele><time>2025-10-23T07:49:10Z</time></trkpt><trkpt lat="33.5001076" lon="132.3545248"><ele>399.46715702904936</ele><time>2025-10-23T07:49:25Z</time></trkpt><trkpt lat="33.5000672" lon="132.3543015"><ele>397.51340001701715</ele><time>2025-10-23T07:49:40Z</time></trkpt><trkpt lat="33.5001499" lon="132.3540935"><ele>395.95235319863514</ele><time>2025-10-23T07:49:55Z</time></trkpt><trkpt lat="33.5003169" lon="132.3539154"><ele>393.9703445739347</ele><time>2025-10-23T07:50:09Z</time></trkpt><trkpt lat="33.5002782" lon="132.3536801"><ele>391.1880009567339</ele><time>2025-10-23T07:50:27Z</time></trkpt><trkpt lat="33.500085" lon="132.3537153"><ele>388.0441553731305</ele><time>2025-10-23T07:50:50Z</time></trkpt><trkpt lat="33.4998986" lon="132.3538148"><ele>384.86294293292605</ele><time>2025-10-23T07:51:14Z</time></trkpt><trkpt lat="33.4997526" lon="132.3539587"><ele>382.4262449348028</ele><time>2025-10-23T07:51:29Z</time></trkpt><trkpt lat="33.4996704" lon="132.3542021"><ele>380.19001023499095</ele><time>2025-10-23T07:51:47Z</time></trkpt><trkpt lat="33.4995924" lon="132.3543986"><ele>378.26202898089326</ele><time>2025-10-23T07:51:59Z</time></trkpt><trkpt lat="33.4994691" lon="132.3545693"><ele>376.3525330879159</ele><time>2025-10-23T07:52:11Z</time></trkpt><trkpt lat="33.4993009" lon="132.3547322"><ele>374.1777422884372</ele><time>2025-10-23T07:52:26Z</time></trkpt><trkpt lat="33.4991987" lon="132.3549475"><ele>371.86871437489145</ele><time>2025-10-23T07:52:41Z</time></trkpt></trkseg></trk></gpx>