<?xml version='1.0' encoding='UTF-8'?><gpx creator="Yama Museum Peak Annotator" xsi:schemaLocation="http://www.topografix.com/GPX/1/1 http://www.topografix.com/GPX/1/1/gpx.xsd" version="1.1" xmlns="http://www.topografix.com/GPX/1/1" xmlns:xsi="http://www.w3.org/2001/XMLSchema-instance"><metadata><bounds maxlat="33.3942129" maxlon="132.559804" minlat="33.3907206" minlon="132.548289"/></metadata>  <wpt lat="33.3926301" lon="132.5594513">
    <ele>791.2866666666665</ele>
    <name>大判山</name>
    <desc>Peak detected at 791m (prominence: 438m)</desc>
    <sym>Summit</sym>
  </wpt>
<trk><name>大判山</name><number>1</number><trkseg><trkpt lat="33.391835" lon="132.548289"><ele>335.43</ele><time>2026-01-17T21:03:47Z</time></trkpt><trkpt lat="33.3918101" lon="132.5485091"><ele>336.53</ele><time>2026-01-17T21:04:43Z</time></trkpt><trkpt lat="33.391739" lon="132.5487174"><ele>337.9266666666667</ele><time>2026-01-17T21:05:34Z</time></trkpt><trkpt lat="33.3918147" lon="132.5489551"><ele>342.3766666666667</ele><time>2026-01-17T21:06:04Z</time></trkpt><trkpt lat="33.3917416" lon="132.5491683"><ele>347.6566666666667</ele><time>2026-01-17T21:06:18Z</time></trkpt><trkpt lat="33.3917025" lon="132.5493798"><ele>354.16333333333336</ele><time>2026-01-17T21:06:32Z</time></trkpt><trkpt lat="33.3917502" lon="132.5496054"><ele>359.58</ele><time>2026-01-17T21:07:09Z</time></trkpt><trkpt lat="33.3917546" lon="132.5498386"><ele>365.1466666666667</ele><time>2026-01-17T21:07:27Z</time></trkpt><trkpt lat="33.3916924" lon="132.5500409"><ele>369.25666666666666</ele><time>2026-01-17T21:08:06Z</time></trkpt><trkpt lat="33.3917303" lon="132.5502688"><ele>373.8233333333333</ele><time>2026-01-17T21:08:45Z</time></trkpt><trkpt lat="33.3916652" lon="132.5504729"><ele>377.71</ele><time>2026-01-17T21:09:11Z</time></trkpt><trkpt lat="33.3915935" lon="132.5506897"><ele>383.53</ele><time>2026-01-17T21:09:43Z</time></trkpt><trkpt lat="33.3914542" lon="132.5508303"><ele>388.17</ele><time>2026-01-17T21:10:30Z</time></trkpt><trkpt lat="33.3914032" lon="132.5510771"><ele>393.2066666666667</ele><time>2026-01-17T21:10:46Z</time></trkpt><trkpt lat="33.3913888" lon="132.5513019"><ele>397.42333333333335</ele><time>2026-01-17T21:11:04Z</time></trkpt><trkpt lat="33.3913044" lon="132.5514976"><ele>402.0833333333333</ele><time>2026-01-17T21:11:28Z</time></trkpt><trkpt lat="33.3912138" lon="132.5517825"><ele>408.71</ele><time>2026-01-17T21:14:31Z</time></trkpt><trkpt lat="33.391197" lon="132.5520166"><ele>414.3766666666667</ele><time>2026-01-17T21:14:46Z</time></trkpt><trkpt lat="33.391185" lon="132.5522478"><ele>421.3233333333333</ele><time>2026-01-17T21:15:08Z</time></trkpt><trkpt lat="33.3912253" lon="132.5524786"><ele>426.3766666666667</ele><time>2026-01-17T21:16:48Z</time></trkpt><trkpt lat="33.3912574" lon="132.5527101"><ele>432.27666666666664</ele><time>2026-01-17T21:17:34Z</time></trkpt><trkpt lat="33.3913107" lon="132.5529341"><ele>436.93</ele><time>2026-01-17T21:18:03Z</time></trkpt><trkpt lat="33.3913018" lon="132.5531504"><ele>441.86999999999995</ele><time>2026-01-17T21:18:52Z</time></trkpt><trkpt lat="33.3913172" lon="132.5533914"><ele>445.98333333333335</ele><time>2026-01-17T21:20:09Z</time></trkpt><trkpt lat="33.3913006" lon="132.5536182"><ele>451.7166666666667</ele><time>2026-01-17T21:20:30Z</time></trkpt><trkpt lat="33.391298" lon="132.5538343"><ele>458.9433333333333</ele><time>2026-01-17T21:21:30Z</time></trkpt><trkpt lat="33.3912299" lon="132.5540508"><ele>467.55</ele><time>2026-01-17T21:22:38Z</time></trkpt><trkpt lat="33.3910607" lon="132.5541403"><ele>473.75</ele><time>2026-01-17T21:23:22Z</time></trkpt><trkpt lat="33.3909958" lon="132.554352"><ele>482.2033333333334</ele><time>2026-01-17T21:24:21Z</time></trkpt><trkpt lat="33.3909178" lon="132.5545492"><ele>490.35999999999996</ele><time>2026-01-17T21:25:33Z</time></trkpt><trkpt lat="33.3908469" lon="132.5547576"><ele>499.39000000000004</ele><time>2026-01-17T21:26:09Z</time></trkpt><trkpt lat="33.3910127" lon="132.5546217"><ele>504.4433333333333</ele><time>2026-01-17T21:27:02Z</time></trkpt><trkpt lat="33.3911866" lon="132.5545123"><ele>509.32333333333327</ele><time>2026-01-17T21:27:26Z</time></trkpt><trkpt lat="33.391002" lon="132.5545712"><ele>509.40000000000003</ele><time>2026-01-17T21:27:57Z</time></trkpt><trkpt lat="33.3908739" lon="132.5547246"><ele>507.84</ele><time>2026-01-17T21:28:29Z</time></trkpt><trkpt lat="33.3908043" lon="132.5549273"><ele>505.99</ele><time>2026-01-17T21:28:59Z</time></trkpt><trkpt lat="33.3909737" lon="132.5550189"><ele>511.30333333333334</ele><time>2026-01-17T21:31:34Z</time></trkpt><trkpt lat="33.391174" lon="132.554979"><ele>519.4166666666666</ele><time>2026-01-17T21:39:37Z</time></trkpt><trkpt lat="33.3913334" lon="132.5548784"><ele>528.2466666666668</ele><time>2026-01-17T21:40:07Z</time></trkpt><trkpt lat="33.3914879" lon="132.5547266"><ele>531.2433333333333</ele><time>2026-01-17T21:41:04Z</time></trkpt><trkpt lat="33.3916638" lon="132.5546306"><ele>531.2433333333333</ele><time>2026-01-17T21:41:33Z</time></trkpt><trkpt lat="33.3917904" lon="132.5544565"><ele>527.12</ele><time>2026-01-17T21:42:12Z</time></trkpt><trkpt lat="33.3918849" lon="132.5546403"><ele>528.7166666666667</ele><time>2026-01-17T21:43:24Z</time></trkpt><trkpt lat="33.3920839" lon="132.5547015"><ele>534.5733333333334</ele><time>2026-01-17T21:44:33Z</time></trkpt><trkpt lat="33.3922784" lon="132.554659"><ele>543.0366666666667</ele><time>2026-01-17T21:44:50Z</time></trkpt><trkpt lat="33.3924075" lon="132.5545055"><ele>548.7433333333333</ele><time>2026-01-17T21:45:29Z</time></trkpt><trkpt lat="33.3924774" lon="132.5542819"><ele>549.74</ele><time>2026-01-17T21:45:50Z</time></trkpt><trkpt lat="33.3925824" lon="132.5544846"><ele>551.1466666666666</ele><time>2026-01-17T21:46:11Z</time></trkpt><trkpt lat="33.3926361" lon="132.5547102"><ele>553.6366666666668</ele><time>2026-01-17T21:46:34Z</time></trkpt><trkpt lat="33.3927722" lon="132.5548763"><ele>558.66</ele><time>2026-01-17T21:47:06Z</time></trkpt><trkpt lat="33.3929405" lon="132.554994"><ele>562.6833333333334</ele><time>2026-01-17T21:47:24Z</time></trkpt><trkpt lat="33.3931359" lon="132.5549815"><ele>563.8933333333333</ele><time>2026-01-17T21:47:38Z</time></trkpt><trkpt lat="33.3933318" lon="132.554994"><ele>563.1166666666667</ele><time>2026-01-17T21:47:55Z</time></trkpt><trkpt lat="33.3935271" lon="132.5549428"><ele>562.1366666666667</ele><time>2026-01-17T21:48:16Z</time></trkpt><trkpt lat="33.3936723" lon="132.5550864"><ele>562.5</ele><time>2026-01-17T21:48:30Z</time></trkpt><trkpt lat="33.3937278" lon="132.5553079"><ele>563.7199999999999</ele><time>2026-01-17T21:48:54Z</time></trkpt><trkpt lat="33.3937759" lon="132.5555393"><ele>564.4</ele><time>2026-01-17T21:49:20Z</time></trkpt><trkpt lat="33.3938592" lon="132.5557349"><ele>566.4433333333333</ele><time>2026-01-17T21:49:47Z</time></trkpt><trkpt lat="33.3940098" lon="132.5558865"><ele>568.0300000000001</ele><time>2026-01-17T21:50:29Z</time></trkpt><trkpt lat="33.3940139" lon="132.5561047"><ele>573.2866666666667</ele><time>2026-01-17T21:51:32Z</time></trkpt><trkpt lat="33.3941156" lon="132.5562968"><ele>575.9633333333334</ele><time>2026-01-17T21:51:53Z</time></trkpt><trkpt lat="33.3939291" lon="132.5562661"><ele>583.2066666666666</ele><time>2026-01-17T21:53:20Z</time></trkpt><trkpt lat="33.3937603" lon="132.5561643"><ele>588.7399999999999</ele><time>2026-01-17T21:53:58Z</time></trkpt><trkpt lat="33.3935888" lon="132.5560971"><ele>596.5433333333334</ele><time>2026-01-17T21:54:25Z</time></trkpt><trkpt lat="33.3934231" lon="132.5559432"><ele>598.3000000000001</ele><time>2026-01-17T21:54:51Z</time></trkpt><trkpt lat="33.3932773" lon="132.5558125"><ele>600.0666666666666</ele><time>2026-01-17T21:55:14Z</time></trkpt><trkpt lat="33.3933356" lon="132.5560378"><ele>601.6666666666666</ele><time>2026-01-17T21:56:32Z</time></trkpt><trkpt lat="33.3934463" lon="132.5562122"><ele>606.6333333333333</ele><time>2026-01-17T21:57:02Z</time></trkpt><trkpt lat="33.393561" lon="132.5564218"><ele>611.85</ele><time>2026-01-17T21:57:26Z</time></trkpt><trkpt lat="33.3936963" lon="132.5566016"><ele>614.7099999999999</ele><time>2026-01-17T21:57:59Z</time></trkpt><trkpt lat="33.3938049" lon="132.5568008"><ele>614.9399999999999</ele><time>2026-01-17T21:58:20Z</time></trkpt><trkpt lat="33.3936139" lon="132.5567905"><ele>616.4166666666666</ele><time>2026-01-17T22:01:59Z</time></trkpt><trkpt lat="33.393452" lon="132.5566922"><ele>622.93</ele><time>2026-01-17T22:03:38Z</time></trkpt><trkpt lat="33.393409" lon="132.5569202"><ele>631.9466666666667</ele><time>2026-01-17T22:05:32Z</time></trkpt><trkpt lat="33.3933712" lon="132.5571337"><ele>641.3266666666667</ele><time>2026-01-17T22:06:11Z</time></trkpt><trkpt lat="33.3933517" lon="132.557354"><ele>650.2366666666667</ele><time>2026-01-17T22:07:26Z</time></trkpt><trkpt lat="33.3933067" lon="132.5575724"><ele>662.7666666666668</ele><time>2026-01-17T22:12:23Z</time></trkpt><trkpt lat="33.3933701" lon="132.5577784"><ele>674.08</ele><time>2026-01-17T22:13:05Z</time></trkpt><trkpt lat="33.3933612" lon="132.5579967"><ele>683.2066666666666</ele><time>2026-01-17T22:14:02Z</time></trkpt><trkpt lat="33.3933141" lon="132.5582194"><ele>690.2433333333335</ele><time>2026-01-17T22:15:11Z</time></trkpt><trkpt lat="33.3933272" lon="132.5584567"><ele>693.6366666666667</ele><time>2026-01-17T22:15:50Z</time></trkpt><trkpt lat="33.3933528" lon="132.5586831"><ele>696.9533333333334</ele><time>2026-01-17T22:16:22Z</time></trkpt><trkpt lat="33.3933765" lon="132.5589023"><ele>700.5533333333333</ele><time>2026-01-17T22:16:49Z</time></trkpt><trkpt lat="33.3933366" lon="132.5591129"><ele>708.3433333333334</ele><time>2026-01-17T22:17:31Z</time></trkpt><trkpt lat="33.39342" lon="132.55931"><ele>714.5033333333334</ele><time>2026-01-17T22:18:10Z</time></trkpt><trkpt lat="33.3935472" lon="132.5594922"><ele>715.3266666666667</ele><time>2026-01-17T22:18:46Z</time></trkpt><trkpt lat="33.3936433" lon="132.5596954"><ele>712.6633333333333</ele><time>2026-01-17T22:19:19Z</time></trkpt><trkpt lat="33.3934644" lon="132.5596649"><ele>713.4200000000001</ele><time>2026-01-17T22:22:22Z</time></trkpt><trkpt lat="33.393298" lon="132.5595587"><ele>723.1566666666668</ele><time>2026-01-17T22:23:37Z</time></trkpt><trkpt lat="33.3931145" lon="132.5595562"><ele>737.8433333333332</ele><time>2026-01-17T22:25:31Z</time></trkpt><trkpt lat="33.3929876" lon="132.5593999"><ele>752.7666666666668</ele><time>2026-01-17T22:26:58Z</time></trkpt><trkpt lat="33.3928278" lon="132.559506"><ele>764.25</ele><time>2026-01-17T22:28:57Z</time></trkpt><trkpt lat="33.3926481" lon="132.559462"><ele>776.4033333333333</ele><time>2026-01-17T22:30:48Z</time></trkpt><trkpt lat="33.3925509" lon="132.5596703"><ele>786.5333333333333</ele><time>2026-01-17T22:41:27Z</time></trkpt><trkpt lat="33.3926301" lon="132.5594513"><ele>791.2866666666665</ele><time>2026-01-17T22:42:45Z</time></trkpt><trkpt lat="33.392803" lon="132.5595127"><ele>788.0099999999999</ele><time>2026-01-17T22:46:49Z</time></trkpt><trkpt lat="33.3929841" lon="132.5594477"><ele>778.57</ele><time>2026-01-17T22:48:40Z</time></trkpt><trkpt lat="33.3931116" lon="132.5596063"><ele>765.4500000000002</ele><time>2026-01-17T22:49:55Z</time></trkpt><trkpt lat="33.3932938" lon="132.5595805"><ele>751.2400000000001</ele><time>2026-01-17T22:51:58Z</time></trkpt><trkpt lat="33.3934476" lon="132.5597143"><ele>735.6266666666667</ele><time>2026-01-17T22:52:40Z</time></trkpt><trkpt lat="33.3936324" lon="132.559804"><ele>721.06</ele><time>2026-01-17T22:53:19Z</time></trkpt><trkpt lat="33.3935912" lon="132.5595758"><ele>712.5733333333334</ele><time>2026-01-17T22:55:19Z</time></trkpt><trkpt lat="33.3934555" lon="132.559415"><ele>714.4033333333333</ele><time>2026-01-17T22:55:40Z</time></trkpt><trkpt lat="33.3933756" lon="132.5592074"><ele>719.1333333333333</ele><time>2026-01-17T22:56:22Z</time></trkpt><trkpt lat="33.3933883" lon="132.5589869"><ele>719.6933333333333</ele><time>2026-01-17T22:57:07Z</time></trkpt><trkpt lat="33.3933563" lon="132.5587493"><ele>711.8666666666667</ele><time>2026-01-17T22:57:39Z</time></trkpt><trkpt lat="33.3933782" lon="132.5585193"><ele>703.1466666666666</ele><time>2026-01-17T22:58:06Z</time></trkpt><trkpt lat="33.3933339" lon="132.5583095"><ele>696.3000000000001</ele><time>2026-01-17T22:58:39Z</time></trkpt><trkpt lat="33.3933768" lon="132.5580849"><ele>692.5766666666667</ele><time>2026-01-17T22:59:06Z</time></trkpt><trkpt lat="33.3934214" lon="132.5578477"><ele>686.9733333333334</ele><time>2026-01-17T22:59:39Z</time></trkpt><trkpt lat="33.3933361" lon="132.5576452"><ele>681.4366666666666</ele><time>2026-01-17T23:00:18Z</time></trkpt><trkpt lat="33.3933491" lon="132.5574204"><ele>671.7966666666667</ele><time>2026-01-17T23:00:59Z</time></trkpt><trkpt lat="33.3934162" lon="132.5572014"><ele>661.61</ele><time>2026-01-17T23:01:31Z</time></trkpt><trkpt lat="33.3934633" lon="132.5569814"><ele>649.4433333333333</ele><time>2026-01-17T23:02:22Z</time></trkpt><trkpt lat="33.3934182" lon="132.556751"><ele>641.2666666666667</ele><time>2026-01-17T23:02:49Z</time></trkpt><trkpt lat="33.3932751" lon="132.5565672"><ele>638.18</ele><time>2026-01-17T23:03:19Z</time></trkpt><trkpt lat="33.393172" lon="132.5563617"><ele>636.9266666666666</ele><time>2026-01-17T23:03:39Z</time></trkpt><trkpt lat="33.3930018" lon="132.5562451"><ele>637.1866666666666</ele><time>2026-01-17T23:04:03Z</time></trkpt><trkpt lat="33.3930815" lon="132.5560433"><ele>630.9433333333333</ele><time>2026-01-17T23:04:59Z</time></trkpt><trkpt lat="33.39321" lon="132.5558557"><ele>620.5666666666667</ele><time>2026-01-17T23:05:35Z</time></trkpt><trkpt lat="33.3933936" lon="132.5558772"><ele>607.3533333333334</ele><time>2026-01-17T23:06:05Z</time></trkpt><trkpt lat="33.3935106" lon="132.5560498"><ele>600.2800000000001</ele><time>2026-01-17T23:06:23Z</time></trkpt><trkpt lat="33.3936815" lon="132.5561953"><ele>599.7066666666666</ele><time>2026-01-17T23:06:44Z</time></trkpt><trkpt lat="33.3938409" lon="132.5563106"><ele>599.2533333333334</ele><time>2026-01-17T23:07:01Z</time></trkpt><trkpt lat="33.3940133" lon="132.5564482"><ele>597.5300000000001</ele><time>2026-01-17T23:07:19Z</time></trkpt><trkpt lat="33.3942129" lon="132.5564866"><ele>589.7766666666666</ele><time>2026-01-17T23:07:40Z</time></trkpt><trkpt lat="33.3941072" lon="132.5563072"><ele>585.3533333333334</ele><time>2026-01-17T23:08:03Z</time></trkpt><trkpt lat="33.3940474" lon="132.5561009"><ele>579.3</ele><time>2026-01-17T23:08:24Z</time></trkpt><trkpt lat="33.3939313" lon="132.5559252"><ele>577.46</ele><time>2026-01-17T23:08:51Z</time></trkpt><trkpt lat="33.3937799" lon="132.5558032"><ele>575.64</ele><time>2026-01-17T23:09:06Z</time></trkpt><trkpt lat="33.3937644" lon="132.5555743"><ele>572.6166666666667</ele><time>2026-01-17T23:09:21Z</time></trkpt><trkpt lat="33.3937395" lon="132.5553473"><ele>569.6133333333333</ele><time>2026-01-17T23:09:39Z</time></trkpt><trkpt lat="33.3936432" lon="132.5551632"><ele>565.64</ele><time>2026-01-17T23:09:54Z</time></trkpt><trkpt lat="33.3934621" lon="132.5550714"><ele>565.3366666666667</ele><time>2026-01-17T23:10:12Z</time></trkpt><trkpt lat="33.3932807" lon="132.5550091"><ele>564.1166666666667</ele><time>2026-01-17T23:10:26Z</time></trkpt><trkpt lat="33.3930823" lon="132.5549815"><ele>563.4033333333333</ele><time>2026-01-17T23:10:41Z</time></trkpt><trkpt lat="33.3928905" lon="132.5548989"><ele>562.9</ele><time>2026-01-17T23:10:56Z</time></trkpt><trkpt lat="33.3927239" lon="132.5548102"><ele>562.8133333333334</ele><time>2026-01-17T23:11:11Z</time></trkpt><trkpt lat="33.3926022" lon="132.5546124"><ele>560.49</ele><time>2026-01-17T23:11:28Z</time></trkpt><trkpt lat="33.3925524" lon="132.5544036"><ele>556.33</ele><time>2026-01-17T23:11:46Z</time></trkpt><trkpt lat="33.3923787" lon="132.5545075"><ele>551.7266666666666</ele><time>2026-01-17T23:12:13Z</time></trkpt><trkpt lat="33.3923797" lon="132.5547242"><ele>550.7066666666666</ele><time>2026-01-17T23:12:28Z</time></trkpt><trkpt lat="33.3921696" lon="132.5546692"><ele>547.5033333333332</ele><time>2026-01-17T23:12:43Z</time></trkpt><trkpt lat="33.3919896" lon="132.5546897"><ele>546.3833333333333</ele><time>2026-01-17T23:12:57Z</time></trkpt><trkpt lat="33.3918014" lon="132.5547494"><ele>541.73</ele><time>2026-01-17T23:13:17Z</time></trkpt><trkpt lat="33.3916339" lon="132.5548436"><ele>541.6066666666667</ele><time>2026-01-17T23:13:34Z</time></trkpt><trkpt lat="33.3914544" lon="132.5549396"><ele>539.6633333333333</ele><time>2026-01-17T23:13:56Z</time></trkpt><trkpt lat="33.3913129" lon="132.5551243"><ele>542.38</ele><time>2026-01-17T23:14:14Z</time></trkpt><trkpt lat="33.3911958" lon="132.5553045"><ele>545.6166666666667</ele><time>2026-01-17T23:14:28Z</time></trkpt><trkpt lat="33.3912248" lon="132.5550923"><ele>545.0166666666668</ele><time>2026-01-17T23:16:00Z</time></trkpt><trkpt lat="33.3913138" lon="132.5548826"><ele>540.0333333333334</ele><time>2026-01-17T23:16:21Z</time></trkpt><trkpt lat="33.3911172" lon="132.5549534"><ele>532.6766666666666</ele><time>2026-01-17T23:16:45Z</time></trkpt><trkpt lat="33.3909189" lon="132.5550151"><ele>526.0366666666667</ele><time>2026-01-17T23:17:05Z</time></trkpt><trkpt lat="33.3907206" lon="132.5550548"><ele>519.8533333333334</ele><time>2026-01-17T23:17:32Z</time></trkpt><trkpt lat="33.3908307" lon="132.5548513"><ele>512.8666666666667</ele><time>2026-01-17T23:18:11Z</time></trkpt><trkpt lat="33.3909801" lon="132.5546793"><ele>510.20666666666665</ele><time>2026-01-17T23:18:34Z</time></trkpt><trkpt lat="33.3911138" lon="132.5545222"><ele>509.52666666666664</ele><time>2026-01-17T23:18:58Z</time></trkpt><trkpt lat="33.3912398" lon="132.5543189"><ele>505.92</ele><time>2026-01-17T23:19:39Z</time></trkpt><trkpt lat="33.3912328" lon="132.5541008"><ele>497.27666666666664</ele><time>2026-01-17T23:21:32Z</time></trkpt><trkpt lat="33.3913468" lon="132.5539198"><ele>486.6466666666667</ele><time>2026-01-17T23:21:59Z</time></trkpt><trkpt lat="33.3913954" lon="132.5536856"><ele>477.21</ele><time>2026-01-17T23:22:35Z</time></trkpt><trkpt lat="33.3913686" lon="132.5534697"><ele>467.8066666666667</ele><time>2026-01-17T23:23:08Z</time></trkpt><trkpt lat="33.3913631" lon="132.5532272"><ele>458.1133333333334</ele><time>2026-01-17T23:23:40Z</time></trkpt><trkpt lat="33.3913592" lon="132.5530086"><ele>450.6933333333333</ele><time>2026-01-17T23:24:10Z</time></trkpt><trkpt lat="33.3913573" lon="132.5527769"><ele>445.73333333333335</ele><time>2026-01-17T23:24:43Z</time></trkpt><trkpt lat="33.3913491" lon="132.5525363"><ele>439.1333333333334</ele><time>2026-01-17T23:25:09Z</time></trkpt><trkpt lat="33.39138" lon="132.5522984"><ele>432.84666666666664</ele><time>2026-01-17T23:25:41Z</time></trkpt><trkpt lat="33.3913599" lon="132.5520293"><ele>426.78666666666663</ele><time>2026-01-17T23:26:17Z</time></trkpt><trkpt lat="33.391313" lon="132.5518011"><ele>421.1666666666667</ele><time>2026-01-17T23:26:40Z</time></trkpt><trkpt lat="33.3913369" lon="132.5515735"><ele>415.0533333333333</ele><time>2026-01-17T23:27:04Z</time></trkpt><trkpt lat="33.3913721" lon="132.551332"><ele>408.68</ele><time>2026-01-17T23:27:36Z</time></trkpt><trkpt lat="33.3914098" lon="132.5511212"><ele>403.8866666666666</ele><time>2026-01-17T23:27:53Z</time></trkpt><trkpt lat="33.3915205" lon="132.5509354"><ele>399.89000000000004</ele><time>2026-01-17T23:28:14Z</time></trkpt><trkpt lat="33.3915836" lon="132.5507267"><ele>395.67333333333335</ele><time>2026-01-17T23:28:34Z</time></trkpt><trkpt lat="33.391666" lon="132.5505164"><ele>390.81</ele><time>2026-01-17T23:29:10Z</time></trkpt><trkpt lat="33.3916715" lon="132.5502797"><ele>384.2366666666667</ele><time>2026-01-17T23:29:37Z</time></trkpt><trkpt lat="33.391799" lon="132.5501274"><ele>380.17666666666673</ele><time>2026-01-17T23:29:58Z</time></trkpt><trkpt lat="33.3918523" lon="132.5499162"><ele>377.24</ele><time>2026-01-17T23:30:19Z</time></trkpt><trkpt lat="33.3919059" lon="132.5497032"><ele>376.42333333333335</ele><time>2026-01-17T23:30:37Z</time></trkpt><trkpt lat="33.3918621" lon="132.5494633"><ele>372.07666666666665</ele><time>2026-01-17T23:30:55Z</time></trkpt><trkpt lat="33.3918505" lon="132.5492389"><ele>365.8566666666666</ele><time>2026-01-17T23:31:15Z</time></trkpt><trkpt lat="33.3918281" lon="132.5490212"><ele>358.43333333333334</ele><time>2026-01-17T23:31:33Z</time></trkpt><trkpt lat="33.3918023" lon="132.5487879"><ele>351.71000000000004</ele><time>2026-01-17T23:31:53Z</time></trkpt><trkpt lat="33.3917559" lon="132.5485511"><ele>344.9833333333333</ele><time>2026-01-17T23:32:13Z</time></trkpt><trkpt lat="33.391747" lon="132.5483222"><ele>340.40333333333336</ele><time>2026-01-17T23:32:40Z</time></trkpt></trkseg></trk></gpx>