<?xml version='1.0' encoding='UTF-8'?><gpx creator="Yama Museum Peak Annotator" xsi:schemaLocation="http://www.topografix.com/GPX/1/1 http://www.topografix.com/GPX/1/1/gpx.xsd" version="1.1" xmlns="http://www.topografix.com/GPX/1/1" xmlns:xsi="http://www.w3.org/2001/XMLSchema-instance"><metadata><bounds maxlat="33.4728148" maxlon="132.9864814" minlat="33.4721642" minlon="132.9805027"/></metadata>  <wpt lat="33.4728129" lon="132.9862432">
    <ele>1452.0633333333335</ele>
    <name>五段城</name>
    <desc>Peak detected at 1452m (prominence: 64m)</desc>
    <sym>Summit</sym>
  </wpt>
<trk><name>五段城</name><number>1</number><trkseg><trkpt lat="33.4721647" lon="132.9805027"><ele>1379.55</ele><time>2025-08-15T02:47:13Z</time></trkpt><trkpt lat="33.4723402" lon="132.9805743"><ele>1381.92</ele><time>2025-08-15T02:49:12Z</time></trkpt><trkpt lat="33.472314" lon="132.9808232"><ele>1382.9233333333334</ele><time>2025-08-15T02:49:24Z</time></trkpt><trkpt lat="33.4723185" lon="132.9810443"><ele>1385.716666666667</ele><time>2025-08-15T02:49:45Z</time></trkpt><trkpt lat="33.4723297" lon="132.9812627"><ele>1388.2366666666667</ele><time>2025-08-15T02:50:36Z</time></trkpt><trkpt lat="33.4723291" lon="132.9815004"><ele>1391.7333333333336</ele><time>2025-08-15T02:51:03Z</time></trkpt><trkpt lat="33.4723567" lon="132.9817208"><ele>1396.3333333333333</ele><time>2025-08-15T02:51:30Z</time></trkpt><trkpt lat="33.4723525" lon="132.981937"><ele>1400.4533333333336</ele><time>2025-08-15T02:51:51Z</time></trkpt><trkpt lat="33.4723521" lon="132.98216"><ele>1405.08</ele><time>2025-08-15T02:52:15Z</time></trkpt><trkpt lat="33.4723522" lon="132.9823938"><ele>1408.78</ele><time>2025-08-15T02:52:45Z</time></trkpt><trkpt lat="33.4723707" lon="132.9826149"><ele>1412.5100000000002</ele><time>2025-08-15T02:53:19Z</time></trkpt><trkpt lat="33.4723891" lon="132.9828396"><ele>1415.97</ele><time>2025-08-15T02:53:48Z</time></trkpt><trkpt lat="33.4724353" lon="132.9830499"><ele>1419.17</ele><time>2025-08-15T02:54:06Z</time></trkpt><trkpt lat="33.4724831" lon="132.9833111"><ele>1422.7066666666667</ele><time>2025-08-15T02:54:58Z</time></trkpt><trkpt lat="33.4725386" lon="132.9835531"><ele>1426.0533333333333</ele><time>2025-08-15T02:55:14Z</time></trkpt><trkpt lat="33.4725796" lon="132.9837857"><ele>1429.6866666666665</ele><time>2025-08-15T02:55:31Z</time></trkpt><trkpt lat="33.4726554" lon="132.983988"><ele>1432.6266666666668</ele><time>2025-08-15T02:56:01Z</time></trkpt><trkpt lat="33.4727282" lon="132.9842045"><ele>1435.3633333333335</ele><time>2025-08-15T02:56:26Z</time></trkpt><trkpt lat="33.472725" lon="132.9844373"><ele>1437.5933333333335</ele><time>2025-08-15T02:56:51Z</time></trkpt><trkpt lat="33.4727003" lon="132.9846654"><ele>1439.8966666666665</ele><time>2025-08-15T02:57:46Z</time></trkpt><trkpt lat="33.4726871" lon="132.9849063"><ele>1441.6933333333334</ele><time>2025-08-15T02:58:08Z</time></trkpt><trkpt lat="33.4726567" lon="132.9851274"><ele>1443.3133333333335</ele><time>2025-08-15T02:58:28Z</time></trkpt><trkpt lat="33.4726359" lon="132.9853523"><ele>1444.86</ele><time>2025-08-15T02:58:50Z</time></trkpt><trkpt lat="33.4726646" lon="132.9855713"><ele>1446.6000000000001</ele><time>2025-08-15T02:59:10Z</time></trkpt><trkpt lat="33.4726942" lon="132.9858197"><ele>1448.4866666666667</ele><time>2025-08-15T02:59:31Z</time></trkpt><trkpt lat="33.4727514" lon="132.9860316"><ele>1450.1166666666668</ele><time>2025-08-15T03:00:33Z</time></trkpt><trkpt lat="33.4728148" lon="132.9862346"><ele>1451.08</ele><time>2025-08-15T03:04:44Z</time></trkpt><trkpt lat="33.4727995" lon="132.9864814"><ele>1451.8999999999999</ele><time>2025-08-15T03:05:29Z</time></trkpt><trkpt lat="33.4728129" lon="132.9862432"><ele>1452.0633333333335</ele><time>2025-08-15T03:08:42Z</time></trkpt><trkpt lat="33.4727709" lon="132.9860064"><ele>1451.9433333333334</ele><time>2025-08-15T03:08:59Z</time></trkpt><trkpt lat="33.4727007" lon="132.9857673"><ele>1451.0166666666667</ele><time>2025-08-15T03:09:17Z</time></trkpt><trkpt lat="33.4726701" lon="132.9855514"><ele>1449.6899999999998</ele><time>2025-08-15T03:09:35Z</time></trkpt><trkpt lat="33.4726493" lon="132.9853278"><ele>1448.1266666666668</ele><time>2025-08-15T03:09:53Z</time></trkpt><trkpt lat="33.4726761" lon="132.9850803"><ele>1446.1866666666665</ele><time>2025-08-15T03:10:14Z</time></trkpt><trkpt lat="33.4726991" lon="132.9848644"><ele>1444.57</ele><time>2025-08-15T03:10:32Z</time></trkpt><trkpt lat="33.4727941" lon="132.984668"><ele>1442.92</ele><time>2025-08-15T03:10:53Z</time></trkpt><trkpt lat="33.4727845" lon="132.9844322"><ele>1441.4366666666667</ele><time>2025-08-15T03:11:15Z</time></trkpt><trkpt lat="33.4727161" lon="132.9842256"><ele>1439.7700000000002</ele><time>2025-08-15T03:14:32Z</time></trkpt><trkpt lat="33.4726383" lon="132.9840108"><ele>1437.8333333333333</ele><time>2025-08-15T03:14:59Z</time></trkpt><trkpt lat="33.472599" lon="132.9837955"><ele>1435.6266666666668</ele><time>2025-08-15T03:15:20Z</time></trkpt><trkpt lat="33.4725346" lon="132.983553"><ele>1432.89</ele><time>2025-08-15T03:15:44Z</time></trkpt><trkpt lat="33.4724882" lon="132.9833223"><ele>1430.1266666666668</ele><time>2025-08-15T03:16:04Z</time></trkpt><trkpt lat="33.4724629" lon="132.9830941"><ele>1426.78</ele><time>2025-08-15T03:16:24Z</time></trkpt><trkpt lat="33.4724192" lon="132.9828612"><ele>1423.75</ele><time>2025-08-15T03:16:42Z</time></trkpt><trkpt lat="33.4723652" lon="132.9826464"><ele>1420.2633333333333</ele><time>2025-08-15T03:16:59Z</time></trkpt><trkpt lat="33.4723572" lon="132.982422"><ele>1416.7766666666666</ele><time>2025-08-15T03:17:41Z</time></trkpt><trkpt lat="33.4723432" lon="132.9821756"><ele>1413.0</ele><time>2025-08-15T03:18:05Z</time></trkpt><trkpt lat="33.4723506" lon="132.9819309"><ele>1408.78</ele><time>2025-08-15T03:18:29Z</time></trkpt><trkpt lat="33.4723605" lon="132.9816971"><ele>1405.08</ele><time>2025-08-15T03:18:50Z</time></trkpt><trkpt lat="33.4723282" lon="132.9814577"><ele>1400.4533333333336</ele><time>2025-08-15T03:19:32Z</time></trkpt><trkpt lat="33.4723072" lon="132.9812131"><ele>1395.8466666666666</ele><time>2025-08-15T03:19:53Z</time></trkpt><trkpt lat="33.4723234" lon="132.9809669"><ele>1390.89</ele><time>2025-08-15T03:20:21Z</time></trkpt><trkpt lat="33.472308" lon="132.9807364"><ele>1387.1366666666665</ele><time>2025-08-15T03:20:44Z</time></trkpt><trkpt lat="33.4721642" lon="132.9805425"><ele>1383.5233333333335</ele><time>2025-08-15T03:21:11Z</time></trkpt></trkseg></trk></gpx>