<?xml version='1.0' encoding='UTF-8'?><gpx creator="Yama Museum Peak Annotator" xsi:schemaLocation="http://www.topografix.com/GPX/1/1 http://www.topografix.com/GPX/1/1/gpx.xsd" version="1.1" xmlns="http://www.topografix.com/GPX/1/1" xmlns:xsi="http://www.w3.org/2001/XMLSchema-instance"><metadata><bounds maxlat="33.8497265" maxlon="132.799195" minlat="33.8464981" minlon="132.7953289"/></metadata>  <wpt lat="33.8487713" lon="132.7957131">
    <ele>104.27999999999999</ele>
    <name>常光寺山</name>
    <desc>Peak detected at 104m (prominence: 39m)</desc>
    <sym>Summit</sym>
  </wpt>
  <wpt lat="33.8494454" lon="132.7983769">
    <ele>120.82333333333334</ele>
    <name>Peak (121m)</name>
    <desc>Peak detected at 121m (prominence: 68m)</desc>
    <sym>Summit</sym>
  </wpt>
<trk><name>愛宕山・常光寺山</name><number>1</number><trkseg><trkpt lat="33.8464981" lon="132.7967931"><ele>47.57</ele><time>2022-02-16T02:57:12Z</time></trkpt><trkpt lat="33.846669" lon="132.7967057"><ele>47.715</ele><time>2022-02-16T02:57:21Z</time></trkpt><trkpt lat="33.8468446" lon="132.7966469"><ele>47.903333333333336</ele><time>2022-02-16T02:57:33Z</time></trkpt><trkpt lat="33.8470246" lon="132.7966174"><ele>48.24666666666667</ele><time>2022-02-16T02:57:47Z</time></trkpt><trkpt lat="33.8472055" lon="132.7966383"><ele>48.620000000000005</ele><time>2022-02-16T02:58:02Z</time></trkpt><trkpt lat="33.8473782" lon="132.796541"><ele>48.93666666666667</ele><time>2022-02-16T02:58:13Z</time></trkpt><trkpt lat="33.8475065" lon="132.7963765"><ele>49.25333333333334</ele><time>2022-02-16T02:58:27Z</time></trkpt><trkpt lat="33.8476802" lon="132.7963144"><ele>49.75333333333333</ele><time>2022-02-16T02:58:39Z</time></trkpt><trkpt lat="33.8478025" lon="132.7961535"><ele>51.69</ele><time>2022-02-16T02:59:05Z</time></trkpt><trkpt lat="33.8477727" lon="132.7959367"><ele>54.98</ele><time>2022-02-16T02:59:33Z</time></trkpt><trkpt lat="33.8478637" lon="132.7957429"><ele>61.03666666666667</ele><time>2022-02-16T02:59:50Z</time></trkpt><trkpt lat="33.8479446" lon="132.7955468"><ele>67.95666666666666</ele><time>2022-02-16T03:00:18Z</time></trkpt><trkpt lat="33.8479633" lon="132.7953289"><ele>72.31666666666666</ele><time>2022-02-16T03:00:36Z</time></trkpt><trkpt lat="33.8481208" lon="132.7954379"><ele>79.2</ele><time>2022-02-16T03:01:03Z</time></trkpt><trkpt lat="33.8482463" lon="132.795595"><ele>86.15000000000002</ele><time>2022-02-16T03:01:53Z</time></trkpt><trkpt lat="33.8484077" lon="132.7956944"><ele>96.74333333333334</ele><time>2022-02-16T03:02:17Z</time></trkpt><trkpt lat="33.8485891" lon="132.7956886"><ele>101.97000000000001</ele><time>2022-02-16T03:03:05Z</time></trkpt><trkpt lat="33.8487713" lon="132.7957131"><ele>104.27999999999999</ele><time>2022-02-16T03:05:54Z</time></trkpt><trkpt lat="33.8487241" lon="132.7959262"><ele>102.86666666666667</ele><time>2022-02-16T03:06:08Z</time></trkpt><trkpt lat="33.8488834" lon="132.7960293"><ele>98.58333333333333</ele><time>2022-02-16T03:06:33Z</time></trkpt><trkpt lat="33.8488138" lon="132.796232"><ele>91.97000000000001</ele><time>2022-02-16T03:06:56Z</time></trkpt><trkpt lat="33.8486551" lon="132.7963384"><ele>86.58333333333333</ele><time>2022-02-16T03:07:23Z</time></trkpt><trkpt lat="33.8484606" lon="132.7963076"><ele>83.46333333333332</ele><time>2022-02-16T03:07:42Z</time></trkpt><trkpt lat="33.8482715" lon="132.7963484"><ele>81.24666666666666</ele><time>2022-02-16T03:07:57Z</time></trkpt><trkpt lat="33.8483367" lon="132.7965554"><ele>76.30666666666667</ele><time>2022-02-16T03:09:04Z</time></trkpt><trkpt lat="33.8484401" lon="132.7967405"><ele>69.11666666666667</ele><time>2022-02-16T03:09:18Z</time></trkpt><trkpt lat="33.8486157" lon="132.7968151"><ele>62.846666666666664</ele><time>2022-02-16T03:09:37Z</time></trkpt><trkpt lat="33.8486822" lon="132.7970183"><ele>58.093333333333334</ele><time>2022-02-16T03:09:59Z</time></trkpt><trkpt lat="33.8486569" lon="132.797233"><ele>57.02666666666667</ele><time>2022-02-16T03:10:18Z</time></trkpt><trkpt lat="33.8488184" lon="132.7973367"><ele>61.30333333333334</ele><time>2022-02-16T03:10:54Z</time></trkpt><trkpt lat="33.8489295" lon="132.7975089"><ele>71.13666666666667</ele><time>2022-02-16T03:11:40Z</time></trkpt><trkpt lat="33.8489948" lon="132.7977244"><ele>83.26</ele><time>2022-02-16T03:12:01Z</time></trkpt><trkpt lat="33.8488591" lon="132.7978738"><ele>90.80666666666667</ele><time>2022-02-16T03:12:21Z</time></trkpt><trkpt lat="33.848712" lon="132.7980106"><ele>91.96333333333332</ele><time>2022-02-16T03:12:45Z</time></trkpt><trkpt lat="33.8488929" lon="132.7980454"><ele>94.32333333333332</ele><time>2022-02-16T03:13:24Z</time></trkpt><trkpt lat="33.8490678" lon="132.7981241"><ele>99.73666666666668</ele><time>2022-02-16T03:13:43Z</time></trkpt><trkpt lat="33.8492619" lon="132.7981343"><ele>110.59333333333332</ele><time>2022-02-16T03:14:14Z</time></trkpt><trkpt lat="33.8494471" lon="132.798155"><ele>117.19333333333334</ele><time>2022-02-16T03:14:31Z</time></trkpt><trkpt lat="33.8494454" lon="132.7983769"><ele>120.82333333333334</ele><time>2022-02-16T03:16:40Z</time></trkpt><trkpt lat="33.8494567" lon="132.7985958"><ele>120.09333333333332</ele><time>2022-02-16T03:17:00Z</time></trkpt><trkpt lat="33.8495343" lon="132.798802"><ele>115.14999999999999</ele><time>2022-02-16T03:18:31Z</time></trkpt><trkpt lat="33.8497069" lon="132.7988896"><ele>108.57</ele><time>2022-02-16T03:18:45Z</time></trkpt><trkpt lat="33.8497265" lon="132.7991046"><ele>101.41333333333334</ele><time>2022-02-16T03:19:06Z</time></trkpt><trkpt lat="33.8495426" lon="132.7990822"><ele>98.7</ele><time>2022-02-16T03:20:08Z</time></trkpt><trkpt lat="33.8493812" lon="132.799195"><ele>95.02333333333333</ele><time>2022-02-16T03:20:22Z</time></trkpt><trkpt lat="33.8491959" lon="132.7991671"><ele>91.71</ele><time>2022-02-16T03:20:37Z</time></trkpt><trkpt lat="33.8490404" lon="132.7990547"><ele>88.21</ele><time>2022-02-16T03:21:03Z</time></trkpt><trkpt lat="33.8488741" lon="132.7989449"><ele>87.75666666666666</ele><time>2022-02-16T03:21:12Z</time></trkpt><trkpt lat="33.8487075" lon="132.7988479"><ele>86.92333333333333</ele><time>2022-02-16T03:21:22Z</time></trkpt><trkpt lat="33.8485631" lon="132.7987165"><ele>82.95333333333333</ele><time>2022-02-16T03:21:33Z</time></trkpt><trkpt lat="33.8485203" lon="132.7985047"><ele>77.65</ele><time>2022-02-16T03:21:44Z</time></trkpt><trkpt lat="33.8485164" lon="132.7982882"><ele>74.08</ele><time>2022-02-16T03:21:55Z</time></trkpt><trkpt lat="33.8484234" lon="132.7980948"><ele>71.28333333333335</ele><time>2022-02-16T03:22:11Z</time></trkpt><trkpt lat="33.8484906" lon="132.7978926"><ele>71.24666666666667</ele><time>2022-02-16T03:22:27Z</time></trkpt><trkpt lat="33.8485513" lon="132.7976884"><ele>71.93333333333334</ele><time>2022-02-16T03:22:47Z</time></trkpt><trkpt lat="33.8483778" lon="132.7975982"><ele>69.46666666666665</ele><time>2022-02-16T03:23:04Z</time></trkpt><trkpt lat="33.848332" lon="132.7973856"><ele>63.93000000000001</ele><time>2022-02-16T03:24:00Z</time></trkpt><trkpt lat="33.8483345" lon="132.7971663"><ele>56.31666666666666</ele><time>2022-02-16T03:24:14Z</time></trkpt><trkpt lat="33.8481492" lon="132.7971782"><ele>52.88333333333333</ele><time>2022-02-16T03:24:30Z</time></trkpt><trkpt lat="33.8479668" lon="132.797216"><ele>50.68666666666667</ele><time>2022-02-16T03:24:41Z</time></trkpt><trkpt lat="33.8477864" lon="132.7972323"><ele>49.49333333333334</ele><time>2022-02-16T03:24:56Z</time></trkpt><trkpt lat="33.8477421" lon="132.7970202"><ele>49.30666666666667</ele><time>2022-02-16T03:25:17Z</time></trkpt><trkpt lat="33.8476344" lon="132.796845"><ele>49.24</ele><time>2022-02-16T03:25:45Z</time></trkpt><trkpt lat="33.8474558" lon="132.7968063"><ele>49.21333333333333</ele><time>2022-02-16T03:26:23Z</time></trkpt><trkpt lat="33.8472685" lon="132.7968046"><ele>49.126666666666665</ele><time>2022-02-16T03:26:34Z</time></trkpt><trkpt lat="33.8470988" lon="132.7967282"><ele>48.89333333333334</ele><time>2022-02-16T03:26:41Z</time></trkpt><trkpt lat="33.8469224" lon="132.7966772"><ele>48.666666666666664</ele><time>2022-02-16T03:26:54Z</time></trkpt></trkseg></trk></gpx>