<?xml version='1.0' encoding='UTF-8'?><gpx creator="Yama Museum Peak Annotator" xsi:schemaLocation="http://www.topografix.com/GPX/1/1 http://www.topografix.com/GPX/1/1/gpx.xsd" version="1.1" xmlns="http://www.topografix.com/GPX/1/1" xmlns:xsi="http://www.w3.org/2001/XMLSchema-instance"><metadata><bounds maxlat="33.5099792" maxlon="132.5639219" minlat="33.5089083" minlon="132.5601791"/></metadata>  <wpt lat="33.5090382" lon="132.5604">
    <ele>335.74500437341317</ele>
    <name>冨士山</name>
    <desc>Peak detected at 336m (prominence: 42m)</desc>
    <sym>Summit</sym>
  </wpt>
<trk><name>冨士山</name><number>1</number><trkseg><trkpt lat="33.5098587" lon="132.5639219"><ele>287.79167889094265</ele><time>2022-10-27T04:37:54Z</time></trkpt><trkpt lat="33.5099344" lon="132.5637262"><ele>288.9614693771426</ele><time>2022-10-27T04:38:59Z</time></trkpt><trkpt lat="33.5098248" lon="132.563551"><ele>293.2840154685808</ele><time>2022-10-27T04:40:39Z</time></trkpt><trkpt lat="33.509778" lon="132.5633415"><ele>298.78198897592097</ele><time>2022-10-27T04:40:52Z</time></trkpt><trkpt lat="33.5097201" lon="132.5631304"><ele>304.6940297921083</ele><time>2022-10-27T04:41:06Z</time></trkpt><trkpt lat="33.5096785" lon="132.5629104"><ele>307.2975440596287</ele><time>2022-10-27T04:41:18Z</time></trkpt><trkpt lat="33.5096073" lon="132.5627108"><ele>309.341864984548</ele><time>2022-10-27T04:41:30Z</time></trkpt><trkpt lat="33.5095389" lon="132.5625089"><ele>311.105469905772</ele><time>2022-10-27T04:42:05Z</time></trkpt><trkpt lat="33.5095243" lon="132.5622937"><ele>312.74300162250444</ele><time>2022-10-27T04:42:28Z</time></trkpt><trkpt lat="33.50958" lon="132.5620803"><ele>315.97552320668893</ele><time>2022-10-27T04:43:43Z</time></trkpt><trkpt lat="33.5096174" lon="132.5618696"><ele>320.25681954487385</ele><time>2022-10-27T04:44:26Z</time></trkpt><trkpt lat="33.5096437" lon="132.5616385"><ele>324.88398762549497</ele><time>2022-10-27T04:44:46Z</time></trkpt><trkpt lat="33.5096025" lon="132.5614274"><ele>328.3723139956932</ele><time>2022-10-27T04:45:22Z</time></trkpt><trkpt lat="33.5095187" lon="132.5612221"><ele>330.721516926849</ele><time>2022-10-27T04:45:39Z</time></trkpt><trkpt lat="33.5094652" lon="132.5610139"><ele>331.273535889142</ele><time>2022-10-27T04:46:22Z</time></trkpt><trkpt lat="33.5092755" lon="132.5610216"><ele>330.9963799486802</ele><time>2022-10-27T04:46:46Z</time></trkpt><trkpt lat="33.509112" lon="132.560927"><ele>330.53198111346904</ele><time>2022-10-27T04:47:01Z</time></trkpt><trkpt lat="33.5089992" lon="132.5607435"><ele>332.0252589036251</ele><time>2022-10-27T04:47:12Z</time></trkpt><trkpt lat="33.5089083" lon="132.5605537"><ele>334.29512818030804</ele><time>2022-10-27T04:47:30Z</time></trkpt><trkpt lat="33.5090382" lon="132.5604"><ele>335.74500437341317</ele><time>2022-10-27T04:49:05Z</time></trkpt><trkpt lat="33.5090698" lon="132.5601791"><ele>333.42805346427366</ele><time>2022-10-27T04:49:31Z</time></trkpt><trkpt lat="33.5092278" lon="132.5602831"><ele>330.5737365701589</ele><time>2022-10-27T04:51:30Z</time></trkpt><trkpt lat="33.5092339" lon="132.5605031"><ele>328.0324962276365</ele><time>2022-10-27T04:51:52Z</time></trkpt><trkpt lat="33.5092461" lon="132.5607195"><ele>328.383586244143</ele><time>2022-10-27T04:52:10Z</time></trkpt><trkpt lat="33.5093297" lon="132.5609122"><ele>329.05824193334337</ele><time>2022-10-27T04:52:38Z</time></trkpt><trkpt lat="33.5094295" lon="132.5610966"><ele>329.3235447548563</ele><time>2022-10-27T04:54:54Z</time></trkpt><trkpt lat="33.5095588" lon="132.5612479"><ele>329.23472530698547</ele><time>2022-10-27T04:55:10Z</time></trkpt><trkpt lat="33.5096628" lon="132.5614288"><ele>328.1990081199743</ele><time>2022-10-27T04:55:49Z</time></trkpt><trkpt lat="33.5096624" lon="132.561646"><ele>327.30438796881816</ele><time>2022-10-27T04:56:38Z</time></trkpt><trkpt lat="33.5096296" lon="132.5618594"><ele>325.20087369380167</ele><time>2022-10-27T04:57:00Z</time></trkpt><trkpt lat="33.5095898" lon="132.5620966"><ele>322.17706629879746</ele><time>2022-10-27T04:57:45Z</time></trkpt><trkpt lat="33.5094838" lon="132.562276"><ele>317.81730228673797</ele><time>2022-10-27T04:58:18Z</time></trkpt><trkpt lat="33.5094929" lon="132.5624977"><ele>313.88857324995826</ele><time>2022-10-27T04:58:49Z</time></trkpt><trkpt lat="33.5095766" lon="132.5626907"><ele>311.1221275285058</ele><time>2022-10-27T04:59:03Z</time></trkpt><trkpt lat="33.5096755" lon="132.5628723"><ele>309.52798487658663</ele><time>2022-10-27T04:59:19Z</time></trkpt><trkpt lat="33.5097723" lon="132.5630608"><ele>307.7897807476711</ele><time>2022-10-27T04:59:57Z</time></trkpt><trkpt lat="33.509749" lon="132.5632802"><ele>303.9705667860587</ele><time>2022-10-27T05:00:36Z</time></trkpt><trkpt lat="33.5098335" lon="132.5634851"><ele>297.8731165277699</ele><time>2022-10-27T05:01:09Z</time></trkpt><trkpt lat="33.5099128" lon="132.5636851"><ele>291.1840600847208</ele><time>2022-10-27T05:01:33Z</time></trkpt><trkpt lat="33.5099792" lon="132.5638879"><ele>285.1400526500399</ele><time>2022-10-27T05:01:46Z</time></trkpt></trkseg></trk></gpx>