<?xml version='1.0' encoding='UTF-8'?><gpx creator="Yama Museum Peak Annotator" xsi:schemaLocation="http://www.topografix.com/GPX/1/1 http://www.topografix.com/GPX/1/1/gpx.xsd" version="1.1" xmlns="http://www.topografix.com/GPX/1/1" xmlns:xsi="http://www.w3.org/2001/XMLSchema-instance"><metadata><bounds maxlat="33.9442022" maxlon="133.5858946" minlat="33.9384366" minlon="133.5825704"/></metadata>  <wpt lat="33.9386003" lon="133.5857961">
    <ele>617.3566666666667</ele>
    <name>白木山</name>
    <desc>Peak detected at 617m (prominence: 337m)</desc>
    <sym>Summit</sym>
  </wpt>
<trk><name>白木山</name><number>1</number><trkseg><trkpt lat="33.9442022" lon="133.5836473"><ele>262.38</ele><time>2026-03-08T01:45:13Z</time></trkpt><trkpt lat="33.9440413" lon="133.5837668"><ele>265.03</ele><time>2026-03-08T01:46:45Z</time></trkpt><trkpt lat="33.9439257" lon="133.583591"><ele>268.81333333333333</ele><time>2026-03-08T01:47:32Z</time></trkpt><trkpt lat="33.943798" lon="133.5834162"><ele>274.88666666666666</ele><time>2026-03-08T01:48:14Z</time></trkpt><trkpt lat="33.9437214" lon="133.5832166"><ele>279.9766666666667</ele><time>2026-03-08T01:49:15Z</time></trkpt><trkpt lat="33.9435718" lon="133.5833712"><ele>286.26666666666665</ele><time>2026-03-08T01:50:11Z</time></trkpt><trkpt lat="33.9435845" lon="133.5831415"><ele>289.6333333333334</ele><time>2026-03-08T01:50:47Z</time></trkpt><trkpt lat="33.9434883" lon="133.5829522"><ele>295.11</ele><time>2026-03-08T01:51:02Z</time></trkpt><trkpt lat="33.9433939" lon="133.5827669"><ele>298.25</ele><time>2026-03-08T01:51:18Z</time></trkpt><trkpt lat="33.9432826" lon="133.5825704"><ele>305.5433333333333</ele><time>2026-03-08T01:51:45Z</time></trkpt><trkpt lat="33.9432003" lon="133.5827878"><ele>311.0</ele><time>2026-03-08T01:52:36Z</time></trkpt><trkpt lat="33.9430353" lon="133.5826828"><ele>317.0933333333333</ele><time>2026-03-08T01:53:12Z</time></trkpt><trkpt lat="33.9429221" lon="133.5828701"><ele>325.6333333333334</ele><time>2026-03-08T01:54:11Z</time></trkpt><trkpt lat="33.9427294" lon="133.5828269"><ele>336.71666666666664</ele><time>2026-03-08T01:54:55Z</time></trkpt><trkpt lat="33.9426981" lon="133.5830426"><ele>348.23</ele><time>2026-03-08T01:55:17Z</time></trkpt><trkpt lat="33.9427102" lon="133.5832753"><ele>355.0333333333333</ele><time>2026-03-08T01:55:53Z</time></trkpt><trkpt lat="33.9426879" lon="133.5835227"><ele>358.18</ele><time>2026-03-08T01:56:23Z</time></trkpt><trkpt lat="33.9424996" lon="133.5834998"><ele>363.37999999999994</ele><time>2026-03-08T01:58:35Z</time></trkpt><trkpt lat="33.9422598" lon="133.5833723"><ele>373.99666666666667</ele><time>2026-03-08T01:58:54Z</time></trkpt><trkpt lat="33.9422788" lon="133.5836033"><ele>383.8633333333334</ele><time>2026-03-08T01:59:16Z</time></trkpt><trkpt lat="33.942172" lon="133.5834278"><ele>392.1266666666667</ele><time>2026-03-08T02:00:25Z</time></trkpt><trkpt lat="33.9420368" lon="133.5832746"><ele>397.62000000000006</ele><time>2026-03-08T02:01:25Z</time></trkpt><trkpt lat="33.9418879" lon="133.5834226"><ele>406.3866666666666</ele><time>2026-03-08T02:02:56Z</time></trkpt><trkpt lat="33.9417061" lon="133.5833812"><ele>416.1366666666666</ele><time>2026-03-08T02:04:59Z</time></trkpt><trkpt lat="33.9415185" lon="133.5833785"><ele>426.26</ele><time>2026-03-08T02:06:40Z</time></trkpt><trkpt lat="33.9413404" lon="133.5833438"><ele>439.82</ele><time>2026-03-08T02:09:09Z</time></trkpt><trkpt lat="33.9411562" lon="133.5833199"><ele>451.63333333333327</ele><time>2026-03-08T02:09:57Z</time></trkpt><trkpt lat="33.9410251" lon="133.5834962"><ele>461.96666666666664</ele><time>2026-03-08T02:11:00Z</time></trkpt><trkpt lat="33.9409078" lon="133.5836917"><ele>467.7166666666667</ele><time>2026-03-08T02:11:20Z</time></trkpt><trkpt lat="33.9407841" lon="133.5838537"><ele>471.84</ele><time>2026-03-08T02:11:53Z</time></trkpt><trkpt lat="33.9406134" lon="133.5839469"><ele>475.3933333333334</ele><time>2026-03-08T02:12:56Z</time></trkpt><trkpt lat="33.9404894" lon="133.5841114"><ele>480.09666666666664</ele><time>2026-03-08T02:15:53Z</time></trkpt><trkpt lat="33.9403399" lon="133.5842392"><ele>486.5366666666667</ele><time>2026-03-08T02:17:23Z</time></trkpt><trkpt lat="33.9401414" lon="133.584287"><ele>495.78</ele><time>2026-03-08T02:18:38Z</time></trkpt><trkpt lat="33.9399714" lon="133.5843852"><ele>505.2666666666667</ele><time>2026-03-08T02:19:38Z</time></trkpt><trkpt lat="33.9398009" lon="133.584483"><ele>515.2666666666667</ele><time>2026-03-08T02:20:20Z</time></trkpt><trkpt lat="33.9396247" lon="133.5845826"><ele>525.1833333333333</ele><time>2026-03-08T02:21:20Z</time></trkpt><trkpt lat="33.9395871" lon="133.5848049"><ele>532.9533333333334</ele><time>2026-03-08T02:22:20Z</time></trkpt><trkpt lat="33.939422" lon="133.5848929"><ele>541.6666666666666</ele><time>2026-03-08T02:23:28Z</time></trkpt><trkpt lat="33.9393018" lon="133.5850625"><ele>548.8166666666666</ele><time>2026-03-08T02:24:52Z</time></trkpt><trkpt lat="33.9391233" lon="133.5850987"><ele>560.1899999999999</ele><time>2026-03-08T02:25:40Z</time></trkpt><trkpt lat="33.9389862" lon="133.5852581"><ele>571.61</ele><time>2026-03-08T02:26:55Z</time></trkpt><trkpt lat="33.9388698" lon="133.5854457"><ele>584.2633333333333</ele><time>2026-03-08T02:29:10Z</time></trkpt><trkpt lat="33.9387191" lon="133.585577"><ele>595.1466666666666</ele><time>2026-03-08T02:30:16Z</time></trkpt><trkpt lat="33.9385961" lon="133.5857518"><ele>605.2199999999999</ele><time>2026-03-08T02:31:07Z</time></trkpt><trkpt lat="33.9384366" lon="133.5858946"><ele>613.1899999999999</ele><time>2026-03-08T02:31:55Z</time></trkpt><trkpt lat="33.9386003" lon="133.5857961"><ele>617.3566666666667</ele><time>2026-03-08T02:36:48Z</time></trkpt><trkpt lat="33.9387" lon="133.5856006"><ele>614.7800000000001</ele><time>2026-03-08T02:37:17Z</time></trkpt><trkpt lat="33.9388745" lon="133.585545"><ele>605.9399999999999</ele><time>2026-03-08T02:40:19Z</time></trkpt><trkpt lat="33.9389706" lon="133.5853347"><ele>595.02</ele><time>2026-03-08T02:42:27Z</time></trkpt><trkpt lat="33.9391095" lon="133.5851768"><ele>583.9699999999999</ele><time>2026-03-08T02:43:12Z</time></trkpt><trkpt lat="33.9392838" lon="133.5850754"><ele>573.6933333333333</ele><time>2026-03-08T02:43:57Z</time></trkpt><trkpt lat="33.9394204" lon="133.5849005"><ele>562.2733333333334</ele><time>2026-03-08T02:44:36Z</time></trkpt><trkpt lat="33.9395879" lon="133.5848162"><ele>550.3233333333333</ele><time>2026-03-08T02:45:09Z</time></trkpt><trkpt lat="33.9396269" lon="133.5846013"><ele>541.6666666666666</ele><time>2026-03-08T02:45:26Z</time></trkpt><trkpt lat="33.9397963" lon="133.5845039"><ele>534.2733333333333</ele><time>2026-03-08T02:45:49Z</time></trkpt><trkpt lat="33.9399618" lon="133.5843983"><ele>526.7266666666667</ele><time>2026-03-08T02:46:15Z</time></trkpt><trkpt lat="33.9401514" lon="133.5843549"><ele>516.88</ele><time>2026-03-08T02:46:44Z</time></trkpt><trkpt lat="33.9403219" lon="133.5842595"><ele>505.56</ele><time>2026-03-08T02:47:17Z</time></trkpt><trkpt lat="33.9404829" lon="133.5841193"><ele>495.8500000000001</ele><time>2026-03-08T02:47:56Z</time></trkpt><trkpt lat="33.9406506" lon="133.5839747"><ele>486.57666666666665</ele><time>2026-03-08T02:48:20Z</time></trkpt><trkpt lat="33.9408044" lon="133.5838578"><ele>479.51666666666665</ele><time>2026-03-08T02:48:41Z</time></trkpt><trkpt lat="33.9409509" lon="133.5837056"><ele>474.1133333333334</ele><time>2026-03-08T02:49:02Z</time></trkpt><trkpt lat="33.9410563" lon="133.5835136"><ele>470.52</ele><time>2026-03-08T02:49:26Z</time></trkpt><trkpt lat="33.9411624" lon="133.5833375"><ele>467.01666666666665</ele><time>2026-03-08T02:50:23Z</time></trkpt><trkpt lat="33.941345" lon="133.5833642"><ele>461.9666666666667</ele><time>2026-03-08T02:51:14Z</time></trkpt><trkpt lat="33.9415398" lon="133.5834251"><ele>451.63333333333327</ele><time>2026-03-08T02:51:55Z</time></trkpt><trkpt lat="33.9415399" lon="133.5836566"><ele>440.92333333333335</ele><time>2026-03-08T02:52:58Z</time></trkpt><trkpt lat="33.9417192" lon="133.5837165"><ele>429.04333333333335</ele><time>2026-03-08T02:54:07Z</time></trkpt><trkpt lat="33.9418559" lon="133.58386"><ele>420.29999999999995</ele><time>2026-03-08T02:54:52Z</time></trkpt><trkpt lat="33.9420313" lon="133.5837888"><ele>410.71333333333337</ele><time>2026-03-08T02:55:35Z</time></trkpt><trkpt lat="33.9421801" lon="133.5836311"><ele>401.40000000000003</ele><time>2026-03-08T02:57:05Z</time></trkpt><trkpt lat="33.9423313" lon="133.5834938"><ele>392.3433333333333</ele><time>2026-03-08T02:57:32Z</time></trkpt><trkpt lat="33.9425009" lon="133.5835988"><ele>382.25333333333333</ele><time>2026-03-08T02:58:08Z</time></trkpt><trkpt lat="33.9426526" lon="133.5834815"><ele>371.25333333333333</ele><time>2026-03-08T02:58:39Z</time></trkpt><trkpt lat="33.9426891" lon="133.5832459"><ele>362.82</ele><time>2026-03-08T02:59:03Z</time></trkpt><trkpt lat="33.9426626" lon="133.5830246"><ele>358.18</ele><time>2026-03-08T02:59:24Z</time></trkpt><trkpt lat="33.9428207" lon="133.5828898"><ele>353.42333333333335</ele><time>2026-03-08T02:59:54Z</time></trkpt><trkpt lat="33.9429352" lon="133.5827223"><ele>343.8233333333333</ele><time>2026-03-08T03:00:39Z</time></trkpt><trkpt lat="33.9431269" lon="133.5827483"><ele>330.95</ele><time>2026-03-08T03:01:15Z</time></trkpt><trkpt lat="33.9433027" lon="133.5826713"><ele>319.4066666666667</ele><time>2026-03-08T03:01:40Z</time></trkpt><trkpt lat="33.9434403" lon="133.5828158"><ele>309.13000000000005</ele><time>2026-03-08T03:02:06Z</time></trkpt><trkpt lat="33.9434777" lon="133.5830361"><ele>302.74</ele><time>2026-03-08T03:02:30Z</time></trkpt><trkpt lat="33.9436047" lon="133.5832124"><ele>296.3</ele><time>2026-03-08T03:03:27Z</time></trkpt><trkpt lat="33.9437985" lon="133.5832398"><ele>289.79</ele><time>2026-03-08T03:03:59Z</time></trkpt><trkpt lat="33.9437419" lon="133.5834511"><ele>284.47333333333336</ele><time>2026-03-08T03:04:40Z</time></trkpt><trkpt lat="33.9438654" lon="133.5836418"><ele>279.74666666666667</ele><time>2026-03-08T03:05:09Z</time></trkpt><trkpt lat="33.9440114" lon="133.5837691"><ele>275.8233333333333</ele><time>2026-03-08T03:05:42Z</time></trkpt><trkpt lat="33.9441851" lon="133.5836445"><ele>268.7</ele><time>2026-03-08T03:06:12Z</time></trkpt></trkseg></trk></gpx>