<?xml version='1.0' encoding='UTF-8'?><gpx creator="YAMAP - https://yamap.com" xsi:schemaLocation="http://www.topografix.com/GPX/1/1 http://www.topografix.com/GPX/1/1/gpx.xsd" version="1.1" xmlns="http://www.topografix.com/GPX/1/1" xmlns:xsi="http://www.w3.org/2001/XMLSchema-instance"><metadata><bounds maxlat="33.7649227" maxlon="133.1788293" minlat="33.7636861" minlon="133.1767654"/></metadata><trk><name>伊吹山</name><number>1</number><trkseg><trkpt lat="33.7649105" lon="133.1783835"><ele>1475.810170748338</ele><time>2025-07-06T03:03:18Z</time></trkpt><trkpt lat="33.7647312" lon="133.1783439"><ele>1475.5548657241798</ele><time>2025-07-06T03:04:22Z</time></trkpt><trkpt lat="33.7645438" lon="133.1784154"><ele>1475.268391173918</ele><time>2025-07-06T03:04:49Z</time></trkpt><trkpt lat="33.7643985" lon="133.1785674"><ele>1474.782815278107</ele><time>2025-07-06T03:05:13Z</time></trkpt><trkpt lat="33.7643604" lon="133.178796"><ele>1474.7984749390337</ele><time>2025-07-06T03:07:31Z</time></trkpt><trkpt lat="33.7642419" lon="133.1786275"><ele>1476.1655230849108</ele><time>2025-07-06T03:08:16Z</time></trkpt><trkpt lat="33.7642768" lon="133.1784085"><ele>1478.3249228531506</ele><time>2025-07-06T03:08:58Z</time></trkpt><trkpt lat="33.7642222" lon="133.1781808"><ele>1482.2595453898339</ele><time>2025-07-06T03:09:37Z</time></trkpt><trkpt lat="33.7641839" lon="133.1779629"><ele>1486.8830179942615</ele><time>2025-07-06T03:10:07Z</time></trkpt><trkpt lat="33.7641372" lon="133.1777541"><ele>1492.3412908652917</ele><time>2025-07-06T03:10:49Z</time></trkpt><trkpt lat="33.7640556" lon="133.1775552"><ele>1497.546912227168</ele><time>2025-07-06T03:11:49Z</time></trkpt><trkpt lat="33.7639697" lon="133.1773386"><ele>1501.3787105218696</ele><time>2025-07-06T03:12:12Z</time></trkpt><trkpt lat="33.7638979" lon="133.1771327"><ele>1504.095250304522</ele><time>2025-07-06T03:12:30Z</time></trkpt><trkpt lat="33.763825" lon="133.1769064"><ele>1505.2636102292472</ele><time>2025-07-06T03:14:30Z</time></trkpt><trkpt lat="33.7636861" lon="133.1767654"><ele>1506.1437969630206</ele><time>2025-07-06T03:14:48Z</time></trkpt><trkpt lat="33.7638082" lon="133.1769575"><ele>1506.6639933943752</ele><time>2025-07-06T03:15:26Z</time></trkpt><trkpt lat="33.7638446" lon="133.177192"><ele>1506.5196519810586</ele><time>2025-07-06T03:15:46Z</time></trkpt><trkpt lat="33.7639664" lon="133.1773903"><ele>1505.9247884180495</ele><time>2025-07-06T03:16:36Z</time></trkpt><trkpt lat="33.7640815" lon="133.1775632"><ele>1504.472686238739</ele><time>2025-07-06T03:21:00Z</time></trkpt><trkpt lat="33.7641387" lon="133.1777787"><ele>1502.2897331217928</ele><time>2025-07-06T03:23:48Z</time></trkpt><trkpt lat="33.7641728" lon="133.1780038"><ele>1498.8428454988662</ele><time>2025-07-06T03:24:12Z</time></trkpt><trkpt lat="33.7642194" lon="133.1782154"><ele>1494.3714190413568</ele><time>2025-07-06T03:24:39Z</time></trkpt><trkpt lat="33.76426" lon="133.1784545"><ele>1488.9255245098645</ele><time>2025-07-06T03:25:09Z</time></trkpt><trkpt lat="33.7642073" lon="133.1786894"><ele>1484.2084338449886</ele><time>2025-07-06T03:25:33Z</time></trkpt><trkpt lat="33.764352" lon="133.1788293"><ele>1480.7809168016765</ele><time>2025-07-06T03:26:18Z</time></trkpt><trkpt lat="33.7644127" lon="133.1786039"><ele>1477.6852264681545</ele><time>2025-07-06T03:27:33Z</time></trkpt><trkpt lat="33.7645582" lon="133.1784243"><ele>1475.6911510148964</ele><time>2025-07-06T03:28:00Z</time></trkpt><trkpt lat="33.7647285" lon="133.1783332"><ele>1474.3018141627706</ele><time>2025-07-06T03:28:24Z</time></trkpt><trkpt lat="33.7649227" lon="133.1783753"><ele>1474.9401355010614</ele><time>2025-07-06T03:29:15Z</time></trkpt></trkseg></trk></gpx>