<?xml version='1.0' encoding='UTF-8'?><gpx creator="YAMAP - https://yamap.com" xsi:schemaLocation="http://www.topografix.com/GPX/1/1 http://www.topografix.com/GPX/1/1/gpx.xsd" version="1.1" xmlns="http://www.topografix.com/GPX/1/1" xmlns:xsi="http://www.w3.org/2001/XMLSchema-instance"><metadata><bounds maxlat="33.7829129" maxlon="132.7725288" minlat="33.7575586" minlon="132.7561878"/></metadata><trk><name>八倉山・行道山・水晶ヶ森</name><number>1</number><trkseg><trkpt lat="33.781938" lon="132.7647206"><ele>55.19</ele><time>2024-12-21T21:34:33Z</time></trkpt><trkpt lat="33.7821329" lon="132.7649126"><ele>53.945</ele><time>2024-12-21T21:35:38Z</time></trkpt><trkpt lat="33.782156" lon="132.7651389"><ele>53.89333333333334</ele><time>2024-12-21T21:35:56Z</time></trkpt><trkpt lat="33.7822909" lon="132.7653381"><ele>52.46666666666667</ele><time>2024-12-21T21:36:14Z</time></trkpt><trkpt lat="33.78239" lon="132.7655478"><ele>51.27</ele><time>2024-12-21T21:36:32Z</time></trkpt><trkpt lat="33.782468" lon="132.765767"><ele>49.856666666666676</ele><time>2024-12-21T21:36:50Z</time></trkpt><trkpt lat="33.7826039" lon="132.7659144"><ele>50.056666666666665</ele><time>2024-12-21T21:37:05Z</time></trkpt><trkpt lat="33.7827136" lon="132.7661241"><ele>51.85</ele><time>2024-12-21T21:37:28Z</time></trkpt><trkpt lat="33.7828236" lon="132.7663432"><ele>54.586666666666666</ele><time>2024-12-21T21:37:49Z</time></trkpt><trkpt lat="33.7829129" lon="132.7665438"><ele>57.04</ele><time>2024-12-21T21:38:04Z</time></trkpt><trkpt lat="33.7827571" lon="132.7667184"><ele>59.40333333333333</ele><time>2024-12-21T21:38:46Z</time></trkpt><trkpt lat="33.7826319" lon="132.7668828"><ele>61.57</ele><time>2024-12-21T21:39:01Z</time></trkpt><trkpt lat="33.7824785" lon="132.7670442"><ele>64.31</ele><time>2024-12-21T21:39:46Z</time></trkpt><trkpt lat="33.7823471" lon="132.7672028"><ele>67.31333333333335</ele><time>2024-12-21T21:40:34Z</time></trkpt><trkpt lat="33.7822088" lon="132.7674089"><ele>70.63666666666667</ele><time>2024-12-21T21:40:49Z</time></trkpt><trkpt lat="33.7820524" lon="132.7675817"><ele>74.27666666666666</ele><time>2024-12-21T21:41:04Z</time></trkpt><trkpt lat="33.781911" lon="132.767746"><ele>77.97000000000001</ele><time>2024-12-21T21:41:19Z</time></trkpt><trkpt lat="33.7818327" lon="132.7679728"><ele>81.35000000000001</ele><time>2024-12-21T21:41:43Z</time></trkpt><trkpt lat="33.7817125" lon="132.7681798"><ele>84.89666666666668</ele><time>2024-12-21T21:42:07Z</time></trkpt><trkpt lat="33.7815816" lon="132.7683683"><ele>88.2</ele><time>2024-12-21T21:42:32Z</time></trkpt><trkpt lat="33.7813964" lon="132.7683592"><ele>91.98000000000002</ele><time>2024-12-21T21:42:53Z</time></trkpt><trkpt lat="33.781287" lon="132.7685371"><ele>96.05000000000001</ele><time>2024-12-21T21:43:54Z</time></trkpt><trkpt lat="33.7811401" lon="132.7687221"><ele>101.24333333333334</ele><time>2024-12-21T21:44:12Z</time></trkpt><trkpt lat="33.7810045" lon="132.7688678"><ele>105.29666666666667</ele><time>2024-12-21T21:44:27Z</time></trkpt><trkpt lat="33.7810763" lon="132.7691014"><ele>107.16666666666667</ele><time>2024-12-21T21:44:44Z</time></trkpt><trkpt lat="33.7810516" lon="132.7693184"><ele>108.47333333333334</ele><time>2024-12-21T21:45:01Z</time></trkpt><trkpt lat="33.7811211" lon="132.7695334"><ele>111.07666666666667</ele><time>2024-12-21T21:45:45Z</time></trkpt><trkpt lat="33.7812308" lon="132.7697594"><ele>114.43666666666667</ele><time>2024-12-21T21:46:05Z</time></trkpt><trkpt lat="33.7813171" lon="132.7699931"><ele>117.97000000000001</ele><time>2024-12-21T21:46:21Z</time></trkpt><trkpt lat="33.7814321" lon="132.7701812"><ele>119.70666666666666</ele><time>2024-12-21T21:46:38Z</time></trkpt><trkpt lat="33.7815045" lon="132.7703933"><ele>121.64</ele><time>2024-12-21T21:46:55Z</time></trkpt><trkpt lat="33.7816796" lon="132.7704867"><ele>120.37</ele><time>2024-12-21T21:47:13Z</time></trkpt><trkpt lat="33.7816599" lon="132.7707312"><ele>120.46333333333335</ele><time>2024-12-21T21:48:09Z</time></trkpt><trkpt lat="33.7814885" lon="132.7708385"><ele>123.05666666666667</ele><time>2024-12-21T21:48:39Z</time></trkpt><trkpt lat="33.7813797" lon="132.7706309"><ele>127.39333333333333</ele><time>2024-12-21T21:50:25Z</time></trkpt><trkpt lat="33.7811881" lon="132.7705791"><ele>134.15666666666667</ele><time>2024-12-21T21:50:52Z</time></trkpt><trkpt lat="33.7810392" lon="132.7704301"><ele>139.03666666666666</ele><time>2024-12-21T21:52:16Z</time></trkpt><trkpt lat="33.7808555" lon="132.7703977"><ele>148.11333333333334</ele><time>2024-12-21T21:52:28Z</time></trkpt><trkpt lat="33.7806525" lon="132.7703673"><ele>154.46666666666667</ele><time>2024-12-21T21:52:46Z</time></trkpt><trkpt lat="33.780479" lon="132.7702662"><ele>160.34666666666666</ele><time>2024-12-21T21:53:31Z</time></trkpt><trkpt lat="33.7802829" lon="132.7702876"><ele>163.93333333333334</ele><time>2024-12-21T21:53:48Z</time></trkpt><trkpt lat="33.7801001" lon="132.7702081"><ele>167.65333333333334</ele><time>2024-12-21T21:54:17Z</time></trkpt><trkpt lat="33.7799085" lon="132.7702071"><ele>170.91333333333333</ele><time>2024-12-21T21:54:35Z</time></trkpt><trkpt lat="33.7797196" lon="132.7702269"><ele>172.04999999999998</ele><time>2024-12-21T21:54:53Z</time></trkpt><trkpt lat="33.7795477" lon="132.770301"><ele>174.46333333333337</ele><time>2024-12-21T21:55:14Z</time></trkpt><trkpt lat="33.7793439" lon="132.7703453"><ele>177.46333333333337</ele><time>2024-12-21T21:55:38Z</time></trkpt><trkpt lat="33.7791269" lon="132.7703326"><ele>180.17999999999998</ele><time>2024-12-21T21:56:18Z</time></trkpt><trkpt lat="33.7790564" lon="132.770534"><ele>182.71</ele><time>2024-12-21T21:56:54Z</time></trkpt><trkpt lat="33.7788735" lon="132.7706045"><ele>185.15666666666667</ele><time>2024-12-21T21:57:11Z</time></trkpt><trkpt lat="33.7787422" lon="132.7707605"><ele>190.2033333333333</ele><time>2024-12-21T21:57:28Z</time></trkpt><trkpt lat="33.7785513" lon="132.7707281"><ele>193.75</ele><time>2024-12-21T21:57:46Z</time></trkpt><trkpt lat="33.778382" lon="132.7706383"><ele>197.0466666666667</ele><time>2024-12-21T21:58:06Z</time></trkpt><trkpt lat="33.7782557" lon="132.7704399"><ele>197.17333333333337</ele><time>2024-12-21T21:58:24Z</time></trkpt><trkpt lat="33.7781917" lon="132.7701979"><ele>196.14000000000001</ele><time>2024-12-21T21:58:41Z</time></trkpt><trkpt lat="33.7781171" lon="132.7699986"><ele>194.67333333333332</ele><time>2024-12-21T21:59:49Z</time></trkpt><trkpt lat="33.7779393" lon="132.769932"><ele>195.16666666666666</ele><time>2024-12-21T22:00:07Z</time></trkpt><trkpt lat="33.7777489" lon="132.7699654"><ele>198.15</ele><time>2024-12-21T22:00:34Z</time></trkpt><trkpt lat="33.7775677" lon="132.7700293"><ele>202.79333333333332</ele><time>2024-12-21T22:01:46Z</time></trkpt><trkpt lat="33.7775537" lon="132.7702636"><ele>206.9266666666667</ele><time>2024-12-21T22:02:04Z</time></trkpt><trkpt lat="33.7776546" lon="132.7704679"><ele>209.05333333333337</ele><time>2024-12-21T22:02:34Z</time></trkpt><trkpt lat="33.7777551" lon="132.7706523"><ele>210.21000000000004</ele><time>2024-12-21T22:02:49Z</time></trkpt><trkpt lat="33.7779134" lon="132.7707885"><ele>210.5566666666667</ele><time>2024-12-21T22:03:07Z</time></trkpt><trkpt lat="33.7780264" lon="132.7709619"><ele>211.39666666666668</ele><time>2024-12-21T22:03:24Z</time></trkpt><trkpt lat="33.7781486" lon="132.7711461"><ele>211.74666666666667</ele><time>2024-12-21T22:03:45Z</time></trkpt><trkpt lat="33.7782541" lon="132.7713582"><ele>214.88666666666666</ele><time>2024-12-21T22:04:05Z</time></trkpt><trkpt lat="33.7783968" lon="132.7714957"><ele>219.78</ele><time>2024-12-21T22:04:23Z</time></trkpt><trkpt lat="33.7785791" lon="132.7715176"><ele>225.36333333333334</ele><time>2024-12-21T22:04:40Z</time></trkpt><trkpt lat="33.7787748" lon="132.7713873"><ele>226.21333333333334</ele><time>2024-12-21T22:05:14Z</time></trkpt><trkpt lat="33.7786359" lon="132.7715326"><ele>227.09333333333333</ele><time>2024-12-21T22:05:37Z</time></trkpt><trkpt lat="33.7785007" lon="132.77169"><ele>229.07666666666668</ele><time>2024-12-21T22:06:03Z</time></trkpt><trkpt lat="33.7783887" lon="132.7718619"><ele>235.58333333333334</ele><time>2024-12-21T22:06:24Z</time></trkpt><trkpt lat="33.77821" lon="132.7719071"><ele>239.53</ele><time>2024-12-21T22:06:51Z</time></trkpt><trkpt lat="33.7780184" lon="132.7718519"><ele>241.79333333333332</ele><time>2024-12-21T22:07:12Z</time></trkpt><trkpt lat="33.777839" lon="132.7719215"><ele>242.9333333333333</ele><time>2024-12-21T22:07:35Z</time></trkpt><trkpt lat="33.7779412" lon="132.7721345"><ele>245.1833333333333</ele><time>2024-12-21T22:07:55Z</time></trkpt><trkpt lat="33.7781281" lon="132.7721977"><ele>247.53666666666666</ele><time>2024-12-21T22:08:15Z</time></trkpt><trkpt lat="33.7783236" lon="132.7722709"><ele>248.65333333333334</ele><time>2024-12-21T22:08:38Z</time></trkpt><trkpt lat="33.7785201" lon="132.772314"><ele>250.0233333333333</ele><time>2024-12-21T22:08:58Z</time></trkpt><trkpt lat="33.7786477" lon="132.7724676"><ele>250.44333333333336</ele><time>2024-12-21T22:09:15Z</time></trkpt><trkpt lat="33.7788377" lon="132.7724612"><ele>250.96333333333337</ele><time>2024-12-21T22:09:44Z</time></trkpt><trkpt lat="33.778716" lon="132.7722765"><ele>251.46333333333337</ele><time>2024-12-21T22:11:40Z</time></trkpt><trkpt lat="33.778749" lon="132.7725288"><ele>251.37666666666667</ele><time>2024-12-21T22:12:22Z</time></trkpt><trkpt lat="33.7785719" lon="132.7723706"><ele>251.35333333333335</ele><time>2024-12-21T22:16:21Z</time></trkpt><trkpt lat="33.7783891" lon="132.77227"><ele>250.25</ele><time>2024-12-21T22:16:43Z</time></trkpt><trkpt lat="33.7781711" lon="132.7721973"><ele>250.12</ele><time>2024-12-21T22:16:58Z</time></trkpt><trkpt lat="33.7779677" lon="132.7721173"><ele>249.1833333333333</ele><time>2024-12-21T22:17:13Z</time></trkpt><trkpt lat="33.7778087" lon="132.771962"><ele>247.74</ele><time>2024-12-21T22:17:28Z</time></trkpt><trkpt lat="33.7779698" lon="132.7718637"><ele>245.35000000000002</ele><time>2024-12-21T22:17:43Z</time></trkpt><trkpt lat="33.7781537" lon="132.7718979"><ele>243.1</ele><time>2024-12-21T22:17:58Z</time></trkpt><trkpt lat="33.7782766" lon="132.7716839"><ele>238.93666666666664</ele><time>2024-12-21T22:18:28Z</time></trkpt><trkpt lat="33.7784641" lon="132.7715763"><ele>233.82666666666668</ele><time>2024-12-21T22:18:39Z</time></trkpt><trkpt lat="33.7786466" lon="132.7714599"><ele>228.33666666666667</ele><time>2024-12-21T22:18:53Z</time></trkpt><trkpt lat="33.7784338" lon="132.7714336"><ele>225.08</ele><time>2024-12-21T22:19:35Z</time></trkpt><trkpt lat="33.7782629" lon="132.7713009"><ele>221.45000000000002</ele><time>2024-12-21T22:19:50Z</time></trkpt><trkpt lat="33.7781553" lon="132.7711041"><ele>217.41</ele><time>2024-12-21T22:20:06Z</time></trkpt><trkpt lat="33.7780735" lon="132.7708751"><ele>212.78</ele><time>2024-12-21T22:20:21Z</time></trkpt><trkpt lat="33.7779559" lon="132.7706616"><ele>209.85333333333335</ele><time>2024-12-21T22:20:36Z</time></trkpt><trkpt lat="33.7777596" lon="132.7705332"><ele>208.39333333333335</ele><time>2024-12-21T22:20:52Z</time></trkpt><trkpt lat="33.7775725" lon="132.7704491"><ele>208.97000000000003</ele><time>2024-12-21T22:21:09Z</time></trkpt><trkpt lat="33.7775448" lon="132.7701818"><ele>209.55000000000004</ele><time>2024-12-21T22:21:28Z</time></trkpt><trkpt lat="33.7775159" lon="132.7699496"><ele>209.50333333333336</ele><time>2024-12-21T22:21:43Z</time></trkpt><trkpt lat="33.7774675" lon="132.7697025"><ele>208.36333333333334</ele><time>2024-12-21T22:21:58Z</time></trkpt><trkpt lat="33.7774873" lon="132.7694705"><ele>207.5666666666667</ele><time>2024-12-21T22:22:13Z</time></trkpt><trkpt lat="33.7774431" lon="132.769695"><ele>207.56333333333336</ele><time>2024-12-21T22:23:07Z</time></trkpt><trkpt lat="33.7772491" lon="132.7697157"><ele>208.6966666666667</ele><time>2024-12-21T22:23:40Z</time></trkpt><trkpt lat="33.777056" lon="132.7696544"><ele>209.79333333333332</ele><time>2024-12-21T22:23:58Z</time></trkpt><trkpt lat="33.7768732" lon="132.769568"><ele>209.27666666666667</ele><time>2024-12-21T22:24:29Z</time></trkpt><trkpt lat="33.7767121" lon="132.7694306"><ele>207.77333333333334</ele><time>2024-12-21T22:24:44Z</time></trkpt><trkpt lat="33.7765471" lon="132.7692921"><ele>207.35333333333335</ele><time>2024-12-21T22:24:59Z</time></trkpt><trkpt lat="33.776356" lon="132.7692854"><ele>210.04</ele><time>2024-12-21T22:25:16Z</time></trkpt><trkpt lat="33.776223" lon="132.7691293"><ele>211.77</ele><time>2024-12-21T22:25:30Z</time></trkpt><trkpt lat="33.7760459" lon="132.769003"><ele>213.74</ele><time>2024-12-21T22:25:50Z</time></trkpt><trkpt lat="33.7759453" lon="132.7688059"><ele>211.82333333333335</ele><time>2024-12-21T22:26:09Z</time></trkpt><trkpt lat="33.7758176" lon="132.7686339"><ele>210.01333333333335</ele><time>2024-12-21T22:26:57Z</time></trkpt><trkpt lat="33.7756343" lon="132.7686489"><ele>208.82000000000002</ele><time>2024-12-21T22:27:19Z</time></trkpt><trkpt lat="33.7754845" lon="132.7685098"><ele>210.12666666666667</ele><time>2024-12-21T22:27:36Z</time></trkpt><trkpt lat="33.7753651" lon="132.7683469"><ele>212.02333333333334</ele><time>2024-12-21T22:27:54Z</time></trkpt><trkpt lat="33.7751743" lon="132.7683038"><ele>212.23</ele><time>2024-12-21T22:28:08Z</time></trkpt><trkpt lat="33.7749618" lon="132.7682858"><ele>212.03333333333333</ele><time>2024-12-21T22:28:26Z</time></trkpt><trkpt lat="33.7748041" lon="132.7681805"><ele>212.2266666666667</ele><time>2024-12-21T22:28:38Z</time></trkpt><trkpt lat="33.7746476" lon="132.7680567"><ele>214.68666666666664</ele><time>2024-12-21T22:29:01Z</time></trkpt><trkpt lat="33.7744626" lon="132.767996"><ele>218.09333333333333</ele><time>2024-12-21T22:29:44Z</time></trkpt><trkpt lat="33.7746181" lon="132.7681541"><ele>219.58</ele><time>2024-12-21T22:30:14Z</time></trkpt><trkpt lat="33.7748318" lon="132.768104"><ele>217.67</ele><time>2024-12-21T22:30:31Z</time></trkpt><trkpt lat="33.7747122" lon="132.7679092"><ele>216.66</ele><time>2024-12-21T22:31:11Z</time></trkpt><trkpt lat="33.7746174" lon="132.7677131"><ele>217.96333333333334</ele><time>2024-12-21T22:31:34Z</time></trkpt><trkpt lat="33.7744508" lon="132.7676033"><ele>221.33</ele><time>2024-12-21T22:31:58Z</time></trkpt><trkpt lat="33.7743298" lon="132.7674393"><ele>222.6</ele><time>2024-12-21T22:32:15Z</time></trkpt><trkpt lat="33.7741777" lon="132.7673039"><ele>223.32666666666668</ele><time>2024-12-21T22:32:33Z</time></trkpt><trkpt lat="33.7740676" lon="132.7671196"><ele>223.63333333333333</ele><time>2024-12-21T22:33:08Z</time></trkpt><trkpt lat="33.7739114" lon="132.7669548"><ele>224.83</ele><time>2024-12-21T22:33:34Z</time></trkpt><trkpt lat="33.7737353" lon="132.7668569"><ele>226.77333333333334</ele><time>2024-12-21T22:33:46Z</time></trkpt><trkpt lat="33.7735488" lon="132.7667279"><ele>228.67999999999998</ele><time>2024-12-21T22:34:03Z</time></trkpt><trkpt lat="33.7733996" lon="132.7665567"><ele>230.00333333333333</ele><time>2024-12-21T22:34:21Z</time></trkpt><trkpt lat="33.77331" lon="132.7663251"><ele>230.39666666666668</ele><time>2024-12-21T22:34:41Z</time></trkpt><trkpt lat="33.7732646" lon="132.7660897"><ele>230.78666666666666</ele><time>2024-12-21T22:34:59Z</time></trkpt><trkpt lat="33.7731219" lon="132.7659058"><ele>230.79666666666665</ele><time>2024-12-21T22:35:17Z</time></trkpt><trkpt lat="33.7729394" lon="132.7659322"><ele>231.58666666666667</ele><time>2024-12-21T22:35:31Z</time></trkpt><trkpt lat="33.7727537" lon="132.7659777"><ele>231.89333333333332</ele><time>2024-12-21T22:35:47Z</time></trkpt><trkpt lat="33.7725652" lon="132.7659984"><ele>231.56000000000003</ele><time>2024-12-21T22:36:04Z</time></trkpt><trkpt lat="33.7723675" lon="132.7659943"><ele>229.83</ele><time>2024-12-21T22:36:23Z</time></trkpt><trkpt lat="33.7724577" lon="132.7657761"><ele>227.23333333333335</ele><time>2024-12-21T22:40:01Z</time></trkpt><trkpt lat="33.7721376" lon="132.7657986"><ele>228.82000000000002</ele><time>2024-12-21T22:40:14Z</time></trkpt><trkpt lat="33.7720172" lon="132.7655846"><ele>232.23333333333335</ele><time>2024-12-21T22:40:32Z</time></trkpt><trkpt lat="33.7720565" lon="132.7653665"><ele>235.06000000000003</ele><time>2024-12-21T22:40:56Z</time></trkpt><trkpt lat="33.771905" lon="132.7652087"><ele>235.83</ele><time>2024-12-21T22:41:14Z</time></trkpt><trkpt lat="33.7717966" lon="132.765033"><ele>236.38</ele><time>2024-12-21T22:41:51Z</time></trkpt><trkpt lat="33.7716883" lon="132.7648202"><ele>238.68666666666664</ele><time>2024-12-21T22:42:12Z</time></trkpt><trkpt lat="33.7715726" lon="132.7646245"><ele>238.6966666666667</ele><time>2024-12-21T22:42:29Z</time></trkpt><trkpt lat="33.7714565" lon="132.7644365"><ele>235.34666666666666</ele><time>2024-12-21T22:42:47Z</time></trkpt><trkpt lat="33.7713995" lon="132.764229"><ele>230.94999999999996</ele><time>2024-12-21T22:43:17Z</time></trkpt><trkpt lat="33.7713823" lon="132.7640108"><ele>227.82666666666668</ele><time>2024-12-21T22:43:57Z</time></trkpt><trkpt lat="33.7712231" lon="132.7638784"><ele>228.42333333333332</ele><time>2024-12-21T22:44:09Z</time></trkpt><trkpt lat="33.7711601" lon="132.7635969"><ele>229.4266666666667</ele><time>2024-12-21T22:44:21Z</time></trkpt><trkpt lat="33.7710177" lon="132.7634082"><ele>228.9266666666667</ele><time>2024-12-21T22:44:36Z</time></trkpt><trkpt lat="33.7709602" lon="132.7636423"><ele>227.28666666666666</ele><time>2024-12-21T22:45:48Z</time></trkpt><trkpt lat="33.7708656" lon="132.7638717"><ele>224.25</ele><time>2024-12-21T22:46:06Z</time></trkpt><trkpt lat="33.7707165" lon="132.7640168"><ele>221.23</ele><time>2024-12-21T22:46:24Z</time></trkpt><trkpt lat="33.7706263" lon="132.7642228"><ele>217.85</ele><time>2024-12-21T22:46:39Z</time></trkpt><trkpt lat="33.7706294" lon="132.7644403"><ele>216.48000000000002</ele><time>2024-12-21T22:46:52Z</time></trkpt><trkpt lat="33.7706989" lon="132.764676"><ele>217.82000000000002</ele><time>2024-12-21T22:47:31Z</time></trkpt><trkpt lat="33.7706655" lon="132.7649048"><ele>219.5666666666667</ele><time>2024-12-21T22:47:47Z</time></trkpt><trkpt lat="33.7706152" lon="132.7651384"><ele>220.35666666666668</ele><time>2024-12-21T22:48:10Z</time></trkpt><trkpt lat="33.7704281" lon="132.7652558"><ele>219.21333333333334</ele><time>2024-12-21T22:48:48Z</time></trkpt><trkpt lat="33.7703533" lon="132.7650264"><ele>218.67666666666665</ele><time>2024-12-21T22:49:21Z</time></trkpt><trkpt lat="33.7701992" lon="132.7651492"><ele>220.73666666666668</ele><time>2024-12-21T22:49:38Z</time></trkpt><trkpt lat="33.7700129" lon="132.7652077"><ele>227.44000000000003</ele><time>2024-12-21T22:49:56Z</time></trkpt><trkpt lat="33.7700189" lon="132.7654271"><ele>231.25333333333333</ele><time>2024-12-21T22:50:19Z</time></trkpt><trkpt lat="33.7698988" lon="132.7656317"><ele>236.09666666666666</ele><time>2024-12-21T22:50:36Z</time></trkpt><trkpt lat="33.7697971" lon="132.7658359"><ele>238.36333333333334</ele><time>2024-12-21T22:50:57Z</time></trkpt><trkpt lat="33.7699128" lon="132.7660115"><ele>241.00333333333333</ele><time>2024-12-21T22:51:30Z</time></trkpt><trkpt lat="33.7699181" lon="132.7662398"><ele>239.84</ele><time>2024-12-21T22:51:51Z</time></trkpt><trkpt lat="33.7697391" lon="132.7661364"><ele>239.11</ele><time>2024-12-21T22:52:33Z</time></trkpt><trkpt lat="33.7695963" lon="132.7659999"><ele>242.1833333333333</ele><time>2024-12-21T22:53:58Z</time></trkpt><trkpt lat="33.7696818" lon="132.7658071"><ele>245.64000000000001</ele><time>2024-12-21T22:54:19Z</time></trkpt><trkpt lat="33.7695807" lon="132.7656199"><ele>249.37333333333333</ele><time>2024-12-21T22:54:35Z</time></trkpt><trkpt lat="33.7694814" lon="132.7654112"><ele>252.93666666666664</ele><time>2024-12-21T22:54:52Z</time></trkpt><trkpt lat="33.7693888" lon="132.7652001"><ele>260.54</ele><time>2024-12-21T22:55:21Z</time></trkpt><trkpt lat="33.7694443" lon="132.764993"><ele>265.39</ele><time>2024-12-21T22:56:07Z</time></trkpt><trkpt lat="33.7692642" lon="132.7649317"><ele>269.6333333333334</ele><time>2024-12-21T22:56:52Z</time></trkpt><trkpt lat="33.7690713" lon="132.7649083"><ele>273.17333333333335</ele><time>2024-12-21T22:57:51Z</time></trkpt><trkpt lat="33.768906" lon="132.7648047"><ele>277.77000000000004</ele><time>2024-12-21T22:58:17Z</time></trkpt><trkpt lat="33.7687379" lon="132.76469"><ele>281.65333333333336</ele><time>2024-12-21T22:58:37Z</time></trkpt><trkpt lat="33.7686862" lon="132.7644537"><ele>283.4433333333333</ele><time>2024-12-21T22:59:15Z</time></trkpt><trkpt lat="33.7687029" lon="132.7642384"><ele>284.4566666666667</ele><time>2024-12-21T22:59:30Z</time></trkpt><trkpt lat="33.7688261" lon="132.7640594"><ele>280.68333333333334</ele><time>2024-12-21T22:59:51Z</time></trkpt><trkpt lat="33.7690222" lon="132.7639711"><ele>277.42</ele><time>2024-12-21T23:00:15Z</time></trkpt><trkpt lat="33.7691837" lon="132.763867"><ele>275.19</ele><time>2024-12-21T23:00:41Z</time></trkpt><trkpt lat="33.7690498" lon="132.7637101"><ele>279.16333333333336</ele><time>2024-12-21T23:01:10Z</time></trkpt><trkpt lat="33.768864" lon="132.763636"><ele>284.31</ele><time>2024-12-21T23:01:29Z</time></trkpt><trkpt lat="33.7687109" lon="132.7635216"><ele>290.1933333333333</ele><time>2024-12-21T23:02:11Z</time></trkpt><trkpt lat="33.7685776" lon="132.7633694"><ele>294.74333333333334</ele><time>2024-12-21T23:02:32Z</time></trkpt><trkpt lat="33.7683865" lon="132.7633907"><ele>297.6366666666666</ele><time>2024-12-21T23:02:50Z</time></trkpt><trkpt lat="33.7682462" lon="132.7632308"><ele>298.5133333333333</ele><time>2024-12-21T23:03:20Z</time></trkpt><trkpt lat="33.7681821" lon="132.7629933"><ele>299.69</ele><time>2024-12-21T23:03:44Z</time></trkpt><trkpt lat="33.7680579" lon="132.7628348"><ele>300.68666666666667</ele><time>2024-12-21T23:03:59Z</time></trkpt><trkpt lat="33.7678739" lon="132.76276"><ele>302.3933333333333</ele><time>2024-12-21T23:05:06Z</time></trkpt><trkpt lat="33.7676818" lon="132.7628142"><ele>303.46000000000004</ele><time>2024-12-21T23:06:03Z</time></trkpt><trkpt lat="33.7675398" lon="132.7626795"><ele>304.7633333333333</ele><time>2024-12-21T23:06:21Z</time></trkpt><trkpt lat="33.7673684" lon="132.7625518"><ele>307.8866666666667</ele><time>2024-12-21T23:07:36Z</time></trkpt><trkpt lat="33.7671788" lon="132.7626253"><ele>311.56666666666666</ele><time>2024-12-21T23:08:09Z</time></trkpt><trkpt lat="33.7669956" lon="132.7626324"><ele>316.40333333333336</ele><time>2024-12-21T23:08:39Z</time></trkpt><trkpt lat="33.7668177" lon="132.762714"><ele>319.83</ele><time>2024-12-21T23:09:03Z</time></trkpt><trkpt lat="33.7666142" lon="132.7627048"><ele>324.56333333333333</ele><time>2024-12-21T23:09:29Z</time></trkpt><trkpt lat="33.766425" lon="132.7626609"><ele>329.2033333333334</ele><time>2024-12-21T23:10:05Z</time></trkpt><trkpt lat="33.7662659" lon="132.7625381"><ele>333.6266666666667</ele><time>2024-12-21T23:10:23Z</time></trkpt><trkpt lat="33.7661364" lon="132.7623742"><ele>335.89000000000004</ele><time>2024-12-21T23:10:42Z</time></trkpt><trkpt lat="33.7659814" lon="132.7622579"><ele>336.0133333333333</ele><time>2024-12-21T23:11:03Z</time></trkpt><trkpt lat="33.7658113" lon="132.7621822"><ele>334.98</ele><time>2024-12-21T23:11:36Z</time></trkpt><trkpt lat="33.7656035" lon="132.7621987"><ele>334.69666666666666</ele><time>2024-12-21T23:12:17Z</time></trkpt><trkpt lat="33.7654257" lon="132.7622489"><ele>335.69666666666666</ele><time>2024-12-21T23:13:23Z</time></trkpt><trkpt lat="33.7652414" lon="132.7621912"><ele>338.2</ele><time>2024-12-21T23:14:15Z</time></trkpt><trkpt lat="33.7650367" lon="132.7621726"><ele>340.48333333333335</ele><time>2024-12-21T23:14:36Z</time></trkpt><trkpt lat="33.7648465" lon="132.7621381"><ele>342.6466666666667</ele><time>2024-12-21T23:14:54Z</time></trkpt><trkpt lat="33.7646727" lon="132.7620307"><ele>344.40000000000003</ele><time>2024-12-21T23:15:17Z</time></trkpt><trkpt lat="33.764553" lon="132.7618547"><ele>345.8066666666667</ele><time>2024-12-21T23:15:45Z</time></trkpt><trkpt lat="33.7643838" lon="132.761723"><ele>347.01000000000005</ele><time>2024-12-21T23:16:12Z</time></trkpt><trkpt lat="33.7642005" lon="132.7616529"><ele>348.81666666666666</ele><time>2024-12-21T23:16:48Z</time></trkpt><trkpt lat="33.7640028" lon="132.7616429"><ele>351.93666666666667</ele><time>2024-12-21T23:17:05Z</time></trkpt><trkpt lat="33.7638242" lon="132.7615671"><ele>355.71333333333337</ele><time>2024-12-21T23:17:31Z</time></trkpt><trkpt lat="33.7636702" lon="132.7614514"><ele>359.06333333333333</ele><time>2024-12-21T23:18:28Z</time></trkpt><trkpt lat="33.7635681" lon="132.7612307"><ele>360.78666666666663</ele><time>2024-12-21T23:18:46Z</time></trkpt><trkpt lat="33.7634953" lon="132.7610292"><ele>361.4266666666667</ele><time>2024-12-21T23:19:04Z</time></trkpt><trkpt lat="33.7633664" lon="132.7608214"><ele>362.3033333333333</ele><time>2024-12-21T23:19:21Z</time></trkpt><trkpt lat="33.7633215" lon="132.7606113"><ele>364.32666666666665</ele><time>2024-12-21T23:19:56Z</time></trkpt><trkpt lat="33.7631483" lon="132.760476"><ele>366.55</ele><time>2024-12-21T23:20:23Z</time></trkpt><trkpt lat="33.7629671" lon="132.7604036"><ele>368.21333333333337</ele><time>2024-12-21T23:20:43Z</time></trkpt><trkpt lat="33.762893" lon="132.7602063"><ele>369.3933333333334</ele><time>2024-12-21T23:20:57Z</time></trkpt><trkpt lat="33.7628025" lon="132.7600051"><ele>370.53999999999996</ele><time>2024-12-21T23:22:27Z</time></trkpt><trkpt lat="33.7626394" lon="132.7598927"><ele>370.9666666666667</ele><time>2024-12-21T23:24:30Z</time></trkpt><trkpt lat="33.7624377" lon="132.7598875"><ele>370.15000000000003</ele><time>2024-12-21T23:24:51Z</time></trkpt><trkpt lat="33.7623046" lon="132.7597156"><ele>369.4066666666667</ele><time>2024-12-21T23:25:06Z</time></trkpt><trkpt lat="33.7621064" lon="132.7596281"><ele>369.53000000000003</ele><time>2024-12-21T23:25:23Z</time></trkpt><trkpt lat="33.7619304" lon="132.7595465"><ele>370.49666666666667</ele><time>2024-12-21T23:29:53Z</time></trkpt><trkpt lat="33.7617273" lon="132.759553"><ele>370.94</ele><time>2024-12-21T23:30:28Z</time></trkpt><trkpt lat="33.7615392" lon="132.7595877"><ele>370.81333333333333</ele><time>2024-12-21T23:30:46Z</time></trkpt><trkpt lat="33.7613439" lon="132.7596165"><ele>370.42666666666673</ele><time>2024-12-21T23:31:33Z</time></trkpt><trkpt lat="33.7611449" lon="132.7595377"><ele>369.75666666666666</ele><time>2024-12-21T23:32:12Z</time></trkpt><trkpt lat="33.7609819" lon="132.7594397"><ele>368.2866666666667</ele><time>2024-12-21T23:32:24Z</time></trkpt><trkpt lat="33.7608092" lon="132.7593523"><ele>365.77</ele><time>2024-12-21T23:32:36Z</time></trkpt><trkpt lat="33.7606176" lon="132.7592917"><ele>363.71000000000004</ele><time>2024-12-21T23:32:51Z</time></trkpt><trkpt lat="33.7604088" lon="132.7592613"><ele>362.06666666666666</ele><time>2024-12-21T23:33:14Z</time></trkpt><trkpt lat="33.7601953" lon="132.7592353"><ele>360.7</ele><time>2024-12-21T23:33:32Z</time></trkpt><trkpt lat="33.7599994" lon="132.7591829"><ele>359.96000000000004</ele><time>2024-12-21T23:33:50Z</time></trkpt><trkpt lat="33.7597702" lon="132.7591467"><ele>360.27</ele><time>2024-12-21T23:34:15Z</time></trkpt><trkpt lat="33.7595855" lon="132.7590549"><ele>362.35666666666674</ele><time>2024-12-21T23:34:36Z</time></trkpt><trkpt lat="33.7594138" lon="132.7591731"><ele>362.6333333333334</ele><time>2024-12-21T23:34:48Z</time></trkpt><trkpt lat="33.7592231" lon="132.7592082"><ele>362.25</ele><time>2024-12-21T23:35:03Z</time></trkpt><trkpt lat="33.7590456" lon="132.7590659"><ele>360.9633333333333</ele><time>2024-12-21T23:35:21Z</time></trkpt><trkpt lat="33.7588712" lon="132.7589509"><ele>361.0566666666667</ele><time>2024-12-21T23:35:39Z</time></trkpt><trkpt lat="33.7587513" lon="132.7587616"><ele>361.7966666666667</ele><time>2024-12-21T23:35:54Z</time></trkpt><trkpt lat="33.7585427" lon="132.7588292"><ele>361.7266666666667</ele><time>2024-12-21T23:36:57Z</time></trkpt><trkpt lat="33.7583671" lon="132.7587417"><ele>361.6933333333334</ele><time>2024-12-21T23:37:15Z</time></trkpt><trkpt lat="33.7582469" lon="132.7585668"><ele>362.02666666666664</ele><time>2024-12-21T23:38:01Z</time></trkpt><trkpt lat="33.7582881" lon="132.7583267"><ele>365.0466666666667</ele><time>2024-12-21T23:38:27Z</time></trkpt><trkpt lat="33.7581474" lon="132.7581402"><ele>368.02</ele><time>2024-12-21T23:38:49Z</time></trkpt><trkpt lat="33.7580085" lon="132.7579704"><ele>373.6333333333334</ele><time>2024-12-21T23:39:07Z</time></trkpt><trkpt lat="33.7578796" lon="132.7577993"><ele>380.24666666666667</ele><time>2024-12-21T23:39:34Z</time></trkpt><trkpt lat="33.7577469" lon="132.757652"><ele>387.9200000000001</ele><time>2024-12-21T23:39:58Z</time></trkpt><trkpt lat="33.7576" lon="132.757503"><ele>390.07666666666665</ele><time>2024-12-21T23:40:43Z</time></trkpt><trkpt lat="33.7575586" lon="132.757276"><ele>390.66333333333336</ele><time>2024-12-21T23:42:03Z</time></trkpt><trkpt lat="33.7576534" lon="132.7570847"><ele>392.6233333333333</ele><time>2024-12-21T23:44:50Z</time></trkpt><trkpt lat="33.7578394" lon="132.7571457"><ele>397.53666666666663</ele><time>2024-12-21T23:47:02Z</time></trkpt><trkpt lat="33.7578748" lon="132.756918"><ele>401.01666666666665</ele><time>2024-12-21T23:47:58Z</time></trkpt><trkpt lat="33.7579255" lon="132.7571571"><ele>401.8633333333333</ele><time>2024-12-21T23:52:18Z</time></trkpt><trkpt lat="33.758033" lon="132.7573338"><ele>401.0833333333333</ele><time>2024-12-21T23:53:15Z</time></trkpt><trkpt lat="33.7581929" lon="132.7574708"><ele>398.8</ele><time>2024-12-21T23:55:30Z</time></trkpt><trkpt lat="33.7584221" lon="132.7574654"><ele>393.36000000000007</ele><time>2024-12-21T23:57:00Z</time></trkpt><trkpt lat="33.7586265" lon="132.7575415"><ele>387.6333333333334</ele><time>2024-12-21T23:57:48Z</time></trkpt><trkpt lat="33.7588309" lon="132.7575549"><ele>381.7033333333334</ele><time>2024-12-21T23:58:03Z</time></trkpt><trkpt lat="33.758998" lon="132.7576512"><ele>379.1633333333334</ele><time>2024-12-21T23:58:21Z</time></trkpt><trkpt lat="33.7591701" lon="132.7577613"><ele>376.85666666666674</ele><time>2024-12-21T23:58:42Z</time></trkpt><trkpt lat="33.7593363" lon="132.7576736"><ele>374.3866666666667</ele><time>2024-12-21T23:59:03Z</time></trkpt><trkpt lat="33.7595241" lon="132.7577748"><ele>370.5333333333333</ele><time>2024-12-21T23:59:21Z</time></trkpt><trkpt lat="33.7596892" lon="132.7576561"><ele>366.28999999999996</ele><time>2024-12-21T23:59:50Z</time></trkpt><trkpt lat="33.7598837" lon="132.757579"><ele>364.07</ele><time>2024-12-22T00:00:24Z</time></trkpt><trkpt lat="33.759959" lon="132.757362"><ele>361.9533333333334</ele><time>2024-12-22T00:00:45Z</time></trkpt><trkpt lat="33.7601371" lon="132.7574483"><ele>364.07</ele><time>2024-12-22T00:01:09Z</time></trkpt><trkpt lat="33.7602023" lon="132.7576637"><ele>368.1000000000001</ele><time>2024-12-22T00:01:27Z</time></trkpt><trkpt lat="33.7602617" lon="132.7578895"><ele>369.2633333333333</ele><time>2024-12-22T00:01:44Z</time></trkpt><trkpt lat="33.7604467" lon="132.75799"><ele>366.4633333333333</ele><time>2024-12-22T00:02:09Z</time></trkpt><trkpt lat="33.7606267" lon="132.7579178"><ele>362.5733333333333</ele><time>2024-12-22T00:02:27Z</time></trkpt><trkpt lat="33.7604793" lon="132.7580747"><ele>360.35999999999996</ele><time>2024-12-22T00:03:23Z</time></trkpt><trkpt lat="33.7606373" lon="132.7579663"><ele>360.12999999999994</ele><time>2024-12-22T00:03:32Z</time></trkpt><trkpt lat="33.7607424" lon="132.7577701"><ele>359.93</ele><time>2024-12-22T00:03:44Z</time></trkpt><trkpt lat="33.7609267" lon="132.7578228"><ele>360.79333333333335</ele><time>2024-12-22T00:03:52Z</time></trkpt><trkpt lat="33.7611197" lon="132.7579192"><ele>358.33666666666664</ele><time>2024-12-22T00:04:04Z</time></trkpt><trkpt lat="33.7613032" lon="132.7578806"><ele>353.34666666666664</ele><time>2024-12-22T00:04:19Z</time></trkpt><trkpt lat="33.7615001" lon="132.7579007"><ele>345.3866666666666</ele><time>2024-12-22T00:04:34Z</time></trkpt><trkpt lat="33.7616594" lon="132.7577812"><ele>338.1066666666666</ele><time>2024-12-22T00:04:46Z</time></trkpt><trkpt lat="33.7615539" lon="132.7579941"><ele>332.0366666666667</ele><time>2024-12-22T00:05:43Z</time></trkpt><trkpt lat="33.7614097" lon="132.7581401"><ele>331.09666666666664</ele><time>2024-12-22T00:06:04Z</time></trkpt><trkpt lat="33.7612399" lon="132.7582333"><ele>332.25</ele><time>2024-12-22T00:07:07Z</time></trkpt><trkpt lat="33.7610908" lon="132.7583695"><ele>334.21666666666664</ele><time>2024-12-22T00:07:19Z</time></trkpt><trkpt lat="33.7609314" lon="132.7584889"><ele>336.97</ele><time>2024-12-22T00:07:34Z</time></trkpt><trkpt lat="33.7610775" lon="132.758618"><ele>339.01666666666665</ele><time>2024-12-22T00:07:58Z</time></trkpt><trkpt lat="33.7612561" lon="132.758536"><ele>338.91333333333336</ele><time>2024-12-22T00:08:13Z</time></trkpt><trkpt lat="33.7614198" lon="132.7583822"><ele>334.83</ele><time>2024-12-22T00:08:31Z</time></trkpt><trkpt lat="33.7616112" lon="132.7582896"><ele>329.68666666666667</ele><time>2024-12-22T00:08:46Z</time></trkpt><trkpt lat="33.7618064" lon="132.7582173"><ele>324.5133333333333</ele><time>2024-12-22T00:09:01Z</time></trkpt><trkpt lat="33.7619193" lon="132.7580126"><ele>319.68333333333334</ele><time>2024-12-22T00:09:16Z</time></trkpt><trkpt lat="33.7621038" lon="132.7579658"><ele>314.11333333333334</ele><time>2024-12-22T00:09:31Z</time></trkpt><trkpt lat="33.7622383" lon="132.7578196"><ele>309.6666666666667</ele><time>2024-12-22T00:09:46Z</time></trkpt><trkpt lat="33.7623869" lon="132.7576213"><ele>306.5566666666667</ele><time>2024-12-22T00:10:01Z</time></trkpt><trkpt lat="33.7625086" lon="132.7574421"><ele>305.49333333333334</ele><time>2024-12-22T00:10:16Z</time></trkpt><trkpt lat="33.7626818" lon="132.7573508"><ele>303.50666666666666</ele><time>2024-12-22T00:10:31Z</time></trkpt><trkpt lat="33.762841" lon="132.7572245"><ele>302.62333333333333</ele><time>2024-12-22T00:10:45Z</time></trkpt><trkpt lat="33.7627256" lon="132.7574185"><ele>300.18333333333334</ele><time>2024-12-22T00:11:04Z</time></trkpt><trkpt lat="33.762533" lon="132.7574527"><ele>300.87333333333333</ele><time>2024-12-22T00:11:19Z</time></trkpt><trkpt lat="33.7623742" lon="132.7575587"><ele>303.2133333333333</ele><time>2024-12-22T00:11:31Z</time></trkpt><trkpt lat="33.762343" lon="132.7578269"><ele>305.42333333333335</ele><time>2024-12-22T00:11:43Z</time></trkpt><trkpt lat="33.7625638" lon="132.7577525"><ele>304.15000000000003</ele><time>2024-12-22T00:12:14Z</time></trkpt><trkpt lat="33.7626701" lon="132.7575478"><ele>299.65000000000003</ele><time>2024-12-22T00:12:29Z</time></trkpt><trkpt lat="33.762834" lon="132.757433"><ele>295.84</ele><time>2024-12-22T00:12:44Z</time></trkpt><trkpt lat="33.7630446" lon="132.757372"><ele>292.4633333333333</ele><time>2024-12-22T00:13:02Z</time></trkpt><trkpt lat="33.7632608" lon="132.7573109"><ele>288.79</ele><time>2024-12-22T00:13:20Z</time></trkpt><trkpt lat="33.7634139" lon="132.7571682"><ele>286.07666666666665</ele><time>2024-12-22T00:13:35Z</time></trkpt><trkpt lat="33.7636235" lon="132.757147"><ele>284.88000000000005</ele><time>2024-12-22T00:13:53Z</time></trkpt><trkpt lat="33.7638432" lon="132.7571151"><ele>284.6433333333334</ele><time>2024-12-22T00:14:11Z</time></trkpt><trkpt lat="33.7640118" lon="132.7572287"><ele>283.06</ele><time>2024-12-22T00:14:23Z</time></trkpt><trkpt lat="33.7642087" lon="132.7572653"><ele>279.11</ele><time>2024-12-22T00:14:38Z</time></trkpt><trkpt lat="33.7643737" lon="132.7571755"><ele>275.42</ele><time>2024-12-22T00:14:50Z</time></trkpt><trkpt lat="33.7645689" lon="132.7570822"><ele>272.13333333333327</ele><time>2024-12-22T00:15:32Z</time></trkpt><trkpt lat="33.7647612" lon="132.7570647"><ele>270.5333333333333</ele><time>2024-12-22T00:15:47Z</time></trkpt><trkpt lat="33.7649625" lon="132.7571242"><ele>266.8633333333333</ele><time>2024-12-22T00:16:19Z</time></trkpt><trkpt lat="33.7651498" lon="132.7570514"><ele>264.22333333333336</ele><time>2024-12-22T00:16:34Z</time></trkpt><trkpt lat="33.7651951" lon="132.7568248"><ele>262.9066666666667</ele><time>2024-12-22T00:16:43Z</time></trkpt><trkpt lat="33.7652446" lon="132.756597"><ele>264.50333333333333</ele><time>2024-12-22T00:17:04Z</time></trkpt><trkpt lat="33.765451" lon="132.7565987"><ele>264.24333333333334</ele><time>2024-12-22T00:17:16Z</time></trkpt><trkpt lat="33.7656595" lon="132.7565542"><ele>262.7366666666667</ele><time>2024-12-22T00:17:31Z</time></trkpt><trkpt lat="33.7658119" lon="132.7563994"><ele>258.6933333333333</ele><time>2024-12-22T00:17:46Z</time></trkpt><trkpt lat="33.7659074" lon="132.7561878"><ele>257.34</ele><time>2024-12-22T00:18:01Z</time></trkpt><trkpt lat="33.7660531" lon="132.7563254"><ele>253.64999999999998</ele><time>2024-12-22T00:18:25Z</time></trkpt><trkpt lat="33.7659877" lon="132.7565288"><ele>250.57333333333335</ele><time>2024-12-22T00:18:40Z</time></trkpt><trkpt lat="33.7659046" lon="132.7567426"><ele>244.71666666666667</ele><time>2024-12-22T00:18:49Z</time></trkpt><trkpt lat="33.7657567" lon="132.7568767"><ele>243.30333333333337</ele><time>2024-12-22T00:19:04Z</time></trkpt><trkpt lat="33.7655962" lon="132.7569767"><ele>244.24333333333334</ele><time>2024-12-22T00:19:18Z</time></trkpt><trkpt lat="33.7655066" lon="132.7571754"><ele>245.7166666666667</ele><time>2024-12-22T00:19:33Z</time></trkpt><trkpt lat="33.7654155" lon="132.7573688"><ele>243.78</ele><time>2024-12-22T00:19:48Z</time></trkpt><trkpt lat="33.7652599" lon="132.7575548"><ele>239.52333333333334</ele><time>2024-12-22T00:20:03Z</time></trkpt><trkpt lat="33.7650717" lon="132.7576023"><ele>237.54333333333332</ele><time>2024-12-22T00:20:16Z</time></trkpt><trkpt lat="33.7649025" lon="132.757683"><ele>236.92333333333332</ele><time>2024-12-22T00:20:28Z</time></trkpt><trkpt lat="33.7647024" lon="132.7577446"><ele>238.86333333333334</ele><time>2024-12-22T00:20:43Z</time></trkpt><trkpt lat="33.7645049" lon="132.7577807"><ele>240.07666666666668</ele><time>2024-12-22T00:20:58Z</time></trkpt><trkpt lat="33.7643407" lon="132.7579426"><ele>241.70000000000002</ele><time>2024-12-22T00:21:16Z</time></trkpt><trkpt lat="33.7642339" lon="132.7581382"><ele>244.87333333333333</ele><time>2024-12-22T00:21:34Z</time></trkpt><trkpt lat="33.7643995" lon="132.7582321"><ele>247.51</ele><time>2024-12-22T00:21:49Z</time></trkpt><trkpt lat="33.7645885" lon="132.7582933"><ele>250.23333333333335</ele><time>2024-12-22T00:22:04Z</time></trkpt><trkpt lat="33.7647705" lon="132.7583483"><ele>248.52666666666667</ele><time>2024-12-22T00:22:16Z</time></trkpt><trkpt lat="33.7649743" lon="132.7583439"><ele>245.59333333333333</ele><time>2024-12-22T00:22:28Z</time></trkpt><trkpt lat="33.765142" lon="132.7582459"><ele>240.08666666666667</ele><time>2024-12-22T00:23:33Z</time></trkpt><trkpt lat="33.7653046" lon="132.7583682"><ele>235.67</ele><time>2024-12-22T00:23:48Z</time></trkpt><trkpt lat="33.7655171" lon="132.758372"><ele>231.24666666666667</ele><time>2024-12-22T00:24:09Z</time></trkpt><trkpt lat="33.7656984" lon="132.7583949"><ele>229.72333333333336</ele><time>2024-12-22T00:24:48Z</time></trkpt><trkpt lat="33.7656963" lon="132.7586497"><ele>234.75333333333333</ele><time>2024-12-22T00:25:21Z</time></trkpt><trkpt lat="33.7658982" lon="132.7582774"><ele>232.11666666666667</ele><time>2024-12-22T00:25:30Z</time></trkpt><trkpt lat="33.7660985" lon="132.7582437"><ele>224.75</ele><time>2024-12-22T00:25:42Z</time></trkpt><trkpt lat="33.7662776" lon="132.7583472"><ele>210.79333333333332</ele><time>2024-12-22T00:25:57Z</time></trkpt><trkpt lat="33.7663537" lon="132.7581067"><ele>201.29333333333338</ele><time>2024-12-22T00:26:24Z</time></trkpt><trkpt lat="33.7665215" lon="132.7579473"><ele>191.76999999999998</ele><time>2024-12-22T00:26:45Z</time></trkpt><trkpt lat="33.7667177" lon="132.757828"><ele>181.11333333333334</ele><time>2024-12-22T00:27:00Z</time></trkpt><trkpt lat="33.7668587" lon="132.7576238"><ele>174.25</ele><time>2024-12-22T00:27:15Z</time></trkpt><trkpt lat="33.7667604" lon="132.7578583"><ele>171.91666666666666</ele><time>2024-12-22T00:27:51Z</time></trkpt><trkpt lat="33.7666277" lon="132.7580303"><ele>173.22</ele><time>2024-12-22T00:28:06Z</time></trkpt><trkpt lat="33.76682" lon="132.7579995"><ele>173.83333333333334</ele><time>2024-12-22T00:28:18Z</time></trkpt><trkpt lat="33.7669336" lon="132.7578049"><ele>172.13000000000002</ele><time>2024-12-22T00:28:30Z</time></trkpt><trkpt lat="33.7670464" lon="132.7576111"><ele>166.88333333333335</ele><time>2024-12-22T00:28:41Z</time></trkpt><trkpt lat="33.7671239" lon="132.7574136"><ele>166.92666666666668</ele><time>2024-12-22T00:28:53Z</time></trkpt><trkpt lat="33.7672929" lon="132.7573336"><ele>167.4366666666667</ele><time>2024-12-22T00:29:19Z</time></trkpt><trkpt lat="33.7675012" lon="132.7572715"><ele>169.63</ele><time>2024-12-22T00:29:35Z</time></trkpt><trkpt lat="33.7676875" lon="132.7572924"><ele>165.53</ele><time>2024-12-22T00:29:52Z</time></trkpt><trkpt lat="33.7678359" lon="132.7571647"><ele>162.60333333333332</ele><time>2024-12-22T00:30:07Z</time></trkpt><trkpt lat="33.767994" lon="132.7570393"><ele>160.20666666666668</ele><time>2024-12-22T00:30:22Z</time></trkpt><trkpt lat="33.7682065" lon="132.7570354"><ele>158.6</ele><time>2024-12-22T00:30:37Z</time></trkpt><trkpt lat="33.7683932" lon="132.7570751"><ele>155.34</ele><time>2024-12-22T00:30:52Z</time></trkpt><trkpt lat="33.7685923" lon="132.7569671"><ele>152.71</ele><time>2024-12-22T00:31:07Z</time></trkpt><trkpt lat="33.7683953" lon="132.7570531"><ele>151.99</ele><time>2024-12-22T00:31:46Z</time></trkpt><trkpt lat="33.7682215" lon="132.7571235"><ele>152.6266666666667</ele><time>2024-12-22T00:31:58Z</time></trkpt><trkpt lat="33.7680295" lon="132.7572167"><ele>151.37</ele><time>2024-12-22T00:32:13Z</time></trkpt><trkpt lat="33.7681044" lon="132.7574265"><ele>147.70333333333335</ele><time>2024-12-22T00:32:28Z</time></trkpt><trkpt lat="33.76829" lon="132.7573414"><ele>143.85333333333332</ele><time>2024-12-22T00:32:40Z</time></trkpt><trkpt lat="33.768447" lon="132.7572189"><ele>141.6833333333333</ele><time>2024-12-22T00:32:52Z</time></trkpt><trkpt lat="33.7686319" lon="132.7571721"><ele>140.9</ele><time>2024-12-22T00:33:19Z</time></trkpt><trkpt lat="33.7688406" lon="132.7570943"><ele>140.9466666666667</ele><time>2024-12-22T00:33:34Z</time></trkpt><trkpt lat="33.7690602" lon="132.7570658"><ele>139.20000000000002</ele><time>2024-12-22T00:33:49Z</time></trkpt><trkpt lat="33.7692526" lon="132.7571446"><ele>137.01333333333335</ele><time>2024-12-22T00:34:04Z</time></trkpt><trkpt lat="33.7694482" lon="132.7572218"><ele>133.77666666666667</ele><time>2024-12-22T00:34:22Z</time></trkpt><trkpt lat="33.7696204" lon="132.757311"><ele>130.51666666666668</ele><time>2024-12-22T00:34:37Z</time></trkpt><trkpt lat="33.7698398" lon="132.7572752"><ele>127.20666666666666</ele><time>2024-12-22T00:34:55Z</time></trkpt><trkpt lat="33.7700293" lon="132.7572303"><ele>126.07333333333334</ele><time>2024-12-22T00:35:07Z</time></trkpt><trkpt lat="33.7702398" lon="132.75728"><ele>123.31666666666666</ele><time>2024-12-22T00:35:22Z</time></trkpt><trkpt lat="33.7704335" lon="132.7573711"><ele>119.92666666666666</ele><time>2024-12-22T00:35:37Z</time></trkpt><trkpt lat="33.7706225" lon="132.7574369"><ele>115.10666666666667</ele><time>2024-12-22T00:35:53Z</time></trkpt><trkpt lat="33.7708391" lon="132.7573872"><ele>110.91000000000001</ele><time>2024-12-22T00:36:09Z</time></trkpt><trkpt lat="33.7710435" lon="132.7572231"><ele>108.64333333333333</ele><time>2024-12-22T00:36:21Z</time></trkpt><trkpt lat="33.7712373" lon="132.7573012"><ele>105.03666666666668</ele><time>2024-12-22T00:36:36Z</time></trkpt><trkpt lat="33.7714266" lon="132.7573803"><ele>102.25666666666666</ele><time>2024-12-22T00:36:48Z</time></trkpt><trkpt lat="33.7715995" lon="132.7575316"><ele>97.37333333333333</ele><time>2024-12-22T00:37:32Z</time></trkpt><trkpt lat="33.7716651" lon="132.7577783"><ele>94.86000000000001</ele><time>2024-12-22T00:37:46Z</time></trkpt><trkpt lat="33.7717632" lon="132.7580004"><ele>93.27333333333333</ele><time>2024-12-22T00:38:04Z</time></trkpt><trkpt lat="33.7719078" lon="132.7581887"><ele>94.08666666666666</ele><time>2024-12-22T00:38:21Z</time></trkpt><trkpt lat="33.7720156" lon="132.7583931"><ele>94.25</ele><time>2024-12-22T00:38:37Z</time></trkpt><trkpt lat="33.7721973" lon="132.7585778"><ele>94.11666666666666</ele><time>2024-12-22T00:38:55Z</time></trkpt><trkpt lat="33.7723064" lon="132.7587675"><ele>93.59333333333332</ele><time>2024-12-22T00:39:08Z</time></trkpt><trkpt lat="33.772427" lon="132.7589694"><ele>94.05666666666666</ele><time>2024-12-22T00:39:23Z</time></trkpt><trkpt lat="33.7725638" lon="132.759127"><ele>93.96666666666665</ele><time>2024-12-22T00:39:38Z</time></trkpt><trkpt lat="33.7726783" lon="132.7593439"><ele>94.10000000000001</ele><time>2024-12-22T00:39:53Z</time></trkpt><trkpt lat="33.7727784" lon="132.7595332"><ele>93.70666666666666</ele><time>2024-12-22T00:40:05Z</time></trkpt><trkpt lat="33.7729501" lon="132.75964"><ele>92.98666666666668</ele><time>2024-12-22T00:40:20Z</time></trkpt><trkpt lat="33.773086" lon="132.75984"><ele>92.46</ele><time>2024-12-22T00:40:38Z</time></trkpt><trkpt lat="33.7732394" lon="132.7600175"><ele>91.36333333333334</ele><time>2024-12-22T00:40:53Z</time></trkpt><trkpt lat="33.7734245" lon="132.7601877"><ele>90.89333333333333</ele><time>2024-12-22T00:41:11Z</time></trkpt><trkpt lat="33.7735821" lon="132.7603046"><ele>90.10333333333334</ele><time>2024-12-22T00:41:26Z</time></trkpt><trkpt lat="33.7736679" lon="132.760508"><ele>89.99000000000001</ele><time>2024-12-22T00:41:38Z</time></trkpt><trkpt lat="33.7738186" lon="132.7607057"><ele>90.19666666666667</ele><time>2024-12-22T00:41:53Z</time></trkpt><trkpt lat="33.7739754" lon="132.7608795"><ele>90.54666666666667</ele><time>2024-12-22T00:42:11Z</time></trkpt><trkpt lat="33.7740793" lon="132.7610728"><ele>90.91333333333334</ele><time>2024-12-22T00:42:23Z</time></trkpt><trkpt lat="33.7742669" lon="132.7609574"><ele>90.39333333333333</ele><time>2024-12-22T00:42:29Z</time></trkpt><trkpt lat="33.7742947" lon="132.7612411"><ele>90.08</ele><time>2024-12-22T00:42:44Z</time></trkpt><trkpt lat="33.7743322" lon="132.7614685"><ele>88.89333333333333</ele><time>2024-12-22T00:43:02Z</time></trkpt><trkpt lat="33.7745123" lon="132.7616164"><ele>88.24000000000001</ele><time>2024-12-22T00:43:17Z</time></trkpt><trkpt lat="33.7746634" lon="132.7617698"><ele>87.56333333333335</ele><time>2024-12-22T00:43:32Z</time></trkpt><trkpt lat="33.7748497" lon="132.7618818"><ele>87.55</ele><time>2024-12-22T00:43:47Z</time></trkpt><trkpt lat="33.7750576" lon="132.7619388"><ele>86.85666666666667</ele><time>2024-12-22T00:44:03Z</time></trkpt><trkpt lat="33.775224" lon="132.7620832"><ele>85.91333333333334</ele><time>2024-12-22T00:44:19Z</time></trkpt><trkpt lat="33.7754137" lon="132.762098"><ele>84.14666666666666</ele><time>2024-12-22T00:44:34Z</time></trkpt><trkpt lat="33.7756122" lon="132.7621496"><ele>83.21333333333332</ele><time>2024-12-22T00:44:55Z</time></trkpt><trkpt lat="33.775823" lon="132.762102"><ele>81.45333333333333</ele><time>2024-12-22T00:45:24Z</time></trkpt><trkpt lat="33.7759606" lon="132.7619448"><ele>79.34333333333333</ele><time>2024-12-22T00:45:39Z</time></trkpt><trkpt lat="33.7761414" lon="132.7620169"><ele>78.03333333333333</ele><time>2024-12-22T00:46:06Z</time></trkpt><trkpt lat="33.7763471" lon="132.7620094"><ele>77.33</ele><time>2024-12-22T00:46:22Z</time></trkpt><trkpt lat="33.7765206" lon="132.7620748"><ele>77.06333333333333</ele><time>2024-12-22T00:46:34Z</time></trkpt><trkpt lat="33.776724" lon="132.7621692"><ele>76.97000000000001</ele><time>2024-12-22T00:46:52Z</time></trkpt><trkpt lat="33.7769064" lon="132.7621856"><ele>77.11666666666667</ele><time>2024-12-22T00:47:16Z</time></trkpt><trkpt lat="33.7771038" lon="132.7622405"><ele>76.45</ele><time>2024-12-22T00:47:31Z</time></trkpt><trkpt lat="33.7772987" lon="132.7622905"><ele>73.24333333333334</ele><time>2024-12-22T00:47:46Z</time></trkpt><trkpt lat="33.7775036" lon="132.7623406"><ele>69.55666666666667</ele><time>2024-12-22T00:48:01Z</time></trkpt><trkpt lat="33.7777015" lon="132.7624078"><ele>66.48</ele><time>2024-12-22T00:48:16Z</time></trkpt><trkpt lat="33.777884" lon="132.7624251"><ele>64.31333333333333</ele><time>2024-12-22T00:48:37Z</time></trkpt><trkpt lat="33.7780599" lon="132.7625028"><ele>62.25666666666666</ele><time>2024-12-22T00:49:19Z</time></trkpt><trkpt lat="33.7782542" lon="132.7625347"><ele>60.30666666666667</ele><time>2024-12-22T00:49:31Z</time></trkpt><trkpt lat="33.7784465" lon="132.7625589"><ele>59.85999999999999</ele><time>2024-12-22T00:49:43Z</time></trkpt><trkpt lat="33.7786613" lon="132.762605"><ele>60.63333333333333</ele><time>2024-12-22T00:49:58Z</time></trkpt><trkpt lat="33.7788508" lon="132.7626245"><ele>62.47666666666667</ele><time>2024-12-22T00:50:13Z</time></trkpt><trkpt lat="33.7790499" lon="132.7626719"><ele>63.81333333333333</ele><time>2024-12-22T00:50:28Z</time></trkpt><trkpt lat="33.7792479" lon="132.7627765"><ele>63.973333333333336</ele><time>2024-12-22T00:50:45Z</time></trkpt><trkpt lat="33.7794065" lon="132.7628992"><ele>63.64666666666667</ele><time>2024-12-22T00:51:00Z</time></trkpt><trkpt lat="33.7795866" lon="132.7630163"><ele>64.60333333333334</ele><time>2024-12-22T00:51:18Z</time></trkpt><trkpt lat="33.7797585" lon="132.7631187"><ele>66.56333333333333</ele><time>2024-12-22T00:51:33Z</time></trkpt><trkpt lat="33.7799497" lon="132.7631818"><ele>68.56333333333333</ele><time>2024-12-22T00:51:48Z</time></trkpt><trkpt lat="33.780141" lon="132.7632734"><ele>69.20333333333333</ele><time>2024-12-22T00:52:04Z</time></trkpt><trkpt lat="33.780317" lon="132.7633937"><ele>67.58333333333334</ele><time>2024-12-22T00:52:19Z</time></trkpt><trkpt lat="33.7804872" lon="132.7634908"><ele>65.01</ele><time>2024-12-22T00:52:34Z</time></trkpt><trkpt lat="33.7806655" lon="132.7635795"><ele>61.56333333333333</ele><time>2024-12-22T00:52:48Z</time></trkpt><trkpt lat="33.7808438" lon="132.7637267"><ele>59.39666666666667</ele><time>2024-12-22T00:53:04Z</time></trkpt><trkpt lat="33.7809984" lon="132.7638861"><ele>57.75666666666667</ele><time>2024-12-22T00:53:19Z</time></trkpt><trkpt lat="33.7811817" lon="132.764037"><ele>57.14000000000001</ele><time>2024-12-22T00:53:38Z</time></trkpt><trkpt lat="33.781369" lon="132.7641786"><ele>57.34666666666667</ele><time>2024-12-22T00:53:53Z</time></trkpt><trkpt lat="33.7815083" lon="132.7643283"><ele>58.49</ele><time>2024-12-22T00:54:08Z</time></trkpt><trkpt lat="33.7816664" lon="132.7644831"><ele>59.046666666666674</ele><time>2024-12-22T00:54:23Z</time></trkpt><trkpt lat="33.7818277" lon="132.7645924"><ele>58.51666666666667</ele><time>2024-12-22T00:54:41Z</time></trkpt></trkseg></trk></gpx>