<?xml version='1.0' encoding='UTF-8'?><gpx creator="YAMAP - https://yamap.com" xsi:schemaLocation="http://www.topografix.com/GPX/1/1 http://www.topografix.com/GPX/1/1/gpx.xsd" version="1.1" xmlns="http://www.topografix.com/GPX/1/1" xmlns:xsi="http://www.w3.org/2001/XMLSchema-instance"><metadata><bounds maxlat="34.0164394" maxlon="133.0205378" minlat="34.0105612" minlon="133.012875"/></metadata><trk><name>霊仙山</name><number>1</number><trkseg><trkpt lat="34.0119776" lon="133.0130012"><ele>18.89</ele><time>2025-02-24T01:12:39Z</time></trkpt><trkpt lat="34.011882" lon="133.0132074"><ele>19.095</ele><time>2025-02-24T01:13:28Z</time></trkpt><trkpt lat="34.0117866" lon="133.0133991"><ele>19.203333333333333</ele><time>2025-02-24T01:13:51Z</time></trkpt><trkpt lat="34.0117493" lon="133.0136571"><ele>19.436666666666667</ele><time>2025-02-24T01:14:09Z</time></trkpt><trkpt lat="34.0116475" lon="133.0138495"><ele>19.71666666666667</ele><time>2025-02-24T01:14:21Z</time></trkpt><trkpt lat="34.0115431" lon="133.0140723"><ele>21.153333333333336</ele><time>2025-02-24T01:14:36Z</time></trkpt><trkpt lat="34.011518" lon="133.0143181"><ele>23.960000000000004</ele><time>2025-02-24T01:14:54Z</time></trkpt><trkpt lat="34.0116743" lon="133.0144429"><ele>26.87</ele><time>2025-02-24T01:15:18Z</time></trkpt><trkpt lat="34.0118465" lon="133.0145112"><ele>28.076666666666668</ele><time>2025-02-24T01:15:30Z</time></trkpt><trkpt lat="34.0119963" lon="133.0146799"><ele>28.09</ele><time>2025-02-24T01:15:43Z</time></trkpt><trkpt lat="34.0121679" lon="133.0147648"><ele>28.180000000000003</ele><time>2025-02-24T01:15:55Z</time></trkpt><trkpt lat="34.0122838" lon="133.0149484"><ele>29.97</ele><time>2025-02-24T01:16:19Z</time></trkpt><trkpt lat="34.0123263" lon="133.0147148"><ele>31.570000000000004</ele><time>2025-02-24T01:16:30Z</time></trkpt><trkpt lat="34.0124586" lon="133.0149028"><ele>34.75666666666667</ele><time>2025-02-24T01:16:55Z</time></trkpt><trkpt lat="34.0122641" lon="133.0149258"><ele>34.75666666666667</ele><time>2025-02-24T01:17:39Z</time></trkpt><trkpt lat="34.0120853" lon="133.0150322"><ele>36.17333333333334</ele><time>2025-02-24T01:17:58Z</time></trkpt><trkpt lat="34.0122464" lon="133.0151543"><ele>36.199999999999996</ele><time>2025-02-24T01:18:17Z</time></trkpt><trkpt lat="34.012332" lon="133.0153946"><ele>39.42666666666667</ele><time>2025-02-24T01:18:45Z</time></trkpt><trkpt lat="34.0124689" lon="133.0156059"><ele>43.45000000000001</ele><time>2025-02-24T01:19:15Z</time></trkpt><trkpt lat="34.0125847" lon="133.0158035"><ele>49.25666666666666</ele><time>2025-02-24T01:19:33Z</time></trkpt><trkpt lat="34.0126282" lon="133.0160469"><ele>55.96333333333334</ele><time>2025-02-24T01:19:55Z</time></trkpt><trkpt lat="34.0126752" lon="133.0162595"><ele>61.31333333333333</ele><time>2025-02-24T01:20:22Z</time></trkpt><trkpt lat="34.0127959" lon="133.0164345"><ele>66.49666666666667</ele><time>2025-02-24T01:22:03Z</time></trkpt><trkpt lat="34.0129371" lon="133.0166248"><ele>70.14666666666666</ele><time>2025-02-24T01:22:46Z</time></trkpt><trkpt lat="34.0130188" lon="133.0168519"><ele>74.00666666666666</ele><time>2025-02-24T01:23:01Z</time></trkpt><trkpt lat="34.0129023" lon="133.0170561"><ele>78.93333333333332</ele><time>2025-02-24T01:23:12Z</time></trkpt><trkpt lat="34.0129618" lon="133.0172839"><ele>84.67</ele><time>2025-02-24T01:23:39Z</time></trkpt><trkpt lat="34.0127667" lon="133.017253"><ele>89.37666666666667</ele><time>2025-02-24T01:24:10Z</time></trkpt><trkpt lat="34.012676" lon="133.0175442"><ele>91.15333333333335</ele><time>2025-02-24T01:24:21Z</time></trkpt><trkpt lat="34.0124991" lon="133.0175908"><ele>92.39333333333333</ele><time>2025-02-24T01:24:36Z</time></trkpt><trkpt lat="34.0123277" lon="133.0175081"><ele>93.69</ele><time>2025-02-24T01:25:18Z</time></trkpt><trkpt lat="34.0121924" lon="133.0176599"><ele>96.73333333333335</ele><time>2025-02-24T01:25:52Z</time></trkpt><trkpt lat="34.0120683" lon="133.0178359"><ele>100.99666666666667</ele><time>2025-02-24T01:26:12Z</time></trkpt><trkpt lat="34.011889" lon="133.017907"><ele>106.70333333333333</ele><time>2025-02-24T01:27:11Z</time></trkpt><trkpt lat="34.0117949" lon="133.0181134"><ele>110.99333333333334</ele><time>2025-02-24T01:27:36Z</time></trkpt><trkpt lat="34.0118548" lon="133.0183298"><ele>113.40666666666668</ele><time>2025-02-24T01:27:51Z</time></trkpt><trkpt lat="34.0117734" lon="133.0185453"><ele>115.50333333333333</ele><time>2025-02-24T01:28:15Z</time></trkpt><trkpt lat="34.0119177" lon="133.018686"><ele>118.05</ele><time>2025-02-24T01:28:32Z</time></trkpt><trkpt lat="34.0120985" lon="133.0186645"><ele>120.18333333333334</ele><time>2025-02-24T01:28:51Z</time></trkpt><trkpt lat="34.0121916" lon="133.0188698"><ele>120.32</ele><time>2025-02-24T01:29:12Z</time></trkpt><trkpt lat="34.012027" lon="133.0190555"><ele>120.83333333333333</ele><time>2025-02-24T01:29:31Z</time></trkpt><trkpt lat="34.011904" lon="133.0192466"><ele>121.44000000000001</ele><time>2025-02-24T01:29:42Z</time></trkpt><trkpt lat="34.0118473" lon="133.0194528"><ele>122.61666666666667</ele><time>2025-02-24T01:29:57Z</time></trkpt><trkpt lat="34.0117338" lon="133.0196551"><ele>123.34666666666668</ele><time>2025-02-24T01:30:19Z</time></trkpt><trkpt lat="34.0117927" lon="133.0198825"><ele>122.73</ele><time>2025-02-24T01:30:34Z</time></trkpt><trkpt lat="34.0115937" lon="133.0199785"><ele>122.68333333333334</ele><time>2025-02-24T01:30:52Z</time></trkpt><trkpt lat="34.011402" lon="133.0199336"><ele>125.14666666666666</ele><time>2025-02-24T01:31:14Z</time></trkpt><trkpt lat="34.0112309" lon="133.0200529"><ele>130.82666666666668</ele><time>2025-02-24T01:31:39Z</time></trkpt><trkpt lat="34.0110294" lon="133.0200961"><ele>138.55</ele><time>2025-02-24T01:32:27Z</time></trkpt><trkpt lat="34.010869" lon="133.0202122"><ele>144.35</ele><time>2025-02-24T01:32:57Z</time></trkpt><trkpt lat="34.0107066" lon="133.0203755"><ele>149.73333333333335</ele><time>2025-02-24T01:33:27Z</time></trkpt><trkpt lat="34.01057" lon="133.0205378"><ele>151.49333333333334</ele><time>2025-02-24T01:33:45Z</time></trkpt><trkpt lat="34.0105612" lon="133.0203144"><ele>152.43333333333337</ele><time>2025-02-24T01:36:09Z</time></trkpt><trkpt lat="34.0107735" lon="133.0203469"><ele>151.56333333333333</ele><time>2025-02-24T01:36:38Z</time></trkpt><trkpt lat="34.0109636" lon="133.0202896"><ele>150.07000000000002</ele><time>2025-02-24T01:40:46Z</time></trkpt><trkpt lat="34.0111227" lon="133.0201602"><ele>145.36333333333334</ele><time>2025-02-24T01:41:28Z</time></trkpt><trkpt lat="34.0113088" lon="133.0201026"><ele>139.27666666666667</ele><time>2025-02-24T01:41:43Z</time></trkpt><trkpt lat="34.0114711" lon="133.0200003"><ele>133.22333333333333</ele><time>2025-02-24T01:41:58Z</time></trkpt><trkpt lat="34.0115932" lon="133.0197799"><ele>129.51666666666668</ele><time>2025-02-24T01:42:13Z</time></trkpt><trkpt lat="34.0117666" lon="133.0196327"><ele>126.12666666666667</ele><time>2025-02-24T01:42:31Z</time></trkpt><trkpt lat="34.0119147" lon="133.0194848"><ele>122.47666666666667</ele><time>2025-02-24T01:42:49Z</time></trkpt><trkpt lat="34.0120527" lon="133.0193225"><ele>118.09333333333332</ele><time>2025-02-24T01:43:07Z</time></trkpt><trkpt lat="34.0120975" lon="133.019112"><ele>118.07</ele><time>2025-02-24T01:43:31Z</time></trkpt><trkpt lat="34.0122487" lon="133.0192313"><ele>117.37333333333333</ele><time>2025-02-24T01:43:58Z</time></trkpt><trkpt lat="34.0123847" lon="133.0193798"><ele>114.85666666666668</ele><time>2025-02-24T01:44:21Z</time></trkpt><trkpt lat="34.0125961" lon="133.0193495"><ele>109.18</ele><time>2025-02-24T01:44:52Z</time></trkpt><trkpt lat="34.0127863" lon="133.0193117"><ele>102.27666666666666</ele><time>2025-02-24T01:45:49Z</time></trkpt><trkpt lat="34.0129553" lon="133.0192289"><ele>96.58</ele><time>2025-02-24T01:46:07Z</time></trkpt><trkpt lat="34.0131131" lon="133.0191146"><ele>90.99333333333334</ele><time>2025-02-24T01:46:19Z</time></trkpt><trkpt lat="34.0133105" lon="133.0191089"><ele>90.15666666666668</ele><time>2025-02-24T01:46:36Z</time></trkpt><trkpt lat="34.0134624" lon="133.0189264"><ele>90.47000000000001</ele><time>2025-02-24T01:47:19Z</time></trkpt><trkpt lat="34.0135477" lon="133.0187017"><ele>89.45333333333333</ele><time>2025-02-24T01:47:48Z</time></trkpt><trkpt lat="34.0136477" lon="133.0184863"><ele>85.24333333333334</ele><time>2025-02-24T01:48:05Z</time></trkpt><trkpt lat="34.0138334" lon="133.0184885"><ele>79.07666666666667</ele><time>2025-02-24T01:48:19Z</time></trkpt><trkpt lat="34.0138044" lon="133.0182353"><ele>72.89</ele><time>2025-02-24T01:48:31Z</time></trkpt><trkpt lat="34.0138676" lon="133.0180229"><ele>67.17</ele><time>2025-02-24T01:48:46Z</time></trkpt><trkpt lat="34.0140217" lon="133.0178454"><ele>62.52</ele><time>2025-02-24T01:49:19Z</time></trkpt><trkpt lat="34.0141365" lon="133.0176308"><ele>58.70000000000001</ele><time>2025-02-24T01:49:40Z</time></trkpt><trkpt lat="34.0141329" lon="133.0174088"><ele>55.57333333333333</ele><time>2025-02-24T01:49:55Z</time></trkpt><trkpt lat="34.0142924" lon="133.0172849"><ele>52.11000000000001</ele><time>2025-02-24T01:50:16Z</time></trkpt><trkpt lat="34.0144985" lon="133.0172704"><ele>48.10333333333333</ele><time>2025-02-24T01:50:37Z</time></trkpt><trkpt lat="34.0143468" lon="133.0171523"><ele>45.68666666666667</ele><time>2025-02-24T01:51:07Z</time></trkpt><trkpt lat="34.0145016" lon="133.0170355"><ele>43.22666666666667</ele><time>2025-02-24T01:52:37Z</time></trkpt><trkpt lat="34.0146851" lon="133.0170983"><ele>40.943333333333335</ele><time>2025-02-24T01:54:14Z</time></trkpt><trkpt lat="34.0148471" lon="133.0172097"><ele>37.77666666666667</ele><time>2025-02-24T01:54:38Z</time></trkpt><trkpt lat="34.0150506" lon="133.0170698"><ele>34.906666666666666</ele><time>2025-02-24T01:54:55Z</time></trkpt><trkpt lat="34.0152449" lon="133.0170092"><ele>32.5</ele><time>2025-02-24T01:55:07Z</time></trkpt><trkpt lat="34.0154393" lon="133.0169832"><ele>29.790000000000003</ele><time>2025-02-24T01:55:19Z</time></trkpt><trkpt lat="34.0156476" lon="133.0170075"><ele>27.850000000000005</ele><time>2025-02-24T01:55:37Z</time></trkpt><trkpt lat="34.0158317" lon="133.0169674"><ele>25.72</ele><time>2025-02-24T01:55:52Z</time></trkpt><trkpt lat="34.0160267" lon="133.0169502"><ele>23.856666666666666</ele><time>2025-02-24T01:56:06Z</time></trkpt><trkpt lat="34.0162095" lon="133.0168752"><ele>21.69333333333333</ele><time>2025-02-24T01:56:19Z</time></trkpt><trkpt lat="34.0163042" lon="133.0166373"><ele>20.19666666666667</ele><time>2025-02-24T01:56:40Z</time></trkpt><trkpt lat="34.0164121" lon="133.0164338"><ele>18.81</ele><time>2025-02-24T01:56:55Z</time></trkpt><trkpt lat="34.0163576" lon="133.0162109"><ele>18.22</ele><time>2025-02-24T01:57:10Z</time></trkpt><trkpt lat="34.0164394" lon="133.0159944"><ele>17.5</ele><time>2025-02-24T01:57:25Z</time></trkpt><trkpt lat="34.0163441" lon="133.0157618"><ele>16.943333333333335</ele><time>2025-02-24T01:57:47Z</time></trkpt><trkpt lat="34.0161777" lon="133.0156218"><ele>16.61</ele><time>2025-02-24T01:58:03Z</time></trkpt><trkpt lat="34.0160277" lon="133.0154282"><ele>16.903333333333332</ele><time>2025-02-24T01:58:18Z</time></trkpt><trkpt lat="34.0159991" lon="133.0152034"><ele>17.05333333333333</ele><time>2025-02-24T01:58:33Z</time></trkpt><trkpt lat="34.0159595" lon="133.0149913"><ele>16.69</ele><time>2025-02-24T01:58:52Z</time></trkpt><trkpt lat="34.0158492" lon="133.0148045"><ele>16.396666666666665</ele><time>2025-02-24T01:59:21Z</time></trkpt><trkpt lat="34.0156794" lon="133.0146689"><ele>16.783333333333335</ele><time>2025-02-24T01:59:37Z</time></trkpt><trkpt lat="34.01549" lon="133.0145433"><ele>17.533333333333335</ele><time>2025-02-24T01:59:55Z</time></trkpt><trkpt lat="34.0153333" lon="133.014422"><ele>17.906666666666666</ele><time>2025-02-24T02:00:10Z</time></trkpt><trkpt lat="34.0151406" lon="133.0143984"><ele>18.426666666666666</ele><time>2025-02-24T02:00:25Z</time></trkpt><trkpt lat="34.0149572" lon="133.0143253"><ele>18.92</ele><time>2025-02-24T02:00:40Z</time></trkpt><trkpt lat="34.0147778" lon="133.01427"><ele>19.31</ele><time>2025-02-24T02:00:55Z</time></trkpt><trkpt lat="34.0145882" lon="133.0141861"><ele>19.336666666666666</ele><time>2025-02-24T02:01:12Z</time></trkpt><trkpt lat="34.0144" lon="133.0140835"><ele>19.14</ele><time>2025-02-24T02:01:28Z</time></trkpt><trkpt lat="34.0142288" lon="133.013989"><ele>18.96</ele><time>2025-02-24T02:01:43Z</time></trkpt><trkpt lat="34.0140683" lon="133.0138452"><ele>18.33666666666667</ele><time>2025-02-24T02:02:01Z</time></trkpt><trkpt lat="34.0139147" lon="133.0137231"><ele>17.706666666666667</ele><time>2025-02-24T02:02:16Z</time></trkpt><trkpt lat="34.0137571" lon="133.0135647"><ele>16.893333333333334</ele><time>2025-02-24T02:02:31Z</time></trkpt><trkpt lat="34.0135784" lon="133.0134752"><ele>16.49</ele><time>2025-02-24T02:02:46Z</time></trkpt><trkpt lat="34.0133951" lon="133.0134619"><ele>16.476666666666667</ele><time>2025-02-24T02:02:58Z</time></trkpt><trkpt lat="34.0132148" lon="133.0133213"><ele>16.72666666666667</ele><time>2025-02-24T02:03:13Z</time></trkpt><trkpt lat="34.0130649" lon="133.0131606"><ele>16.926666666666666</ele><time>2025-02-24T02:03:28Z</time></trkpt><trkpt lat="34.0128528" lon="133.0131132"><ele>17.033333333333335</ele><time>2025-02-24T02:03:43Z</time></trkpt><trkpt lat="34.0126547" lon="133.0131383"><ele>17.27</ele><time>2025-02-24T02:04:01Z</time></trkpt><trkpt lat="34.0125223" lon="133.0129838"><ele>17.383333333333333</ele><time>2025-02-24T02:04:16Z</time></trkpt><trkpt lat="34.0123211" lon="133.0128788"><ele>17.55</ele><time>2025-02-24T02:04:31Z</time></trkpt><trkpt lat="34.0121372" lon="133.012875"><ele>17.763333333333335</ele><time>2025-02-24T02:04:43Z</time></trkpt><trkpt lat="34.0119694" lon="133.0129998"><ele>18.423333333333332</ele><time>2025-02-24T02:05:04Z</time></trkpt></trkseg></trk></gpx>