<?xml version='1.0' encoding='UTF-8'?><gpx creator="YAMAP - https://yamap.com" xsi:schemaLocation="http://www.topografix.com/GPX/1/1 http://www.topografix.com/GPX/1/1/gpx.xsd" version="1.1" xmlns="http://www.topografix.com/GPX/1/1" xmlns:xsi="http://www.w3.org/2001/XMLSchema-instance"><metadata><bounds maxlat="33.8399289" maxlon="133.431531" minlat="33.8334884" minlon="133.3991603"/></metadata><trk><name>東光森山・別子山</name><number>1</number><trkseg><trkpt lat="33.8334884" lon="133.3992308"><ele>1106.3600000000001</ele><time>2025-09-26T21:52:58Z</time></trkpt><trkpt lat="33.8336256" lon="133.3993806"><ele>1107.3200000000002</ele><time>2025-09-26T21:54:47Z</time></trkpt><trkpt lat="33.8338074" lon="133.3993988"><ele>1108.5133333333335</ele><time>2025-09-26T21:55:52Z</time></trkpt><trkpt lat="33.8339772" lon="133.3995015"><ele>1110.1166666666668</ele><time>2025-09-26T21:56:28Z</time></trkpt><trkpt lat="33.8341523" lon="133.3995837"><ele>1111.8733333333332</ele><time>2025-09-26T21:58:45Z</time></trkpt><trkpt lat="33.8342736" lon="133.3997498"><ele>1115.6000000000001</ele><time>2025-09-26T22:00:57Z</time></trkpt><trkpt lat="33.8343992" lon="133.3999053"><ele>1122.6499999999999</ele><time>2025-09-26T22:01:39Z</time></trkpt><trkpt lat="33.8345003" lon="133.4000878"><ele>1133.0433333333333</ele><time>2025-09-26T22:02:33Z</time></trkpt><trkpt lat="33.8346597" lon="133.400211"><ele>1143.95</ele><time>2025-09-26T22:03:09Z</time></trkpt><trkpt lat="33.8348251" lon="133.4003019"><ele>1154.2766666666666</ele><time>2025-09-26T22:04:03Z</time></trkpt><trkpt lat="33.8349875" lon="133.4004153"><ele>1163.1466666666665</ele><time>2025-09-26T22:05:33Z</time></trkpt><trkpt lat="33.8351673" lon="133.4004584"><ele>1172.5233333333333</ele><time>2025-09-26T22:10:30Z</time></trkpt><trkpt lat="33.8353489" lon="133.4004983"><ele>1183.3033333333333</ele><time>2025-09-26T22:11:20Z</time></trkpt><trkpt lat="33.8355096" lon="133.4005996"><ele>1194.9966666666667</ele><time>2025-09-26T22:13:05Z</time></trkpt><trkpt lat="33.8356902" lon="133.4005935"><ele>1205.0433333333333</ele><time>2025-09-26T22:14:29Z</time></trkpt><trkpt lat="33.835857" lon="133.400679"><ele>1214.0266666666666</ele><time>2025-09-26T22:16:35Z</time></trkpt><trkpt lat="33.8360256" lon="133.400598"><ele>1220.2833333333333</ele><time>2025-09-26T22:17:56Z</time></trkpt><trkpt lat="33.8361942" lon="133.4006798"><ele>1225.5033333333333</ele><time>2025-09-26T22:19:17Z</time></trkpt><trkpt lat="33.8362862" lon="133.4008663"><ele>1230.49</ele><time>2025-09-26T22:20:14Z</time></trkpt><trkpt lat="33.8364449" lon="133.4009766"><ele>1238.1766666666665</ele><time>2025-09-26T22:21:08Z</time></trkpt><trkpt lat="33.8365079" lon="133.4012111"><ele>1245.7</ele><time>2025-09-26T22:22:02Z</time></trkpt><trkpt lat="33.8365596" lon="133.4014387"><ele>1249.7333333333333</ele><time>2025-09-26T22:22:23Z</time></trkpt><trkpt lat="33.8365374" lon="133.401675"><ele>1247.9366666666667</ele><time>2025-09-26T22:22:50Z</time></trkpt><trkpt lat="33.8365113" lon="133.401889"><ele>1244.93</ele><time>2025-09-26T22:23:23Z</time></trkpt><trkpt lat="33.8365784" lon="133.402091"><ele>1244.3100000000002</ele><time>2025-09-26T22:23:49Z</time></trkpt><trkpt lat="33.836579" lon="133.4023194"><ele>1247.8266666666666</ele><time>2025-09-26T22:24:31Z</time></trkpt><trkpt lat="33.8365426" lon="133.4025384"><ele>1253.9966666666667</ele><time>2025-09-26T22:25:43Z</time></trkpt><trkpt lat="33.8365176" lon="133.4027667"><ele>1259.9033333333334</ele><time>2025-09-26T22:26:28Z</time></trkpt><trkpt lat="33.8364737" lon="133.402979"><ele>1265.4933333333336</ele><time>2025-09-26T22:27:07Z</time></trkpt><trkpt lat="33.8365303" lon="133.4031876"><ele>1269.14</ele><time>2025-09-26T22:27:34Z</time></trkpt><trkpt lat="33.8365981" lon="133.4034107"><ele>1271.2066666666667</ele><time>2025-09-26T22:27:58Z</time></trkpt><trkpt lat="33.8367026" lon="133.4035972"><ele>1271.6466666666668</ele><time>2025-09-26T22:28:48Z</time></trkpt><trkpt lat="33.8366704" lon="133.4038213"><ele>1271.34</ele><time>2025-09-26T22:29:09Z</time></trkpt><trkpt lat="33.8366396" lon="133.404048"><ele>1270.8799999999999</ele><time>2025-09-26T22:29:33Z</time></trkpt><trkpt lat="33.8366271" lon="133.4042781"><ele>1268.6566666666665</ele><time>2025-09-26T22:30:21Z</time></trkpt><trkpt lat="33.8366728" lon="133.4045133"><ele>1266.8466666666666</ele><time>2025-09-26T22:30:54Z</time></trkpt><trkpt lat="33.8366615" lon="133.4047344"><ele>1264.8933333333334</ele><time>2025-09-26T22:31:57Z</time></trkpt><trkpt lat="33.8366128" lon="133.4049432"><ele>1264.4766666666667</ele><time>2025-09-26T22:32:30Z</time></trkpt><trkpt lat="33.8365759" lon="133.4051739"><ele>1263.61</ele><time>2025-09-26T22:33:00Z</time></trkpt><trkpt lat="33.8364613" lon="133.405367"><ele>1262.4666666666665</ele><time>2025-09-26T22:33:23Z</time></trkpt><trkpt lat="33.8363371" lon="133.4055448"><ele>1259.5666666666666</ele><time>2025-09-26T22:33:50Z</time></trkpt><trkpt lat="33.8362759" lon="133.4057552"><ele>1255.6233333333332</ele><time>2025-09-26T22:34:26Z</time></trkpt><trkpt lat="33.8362593" lon="133.4059877"><ele>1246.6299999999999</ele><time>2025-09-26T22:35:05Z</time></trkpt><trkpt lat="33.8363124" lon="133.4062077"><ele>1239.3100000000002</ele><time>2025-09-26T22:35:59Z</time></trkpt><trkpt lat="33.8364386" lon="133.4063952"><ele>1233.74</ele><time>2025-09-26T22:36:26Z</time></trkpt><trkpt lat="33.8364495" lon="133.4066383"><ele>1233.3</ele><time>2025-09-26T22:37:01Z</time></trkpt><trkpt lat="33.8364656" lon="133.4068805"><ele>1232.6733333333334</ele><time>2025-09-26T22:37:40Z</time></trkpt><trkpt lat="33.8366063" lon="133.4070342"><ele>1230.2733333333333</ele><time>2025-09-26T22:38:16Z</time></trkpt><trkpt lat="33.8367309" lon="133.4071953"><ele>1226.3633333333335</ele><time>2025-09-26T22:38:52Z</time></trkpt><trkpt lat="33.8368896" lon="133.407302"><ele>1221.7866666666666</ele><time>2025-09-26T22:39:22Z</time></trkpt><trkpt lat="33.8370049" lon="133.4074893"><ele>1217.0833333333333</ele><time>2025-09-26T22:39:58Z</time></trkpt><trkpt lat="33.8371752" lon="133.4075964"><ele>1213.3799999999999</ele><time>2025-09-26T22:40:25Z</time></trkpt><trkpt lat="33.8373208" lon="133.4077597"><ele>1209.7433333333333</ele><time>2025-09-26T22:41:01Z</time></trkpt><trkpt lat="33.8374191" lon="133.4079562"><ele>1206.5366666666666</ele><time>2025-09-26T22:41:30Z</time></trkpt><trkpt lat="33.8374611" lon="133.4081826"><ele>1203.93</ele><time>2025-09-26T22:41:57Z</time></trkpt><trkpt lat="33.8376131" lon="133.4083234"><ele>1203.76</ele><time>2025-09-26T22:42:33Z</time></trkpt><trkpt lat="33.837706" lon="133.4085129"><ele>1205.67</ele><time>2025-09-26T22:43:03Z</time></trkpt><trkpt lat="33.8377772" lon="133.4087251"><ele>1208.91</ele><time>2025-09-26T22:45:15Z</time></trkpt><trkpt lat="33.8377822" lon="133.4089599"><ele>1212.2266666666667</ele><time>2025-09-26T22:46:21Z</time></trkpt><trkpt lat="33.8378141" lon="133.4091785"><ele>1215.0466666666666</ele><time>2025-09-26T22:47:03Z</time></trkpt><trkpt lat="33.8378231" lon="133.4094039"><ele>1217.0633333333335</ele><time>2025-09-26T22:47:27Z</time></trkpt><trkpt lat="33.8379405" lon="133.4096136"><ele>1220.1133333333335</ele><time>2025-09-26T22:47:54Z</time></trkpt><trkpt lat="33.8379939" lon="133.4098245"><ele>1223.7233333333334</ele><time>2025-09-26T22:48:15Z</time></trkpt><trkpt lat="33.8381027" lon="133.4100098"><ele>1227.7099999999998</ele><time>2025-09-26T22:48:42Z</time></trkpt><trkpt lat="33.8382595" lon="133.4101564"><ele>1230.3566666666666</ele><time>2025-09-26T22:49:06Z</time></trkpt><trkpt lat="33.83841" lon="133.4102963"><ele>1232.5866666666666</ele><time>2025-09-26T22:50:09Z</time></trkpt><trkpt lat="33.8385246" lon="133.4104741"><ele>1234.8733333333332</ele><time>2025-09-26T22:50:42Z</time></trkpt><trkpt lat="33.8386404" lon="133.4106499"><ele>1237.7066666666667</ele><time>2025-09-26T22:51:36Z</time></trkpt><trkpt lat="33.83876" lon="133.4108376"><ele>1242.4566666666667</ele><time>2025-09-26T22:52:18Z</time></trkpt><trkpt lat="33.8388504" lon="133.4110353"><ele>1250.1699999999998</ele><time>2025-09-26T22:53:00Z</time></trkpt><trkpt lat="33.8389413" lon="133.4112354"><ele>1258.3966666666668</ele><time>2025-09-26T22:53:50Z</time></trkpt><trkpt lat="33.8390571" lon="133.4114208"><ele>1266.1566666666668</ele><time>2025-09-26T22:54:44Z</time></trkpt><trkpt lat="33.8391051" lon="133.411648"><ele>1274.5133333333333</ele><time>2025-09-26T22:55:41Z</time></trkpt><trkpt lat="33.8391247" lon="133.411865"><ele>1283.43</ele><time>2025-09-26T23:04:14Z</time></trkpt><trkpt lat="33.8391765" lon="133.4120804"><ele>1295.1166666666668</ele><time>2025-09-26T23:05:44Z</time></trkpt><trkpt lat="33.839216" lon="133.4123056"><ele>1309.3033333333335</ele><time>2025-09-26T23:07:05Z</time></trkpt><trkpt lat="33.8392703" lon="133.4125294"><ele>1323.6533333333334</ele><time>2025-09-26T23:09:20Z</time></trkpt><trkpt lat="33.8393183" lon="133.412742"><ele>1336.4833333333336</ele><time>2025-09-26T23:11:20Z</time></trkpt><trkpt lat="33.839297" lon="133.4129628"><ele>1345.53</ele><time>2025-09-26T23:13:23Z</time></trkpt><trkpt lat="33.8392213" lon="133.4131601"><ele>1354.6933333333334</ele><time>2025-09-26T23:14:58Z</time></trkpt><trkpt lat="33.8392448" lon="133.4133967"><ele>1364.11</ele><time>2025-09-26T23:16:01Z</time></trkpt><trkpt lat="33.839287" lon="133.4136095"><ele>1375.0433333333333</ele><time>2025-09-26T23:17:04Z</time></trkpt><trkpt lat="33.8393105" lon="133.4138347"><ele>1385.0566666666666</ele><time>2025-09-26T23:18:40Z</time></trkpt><trkpt lat="33.839393" lon="133.414036"><ele>1396.93</ele><time>2025-09-26T23:20:07Z</time></trkpt><trkpt lat="33.8394411" lon="133.4142496"><ele>1407.4566666666667</ele><time>2025-09-26T23:22:28Z</time></trkpt><trkpt lat="33.8396025" lon="133.4143591"><ele>1420.8533333333335</ele><time>2025-09-26T23:23:58Z</time></trkpt><trkpt lat="33.8396494" lon="133.4145731"><ele>1433.97</ele><time>2025-09-26T23:25:49Z</time></trkpt><trkpt lat="33.8397277" lon="133.4147744"><ele>1449.0466666666664</ele><time>2025-09-26T23:28:15Z</time></trkpt><trkpt lat="33.8398912" lon="133.4148751"><ele>1464.3566666666666</ele><time>2025-09-26T23:31:00Z</time></trkpt><trkpt lat="33.8399279" lon="133.4150877"><ele>1476.0866666666668</ele><time>2025-09-26T23:38:15Z</time></trkpt><trkpt lat="33.8398487" lon="133.4152863"><ele>1480.9266666666665</ele><time>2025-09-26T23:38:45Z</time></trkpt><trkpt lat="33.8397955" lon="133.4155219"><ele>1475.6366666666665</ele><time>2025-09-26T23:39:18Z</time></trkpt><trkpt lat="33.8397642" lon="133.4157348"><ele>1465.3266666666666</ele><time>2025-09-26T23:39:41Z</time></trkpt><trkpt lat="33.8396785" lon="133.415927"><ele>1455.24</ele><time>2025-09-26T23:40:53Z</time></trkpt><trkpt lat="33.8397147" lon="133.4161753"><ele>1455.1966666666667</ele><time>2025-09-26T23:41:41Z</time></trkpt><trkpt lat="33.8396943" lon="133.416399"><ele>1458.2533333333333</ele><time>2025-09-26T23:42:23Z</time></trkpt><trkpt lat="33.839546" lon="133.416552"><ele>1462.6233333333332</ele><time>2025-09-26T23:44:29Z</time></trkpt><trkpt lat="33.8394206" lon="133.4167232"><ele>1461.8233333333335</ele><time>2025-09-26T23:44:53Z</time></trkpt><trkpt lat="33.8393445" lon="133.4169507"><ele>1460.7</ele><time>2025-09-26T23:45:16Z</time></trkpt><trkpt lat="33.8393414" lon="133.4171897"><ele>1458.3266666666666</ele><time>2025-09-26T23:45:43Z</time></trkpt><trkpt lat="33.8394071" lon="133.4174195"><ele>1452.6633333333332</ele><time>2025-09-26T23:46:13Z</time></trkpt><trkpt lat="33.8394951" lon="133.4176263"><ele>1445.2</ele><time>2025-09-26T23:46:37Z</time></trkpt><trkpt lat="33.8395348" lon="133.4178555"><ele>1437.2066666666667</ele><time>2025-09-26T23:47:06Z</time></trkpt><trkpt lat="33.839559" lon="133.4180832"><ele>1429.8633333333335</ele><time>2025-09-26T23:47:33Z</time></trkpt><trkpt lat="33.8395617" lon="133.4183097"><ele>1422.8566666666668</ele><time>2025-09-26T23:48:29Z</time></trkpt><trkpt lat="33.8395756" lon="133.4185482"><ele>1415.2300000000002</ele><time>2025-09-26T23:49:08Z</time></trkpt><trkpt lat="33.8395679" lon="133.4187865"><ele>1408.21</ele><time>2025-09-26T23:49:55Z</time></trkpt><trkpt lat="33.8395274" lon="133.419011"><ele>1400.4666666666665</ele><time>2025-09-26T23:50:28Z</time></trkpt><trkpt lat="33.8396854" lon="133.4191511"><ele>1395.9466666666667</ele><time>2025-09-26T23:50:58Z</time></trkpt><trkpt lat="33.8397584" lon="133.4193535"><ele>1392.9333333333334</ele><time>2025-09-26T23:51:19Z</time></trkpt><trkpt lat="33.8398076" lon="133.4196008"><ele>1391.0199999999998</ele><time>2025-09-26T23:51:43Z</time></trkpt><trkpt lat="33.839834" lon="133.419821"><ele>1387.3</ele><time>2025-09-26T23:52:07Z</time></trkpt><trkpt lat="33.8397396" lon="133.4200056"><ele>1382.9333333333334</ele><time>2025-09-26T23:52:30Z</time></trkpt><trkpt lat="33.8395616" lon="133.4200846"><ele>1379.82</ele><time>2025-09-26T23:53:06Z</time></trkpt><trkpt lat="33.839382" lon="133.4201878"><ele>1377.66</ele><time>2025-09-26T23:53:30Z</time></trkpt><trkpt lat="33.8392433" lon="133.4203457"><ele>1375.743333333333</ele><time>2025-09-26T23:53:53Z</time></trkpt><trkpt lat="33.8390714" lon="133.4204713"><ele>1373.24</ele><time>2025-09-26T23:54:16Z</time></trkpt><trkpt lat="33.8389314" lon="133.4206571"><ele>1370.1433333333334</ele><time>2025-09-26T23:54:40Z</time></trkpt><trkpt lat="33.8388546" lon="133.4208637"><ele>1367.6333333333332</ele><time>2025-09-26T23:55:01Z</time></trkpt><trkpt lat="33.8388083" lon="133.421094"><ele>1366.7866666666669</ele><time>2025-09-26T23:55:25Z</time></trkpt><trkpt lat="33.8386633" lon="133.4212503"><ele>1367.676666666667</ele><time>2025-09-26T23:56:42Z</time></trkpt><trkpt lat="33.8385266" lon="133.4214144"><ele>1371.6433333333334</ele><time>2025-09-26T23:57:15Z</time></trkpt><trkpt lat="33.8384028" lon="133.4215765"><ele>1377.0266666666666</ele><time>2025-09-26T23:58:03Z</time></trkpt><trkpt lat="33.8383158" lon="133.4217821"><ele>1383.0933333333332</ele><time>2025-09-26T23:59:24Z</time></trkpt><trkpt lat="33.8383641" lon="133.4219912"><ele>1387.5166666666667</ele><time>2025-09-27T00:00:21Z</time></trkpt><trkpt lat="33.8385091" lon="133.4221326"><ele>1390.25</ele><time>2025-09-27T00:00:51Z</time></trkpt><trkpt lat="33.8386488" lon="133.4223036"><ele>1391.93</ele><time>2025-09-27T00:01:18Z</time></trkpt><trkpt lat="33.8387659" lon="133.4224685"><ele>1392.8500000000001</ele><time>2025-09-27T00:01:36Z</time></trkpt><trkpt lat="33.8388646" lon="133.4226569"><ele>1394.3033333333333</ele><time>2025-09-27T00:02:18Z</time></trkpt><trkpt lat="33.8389441" lon="133.4228579"><ele>1396.2366666666667</ele><time>2025-09-27T00:03:09Z</time></trkpt><trkpt lat="33.8389958" lon="133.4230654"><ele>1398.8266666666666</ele><time>2025-09-27T00:03:45Z</time></trkpt><trkpt lat="33.8390904" lon="133.4232688"><ele>1400.8166666666666</ele><time>2025-09-27T00:04:14Z</time></trkpt><trkpt lat="33.8390115" lon="133.423476"><ele>1403.4399999999998</ele><time>2025-09-27T00:04:50Z</time></trkpt><trkpt lat="33.8390455" lon="133.4236999"><ele>1406.6966666666667</ele><time>2025-09-27T00:05:32Z</time></trkpt><trkpt lat="33.8390776" lon="133.4239316"><ele>1411.9233333333334</ele><time>2025-09-27T00:06:11Z</time></trkpt><trkpt lat="33.8390774" lon="133.4241535"><ele>1417.7133333333334</ele><time>2025-09-27T00:07:20Z</time></trkpt><trkpt lat="33.839166" lon="133.4243455"><ele>1423.8733333333337</ele><time>2025-09-27T00:08:26Z</time></trkpt><trkpt lat="33.8392001" lon="133.4245698"><ele>1430.9566666666667</ele><time>2025-09-27T00:09:14Z</time></trkpt><trkpt lat="33.8392662" lon="133.424772"><ele>1439.5633333333335</ele><time>2025-09-27T00:10:38Z</time></trkpt><trkpt lat="33.8392252" lon="133.4249874"><ele>1447.0199999999998</ele><time>2025-09-27T00:12:47Z</time></trkpt><trkpt lat="33.8391673" lon="133.4252204"><ele>1449.5566666666666</ele><time>2025-09-27T00:13:14Z</time></trkpt><trkpt lat="33.8390159" lon="133.4253806"><ele>1447.42</ele><time>2025-09-27T00:13:35Z</time></trkpt><trkpt lat="33.838889" lon="133.4255523"><ele>1443.46</ele><time>2025-09-27T00:13:59Z</time></trkpt><trkpt lat="33.838784" lon="133.42574"><ele>1438.0566666666666</ele><time>2025-09-27T00:14:26Z</time></trkpt><trkpt lat="33.8386109" lon="133.4258083"><ele>1434.2033333333336</ele><time>2025-09-27T00:15:00Z</time></trkpt><trkpt lat="33.8384366" lon="133.4258797"><ele>1431.0733333333335</ele><time>2025-09-27T00:15:27Z</time></trkpt><trkpt lat="33.8382697" lon="133.4259809"><ele>1430.3533333333335</ele><time>2025-09-27T00:15:54Z</time></trkpt><trkpt lat="33.8380786" lon="133.4260666"><ele>1428.3966666666668</ele><time>2025-09-27T00:16:21Z</time></trkpt><trkpt lat="33.8379008" lon="133.4261386"><ele>1425.22</ele><time>2025-09-27T00:16:47Z</time></trkpt><trkpt lat="33.8378014" lon="133.4263392"><ele>1421.2</ele><time>2025-09-27T00:17:30Z</time></trkpt><trkpt lat="33.8377575" lon="133.4265703"><ele>1415.8</ele><time>2025-09-27T00:17:57Z</time></trkpt><trkpt lat="33.8377187" lon="133.426784"><ele>1410.4800000000002</ele><time>2025-09-27T00:18:24Z</time></trkpt><trkpt lat="33.8376097" lon="133.4269612"><ele>1404.9633333333334</ele><time>2025-09-27T00:19:03Z</time></trkpt><trkpt lat="33.8375277" lon="133.427176"><ele>1397.6466666666668</ele><time>2025-09-27T00:20:09Z</time></trkpt><trkpt lat="33.8373499" lon="133.4272561"><ele>1389.95</ele><time>2025-09-27T00:20:35Z</time></trkpt><trkpt lat="33.8371757" lon="133.4273353"><ele>1382.2699999999998</ele><time>2025-09-27T00:20:59Z</time></trkpt><trkpt lat="33.8370049" lon="133.4274278"><ele>1378.0166666666667</ele><time>2025-09-27T00:21:17Z</time></trkpt><trkpt lat="33.8368239" lon="133.427493"><ele>1375.1133333333335</ele><time>2025-09-27T00:21:41Z</time></trkpt><trkpt lat="33.8366655" lon="133.4276034"><ele>1373.5533333333333</ele><time>2025-09-27T00:22:47Z</time></trkpt><trkpt lat="33.8365429" lon="133.4277696"><ele>1371.3500000000001</ele><time>2025-09-27T00:23:10Z</time></trkpt><trkpt lat="33.8364943" lon="133.4279786"><ele>1367.6433333333334</ele><time>2025-09-27T00:23:41Z</time></trkpt><trkpt lat="33.8364717" lon="133.4282023"><ele>1360.7833333333335</ele><time>2025-09-27T00:24:07Z</time></trkpt><trkpt lat="33.8364091" lon="133.42843"><ele>1352.2833333333333</ele><time>2025-09-27T00:24:39Z</time></trkpt><trkpt lat="33.8362981" lon="133.4286161"><ele>1343.0800000000002</ele><time>2025-09-27T00:25:06Z</time></trkpt><trkpt lat="33.8362701" lon="133.4288349"><ele>1336.2333333333333</ele><time>2025-09-27T00:26:14Z</time></trkpt><trkpt lat="33.8361762" lon="133.4290333"><ele>1330.8166666666666</ele><time>2025-09-27T00:26:41Z</time></trkpt><trkpt lat="33.836124" lon="133.4292541"><ele>1326.9366666666667</ele><time>2025-09-27T00:27:04Z</time></trkpt><trkpt lat="33.8360083" lon="133.4294639"><ele>1324.1666666666667</ele><time>2025-09-27T00:27:27Z</time></trkpt><trkpt lat="33.8359193" lon="133.4296639"><ele>1323.4733333333334</ele><time>2025-09-27T00:28:00Z</time></trkpt><trkpt lat="33.8358452" lon="133.4298787"><ele>1325.06</ele><time>2025-09-27T00:28:36Z</time></trkpt><trkpt lat="33.8357483" lon="133.4300641"><ele>1328.6533333333334</ele><time>2025-09-27T00:29:03Z</time></trkpt><trkpt lat="33.8356658" lon="133.4302654"><ele>1332.9066666666668</ele><time>2025-09-27T00:29:39Z</time></trkpt><trkpt lat="33.8355539" lon="133.4304569"><ele>1339.4666666666665</ele><time>2025-09-27T00:31:12Z</time></trkpt><trkpt lat="33.8354758" lon="133.4306736"><ele>1348.0900000000001</ele><time>2025-09-27T00:32:21Z</time></trkpt><trkpt lat="33.8354773" lon="133.4309005"><ele>1356.6866666666667</ele><time>2025-09-27T00:32:57Z</time></trkpt><trkpt lat="33.8354796" lon="133.4311301"><ele>1363.8033333333333</ele><time>2025-09-27T00:33:27Z</time></trkpt><trkpt lat="33.8353656" lon="133.4313357"><ele>1367.4366666666665</ele><time>2025-09-27T00:34:00Z</time></trkpt><trkpt lat="33.8352438" lon="133.431531"><ele>1368.9033333333334</ele><time>2025-09-27T00:34:33Z</time></trkpt><trkpt lat="33.8353414" lon="133.4313475"><ele>1369.4399999999998</ele><time>2025-09-27T00:53:53Z</time></trkpt><trkpt lat="33.8354645" lon="133.4311798"><ele>1368.97</ele><time>2025-09-27T00:56:05Z</time></trkpt><trkpt lat="33.8354884" lon="133.4309627"><ele>1368.1866666666665</ele><time>2025-09-27T00:56:20Z</time></trkpt><trkpt lat="33.8354698" lon="133.4307373"><ele>1364.4866666666667</ele><time>2025-09-27T00:56:41Z</time></trkpt><trkpt lat="33.8355185" lon="133.4305199"><ele>1358.7166666666665</ele><time>2025-09-27T00:57:11Z</time></trkpt><trkpt lat="33.8356208" lon="133.4303245"><ele>1350.1633333333334</ele><time>2025-09-27T00:57:35Z</time></trkpt><trkpt lat="33.8357235" lon="133.4301248"><ele>1341.5533333333335</ele><time>2025-09-27T00:58:02Z</time></trkpt><trkpt lat="33.8358097" lon="133.4299344"><ele>1334.7733333333333</ele><time>2025-09-27T00:58:41Z</time></trkpt><trkpt lat="33.8359006" lon="133.4297125"><ele>1330.5766666666666</ele><time>2025-09-27T00:59:08Z</time></trkpt><trkpt lat="33.8359644" lon="133.4295068"><ele>1327.1866666666667</ele><time>2025-09-27T00:59:29Z</time></trkpt><trkpt lat="33.8360721" lon="133.4293165"><ele>1324.3033333333333</ele><time>2025-09-27T01:00:11Z</time></trkpt><trkpt lat="33.8361396" lon="133.4291"><ele>1323.5633333333335</ele><time>2025-09-27T01:00:33Z</time></trkpt><trkpt lat="33.8362309" lon="133.4288868"><ele>1325.4066666666668</ele><time>2025-09-27T01:01:05Z</time></trkpt><trkpt lat="33.836282" lon="133.4286475"><ele>1329.4566666666667</ele><time>2025-09-27T01:01:26Z</time></trkpt><trkpt lat="33.8363818" lon="133.428449"><ele>1334.46</ele><time>2025-09-27T01:02:07Z</time></trkpt><trkpt lat="33.8364429" lon="133.4282363"><ele>1342.0166666666667</ele><time>2025-09-27T01:02:46Z</time></trkpt><trkpt lat="33.8364694" lon="133.4280198"><ele>1349.6366666666665</ele><time>2025-09-27T01:03:49Z</time></trkpt><trkpt lat="33.8365074" lon="133.4278013"><ele>1359.2</ele><time>2025-09-27T01:04:43Z</time></trkpt><trkpt lat="33.8366037" lon="133.4276078"><ele>1365.8700000000001</ele><time>2025-09-27T01:05:27Z</time></trkpt><trkpt lat="33.8367788" lon="133.4274991"><ele>1371.24</ele><time>2025-09-27T01:06:14Z</time></trkpt><trkpt lat="33.8369624" lon="133.4274585"><ele>1373.3133333333335</ele><time>2025-09-27T01:06:34Z</time></trkpt><trkpt lat="33.8371082" lon="133.427325"><ele>1374.9399999999998</ele><time>2025-09-27T01:06:52Z</time></trkpt><trkpt lat="33.8372937" lon="133.4272693"><ele>1377.1933333333334</ele><time>2025-09-27T01:07:13Z</time></trkpt><trkpt lat="33.8374697" lon="133.4271708"><ele>1381.0966666666666</ele><time>2025-09-27T01:07:52Z</time></trkpt><trkpt lat="33.8376188" lon="133.4270487"><ele>1387.846666666667</ele><time>2025-09-27T01:09:01Z</time></trkpt><trkpt lat="33.8377229" lon="133.4268651"><ele>1395.2466666666667</ele><time>2025-09-27T01:10:04Z</time></trkpt><trkpt lat="33.8377229" lon="133.4266413"><ele>1402.3166666666668</ele><time>2025-09-27T01:10:52Z</time></trkpt><trkpt lat="33.8377485" lon="133.4264126"><ele>1407.67</ele><time>2025-09-27T01:11:37Z</time></trkpt><trkpt lat="33.8378187" lon="133.4262068"><ele>1412.8733333333337</ele><time>2025-09-27T01:12:25Z</time></trkpt><trkpt lat="33.8379792" lon="133.4260746"><ele>1418.1366666666665</ele><time>2025-09-27T01:13:25Z</time></trkpt><trkpt lat="33.8381592" lon="133.4260295"><ele>1423.4866666666667</ele><time>2025-09-27T01:13:46Z</time></trkpt><trkpt lat="33.8383386" lon="133.4259205"><ele>1427.8366666666668</ele><time>2025-09-27T01:14:10Z</time></trkpt><trkpt lat="33.8385233" lon="133.4258414"><ele>1431.006666666667</ele><time>2025-09-27T01:14:39Z</time></trkpt><trkpt lat="33.8387031" lon="133.4257564"><ele>1432.2</ele><time>2025-09-27T01:15:24Z</time></trkpt><trkpt lat="33.8388448" lon="133.4256135"><ele>1433.64</ele><time>2025-09-27T01:16:39Z</time></trkpt><trkpt lat="33.8389633" lon="133.4254292"><ele>1437.0800000000002</ele><time>2025-09-27T01:17:27Z</time></trkpt><trkpt lat="33.8390894" lon="133.4252721"><ele>1441.3400000000001</ele><time>2025-09-27T01:17:57Z</time></trkpt><trkpt lat="33.8391959" lon="133.4250633"><ele>1446.2933333333333</ele><time>2025-09-27T01:18:23Z</time></trkpt><trkpt lat="33.8392203" lon="133.4248482"><ele>1449.0566666666666</ele><time>2025-09-27T01:19:17Z</time></trkpt><trkpt lat="33.8392304" lon="133.4246125"><ele>1448.4966666666667</ele><time>2025-09-27T01:20:29Z</time></trkpt><trkpt lat="33.8391667" lon="133.4243968"><ele>1441.5466666666664</ele><time>2025-09-27T01:20:56Z</time></trkpt><trkpt lat="33.8391008" lon="133.4241751"><ele>1432.3766666666668</ele><time>2025-09-27T01:21:41Z</time></trkpt><trkpt lat="33.8390837" lon="133.4239328"><ele>1423.8733333333332</ele><time>2025-09-27T01:22:08Z</time></trkpt><trkpt lat="33.8390479" lon="133.4237002"><ele>1417.7133333333334</ele><time>2025-09-27T01:22:32Z</time></trkpt><trkpt lat="33.839024" lon="133.4234856"><ele>1411.9233333333334</ele><time>2025-09-27T01:22:53Z</time></trkpt><trkpt lat="33.8390144" lon="133.4232673"><ele>1407.0</ele><time>2025-09-27T01:23:20Z</time></trkpt><trkpt lat="33.8389781" lon="133.4230379"><ele>1403.8500000000001</ele><time>2025-09-27T01:24:41Z</time></trkpt><trkpt lat="33.8389163" lon="133.4227846"><ele>1401.2266666666667</ele><time>2025-09-27T01:25:02Z</time></trkpt><trkpt lat="33.8388313" lon="133.4225844"><ele>1398.5666666666666</ele><time>2025-09-27T01:25:23Z</time></trkpt><trkpt lat="33.8387472" lon="133.4223906"><ele>1396.0366666666666</ele><time>2025-09-27T01:25:44Z</time></trkpt><trkpt lat="33.8386295" lon="133.4222149"><ele>1394.1366666666665</ele><time>2025-09-27T01:26:04Z</time></trkpt><trkpt lat="33.8385201" lon="133.4220178"><ele>1393.1000000000001</ele><time>2025-09-27T01:26:55Z</time></trkpt><trkpt lat="33.8383751" lon="133.4218517"><ele>1391.9066666666668</ele><time>2025-09-27T01:27:21Z</time></trkpt><trkpt lat="33.8382327" lon="133.4217106"><ele>1388.4766666666667</ele><time>2025-09-27T01:27:51Z</time></trkpt><trkpt lat="33.8383866" lon="133.4215494"><ele>1384.58</ele><time>2025-09-27T01:28:51Z</time></trkpt><trkpt lat="33.8385374" lon="133.4214213"><ele>1380.2633333333333</ele><time>2025-09-27T01:29:24Z</time></trkpt><trkpt lat="33.8386518" lon="133.4212223"><ele>1375.1499999999999</ele><time>2025-09-27T01:29:47Z</time></trkpt><trkpt lat="33.8387647" lon="133.421051"><ele>1370.12</ele><time>2025-09-27T01:30:13Z</time></trkpt><trkpt lat="33.8388888" lon="133.4208627"><ele>1366.1533333333334</ele><time>2025-09-27T01:30:36Z</time></trkpt><trkpt lat="33.8389637" lon="133.4206485"><ele>1366.0266666666666</ele><time>2025-09-27T01:31:06Z</time></trkpt><trkpt lat="33.8390974" lon="133.420466"><ele>1367.6333333333332</ele><time>2025-09-27T01:31:36Z</time></trkpt><trkpt lat="33.8392429" lon="133.4203379"><ele>1370.1433333333334</ele><time>2025-09-27T01:31:57Z</time></trkpt><trkpt lat="33.8393981" lon="133.4201839"><ele>1373.24</ele><time>2025-09-27T01:32:21Z</time></trkpt><trkpt lat="33.8395779" lon="133.4200742"><ele>1375.7433333333336</ele><time>2025-09-27T01:32:42Z</time></trkpt><trkpt lat="33.8397426" lon="133.4199538"><ele>1377.6599999999999</ele><time>2025-09-27T01:33:12Z</time></trkpt><trkpt lat="33.8398353" lon="133.4197551"><ele>1380.5333333333335</ele><time>2025-09-27T01:33:45Z</time></trkpt><trkpt lat="33.8398011" lon="133.4195197"><ele>1384.2966666666669</ele><time>2025-09-27T01:34:15Z</time></trkpt><trkpt lat="33.8397533" lon="133.4192908"><ele>1388.9666666666665</ele><time>2025-09-27T01:34:42Z</time></trkpt><trkpt lat="33.8397102" lon="133.4190791"><ele>1392.7600000000002</ele><time>2025-09-27T01:35:09Z</time></trkpt><trkpt lat="33.8396489" lon="133.4188721"><ele>1396.2300000000002</ele><time>2025-09-27T01:35:32Z</time></trkpt><trkpt lat="33.8396804" lon="133.4186588"><ele>1399.7333333333336</ele><time>2025-09-27T01:36:07Z</time></trkpt><trkpt lat="33.8395747" lon="133.4184801"><ele>1404.47</ele><time>2025-09-27T01:36:58Z</time></trkpt><trkpt lat="33.8396132" lon="133.4182511"><ele>1410.006666666667</ele><time>2025-09-27T01:38:22Z</time></trkpt><trkpt lat="33.8395679" lon="133.4180277"><ele>1417.25</ele><time>2025-09-27T01:39:15Z</time></trkpt><trkpt lat="33.8395544" lon="133.4177972"><ele>1424.1666666666667</ele><time>2025-09-27T01:40:06Z</time></trkpt><trkpt lat="33.8395159" lon="133.4175732"><ele>1432.3066666666666</ele><time>2025-09-27T01:41:23Z</time></trkpt><trkpt lat="33.839439" lon="133.4173695"><ele>1438.8766666666668</ele><time>2025-09-27T01:42:02Z</time></trkpt><trkpt lat="33.8393514" lon="133.417171"><ele>1446.5766666666666</ele><time>2025-09-27T01:42:53Z</time></trkpt><trkpt lat="33.8393477" lon="133.4169409"><ele>1452.9066666666668</ele><time>2025-09-27T01:43:38Z</time></trkpt><trkpt lat="33.8394319" lon="133.4167374"><ele>1458.3266666666668</ele><time>2025-09-27T01:44:05Z</time></trkpt><trkpt lat="33.8395134" lon="133.4165389"><ele>1460.7</ele><time>2025-09-27T01:44:38Z</time></trkpt><trkpt lat="33.839673" lon="133.4164049"><ele>1461.8233333333335</ele><time>2025-09-27T01:45:01Z</time></trkpt><trkpt lat="33.8397405" lon="133.4161899"><ele>1462.6233333333332</ele><time>2025-09-27T01:45:21Z</time></trkpt><trkpt lat="33.8396719" lon="133.4159846"><ele>1458.2533333333333</ele><time>2025-09-27T01:45:57Z</time></trkpt><trkpt lat="33.8397505" lon="133.4157709"><ele>1455.1366666666665</ele><time>2025-09-27T01:46:27Z</time></trkpt><trkpt lat="33.8397772" lon="133.4155543"><ele>1455.1800000000003</ele><time>2025-09-27T01:47:59Z</time></trkpt><trkpt lat="33.8398656" lon="133.41536"><ele>1464.13</ele><time>2025-09-27T01:48:29Z</time></trkpt><trkpt lat="33.8399003" lon="133.4151391"><ele>1473.323333333333</ele><time>2025-09-27T01:49:02Z</time></trkpt><trkpt lat="33.8399289" lon="133.414897"><ele>1479.7733333333333</ele><time>2025-09-27T01:50:02Z</time></trkpt><trkpt lat="33.8397391" lon="133.4148885"><ele>1477.0666666666666</ele><time>2025-09-27T01:53:38Z</time></trkpt><trkpt lat="33.839727" lon="133.414671"><ele>1470.16</ele><time>2025-09-27T01:55:02Z</time></trkpt><trkpt lat="33.8396362" lon="133.4144754"><ele>1457.3</ele><time>2025-09-27T01:56:59Z</time></trkpt><trkpt lat="33.8395136" lon="133.4143062"><ele>1444.216666666667</ele><time>2025-09-27T01:58:14Z</time></trkpt><trkpt lat="33.8394437" lon="133.4141025"><ele>1428.6900000000003</ele><time>2025-09-27T01:59:14Z</time></trkpt><trkpt lat="33.8393492" lon="133.4139151"><ele>1414.1833333333334</ele><time>2025-09-27T02:00:44Z</time></trkpt><trkpt lat="33.8392901" lon="133.4137085"><ele>1401.7266666666667</ele><time>2025-09-27T02:02:23Z</time></trkpt><trkpt lat="33.839291" lon="133.4134802"><ele>1390.4533333333336</ele><time>2025-09-27T02:03:17Z</time></trkpt><trkpt lat="33.8392651" lon="133.4132437"><ele>1379.24</ele><time>2025-09-27T02:03:53Z</time></trkpt><trkpt lat="33.8392848" lon="133.4130276"><ele>1368.8366666666668</ele><time>2025-09-27T02:04:35Z</time></trkpt><trkpt lat="33.8393054" lon="133.4128097"><ele>1357.5833333333333</ele><time>2025-09-27T02:05:10Z</time></trkpt><trkpt lat="33.8392827" lon="133.4125888"><ele>1348.4133333333334</ele><time>2025-09-27T02:14:31Z</time></trkpt><trkpt lat="33.8392269" lon="133.4123564"><ele>1337.7766666666669</ele><time>2025-09-27T02:15:25Z</time></trkpt><trkpt lat="33.8391327" lon="133.4121628"><ele>1327.1000000000001</ele><time>2025-09-27T02:17:43Z</time></trkpt><trkpt lat="33.8391271" lon="133.4119416"><ele>1312.7766666666666</ele><time>2025-09-27T02:18:43Z</time></trkpt><trkpt lat="33.8390881" lon="133.4117269"><ele>1299.7666666666667</ele><time>2025-09-27T02:19:22Z</time></trkpt><trkpt lat="33.839093" lon="133.4114941"><ele>1287.4366666666667</ele><time>2025-09-27T02:20:49Z</time></trkpt><trkpt lat="33.8390021" lon="133.4112976"><ele>1278.2066666666667</ele><time>2025-09-27T02:21:43Z</time></trkpt><trkpt lat="33.838904" lon="133.411081"><ele>1268.6733333333334</ele><time>2025-09-27T02:22:04Z</time></trkpt><trkpt lat="33.8387845" lon="133.4108878"><ele>1260.7</ele><time>2025-09-27T02:22:36Z</time></trkpt><trkpt lat="33.8387047" lon="133.4106853"><ele>1253.2433333333336</ele><time>2025-09-27T02:22:57Z</time></trkpt><trkpt lat="33.8385866" lon="133.410493"><ele>1245.4833333333333</ele><time>2025-09-27T02:23:21Z</time></trkpt><trkpt lat="33.8384501" lon="133.4103217"><ele>1239.2233333333334</ele><time>2025-09-27T02:25:03Z</time></trkpt><trkpt lat="33.8383016" lon="133.410159"><ele>1235.0266666666666</ele><time>2025-09-27T02:25:24Z</time></trkpt><trkpt lat="33.8381368" lon="133.4100498"><ele>1233.5033333333333</ele><time>2025-09-27T02:25:45Z</time></trkpt><trkpt lat="33.838026" lon="133.4098558"><ele>1231.4866666666667</ele><time>2025-09-27T02:26:12Z</time></trkpt><trkpt lat="33.8379473" lon="133.4096372"><ele>1228.4266666666665</ele><time>2025-09-27T02:26:33Z</time></trkpt><trkpt lat="33.8378427" lon="133.4094557"><ele>1224.6366666666665</ele><time>2025-09-27T02:26:54Z</time></trkpt><trkpt lat="33.8378072" lon="133.4092276"><ele>1221.2566666666667</ele><time>2025-09-27T02:27:17Z</time></trkpt><trkpt lat="33.8377821" lon="133.4090052"><ele>1218.2066666666667</ele><time>2025-09-27T02:27:41Z</time></trkpt><trkpt lat="33.8377187" lon="133.4087922"><ele>1216.0533333333333</ele><time>2025-09-27T02:28:08Z</time></trkpt><trkpt lat="33.8377388" lon="133.4085642"><ele>1213.42</ele><time>2025-09-27T02:28:41Z</time></trkpt><trkpt lat="33.8376406" lon="133.4083608"><ele>1210.8666666666668</ele><time>2025-09-27T02:29:02Z</time></trkpt><trkpt lat="33.8375099" lon="133.4081682"><ele>1207.0600000000002</ele><time>2025-09-27T02:29:22Z</time></trkpt><trkpt lat="33.837453" lon="133.407946"><ele>1204.7333333333333</ele><time>2025-09-27T02:29:46Z</time></trkpt><trkpt lat="33.8373403" lon="133.4077565"><ele>1204.14</ele><time>2025-09-27T02:30:16Z</time></trkpt><trkpt lat="33.8371956" lon="133.4076162"><ele>1206.5366666666666</ele><time>2025-09-27T02:30:34Z</time></trkpt><trkpt lat="33.8370394" lon="133.4074719"><ele>1209.7433333333336</ele><time>2025-09-27T02:31:22Z</time></trkpt><trkpt lat="33.8369195" lon="133.4072868"><ele>1213.2066666666667</ele><time>2025-09-27T02:32:15Z</time></trkpt><trkpt lat="33.8367672" lon="133.4071697"><ele>1216.91</ele><time>2025-09-27T02:32:45Z</time></trkpt><trkpt lat="33.836616" lon="133.4070351"><ele>1221.6133333333335</ele><time>2025-09-27T02:33:08Z</time></trkpt><trkpt lat="33.8365149" lon="133.4068508"><ele>1226.4766666666667</ele><time>2025-09-27T02:34:23Z</time></trkpt><trkpt lat="33.8364756" lon="133.4066221"><ele>1230.3866666666665</ele><time>2025-09-27T02:35:02Z</time></trkpt><trkpt lat="33.8364533" lon="133.406398"><ele>1232.7866666666666</ele><time>2025-09-27T02:35:29Z</time></trkpt><trkpt lat="33.8363708" lon="133.4061955"><ele>1234.5133333333333</ele><time>2025-09-27T02:35:50Z</time></trkpt><trkpt lat="33.8363221" lon="133.4059853"><ele>1236.8300000000002</ele><time>2025-09-27T02:36:32Z</time></trkpt><trkpt lat="33.8362951" lon="133.4057599"><ele>1242.3999999999999</ele><time>2025-09-27T02:37:11Z</time></trkpt><trkpt lat="33.83636" lon="133.4055463"><ele>1249.9766666666667</ele><time>2025-09-27T02:37:37Z</time></trkpt><trkpt lat="33.8364907" lon="133.4053587"><ele>1257.1133333333335</ele><time>2025-09-27T02:38:07Z</time></trkpt><trkpt lat="33.8365934" lon="133.4051755"><ele>1261.0566666666666</ele><time>2025-09-27T02:38:34Z</time></trkpt><trkpt lat="33.8366185" lon="133.4049611"><ele>1262.4866666666667</ele><time>2025-09-27T02:39:09Z</time></trkpt><trkpt lat="33.8366846" lon="133.4047402"><ele>1263.61</ele><time>2025-09-27T02:39:51Z</time></trkpt><trkpt lat="33.8366882" lon="133.4045093"><ele>1264.4766666666667</ele><time>2025-09-27T02:40:21Z</time></trkpt><trkpt lat="33.8366454" lon="133.4042992"><ele>1265.4766666666667</ele><time>2025-09-27T02:40:57Z</time></trkpt><trkpt lat="33.8366314" lon="133.4040608"><ele>1267.43</ele><time>2025-09-27T02:42:33Z</time></trkpt><trkpt lat="33.8366595" lon="133.4038241"><ele>1269.24</ele><time>2025-09-27T02:43:00Z</time></trkpt><trkpt lat="33.8366743" lon="133.4035888"><ele>1270.8666666666666</ele><time>2025-09-27T02:43:27Z</time></trkpt><trkpt lat="33.8365891" lon="133.4033881"><ele>1271.3266666666666</ele><time>2025-09-27T02:44:00Z</time></trkpt><trkpt lat="33.8365139" lon="133.4031597"><ele>1271.6333333333334</ele><time>2025-09-27T02:44:20Z</time></trkpt><trkpt lat="33.8364979" lon="133.4029361"><ele>1271.14</ele><time>2025-09-27T02:44:40Z</time></trkpt><trkpt lat="33.8365572" lon="133.4027049"><ele>1269.0733333333335</ele><time>2025-09-27T02:45:06Z</time></trkpt><trkpt lat="33.8365895" lon="133.4024896"><ele>1264.7299999999998</ele><time>2025-09-27T02:45:30Z</time></trkpt><trkpt lat="33.8366236" lon="133.402265"><ele>1259.2066666666667</ele><time>2025-09-27T02:45:57Z</time></trkpt><trkpt lat="33.8365948" lon="133.4020497"><ele>1252.36</ele><time>2025-09-27T02:46:24Z</time></trkpt><trkpt lat="33.8365278" lon="133.4018374"><ele>1246.8866666666665</ele><time>2025-09-27T02:46:44Z</time></trkpt><trkpt lat="33.8366036" lon="133.4016132"><ele>1244.01</ele><time>2025-09-27T02:47:17Z</time></trkpt><trkpt lat="33.8365797" lon="133.4013763"><ele>1246.0066666666667</ele><time>2025-09-27T02:48:04Z</time></trkpt><trkpt lat="33.8365098" lon="133.4011446"><ele>1248.7633333333333</ele><time>2025-09-27T02:48:36Z</time></trkpt><trkpt lat="33.8364187" lon="133.4009254"><ele>1248.13</ele><time>2025-09-27T02:49:09Z</time></trkpt><trkpt lat="33.8362705" lon="133.4007589"><ele>1242.2333333333333</ele><time>2025-09-27T02:50:21Z</time></trkpt><trkpt lat="33.8361058" lon="133.4006678"><ele>1234.9466666666667</ele><time>2025-09-27T02:51:42Z</time></trkpt><trkpt lat="33.8359277" lon="133.4006129"><ele>1228.7</ele><time>2025-09-27T02:52:21Z</time></trkpt><trkpt lat="33.8357404" lon="133.4005668"><ele>1222.9366666666667</ele><time>2025-09-27T02:53:27Z</time></trkpt><trkpt lat="33.8355632" lon="133.4006158"><ele>1216.7433333333333</ele><time>2025-09-27T02:54:35Z</time></trkpt><trkpt lat="33.8354631" lon="133.4004335"><ele>1208.1233333333332</ele><time>2025-09-27T02:55:41Z</time></trkpt><trkpt lat="33.8352768" lon="133.4004628"><ele>1199.6366666666668</ele><time>2025-09-27T02:57:02Z</time></trkpt><trkpt lat="33.835092" lon="133.4004058"><ele>1189.4</ele><time>2025-09-27T02:58:01Z</time></trkpt><trkpt lat="33.8349036" lon="133.4003491"><ele>1179.0833333333333</ele><time>2025-09-27T02:59:00Z</time></trkpt><trkpt lat="33.834742" lon="133.4002429"><ele>1168.5933333333332</ele><time>2025-09-27T02:59:48Z</time></trkpt><trkpt lat="33.8345871" lon="133.400129"><ele>1158.5566666666666</ele><time>2025-09-27T03:01:42Z</time></trkpt><trkpt lat="33.8344899" lon="133.3999412"><ele>1147.6233333333332</ele><time>2025-09-27T03:02:15Z</time></trkpt><trkpt lat="33.834365" lon="133.3997813"><ele>1137.3533333333332</ele><time>2025-09-27T03:02:51Z</time></trkpt><trkpt lat="33.8342316" lon="133.3996228"><ele>1127.0666666666666</ele><time>2025-09-27T03:03:27Z</time></trkpt><trkpt lat="33.834059" lon="133.3995079"><ele>1119.2366666666667</ele><time>2025-09-27T03:03:57Z</time></trkpt><trkpt lat="33.833887" lon="133.3994122"><ele>1113.3300000000002</ele><time>2025-09-27T03:04:18Z</time></trkpt><trkpt lat="33.8337128" lon="133.3993429"><ele>1111.1000000000001</ele><time>2025-09-27T03:04:42Z</time></trkpt><trkpt lat="33.8335845" lon="133.3991603"><ele>1111.0566666666666</ele><time>2025-09-27T03:05:39Z</time></trkpt></trkseg></trk></gpx>