<?xml version='1.0' encoding='UTF-8'?><gpx creator="YAMAP - https://yamap.com" xsi:schemaLocation="http://www.topografix.com/GPX/1/1 http://www.topografix.com/GPX/1/1/gpx.xsd" version="1.1" xmlns="http://www.topografix.com/GPX/1/1" xmlns:xsi="http://www.w3.org/2001/XMLSchema-instance"><metadata><bounds maxlat="33.7945899" maxlon="133.1933679" minlat="33.7801086" minlon="133.1877289"/></metadata><trk><name>子持権現山・男山・瓶ヶ森</name><number>1</number><trkseg><trkpt lat="33.7859354" lon="133.1903972"><ele>1671.1200000000001</ele><time>2024-07-06T01:01:08Z</time></trkpt><trkpt lat="33.7857699" lon="133.1905291"><ele>1671.325</ele><time>2024-07-06T01:01:59Z</time></trkpt><trkpt lat="33.785549" lon="133.1905208"><ele>1671.3733333333332</ele><time>2024-07-06T01:02:17Z</time></trkpt><trkpt lat="33.785564" lon="133.1907483"><ele>1671.6366666666665</ele><time>2024-07-06T01:03:31Z</time></trkpt><trkpt lat="33.7852795" lon="133.190415"><ele>1671.5433333333333</ele><time>2024-07-06T01:03:34Z</time></trkpt><trkpt lat="33.7850158" lon="133.1904307"><ele>1671.6499999999999</ele><time>2024-07-06T01:03:40Z</time></trkpt><trkpt lat="33.7850527" lon="133.1902193"><ele>1671.1266666666668</ele><time>2024-07-06T01:04:28Z</time></trkpt><trkpt lat="33.784827" lon="133.1903068"><ele>1671.5033333333333</ele><time>2024-07-06T01:04:43Z</time></trkpt><trkpt lat="33.7846706" lon="133.1901646"><ele>1671.6066666666668</ele><time>2024-07-06T01:04:58Z</time></trkpt><trkpt lat="33.7844448" lon="133.1901601"><ele>1671.9766666666667</ele><time>2024-07-06T01:05:10Z</time></trkpt><trkpt lat="33.7842772" lon="133.1900722"><ele>1671.7466666666667</ele><time>2024-07-06T01:05:25Z</time></trkpt><trkpt lat="33.7841358" lon="133.1899211"><ele>1670.0166666666667</ele><time>2024-07-06T01:05:37Z</time></trkpt><trkpt lat="33.7839469" lon="133.1899282"><ele>1667.7733333333335</ele><time>2024-07-06T01:05:52Z</time></trkpt><trkpt lat="33.7837552" lon="133.1898942"><ele>1664.7666666666667</ele><time>2024-07-06T01:06:10Z</time></trkpt><trkpt lat="33.7835909" lon="133.1898014"><ele>1662.9466666666667</ele><time>2024-07-06T01:06:22Z</time></trkpt><trkpt lat="33.7834349" lon="133.1896633"><ele>1662.25</ele><time>2024-07-06T01:06:34Z</time></trkpt><trkpt lat="33.7832942" lon="133.1895078"><ele>1662.01</ele><time>2024-07-06T01:06:49Z</time></trkpt><trkpt lat="33.7831039" lon="133.1895784"><ele>1661.0166666666667</ele><time>2024-07-06T01:07:04Z</time></trkpt><trkpt lat="33.782969" lon="133.1897223"><ele>1659.3100000000002</ele><time>2024-07-06T01:07:13Z</time></trkpt><trkpt lat="33.7829489" lon="133.1895007"><ele>1656.3100000000002</ele><time>2024-07-06T01:08:02Z</time></trkpt><trkpt lat="33.7827431" lon="133.1893596"><ele>1652.2633333333333</ele><time>2024-07-06T01:08:20Z</time></trkpt><trkpt lat="33.7825669" lon="133.1892553"><ele>1646.82</ele><time>2024-07-06T01:09:02Z</time></trkpt><trkpt lat="33.7824135" lon="133.1891087"><ele>1641.1166666666668</ele><time>2024-07-06T01:09:29Z</time></trkpt><trkpt lat="33.7822883" lon="133.1889367"><ele>1636.7433333333336</ele><time>2024-07-06T01:09:56Z</time></trkpt><trkpt lat="33.7822243" lon="133.1887077"><ele>1632.29</ele><time>2024-07-06T01:10:17Z</time></trkpt><trkpt lat="33.7820353" lon="133.188563"><ele>1628.9233333333332</ele><time>2024-07-06T01:11:53Z</time></trkpt><trkpt lat="33.7818737" lon="133.1886877"><ele>1624.7833333333335</ele><time>2024-07-06T01:12:20Z</time></trkpt><trkpt lat="33.7816874" lon="133.1885807"><ele>1619.1299999999999</ele><time>2024-07-06T01:12:53Z</time></trkpt><trkpt lat="33.781553" lon="133.188433"><ele>1614.86</ele><time>2024-07-06T01:13:08Z</time></trkpt><trkpt lat="33.7813544" lon="133.1883809"><ele>1609.7300000000002</ele><time>2024-07-06T01:13:29Z</time></trkpt><trkpt lat="33.7811755" lon="133.1884164"><ele>1606.4633333333331</ele><time>2024-07-06T01:13:41Z</time></trkpt><trkpt lat="33.7809873" lon="133.1883407"><ele>1602.2866666666669</ele><time>2024-07-06T01:13:59Z</time></trkpt><trkpt lat="33.7808926" lon="133.1881214"><ele>1603.8700000000001</ele><time>2024-07-06T01:14:19Z</time></trkpt><trkpt lat="33.7807092" lon="133.1880787"><ele>1608.1133333333335</ele><time>2024-07-06T01:16:03Z</time></trkpt><trkpt lat="33.780531" lon="133.1879994"><ele>1615.3999999999999</ele><time>2024-07-06T01:20:13Z</time></trkpt><trkpt lat="33.7804534" lon="133.1877289"><ele>1622.5266666666666</ele><time>2024-07-06T01:20:49Z</time></trkpt><trkpt lat="33.7802775" lon="133.1878643"><ele>1641.1166666666668</ele><time>2024-07-06T01:23:07Z</time></trkpt><trkpt lat="33.7801272" lon="133.1879916"><ele>1647.7733333333333</ele><time>2024-07-06T01:23:57Z</time></trkpt><trkpt lat="33.7801086" lon="133.1877685"><ele>1661.57</ele><time>2024-07-06T01:25:32Z</time></trkpt><trkpt lat="33.7802626" lon="133.1879064"><ele>1661.57</ele><time>2024-07-06T01:35:26Z</time></trkpt><trkpt lat="33.7804083" lon="133.1877679"><ele>1664.2233333333334</ele><time>2024-07-06T01:36:17Z</time></trkpt><trkpt lat="33.7805189" lon="133.1879469"><ele>1647.3366666666668</ele><time>2024-07-06T01:38:17Z</time></trkpt><trkpt lat="33.7806342" lon="133.1881136"><ele>1629.4733333333334</ele><time>2024-07-06T01:43:37Z</time></trkpt><trkpt lat="33.7808272" lon="133.1881575"><ele>1615.9800000000002</ele><time>2024-07-06T01:45:43Z</time></trkpt><trkpt lat="33.7810411" lon="133.1881652"><ele>1612.2733333333335</ele><time>2024-07-06T01:46:01Z</time></trkpt><trkpt lat="33.781187" lon="133.1882924"><ele>1609.21</ele><time>2024-07-06T01:47:42Z</time></trkpt><trkpt lat="33.7814035" lon="133.1882696"><ele>1609.8066666666666</ele><time>2024-07-06T01:48:37Z</time></trkpt><trkpt lat="33.7815885" lon="133.1883367"><ele>1612.4233333333332</ele><time>2024-07-06T01:48:55Z</time></trkpt><trkpt lat="33.7816778" lon="133.1885359"><ele>1615.5533333333333</ele><time>2024-07-06T01:49:16Z</time></trkpt><trkpt lat="33.7818511" lon="133.1886108"><ele>1618.4233333333334</ele><time>2024-07-06T01:49:37Z</time></trkpt><trkpt lat="33.7820414" lon="133.1886237"><ele>1620.6733333333334</ele><time>2024-07-06T01:50:22Z</time></trkpt><trkpt lat="33.7821723" lon="133.1887877"><ele>1625.2700000000002</ele><time>2024-07-06T01:50:41Z</time></trkpt><trkpt lat="33.7822834" lon="133.1889753"><ele>1629.0533333333333</ele><time>2024-07-06T01:51:06Z</time></trkpt><trkpt lat="33.78244" lon="133.1891141"><ele>1632.9233333333334</ele><time>2024-07-06T01:51:27Z</time></trkpt><trkpt lat="33.7825665" lon="133.1892683"><ele>1636.6633333333336</ele><time>2024-07-06T01:52:36Z</time></trkpt><trkpt lat="33.7827177" lon="133.189395"><ele>1641.6200000000001</ele><time>2024-07-06T01:53:33Z</time></trkpt><trkpt lat="33.7828643" lon="133.1895291"><ele>1646.6833333333334</ele><time>2024-07-06T01:55:12Z</time></trkpt><trkpt lat="33.7830651" lon="133.1895071"><ele>1651.0933333333332</ele><time>2024-07-06T01:55:48Z</time></trkpt><trkpt lat="33.7832537" lon="133.1894764"><ele>1655.3100000000002</ele><time>2024-07-06T01:56:09Z</time></trkpt><trkpt lat="33.783434" lon="133.1896035"><ele>1657.7633333333335</ele><time>2024-07-06T01:56:30Z</time></trkpt><trkpt lat="33.7836118" lon="133.1897281"><ele>1658.8533333333335</ele><time>2024-07-06T01:56:48Z</time></trkpt><trkpt lat="33.7838025" lon="133.1898215"><ele>1658.4433333333334</ele><time>2024-07-06T01:57:06Z</time></trkpt><trkpt lat="33.7839957" lon="133.1898906"><ele>1659.07</ele><time>2024-07-06T01:57:21Z</time></trkpt><trkpt lat="33.7841696" lon="133.1900051"><ele>1663.8033333333333</ele><time>2024-07-06T01:57:36Z</time></trkpt><trkpt lat="33.7843226" lon="133.1901299"><ele>1668.6666666666667</ele><time>2024-07-06T01:57:57Z</time></trkpt><trkpt lat="33.784505" lon="133.190175"><ele>1672.3333333333333</ele><time>2024-07-06T01:58:12Z</time></trkpt><trkpt lat="33.7847066" lon="133.1902067"><ele>1672.5966666666666</ele><time>2024-07-06T01:58:33Z</time></trkpt><trkpt lat="33.7848792" lon="133.1902982"><ele>1672.4166666666667</ele><time>2024-07-06T01:58:48Z</time></trkpt><trkpt lat="33.7850754" lon="133.1903781"><ele>1672.0166666666667</ele><time>2024-07-06T01:59:06Z</time></trkpt><trkpt lat="33.7852108" lon="133.190536"><ele>1672.03</ele><time>2024-07-06T01:59:18Z</time></trkpt><trkpt lat="33.7854198" lon="133.1906416"><ele>1672.1599999999999</ele><time>2024-07-06T01:59:36Z</time></trkpt><trkpt lat="33.7856233" lon="133.1906239"><ele>1672.32</ele><time>2024-07-06T02:00:15Z</time></trkpt><trkpt lat="33.7857937" lon="133.190698"><ele>1671.9966666666667</ele><time>2024-07-06T02:00:24Z</time></trkpt><trkpt lat="33.7859737" lon="133.1907343"><ele>1671.6833333333334</ele><time>2024-07-06T02:01:06Z</time></trkpt><trkpt lat="33.7861134" lon="133.1905609"><ele>1672.1733333333332</ele><time>2024-07-06T02:01:30Z</time></trkpt><trkpt lat="33.7862475" lon="133.1904164"><ele>1675.43</ele><time>2024-07-06T02:01:54Z</time></trkpt><trkpt lat="33.7864028" lon="133.190288"><ele>1680.7966666666669</ele><time>2024-07-06T02:03:06Z</time></trkpt><trkpt lat="33.7864939" lon="133.1900933"><ele>1685.89</ele><time>2024-07-06T02:03:22Z</time></trkpt><trkpt lat="33.7866036" lon="133.1899103"><ele>1690.1499999999999</ele><time>2024-07-06T02:03:51Z</time></trkpt><trkpt lat="33.7867158" lon="133.1900882"><ele>1695.5533333333333</ele><time>2024-07-06T02:05:30Z</time></trkpt><trkpt lat="33.7868826" lon="133.190249"><ele>1702.7</ele><time>2024-07-06T02:06:15Z</time></trkpt><trkpt lat="33.7870662" lon="133.1902434"><ele>1710.1066666666666</ele><time>2024-07-06T02:06:50Z</time></trkpt><trkpt lat="33.7872397" lon="133.1903081"><ele>1716.3666666666668</ele><time>2024-07-06T02:11:48Z</time></trkpt><trkpt lat="33.7873554" lon="133.1904765"><ele>1722.5500000000002</ele><time>2024-07-06T02:12:21Z</time></trkpt><trkpt lat="33.7875075" lon="133.1906175"><ele>1728.4166666666667</ele><time>2024-07-06T02:13:15Z</time></trkpt><trkpt lat="33.7876823" lon="133.1906841"><ele>1734.8799999999999</ele><time>2024-07-06T02:13:48Z</time></trkpt><trkpt lat="33.7878785" lon="133.1906444"><ele>1741.46</ele><time>2024-07-06T02:14:09Z</time></trkpt><trkpt lat="33.7880638" lon="133.1906751"><ele>1747.7933333333333</ele><time>2024-07-06T02:15:27Z</time></trkpt><trkpt lat="33.7882529" lon="133.1907038"><ele>1753.9966666666667</ele><time>2024-07-06T02:15:57Z</time></trkpt><trkpt lat="33.7884489" lon="133.1907553"><ele>1759.6866666666667</ele><time>2024-07-06T02:16:21Z</time></trkpt><trkpt lat="33.7886228" lon="133.1908453"><ele>1765.0666666666668</ele><time>2024-07-06T02:16:48Z</time></trkpt><trkpt lat="33.7888008" lon="133.1908893"><ele>1770.5</ele><time>2024-07-06T02:17:33Z</time></trkpt><trkpt lat="33.7889962" lon="133.1909276"><ele>1776.4333333333334</ele><time>2024-07-06T02:18:18Z</time></trkpt><trkpt lat="33.7891658" lon="133.1910431"><ele>1784.43</ele><time>2024-07-06T02:19:18Z</time></trkpt><trkpt lat="33.7893485" lon="133.1910564"><ele>1791.6599999999999</ele><time>2024-07-06T02:20:12Z</time></trkpt><trkpt lat="33.7894164" lon="133.1912571"><ele>1799.243333333333</ele><time>2024-07-06T02:21:39Z</time></trkpt><trkpt lat="33.7895982" lon="133.1913042"><ele>1808.14</ele><time>2024-07-06T02:22:48Z</time></trkpt><trkpt lat="33.7897816" lon="133.1913078"><ele>1816.4000000000003</ele><time>2024-07-06T02:23:09Z</time></trkpt><trkpt lat="33.7899393" lon="133.1914469"><ele>1822.9433333333334</ele><time>2024-07-06T02:25:06Z</time></trkpt><trkpt lat="33.7901244" lon="133.1914625"><ele>1826.2066666666667</ele><time>2024-07-06T02:26:00Z</time></trkpt><trkpt lat="33.7901887" lon="133.1916644"><ele>1828.3566666666666</ele><time>2024-07-06T02:26:45Z</time></trkpt><trkpt lat="33.7903184" lon="133.191816"><ele>1830.2399999999998</ele><time>2024-07-06T02:28:30Z</time></trkpt><trkpt lat="33.7904923" lon="133.1919242"><ele>1834.4866666666667</ele><time>2024-07-06T02:31:27Z</time></trkpt><trkpt lat="33.7906748" lon="133.1919266"><ele>1841.0666666666666</ele><time>2024-07-06T02:31:42Z</time></trkpt><trkpt lat="33.7908595" lon="133.191927"><ele>1847.3966666666668</ele><time>2024-07-06T02:32:02Z</time></trkpt><trkpt lat="33.7910393" lon="133.1920151"><ele>1850.33</ele><time>2024-07-06T02:32:23Z</time></trkpt><trkpt lat="33.7912213" lon="133.1920495"><ele>1850.96</ele><time>2024-07-06T02:32:43Z</time></trkpt><trkpt lat="33.7913874" lon="133.1921341"><ele>1851.4333333333334</ele><time>2024-07-06T02:33:11Z</time></trkpt><trkpt lat="33.7915941" lon="133.1920816"><ele>1851.8100000000002</ele><time>2024-07-06T02:33:39Z</time></trkpt><trkpt lat="33.7917761" lon="133.1921663"><ele>1852.7833333333335</ele><time>2024-07-06T02:34:00Z</time></trkpt><trkpt lat="33.7919761" lon="133.1921261"><ele>1853.0133333333333</ele><time>2024-07-06T02:34:48Z</time></trkpt><trkpt lat="33.7921585" lon="133.1921356"><ele>1853.3033333333333</ele><time>2024-07-06T02:35:09Z</time></trkpt><trkpt lat="33.792352" lon="133.1921348"><ele>1853.5833333333333</ele><time>2024-07-06T02:35:30Z</time></trkpt><trkpt lat="33.7925431" lon="133.1921538"><ele>1855.3633333333335</ele><time>2024-07-06T02:36:36Z</time></trkpt><trkpt lat="33.7926972" lon="133.1922725"><ele>1857.0566666666666</ele><time>2024-07-06T02:37:03Z</time></trkpt><trkpt lat="33.7928757" lon="133.1923335"><ele>1858.97</ele><time>2024-07-06T02:38:00Z</time></trkpt><trkpt lat="33.7930578" lon="133.1923679"><ele>1860.97</ele><time>2024-07-06T02:38:27Z</time></trkpt><trkpt lat="33.7932584" lon="133.1924356"><ele>1863.3400000000001</ele><time>2024-07-06T02:38:48Z</time></trkpt><trkpt lat="33.7934626" lon="133.1924988"><ele>1866.7933333333333</ele><time>2024-07-06T02:39:09Z</time></trkpt><trkpt lat="33.7936403" lon="133.192583"><ele>1870.53</ele><time>2024-07-06T02:39:33Z</time></trkpt><trkpt lat="33.7936727" lon="133.1928021"><ele>1873.8066666666666</ele><time>2024-07-06T02:40:19Z</time></trkpt><trkpt lat="33.7938131" lon="133.1929644"><ele>1876.54</ele><time>2024-07-06T02:40:48Z</time></trkpt><trkpt lat="33.7939111" lon="133.1931508"><ele>1877.8266666666666</ele><time>2024-07-06T02:41:18Z</time></trkpt><trkpt lat="33.7940394" lon="133.1933174"><ele>1880.243333333333</ele><time>2024-07-06T02:41:42Z</time></trkpt><trkpt lat="33.7942205" lon="133.1933679"><ele>1883.8466666666666</ele><time>2024-07-06T02:42:15Z</time></trkpt><trkpt lat="33.7944119" lon="133.1932905"><ele>1888.0566666666666</ele><time>2024-07-06T02:42:36Z</time></trkpt><trkpt lat="33.7945899" lon="133.1932243"><ele>1892.1533333333334</ele><time>2024-07-06T02:43:09Z</time></trkpt><trkpt lat="33.7945738" lon="133.1929016"><ele>1892.493333333333</ele><time>2024-07-06T03:24:21Z</time></trkpt><trkpt lat="33.7944664" lon="133.1927134"><ele>1890.0866666666668</ele><time>2024-07-06T03:24:48Z</time></trkpt><trkpt lat="33.7944614" lon="133.1924873"><ele>1884.0466666666669</ele><time>2024-07-06T03:25:12Z</time></trkpt><trkpt lat="33.7943009" lon="133.1923656"><ele>1877.5466666666669</ele><time>2024-07-06T03:25:48Z</time></trkpt><trkpt lat="33.7941104" lon="133.1922618"><ele>1871.2133333333331</ele><time>2024-07-06T03:26:12Z</time></trkpt><trkpt lat="33.7942904" lon="133.1922999"><ele>1868.7166666666665</ele><time>2024-07-06T03:26:21Z</time></trkpt><trkpt lat="33.7943303" lon="133.1920627"><ele>1866.0433333333333</ele><time>2024-07-06T03:26:39Z</time></trkpt><trkpt lat="33.7942927" lon="133.1918408"><ele>1862.97</ele><time>2024-07-06T03:26:57Z</time></trkpt><trkpt lat="33.7943044" lon="133.191591"><ele>1856.18</ele><time>2024-07-06T03:28:36Z</time></trkpt><trkpt lat="33.7942946" lon="133.1913728"><ele>1848.1433333333334</ele><time>2024-07-06T03:29:18Z</time></trkpt><trkpt lat="33.794353" lon="133.1911484"><ele>1840.8466666666666</ele><time>2024-07-06T03:29:51Z</time></trkpt><trkpt lat="33.7944034" lon="133.1909363"><ele>1833.6366666666665</ele><time>2024-07-06T03:30:36Z</time></trkpt><trkpt lat="33.7944394" lon="133.1907154"><ele>1828.6166666666668</ele><time>2024-07-06T03:30:51Z</time></trkpt><trkpt lat="33.7944591" lon="133.1904972"><ele>1823.8966666666668</ele><time>2024-07-06T03:31:31Z</time></trkpt><trkpt lat="33.7943807" lon="133.1902537"><ele>1819.0933333333335</ele><time>2024-07-06T03:33:21Z</time></trkpt><trkpt lat="33.7943173" lon="133.1900178"><ele>1813.3333333333333</ele><time>2024-07-06T03:33:42Z</time></trkpt><trkpt lat="33.7942243" lon="133.1898065"><ele>1805.9899999999998</ele><time>2024-07-06T03:34:10Z</time></trkpt><trkpt lat="33.7940483" lon="133.1897522"><ele>1800.4533333333336</ele><time>2024-07-06T03:35:42Z</time></trkpt><trkpt lat="33.7938952" lon="133.1896257"><ele>1793.8366666666668</ele><time>2024-07-06T03:36:39Z</time></trkpt><trkpt lat="33.7936958" lon="133.1895173"><ele>1787.7466666666667</ele><time>2024-07-06T03:37:00Z</time></trkpt><trkpt lat="33.7936478" lon="133.1893044"><ele>1780.7033333333336</ele><time>2024-07-06T03:37:36Z</time></trkpt><trkpt lat="33.7935265" lon="133.1891409"><ele>1775.1633333333332</ele><time>2024-07-06T03:38:15Z</time></trkpt><trkpt lat="33.7933833" lon="133.188985"><ele>1769.5199999999998</ele><time>2024-07-06T03:39:13Z</time></trkpt><trkpt lat="33.7932949" lon="133.1887889"><ele>1762.5766666666666</ele><time>2024-07-06T03:39:48Z</time></trkpt><trkpt lat="33.7931997" lon="133.1886"><ele>1754.6533333333334</ele><time>2024-07-06T03:40:15Z</time></trkpt><trkpt lat="33.7931787" lon="133.188376"><ele>1747.9800000000002</ele><time>2024-07-06T03:41:00Z</time></trkpt><trkpt lat="33.7930238" lon="133.1882466"><ele>1741.42</ele><time>2024-07-06T03:41:21Z</time></trkpt><trkpt lat="33.7928287" lon="133.1882331"><ele>1734.8400000000001</ele><time>2024-07-06T03:41:48Z</time></trkpt><trkpt lat="33.7926165" lon="133.1882908"><ele>1729.706666666667</ele><time>2024-07-06T03:42:51Z</time></trkpt><trkpt lat="33.7923782" lon="133.1882862"><ele>1727.45</ele><time>2024-07-06T03:48:33Z</time></trkpt><trkpt lat="33.792187" lon="133.1883823"><ele>1728.1066666666668</ele><time>2024-07-06T03:48:55Z</time></trkpt><trkpt lat="33.7920292" lon="133.1885215"><ele>1729.0600000000002</ele><time>2024-07-06T03:49:15Z</time></trkpt><trkpt lat="33.7918474" lon="133.1885653"><ele>1730.4066666666668</ele><time>2024-07-06T03:50:00Z</time></trkpt><trkpt lat="33.7916717" lon="133.1886513"><ele>1732.2299999999998</ele><time>2024-07-06T03:50:33Z</time></trkpt><trkpt lat="33.7914881" lon="133.1887456"><ele>1733.0533333333333</ele><time>2024-07-06T03:51:00Z</time></trkpt><trkpt lat="33.7912871" lon="133.1888262"><ele>1733.3233333333335</ele><time>2024-07-06T03:51:18Z</time></trkpt><trkpt lat="33.7911002" lon="133.188885"><ele>1732.3233333333335</ele><time>2024-07-06T03:51:42Z</time></trkpt><trkpt lat="33.7909013" lon="133.1888383"><ele>1732.0233333333333</ele><time>2024-07-06T03:52:03Z</time></trkpt><trkpt lat="33.790713" lon="133.1888223"><ele>1731.82</ele><time>2024-07-06T03:52:21Z</time></trkpt><trkpt lat="33.7905118" lon="133.1887922"><ele>1731.4133333333336</ele><time>2024-07-06T03:52:43Z</time></trkpt><trkpt lat="33.7903061" lon="133.1887238"><ele>1731.12</ele><time>2024-07-06T03:53:12Z</time></trkpt><trkpt lat="33.7901341" lon="133.1886583"><ele>1730.5033333333333</ele><time>2024-07-06T03:53:39Z</time></trkpt><trkpt lat="33.7899799" lon="133.188522"><ele>1729.506666666667</ele><time>2024-07-06T03:53:57Z</time></trkpt><trkpt lat="33.7898211" lon="133.1883862"><ele>1728.0533333333333</ele><time>2024-07-06T03:54:18Z</time></trkpt><trkpt lat="33.7896095" lon="133.1883328"><ele>1726.5933333333335</ele><time>2024-07-06T03:54:35Z</time></trkpt><trkpt lat="33.7894064" lon="133.1883128"><ele>1726.2066666666667</ele><time>2024-07-06T03:54:53Z</time></trkpt><trkpt lat="33.7892332" lon="133.1882132"><ele>1725.5433333333333</ele><time>2024-07-06T03:55:21Z</time></trkpt><trkpt lat="33.789048" lon="133.188186"><ele>1724.54</ele><time>2024-07-06T03:55:42Z</time></trkpt><trkpt lat="33.7888339" lon="133.1882149"><ele>1723.6000000000001</ele><time>2024-07-06T03:56:09Z</time></trkpt><trkpt lat="33.788653" lon="133.1883136"><ele>1723.5866666666668</ele><time>2024-07-06T03:56:45Z</time></trkpt><trkpt lat="33.7884631" lon="133.1882824"><ele>1723.5500000000002</ele><time>2024-07-06T03:57:12Z</time></trkpt><trkpt lat="33.78829" lon="133.1883827"><ele>1723.006666666667</ele><time>2024-07-06T03:57:33Z</time></trkpt><trkpt lat="33.7881362" lon="133.1885275"><ele>1721.4666666666665</ele><time>2024-07-06T03:57:54Z</time></trkpt><trkpt lat="33.7880137" lon="133.1886882"><ele>1720.4133333333332</ele><time>2024-07-06T03:58:33Z</time></trkpt><trkpt lat="33.7878773" lon="133.1888529"><ele>1718.96</ele><time>2024-07-06T03:59:39Z</time></trkpt><trkpt lat="33.787788" lon="133.1890631"><ele>1718.7466666666667</ele><time>2024-07-06T04:00:00Z</time></trkpt><trkpt lat="33.7876867" lon="133.1892519"><ele>1717.6000000000001</ele><time>2024-07-06T04:01:06Z</time></trkpt><trkpt lat="33.787555" lon="133.1894134"><ele>1716.5</ele><time>2024-07-06T04:01:39Z</time></trkpt><trkpt lat="33.787358" lon="133.1894282"><ele>1713.54</ele><time>2024-07-06T04:17:15Z</time></trkpt><trkpt lat="33.7871696" lon="133.1894903"><ele>1710.3033333333333</ele><time>2024-07-06T04:18:00Z</time></trkpt><trkpt lat="33.7870343" lon="133.1896493"><ele>1706.6666666666667</ele><time>2024-07-06T04:18:18Z</time></trkpt><trkpt lat="33.7868222" lon="133.1897292"><ele>1701.8</ele><time>2024-07-06T04:19:27Z</time></trkpt><trkpt lat="33.7866834" lon="133.1898679"><ele>1698.6833333333334</ele><time>2024-07-06T04:19:57Z</time></trkpt><trkpt lat="33.7865252" lon="133.1899719"><ele>1695.0733333333335</ele><time>2024-07-06T04:20:24Z</time></trkpt><trkpt lat="33.7864315" lon="133.1901768"><ele>1693.0133333333333</ele><time>2024-07-06T04:20:48Z</time></trkpt><trkpt lat="33.7863228" lon="133.1903591"><ele>1688.8633333333335</ele><time>2024-07-06T04:21:12Z</time></trkpt><trkpt lat="33.7861546" lon="133.1904517"><ele>1683.8333333333333</ele><time>2024-07-06T04:21:39Z</time></trkpt><trkpt lat="33.7861872" lon="133.1902303"><ele>1679.37</ele><time>2024-07-06T04:24:33Z</time></trkpt><trkpt lat="33.7861393" lon="133.1900174"><ele>1675.6000000000001</ele><time>2024-07-06T04:24:54Z</time></trkpt><trkpt lat="33.78595" lon="133.1900848"><ele>1671.8666666666668</ele><time>2024-07-06T04:25:18Z</time></trkpt><trkpt lat="33.7858834" lon="133.1903052"><ele>1669.4766666666667</ele><time>2024-07-06T04:25:31Z</time></trkpt></trkseg></trk></gpx>