<?xml version='1.0' encoding='UTF-8'?><gpx creator="YAMAP - https://yamap.com" xsi:schemaLocation="http://www.topografix.com/GPX/1/1 http://www.topografix.com/GPX/1/1/gpx.xsd" version="1.1" xmlns="http://www.topografix.com/GPX/1/1" xmlns:xsi="http://www.w3.org/2001/XMLSchema-instance"><metadata><bounds maxlat="34.1284511" maxlon="133.0502851" minlat="34.1208925" minlon="133.0425193"/></metadata><trk><name>姫政山</name><number>1</number><trkseg><trkpt lat="34.1219812" lon="133.0437746"><ele>72.05</ele><time>2025-03-09T23:18:29Z</time></trkpt><trkpt lat="34.1218864" lon="133.043979"><ele>69.3</ele><time>2025-03-09T23:18:50Z</time></trkpt><trkpt lat="34.1220448" lon="133.0441667"><ele>70.85000000000001</ele><time>2025-03-09T23:19:40Z</time></trkpt><trkpt lat="34.1219638" lon="133.0443888"><ele>68.37333333333333</ele><time>2025-03-09T23:19:55Z</time></trkpt><trkpt lat="34.1218411" lon="133.044554"><ele>68.29</ele><time>2025-03-09T23:20:37Z</time></trkpt><trkpt lat="34.1216665" lon="133.0446283"><ele>64.01333333333334</ele><time>2025-03-09T23:20:49Z</time></trkpt><trkpt lat="34.1214975" lon="133.0447138"><ele>62.79</ele><time>2025-03-09T23:21:01Z</time></trkpt><trkpt lat="34.1213196" lon="133.0448377"><ele>59.27666666666667</ele><time>2025-03-09T23:21:16Z</time></trkpt><trkpt lat="34.1211619" lon="133.0450068"><ele>56.55666666666667</ele><time>2025-03-09T23:21:30Z</time></trkpt><trkpt lat="34.120999" lon="133.0451319"><ele>53.03666666666667</ele><time>2025-03-09T23:21:46Z</time></trkpt><trkpt lat="34.1208925" lon="133.045365"><ele>47.73666666666666</ele><time>2025-03-09T23:22:00Z</time></trkpt><trkpt lat="34.1209423" lon="133.0456287"><ele>44.98666666666667</ele><time>2025-03-09T23:22:15Z</time></trkpt><trkpt lat="34.1210244" lon="133.0458712"><ele>40.90333333333333</ele><time>2025-03-09T23:22:30Z</time></trkpt><trkpt lat="34.1210945" lon="133.0460725"><ele>37.38999999999999</ele><time>2025-03-09T23:22:42Z</time></trkpt><trkpt lat="34.1212686" lon="133.0461679"><ele>35.42666666666667</ele><time>2025-03-09T23:22:57Z</time></trkpt><trkpt lat="34.1214478" lon="133.0462147"><ele>35.9</ele><time>2025-03-09T23:23:09Z</time></trkpt><trkpt lat="34.121564" lon="133.0464281"><ele>36.126666666666665</ele><time>2025-03-09T23:23:24Z</time></trkpt><trkpt lat="34.1215645" lon="133.046693"><ele>32.85</ele><time>2025-03-09T23:23:48Z</time></trkpt><trkpt lat="34.121531" lon="133.0469118"><ele>28.680000000000003</ele><time>2025-03-09T23:24:01Z</time></trkpt><trkpt lat="34.1215141" lon="133.0471768"><ele>25.71666666666667</ele><time>2025-03-09T23:24:16Z</time></trkpt><trkpt lat="34.1216265" lon="133.0473617"><ele>21.819999999999997</ele><time>2025-03-09T23:24:28Z</time></trkpt><trkpt lat="34.1217623" lon="133.0475142"><ele>20.566666666666666</ele><time>2025-03-09T23:24:40Z</time></trkpt><trkpt lat="34.1219279" lon="133.0476271"><ele>21.183333333333334</ele><time>2025-03-09T23:24:52Z</time></trkpt><trkpt lat="34.1220965" lon="133.0477832"><ele>21.97</ele><time>2025-03-09T23:25:07Z</time></trkpt><trkpt lat="34.1221235" lon="133.048043"><ele>19.253333333333334</ele><time>2025-03-09T23:25:22Z</time></trkpt><trkpt lat="34.1223058" lon="133.0481051"><ele>18.939999999999998</ele><time>2025-03-09T23:25:47Z</time></trkpt><trkpt lat="34.1224936" lon="133.048044"><ele>19.936666666666667</ele><time>2025-03-09T23:25:56Z</time></trkpt><trkpt lat="34.1226457" lon="133.0478642"><ele>24.156666666666666</ele><time>2025-03-09T23:26:11Z</time></trkpt><trkpt lat="34.1228285" lon="133.0478104"><ele>23.583333333333332</ele><time>2025-03-09T23:26:26Z</time></trkpt><trkpt lat="34.1230039" lon="133.0477536"><ele>22.14</ele><time>2025-03-09T23:27:03Z</time></trkpt><trkpt lat="34.1231563" lon="133.047602"><ele>19.58666666666667</ele><time>2025-03-09T23:28:40Z</time></trkpt><trkpt lat="34.1233418" lon="133.0476606"><ele>19.08666666666667</ele><time>2025-03-09T23:31:36Z</time></trkpt><trkpt lat="34.1234767" lon="133.0478047"><ele>25.419999999999998</ele><time>2025-03-09T23:35:45Z</time></trkpt><trkpt lat="34.1236549" lon="133.0478561"><ele>34.830000000000005</ele><time>2025-03-09T23:37:03Z</time></trkpt><trkpt lat="34.1237533" lon="133.0480417"><ele>48.27333333333333</ele><time>2025-03-09T23:37:39Z</time></trkpt><trkpt lat="34.1239355" lon="133.0480054"><ele>56.63333333333333</ele><time>2025-03-09T23:38:18Z</time></trkpt><trkpt lat="34.124141" lon="133.048074"><ele>61.81</ele><time>2025-03-09T23:39:12Z</time></trkpt><trkpt lat="34.1243143" lon="133.0481424"><ele>64.35333333333334</ele><time>2025-03-09T23:41:00Z</time></trkpt><trkpt lat="34.1245013" lon="133.0481751"><ele>67.52</ele><time>2025-03-09T23:42:13Z</time></trkpt><trkpt lat="34.1246856" lon="133.0481633"><ele>72.53666666666668</ele><time>2025-03-09T23:44:07Z</time></trkpt><trkpt lat="34.1248597" lon="133.0482625"><ele>78.70666666666666</ele><time>2025-03-09T23:46:49Z</time></trkpt><trkpt lat="34.1250003" lon="133.0484016"><ele>86.87</ele><time>2025-03-09T23:47:32Z</time></trkpt><trkpt lat="34.1251904" lon="133.0484364"><ele>95.87333333333333</ele><time>2025-03-09T23:49:14Z</time></trkpt><trkpt lat="34.125295" lon="133.0486276"><ele>105.64333333333333</ele><time>2025-03-09T23:51:30Z</time></trkpt><trkpt lat="34.1253952" lon="133.0488135"><ele>116.72000000000001</ele><time>2025-03-09T23:52:17Z</time></trkpt><trkpt lat="34.1255857" lon="133.048819"><ele>126.68666666666667</ele><time>2025-03-09T23:53:32Z</time></trkpt><trkpt lat="34.1257652" lon="133.0488657"><ele>136.64666666666668</ele><time>2025-03-09T23:54:14Z</time></trkpt><trkpt lat="34.1258455" lon="133.0490701"><ele>143.98000000000002</ele><time>2025-03-09T23:56:16Z</time></trkpt><trkpt lat="34.1260105" lon="133.0491592"><ele>152.27666666666667</ele><time>2025-03-09T23:57:37Z</time></trkpt><trkpt lat="34.1261904" lon="133.0491811"><ele>162.22333333333333</ele><time>2025-03-09T23:58:31Z</time></trkpt><trkpt lat="34.126353" lon="133.0492924"><ele>172.81000000000003</ele><time>2025-03-10T00:00:59Z</time></trkpt><trkpt lat="34.1265373" lon="133.0493589"><ele>183.98666666666668</ele><time>2025-03-10T00:02:17Z</time></trkpt><trkpt lat="34.1267182" lon="133.0494207"><ele>191.95666666666668</ele><time>2025-03-10T00:03:11Z</time></trkpt><trkpt lat="34.1268737" lon="133.0495643"><ele>199.86</ele><time>2025-03-10T00:04:03Z</time></trkpt><trkpt lat="34.1270552" lon="133.0496284"><ele>206.71</ele><time>2025-03-10T00:04:51Z</time></trkpt><trkpt lat="34.1272204" lon="133.0497328"><ele>214.21333333333334</ele><time>2025-03-10T00:05:18Z</time></trkpt><trkpt lat="34.1273605" lon="133.0499124"><ele>219.40333333333334</ele><time>2025-03-10T00:05:45Z</time></trkpt><trkpt lat="34.1274817" lon="133.0500772"><ele>223.1</ele><time>2025-03-10T00:09:43Z</time></trkpt><trkpt lat="34.1276236" lon="133.0502122"><ele>225.90333333333334</ele><time>2025-03-10T00:10:36Z</time></trkpt><trkpt lat="34.1278155" lon="133.0502851"><ele>231.46333333333334</ele><time>2025-03-10T00:12:51Z</time></trkpt><trkpt lat="34.1280072" lon="133.050221"><ele>237.16</ele><time>2025-03-10T00:13:54Z</time></trkpt><trkpt lat="34.1281485" lon="133.0500739"><ele>242.8066666666667</ele><time>2025-03-10T00:14:29Z</time></trkpt><trkpt lat="34.1282308" lon="133.0498421"><ele>246.09</ele><time>2025-03-10T00:16:04Z</time></trkpt><trkpt lat="34.1282266" lon="133.0496227"><ele>248.4333333333333</ele><time>2025-03-10T00:16:55Z</time></trkpt><trkpt lat="34.1282464" lon="133.0494016"><ele>251.28333333333333</ele><time>2025-03-10T00:17:25Z</time></trkpt><trkpt lat="34.1282233" lon="133.049169"><ele>253.78666666666663</ele><time>2025-03-10T00:18:46Z</time></trkpt><trkpt lat="34.1282337" lon="133.0489403"><ele>255.49</ele><time>2025-03-10T00:19:16Z</time></trkpt><trkpt lat="34.1283309" lon="133.0487491"><ele>257.33666666666664</ele><time>2025-03-10T00:21:07Z</time></trkpt><trkpt lat="34.1284013" lon="133.0485486"><ele>261.67</ele><time>2025-03-10T00:21:40Z</time></trkpt><trkpt lat="34.1284511" lon="133.0483349"><ele>266.8066666666667</ele><time>2025-03-10T00:23:10Z</time></trkpt><trkpt lat="34.1284229" lon="133.0480859"><ele>270.00666666666666</ele><time>2025-03-10T00:29:34Z</time></trkpt><trkpt lat="34.1283255" lon="133.047895"><ele>268.5833333333333</ele><time>2025-03-10T00:30:54Z</time></trkpt><trkpt lat="34.1282923" lon="133.0476785"><ele>265.83666666666664</ele><time>2025-03-10T00:31:25Z</time></trkpt><trkpt lat="34.1283206" lon="133.047459"><ele>263.05333333333334</ele><time>2025-03-10T00:32:45Z</time></trkpt><trkpt lat="34.1283453" lon="133.047217"><ele>260.46333333333337</ele><time>2025-03-10T00:33:15Z</time></trkpt><trkpt lat="34.128239" lon="133.0470373"><ele>257.23333333333335</ele><time>2025-03-10T00:34:24Z</time></trkpt><trkpt lat="34.1281081" lon="133.0468714"><ele>251.27333333333334</ele><time>2025-03-10T00:35:16Z</time></trkpt><trkpt lat="34.1280047" lon="133.0466894"><ele>245.32333333333335</ele><time>2025-03-10T00:36:07Z</time></trkpt><trkpt lat="34.1278067" lon="133.0464065"><ele>237.42666666666665</ele><time>2025-03-10T00:37:04Z</time></trkpt><trkpt lat="34.1276785" lon="133.0462349"><ele>230.57666666666668</ele><time>2025-03-10T00:39:01Z</time></trkpt><trkpt lat="34.1276073" lon="133.0460325"><ele>223.33</ele><time>2025-03-10T00:39:43Z</time></trkpt><trkpt lat="34.1276343" lon="133.0458168"><ele>217.76</ele><time>2025-03-10T00:40:28Z</time></trkpt><trkpt lat="34.1274599" lon="133.0457011"><ele>209.9766666666667</ele><time>2025-03-10T00:43:21Z</time></trkpt><trkpt lat="34.1273609" lon="133.045506"><ele>199.20333333333335</ele><time>2025-03-10T00:45:09Z</time></trkpt><trkpt lat="34.1271908" lon="133.045433"><ele>186.89666666666668</ele><time>2025-03-10T00:46:49Z</time></trkpt><trkpt lat="34.127042" lon="133.0453044"><ele>176.35</ele><time>2025-03-10T00:47:40Z</time></trkpt><trkpt lat="34.1269216" lon="133.0451306"><ele>168.07000000000002</ele><time>2025-03-10T00:49:38Z</time></trkpt><trkpt lat="34.1268213" lon="133.0449501"><ele>161.33333333333334</ele><time>2025-03-10T00:51:06Z</time></trkpt><trkpt lat="34.1266411" lon="133.0448763"><ele>152.0</ele><time>2025-03-10T00:53:53Z</time></trkpt><trkpt lat="34.1264665" lon="133.0448061"><ele>138.48666666666668</ele><time>2025-03-10T00:55:23Z</time></trkpt><trkpt lat="34.126288" lon="133.0446788"><ele>121.37666666666667</ele><time>2025-03-10T00:56:29Z</time></trkpt><trkpt lat="34.126071" lon="133.0443999"><ele>105.88333333333333</ele><time>2025-03-10T00:58:28Z</time></trkpt><trkpt lat="34.1259386" lon="133.0442287"><ele>94.93666666666667</ele><time>2025-03-10T00:58:46Z</time></trkpt><trkpt lat="34.1257588" lon="133.0441235"><ele>88.73000000000002</ele><time>2025-03-10T00:59:07Z</time></trkpt><trkpt lat="34.1255772" lon="133.0439719"><ele>85.31666666666666</ele><time>2025-03-10T00:59:19Z</time></trkpt><trkpt lat="34.125443" lon="133.0438147"><ele>83.96666666666668</ele><time>2025-03-10T00:59:31Z</time></trkpt><trkpt lat="34.1252892" lon="133.0436161"><ele>83.80666666666667</ele><time>2025-03-10T00:59:46Z</time></trkpt><trkpt lat="34.125327" lon="133.0433642"><ele>81.81666666666666</ele><time>2025-03-10T01:00:01Z</time></trkpt><trkpt lat="34.1252276" lon="133.0431251"><ele>79.42333333333333</ele><time>2025-03-10T01:00:19Z</time></trkpt><trkpt lat="34.1251937" lon="133.0429069"><ele>76.01</ele><time>2025-03-10T01:00:34Z</time></trkpt><trkpt lat="34.125177" lon="133.0426752"><ele>74.23333333333333</ele><time>2025-03-10T01:00:49Z</time></trkpt><trkpt lat="34.1250283" lon="133.0425193"><ele>71.29</ele><time>2025-03-10T01:01:07Z</time></trkpt><trkpt lat="34.1248362" lon="133.0425324"><ele>68.88666666666667</ele><time>2025-03-10T01:01:19Z</time></trkpt><trkpt lat="34.1246575" lon="133.0426057"><ele>67.48333333333333</ele><time>2025-03-10T01:02:18Z</time></trkpt><trkpt lat="34.1244593" lon="133.0427027"><ele>67.43</ele><time>2025-03-10T01:02:37Z</time></trkpt><trkpt lat="34.1242749" lon="133.0426965"><ele>68.89333333333333</ele><time>2025-03-10T01:02:52Z</time></trkpt><trkpt lat="34.1240674" lon="133.0426419"><ele>70.72333333333334</ele><time>2025-03-10T01:03:09Z</time></trkpt><trkpt lat="34.1238769" lon="133.042695"><ele>72.83666666666667</ele><time>2025-03-10T01:03:24Z</time></trkpt><trkpt lat="34.1237004" lon="133.042798"><ele>74.03333333333335</ele><time>2025-03-10T01:03:41Z</time></trkpt><trkpt lat="34.1235386" lon="133.0426307"><ele>74.73666666666668</ele><time>2025-03-10T01:04:12Z</time></trkpt><trkpt lat="34.1233335" lon="133.0425717"><ele>77.14333333333333</ele><time>2025-03-10T01:04:28Z</time></trkpt><trkpt lat="34.1231319" lon="133.0426126"><ele>80.20666666666666</ele><time>2025-03-10T01:04:43Z</time></trkpt><trkpt lat="34.1229249" lon="133.0426814"><ele>84.02666666666666</ele><time>2025-03-10T01:04:58Z</time></trkpt><trkpt lat="34.1227578" lon="133.0427957"><ele>86.31666666666666</ele><time>2025-03-10T01:05:13Z</time></trkpt><trkpt lat="34.1226208" lon="133.0429756"><ele>88.61666666666667</ele><time>2025-03-10T01:05:28Z</time></trkpt><trkpt lat="34.1224268" lon="133.0430758"><ele>91.38333333333333</ele><time>2025-03-10T01:05:43Z</time></trkpt><trkpt lat="34.1222922" lon="133.0432775"><ele>92.02000000000002</ele><time>2025-03-10T01:06:01Z</time></trkpt><trkpt lat="34.1221593" lon="133.0434379"><ele>89.39333333333333</ele><time>2025-03-10T01:06:16Z</time></trkpt><trkpt lat="34.1220755" lon="133.0436335"><ele>83.75</ele><time>2025-03-10T01:06:31Z</time></trkpt></trkseg></trk></gpx>