<?xml version='1.0' encoding='UTF-8'?><gpx creator="YAMAP - https://yamap.com" xsi:schemaLocation="http://www.topografix.com/GPX/1/1 http://www.topografix.com/GPX/1/1/gpx.xsd" version="1.1" xmlns="http://www.topografix.com/GPX/1/1" xmlns:xsi="http://www.w3.org/2001/XMLSchema-instance"><metadata><bounds maxlat="33.5503481" maxlon="132.4866304" minlat="33.5340683" minlon="132.4575874"/></metadata><trk><name>牛の峰・尻高峰</name><number>1</number><trkseg><trkpt lat="33.5375176" lon="132.4656431"><ele>721.09</ele><time>2026-02-06T22:21:56Z</time></trkpt><trkpt lat="33.5373202" lon="132.4657118"><ele>724.11</ele><time>2026-02-06T22:22:30Z</time></trkpt><trkpt lat="33.5371329" lon="132.4657273"><ele>727.1700000000001</ele><time>2026-02-06T22:22:51Z</time></trkpt><trkpt lat="33.5370271" lon="132.4659329"><ele>731.5733333333334</ele><time>2026-02-06T22:23:16Z</time></trkpt><trkpt lat="33.5370469" lon="132.4661596"><ele>732.3800000000001</ele><time>2026-02-06T22:23:34Z</time></trkpt><trkpt lat="33.5370518" lon="132.4663991"><ele>732.2066666666666</ele><time>2026-02-06T22:23:46Z</time></trkpt><trkpt lat="33.537113" lon="132.466653"><ele>732.6966666666667</ele><time>2026-02-06T22:23:49Z</time></trkpt><trkpt lat="33.5371421" lon="132.4668712"><ele>736.7466666666666</ele><time>2026-02-06T22:24:10Z</time></trkpt><trkpt lat="33.537342" lon="132.4670048"><ele>740.0733333333334</ele><time>2026-02-06T22:24:28Z</time></trkpt><trkpt lat="33.5374227" lon="132.4672119"><ele>743.15</ele><time>2026-02-06T22:24:40Z</time></trkpt><trkpt lat="33.5374798" lon="132.4674425"><ele>744.6333333333333</ele><time>2026-02-06T22:25:22Z</time></trkpt><trkpt lat="33.5373575" lon="132.4676303"><ele>747.5833333333334</ele><time>2026-02-06T22:25:37Z</time></trkpt><trkpt lat="33.5373824" lon="132.4678902"><ele>750.4666666666667</ele><time>2026-02-06T22:25:48Z</time></trkpt><trkpt lat="33.5375056" lon="132.4680691"><ele>752.27</ele><time>2026-02-06T22:26:04Z</time></trkpt><trkpt lat="33.5376097" lon="132.4682451"><ele>753.0366666666667</ele><time>2026-02-06T22:26:13Z</time></trkpt><trkpt lat="33.5377902" lon="132.4683703"><ele>753.7766666666666</ele><time>2026-02-06T22:26:27Z</time></trkpt><trkpt lat="33.5379103" lon="132.4686033"><ele>756.21</ele><time>2026-02-06T22:26:52Z</time></trkpt><trkpt lat="33.5380064" lon="132.4687985"><ele>757.6833333333334</ele><time>2026-02-06T22:27:10Z</time></trkpt><trkpt lat="33.5381203" lon="132.4689665"><ele>756.9766666666668</ele><time>2026-02-06T22:27:45Z</time></trkpt><trkpt lat="33.5381865" lon="132.469197"><ele>756.07</ele><time>2026-02-06T22:28:16Z</time></trkpt><trkpt lat="33.5383081" lon="132.4693997"><ele>755.21</ele><time>2026-02-06T22:28:31Z</time></trkpt><trkpt lat="33.5384088" lon="132.4696317"><ele>755.0066666666667</ele><time>2026-02-06T22:28:47Z</time></trkpt><trkpt lat="33.5385077" lon="132.4698199"><ele>753.7566666666667</ele><time>2026-02-06T22:28:59Z</time></trkpt><trkpt lat="33.5386438" lon="132.4700203"><ele>751.1666666666666</ele><time>2026-02-06T22:29:14Z</time></trkpt><trkpt lat="33.5387866" lon="132.4701609"><ele>747.8100000000001</ele><time>2026-02-06T22:29:29Z</time></trkpt><trkpt lat="33.5388877" lon="132.4703845"><ele>744.7166666666667</ele><time>2026-02-06T22:30:02Z</time></trkpt><trkpt lat="33.5389957" lon="132.4706152"><ele>742.7566666666667</ele><time>2026-02-06T22:30:17Z</time></trkpt><trkpt lat="33.5390737" lon="132.4708173"><ele>742.3666666666667</ele><time>2026-02-06T22:30:29Z</time></trkpt><trkpt lat="33.5391894" lon="132.4710175"><ele>741.8466666666667</ele><time>2026-02-06T22:30:44Z</time></trkpt><trkpt lat="33.5392687" lon="132.4712351"><ele>743.3533333333334</ele><time>2026-02-06T22:31:05Z</time></trkpt><trkpt lat="33.5393564" lon="132.4714487"><ele>746.0500000000001</ele><time>2026-02-06T22:32:27Z</time></trkpt><trkpt lat="33.5395106" lon="132.4716032"><ele>746.93</ele><time>2026-02-06T22:32:51Z</time></trkpt><trkpt lat="33.5396116" lon="132.4718118"><ele>744.84</ele><time>2026-02-06T22:33:09Z</time></trkpt><trkpt lat="33.5396662" lon="132.4720201"><ele>742.18</ele><time>2026-02-06T22:33:24Z</time></trkpt><trkpt lat="33.5397018" lon="132.4722531"><ele>741.6266666666667</ele><time>2026-02-06T22:33:45Z</time></trkpt><trkpt lat="33.5397797" lon="132.4724792"><ele>743.8266666666667</ele><time>2026-02-06T22:34:06Z</time></trkpt><trkpt lat="33.5399219" lon="132.4726355"><ele>748.0</ele><time>2026-02-06T22:34:30Z</time></trkpt><trkpt lat="33.5400423" lon="132.472851"><ele>753.5366666666667</ele><time>2026-02-06T22:34:51Z</time></trkpt><trkpt lat="33.5400491" lon="132.4731062"><ele>758.0500000000001</ele><time>2026-02-06T22:35:09Z</time></trkpt><trkpt lat="33.5400539" lon="132.4733445"><ele>758.66</ele><time>2026-02-06T22:35:27Z</time></trkpt><trkpt lat="33.5401913" lon="132.4735181"><ele>756.5200000000001</ele><time>2026-02-06T22:35:42Z</time></trkpt><trkpt lat="33.5403714" lon="132.4736626"><ele>752.4433333333333</ele><time>2026-02-06T22:36:04Z</time></trkpt><trkpt lat="33.5404826" lon="132.4738567"><ele>748.7933333333334</ele><time>2026-02-06T22:36:22Z</time></trkpt><trkpt lat="33.5405943" lon="132.4740592"><ele>746.14</ele><time>2026-02-06T22:36:43Z</time></trkpt><trkpt lat="33.5406879" lon="132.4742718"><ele>744.64</ele><time>2026-02-06T22:37:01Z</time></trkpt><trkpt lat="33.5407969" lon="132.474473"><ele>743.89</ele><time>2026-02-06T22:37:22Z</time></trkpt><trkpt lat="33.5409069" lon="132.4746574"><ele>742.6033333333334</ele><time>2026-02-06T22:37:43Z</time></trkpt><trkpt lat="33.5408213" lon="132.4748835"><ele>741.85</ele><time>2026-02-06T22:38:31Z</time></trkpt><trkpt lat="33.5407232" lon="132.4750753"><ele>741.17</ele><time>2026-02-06T22:38:55Z</time></trkpt><trkpt lat="33.5406727" lon="132.4752908"><ele>739.68</ele><time>2026-02-06T22:39:28Z</time></trkpt><trkpt lat="33.5408247" lon="132.4754372"><ele>736.2966666666667</ele><time>2026-02-06T22:40:25Z</time></trkpt><trkpt lat="33.5409969" lon="132.4753608"><ele>731.4466666666667</ele><time>2026-02-06T22:42:05Z</time></trkpt><trkpt lat="33.5411813" lon="132.4754246"><ele>723.1033333333334</ele><time>2026-02-06T22:43:58Z</time></trkpt><trkpt lat="33.5413728" lon="132.4754145"><ele>713.75</ele><time>2026-02-06T22:46:05Z</time></trkpt><trkpt lat="33.541562" lon="132.4754057"><ele>702.8466666666667</ele><time>2026-02-06T22:46:38Z</time></trkpt><trkpt lat="33.5415861" lon="132.4756462"><ele>694.6433333333333</ele><time>2026-02-06T22:47:26Z</time></trkpt><trkpt lat="33.5416416" lon="132.4758823"><ele>687.4333333333334</ele><time>2026-02-06T22:47:44Z</time></trkpt><trkpt lat="33.5417374" lon="132.4760792"><ele>682.3933333333333</ele><time>2026-02-06T22:48:00Z</time></trkpt><trkpt lat="33.5417899" lon="132.4763847"><ele>678.9333333333333</ele><time>2026-02-06T22:48:14Z</time></trkpt><trkpt lat="33.5418173" lon="132.476782"><ele>675.8133333333334</ele><time>2026-02-06T22:48:27Z</time></trkpt><trkpt lat="33.5419233" lon="132.4769632"><ele>673.5299999999999</ele><time>2026-02-06T22:49:05Z</time></trkpt><trkpt lat="33.5420378" lon="132.4771298"><ele>673.3499999999999</ele><time>2026-02-06T22:49:15Z</time></trkpt><trkpt lat="33.5422279" lon="132.477218"><ele>673.85</ele><time>2026-02-06T22:49:33Z</time></trkpt><trkpt lat="33.5423771" lon="132.4774335"><ele>674.5133333333333</ele><time>2026-02-06T22:49:51Z</time></trkpt><trkpt lat="33.5425428" lon="132.477661"><ele>673.3533333333334</ele><time>2026-02-06T22:50:09Z</time></trkpt><trkpt lat="33.5427025" lon="132.4778492"><ele>672.0833333333334</ele><time>2026-02-06T22:50:23Z</time></trkpt><trkpt lat="33.5426721" lon="132.4780731"><ele>672.6999999999999</ele><time>2026-02-06T22:50:42Z</time></trkpt><trkpt lat="33.5427619" lon="132.4783013"><ele>673.7800000000001</ele><time>2026-02-06T22:50:59Z</time></trkpt><trkpt lat="33.5429818" lon="132.4784732"><ele>675.1066666666667</ele><time>2026-02-06T22:51:18Z</time></trkpt><trkpt lat="33.5431504" lon="132.4786406"><ele>673.34</ele><time>2026-02-06T22:51:31Z</time></trkpt><trkpt lat="33.5431411" lon="132.4789104"><ele>671.7166666666667</ele><time>2026-02-06T22:51:53Z</time></trkpt><trkpt lat="33.5432842" lon="132.479042"><ele>668.9033333333333</ele><time>2026-02-06T22:52:07Z</time></trkpt><trkpt lat="33.5434434" lon="132.4791606"><ele>666.75</ele><time>2026-02-06T22:52:19Z</time></trkpt><trkpt lat="33.5435576" lon="132.4793552"><ele>664.0733333333334</ele><time>2026-02-06T22:52:34Z</time></trkpt><trkpt lat="33.5434872" lon="132.4795959"><ele>664.14</ele><time>2026-02-06T22:52:52Z</time></trkpt><trkpt lat="33.5435628" lon="132.4797922"><ele>663.7366666666667</ele><time>2026-02-06T22:53:14Z</time></trkpt><trkpt lat="33.5437324" lon="132.4799306"><ele>663.8166666666667</ele><time>2026-02-06T22:53:25Z</time></trkpt><trkpt lat="33.5439176" lon="132.4800481"><ele>662.5466666666666</ele><time>2026-02-06T22:53:41Z</time></trkpt><trkpt lat="33.5440963" lon="132.4800835"><ele>661.0766666666667</ele><time>2026-02-06T22:53:53Z</time></trkpt><trkpt lat="33.5442125" lon="132.4802962"><ele>659.85</ele><time>2026-02-06T22:54:11Z</time></trkpt><trkpt lat="33.5443375" lon="132.4804643"><ele>658.12</ele><time>2026-02-06T22:54:26Z</time></trkpt><trkpt lat="33.5445048" lon="132.4806197"><ele>657.25</ele><time>2026-02-06T22:54:43Z</time></trkpt><trkpt lat="33.5446331" lon="132.4808194"><ele>655.4133333333333</ele><time>2026-02-06T22:54:58Z</time></trkpt><trkpt lat="33.5447408" lon="132.4810604"><ele>654.5566666666667</ele><time>2026-02-06T22:55:14Z</time></trkpt><trkpt lat="33.5447825" lon="132.4812892"><ele>653.65</ele><time>2026-02-06T22:55:47Z</time></trkpt><trkpt lat="33.5448426" lon="132.4814942"><ele>652.8233333333334</ele><time>2026-02-06T22:56:01Z</time></trkpt><trkpt lat="33.5448829" lon="132.4817325"><ele>652.3233333333334</ele><time>2026-02-06T22:56:19Z</time></trkpt><trkpt lat="33.5449504" lon="132.4819988"><ele>651.9566666666666</ele><time>2026-02-06T22:56:35Z</time></trkpt><trkpt lat="33.5449821" lon="132.4822299"><ele>651.9766666666666</ele><time>2026-02-06T22:56:50Z</time></trkpt><trkpt lat="33.5450387" lon="132.482498"><ele>652.6866666666666</ele><time>2026-02-06T22:57:08Z</time></trkpt><trkpt lat="33.5451367" lon="132.4827051"><ele>652.7566666666667</ele><time>2026-02-06T22:57:22Z</time></trkpt><trkpt lat="33.5452761" lon="132.4828945"><ele>651.7566666666667</ele><time>2026-02-06T22:57:37Z</time></trkpt><trkpt lat="33.5453224" lon="132.4831792"><ele>650.43</ele><time>2026-02-06T22:57:53Z</time></trkpt><trkpt lat="33.5454255" lon="132.4833721"><ele>649.4866666666667</ele><time>2026-02-06T22:58:07Z</time></trkpt><trkpt lat="33.5455497" lon="132.4835402"><ele>649.0633333333334</ele><time>2026-02-06T22:58:23Z</time></trkpt><trkpt lat="33.5457622" lon="132.4836139"><ele>646.1233333333333</ele><time>2026-02-06T22:58:39Z</time></trkpt><trkpt lat="33.5459726" lon="132.4836386"><ele>644.6433333333334</ele><time>2026-02-06T22:58:55Z</time></trkpt><trkpt lat="33.5461832" lon="132.4837263"><ele>645.2266666666668</ele><time>2026-02-06T22:59:10Z</time></trkpt><trkpt lat="33.5463327" lon="132.4838814"><ele>648.7466666666667</ele><time>2026-02-06T22:59:28Z</time></trkpt><trkpt lat="33.5465023" lon="132.4837949"><ele>650.9633333333334</ele><time>2026-02-06T23:00:11Z</time></trkpt><trkpt lat="33.5466977" lon="132.4838558"><ele>651.84</ele><time>2026-02-06T23:00:20Z</time></trkpt><trkpt lat="33.5468501" lon="132.483998"><ele>651.69</ele><time>2026-02-06T23:00:42Z</time></trkpt><trkpt lat="33.5470597" lon="132.4841338"><ele>651.6666666666666</ele><time>2026-02-06T23:00:59Z</time></trkpt><trkpt lat="33.5472359" lon="132.4842021"><ele>651.3100000000001</ele><time>2026-02-06T23:01:12Z</time></trkpt><trkpt lat="33.5474255" lon="132.4842578"><ele>650.3866666666668</ele><time>2026-02-06T23:01:31Z</time></trkpt><trkpt lat="33.5476085" lon="132.4843424"><ele>649.5600000000001</ele><time>2026-02-06T23:01:49Z</time></trkpt><trkpt lat="33.5477419" lon="132.4845134"><ele>649.5000000000001</ele><time>2026-02-06T23:02:04Z</time></trkpt><trkpt lat="33.5479387" lon="132.4846386"><ele>649.6366666666667</ele><time>2026-02-06T23:02:19Z</time></trkpt><trkpt lat="33.5481592" lon="132.4846731"><ele>649.3466666666667</ele><time>2026-02-06T23:02:41Z</time></trkpt><trkpt lat="33.54834" lon="132.4847857"><ele>648.4733333333334</ele><time>2026-02-06T23:02:55Z</time></trkpt><trkpt lat="33.548517" lon="132.4849141"><ele>648.3533333333334</ele><time>2026-02-06T23:03:10Z</time></trkpt><trkpt lat="33.548662" lon="132.4850665"><ele>648.2533333333333</ele><time>2026-02-06T23:03:25Z</time></trkpt><trkpt lat="33.5488241" lon="132.4851942"><ele>648.6733333333333</ele><time>2026-02-06T23:03:40Z</time></trkpt><trkpt lat="33.5490042" lon="132.4853294"><ele>648.2933333333334</ele><time>2026-02-06T23:03:55Z</time></trkpt><trkpt lat="33.5491615" lon="132.4854448"><ele>648.3533333333334</ele><time>2026-02-06T23:04:11Z</time></trkpt><trkpt lat="33.5493801" lon="132.4855468"><ele>646.8933333333333</ele><time>2026-02-06T23:04:25Z</time></trkpt><trkpt lat="33.5495676" lon="132.4856068"><ele>645.41</ele><time>2026-02-06T23:04:40Z</time></trkpt><trkpt lat="33.5497421" lon="132.4856629"><ele>643.4766666666666</ele><time>2026-02-06T23:04:51Z</time></trkpt><trkpt lat="33.5497248" lon="132.4858792"><ele>644.5799999999999</ele><time>2026-02-06T23:05:19Z</time></trkpt><trkpt lat="33.5497689" lon="132.4860903"><ele>647.2433333333333</ele><time>2026-02-06T23:06:38Z</time></trkpt><trkpt lat="33.5499252" lon="132.4862489"><ele>652.0033333333333</ele><time>2026-02-06T23:07:20Z</time></trkpt><trkpt lat="33.5500763" lon="132.4863997"><ele>656.0600000000001</ele><time>2026-02-06T23:07:36Z</time></trkpt><trkpt lat="33.5501266" lon="132.4866304"><ele>658.9133333333334</ele><time>2026-02-06T23:08:11Z</time></trkpt><trkpt lat="33.550332" lon="132.4866118"><ele>660.0566666666667</ele><time>2026-02-06T23:13:39Z</time></trkpt><trkpt lat="33.5503481" lon="132.4863967"><ele>657.1466666666666</ele><time>2026-02-06T23:15:45Z</time></trkpt><trkpt lat="33.5503439" lon="132.4861403"><ele>652.4366666666667</ele><time>2026-02-06T23:16:31Z</time></trkpt><trkpt lat="33.5502165" lon="132.4859522"><ele>647.21</ele><time>2026-02-06T23:17:12Z</time></trkpt><trkpt lat="33.5500223" lon="132.4858722"><ele>644.9933333333333</ele><time>2026-02-06T23:17:24Z</time></trkpt><trkpt lat="33.5498673" lon="132.4857408"><ele>643.6433333333334</ele><time>2026-02-06T23:17:36Z</time></trkpt><trkpt lat="33.5496683" lon="132.4856561"><ele>643.25</ele><time>2026-02-06T23:17:51Z</time></trkpt><trkpt lat="33.5494548" lon="132.4855828"><ele>642.94</ele><time>2026-02-06T23:18:05Z</time></trkpt><trkpt lat="33.5492883" lon="132.4854857"><ele>643.9</ele><time>2026-02-06T23:18:18Z</time></trkpt><trkpt lat="33.5491054" lon="132.4853957"><ele>645.7766666666666</ele><time>2026-02-06T23:18:36Z</time></trkpt><trkpt lat="33.5489402" lon="132.4852698"><ele>647.6266666666667</ele><time>2026-02-06T23:18:51Z</time></trkpt><trkpt lat="33.5487849" lon="132.4851442"><ele>648.0966666666667</ele><time>2026-02-06T23:19:06Z</time></trkpt><trkpt lat="33.5486022" lon="132.4850322"><ele>648.3866666666667</ele><time>2026-02-06T23:19:21Z</time></trkpt><trkpt lat="33.5484346" lon="132.484945"><ele>648.65</ele><time>2026-02-06T23:19:33Z</time></trkpt><trkpt lat="33.5482636" lon="132.4848202"><ele>649.88</ele><time>2026-02-06T23:19:48Z</time></trkpt><trkpt lat="33.5481144" lon="132.4846895"><ele>649.7433333333333</ele><time>2026-02-06T23:20:00Z</time></trkpt><trkpt lat="33.5479302" lon="132.48454"><ele>649.1233333333333</ele><time>2026-02-06T23:20:15Z</time></trkpt><trkpt lat="33.5477434" lon="132.4844837"><ele>649.1533333333333</ele><time>2026-02-06T23:20:30Z</time></trkpt><trkpt lat="33.547581" lon="132.4843537"><ele>649.1033333333334</ele><time>2026-02-06T23:20:48Z</time></trkpt><trkpt lat="33.5474025" lon="132.4842493"><ele>649.7600000000001</ele><time>2026-02-06T23:21:06Z</time></trkpt><trkpt lat="33.5471782" lon="132.4841424"><ele>649.9899999999999</ele><time>2026-02-06T23:21:25Z</time></trkpt><trkpt lat="33.5470049" lon="132.484041"><ele>650.66</ele><time>2026-02-06T23:21:39Z</time></trkpt><trkpt lat="33.5468369" lon="132.4839302"><ele>651.1233333333333</ele><time>2026-02-06T23:21:54Z</time></trkpt><trkpt lat="33.5466351" lon="132.4838483"><ele>651.37</ele><time>2026-02-06T23:22:09Z</time></trkpt><trkpt lat="33.5464333" lon="132.4837828"><ele>651.0966666666667</ele><time>2026-02-06T23:22:27Z</time></trkpt><trkpt lat="33.5462584" lon="132.4837245"><ele>650.2566666666667</ele><time>2026-02-06T23:22:45Z</time></trkpt><trkpt lat="33.5460601" lon="132.4836534"><ele>648.1733333333333</ele><time>2026-02-06T23:23:12Z</time></trkpt><trkpt lat="33.545865" lon="132.4836263"><ele>646.3166666666666</ele><time>2026-02-06T23:23:30Z</time></trkpt><trkpt lat="33.5456726" lon="132.4836145"><ele>644.8933333333333</ele><time>2026-02-06T23:23:51Z</time></trkpt><trkpt lat="33.5455289" lon="132.4834231"><ele>645.2433333333335</ele><time>2026-02-06T23:24:09Z</time></trkpt><trkpt lat="33.5453849" lon="132.4832614"><ele>646.8866666666667</ele><time>2026-02-06T23:24:24Z</time></trkpt><trkpt lat="33.5453314" lon="132.48304"><ele>647.6933333333333</ele><time>2026-02-06T23:24:41Z</time></trkpt><trkpt lat="33.5452605" lon="132.4828255"><ele>648.1366666666667</ele><time>2026-02-06T23:25:15Z</time></trkpt><trkpt lat="33.5451337" lon="132.4826027"><ele>648.7833333333334</ele><time>2026-02-06T23:25:30Z</time></trkpt><trkpt lat="33.5450851" lon="132.4823666"><ele>650.1433333333333</ele><time>2026-02-06T23:25:42Z</time></trkpt><trkpt lat="33.5450157" lon="132.4821356"><ele>650.9666666666667</ele><time>2026-02-06T23:25:54Z</time></trkpt><trkpt lat="33.544967" lon="132.4819037"><ele>650.7366666666667</ele><time>2026-02-06T23:26:09Z</time></trkpt><trkpt lat="33.5448922" lon="132.4816982"><ele>651.01</ele><time>2026-02-06T23:26:24Z</time></trkpt><trkpt lat="33.5448353" lon="132.4814527"><ele>651.3266666666667</ele><time>2026-02-06T23:26:45Z</time></trkpt><trkpt lat="33.5446964" lon="132.4812874"><ele>652.8733333333333</ele><time>2026-02-06T23:27:07Z</time></trkpt><trkpt lat="33.5446734" lon="132.480943"><ele>653.8133333333334</ele><time>2026-02-06T23:28:15Z</time></trkpt><trkpt lat="33.544579" lon="132.4807433"><ele>655.0500000000001</ele><time>2026-02-06T23:28:45Z</time></trkpt><trkpt lat="33.5443945" lon="132.4806587"><ele>657.1766666666666</ele><time>2026-02-06T23:29:02Z</time></trkpt><trkpt lat="33.544248" lon="132.4805104"><ele>660.25</ele><time>2026-02-06T23:29:18Z</time></trkpt><trkpt lat="33.5440932" lon="132.4802829"><ele>663.6366666666668</ele><time>2026-02-06T23:30:00Z</time></trkpt><trkpt lat="33.5439313" lon="132.4801213"><ele>664.4666666666667</ele><time>2026-02-06T23:30:09Z</time></trkpt><trkpt lat="33.5437812" lon="132.4799776"><ele>663.7433333333333</ele><time>2026-02-06T23:30:18Z</time></trkpt><trkpt lat="33.5436173" lon="132.4798472"><ele>662.6766666666666</ele><time>2026-02-06T23:30:30Z</time></trkpt><trkpt lat="33.5435712" lon="132.4795902"><ele>662.1999999999999</ele><time>2026-02-06T23:30:45Z</time></trkpt><trkpt lat="33.5436604" lon="132.479389"><ele>661.6066666666667</ele><time>2026-02-06T23:31:04Z</time></trkpt><trkpt lat="33.5434638" lon="132.479145"><ele>661.5266666666666</ele><time>2026-02-06T23:31:22Z</time></trkpt><trkpt lat="33.5433158" lon="132.4790146"><ele>662.42</ele><time>2026-02-06T23:31:40Z</time></trkpt><trkpt lat="33.5431368" lon="132.4788742"><ele>665.82</ele><time>2026-02-06T23:31:49Z</time></trkpt><trkpt lat="33.5431359" lon="132.4786052"><ele>668.67</ele><time>2026-02-06T23:32:07Z</time></trkpt><trkpt lat="33.5429621" lon="132.4784426"><ele>671.5400000000001</ele><time>2026-02-06T23:32:43Z</time></trkpt><trkpt lat="33.5428107" lon="132.4782775"><ele>672.7366666666667</ele><time>2026-02-06T23:33:14Z</time></trkpt><trkpt lat="33.5427201" lon="132.4780406"><ele>673.7866666666667</ele><time>2026-02-06T23:33:26Z</time></trkpt><trkpt lat="33.5426417" lon="132.4778375"><ele>673.35</ele><time>2026-02-06T23:33:38Z</time></trkpt><trkpt lat="33.5425713" lon="132.4776086"><ele>672.8466666666667</ele><time>2026-02-06T23:33:55Z</time></trkpt><trkpt lat="33.5423988" lon="132.4774509"><ele>672.7433333333333</ele><time>2026-02-06T23:34:14Z</time></trkpt><trkpt lat="33.5422644" lon="132.4772805"><ele>673.1266666666667</ele><time>2026-02-06T23:34:29Z</time></trkpt><trkpt lat="33.5421032" lon="132.4771291"><ele>673.8966666666666</ele><time>2026-02-06T23:34:43Z</time></trkpt><trkpt lat="33.5419193" lon="132.4770303"><ele>674.2766666666666</ele><time>2026-02-06T23:35:01Z</time></trkpt><trkpt lat="33.5417686" lon="132.4768366"><ele>673.62</ele><time>2026-02-06T23:35:16Z</time></trkpt><trkpt lat="33.5417656" lon="132.4765202"><ele>673.6866666666666</ele><time>2026-02-06T23:35:29Z</time></trkpt><trkpt lat="33.5417824" lon="132.4762843"><ele>674.4966666666668</ele><time>2026-02-06T23:36:59Z</time></trkpt><trkpt lat="33.5417891" lon="132.476038"><ele>675.71</ele><time>2026-02-06T23:37:54Z</time></trkpt><trkpt lat="33.541831" lon="132.4757652"><ele>675.43</ele><time>2026-02-06T23:38:09Z</time></trkpt><trkpt lat="33.54198" lon="132.4756423"><ele>673.7533333333334</ele><time>2026-02-06T23:38:26Z</time></trkpt><trkpt lat="33.5421725" lon="132.4755771"><ele>672.9833333333335</ele><time>2026-02-06T23:38:44Z</time></trkpt><trkpt lat="33.542372" lon="132.4755408"><ele>675.7233333333334</ele><time>2026-02-06T23:39:02Z</time></trkpt><trkpt lat="33.5425567" lon="132.4754859"><ele>679.0133333333334</ele><time>2026-02-06T23:39:17Z</time></trkpt><trkpt lat="33.54274" lon="132.4754911"><ele>681.2333333333333</ele><time>2026-02-06T23:39:54Z</time></trkpt><trkpt lat="33.5429216" lon="132.475438"><ele>678.3733333333333</ele><time>2026-02-06T23:40:20Z</time></trkpt><trkpt lat="33.543166" lon="132.4753452"><ele>675.0400000000001</ele><time>2026-02-06T23:40:38Z</time></trkpt><trkpt lat="33.5433406" lon="132.4752603"><ele>670.8000000000001</ele><time>2026-02-06T23:40:51Z</time></trkpt><trkpt lat="33.5435527" lon="132.4751437"><ele>667.84</ele><time>2026-02-06T23:41:05Z</time></trkpt><trkpt lat="33.5437419" lon="132.4752779"><ele>664.7333333333335</ele><time>2026-02-06T23:41:33Z</time></trkpt><trkpt lat="33.5436313" lon="132.4750471"><ele>663.39</ele><time>2026-02-06T23:43:07Z</time></trkpt><trkpt lat="33.5435345" lon="132.4748488"><ele>661.18</ele><time>2026-02-06T23:43:20Z</time></trkpt><trkpt lat="33.5433835" lon="132.4747193"><ele>660.5866666666667</ele><time>2026-02-06T23:44:15Z</time></trkpt><trkpt lat="33.5429615" lon="132.4746694"><ele>660.29</ele><time>2026-02-06T23:44:37Z</time></trkpt><trkpt lat="33.5429863" lon="132.4743821"><ele>660.2266666666667</ele><time>2026-02-06T23:45:20Z</time></trkpt><trkpt lat="33.5430632" lon="132.4741623"><ele>658.2733333333333</ele><time>2026-02-06T23:45:36Z</time></trkpt><trkpt lat="33.5433019" lon="132.4741009"><ele>654.9</ele><time>2026-02-06T23:46:48Z</time></trkpt><trkpt lat="33.5435326" lon="132.4740787"><ele>653.4733333333334</ele><time>2026-02-06T23:47:00Z</time></trkpt><trkpt lat="33.543711" lon="132.4739805"><ele>651.47</ele><time>2026-02-06T23:47:11Z</time></trkpt><trkpt lat="33.5435576" lon="132.4741006"><ele>650.16</ele><time>2026-02-06T23:48:22Z</time></trkpt><trkpt lat="33.5435337" lon="132.4738803"><ele>652.1666666666667</ele><time>2026-02-06T23:48:52Z</time></trkpt><trkpt lat="33.5434912" lon="132.4736655"><ele>656.3233333333334</ele><time>2026-02-06T23:49:40Z</time></trkpt><trkpt lat="33.5436276" lon="132.4734758"><ele>659.8033333333334</ele><time>2026-02-06T23:50:13Z</time></trkpt><trkpt lat="33.5437886" lon="132.4733471"><ele>658.8133333333334</ele><time>2026-02-06T23:50:40Z</time></trkpt><trkpt lat="33.5439096" lon="132.4731872"><ele>656.9466666666667</ele><time>2026-02-06T23:51:34Z</time></trkpt><trkpt lat="33.5440565" lon="132.4730496"><ele>654.6533333333333</ele><time>2026-02-06T23:51:54Z</time></trkpt><trkpt lat="33.5442157" lon="132.4729321"><ele>652.5633333333334</ele><time>2026-02-06T23:52:29Z</time></trkpt><trkpt lat="33.5444993" lon="132.4727657"><ele>650.9200000000001</ele><time>2026-02-06T23:53:08Z</time></trkpt><trkpt lat="33.5446821" lon="132.4727396"><ele>650.2600000000001</ele><time>2026-02-06T23:53:23Z</time></trkpt><trkpt lat="33.5448728" lon="132.4727466"><ele>648.15</ele><time>2026-02-06T23:53:35Z</time></trkpt><trkpt lat="33.5450695" lon="132.4726492"><ele>644.0333333333333</ele><time>2026-02-06T23:53:46Z</time></trkpt><trkpt lat="33.5452324" lon="132.4725424"><ele>638.3133333333334</ele><time>2026-02-06T23:54:12Z</time></trkpt><trkpt lat="33.5453967" lon="132.4724524"><ele>634.2433333333333</ele><time>2026-02-06T23:54:39Z</time></trkpt><trkpt lat="33.5455448" lon="132.4722944"><ele>631.4833333333333</ele><time>2026-02-06T23:55:04Z</time></trkpt><trkpt lat="33.5457352" lon="132.472219"><ele>629.2233333333334</ele><time>2026-02-06T23:55:49Z</time></trkpt><trkpt lat="33.5459128" lon="132.4721173"><ele>625.9566666666666</ele><time>2026-02-06T23:56:10Z</time></trkpt><trkpt lat="33.5460417" lon="132.4719051"><ele>620.1666666666666</ele><time>2026-02-06T23:56:33Z</time></trkpt><trkpt lat="33.5462063" lon="132.4718157"><ele>614.59</ele><time>2026-02-06T23:57:18Z</time></trkpt><trkpt lat="33.5464226" lon="132.4718043"><ele>609.4133333333334</ele><time>2026-02-06T23:57:42Z</time></trkpt><trkpt lat="33.5466302" lon="132.4717583"><ele>606.0300000000001</ele><time>2026-02-06T23:58:03Z</time></trkpt><trkpt lat="33.546802" lon="132.4716547"><ele>602.6700000000001</ele><time>2026-02-06T23:58:33Z</time></trkpt><trkpt lat="33.5469049" lon="132.4714289"><ele>599.08</ele><time>2026-02-06T23:59:06Z</time></trkpt><trkpt lat="33.5470294" lon="132.4712635"><ele>595.94</ele><time>2026-02-06T23:59:54Z</time></trkpt><trkpt lat="33.5472193" lon="132.4711319"><ele>592.1133333333333</ele><time>2026-02-07T00:00:22Z</time></trkpt><trkpt lat="33.5474107" lon="132.4707553"><ele>586.4133333333333</ele><time>2026-02-07T00:01:21Z</time></trkpt><trkpt lat="33.5476233" lon="132.4705834"><ele>579.8266666666667</ele><time>2026-02-07T00:02:39Z</time></trkpt><trkpt lat="33.5478437" lon="132.4705541"><ele>574.1333333333333</ele><time>2026-02-07T00:02:51Z</time></trkpt><trkpt lat="33.5480293" lon="132.4704683"><ele>570.5933333333334</ele><time>2026-02-07T00:03:00Z</time></trkpt><trkpt lat="33.5482036" lon="132.4703623"><ele>568.2866666666667</ele><time>2026-02-07T00:03:18Z</time></trkpt><trkpt lat="33.5484263" lon="132.4702308"><ele>565.9566666666666</ele><time>2026-02-07T00:03:24Z</time></trkpt><trkpt lat="33.5486131" lon="132.4701846"><ele>563.8366666666667</ele><time>2026-02-07T00:04:00Z</time></trkpt><trkpt lat="33.5487963" lon="132.4700786"><ele>561.2066666666667</ele><time>2026-02-07T00:04:18Z</time></trkpt><trkpt lat="33.5489796" lon="132.4701338"><ele>556.6666666666666</ele><time>2026-02-07T00:04:39Z</time></trkpt><trkpt lat="33.5491849" lon="132.470161"><ele>553.2633333333333</ele><time>2026-02-07T00:05:36Z</time></trkpt><trkpt lat="33.5493975" lon="132.4702352"><ele>550.9833333333335</ele><time>2026-02-07T00:06:09Z</time></trkpt><trkpt lat="33.5495328" lon="132.4700135"><ele>551.5066666666667</ele><time>2026-02-07T00:06:30Z</time></trkpt><trkpt lat="33.5497012" lon="132.4699226"><ele>551.1533333333333</ele><time>2026-02-07T00:06:53Z</time></trkpt><trkpt lat="33.5498959" lon="132.4699486"><ele>552.13</ele><time>2026-02-07T00:07:32Z</time></trkpt><trkpt lat="33.5501212" lon="132.4699639"><ele>555.5100000000001</ele><time>2026-02-07T00:08:02Z</time></trkpt><trkpt lat="33.550296" lon="132.4700176"><ele>560.1633333333333</ele><time>2026-02-07T00:08:46Z</time></trkpt><trkpt lat="33.549782" lon="132.469811"><ele>558.36</ele><time>2026-02-07T00:14:39Z</time></trkpt><trkpt lat="33.5495934" lon="132.4698043"><ele>552.4566666666667</ele><time>2026-02-07T00:15:06Z</time></trkpt><trkpt lat="33.5494925" lon="132.470007"><ele>548.1433333333333</ele><time>2026-02-07T00:15:24Z</time></trkpt><trkpt lat="33.5493163" lon="132.4701205"><ele>548.7566666666667</ele><time>2026-02-07T00:15:45Z</time></trkpt><trkpt lat="33.5491329" lon="132.4700377"><ele>548.2866666666666</ele><time>2026-02-07T00:16:27Z</time></trkpt><trkpt lat="33.5489436" lon="132.4699793"><ele>547.3266666666667</ele><time>2026-02-07T00:16:39Z</time></trkpt><trkpt lat="33.5486936" lon="132.4699441"><ele>548.9133333333333</ele><time>2026-02-07T00:17:48Z</time></trkpt><trkpt lat="33.54842" lon="132.469897"><ele>553.9433333333333</ele><time>2026-02-07T00:18:06Z</time></trkpt><trkpt lat="33.5482514" lon="132.4697924"><ele>556.0266666666666</ele><time>2026-02-07T00:18:18Z</time></trkpt><trkpt lat="33.5480038" lon="132.4697986"><ele>555.4933333333333</ele><time>2026-02-07T00:18:36Z</time></trkpt><trkpt lat="33.5477921" lon="132.4698042"><ele>553.8466666666667</ele><time>2026-02-07T00:18:57Z</time></trkpt><trkpt lat="33.5475917" lon="132.4697629"><ele>552.0433333333334</ele><time>2026-02-07T00:19:15Z</time></trkpt><trkpt lat="33.547413" lon="132.4698451"><ele>550.21</ele><time>2026-02-07T00:19:36Z</time></trkpt><trkpt lat="33.5472966" lon="132.4696635"><ele>544.7533333333334</ele><time>2026-02-07T00:21:15Z</time></trkpt><trkpt lat="33.5471091" lon="132.4695079"><ele>536.41</ele><time>2026-02-07T00:22:02Z</time></trkpt><trkpt lat="33.5469784" lon="132.4693462"><ele>526.0766666666667</ele><time>2026-02-07T00:22:21Z</time></trkpt><trkpt lat="33.5469711" lon="132.4691238"><ele>517.7466666666668</ele><time>2026-02-07T00:22:56Z</time></trkpt><trkpt lat="33.5468812" lon="132.4689336"><ele>511.4700000000001</ele><time>2026-02-07T00:23:14Z</time></trkpt><trkpt lat="33.5467562" lon="132.4687623"><ele>507.1166666666666</ele><time>2026-02-07T00:23:48Z</time></trkpt><trkpt lat="33.5465756" lon="132.4686674"><ele>505.2033333333334</ele><time>2026-02-07T00:24:05Z</time></trkpt><trkpt lat="33.5463794" lon="132.4686352"><ele>505.71333333333337</ele><time>2026-02-07T00:24:20Z</time></trkpt><trkpt lat="33.5461931" lon="132.4685796"><ele>505.72333333333336</ele><time>2026-02-07T00:24:35Z</time></trkpt><trkpt lat="33.5459826" lon="132.4685513"><ele>504.8833333333334</ele><time>2026-02-07T00:24:52Z</time></trkpt><trkpt lat="33.545845" lon="132.4683848"><ele>503.20666666666665</ele><time>2026-02-07T00:25:13Z</time></trkpt><trkpt lat="33.5456736" lon="132.4683119"><ele>501.57666666666665</ele><time>2026-02-07T00:25:41Z</time></trkpt><trkpt lat="33.5454871" lon="132.4682238"><ele>498.4466666666667</ele><time>2026-02-07T00:26:19Z</time></trkpt><trkpt lat="33.5454503" lon="132.4679492"><ele>495.3933333333334</ele><time>2026-02-07T00:26:34Z</time></trkpt><trkpt lat="33.5453538" lon="132.4677107"><ele>492.99333333333334</ele><time>2026-02-07T00:26:46Z</time></trkpt><trkpt lat="33.5452295" lon="132.4675284"><ele>493.00666666666666</ele><time>2026-02-07T00:27:01Z</time></trkpt><trkpt lat="33.5451069" lon="132.4673474"><ele>492.14333333333326</ele><time>2026-02-07T00:27:13Z</time></trkpt><trkpt lat="33.5449022" lon="132.4673053"><ele>490.3833333333334</ele><time>2026-02-07T00:27:28Z</time></trkpt><trkpt lat="33.5446398" lon="132.4672988"><ele>486.1466666666667</ele><time>2026-02-07T00:27:44Z</time></trkpt><trkpt lat="33.5444673" lon="132.4674152"><ele>485.18</ele><time>2026-02-07T00:28:02Z</time></trkpt><trkpt lat="33.5443877" lon="132.4671928"><ele>485.9466666666667</ele><time>2026-02-07T00:28:22Z</time></trkpt><trkpt lat="33.544423" lon="132.466935"><ele>486.2633333333333</ele><time>2026-02-07T00:28:40Z</time></trkpt><trkpt lat="33.5443981" lon="132.4666759"><ele>485.52666666666664</ele><time>2026-02-07T00:28:58Z</time></trkpt><trkpt lat="33.544303" lon="132.4664834"><ele>484.1666666666667</ele><time>2026-02-07T00:29:19Z</time></trkpt><trkpt lat="33.5441496" lon="132.4663571"><ele>484.6266666666667</ele><time>2026-02-07T00:29:35Z</time></trkpt><trkpt lat="33.5439664" lon="132.466224"><ele>484.26666666666665</ele><time>2026-02-07T00:29:53Z</time></trkpt><trkpt lat="33.5437741" lon="132.4661481"><ele>485.42333333333335</ele><time>2026-02-07T00:30:10Z</time></trkpt><trkpt lat="33.5435884" lon="132.4661361"><ele>488.72333333333336</ele><time>2026-02-07T00:30:28Z</time></trkpt><trkpt lat="33.5434091" lon="132.4662123"><ele>492.47333333333336</ele><time>2026-02-07T00:30:43Z</time></trkpt><trkpt lat="33.5432174" lon="132.4661862"><ele>493.67</ele><time>2026-02-07T00:30:56Z</time></trkpt><trkpt lat="33.5429687" lon="132.466219"><ele>494.22</ele><time>2026-02-07T00:31:14Z</time></trkpt><trkpt lat="33.5428754" lon="132.4660292"><ele>494.43666666666667</ele><time>2026-02-07T00:31:40Z</time></trkpt><trkpt lat="33.5430402" lon="132.465902"><ele>494.9466666666667</ele><time>2026-02-07T00:31:55Z</time></trkpt><trkpt lat="33.5432143" lon="132.4657241"><ele>494.35999999999996</ele><time>2026-02-07T00:32:08Z</time></trkpt><trkpt lat="33.5432099" lon="132.465483"><ele>493.78000000000003</ele><time>2026-02-07T00:32:26Z</time></trkpt><trkpt lat="33.5430968" lon="132.4652828"><ele>496.35999999999996</ele><time>2026-02-07T00:32:44Z</time></trkpt><trkpt lat="33.5432773" lon="132.4651077"><ele>499.56333333333333</ele><time>2026-02-07T00:33:20Z</time></trkpt><trkpt lat="33.5434433" lon="132.464984"><ele>502.64000000000004</ele><time>2026-02-07T00:33:26Z</time></trkpt><trkpt lat="33.5433161" lon="132.4647826"><ele>503.23999999999995</ele><time>2026-02-07T00:33:50Z</time></trkpt><trkpt lat="33.5431034" lon="132.4647556"><ele>504.29</ele><time>2026-02-07T00:34:05Z</time></trkpt><trkpt lat="33.5430477" lon="132.4643688"><ele>504.6133333333333</ele><time>2026-02-07T00:34:23Z</time></trkpt><trkpt lat="33.5428664" lon="132.4641976"><ele>506.4333333333334</ele><time>2026-02-07T00:34:49Z</time></trkpt><trkpt lat="33.5426819" lon="132.4640302"><ele>507.72333333333336</ele><time>2026-02-07T00:35:14Z</time></trkpt><trkpt lat="33.542538" lon="132.4638858"><ele>510.2966666666667</ele><time>2026-02-07T00:35:22Z</time></trkpt><trkpt lat="33.5424945" lon="132.4636515"><ele>512.3433333333334</ele><time>2026-02-07T00:35:43Z</time></trkpt><trkpt lat="33.5426432" lon="132.4635272"><ele>514.0866666666667</ele><time>2026-02-07T00:36:06Z</time></trkpt><trkpt lat="33.5427491" lon="132.4633139"><ele>515.13</ele><time>2026-02-07T00:36:21Z</time></trkpt><trkpt lat="33.542636" lon="132.4631385"><ele>515.0533333333334</ele><time>2026-02-07T00:36:33Z</time></trkpt><trkpt lat="33.5424263" lon="132.463135"><ele>517.1533333333333</ele><time>2026-02-07T00:36:51Z</time></trkpt><trkpt lat="33.5422774" lon="132.4629879"><ele>519.2433333333333</ele><time>2026-02-07T00:37:09Z</time></trkpt><trkpt lat="33.5422256" lon="132.4627723"><ele>521.9966666666666</ele><time>2026-02-07T00:37:27Z</time></trkpt><trkpt lat="33.5420859" lon="132.4625923"><ele>522.9866666666667</ele><time>2026-02-07T00:37:45Z</time></trkpt><trkpt lat="33.5418897" lon="132.462568"><ele>523.4366666666666</ele><time>2026-02-07T00:38:02Z</time></trkpt><trkpt lat="33.5417525" lon="132.4627297"><ele>525.2866666666667</ele><time>2026-02-07T00:38:22Z</time></trkpt><trkpt lat="33.5416086" lon="132.462892"><ele>529.4533333333334</ele><time>2026-02-07T00:38:44Z</time></trkpt><trkpt lat="33.5414796" lon="132.4627318"><ele>532.3566666666667</ele><time>2026-02-07T00:39:04Z</time></trkpt><trkpt lat="33.5413803" lon="132.4625392"><ele>534.1066666666667</ele><time>2026-02-07T00:39:26Z</time></trkpt><trkpt lat="33.5412164" lon="132.4624204"><ele>533.6633333333334</ele><time>2026-02-07T00:39:43Z</time></trkpt><trkpt lat="33.5411069" lon="132.4622302"><ele>535.1433333333334</ele><time>2026-02-07T00:40:01Z</time></trkpt><trkpt lat="33.5411905" lon="132.4620063"><ele>535.1566666666668</ele><time>2026-02-07T00:40:17Z</time></trkpt><trkpt lat="33.5411222" lon="132.4617722"><ele>536.86</ele><time>2026-02-07T00:40:32Z</time></trkpt><trkpt lat="33.5411967" lon="132.4615564"><ele>538.8</ele><time>2026-02-07T00:40:46Z</time></trkpt><trkpt lat="33.5412711" lon="132.4613529"><ele>541.6366666666667</ele><time>2026-02-07T00:41:01Z</time></trkpt><trkpt lat="33.5411995" lon="132.4611356"><ele>542.4766666666668</ele><time>2026-02-07T00:41:19Z</time></trkpt><trkpt lat="33.5410062" lon="132.4611827"><ele>543.2533333333334</ele><time>2026-02-07T00:41:37Z</time></trkpt><trkpt lat="33.5408417" lon="132.4613214"><ele>544.6666666666666</ele><time>2026-02-07T00:41:56Z</time></trkpt><trkpt lat="33.5406518" lon="132.4613493"><ele>545.6766666666667</ele><time>2026-02-07T00:42:16Z</time></trkpt><trkpt lat="33.5404585" lon="132.4613414"><ele>546.4933333333333</ele><time>2026-02-07T00:42:31Z</time></trkpt><trkpt lat="33.5402887" lon="132.4612233"><ele>546.5099999999999</ele><time>2026-02-07T00:42:47Z</time></trkpt><trkpt lat="33.5403378" lon="132.4610108"><ele>544.1533333333333</ele><time>2026-02-07T00:43:29Z</time></trkpt><trkpt lat="33.5401401" lon="132.4609067"><ele>545.2833333333333</ele><time>2026-02-07T00:43:43Z</time></trkpt><trkpt lat="33.5400022" lon="132.4607649"><ele>547.37</ele><time>2026-02-07T00:43:57Z</time></trkpt><trkpt lat="33.5398979" lon="132.4605738"><ele>551.9</ele><time>2026-02-07T00:44:12Z</time></trkpt><trkpt lat="33.5397145" lon="132.4605495"><ele>554.3333333333334</ele><time>2026-02-07T00:44:53Z</time></trkpt><trkpt lat="33.5395284" lon="132.4605389"><ele>557.82</ele><time>2026-02-07T00:46:34Z</time></trkpt><trkpt lat="33.5394951" lon="132.4607706"><ele>561.9066666666668</ele><time>2026-02-07T00:46:50Z</time></trkpt><trkpt lat="33.539553" lon="132.4610001"><ele>564.9566666666666</ele><time>2026-02-07T00:47:05Z</time></trkpt><trkpt lat="33.5396948" lon="132.4611626"><ele>565.77</ele><time>2026-02-07T00:47:20Z</time></trkpt><trkpt lat="33.5398614" lon="132.461325"><ele>565.5533333333334</ele><time>2026-02-07T00:47:41Z</time></trkpt><trkpt lat="33.53999" lon="132.4614953"><ele>565.1500000000001</ele><time>2026-02-07T00:47:55Z</time></trkpt><trkpt lat="33.5401195" lon="132.4617091"><ele>566.7433333333333</ele><time>2026-02-07T00:48:13Z</time></trkpt><trkpt lat="33.5402413" lon="132.4618706"><ele>570.4666666666667</ele><time>2026-02-07T00:48:29Z</time></trkpt><trkpt lat="33.5404146" lon="132.4619572"><ele>573.0566666666667</ele><time>2026-02-07T00:48:43Z</time></trkpt><trkpt lat="33.5405495" lon="132.4621345"><ele>573.5033333333333</ele><time>2026-02-07T00:49:01Z</time></trkpt><trkpt lat="33.5405558" lon="132.4623761"><ele>572.5300000000001</ele><time>2026-02-07T00:49:16Z</time></trkpt><trkpt lat="33.5404227" lon="132.4625613"><ele>574.0</ele><time>2026-02-07T00:49:31Z</time></trkpt><trkpt lat="33.5402373" lon="132.4626993"><ele>578.0233333333333</ele><time>2026-02-07T00:49:50Z</time></trkpt><trkpt lat="33.5400397" lon="132.4626903"><ele>582.5366666666667</ele><time>2026-02-07T00:50:08Z</time></trkpt><trkpt lat="33.5398819" lon="132.4625787"><ele>585.8466666666667</ele><time>2026-02-07T00:50:26Z</time></trkpt><trkpt lat="33.5398246" lon="132.4623582"><ele>586.4633333333333</ele><time>2026-02-07T00:50:41Z</time></trkpt><trkpt lat="33.5397302" lon="132.462155"><ele>585.6133333333333</ele><time>2026-02-07T00:50:55Z</time></trkpt><trkpt lat="33.5396256" lon="132.4619717"><ele>583.64</ele><time>2026-02-07T00:51:10Z</time></trkpt><trkpt lat="33.5395403" lon="132.4617517"><ele>582.5666666666666</ele><time>2026-02-07T00:51:26Z</time></trkpt><trkpt lat="33.539481" lon="132.4615334"><ele>582.8266666666667</ele><time>2026-02-07T00:51:40Z</time></trkpt><trkpt lat="33.5393797" lon="132.4613165"><ele>583.9633333333333</ele><time>2026-02-07T00:51:56Z</time></trkpt><trkpt lat="33.5392133" lon="132.4611994"><ele>584.7833333333333</ele><time>2026-02-07T00:52:11Z</time></trkpt><trkpt lat="33.5390126" lon="132.4611613"><ele>587.91</ele><time>2026-02-07T00:52:27Z</time></trkpt><trkpt lat="33.5388064" lon="132.4611269"><ele>591.0233333333334</ele><time>2026-02-07T00:52:47Z</time></trkpt><trkpt lat="33.5386664" lon="132.4609534"><ele>593.9133333333333</ele><time>2026-02-07T00:53:01Z</time></trkpt><trkpt lat="33.5385776" lon="132.4607416"><ele>594.3033333333334</ele><time>2026-02-07T00:53:16Z</time></trkpt><trkpt lat="33.5385717" lon="132.4605085"><ele>593.9566666666668</ele><time>2026-02-07T00:53:32Z</time></trkpt><trkpt lat="33.5385753" lon="132.4602674"><ele>593.1700000000001</ele><time>2026-02-07T00:53:47Z</time></trkpt><trkpt lat="33.5384544" lon="132.4600567"><ele>592.62</ele><time>2026-02-07T00:54:04Z</time></trkpt><trkpt lat="33.5383111" lon="132.4599069"><ele>592.43</ele><time>2026-02-07T00:54:21Z</time></trkpt><trkpt lat="33.5381044" lon="132.4598651"><ele>593.4933333333333</ele><time>2026-02-07T00:54:36Z</time></trkpt><trkpt lat="33.5379356" lon="132.4599596"><ele>594.0500000000001</ele><time>2026-02-07T00:54:48Z</time></trkpt><trkpt lat="33.5378085" lon="132.4601279"><ele>595.1266666666667</ele><time>2026-02-07T00:55:01Z</time></trkpt><trkpt lat="33.5376411" lon="132.4602744"><ele>595.7833333333334</ele><time>2026-02-07T00:55:15Z</time></trkpt><trkpt lat="33.5374739" lon="132.4604192"><ele>596.1300000000001</ele><time>2026-02-07T00:55:34Z</time></trkpt><trkpt lat="33.5372667" lon="132.4604102"><ele>596.9233333333333</ele><time>2026-02-07T00:55:52Z</time></trkpt><trkpt lat="33.5370875" lon="132.4602844"><ele>600.1233333333333</ele><time>2026-02-07T00:56:09Z</time></trkpt><trkpt lat="33.5369025" lon="132.4601724"><ele>603.89</ele><time>2026-02-07T00:56:27Z</time></trkpt><trkpt lat="33.5367187" lon="132.4601258"><ele>609.3666666666667</ele><time>2026-02-07T00:56:43Z</time></trkpt><trkpt lat="33.5365212" lon="132.4602367"><ele>612.3833333333333</ele><time>2026-02-07T00:56:57Z</time></trkpt><trkpt lat="33.5363562" lon="132.4603727"><ele>615.6133333333333</ele><time>2026-02-07T00:57:12Z</time></trkpt><trkpt lat="33.5361733" lon="132.4604766"><ele>616.2866666666667</ele><time>2026-02-07T00:57:28Z</time></trkpt><trkpt lat="33.535979" lon="132.4605503"><ele>616.9033333333333</ele><time>2026-02-07T00:57:46Z</time></trkpt><trkpt lat="33.535798" lon="132.4604566"><ele>617.7</ele><time>2026-02-07T00:58:01Z</time></trkpt><trkpt lat="33.535665" lon="132.4602947"><ele>619.7399999999999</ele><time>2026-02-07T00:58:15Z</time></trkpt><trkpt lat="33.5355918" lon="132.4600753"><ele>621.2933333333334</ele><time>2026-02-07T00:58:31Z</time></trkpt><trkpt lat="33.5355094" lon="132.4598452"><ele>622.54</ele><time>2026-02-07T00:58:48Z</time></trkpt><trkpt lat="33.5354149" lon="132.4596232"><ele>622.7233333333334</ele><time>2026-02-07T00:59:06Z</time></trkpt><trkpt lat="33.5353578" lon="132.4593992"><ele>623.0266666666666</ele><time>2026-02-07T00:59:24Z</time></trkpt><trkpt lat="33.535383" lon="132.4591524"><ele>622.4333333333333</ele><time>2026-02-07T00:59:43Z</time></trkpt><trkpt lat="33.5354056" lon="132.4589129"><ele>620.9466666666667</ele><time>2026-02-07T00:59:59Z</time></trkpt><trkpt lat="33.5353885" lon="132.4586921"><ele>620.9733333333334</ele><time>2026-02-07T01:00:14Z</time></trkpt><trkpt lat="33.535487" lon="132.4584624"><ele>622.1</ele><time>2026-02-07T01:00:30Z</time></trkpt><trkpt lat="33.5355904" lon="132.4582368"><ele>624.1133333333333</ele><time>2026-02-07T01:00:46Z</time></trkpt><trkpt lat="33.5357" lon="132.458049"><ele>624.1533333333333</ele><time>2026-02-07T01:01:00Z</time></trkpt><trkpt lat="33.5356526" lon="132.4578147"><ele>624.1566666666668</ele><time>2026-02-07T01:01:16Z</time></trkpt><trkpt lat="33.5355192" lon="132.4576304"><ele>624.0466666666667</ele><time>2026-02-07T01:01:31Z</time></trkpt><trkpt lat="33.5353188" lon="132.4575874"><ele>624.5333333333334</ele><time>2026-02-07T01:01:45Z</time></trkpt><trkpt lat="33.5351502" lon="132.4576785"><ele>624.8633333333333</ele><time>2026-02-07T01:02:00Z</time></trkpt><trkpt lat="33.5350882" lon="132.4578936"><ele>626.4333333333334</ele><time>2026-02-07T01:02:12Z</time></trkpt><trkpt lat="33.5349551" lon="132.4580471"><ele>628.2733333333334</ele><time>2026-02-07T01:02:28Z</time></trkpt><trkpt lat="33.5348223" lon="132.458198"><ele>629.51</ele><time>2026-02-07T01:02:46Z</time></trkpt><trkpt lat="33.5347391" lon="132.4583917"><ele>628.94</ele><time>2026-02-07T01:03:01Z</time></trkpt><trkpt lat="33.534697" lon="132.4586295"><ele>628.71</ele><time>2026-02-07T01:03:16Z</time></trkpt><trkpt lat="33.5346283" lon="132.4588808"><ele>630.62</ele><time>2026-02-07T01:03:33Z</time></trkpt><trkpt lat="33.5345929" lon="132.4591227"><ele>634.25</ele><time>2026-02-07T01:03:49Z</time></trkpt><trkpt lat="33.5345034" lon="132.4593179"><ele>637.0966666666667</ele><time>2026-02-07T01:04:04Z</time></trkpt><trkpt lat="33.5345394" lon="132.4595512"><ele>640.3466666666667</ele><time>2026-02-07T01:04:19Z</time></trkpt><trkpt lat="33.5344447" lon="132.4597684"><ele>642.6</ele><time>2026-02-07T01:04:38Z</time></trkpt><trkpt lat="33.5342506" lon="132.4598429"><ele>644.8633333333333</ele><time>2026-02-07T01:04:56Z</time></trkpt><trkpt lat="33.5340683" lon="132.4597359"><ele>644.09</ele><time>2026-02-07T01:05:15Z</time></trkpt><trkpt lat="33.5341947" lon="132.4599523"><ele>644.3666666666667</ele><time>2026-02-07T01:06:28Z</time></trkpt><trkpt lat="33.5343801" lon="132.4600353"><ele>645.1966666666667</ele><time>2026-02-07T01:06:43Z</time></trkpt><trkpt lat="33.5345874" lon="132.4599924"><ele>647.3066666666667</ele><time>2026-02-07T01:07:00Z</time></trkpt><trkpt lat="33.5347612" lon="132.4601141"><ele>649.5033333333333</ele><time>2026-02-07T01:07:16Z</time></trkpt><trkpt lat="33.5348502" lon="132.4603427"><ele>652.3533333333334</ele><time>2026-02-07T01:07:31Z</time></trkpt><trkpt lat="33.5349813" lon="132.4605364"><ele>654.87</ele><time>2026-02-07T01:07:50Z</time></trkpt><trkpt lat="33.5351063" lon="132.4607243"><ele>656.2566666666667</ele><time>2026-02-07T01:08:05Z</time></trkpt><trkpt lat="33.5352351" lon="132.4608894"><ele>658.75</ele><time>2026-02-07T01:08:19Z</time></trkpt><trkpt lat="33.535311" lon="132.4611281"><ele>662.0033333333334</ele><time>2026-02-07T01:08:38Z</time></trkpt><trkpt lat="33.5353686" lon="132.4613543"><ele>666.0500000000001</ele><time>2026-02-07T01:08:53Z</time></trkpt><trkpt lat="33.5355555" lon="132.4614059"><ele>665.8233333333334</ele><time>2026-02-07T01:09:07Z</time></trkpt><trkpt lat="33.535692" lon="132.4615601"><ele>664.8666666666667</ele><time>2026-02-07T01:09:22Z</time></trkpt><trkpt lat="33.5358167" lon="132.4617541"><ele>663.4866666666667</ele><time>2026-02-07T01:09:41Z</time></trkpt><trkpt lat="33.5359634" lon="132.4619021"><ele>665.3633333333333</ele><time>2026-02-07T01:09:58Z</time></trkpt><trkpt lat="33.5361426" lon="132.4618167"><ele>665.7400000000001</ele><time>2026-02-07T01:10:22Z</time></trkpt><trkpt lat="33.5363304" lon="132.4618309"><ele>666.1566666666668</ele><time>2026-02-07T01:10:42Z</time></trkpt><trkpt lat="33.5364408" lon="132.4616597"><ele>665.0133333333333</ele><time>2026-02-07T01:10:57Z</time></trkpt><trkpt lat="33.5366469" lon="132.4617354"><ele>668.4200000000001</ele><time>2026-02-07T01:11:15Z</time></trkpt><trkpt lat="33.5367689" lon="132.4618944"><ele>671.3933333333334</ele><time>2026-02-07T01:11:31Z</time></trkpt><trkpt lat="33.53694" lon="132.4619673"><ele>675.0400000000001</ele><time>2026-02-07T01:11:46Z</time></trkpt><trkpt lat="33.5371265" lon="132.4620809"><ele>675.9966666666668</ele><time>2026-02-07T01:12:05Z</time></trkpt><trkpt lat="33.5371892" lon="132.4622936"><ele>678.4066666666668</ele><time>2026-02-07T01:12:23Z</time></trkpt><trkpt lat="33.5373419" lon="132.4624461"><ele>681.2066666666668</ele><time>2026-02-07T01:12:39Z</time></trkpt><trkpt lat="33.5374024" lon="132.4626502"><ele>683.1866666666666</ele><time>2026-02-07T01:12:53Z</time></trkpt><trkpt lat="33.5373144" lon="132.4628556"><ele>685.3433333333334</ele><time>2026-02-07T01:13:09Z</time></trkpt><trkpt lat="33.5372277" lon="132.4630502"><ele>689.0033333333334</ele><time>2026-02-07T01:13:25Z</time></trkpt><trkpt lat="33.5373464" lon="132.4632733"><ele>692.2733333333334</ele><time>2026-02-07T01:13:43Z</time></trkpt><trkpt lat="33.5375379" lon="132.4633263"><ele>693.9033333333333</ele><time>2026-02-07T01:14:01Z</time></trkpt><trkpt lat="33.5376867" lon="132.463449"><ele>693.6266666666667</ele><time>2026-02-07T01:14:15Z</time></trkpt><trkpt lat="33.5377694" lon="132.4636437"><ele>694.14</ele><time>2026-02-07T01:14:30Z</time></trkpt><trkpt lat="33.5377901" lon="132.4638805"><ele>695.5466666666666</ele><time>2026-02-07T01:14:48Z</time></trkpt><trkpt lat="33.5378113" lon="132.4641344"><ele>698.3766666666667</ele><time>2026-02-07T01:15:04Z</time></trkpt><trkpt lat="33.5380025" lon="132.464216"><ele>698.36</ele><time>2026-02-07T01:15:26Z</time></trkpt><trkpt lat="33.5381748" lon="132.4643006"><ele>697.9466666666667</ele><time>2026-02-07T01:15:38Z</time></trkpt><trkpt lat="33.5382783" lon="132.46449"><ele>698.6300000000001</ele><time>2026-02-07T01:15:50Z</time></trkpt><trkpt lat="33.5382744" lon="132.4647271"><ele>702.6999999999999</ele><time>2026-02-07T01:16:05Z</time></trkpt><trkpt lat="33.5381844" lon="132.4649452"><ele>706.46</ele><time>2026-02-07T01:16:20Z</time></trkpt><trkpt lat="33.5380282" lon="132.4650777"><ele>708.7800000000001</ele><time>2026-02-07T01:16:35Z</time></trkpt><trkpt lat="33.5378241" lon="132.4651671"><ele>711.6</ele><time>2026-02-07T01:16:57Z</time></trkpt><trkpt lat="33.5376487" lon="132.4652198"><ele>715.96</ele><time>2026-02-07T01:17:13Z</time></trkpt><trkpt lat="33.5375668" lon="132.4654282"><ele>717.8666666666667</ele><time>2026-02-07T01:17:25Z</time></trkpt></trkseg></trk></gpx>