<?xml version='1.0' encoding='UTF-8'?><gpx creator="YAMAP - https://yamap.com" xsi:schemaLocation="http://www.topografix.com/GPX/1/1 http://www.topografix.com/GPX/1/1/gpx.xsd" version="1.1" xmlns="http://www.topografix.com/GPX/1/1" xmlns:xsi="http://www.w3.org/2001/XMLSchema-instance"><metadata><bounds maxlat="33.3147512" maxlon="132.8386978" minlat="33.2942551" minlon="132.8218023"/></metadata><trk><name>長山</name><number>1</number><trkseg><trkpt lat="33.3147512" lon="132.8227481"><ele>256.10640775551326</ele><time>2026-03-14T21:14:47Z</time></trkpt><trkpt lat="33.3146834" lon="132.8225066"><ele>254.68554823859364</ele><time>2026-03-14T21:16:19Z</time></trkpt><trkpt lat="33.3146484" lon="132.8222295"><ele>254.21211908317693</ele><time>2026-03-14T21:16:30Z</time></trkpt><trkpt lat="33.3145046" lon="132.822066"><ele>253.26523542579366</ele><time>2026-03-14T21:16:46Z</time></trkpt><trkpt lat="33.3142929" lon="132.822006"><ele>253.26572029829404</ele><time>2026-03-14T21:17:07Z</time></trkpt><trkpt lat="33.3140919" lon="132.8219509"><ele>253.98001006578195</ele><time>2026-03-14T21:17:31Z</time></trkpt><trkpt lat="33.3138753" lon="132.8219258"><ele>255.6492109992056</ele><time>2026-03-14T21:17:50Z</time></trkpt><trkpt lat="33.3136862" lon="132.8219314"><ele>258.07009727230917</ele><time>2026-03-14T21:18:07Z</time></trkpt><trkpt lat="33.3134502" lon="132.8219172"><ele>260.5613031350693</ele><time>2026-03-14T21:18:29Z</time></trkpt><trkpt lat="33.3132677" lon="132.8218427"><ele>263.18841428496194</ele><time>2026-03-14T21:18:43Z</time></trkpt><trkpt lat="33.3130828" lon="132.8218023"><ele>265.4596700878078</ele><time>2026-03-14T21:18:58Z</time></trkpt><trkpt lat="33.312877" lon="132.8218494"><ele>267.04073209286497</ele><time>2026-03-14T21:19:12Z</time></trkpt><trkpt lat="33.3127319" lon="132.821984"><ele>268.1997925148237</ele><time>2026-03-14T21:19:25Z</time></trkpt><trkpt lat="33.312549" lon="132.8222345"><ele>269.62944462852886</ele><time>2026-03-14T21:19:58Z</time></trkpt><trkpt lat="33.3124294" lon="132.8224274"><ele>271.31026331201446</ele><time>2026-03-14T21:20:12Z</time></trkpt><trkpt lat="33.3122835" lon="132.8225704"><ele>272.5146726561556</ele><time>2026-03-14T21:20:29Z</time></trkpt><trkpt lat="33.3121301" lon="132.8227236"><ele>273.63107027873485</ele><time>2026-03-14T21:20:45Z</time></trkpt><trkpt lat="33.3119939" lon="132.822898"><ele>274.8926446953417</ele><time>2026-03-14T21:21:00Z</time></trkpt><trkpt lat="33.3119037" lon="132.8230887"><ele>276.6586598764697</ele><time>2026-03-14T21:21:18Z</time></trkpt><trkpt lat="33.31175" lon="132.8232294"><ele>278.3879418574264</ele><time>2026-03-14T21:21:40Z</time></trkpt><trkpt lat="33.3116309" lon="132.8234568"><ele>281.13411348059907</ele><time>2026-03-14T21:22:17Z</time></trkpt><trkpt lat="33.3114867" lon="132.8236345"><ele>283.7906938690276</ele><time>2026-03-14T21:22:28Z</time></trkpt><trkpt lat="33.311326" lon="132.8238087"><ele>286.57435001944623</ele><time>2026-03-14T21:22:44Z</time></trkpt><trkpt lat="33.3111879" lon="132.8239804"><ele>288.52667578909154</ele><time>2026-03-14T21:22:58Z</time></trkpt><trkpt lat="33.3109952" lon="132.8240824"><ele>290.36051566549315</ele><time>2026-03-14T21:23:17Z</time></trkpt><trkpt lat="33.3108402" lon="132.8242225"><ele>291.9363027383483</ele><time>2026-03-14T21:23:31Z</time></trkpt><trkpt lat="33.3106475" lon="132.8243247"><ele>293.4958114120896</ele><time>2026-03-14T21:23:49Z</time></trkpt><trkpt lat="33.3104789" lon="132.8244465"><ele>294.97925737958934</ele><time>2026-03-14T21:24:07Z</time></trkpt><trkpt lat="33.3103352" lon="132.8245922"><ele>296.64661616303505</ele><time>2026-03-14T21:24:45Z</time></trkpt><trkpt lat="33.3102371" lon="132.8248586"><ele>298.00934641473265</ele><time>2026-03-14T21:25:00Z</time></trkpt><trkpt lat="33.3100388" lon="132.8248088"><ele>299.48405399552377</ele><time>2026-03-14T21:25:15Z</time></trkpt><trkpt lat="33.3098044" lon="132.8248217"><ele>301.14532798681097</ele><time>2026-03-14T21:25:38Z</time></trkpt><trkpt lat="33.3096101" lon="132.824802"><ele>302.9709723340399</ele><time>2026-03-14T21:25:50Z</time></trkpt><trkpt lat="33.3094715" lon="132.8249833"><ele>305.5166288010888</ele><time>2026-03-14T21:26:18Z</time></trkpt><trkpt lat="33.3094021" lon="132.8252138"><ele>308.0773324673738</ele><time>2026-03-14T21:26:35Z</time></trkpt><trkpt lat="33.3092927" lon="132.8254397"><ele>310.8631132672191</ele><time>2026-03-14T21:26:52Z</time></trkpt><trkpt lat="33.3092169" lon="132.8256376"><ele>313.0562946745434</ele><time>2026-03-14T21:27:08Z</time></trkpt><trkpt lat="33.3091453" lon="132.8258673"><ele>315.30256371713244</ele><time>2026-03-14T21:27:25Z</time></trkpt><trkpt lat="33.3090408" lon="132.8260884"><ele>317.64055902277954</ele><time>2026-03-14T21:27:44Z</time></trkpt><trkpt lat="33.3089495" lon="132.8258847"><ele>320.13226923239097</ele><time>2026-03-14T21:28:07Z</time></trkpt><trkpt lat="33.3090295" lon="132.8256625"><ele>322.3250310932404</ele><time>2026-03-14T21:28:23Z</time></trkpt><trkpt lat="33.3088389" lon="132.8257175"><ele>324.9541811645186</ele><time>2026-03-14T21:28:49Z</time></trkpt><trkpt lat="33.3087668" lon="132.8259518"><ele>327.34301060736374</ele><time>2026-03-14T21:29:04Z</time></trkpt><trkpt lat="33.3087227" lon="132.8262083"><ele>330.1800818130796</ele><time>2026-03-14T21:29:50Z</time></trkpt><trkpt lat="33.3086262" lon="132.8264193"><ele>332.18662118175683</ele><time>2026-03-14T21:30:05Z</time></trkpt><trkpt lat="33.3084637" lon="132.8265617"><ele>334.2307184581802</ele><time>2026-03-14T21:30:20Z</time></trkpt><trkpt lat="33.3083283" lon="132.8267482"><ele>335.9737490155746</ele><time>2026-03-14T21:30:38Z</time></trkpt><trkpt lat="33.3082188" lon="132.826966"><ele>338.12423782062643</ele><time>2026-03-14T21:30:55Z</time></trkpt><trkpt lat="33.3080771" lon="132.8271441"><ele>340.49289611823275</ele><time>2026-03-14T21:32:45Z</time></trkpt><trkpt lat="33.307889" lon="132.8271165"><ele>342.8097409943884</ele><time>2026-03-14T21:32:59Z</time></trkpt><trkpt lat="33.3076864" lon="132.8271096"><ele>344.92332823535156</ele><time>2026-03-14T21:33:17Z</time></trkpt><trkpt lat="33.3075169" lon="132.8272556"><ele>347.02851528524707</ele><time>2026-03-14T21:33:33Z</time></trkpt><trkpt lat="33.3074016" lon="132.827435"><ele>349.3577429987731</ele><time>2026-03-14T21:33:50Z</time></trkpt><trkpt lat="33.3072128" lon="132.8275454"><ele>352.1125247968909</ele><time>2026-03-14T21:34:11Z</time></trkpt><trkpt lat="33.3070728" lon="132.8277035"><ele>355.00312623106385</ele><time>2026-03-14T21:34:29Z</time></trkpt><trkpt lat="33.306973" lon="132.827907"><ele>358.015464708548</ele><time>2026-03-14T21:35:00Z</time></trkpt><trkpt lat="33.3067629" lon="132.8278594"><ele>361.1541193294679</ele><time>2026-03-14T21:35:21Z</time></trkpt><trkpt lat="33.3065555" lon="132.8279306"><ele>364.4155729992032</ele><time>2026-03-14T21:35:40Z</time></trkpt><trkpt lat="33.3063826" lon="132.8280528"><ele>367.75911260067943</ele><time>2026-03-14T21:35:59Z</time></trkpt><trkpt lat="33.3061989" lon="132.8281677"><ele>371.29710111400624</ele><time>2026-03-14T21:36:21Z</time></trkpt><trkpt lat="33.3060234" lon="132.828245"><ele>375.2308208107577</ele><time>2026-03-14T21:36:44Z</time></trkpt><trkpt lat="33.3058524" lon="132.8283427"><ele>380.452621445488</ele><time>2026-03-14T21:37:48Z</time></trkpt><trkpt lat="33.3056713" lon="132.8284343"><ele>385.469817719202</ele><time>2026-03-14T21:38:07Z</time></trkpt><trkpt lat="33.3056223" lon="132.8286973"><ele>390.02310384181396</ele><time>2026-03-14T21:38:24Z</time></trkpt><trkpt lat="33.3054854" lon="132.8288508"><ele>393.1489256827029</ele><time>2026-03-14T21:38:42Z</time></trkpt><trkpt lat="33.3053336" lon="132.8289712"><ele>396.13419623365263</ele><time>2026-03-14T21:38:59Z</time></trkpt><trkpt lat="33.3051645" lon="132.8291016"><ele>398.9691330937135</ele><time>2026-03-14T21:39:17Z</time></trkpt><trkpt lat="33.3049942" lon="132.8291795"><ele>401.89091338626594</ele><time>2026-03-14T21:39:35Z</time></trkpt><trkpt lat="33.3048094" lon="132.8292398"><ele>404.86773365990257</ele><time>2026-03-14T21:39:53Z</time></trkpt><trkpt lat="33.3046147" lon="132.8292994"><ele>407.7153115828982</ele><time>2026-03-14T21:40:30Z</time></trkpt><trkpt lat="33.3044266" lon="132.8293302"><ele>409.83681046242367</ele><time>2026-03-14T21:41:12Z</time></trkpt><trkpt lat="33.3043146" lon="132.8295172"><ele>411.6310005992362</ele><time>2026-03-14T21:41:29Z</time></trkpt><trkpt lat="33.3041629" lon="132.8296613"><ele>414.60229943548035</ele><time>2026-03-14T21:41:53Z</time></trkpt><trkpt lat="33.30412" lon="132.8298961"><ele>418.3180608084771</ele><time>2026-03-14T21:42:14Z</time></trkpt><trkpt lat="33.3039325" lon="132.8298972"><ele>421.8248256221506</ele><time>2026-03-14T21:42:29Z</time></trkpt><trkpt lat="33.303749" lon="132.8298553"><ele>424.3393367398776</ele><time>2026-03-14T21:42:49Z</time></trkpt><trkpt lat="33.3036728" lon="132.8300852"><ele>427.04199456634933</ele><time>2026-03-14T21:43:07Z</time></trkpt><trkpt lat="33.3034866" lon="132.8301881"><ele>430.48765799573874</ele><time>2026-03-14T21:43:28Z</time></trkpt><trkpt lat="33.3034499" lon="132.8304133"><ele>433.9265095683425</ele><time>2026-03-14T21:43:47Z</time></trkpt><trkpt lat="33.303308" lon="132.8305563"><ele>437.6524288676892</ele><time>2026-03-14T21:44:36Z</time></trkpt><trkpt lat="33.3030913" lon="132.8306373"><ele>441.9640094198303</ele><time>2026-03-14T21:45:01Z</time></trkpt><trkpt lat="33.3029309" lon="132.8307471"><ele>447.2248627681524</ele><time>2026-03-14T21:45:28Z</time></trkpt><trkpt lat="33.3028261" lon="132.830941"><ele>453.22902421928484</ele><time>2026-03-14T21:45:59Z</time></trkpt><trkpt lat="33.3027167" lon="132.8311401"><ele>459.04558977636793</ele><time>2026-03-14T21:46:22Z</time></trkpt><trkpt lat="33.3026096" lon="132.8313548"><ele>465.4186861810067</ele><time>2026-03-14T21:46:56Z</time></trkpt><trkpt lat="33.3024779" lon="132.8311708"><ele>473.3599513170063</ele><time>2026-03-14T21:52:07Z</time></trkpt><trkpt lat="33.3024747" lon="132.8309386"><ele>481.02801615949585</ele><time>2026-03-14T21:52:57Z</time></trkpt><trkpt lat="33.3023611" lon="132.8307691"><ele>487.030823083177</ele><time>2026-03-14T21:53:14Z</time></trkpt><trkpt lat="33.3023391" lon="132.8305521"><ele>490.6613398894424</ele><time>2026-03-14T21:53:30Z</time></trkpt><trkpt lat="33.3022218" lon="132.8307408"><ele>494.62221844157256</ele><time>2026-03-14T21:53:55Z</time></trkpt><trkpt lat="33.3022736" lon="132.8309567"><ele>498.9728258850573</ele><time>2026-03-14T21:54:55Z</time></trkpt><trkpt lat="33.3022062" lon="132.8311742"><ele>503.49637497690384</ele><time>2026-03-14T21:55:19Z</time></trkpt><trkpt lat="33.3021181" lon="132.8313758"><ele>507.1937298309552</ele><time>2026-03-14T21:55:32Z</time></trkpt><trkpt lat="33.3020973" lon="132.8315902"><ele>512.3627637479902</ele><time>2026-03-14T21:56:20Z</time></trkpt><trkpt lat="33.3021131" lon="132.8318253"><ele>517.0058599156865</ele><time>2026-03-14T21:56:37Z</time></trkpt><trkpt lat="33.3019897" lon="132.8320038"><ele>522.7255324643835</ele><time>2026-03-14T21:57:32Z</time></trkpt><trkpt lat="33.3018562" lon="132.832152"><ele>526.183884902419</ele><time>2026-03-14T21:57:40Z</time></trkpt><trkpt lat="33.3016791" lon="132.832203"><ele>528.5014969322407</ele><time>2026-03-14T21:57:49Z</time></trkpt><trkpt lat="33.3015249" lon="132.8323419"><ele>529.67193981421</ele><time>2026-03-14T21:58:14Z</time></trkpt><trkpt lat="33.3014409" lon="132.8325451"><ele>531.3865044912837</ele><time>2026-03-14T21:58:25Z</time></trkpt><trkpt lat="33.3012685" lon="132.8326435"><ele>534.2731024975643</ele><time>2026-03-14T21:58:34Z</time></trkpt><trkpt lat="33.3012201" lon="132.8329141"><ele>537.5835694535953</ele><time>2026-03-14T21:59:19Z</time></trkpt><trkpt lat="33.3010444" lon="132.8331087"><ele>541.6813247414062</ele><time>2026-03-14T22:00:05Z</time></trkpt><trkpt lat="33.3012315" lon="132.8331336"><ele>545.0172769660821</ele><time>2026-03-14T22:00:56Z</time></trkpt><trkpt lat="33.3013971" lon="132.8330378"><ele>544.7296614640923</ele><time>2026-03-14T22:01:14Z</time></trkpt><trkpt lat="33.3015906" lon="132.8329026"><ele>538.9703851699786</ele><time>2026-03-14T22:02:14Z</time></trkpt><trkpt lat="33.30177" lon="132.8327958"><ele>531.0882267433111</ele><time>2026-03-14T22:02:33Z</time></trkpt><trkpt lat="33.301925" lon="132.8326773"><ele>522.8191297464288</ele><time>2026-03-14T22:03:17Z</time></trkpt><trkpt lat="33.302176" lon="132.8326465"><ele>517.3706226519109</ele><time>2026-03-14T22:03:35Z</time></trkpt><trkpt lat="33.3019831" lon="132.8326287"><ele>513.2126365830599</ele><time>2026-03-14T22:04:17Z</time></trkpt><trkpt lat="33.3018022" lon="132.8326945"><ele>512.5287648746136</ele><time>2026-03-14T22:04:48Z</time></trkpt><trkpt lat="33.3015745" lon="132.8328074"><ele>516.8157551655861</ele><time>2026-03-14T22:05:38Z</time></trkpt><trkpt lat="33.3016236" lon="132.8330141"><ele>523.8332209949526</ele><time>2026-03-14T22:07:03Z</time></trkpt><trkpt lat="33.301823" lon="132.8330419"><ele>532.219550080141</ele><time>2026-03-14T22:07:29Z</time></trkpt><trkpt lat="33.3020053" lon="132.8330575"><ele>536.9951072544537</ele><time>2026-03-14T22:07:59Z</time></trkpt><trkpt lat="33.302098" lon="132.8332473"><ele>548.1030403393269</ele><time>2026-03-14T22:11:53Z</time></trkpt><trkpt lat="33.3020945" lon="132.833469"><ele>562.2698047013819</ele><time>2026-03-14T22:13:52Z</time></trkpt><trkpt lat="33.3022372" lon="132.8336251"><ele>576.8347526490986</ele><time>2026-03-14T22:15:04Z</time></trkpt><trkpt lat="33.3022054" lon="132.8338475"><ele>587.8062349683887</ele><time>2026-03-14T22:16:37Z</time></trkpt><trkpt lat="33.3022714" lon="132.834071"><ele>594.2787831155014</ele><time>2026-03-14T22:18:13Z</time></trkpt><trkpt lat="33.3024608" lon="132.8341301"><ele>599.7143278283148</ele><time>2026-03-14T22:18:34Z</time></trkpt><trkpt lat="33.3026431" lon="132.8340458"><ele>599.9940019346024</ele><time>2026-03-14T22:18:50Z</time></trkpt><trkpt lat="33.3027764" lon="132.8338475"><ele>599.1081515560012</ele><time>2026-03-14T22:19:05Z</time></trkpt><trkpt lat="33.3028886" lon="132.8340266"><ele>598.3290974355845</ele><time>2026-03-14T22:19:37Z</time></trkpt><trkpt lat="33.302904" lon="132.8338095"><ele>597.8300581895624</ele><time>2026-03-14T22:20:11Z</time></trkpt><trkpt lat="33.3027175" lon="132.8338908"><ele>598.029868117099</ele><time>2026-03-14T22:20:35Z</time></trkpt><trkpt lat="33.3025602" lon="132.83403"><ele>598.4403888360707</ele><time>2026-03-14T22:20:52Z</time></trkpt><trkpt lat="33.3023722" lon="132.8340772"><ele>599.2569229855156</ele><time>2026-03-14T22:21:07Z</time></trkpt><trkpt lat="33.3022036" lon="132.833985"><ele>599.935404633306</ele><time>2026-03-14T22:21:25Z</time></trkpt><trkpt lat="33.3020622" lon="132.8338242"><ele>601.2229430185366</ele><time>2026-03-14T22:21:43Z</time></trkpt><trkpt lat="33.3021339" lon="132.8340624"><ele>603.5090871610565</ele><time>2026-03-14T22:22:11Z</time></trkpt><trkpt lat="33.302267" lon="132.8342193"><ele>605.7885789284777</ele><time>2026-03-14T22:22:25Z</time></trkpt><trkpt lat="33.3024441" lon="132.8343034"><ele>607.8454416230719</ele><time>2026-03-14T22:22:41Z</time></trkpt><trkpt lat="33.3026378" lon="132.8342753"><ele>609.0473564721752</ele><time>2026-03-14T22:22:58Z</time></trkpt><trkpt lat="33.3024577" lon="132.8343244"><ele>611.8494092760283</ele><time>2026-03-14T22:24:58Z</time></trkpt><trkpt lat="33.3022575" lon="132.8343438"><ele>615.1867658812307</ele><time>2026-03-14T22:25:16Z</time></trkpt><trkpt lat="33.3020705" lon="132.834259"><ele>618.5821014585175</ele><time>2026-03-14T22:25:34Z</time></trkpt><trkpt lat="33.3019302" lon="132.8340882"><ele>621.2967168434461</ele><time>2026-03-14T22:25:55Z</time></trkpt><trkpt lat="33.301968" lon="132.8343044"><ele>625.4792012044572</ele><time>2026-03-14T22:26:35Z</time></trkpt><trkpt lat="33.3020897" lon="132.8344676"><ele>629.622680838242</ele><time>2026-03-14T22:26:53Z</time></trkpt><trkpt lat="33.3022417" lon="132.8345965"><ele>632.9843843314774</ele><time>2026-03-14T22:27:07Z</time></trkpt><trkpt lat="33.3023741" lon="132.8347529"><ele>634.8691461460385</ele><time>2026-03-14T22:27:31Z</time></trkpt><trkpt lat="33.3022002" lon="132.8346754"><ele>637.7307137454214</ele><time>2026-03-14T22:27:59Z</time></trkpt><trkpt lat="33.3020178" lon="132.8345879"><ele>641.0165948616418</ele><time>2026-03-14T22:28:16Z</time></trkpt><trkpt lat="33.3018483" lon="132.8344677"><ele>644.019358750376</ele><time>2026-03-14T22:28:34Z</time></trkpt><trkpt lat="33.3016808" lon="132.8343817"><ele>646.1655402269661</ele><time>2026-03-14T22:28:52Z</time></trkpt><trkpt lat="33.3017693" lon="132.8345856"><ele>649.4578536828218</ele><time>2026-03-14T22:29:34Z</time></trkpt><trkpt lat="33.3019082" lon="132.8347653"><ele>653.4153723079277</ele><time>2026-03-14T22:29:58Z</time></trkpt><trkpt lat="33.3020339" lon="132.8349599"><ele>657.6979930646147</ele><time>2026-03-14T22:30:23Z</time></trkpt><trkpt lat="33.3020721" lon="132.8351963"><ele>661.1970891068648</ele><time>2026-03-14T22:30:47Z</time></trkpt><trkpt lat="33.3019267" lon="132.8350476"><ele>665.243880620162</ele><time>2026-03-14T22:31:23Z</time></trkpt><trkpt lat="33.3017853" lon="132.8348735"><ele>667.9432158140886</ele><time>2026-03-14T22:32:51Z</time></trkpt><trkpt lat="33.3015908" lon="132.8348613"><ele>670.835955862385</ele><time>2026-03-14T22:33:09Z</time></trkpt><trkpt lat="33.3014258" lon="132.834963"><ele>672.4858647221976</ele><time>2026-03-14T22:33:26Z</time></trkpt><trkpt lat="33.3013318" lon="132.8351846"><ele>675.4610401628971</ele><time>2026-03-14T22:34:08Z</time></trkpt><trkpt lat="33.3012012" lon="132.8353845"><ele>678.1372085369268</ele><time>2026-03-14T22:34:26Z</time></trkpt><trkpt lat="33.3010493" lon="132.8355354"><ele>681.2091875522148</ele><time>2026-03-14T22:34:43Z</time></trkpt><trkpt lat="33.3008816" lon="132.8356697"><ele>684.0354423325388</ele><time>2026-03-14T22:35:05Z</time></trkpt><trkpt lat="33.3006826" lon="132.8356865"><ele>687.8532273861939</ele><time>2026-03-14T22:35:29Z</time></trkpt><trkpt lat="33.300828" lon="132.8358152"><ele>692.7441802801023</ele><time>2026-03-14T22:36:02Z</time></trkpt><trkpt lat="33.301008" lon="132.8358798"><ele>696.9250362165616</ele><time>2026-03-14T22:36:13Z</time></trkpt><trkpt lat="33.3011847" lon="132.8358167"><ele>700.3839538168362</ele><time>2026-03-14T22:36:31Z</time></trkpt><trkpt lat="33.3013507" lon="132.8356986"><ele>702.3731128254418</ele><time>2026-03-14T22:36:52Z</time></trkpt><trkpt lat="33.301278" lon="132.8358956"><ele>705.6357237033981</ele><time>2026-03-14T22:37:16Z</time></trkpt><trkpt lat="33.301081" lon="132.835933"><ele>709.3078621101859</ele><time>2026-03-14T22:37:49Z</time></trkpt><trkpt lat="33.3009175" lon="132.8360368"><ele>714.5350317986331</ele><time>2026-03-14T22:38:31Z</time></trkpt><trkpt lat="33.3007053" lon="132.8361169"><ele>719.3197902011324</ele><time>2026-03-14T22:38:47Z</time></trkpt><trkpt lat="33.3005194" lon="132.8361427"><ele>722.2830104340256</ele><time>2026-03-14T22:40:02Z</time></trkpt><trkpt lat="33.3003092" lon="132.8362452"><ele>724.0234652924415</ele><time>2026-03-14T22:40:25Z</time></trkpt><trkpt lat="33.3001365" lon="132.836355"><ele>725.2331157799002</ele><time>2026-03-14T22:40:46Z</time></trkpt><trkpt lat="33.2999496" lon="132.8363186"><ele>727.2370286052947</ele><time>2026-03-14T22:41:01Z</time></trkpt><trkpt lat="33.2997705" lon="132.8362588"><ele>729.0459588799455</ele><time>2026-03-14T22:41:15Z</time></trkpt><trkpt lat="33.2998952" lon="132.8364304"><ele>731.8329791214337</ele><time>2026-03-14T22:42:50Z</time></trkpt><trkpt lat="33.3001023" lon="132.8364747"><ele>735.1407210243505</ele><time>2026-03-14T22:43:12Z</time></trkpt><trkpt lat="33.3002875" lon="132.8365988"><ele>738.6940197561145</ele><time>2026-03-14T22:43:29Z</time></trkpt><trkpt lat="33.3004938" lon="132.8366157"><ele>742.1037859874231</ele><time>2026-03-14T22:43:52Z</time></trkpt><trkpt lat="33.3002937" lon="132.8366978"><ele>746.3585186427559</ele><time>2026-03-14T22:44:33Z</time></trkpt><trkpt lat="33.3001129" lon="132.8367275"><ele>750.5088268869449</ele><time>2026-03-14T22:44:52Z</time></trkpt><trkpt lat="33.2999047" lon="132.8366779"><ele>754.1703669215593</ele><time>2026-03-14T22:45:09Z</time></trkpt><trkpt lat="33.2997136" lon="132.8366717"><ele>757.0124522351629</ele><time>2026-03-14T22:45:27Z</time></trkpt><trkpt lat="33.2998712" lon="132.8368697"><ele>760.4228183601703</ele><time>2026-03-14T22:45:55Z</time></trkpt><trkpt lat="33.2997065" lon="132.8369991"><ele>763.7827707510605</ele><time>2026-03-14T22:47:48Z</time></trkpt><trkpt lat="33.2995286" lon="132.8369356"><ele>767.543574585581</ele><time>2026-03-14T22:48:05Z</time></trkpt><trkpt lat="33.2993285" lon="132.8369624"><ele>772.7750437875455</ele><time>2026-03-14T22:49:16Z</time></trkpt><trkpt lat="33.2991444" lon="132.8369663"><ele>778.5873629499829</ele><time>2026-03-14T22:49:38Z</time></trkpt><trkpt lat="33.2989631" lon="132.836881"><ele>786.3656355176219</ele><time>2026-03-14T22:50:49Z</time></trkpt><trkpt lat="33.2987874" lon="132.836814"><ele>792.4182221715749</ele><time>2026-03-14T22:51:18Z</time></trkpt><trkpt lat="33.2985925" lon="132.8368977"><ele>796.9792191715495</ele><time>2026-03-14T22:51:35Z</time></trkpt><trkpt lat="33.2984086" lon="132.8368855"><ele>800.9295054403689</ele><time>2026-03-14T22:52:18Z</time></trkpt><trkpt lat="33.2982351" lon="132.8369469"><ele>806.8110355995641</ele><time>2026-03-14T22:53:13Z</time></trkpt><trkpt lat="33.2980523" lon="132.8369963"><ele>813.8663540394451</ele><time>2026-03-14T22:53:35Z</time></trkpt><trkpt lat="33.2978918" lon="132.8368406"><ele>823.1934336491287</ele><time>2026-03-14T22:55:28Z</time></trkpt><trkpt lat="33.2977083" lon="132.8368506"><ele>831.1184693024376</ele><time>2026-03-14T22:55:54Z</time></trkpt><trkpt lat="33.2975254" lon="132.8368614"><ele>842.7344173299899</ele><time>2026-03-14T22:57:22Z</time></trkpt><trkpt lat="33.2973356" lon="132.8369633"><ele>851.6524534744208</ele><time>2026-03-14T22:58:23Z</time></trkpt><trkpt lat="33.2971546" lon="132.8369566"><ele>860.0618838468425</ele><time>2026-03-14T23:00:06Z</time></trkpt><trkpt lat="33.2969706" lon="132.8369537"><ele>868.2909303363913</ele><time>2026-03-14T23:01:39Z</time></trkpt><trkpt lat="33.2967816" lon="132.8370435"><ele>874.0396491429768</ele><time>2026-03-14T23:02:17Z</time></trkpt><trkpt lat="33.2966057" lon="132.8371798"><ele>878.7844296054958</ele><time>2026-03-14T23:02:39Z</time></trkpt><trkpt lat="33.2967051" lon="132.837428"><ele>879.5962086880926</ele><time>2026-03-14T23:02:57Z</time></trkpt><trkpt lat="33.2967227" lon="132.8376431"><ele>881.0539443655376</ele><time>2026-03-14T23:03:16Z</time></trkpt><trkpt lat="33.2967478" lon="132.8378745"><ele>883.3951504409891</ele><time>2026-03-14T23:03:36Z</time></trkpt><trkpt lat="33.2965603" lon="132.8378395"><ele>885.1646189103717</ele><time>2026-03-14T23:04:01Z</time></trkpt><trkpt lat="33.2963716" lon="132.837821"><ele>886.1798168365872</ele><time>2026-03-14T23:04:16Z</time></trkpt><trkpt lat="33.296134" lon="132.8378893"><ele>886.344188966956</ele><time>2026-03-14T23:04:37Z</time></trkpt><trkpt lat="33.2960042" lon="132.8377314"><ele>888.0836612986485</ele><time>2026-03-14T23:05:03Z</time></trkpt><trkpt lat="33.2958919" lon="132.8374869"><ele>890.7039292556343</ele><time>2026-03-14T23:05:24Z</time></trkpt><trkpt lat="33.2957137" lon="132.8376134"><ele>893.2528814075555</ele><time>2026-03-14T23:05:41Z</time></trkpt><trkpt lat="33.2955489" lon="132.8378002"><ele>894.5184427625009</ele><time>2026-03-14T23:05:55Z</time></trkpt><trkpt lat="33.2954164" lon="132.8379681"><ele>895.4208147448862</ele><time>2026-03-14T23:06:08Z</time></trkpt><trkpt lat="33.2953205" lon="132.8381917"><ele>897.1484979042312</ele><time>2026-03-14T23:06:31Z</time></trkpt><trkpt lat="33.2952613" lon="132.8384081"><ele>898.3477171611639</ele><time>2026-03-14T23:06:45Z</time></trkpt><trkpt lat="33.2952968" lon="132.8386362"><ele>899.5305297465561</ele><time>2026-03-14T23:07:03Z</time></trkpt><trkpt lat="33.2952024" lon="132.8384301"><ele>902.3550550492713</ele><time>2026-03-14T23:08:13Z</time></trkpt><trkpt lat="33.2951507" lon="132.8381854"><ele>906.8054622292799</ele><time>2026-03-14T23:08:40Z</time></trkpt><trkpt lat="33.2953502" lon="132.8380378"><ele>911.7426025410745</ele><time>2026-03-14T23:09:20Z</time></trkpt><trkpt lat="33.2952469" lon="132.8378594"><ele>914.3568856104084</ele><time>2026-03-14T23:09:40Z</time></trkpt><trkpt lat="33.2953394" lon="132.8376105"><ele>916.7651469520197</ele><time>2026-03-14T23:10:01Z</time></trkpt><trkpt lat="33.2949627" lon="132.837417"><ele>921.6072302078561</ele><time>2026-03-14T23:11:14Z</time></trkpt><trkpt lat="33.2950176" lon="132.8371862"><ele>926.4566942758102</ele><time>2026-03-14T23:11:47Z</time></trkpt><trkpt lat="33.2948587" lon="132.8370521"><ele>930.4628186251439</ele><time>2026-03-14T23:12:04Z</time></trkpt><trkpt lat="33.2947658" lon="132.8368376"><ele>931.5276127230933</ele><time>2026-03-14T23:12:23Z</time></trkpt><trkpt lat="33.2948821" lon="132.8366438"><ele>932.8047809467267</ele><time>2026-03-14T23:12:40Z</time></trkpt><trkpt lat="33.2947963" lon="132.8364164"><ele>934.6091444397383</ele><time>2026-03-14T23:13:05Z</time></trkpt><trkpt lat="33.2946576" lon="132.8362452"><ele>936.9186657752125</ele><time>2026-03-14T23:13:35Z</time></trkpt><trkpt lat="33.2944577" lon="132.8361893"><ele>939.3002693422176</ele><time>2026-03-14T23:13:55Z</time></trkpt><trkpt lat="33.2942551" lon="132.8360977"><ele>940.8740284231263</ele><time>2026-03-14T23:14:16Z</time></trkpt><trkpt lat="33.294387" lon="132.8359236"><ele>939.7329137961616</ele><time>2026-03-14T23:16:38Z</time></trkpt><trkpt lat="33.294478" lon="132.8361259"><ele>939.7177501191594</ele><time>2026-03-14T23:20:34Z</time></trkpt><trkpt lat="33.2946413" lon="132.836255"><ele>938.4777558542906</ele><time>2026-03-14T23:20:50Z</time></trkpt><trkpt lat="33.2947924" lon="132.8363816"><ele>939.1749116710477</ele><time>2026-03-14T23:29:19Z</time></trkpt><trkpt lat="33.2948608" lon="132.8366067"><ele>937.2238273654857</ele><time>2026-03-14T23:29:43Z</time></trkpt><trkpt lat="33.2947878" lon="132.8368259"><ele>935.6721631871096</ele><time>2026-03-14T23:30:02Z</time></trkpt><trkpt lat="33.2948406" lon="132.8370542"><ele>933.477643899545</ele><time>2026-03-14T23:30:20Z</time></trkpt><trkpt lat="33.2949697" lon="132.8372463"><ele>931.8782656465288</ele><time>2026-03-14T23:30:40Z</time></trkpt><trkpt lat="33.2950378" lon="132.8374578"><ele>930.6246915932892</ele><time>2026-03-14T23:30:56Z</time></trkpt><trkpt lat="33.2952196" lon="132.8374746"><ele>929.560223264126</ele><time>2026-03-14T23:31:14Z</time></trkpt><trkpt lat="33.2954056" lon="132.8373759"><ele>928.0089125646132</ele><time>2026-03-14T23:31:29Z</time></trkpt><trkpt lat="33.2952755" lon="132.8375794"><ele>924.7365251777342</ele><time>2026-03-14T23:31:49Z</time></trkpt><trkpt lat="33.2952076" lon="132.8378329"><ele>920.9137711497136</ele><time>2026-03-14T23:32:05Z</time></trkpt><trkpt lat="33.2951756" lon="132.8380538"><ele>916.7032871895643</ele><time>2026-03-14T23:32:23Z</time></trkpt><trkpt lat="33.2951136" lon="132.8382607"><ele>914.1011943424478</ele><time>2026-03-14T23:32:41Z</time></trkpt><trkpt lat="33.2951545" lon="132.8385005"><ele>911.2012285089896</ele><time>2026-03-14T23:32:55Z</time></trkpt><trkpt lat="33.2952414" lon="132.8386978"><ele>907.9616046795962</ele><time>2026-03-14T23:33:11Z</time></trkpt><trkpt lat="33.295279" lon="132.8384737"><ele>903.648563396442</ele><time>2026-03-14T23:33:26Z</time></trkpt><trkpt lat="33.2953433" lon="132.838239"><ele>900.2756813614523</ele><time>2026-03-14T23:33:40Z</time></trkpt><trkpt lat="33.2954286" lon="132.8380177"><ele>898.6171350527924</ele><time>2026-03-14T23:33:56Z</time></trkpt><trkpt lat="33.2955424" lon="132.8378106"><ele>897.4345027162536</ele><time>2026-03-14T23:34:11Z</time></trkpt><trkpt lat="33.2956787" lon="132.8376442"><ele>896.070382168727</ele><time>2026-03-14T23:34:25Z</time></trkpt><trkpt lat="33.2958558" lon="132.8375851"><ele>894.2755682035954</ele><time>2026-03-14T23:34:40Z</time></trkpt><trkpt lat="33.2959649" lon="132.8377809"><ele>893.5717702827473</ele><time>2026-03-14T23:34:55Z</time></trkpt><trkpt lat="33.2960929" lon="132.8379812"><ele>891.7293906082176</ele><time>2026-03-14T23:35:14Z</time></trkpt><trkpt lat="33.2963093" lon="132.8379073"><ele>889.1430902395281</ele><time>2026-03-14T23:35:32Z</time></trkpt><trkpt lat="33.2965068" lon="132.8379192"><ele>886.6705191803568</ele><time>2026-03-14T23:35:46Z</time></trkpt><trkpt lat="33.2967012" lon="132.8378742"><ele>886.0483037550567</ele><time>2026-03-14T23:36:01Z</time></trkpt><trkpt lat="33.296713" lon="132.8376521"><ele>885.330473156689</ele><time>2026-03-14T23:37:25Z</time></trkpt><trkpt lat="33.2966242" lon="132.8374397"><ele>883.8701584197612</ele><time>2026-03-14T23:37:43Z</time></trkpt><trkpt lat="33.2965236" lon="132.8372232"><ele>881.7061273939398</ele><time>2026-03-14T23:37:59Z</time></trkpt><trkpt lat="33.296633" lon="132.8370473"><ele>880.1357795864541</ele><time>2026-03-14T23:38:14Z</time></trkpt><trkpt lat="33.2968308" lon="132.8370518"><ele>879.2314507250331</ele><time>2026-03-14T23:38:31Z</time></trkpt><trkpt lat="33.297" lon="132.8369767"><ele>877.2702038543063</ele><time>2026-03-14T23:39:02Z</time></trkpt><trkpt lat="33.2971916" lon="132.8369961"><ele>871.4275821097095</ele><time>2026-03-14T23:39:50Z</time></trkpt><trkpt lat="33.2973796" lon="132.8369719"><ele>863.3542687103476</ele><time>2026-03-14T23:40:16Z</time></trkpt><trkpt lat="33.2975587" lon="132.8369254"><ele>853.232621456615</ele><time>2026-03-14T23:40:55Z</time></trkpt><trkpt lat="33.2977395" lon="132.8369262"><ele>843.7801387747153</ele><time>2026-03-14T23:41:28Z</time></trkpt><trkpt lat="33.2979255" lon="132.8369416"><ele>832.8814232189151</ele><time>2026-03-14T23:41:58Z</time></trkpt><trkpt lat="33.2981051" lon="132.8369927"><ele>823.099487908119</ele><time>2026-03-14T23:42:29Z</time></trkpt><trkpt lat="33.2982989" lon="132.8369731"><ele>814.1678536597274</ele><time>2026-03-14T23:43:02Z</time></trkpt><trkpt lat="33.2984757" lon="132.8369252"><ele>805.9050684459035</ele><time>2026-03-14T23:43:53Z</time></trkpt><trkpt lat="33.2986615" lon="132.8368854"><ele>798.8704079693485</ele><time>2026-03-14T23:44:14Z</time></trkpt><trkpt lat="33.2988455" lon="132.8368673"><ele>794.6760915334993</ele><time>2026-03-14T23:44:31Z</time></trkpt><trkpt lat="33.2990142" lon="132.8369611"><ele>791.0913197670101</ele><time>2026-03-14T23:44:58Z</time></trkpt><trkpt lat="33.2992008" lon="132.8369614"><ele>786.0499254694428</ele><time>2026-03-14T23:45:25Z</time></trkpt><trkpt lat="33.2993885" lon="132.8369166"><ele>778.0267472921702</ele><time>2026-03-14T23:45:52Z</time></trkpt><trkpt lat="33.2995667" lon="132.8370004"><ele>770.4574823699387</ele><time>2026-03-14T23:46:11Z</time></trkpt><trkpt lat="33.2997477" lon="132.8370484"><ele>764.5810516910875</ele><time>2026-03-14T23:46:25Z</time></trkpt><trkpt lat="33.299919" lon="132.8369694"><ele>760.5776330227858</ele><time>2026-03-14T23:46:40Z</time></trkpt><trkpt lat="33.2997762" lon="132.8368125"><ele>758.2108962212543</ele><time>2026-03-14T23:47:02Z</time></trkpt><trkpt lat="33.2999409" lon="132.8366725"><ele>754.6426264936167</ele><time>2026-03-14T23:47:40Z</time></trkpt><trkpt lat="33.3001218" lon="132.8366625"><ele>751.1464546636238</ele><time>2026-03-14T23:47:52Z</time></trkpt><trkpt lat="33.300338" lon="132.8365921"><ele>746.9738847730151</ele><time>2026-03-14T23:48:07Z</time></trkpt><trkpt lat="33.3001989" lon="132.8364503"><ele>742.6917653028744</ele><time>2026-03-14T23:48:40Z</time></trkpt><trkpt lat="33.3000041" lon="132.8363896"><ele>737.889235256398</ele><time>2026-03-14T23:48:55Z</time></trkpt><trkpt lat="33.2997982" lon="132.836333"><ele>733.44576044942</ele><time>2026-03-14T23:49:10Z</time></trkpt><trkpt lat="33.2999737" lon="132.8362787"><ele>729.3490016421589</ele><time>2026-03-14T23:49:40Z</time></trkpt><trkpt lat="33.3001563" lon="132.8362741"><ele>726.3042085183437</ele><time>2026-03-14T23:49:59Z</time></trkpt><trkpt lat="33.300372" lon="132.836229"><ele>722.9515556439178</ele><time>2026-03-14T23:50:17Z</time></trkpt><trkpt lat="33.3005713" lon="132.8361334"><ele>721.3211183204525</ele><time>2026-03-14T23:50:32Z</time></trkpt><trkpt lat="33.3007651" lon="132.8360971"><ele>718.9797984243183</ele><time>2026-03-14T23:50:47Z</time></trkpt><trkpt lat="33.3009675" lon="132.8360552"><ele>716.590553006005</ele><time>2026-03-14T23:51:01Z</time></trkpt><trkpt lat="33.3011689" lon="132.8360383"><ele>713.0387674160244</ele><time>2026-03-14T23:51:16Z</time></trkpt><trkpt lat="33.301289" lon="132.8358437"><ele>708.8008573050873</ele><time>2026-03-14T23:51:32Z</time></trkpt><trkpt lat="33.3011361" lon="132.8357284"><ele>703.5884086206767</ele><time>2026-03-14T23:51:56Z</time></trkpt><trkpt lat="33.3009237" lon="132.8357524"><ele>698.9472994983315</ele><time>2026-03-14T23:52:11Z</time></trkpt><trkpt lat="33.3007226" lon="132.8357123"><ele>695.0662859166747</ele><time>2026-03-14T23:52:26Z</time></trkpt><trkpt lat="33.3008672" lon="132.8355796"><ele>689.7831371060696</ele><time>2026-03-14T23:53:53Z</time></trkpt><trkpt lat="33.3010406" lon="132.835468"><ele>684.1151310597842</ele><time>2026-03-14T23:54:07Z</time></trkpt><trkpt lat="33.3012051" lon="132.835357"><ele>678.6613175777676</ele><time>2026-03-14T23:54:23Z</time></trkpt><trkpt lat="33.3013418" lon="132.835205"><ele>675.9790119993146</ele><time>2026-03-14T23:54:35Z</time></trkpt><trkpt lat="33.3013881" lon="132.8349818"><ele>673.729164369829</ele><time>2026-03-14T23:54:50Z</time></trkpt><trkpt lat="33.3015345" lon="132.8348405"><ele>671.198336784751</ele><time>2026-03-14T23:55:05Z</time></trkpt><trkpt lat="33.3017293" lon="132.8348903"><ele>668.5082843072795</ele><time>2026-03-14T23:55:23Z</time></trkpt><trkpt lat="33.301869" lon="132.8350341"><ele>665.9090962939312</ele><time>2026-03-14T23:55:38Z</time></trkpt><trkpt lat="33.3019668" lon="132.835219"><ele>664.3030810522893</ele><time>2026-03-14T23:55:52Z</time></trkpt><trkpt lat="33.3020578" lon="132.8350237"><ele>661.5923607745608</ele><time>2026-03-14T23:56:17Z</time></trkpt><trkpt lat="33.3019694" lon="132.8348171"><ele>658.7723770773396</ele><time>2026-03-14T23:56:32Z</time></trkpt><trkpt lat="33.3018344" lon="132.8346523"><ele>655.164987454049</ele><time>2026-03-14T23:56:47Z</time></trkpt><trkpt lat="33.3017089" lon="132.8344937"><ele>652.0577081481036</ele><time>2026-03-14T23:57:01Z</time></trkpt><trkpt lat="33.3018941" lon="132.8345201"><ele>647.0230062929254</ele><time>2026-03-14T23:57:37Z</time></trkpt><trkpt lat="33.3020661" lon="132.8346256"><ele>642.4177292892296</ele><time>2026-03-14T23:57:52Z</time></trkpt><trkpt lat="33.3022567" lon="132.8347357"><ele>638.4455178091099</ele><time>2026-03-14T23:58:08Z</time></trkpt><trkpt lat="33.3024042" lon="132.8345994"><ele>635.0237759200727</ele><time>2026-03-14T23:59:08Z</time></trkpt><trkpt lat="33.3025462" lon="132.8344506"><ele>628.6501665521623</ele><time>2026-03-14T23:59:46Z</time></trkpt><trkpt lat="33.3026844" lon="132.8342589"><ele>619.8545710715772</ele><time>2026-03-15T00:00:41Z</time></trkpt><trkpt lat="33.3026773" lon="132.8340385"><ele>609.8785963683773</ele><time>2026-03-15T00:01:38Z</time></trkpt><trkpt lat="33.3027588" lon="132.8338349"><ele>602.1149862854777</ele><time>2026-03-15T00:01:59Z</time></trkpt><trkpt lat="33.3028532" lon="132.8340582"><ele>597.1431417168902</ele><time>2026-03-15T00:02:41Z</time></trkpt><trkpt lat="33.3028738" lon="132.8342961"><ele>594.8527667377698</ele><time>2026-03-15T00:03:08Z</time></trkpt><trkpt lat="33.3028941" lon="132.8345603"><ele>592.9441704345527</ele><time>2026-03-15T00:03:26Z</time></trkpt><trkpt lat="33.3029657" lon="132.8343464"><ele>589.2904819182257</ele><time>2026-03-15T00:04:01Z</time></trkpt><trkpt lat="33.3030074" lon="132.8341194"><ele>586.4611448777586</ele><time>2026-03-15T00:04:17Z</time></trkpt><trkpt lat="33.3030788" lon="132.8338886"><ele>584.48150372765</ele><time>2026-03-15T00:04:31Z</time></trkpt><trkpt lat="33.3030863" lon="132.8336526"><ele>583.5445348608815</ele><time>2026-03-15T00:04:47Z</time></trkpt><trkpt lat="33.302999" lon="132.8334504"><ele>581.523608343092</ele><time>2026-03-15T00:05:02Z</time></trkpt><trkpt lat="33.3029408" lon="132.8332155"><ele>578.5882626031586</ele><time>2026-03-15T00:05:17Z</time></trkpt><trkpt lat="33.3029598" lon="132.8329587"><ele>575.5040984433537</ele><time>2026-03-15T00:05:31Z</time></trkpt><trkpt lat="33.3030145" lon="132.8331735"><ele>571.9471078143542</ele><time>2026-03-15T00:06:02Z</time></trkpt><trkpt lat="33.3030974" lon="132.8334081"><ele>569.4065713790256</ele><time>2026-03-15T00:06:19Z</time></trkpt><trkpt lat="33.3032038" lon="132.8336339"><ele>568.1678991956194</ele><time>2026-03-15T00:06:34Z</time></trkpt><trkpt lat="33.3032354" lon="132.8338625"><ele>568.552205427276</ele><time>2026-03-15T00:06:49Z</time></trkpt><trkpt lat="33.303187" lon="132.834075"><ele>568.2537015995248</ele><time>2026-03-15T00:07:14Z</time></trkpt><trkpt lat="33.3031944" lon="132.8343043"><ele>566.7450944713984</ele><time>2026-03-15T00:07:31Z</time></trkpt><trkpt lat="33.3032795" lon="132.8345154"><ele>564.2998197088482</ele><time>2026-03-15T00:07:47Z</time></trkpt><trkpt lat="33.3033471" lon="132.8342966"><ele>559.6158180677427</ele><time>2026-03-15T00:08:16Z</time></trkpt><trkpt lat="33.3034078" lon="132.8340848"><ele>554.6157615312779</ele><time>2026-03-15T00:08:31Z</time></trkpt><trkpt lat="33.3035282" lon="132.8338997"><ele>549.1783805891308</ele><time>2026-03-15T00:08:46Z</time></trkpt><trkpt lat="33.3036302" lon="132.8337128"><ele>545.0143276861796</ele><time>2026-03-15T00:09:02Z</time></trkpt><trkpt lat="33.3035926" lon="132.8334779"><ele>540.6446084897963</ele><time>2026-03-15T00:09:19Z</time></trkpt><trkpt lat="33.3035469" lon="132.8332334"><ele>536.1431567258865</ele><time>2026-03-15T00:09:35Z</time></trkpt><trkpt lat="33.3035334" lon="132.8329739"><ele>532.1936152142783</ele><time>2026-03-15T00:09:53Z</time></trkpt><trkpt lat="33.3036188" lon="132.8327575"><ele>529.2232898129888</ele><time>2026-03-15T00:10:08Z</time></trkpt><trkpt lat="33.3037897" lon="132.8326307"><ele>526.180591134373</ele><time>2026-03-15T00:10:23Z</time></trkpt><trkpt lat="33.3038993" lon="132.8324278"><ele>523.6064294736962</ele><time>2026-03-15T00:10:37Z</time></trkpt><trkpt lat="33.3039669" lon="132.832204"><ele>520.418000882058</ele><time>2026-03-15T00:10:56Z</time></trkpt><trkpt lat="33.303988" lon="132.831963"><ele>517.5197653204108</ele><time>2026-03-15T00:11:13Z</time></trkpt><trkpt lat="33.3039648" lon="132.8316899"><ele>514.4840681980697</ele><time>2026-03-15T00:11:32Z</time></trkpt><trkpt lat="33.303882" lon="132.8314724"><ele>512.1453016361473</ele><time>2026-03-15T00:11:47Z</time></trkpt><trkpt lat="33.3036776" lon="132.8314781"><ele>510.5130597300245</ele><time>2026-03-15T00:12:05Z</time></trkpt><trkpt lat="33.3035219" lon="132.8315996"><ele>508.9483019558931</ele><time>2026-03-15T00:12:20Z</time></trkpt><trkpt lat="33.3033288" lon="132.8316407"><ele>507.31945428563387</ele><time>2026-03-15T00:12:35Z</time></trkpt><trkpt lat="33.3034646" lon="132.831468"><ele>504.08879589902244</ele><time>2026-03-15T00:13:07Z</time></trkpt><trkpt lat="33.3036533" lon="132.8313702"><ele>501.39743119891364</ele><time>2026-03-15T00:13:23Z</time></trkpt><trkpt lat="33.3038222" lon="132.8312205"><ele>498.93318953144586</ele><time>2026-03-15T00:13:37Z</time></trkpt><trkpt lat="33.3039875" lon="132.8311321"><ele>497.6068136366378</ele><time>2026-03-15T00:14:36Z</time></trkpt><trkpt lat="33.3041854" lon="132.8311168"><ele>495.1736321768655</ele><time>2026-03-15T00:14:54Z</time></trkpt><trkpt lat="33.3041102" lon="132.8309154"><ele>490.88244113564974</ele><time>2026-03-15T00:15:23Z</time></trkpt><trkpt lat="33.3039163" lon="132.8309327"><ele>486.58231753435285</ele><time>2026-03-15T00:15:39Z</time></trkpt><trkpt lat="33.3040988" lon="132.8308082"><ele>481.8260917135503</ele><time>2026-03-15T00:15:59Z</time></trkpt><trkpt lat="33.304283" lon="132.8307854"><ele>478.9473464769076</ele><time>2026-03-15T00:16:14Z</time></trkpt><trkpt lat="33.3042129" lon="132.8305778"><ele>472.3594110349812</ele><time>2026-03-15T00:17:03Z</time></trkpt><trkpt lat="33.3044216" lon="132.8305159"><ele>465.4679267742333</ele><time>2026-03-15T00:17:24Z</time></trkpt><trkpt lat="33.3046376" lon="132.8305384"><ele>458.312087096232</ele><time>2026-03-15T00:17:39Z</time></trkpt><trkpt lat="33.3048188" lon="132.8306068"><ele>454.07206338626906</ele><time>2026-03-15T00:17:53Z</time></trkpt><trkpt lat="33.3046518" lon="132.8305047"><ele>450.89374937900374</ele><time>2026-03-15T00:18:12Z</time></trkpt><trkpt lat="33.3044443" lon="132.8304462"><ele>447.50815747964197</ele><time>2026-03-15T00:18:27Z</time></trkpt><trkpt lat="33.3042554" lon="132.8303585"><ele>444.989818907224</ele><time>2026-03-15T00:18:42Z</time></trkpt><trkpt lat="33.3040553" lon="132.8303509"><ele>442.3553083857537</ele><time>2026-03-15T00:18:57Z</time></trkpt><trkpt lat="33.3038554" lon="132.8303792"><ele>439.6646976948038</ele><time>2026-03-15T00:19:11Z</time></trkpt><trkpt lat="33.3036766" lon="132.8304438"><ele>436.7443630471991</ele><time>2026-03-15T00:19:27Z</time></trkpt><trkpt lat="33.3034711" lon="132.8304545"><ele>433.30736966761066</ele><time>2026-03-15T00:19:50Z</time></trkpt><trkpt lat="33.3034657" lon="132.8302136"><ele>430.05025171927736</ele><time>2026-03-15T00:20:05Z</time></trkpt><trkpt lat="33.3036109" lon="132.8300229"><ele>426.202898619379</ele><time>2026-03-15T00:20:20Z</time></trkpt><trkpt lat="33.3038096" lon="132.8299658"><ele>422.93349231588763</ele><time>2026-03-15T00:20:35Z</time></trkpt><trkpt lat="33.303994" lon="132.8298302"><ele>418.9688276792949</ele><time>2026-03-15T00:20:53Z</time></trkpt><trkpt lat="33.3041608" lon="132.8297121"><ele>416.0206718894801</ele><time>2026-03-15T00:21:06Z</time></trkpt><trkpt lat="33.3043146" lon="132.829528"><ele>412.06349256018666</ele><time>2026-03-15T00:21:21Z</time></trkpt><trkpt lat="33.3044322" lon="132.8293221"><ele>408.8799984915957</ele><time>2026-03-15T00:21:36Z</time></trkpt><trkpt lat="33.304625" lon="132.8292675"><ele>404.8277386322928</ele><time>2026-03-15T00:21:51Z</time></trkpt><trkpt lat="33.304818" lon="132.8292148"><ele>402.9491030776983</ele><time>2026-03-15T00:22:05Z</time></trkpt><trkpt lat="33.3049978" lon="132.8291356"><ele>400.4191487191101</ele><time>2026-03-15T00:22:20Z</time></trkpt><trkpt lat="33.3052072" lon="132.8290552"><ele>398.61379365341645</ele><time>2026-03-15T00:22:35Z</time></trkpt><trkpt lat="33.3054014" lon="132.8289544"><ele>395.3094834683557</ele><time>2026-03-15T00:22:51Z</time></trkpt><trkpt lat="33.3055612" lon="132.8288097"><ele>392.62406021081665</ele><time>2026-03-15T00:23:05Z</time></trkpt><trkpt lat="33.3055749" lon="132.8285734"><ele>389.97003418719964</ele><time>2026-03-15T00:23:21Z</time></trkpt><trkpt lat="33.3056525" lon="132.8283739"><ele>387.52542475698345</ele><time>2026-03-15T00:23:39Z</time></trkpt><trkpt lat="33.3058691" lon="132.8283667"><ele>384.31668215650757</ele><time>2026-03-15T00:23:54Z</time></trkpt><trkpt lat="33.3060444" lon="132.8283065"><ele>380.9352746631805</ele><time>2026-03-15T00:24:05Z</time></trkpt><trkpt lat="33.3062052" lon="132.8281695"><ele>377.2001578001635</ele><time>2026-03-15T00:24:21Z</time></trkpt><trkpt lat="33.3063526" lon="132.828037"><ele>373.5936345823557</ele><time>2026-03-15T00:24:54Z</time></trkpt><trkpt lat="33.3065367" lon="132.8279641"><ele>369.79734646985156</ele><time>2026-03-15T00:25:09Z</time></trkpt><trkpt lat="33.3067355" lon="132.8279199"><ele>366.3711096050459</ele><time>2026-03-15T00:25:23Z</time></trkpt><trkpt lat="33.3069422" lon="132.8279225"><ele>363.04948107834457</ele><time>2026-03-15T00:25:38Z</time></trkpt><trkpt lat="33.3071037" lon="132.8277869"><ele>359.9333727315537</ele><time>2026-03-15T00:25:54Z</time></trkpt><trkpt lat="33.3072303" lon="132.8275876"><ele>356.8986217410118</ele><time>2026-03-15T00:26:08Z</time></trkpt><trkpt lat="33.3074212" lon="132.8274729"><ele>354.22615080151604</ele><time>2026-03-15T00:26:23Z</time></trkpt><trkpt lat="33.307542" lon="132.8272627"><ele>351.30815356554103</ele><time>2026-03-15T00:26:39Z</time></trkpt><trkpt lat="33.3077056" lon="132.8271361"><ele>348.5135222580471</ele><time>2026-03-15T00:26:53Z</time></trkpt><trkpt lat="33.3079111" lon="132.8271497"><ele>345.7494353651882</ele><time>2026-03-15T00:27:08Z</time></trkpt><trkpt lat="33.3081136" lon="132.8271488"><ele>343.5358356567984</ele><time>2026-03-15T00:27:24Z</time></trkpt><trkpt lat="33.3082633" lon="132.8269569"><ele>341.4024818471809</ele><time>2026-03-15T00:27:39Z</time></trkpt><trkpt lat="33.3083816" lon="132.8267388"><ele>339.1793584659908</ele><time>2026-03-15T00:27:54Z</time></trkpt><trkpt lat="33.3085225" lon="132.8265542"><ele>336.60125301104176</ele><time>2026-03-15T00:28:08Z</time></trkpt><trkpt lat="33.3086669" lon="132.8263875"><ele>334.33345084641644</ele><time>2026-03-15T00:28:23Z</time></trkpt><trkpt lat="33.3088101" lon="132.8262014"><ele>332.5287800323419</ele><time>2026-03-15T00:28:39Z</time></trkpt><trkpt lat="33.3088231" lon="132.8259428"><ele>331.02236045953595</ele><time>2026-03-15T00:28:54Z</time></trkpt><trkpt lat="33.3088407" lon="132.8257058"><ele>329.27131264412225</ele><time>2026-03-15T00:29:09Z</time></trkpt><trkpt lat="33.3089553" lon="132.8258808"><ele>326.2468834071497</ele><time>2026-03-15T00:29:39Z</time></trkpt><trkpt lat="33.3090984" lon="132.8260119"><ele>323.05650861664856</ele><time>2026-03-15T00:30:00Z</time></trkpt><trkpt lat="33.3092077" lon="132.8257846"><ele>319.72625131914964</ele><time>2026-03-15T00:30:14Z</time></trkpt><trkpt lat="33.3092569" lon="132.8255474"><ele>317.4576088016725</ele><time>2026-03-15T00:30:29Z</time></trkpt><trkpt lat="33.3093648" lon="132.8253456"><ele>315.3040984922901</ele><time>2026-03-15T00:30:45Z</time></trkpt><trkpt lat="33.3094564" lon="132.8251389"><ele>313.33267710405266</ele><time>2026-03-15T00:30:59Z</time></trkpt><trkpt lat="33.3095057" lon="132.8249002"><ele>311.3105832771723</ele><time>2026-03-15T00:31:14Z</time></trkpt><trkpt lat="33.3096736" lon="132.8247447"><ele>308.97867166548014</ele><time>2026-03-15T00:31:30Z</time></trkpt><trkpt lat="33.3098749" lon="132.8247825"><ele>306.55793676898065</ele><time>2026-03-15T00:31:44Z</time></trkpt><trkpt lat="33.3100775" lon="132.8248523"><ele>304.3114769313812</ele><time>2026-03-15T00:32:00Z</time></trkpt><trkpt lat="33.3102331" lon="132.8247217"><ele>302.3565938498226</ele><time>2026-03-15T00:32:14Z</time></trkpt><trkpt lat="33.3103607" lon="132.8245171"><ele>300.6419076196782</ele><time>2026-03-15T00:32:30Z</time></trkpt><trkpt lat="33.3105358" lon="132.8243734"><ele>298.69853893578085</ele><time>2026-03-15T00:32:44Z</time></trkpt><trkpt lat="33.3107227" lon="132.8242963"><ele>297.0087495247505</ele><time>2026-03-15T00:32:59Z</time></trkpt><trkpt lat="33.3108825" lon="132.8241654"><ele>295.2498644075086</ele><time>2026-03-15T00:33:15Z</time></trkpt><trkpt lat="33.311031" lon="132.8240306"><ele>293.1408393022385</ele><time>2026-03-15T00:33:29Z</time></trkpt><trkpt lat="33.3111944" lon="132.8239239"><ele>291.0618094343743</ele><time>2026-03-15T00:33:44Z</time></trkpt><trkpt lat="33.3113872" lon="132.8238653"><ele>288.2866826049437</ele><time>2026-03-15T00:33:59Z</time></trkpt><trkpt lat="33.3115538" lon="132.8237369"><ele>286.2000779272319</ele><time>2026-03-15T00:34:15Z</time></trkpt><trkpt lat="33.3116211" lon="132.823487"><ele>283.5492894449189</ele><time>2026-03-15T00:34:30Z</time></trkpt><trkpt lat="33.3117658" lon="132.8233046"><ele>281.62212861353015</ele><time>2026-03-15T00:34:45Z</time></trkpt><trkpt lat="33.3119535" lon="132.8232197"><ele>279.3272065421427</ele><time>2026-03-15T00:35:00Z</time></trkpt><trkpt lat="33.3120447" lon="132.8230159"><ele>278.2521797548916</ele><time>2026-03-15T00:35:11Z</time></trkpt><trkpt lat="33.3121182" lon="132.822785"><ele>276.8801018049503</ele><time>2026-03-15T00:35:26Z</time></trkpt><trkpt lat="33.3122704" lon="132.8226419"><ele>276.00190888733505</ele><time>2026-03-15T00:35:41Z</time></trkpt><trkpt lat="33.3124188" lon="132.8224867"><ele>274.0170516379</ele><time>2026-03-15T00:35:56Z</time></trkpt><trkpt lat="33.3125845" lon="132.8223136"><ele>273.0919997162059</ele><time>2026-03-15T00:36:11Z</time></trkpt><trkpt lat="33.3127117" lon="132.8221125"><ele>271.8500889765557</ele><time>2026-03-15T00:36:26Z</time></trkpt><trkpt lat="33.3128554" lon="132.8219299"><ele>271.2233007694797</ele><time>2026-03-15T00:36:41Z</time></trkpt><trkpt lat="33.3130422" lon="132.8218229"><ele>269.89513298111166</ele><time>2026-03-15T00:36:56Z</time></trkpt><trkpt lat="33.3132399" lon="132.8218273"><ele>269.175733792775</ele><time>2026-03-15T00:37:12Z</time></trkpt><trkpt lat="33.3134507" lon="132.8218402"><ele>268.02208870938415</ele><time>2026-03-15T00:37:27Z</time></trkpt><trkpt lat="33.31364" lon="132.8218698"><ele>266.8809384395026</ele><time>2026-03-15T00:37:41Z</time></trkpt><trkpt lat="33.3138206" lon="132.8219287"><ele>264.92427396674105</ele><time>2026-03-15T00:37:54Z</time></trkpt><trkpt lat="33.3140166" lon="132.821916"><ele>262.8645268932935</ele><time>2026-03-15T00:38:08Z</time></trkpt><trkpt lat="33.3142075" lon="132.8220117"><ele>260.65742598327546</ele><time>2026-03-15T00:38:26Z</time></trkpt><trkpt lat="33.3144047" lon="132.8221015"><ele>258.57428550974635</ele><time>2026-03-15T00:38:41Z</time></trkpt><trkpt lat="33.3145816" lon="132.8221465"><ele>257.23588282642504</ele><time>2026-03-15T00:38:54Z</time></trkpt><trkpt lat="33.3145862" lon="132.82239"><ele>256.1640056370821</ele><time>2026-03-15T00:39:12Z</time></trkpt><trkpt lat="33.3146013" lon="132.8226285"><ele>255.9823478768591</ele><time>2026-03-15T00:39:26Z</time></trkpt><trkpt lat="33.3147364" lon="132.8228025"><ele>256.04538988683356</ele><time>2026-03-15T00:39:43Z</time></trkpt></trkseg></trk></gpx>