<?xml version='1.0' encoding='UTF-8'?><gpx creator="YAMAP - https://yamap.com" xsi:schemaLocation="http://www.topografix.com/GPX/1/1 http://www.topografix.com/GPX/1/1/gpx.xsd" version="1.1" xmlns="http://www.topografix.com/GPX/1/1" xmlns:xsi="http://www.w3.org/2001/XMLSchema-instance"><metadata><bounds maxlat="33.5013179" maxlon="132.9020265" minlat="33.4770397" minlon="132.8640879"/></metadata><trk><name>小屋山・丸石山</name><number>1</number><trkseg><trkpt lat="33.4796507" lon="132.8744279"><ele>1189.44</ele><time>2025-04-18T22:10:41Z</time></trkpt><trkpt lat="33.4797842" lon="132.8745937"><ele>1189.065</ele><time>2025-04-18T22:12:51Z</time></trkpt><trkpt lat="33.4799068" lon="132.8747896"><ele>1189.1499999999999</ele><time>2025-04-18T22:13:06Z</time></trkpt><trkpt lat="33.4801129" lon="132.8748119"><ele>1188.91</ele><time>2025-04-18T22:13:21Z</time></trkpt><trkpt lat="33.4803074" lon="132.8747298"><ele>1188.5266666666666</ele><time>2025-04-18T22:13:36Z</time></trkpt><trkpt lat="33.4804733" lon="132.8746114"><ele>1187.6966666666667</ele><time>2025-04-18T22:13:51Z</time></trkpt><trkpt lat="33.4806412" lon="132.8744899"><ele>1188.0566666666666</ele><time>2025-04-18T22:14:12Z</time></trkpt><trkpt lat="33.4808367" lon="132.8744563"><ele>1189.79</ele><time>2025-04-18T22:14:27Z</time></trkpt><trkpt lat="33.4810184" lon="132.8744329"><ele>1192.5333333333333</ele><time>2025-04-18T22:14:42Z</time></trkpt><trkpt lat="33.4812058" lon="132.8744806"><ele>1194.29</ele><time>2025-04-18T22:14:57Z</time></trkpt><trkpt lat="33.4813976" lon="132.8745868"><ele>1196.3500000000001</ele><time>2025-04-18T22:15:12Z</time></trkpt><trkpt lat="33.4815841" lon="132.8745401"><ele>1196.5433333333333</ele><time>2025-04-18T22:15:27Z</time></trkpt><trkpt lat="33.4817004" lon="132.8743304"><ele>1196.0100000000002</ele><time>2025-04-18T22:15:42Z</time></trkpt><trkpt lat="33.4818808" lon="132.8742346"><ele>1196.0733333333335</ele><time>2025-04-18T22:15:57Z</time></trkpt><trkpt lat="33.4820812" lon="132.8742119"><ele>1198.3666666666666</ele><time>2025-04-18T22:16:12Z</time></trkpt><trkpt lat="33.482277" lon="132.8741324"><ele>1200.9466666666667</ele><time>2025-04-18T22:16:27Z</time></trkpt><trkpt lat="33.4824493" lon="132.8739717"><ele>1201.41</ele><time>2025-04-18T22:16:42Z</time></trkpt><trkpt lat="33.4825881" lon="132.8737965"><ele>1200.63</ele><time>2025-04-18T22:16:57Z</time></trkpt><trkpt lat="33.4827674" lon="132.8737145"><ele>1200.2466666666667</ele><time>2025-04-18T22:17:12Z</time></trkpt><trkpt lat="33.4829554" lon="132.8737469"><ele>1200.9033333333334</ele><time>2025-04-18T22:17:27Z</time></trkpt><trkpt lat="33.4831353" lon="132.8738574"><ele>1201.9133333333332</ele><time>2025-04-18T22:17:42Z</time></trkpt><trkpt lat="33.4833187" lon="132.8739083"><ele>1203.1166666666668</ele><time>2025-04-18T22:17:57Z</time></trkpt><trkpt lat="33.4834275" lon="132.8737019"><ele>1202.3400000000001</ele><time>2025-04-18T22:18:12Z</time></trkpt><trkpt lat="33.4834729" lon="132.8734766"><ele>1201.8500000000001</ele><time>2025-04-18T22:18:27Z</time></trkpt><trkpt lat="33.4835844" lon="132.8732894"><ele>1201.9866666666667</ele><time>2025-04-18T22:18:43Z</time></trkpt><trkpt lat="33.4837305" lon="132.8731186"><ele>1203.2099999999998</ele><time>2025-04-18T22:18:58Z</time></trkpt><trkpt lat="33.4838679" lon="132.872918"><ele>1203.76</ele><time>2025-04-18T22:19:13Z</time></trkpt><trkpt lat="33.4839123" lon="132.8726806"><ele>1203.7233333333334</ele><time>2025-04-18T22:19:28Z</time></trkpt><trkpt lat="33.4838642" lon="132.8724547"><ele>1204.2633333333333</ele><time>2025-04-18T22:19:43Z</time></trkpt><trkpt lat="33.4837593" lon="132.8722392"><ele>1203.24</ele><time>2025-04-18T22:19:58Z</time></trkpt><trkpt lat="33.4837707" lon="132.8720192"><ele>1201.6066666666666</ele><time>2025-04-18T22:20:13Z</time></trkpt><trkpt lat="33.4838647" lon="132.8718067"><ele>1201.2233333333334</ele><time>2025-04-18T22:20:35Z</time></trkpt><trkpt lat="33.484001" lon="132.8716378"><ele>1202.89</ele><time>2025-04-18T22:20:53Z</time></trkpt><trkpt lat="33.4841644" lon="132.8715092"><ele>1207.9933333333333</ele><time>2025-04-18T22:21:08Z</time></trkpt><trkpt lat="33.4841884" lon="132.87125"><ele>1211.1633333333332</ele><time>2025-04-18T22:21:26Z</time></trkpt><trkpt lat="33.4841805" lon="132.8710333"><ele>1213.8400000000001</ele><time>2025-04-18T22:21:41Z</time></trkpt><trkpt lat="33.4843219" lon="132.8708631"><ele>1214.0600000000002</ele><time>2025-04-18T22:21:56Z</time></trkpt><trkpt lat="33.4844803" lon="132.8707163"><ele>1215.3300000000002</ele><time>2025-04-18T22:22:11Z</time></trkpt><trkpt lat="33.4846674" lon="132.8707098"><ele>1216.2933333333333</ele><time>2025-04-18T22:22:26Z</time></trkpt><trkpt lat="33.4848415" lon="132.8708048"><ele>1218.2633333333333</ele><time>2025-04-18T22:22:44Z</time></trkpt><trkpt lat="33.4850416" lon="132.8708221"><ele>1221.2233333333334</ele><time>2025-04-18T22:23:01Z</time></trkpt><trkpt lat="33.4852399" lon="132.8707136"><ele>1226.1866666666667</ele><time>2025-04-18T22:23:18Z</time></trkpt><trkpt lat="33.4853625" lon="132.8705362"><ele>1228.0466666666669</ele><time>2025-04-18T22:23:32Z</time></trkpt><trkpt lat="33.4855449" lon="132.8704652"><ele>1229.6066666666666</ele><time>2025-04-18T22:23:47Z</time></trkpt><trkpt lat="33.4856747" lon="132.8706288"><ele>1232.0766666666666</ele><time>2025-04-18T22:24:04Z</time></trkpt><trkpt lat="33.4858638" lon="132.8706832"><ele>1235.78</ele><time>2025-04-18T22:24:21Z</time></trkpt><trkpt lat="33.4860481" lon="132.8706015"><ele>1237.6333333333334</ele><time>2025-04-18T22:24:50Z</time></trkpt><trkpt lat="33.4862447" lon="132.8706285"><ele>1240.0366666666666</ele><time>2025-04-18T22:25:05Z</time></trkpt><trkpt lat="33.4864526" lon="132.8705526"><ele>1243.3433333333335</ele><time>2025-04-18T22:25:23Z</time></trkpt><trkpt lat="33.4864604" lon="132.8703176"><ele>1247.01</ele><time>2025-04-18T22:25:37Z</time></trkpt><trkpt lat="33.4863687" lon="132.8700837"><ele>1247.8799999999999</ele><time>2025-04-18T22:26:04Z</time></trkpt><trkpt lat="33.4863086" lon="132.8698576"><ele>1247.6299999999999</ele><time>2025-04-18T22:26:22Z</time></trkpt><trkpt lat="33.4864565" lon="132.8696801"><ele>1248.3533333333335</ele><time>2025-04-18T22:26:39Z</time></trkpt><trkpt lat="33.4866767" lon="132.8697336"><ele>1250.61</ele><time>2025-04-18T22:26:55Z</time></trkpt><trkpt lat="33.4868639" lon="132.8696538"><ele>1253.8333333333335</ele><time>2025-04-18T22:27:11Z</time></trkpt><trkpt lat="33.487041" lon="132.8695776"><ele>1256.0533333333333</ele><time>2025-04-18T22:27:28Z</time></trkpt><trkpt lat="33.4872266" lon="132.8695619"><ele>1258.4199999999998</ele><time>2025-04-18T22:27:45Z</time></trkpt><trkpt lat="33.4873475" lon="132.8693453"><ele>1261.1133333333332</ele><time>2025-04-18T22:28:05Z</time></trkpt><trkpt lat="33.487408" lon="132.8691169"><ele>1263.8500000000001</ele><time>2025-04-18T22:28:19Z</time></trkpt><trkpt lat="33.4874802" lon="132.8688758"><ele>1264.6033333333332</ele><time>2025-04-18T22:28:36Z</time></trkpt><trkpt lat="33.487673" lon="132.8688023"><ele>1264.84</ele><time>2025-04-18T22:28:53Z</time></trkpt><trkpt lat="33.4878603" lon="132.8688131"><ele>1265.6200000000001</ele><time>2025-04-18T22:29:11Z</time></trkpt><trkpt lat="33.488049" lon="132.8688061"><ele>1267.6366666666665</ele><time>2025-04-18T22:29:28Z</time></trkpt><trkpt lat="33.4881617" lon="132.8686313"><ele>1269.8866666666668</ele><time>2025-04-18T22:29:44Z</time></trkpt><trkpt lat="33.4882026" lon="132.8684039"><ele>1271.2866666666666</ele><time>2025-04-18T22:29:59Z</time></trkpt><trkpt lat="33.48835" lon="132.8682689"><ele>1272.9966666666667</ele><time>2025-04-18T22:30:12Z</time></trkpt><trkpt lat="33.488511" lon="132.8681544"><ele>1275.3333333333333</ele><time>2025-04-18T22:30:29Z</time></trkpt><trkpt lat="33.4884285" lon="132.867929"><ele>1279.5833333333333</ele><time>2025-04-18T22:30:47Z</time></trkpt><trkpt lat="33.4882726" lon="132.8677994"><ele>1283.0066666666667</ele><time>2025-04-18T22:31:02Z</time></trkpt><trkpt lat="33.4880658" lon="132.8678397"><ele>1284.1466666666665</ele><time>2025-04-18T22:31:17Z</time></trkpt><trkpt lat="33.4880036" lon="132.8676286"><ele>1283.5400000000002</ele><time>2025-04-18T22:31:34Z</time></trkpt><trkpt lat="33.4881022" lon="132.8674156"><ele>1283.47</ele><time>2025-04-18T22:31:51Z</time></trkpt><trkpt lat="33.4881932" lon="132.8672127"><ele>1285.0600000000002</ele><time>2025-04-18T22:32:08Z</time></trkpt><trkpt lat="33.4882934" lon="132.8670187"><ele>1286.4566666666667</ele><time>2025-04-18T22:32:22Z</time></trkpt><trkpt lat="33.4884199" lon="132.8667932"><ele>1287.9333333333334</ele><time>2025-04-18T22:33:34Z</time></trkpt><trkpt lat="33.4885528" lon="132.8666378"><ele>1290.5466666666666</ele><time>2025-04-18T22:33:49Z</time></trkpt><trkpt lat="33.4885791" lon="132.8664082"><ele>1293.6166666666668</ele><time>2025-04-18T22:34:10Z</time></trkpt><trkpt lat="33.4885924" lon="132.8661861"><ele>1295.8500000000001</ele><time>2025-04-18T22:34:25Z</time></trkpt><trkpt lat="33.4887719" lon="132.8660624"><ele>1296.8000000000002</ele><time>2025-04-18T22:35:25Z</time></trkpt><trkpt lat="33.4889649" lon="132.8660449"><ele>1297.49</ele><time>2025-04-18T22:35:37Z</time></trkpt><trkpt lat="33.4891674" lon="132.8659892"><ele>1296.3533333333335</ele><time>2025-04-18T22:35:55Z</time></trkpt><trkpt lat="33.4893656" lon="132.8660154"><ele>1295.3166666666666</ele><time>2025-04-18T22:36:13Z</time></trkpt><trkpt lat="33.4895612" lon="132.866066"><ele>1293.73</ele><time>2025-04-18T22:36:28Z</time></trkpt><trkpt lat="33.4897659" lon="132.8660995"><ele>1294.0966666666666</ele><time>2025-04-18T22:36:44Z</time></trkpt><trkpt lat="33.4898964" lon="132.8659059"><ele>1293.6633333333332</ele><time>2025-04-18T22:37:12Z</time></trkpt><trkpt lat="33.4899768" lon="132.8656824"><ele>1293.5600000000002</ele><time>2025-04-18T22:37:40Z</time></trkpt><trkpt lat="33.4900443" lon="132.8654755"><ele>1292.8166666666666</ele><time>2025-04-18T22:37:52Z</time></trkpt><trkpt lat="33.4900891" lon="132.865224"><ele>1292.3999999999999</ele><time>2025-04-18T22:38:13Z</time></trkpt><trkpt lat="33.490228" lon="132.8650228"><ele>1291.99</ele><time>2025-04-18T22:38:28Z</time></trkpt><trkpt lat="33.4902928" lon="132.8648218"><ele>1291.4033333333334</ele><time>2025-04-18T22:38:40Z</time></trkpt><trkpt lat="33.4902921" lon="132.8645527"><ele>1290.7433333333333</ele><time>2025-04-18T22:38:55Z</time></trkpt><trkpt lat="33.490263" lon="132.8643134"><ele>1290.4066666666668</ele><time>2025-04-18T22:39:10Z</time></trkpt><trkpt lat="33.4903709" lon="132.8641289"><ele>1290.2966666666666</ele><time>2025-04-18T22:39:25Z</time></trkpt><trkpt lat="33.4905841" lon="132.8640879"><ele>1290.21</ele><time>2025-04-18T22:39:40Z</time></trkpt><trkpt lat="33.4907876" lon="132.8641867"><ele>1288.9033333333334</ele><time>2025-04-18T22:39:55Z</time></trkpt><trkpt lat="33.4909989" lon="132.864268"><ele>1286.3533333333332</ele><time>2025-04-18T22:40:10Z</time></trkpt><trkpt lat="33.4911753" lon="132.864321"><ele>1282.6333333333334</ele><time>2025-04-18T22:40:22Z</time></trkpt><trkpt lat="33.4913581" lon="132.8644476"><ele>1278.2966666666669</ele><time>2025-04-18T22:40:37Z</time></trkpt><trkpt lat="33.4915594" lon="132.8644019"><ele>1274.5766666666668</ele><time>2025-04-18T22:40:51Z</time></trkpt><trkpt lat="33.4917384" lon="132.8643147"><ele>1271.5800000000002</ele><time>2025-04-18T22:41:06Z</time></trkpt><trkpt lat="33.4919464" lon="132.8642853"><ele>1269.9633333333334</ele><time>2025-04-18T22:41:21Z</time></trkpt><trkpt lat="33.4921269" lon="132.8642559"><ele>1268.2</ele><time>2025-04-18T22:41:33Z</time></trkpt><trkpt lat="33.4923566" lon="132.8643171"><ele>1266.5833333333333</ele><time>2025-04-18T22:41:53Z</time></trkpt><trkpt lat="33.4925468" lon="132.8644381"><ele>1264.9433333333334</ele><time>2025-04-18T22:42:09Z</time></trkpt><trkpt lat="33.4927156" lon="132.8645823"><ele>1263.7299999999998</ele><time>2025-04-18T22:42:24Z</time></trkpt><trkpt lat="33.4928164" lon="132.8647655"><ele>1262.5366666666669</ele><time>2025-04-18T22:42:36Z</time></trkpt><trkpt lat="33.4929852" lon="132.8648862"><ele>1261.3066666666666</ele><time>2025-04-18T22:42:51Z</time></trkpt><trkpt lat="33.4931669" lon="132.8648762"><ele>1259.8833333333334</ele><time>2025-04-18T22:43:26Z</time></trkpt><trkpt lat="33.4933612" lon="132.8650025"><ele>1258.22</ele><time>2025-04-18T22:44:36Z</time></trkpt><trkpt lat="33.4935714" lon="132.8650801"><ele>1256.2866666666666</ele><time>2025-04-18T22:44:51Z</time></trkpt><trkpt lat="33.4937524" lon="132.8651049"><ele>1254.9933333333336</ele><time>2025-04-18T22:45:06Z</time></trkpt><trkpt lat="33.4939197" lon="132.8652362"><ele>1255.4233333333334</ele><time>2025-04-18T22:45:48Z</time></trkpt><trkpt lat="33.4940461" lon="132.8654179"><ele>1257.4033333333334</ele><time>2025-04-18T22:46:06Z</time></trkpt><trkpt lat="33.4941452" lon="132.8656275"><ele>1258.9066666666668</ele><time>2025-04-18T22:46:36Z</time></trkpt><trkpt lat="33.4942446" lon="132.8658566"><ele>1259.9966666666667</ele><time>2025-04-18T22:46:54Z</time></trkpt><trkpt lat="33.4942913" lon="132.8661075"><ele>1260.96</ele><time>2025-04-18T22:47:27Z</time></trkpt><trkpt lat="33.4943948" lon="132.8662969"><ele>1263.56</ele><time>2025-04-18T22:47:44Z</time></trkpt><trkpt lat="33.4945507" lon="132.8664474"><ele>1265.8933333333334</ele><time>2025-04-18T22:48:01Z</time></trkpt><trkpt lat="33.4947429" lon="132.8665602"><ele>1269.8166666666666</ele><time>2025-04-18T22:48:18Z</time></trkpt><trkpt lat="33.4949095" lon="132.8666426"><ele>1273.4433333333334</ele><time>2025-04-18T22:48:33Z</time></trkpt><trkpt lat="33.4950611" lon="132.8667605"><ele>1276.7966666666666</ele><time>2025-04-18T22:48:50Z</time></trkpt><trkpt lat="33.4952558" lon="132.866798"><ele>1278.0033333333333</ele><time>2025-04-18T22:49:07Z</time></trkpt><trkpt lat="33.4954265" lon="132.8667198"><ele>1278.53</ele><time>2025-04-18T22:49:31Z</time></trkpt><trkpt lat="33.4955856" lon="132.8665753"><ele>1279.1066666666668</ele><time>2025-04-18T22:49:46Z</time></trkpt><trkpt lat="33.4957215" lon="132.8664142"><ele>1279.7033333333334</ele><time>2025-04-18T22:50:01Z</time></trkpt><trkpt lat="33.495932" lon="132.8664333"><ele>1278.5033333333333</ele><time>2025-04-18T22:50:21Z</time></trkpt><trkpt lat="33.496079" lon="132.866574"><ele>1276.5200000000002</ele><time>2025-04-18T22:50:36Z</time></trkpt><trkpt lat="33.4962114" lon="132.8667627"><ele>1274.0566666666666</ele><time>2025-04-18T22:50:53Z</time></trkpt><trkpt lat="33.4964217" lon="132.8667565"><ele>1274.32</ele><time>2025-04-18T22:51:26Z</time></trkpt><trkpt lat="33.4965654" lon="132.8665644"><ele>1275.6266666666668</ele><time>2025-04-18T22:51:42Z</time></trkpt><trkpt lat="33.4966616" lon="132.8663395"><ele>1278.2633333333333</ele><time>2025-04-18T22:52:00Z</time></trkpt><trkpt lat="33.4967654" lon="132.8661341"><ele>1279.8333333333333</ele><time>2025-04-18T22:52:17Z</time></trkpt><trkpt lat="33.4967457" lon="132.8658953"><ele>1282.5</ele><time>2025-04-18T22:52:34Z</time></trkpt><trkpt lat="33.4968083" lon="132.8656933"><ele>1285.21</ele><time>2025-04-18T22:52:51Z</time></trkpt><trkpt lat="33.4970113" lon="132.8657287"><ele>1286.37</ele><time>2025-04-18T22:53:06Z</time></trkpt><trkpt lat="33.4971613" lon="132.8655546"><ele>1288.3866666666668</ele><time>2025-04-18T22:53:26Z</time></trkpt><trkpt lat="33.4973353" lon="132.865651"><ele>1285.8233333333335</ele><time>2025-04-18T22:54:11Z</time></trkpt><trkpt lat="33.4974031" lon="132.8658986"><ele>1284.6200000000001</ele><time>2025-04-18T22:54:32Z</time></trkpt><trkpt lat="33.497382" lon="132.8661439"><ele>1280.3966666666668</ele><time>2025-04-18T22:54:49Z</time></trkpt><trkpt lat="33.4974986" lon="132.8663217"><ele>1281.9833333333336</ele><time>2025-04-18T22:55:06Z</time></trkpt><trkpt lat="33.4976994" lon="132.8663819"><ele>1284.91</ele><time>2025-04-18T22:55:23Z</time></trkpt><trkpt lat="33.497867" lon="132.8662609"><ele>1288.7</ele><time>2025-04-18T22:55:39Z</time></trkpt><trkpt lat="33.4979426" lon="132.8660619"><ele>1291.36</ele><time>2025-04-18T22:55:57Z</time></trkpt><trkpt lat="33.4980195" lon="132.865863"><ele>1293.4266666666667</ele><time>2025-04-18T22:56:12Z</time></trkpt><trkpt lat="33.4981126" lon="132.8656604"><ele>1295.7833333333335</ele><time>2025-04-18T22:56:42Z</time></trkpt><trkpt lat="33.4982534" lon="132.865821"><ele>1295.8133333333333</ele><time>2025-04-18T22:57:00Z</time></trkpt><trkpt lat="33.4983074" lon="132.866034"><ele>1293.7</ele><time>2025-04-18T22:57:17Z</time></trkpt><trkpt lat="33.498481" lon="132.8661802"><ele>1290.7466666666667</ele><time>2025-04-18T22:57:35Z</time></trkpt><trkpt lat="33.4986808" lon="132.8661821"><ele>1289.24</ele><time>2025-04-18T22:57:52Z</time></trkpt><trkpt lat="33.4988834" lon="132.8661786"><ele>1289.0133333333333</ele><time>2025-04-18T22:58:12Z</time></trkpt><trkpt lat="33.4990984" lon="132.8661363"><ele>1290.06</ele><time>2025-04-18T22:58:29Z</time></trkpt><trkpt lat="33.4992814" lon="132.8662635"><ele>1293.1333333333332</ele><time>2025-04-18T22:58:56Z</time></trkpt><trkpt lat="33.4991281" lon="132.866423"><ele>1296.0000000000002</ele><time>2025-04-18T22:59:13Z</time></trkpt><trkpt lat="33.4989777" lon="132.8666097"><ele>1297.8333333333335</ele><time>2025-04-18T22:59:31Z</time></trkpt><trkpt lat="33.4988495" lon="132.8667744"><ele>1295.9433333333334</ele><time>2025-04-18T22:59:46Z</time></trkpt><trkpt lat="33.498874" lon="132.8669939"><ele>1293.9333333333334</ele><time>2025-04-18T23:00:03Z</time></trkpt><trkpt lat="33.4990676" lon="132.8670546"><ele>1291.4833333333333</ele><time>2025-04-18T23:00:20Z</time></trkpt><trkpt lat="33.4992559" lon="132.8669896"><ele>1291.7366666666667</ele><time>2025-04-18T23:00:35Z</time></trkpt><trkpt lat="33.4994275" lon="132.8668915"><ele>1293.4800000000002</ele><time>2025-04-18T23:00:52Z</time></trkpt><trkpt lat="33.4996224" lon="132.8669721"><ele>1295.3000000000002</ele><time>2025-04-18T23:01:07Z</time></trkpt><trkpt lat="33.4997584" lon="132.867149"><ele>1297.1933333333334</ele><time>2025-04-18T23:01:23Z</time></trkpt><trkpt lat="33.4999287" lon="132.8672501"><ele>1298.2066666666667</ele><time>2025-04-18T23:02:14Z</time></trkpt><trkpt lat="33.5001415" lon="132.8672663"><ele>1298.6966666666667</ele><time>2025-04-18T23:02:29Z</time></trkpt><trkpt lat="33.5003465" lon="132.8673015"><ele>1297.84</ele><time>2025-04-18T23:02:47Z</time></trkpt><trkpt lat="33.5005259" lon="132.8673931"><ele>1295.9366666666667</ele><time>2025-04-18T23:03:14Z</time></trkpt><trkpt lat="33.5006839" lon="132.8672696"><ele>1297.8266666666666</ele><time>2025-04-18T23:04:20Z</time></trkpt><trkpt lat="33.5008168" lon="132.867118"><ele>1300.71</ele><time>2025-04-18T23:05:32Z</time></trkpt><trkpt lat="33.5009322" lon="132.8669376"><ele>1306.5233333333333</ele><time>2025-04-18T23:06:56Z</time></trkpt><trkpt lat="33.5009574" lon="132.8667135"><ele>1310.75</ele><time>2025-04-18T23:08:08Z</time></trkpt><trkpt lat="33.5009402" lon="132.8664935"><ele>1315.1533333333334</ele><time>2025-04-18T23:09:02Z</time></trkpt><trkpt lat="33.5008994" lon="132.8662834"><ele>1318.4066666666668</ele><time>2025-04-18T23:09:53Z</time></trkpt><trkpt lat="33.500826" lon="132.8660714"><ele>1322.926666666667</ele><time>2025-04-18T23:10:41Z</time></trkpt><trkpt lat="33.5007119" lon="132.8659009"><ele>1329.3100000000002</ele><time>2025-04-18T23:11:41Z</time></trkpt><trkpt lat="33.5005566" lon="132.8657748"><ele>1335.756666666667</ele><time>2025-04-18T23:12:38Z</time></trkpt><trkpt lat="33.5006967" lon="132.8656107"><ele>1339.8033333333333</ele><time>2025-04-18T23:14:17Z</time></trkpt><trkpt lat="33.5008586" lon="132.8654822"><ele>1340.9533333333334</ele><time>2025-04-18T23:14:53Z</time></trkpt><trkpt lat="33.5009817" lon="132.8653207"><ele>1341.2066666666667</ele><time>2025-04-18T23:16:20Z</time></trkpt><trkpt lat="33.5011007" lon="132.865139"><ele>1341.2733333333333</ele><time>2025-04-18T23:16:50Z</time></trkpt><trkpt lat="33.5012064" lon="132.8649354"><ele>1341.5</ele><time>2025-04-18T23:17:23Z</time></trkpt><trkpt lat="33.5013043" lon="132.8647507"><ele>1341.5633333333333</ele><time>2025-04-18T23:17:44Z</time></trkpt><trkpt lat="33.5013179" lon="132.864524"><ele>1341.0633333333333</ele><time>2025-04-18T23:18:23Z</time></trkpt><trkpt lat="33.5013139" lon="132.8642951"><ele>1339.7033333333334</ele><time>2025-04-18T23:19:05Z</time></trkpt><trkpt lat="33.5012946" lon="132.8645323"><ele>1339.1133333333335</ele><time>2025-04-18T23:20:29Z</time></trkpt><trkpt lat="33.5012342" lon="132.8647496"><ele>1339.2066666666667</ele><time>2025-04-18T23:20:59Z</time></trkpt><trkpt lat="33.501139" lon="132.8649427"><ele>1340.1299999999999</ele><time>2025-04-18T23:22:05Z</time></trkpt><trkpt lat="33.5010159" lon="132.8651148"><ele>1339.7233333333334</ele><time>2025-04-18T23:24:49Z</time></trkpt><trkpt lat="33.5009579" lon="132.8653315"><ele>1339.8566666666666</ele><time>2025-04-18T23:27:28Z</time></trkpt><trkpt lat="33.5008027" lon="132.8654555"><ele>1339.67</ele><time>2025-04-18T23:29:19Z</time></trkpt><trkpt lat="33.5006417" lon="132.8655776"><ele>1340.5066666666667</ele><time>2025-04-18T23:29:58Z</time></trkpt><trkpt lat="33.500491" lon="132.8657313"><ele>1340.6233333333332</ele><time>2025-04-18T23:30:34Z</time></trkpt><trkpt lat="33.5003109" lon="132.8657799"><ele>1340.6233333333332</ele><time>2025-04-18T23:31:01Z</time></trkpt><trkpt lat="33.5002695" lon="132.8660176"><ele>1339.9800000000002</ele><time>2025-04-18T23:31:52Z</time></trkpt><trkpt lat="33.5001843" lon="132.866208"><ele>1337.3466666666666</ele><time>2025-04-18T23:32:16Z</time></trkpt><trkpt lat="33.5001151" lon="132.8664288"><ele>1331.4533333333331</ele><time>2025-04-18T23:32:43Z</time></trkpt><trkpt lat="33.5000567" lon="132.8666412"><ele>1323.4166666666667</ele><time>2025-04-18T23:33:13Z</time></trkpt><trkpt lat="33.4999696" lon="132.8668515"><ele>1314.03</ele><time>2025-04-18T23:33:43Z</time></trkpt><trkpt lat="33.4999739" lon="132.8670758"><ele>1306.53</ele><time>2025-04-18T23:34:10Z</time></trkpt><trkpt lat="33.4998159" lon="132.8671819"><ele>1301.3733333333332</ele><time>2025-04-18T23:35:07Z</time></trkpt><trkpt lat="33.4997365" lon="132.8673788"><ele>1300.8866666666665</ele><time>2025-04-18T23:36:31Z</time></trkpt><trkpt lat="33.4998336" lon="132.8675613"><ele>1303.8066666666666</ele><time>2025-04-18T23:37:28Z</time></trkpt><trkpt lat="33.499908" lon="132.8677616"><ele>1308.6599999999999</ele><time>2025-04-18T23:38:13Z</time></trkpt><trkpt lat="33.5000002" lon="132.8679622"><ele>1313.86</ele><time>2025-04-18T23:39:22Z</time></trkpt><trkpt lat="33.499993" lon="132.8681886"><ele>1318.8799999999999</ele><time>2025-04-18T23:39:52Z</time></trkpt><trkpt lat="33.4999672" lon="132.8684255"><ele>1323.6566666666665</ele><time>2025-04-18T23:40:22Z</time></trkpt><trkpt lat="33.4999538" lon="132.8686432"><ele>1327.3733333333332</ele><time>2025-04-18T23:41:19Z</time></trkpt><trkpt lat="33.4999484" lon="132.8688612"><ele>1329.9633333333334</ele><time>2025-04-18T23:41:58Z</time></trkpt><trkpt lat="33.5000097" lon="132.8690655"><ele>1333.0633333333333</ele><time>2025-04-18T23:43:28Z</time></trkpt><trkpt lat="33.499945" lon="132.8692795"><ele>1336.4766666666667</ele><time>2025-04-18T23:44:10Z</time></trkpt><trkpt lat="33.4998145" lon="132.8694528"><ele>1339.9466666666667</ele><time>2025-04-18T23:44:43Z</time></trkpt><trkpt lat="33.4997948" lon="132.8696835"><ele>1342.7833333333335</ele><time>2025-04-18T23:45:31Z</time></trkpt><trkpt lat="33.4997611" lon="132.8699106"><ele>1345.6266666666668</ele><time>2025-04-18T23:46:01Z</time></trkpt><trkpt lat="33.4997535" lon="132.8701353"><ele>1348.7933333333333</ele><time>2025-04-18T23:47:01Z</time></trkpt><trkpt lat="33.4998069" lon="132.870346"><ele>1351.09</ele><time>2025-04-18T23:47:58Z</time></trkpt><trkpt lat="33.4997143" lon="132.8705543"><ele>1352.8066666666666</ele><time>2025-04-18T23:49:10Z</time></trkpt><trkpt lat="33.4996379" lon="132.8707597"><ele>1353.6866666666667</ele><time>2025-04-18T23:49:40Z</time></trkpt><trkpt lat="33.4995816" lon="132.8709741"><ele>1354.95</ele><time>2025-04-18T23:50:10Z</time></trkpt><trkpt lat="33.4995173" lon="132.8711803"><ele>1356.5300000000002</ele><time>2025-04-18T23:50:34Z</time></trkpt><trkpt lat="33.4993979" lon="132.8713582"><ele>1358.8999999999999</ele><time>2025-04-18T23:51:33Z</time></trkpt><trkpt lat="33.4992593" lon="132.8715279"><ele>1360.9366666666667</ele><time>2025-04-18T23:51:57Z</time></trkpt><trkpt lat="33.4991515" lon="132.8717266"><ele>1362.4666666666665</ele><time>2025-04-18T23:52:27Z</time></trkpt><trkpt lat="33.4990685" lon="132.8719217"><ele>1365.21</ele><time>2025-04-18T23:53:12Z</time></trkpt><trkpt lat="33.4989544" lon="132.8721197"><ele>1367.54</ele><time>2025-04-18T23:54:06Z</time></trkpt><trkpt lat="33.4988495" lon="132.8722973"><ele>1369.8933333333334</ele><time>2025-04-18T23:55:00Z</time></trkpt><trkpt lat="33.4987518" lon="132.8724955"><ele>1370.22</ele><time>2025-04-18T23:55:36Z</time></trkpt><trkpt lat="33.4986159" lon="132.8726534"><ele>1370.5433333333333</ele><time>2025-04-18T23:56:15Z</time></trkpt><trkpt lat="33.498596" lon="132.8728749"><ele>1370.67</ele><time>2025-04-18T23:57:09Z</time></trkpt><trkpt lat="33.4984528" lon="132.8730393"><ele>1371.2866666666669</ele><time>2025-04-18T23:58:30Z</time></trkpt><trkpt lat="33.4982981" lon="132.8731876"><ele>1372.4633333333334</ele><time>2025-04-18T23:59:03Z</time></trkpt><trkpt lat="33.4981093" lon="132.8732376"><ele>1373.9066666666668</ele><time>2025-04-18T23:59:33Z</time></trkpt><trkpt lat="33.497962" lon="132.8733692"><ele>1374.2233333333334</ele><time>2025-04-19T00:00:18Z</time></trkpt><trkpt lat="33.497855" lon="132.8735654"><ele>1375.3466666666666</ele><time>2025-04-19T00:01:00Z</time></trkpt><trkpt lat="33.4977393" lon="132.873746"><ele>1377.1999999999998</ele><time>2025-04-19T00:01:36Z</time></trkpt><trkpt lat="33.4976196" lon="132.8739237"><ele>1379.6166666666668</ele><time>2025-04-19T00:11:36Z</time></trkpt><trkpt lat="33.4978098" lon="132.8738842"><ele>1380.8466666666666</ele><time>2025-04-19T00:12:33Z</time></trkpt><trkpt lat="33.4979884" lon="132.8738384"><ele>1379.4800000000002</ele><time>2025-04-19T00:13:12Z</time></trkpt><trkpt lat="33.4981946" lon="132.8738164"><ele>1375.42</ele><time>2025-04-19T00:13:54Z</time></trkpt><trkpt lat="33.4983706" lon="132.8738701"><ele>1369.2233333333334</ele><time>2025-04-19T00:14:18Z</time></trkpt><trkpt lat="33.4985585" lon="132.8738669"><ele>1362.243333333333</ele><time>2025-04-19T00:14:51Z</time></trkpt><trkpt lat="33.4987193" lon="132.873971"><ele>1356.3966666666665</ele><time>2025-04-19T00:15:15Z</time></trkpt><trkpt lat="33.4988031" lon="132.8741672"><ele>1350.72</ele><time>2025-04-19T00:15:42Z</time></trkpt><trkpt lat="33.4988635" lon="132.8743835"><ele>1347.0733333333335</ele><time>2025-04-19T00:16:08Z</time></trkpt><trkpt lat="33.4989828" lon="132.8745712"><ele>1343.88</ele><time>2025-04-19T00:16:56Z</time></trkpt><trkpt lat="33.4991047" lon="132.8747409"><ele>1342.1000000000001</ele><time>2025-04-19T00:17:17Z</time></trkpt><trkpt lat="33.4992029" lon="132.8749506"><ele>1339.6133333333335</ele><time>2025-04-19T00:17:56Z</time></trkpt><trkpt lat="33.4992542" lon="132.8751669"><ele>1338.0166666666667</ele><time>2025-04-19T00:18:20Z</time></trkpt><trkpt lat="33.4992571" lon="132.875392"><ele>1336.3933333333334</ele><time>2025-04-19T00:18:41Z</time></trkpt><trkpt lat="33.4992845" lon="132.8756081"><ele>1335.6766666666667</ele><time>2025-04-19T00:18:59Z</time></trkpt><trkpt lat="33.4993447" lon="132.8758285"><ele>1333.9333333333334</ele><time>2025-04-19T00:19:22Z</time></trkpt><trkpt lat="33.4994114" lon="132.8760303"><ele>1332.5233333333333</ele><time>2025-04-19T00:19:46Z</time></trkpt><trkpt lat="33.4994204" lon="132.8762654"><ele>1331.3933333333334</ele><time>2025-04-19T00:20:16Z</time></trkpt><trkpt lat="33.499429" lon="132.8764994"><ele>1330.3466666666666</ele><time>2025-04-19T00:20:43Z</time></trkpt><trkpt lat="33.4993925" lon="132.8767175"><ele>1329.0966666666666</ele><time>2025-04-19T00:21:07Z</time></trkpt><trkpt lat="33.4993931" lon="132.8769483"><ele>1327.97</ele><time>2025-04-19T00:22:22Z</time></trkpt><trkpt lat="33.4994566" lon="132.8771718"><ele>1326.45</ele><time>2025-04-19T00:22:46Z</time></trkpt><trkpt lat="33.4994348" lon="132.8774119"><ele>1325.9966666666667</ele><time>2025-04-19T00:23:10Z</time></trkpt><trkpt lat="33.4993924" lon="132.8776253"><ele>1326.9333333333332</ele><time>2025-04-19T00:23:46Z</time></trkpt><trkpt lat="33.499431" lon="132.8778628"><ele>1330.47</ele><time>2025-04-19T00:24:16Z</time></trkpt><trkpt lat="33.4994719" lon="132.8780765"><ele>1334.3966666666665</ele><time>2025-04-19T00:24:58Z</time></trkpt><trkpt lat="33.4994267" lon="132.8783098"><ele>1338.0566666666666</ele><time>2025-04-19T00:25:55Z</time></trkpt><trkpt lat="33.4993837" lon="132.8785254"><ele>1342.74</ele><time>2025-04-19T00:26:22Z</time></trkpt><trkpt lat="33.4993986" lon="132.87875"><ele>1347.0966666666668</ele><time>2025-04-19T00:26:58Z</time></trkpt><trkpt lat="33.4995196" lon="132.8789425"><ele>1348.8066666666666</ele><time>2025-04-19T00:27:45Z</time></trkpt><trkpt lat="33.4996189" lon="132.8791291"><ele>1346.8066666666666</ele><time>2025-04-19T00:28:12Z</time></trkpt><trkpt lat="33.4997284" lon="132.8793043"><ele>1343.4266666666665</ele><time>2025-04-19T00:28:36Z</time></trkpt><trkpt lat="33.4997891" lon="132.8795226"><ele>1341.5866666666668</ele><time>2025-04-19T00:29:03Z</time></trkpt><trkpt lat="33.4998409" lon="132.8797342"><ele>1342.99</ele><time>2025-04-19T00:29:36Z</time></trkpt><trkpt lat="33.4997708" lon="132.8799413"><ele>1345.5833333333333</ele><time>2025-04-19T00:30:11Z</time></trkpt><trkpt lat="33.4997322" lon="132.8801661"><ele>1348.6566666666668</ele><time>2025-04-19T00:31:05Z</time></trkpt><trkpt lat="33.4996651" lon="132.88038"><ele>1350.1533333333334</ele><time>2025-04-19T00:31:41Z</time></trkpt><trkpt lat="33.4995751" lon="132.8806016"><ele>1350.5266666666666</ele><time>2025-04-19T00:32:08Z</time></trkpt><trkpt lat="33.499521" lon="132.8808088"><ele>1349.0766666666666</ele><time>2025-04-19T00:32:31Z</time></trkpt><trkpt lat="33.499493" lon="132.8810353"><ele>1346.3166666666668</ele><time>2025-04-19T00:32:55Z</time></trkpt><trkpt lat="33.4994691" lon="132.8812499"><ele>1343.4766666666667</ele><time>2025-04-19T00:33:12Z</time></trkpt><trkpt lat="33.4994338" lon="132.8814847"><ele>1342.26</ele><time>2025-04-19T00:33:42Z</time></trkpt><trkpt lat="33.4993722" lon="132.8817023"><ele>1343.65</ele><time>2025-04-19T00:34:12Z</time></trkpt><trkpt lat="33.4993188" lon="132.881908"><ele>1347.4399999999998</ele><time>2025-04-19T00:35:24Z</time></trkpt><trkpt lat="33.4992279" lon="132.8821071"><ele>1353.0966666666666</ele><time>2025-04-19T00:36:15Z</time></trkpt><trkpt lat="33.4991776" lon="132.8823222"><ele>1357.3</ele><time>2025-04-19T00:37:36Z</time></trkpt><trkpt lat="33.4990412" lon="132.8824668"><ele>1361.21</ele><time>2025-04-19T00:38:45Z</time></trkpt><trkpt lat="33.498899" lon="132.8826008"><ele>1363.1499999999999</ele><time>2025-04-19T00:39:24Z</time></trkpt><trkpt lat="33.4987531" lon="132.882742"><ele>1364.8999999999999</ele><time>2025-04-19T00:40:09Z</time></trkpt><trkpt lat="33.498586" lon="132.8828301"><ele>1365.2933333333333</ele><time>2025-04-19T00:40:45Z</time></trkpt><trkpt lat="33.4984786" lon="132.8830082"><ele>1364.4766666666667</ele><time>2025-04-19T00:41:27Z</time></trkpt><trkpt lat="33.4983124" lon="132.8831047"><ele>1366.1333333333332</ele><time>2025-04-19T00:41:57Z</time></trkpt><trkpt lat="33.498161" lon="132.8832259"><ele>1367.9966666666667</ele><time>2025-04-19T00:43:00Z</time></trkpt><trkpt lat="33.4979886" lon="132.8833013"><ele>1371.05</ele><time>2025-04-19T00:43:54Z</time></trkpt><trkpt lat="33.4979362" lon="132.8835088"><ele>1371.8433333333335</ele><time>2025-04-19T00:51:36Z</time></trkpt><trkpt lat="33.4979449" lon="132.8837256"><ele>1371.7</ele><time>2025-04-19T00:52:21Z</time></trkpt><trkpt lat="33.4979121" lon="132.8839455"><ele>1369.9233333333334</ele><time>2025-04-19T00:53:00Z</time></trkpt><trkpt lat="33.4978157" lon="132.8841296"><ele>1367.26</ele><time>2025-04-19T00:53:42Z</time></trkpt><trkpt lat="33.4978476" lon="132.8843464"><ele>1363.7466666666667</ele><time>2025-04-19T00:54:21Z</time></trkpt><trkpt lat="33.4979655" lon="132.8845212"><ele>1359.8466666666666</ele><time>2025-04-19T00:54:56Z</time></trkpt><trkpt lat="33.4979574" lon="132.8847694"><ele>1356.4933333333336</ele><time>2025-04-19T00:55:23Z</time></trkpt><trkpt lat="33.4979138" lon="132.8849821"><ele>1354.13</ele><time>2025-04-19T00:55:41Z</time></trkpt><trkpt lat="33.4978529" lon="132.8852137"><ele>1353.61</ele><time>2025-04-19T00:56:14Z</time></trkpt><trkpt lat="33.4977683" lon="132.8854072"><ele>1353.7366666666667</ele><time>2025-04-19T00:56:47Z</time></trkpt><trkpt lat="33.4976767" lon="132.8855972"><ele>1355.5333333333335</ele><time>2025-04-19T00:57:17Z</time></trkpt><trkpt lat="33.4975715" lon="132.8857877"><ele>1357.89</ele><time>2025-04-19T00:57:47Z</time></trkpt><trkpt lat="33.497511" lon="132.8860203"><ele>1360.0866666666668</ele><time>2025-04-19T00:58:32Z</time></trkpt><trkpt lat="33.4975858" lon="132.8862169"><ele>1361.2366666666667</ele><time>2025-04-19T00:59:23Z</time></trkpt><trkpt lat="33.4976177" lon="132.8864438"><ele>1362.7433333333333</ele><time>2025-04-19T01:00:01Z</time></trkpt><trkpt lat="33.497562" lon="132.8866598"><ele>1364.8799999999999</ele><time>2025-04-19T01:01:16Z</time></trkpt><trkpt lat="33.4975075" lon="132.8868719"><ele>1365.9366666666665</ele><time>2025-04-19T01:02:04Z</time></trkpt><trkpt lat="33.4975994" lon="132.8870862"><ele>1366.3</ele><time>2025-04-19T01:03:01Z</time></trkpt><trkpt lat="33.497625" lon="132.8873078"><ele>1366.0233333333333</ele><time>2025-04-19T01:03:28Z</time></trkpt><trkpt lat="33.4976878" lon="132.8875166"><ele>1366.0566666666666</ele><time>2025-04-19T01:04:07Z</time></trkpt><trkpt lat="33.4977644" lon="132.887738"><ele>1364.4366666666667</ele><time>2025-04-19T01:04:34Z</time></trkpt><trkpt lat="33.4978963" lon="132.887907"><ele>1363.12</ele><time>2025-04-19T01:05:03Z</time></trkpt><trkpt lat="33.4979528" lon="132.8881128"><ele>1363.5033333333333</ele><time>2025-04-19T01:06:15Z</time></trkpt><trkpt lat="33.4979357" lon="132.8883383"><ele>1364.82</ele><time>2025-04-19T01:06:38Z</time></trkpt><trkpt lat="33.4978529" lon="132.8885678"><ele>1364.3500000000001</ele><time>2025-04-19T01:07:05Z</time></trkpt><trkpt lat="33.4977378" lon="132.8887516"><ele>1359.3366666666668</ele><time>2025-04-19T01:07:29Z</time></trkpt><trkpt lat="33.4977039" lon="132.8889659"><ele>1354.0333333333333</ele><time>2025-04-19T01:07:50Z</time></trkpt><trkpt lat="33.4977111" lon="132.8891926"><ele>1349.0933333333332</ele><time>2025-04-19T01:09:20Z</time></trkpt><trkpt lat="33.4977742" lon="132.8894029"><ele>1347.7366666666667</ele><time>2025-04-19T01:09:41Z</time></trkpt><trkpt lat="33.4978126" lon="132.889623"><ele>1346.5600000000002</ele><time>2025-04-19T01:10:02Z</time></trkpt><trkpt lat="33.4979541" lon="132.889811"><ele>1348.2333333333333</ele><time>2025-04-19T01:10:32Z</time></trkpt><trkpt lat="33.4980844" lon="132.8899608"><ele>1350.51</ele><time>2025-04-19T01:10:59Z</time></trkpt><trkpt lat="33.4981486" lon="132.890181"><ele>1352.6899999999998</ele><time>2025-04-19T01:11:26Z</time></trkpt><trkpt lat="33.4982205" lon="132.8903869"><ele>1350.3366666666668</ele><time>2025-04-19T01:12:26Z</time></trkpt><trkpt lat="33.4982269" lon="132.8906026"><ele>1345.3966666666668</ele><time>2025-04-19T01:13:02Z</time></trkpt><trkpt lat="33.4982585" lon="132.8908162"><ele>1337.7866666666666</ele><time>2025-04-19T01:13:35Z</time></trkpt><trkpt lat="33.4982296" lon="132.8910481"><ele>1332.4633333333334</ele><time>2025-04-19T01:14:05Z</time></trkpt><trkpt lat="33.4983084" lon="132.8912431"><ele>1328.7033333333331</ele><time>2025-04-19T01:14:29Z</time></trkpt><trkpt lat="33.4982642" lon="132.8914696"><ele>1328.7633333333333</ele><time>2025-04-19T01:14:53Z</time></trkpt><trkpt lat="33.4982231" lon="132.8916798"><ele>1328.11</ele><time>2025-04-19T01:15:41Z</time></trkpt><trkpt lat="33.4980621" lon="132.8918046"><ele>1326.4566666666667</ele><time>2025-04-19T01:16:32Z</time></trkpt><trkpt lat="33.4979185" lon="132.8919355"><ele>1324.11</ele><time>2025-04-19T01:17:29Z</time></trkpt><trkpt lat="33.4978841" lon="132.8921479"><ele>1322.72</ele><time>2025-04-19T01:18:11Z</time></trkpt><trkpt lat="33.497829" lon="132.8923549"><ele>1321.9266666666665</ele><time>2025-04-19T01:18:56Z</time></trkpt><trkpt lat="33.4978321" lon="132.8925788"><ele>1320.38</ele><time>2025-04-19T01:26:11Z</time></trkpt><trkpt lat="33.4979146" lon="132.8927864"><ele>1315.25</ele><time>2025-04-19T01:26:50Z</time></trkpt><trkpt lat="33.4979808" lon="132.8929918"><ele>1308.7866666666669</ele><time>2025-04-19T01:27:26Z</time></trkpt><trkpt lat="33.4980331" lon="132.8931997"><ele>1303.2666666666667</ele><time>2025-04-19T01:27:56Z</time></trkpt><trkpt lat="33.4980298" lon="132.8934165"><ele>1302.1033333333335</ele><time>2025-04-19T01:28:41Z</time></trkpt><trkpt lat="33.4980825" lon="132.8936253"><ele>1303.95</ele><time>2025-04-19T01:31:05Z</time></trkpt><trkpt lat="33.4981789" lon="132.8938292"><ele>1306.8999999999999</ele><time>2025-04-19T01:34:17Z</time></trkpt><trkpt lat="33.498294" lon="132.894019"><ele>1309.5233333333333</ele><time>2025-04-19T01:34:50Z</time></trkpt><trkpt lat="33.4984308" lon="132.8941953"><ele>1312.2233333333334</ele><time>2025-04-19T01:35:53Z</time></trkpt><trkpt lat="33.498479" lon="132.8944097"><ele>1313.8366666666668</ele><time>2025-04-19T01:36:23Z</time></trkpt><trkpt lat="33.4984564" lon="132.8946247"><ele>1316.2966666666669</ele><time>2025-04-19T01:37:14Z</time></trkpt><trkpt lat="33.4983153" lon="132.8947633"><ele>1318.756666666667</ele><time>2025-04-19T01:38:23Z</time></trkpt><trkpt lat="33.4982053" lon="132.8949351"><ele>1321.4066666666668</ele><time>2025-04-19T01:39:59Z</time></trkpt><trkpt lat="33.4981139" lon="132.8951335"><ele>1323.8233333333335</ele><time>2025-04-19T01:41:56Z</time></trkpt><trkpt lat="33.4979994" lon="132.8953012"><ele>1326.29</ele><time>2025-04-19T01:43:26Z</time></trkpt><trkpt lat="33.4979454" lon="132.895512"><ele>1327.69</ele><time>2025-04-19T01:44:38Z</time></trkpt><trkpt lat="33.4978845" lon="132.8957146"><ele>1327.09</ele><time>2025-04-19T01:46:02Z</time></trkpt><trkpt lat="33.4978798" lon="132.8959417"><ele>1325.5</ele><time>2025-04-19T01:47:32Z</time></trkpt><trkpt lat="33.4976995" lon="132.8959376"><ele>1324.0166666666667</ele><time>2025-04-19T02:06:29Z</time></trkpt><trkpt lat="33.4975514" lon="132.8960636"><ele>1320.8833333333332</ele><time>2025-04-19T02:07:17Z</time></trkpt><trkpt lat="33.4973752" lon="132.8961318"><ele>1314.5266666666666</ele><time>2025-04-19T02:08:14Z</time></trkpt><trkpt lat="33.4971924" lon="132.8961677"><ele>1307.67</ele><time>2025-04-19T02:08:35Z</time></trkpt><trkpt lat="33.4970137" lon="132.8961287"><ele>1302.8233333333335</ele><time>2025-04-19T02:08:56Z</time></trkpt><trkpt lat="33.4968168" lon="132.8961527"><ele>1299.7433333333333</ele><time>2025-04-19T02:09:32Z</time></trkpt><trkpt lat="33.4966214" lon="132.8962169"><ele>1294.38</ele><time>2025-04-19T02:09:56Z</time></trkpt><trkpt lat="33.496442" lon="132.8962707"><ele>1288.8066666666666</ele><time>2025-04-19T02:10:23Z</time></trkpt><trkpt lat="33.4962587" lon="132.8963595"><ele>1282.63</ele><time>2025-04-19T02:11:02Z</time></trkpt><trkpt lat="33.4960787" lon="132.8963903"><ele>1279.3633333333335</ele><time>2025-04-19T02:11:29Z</time></trkpt><trkpt lat="33.4958973" lon="132.8964417"><ele>1279.3366666666668</ele><time>2025-04-19T02:12:16Z</time></trkpt><trkpt lat="33.4957218" lon="132.8965374"><ele>1282.3700000000001</ele><time>2025-04-19T02:13:10Z</time></trkpt><trkpt lat="33.4955727" lon="132.8967232"><ele>1281.1833333333334</ele><time>2025-04-19T02:14:22Z</time></trkpt><trkpt lat="33.4953892" lon="132.8967714"><ele>1275.2333333333333</ele><time>2025-04-19T02:16:04Z</time></trkpt><trkpt lat="33.4952032" lon="132.896788"><ele>1263.74</ele><time>2025-04-19T02:17:22Z</time></trkpt><trkpt lat="33.4950299" lon="132.896864"><ele>1254.0833333333333</ele><time>2025-04-19T02:18:01Z</time></trkpt><trkpt lat="33.4948401" lon="132.8969458"><ele>1244.0566666666666</ele><time>2025-04-19T02:18:31Z</time></trkpt><trkpt lat="33.4946587" lon="132.8970185"><ele>1236.92</ele><time>2025-04-19T02:18:58Z</time></trkpt><trkpt lat="33.494475" lon="132.8971217"><ele>1231.2033333333336</ele><time>2025-04-19T02:19:19Z</time></trkpt><trkpt lat="33.4942914" lon="132.8971927"><ele>1226.5466666666669</ele><time>2025-04-19T02:19:40Z</time></trkpt><trkpt lat="33.4940982" lon="132.8971862"><ele>1222.1866666666667</ele><time>2025-04-19T02:20:16Z</time></trkpt><trkpt lat="33.4939045" lon="132.8971255"><ele>1218.0566666666666</ele><time>2025-04-19T02:20:43Z</time></trkpt><trkpt lat="33.4937319" lon="132.8970337"><ele>1213.2266666666667</ele><time>2025-04-19T02:21:09Z</time></trkpt><trkpt lat="33.493561" lon="132.8969479"><ele>1208.8500000000001</ele><time>2025-04-19T02:22:09Z</time></trkpt><trkpt lat="33.4933944" lon="132.8968622"><ele>1205.6000000000001</ele><time>2025-04-19T02:22:36Z</time></trkpt><trkpt lat="33.493202" lon="132.8968753"><ele>1204.5766666666666</ele><time>2025-04-19T02:23:02Z</time></trkpt><trkpt lat="33.4930247" lon="132.8969599"><ele>1203.5733333333333</ele><time>2025-04-19T02:23:32Z</time></trkpt><trkpt lat="33.492854" lon="132.8970407"><ele>1202.2433333333336</ele><time>2025-04-19T02:23:59Z</time></trkpt><trkpt lat="33.4926724" lon="132.8970399"><ele>1200.9833333333333</ele><time>2025-04-19T02:24:22Z</time></trkpt><trkpt lat="33.492498" lon="132.8971181"><ele>1198.8033333333335</ele><time>2025-04-19T02:24:57Z</time></trkpt><trkpt lat="33.4922948" lon="132.8971205"><ele>1196.9466666666667</ele><time>2025-04-19T02:25:24Z</time></trkpt><trkpt lat="33.4921041" lon="132.8970701"><ele>1193.96</ele><time>2025-04-19T02:25:47Z</time></trkpt><trkpt lat="33.4919208" lon="132.8970481"><ele>1192.1766666666665</ele><time>2025-04-19T02:26:07Z</time></trkpt><trkpt lat="33.4917121" lon="132.8970418"><ele>1188.0600000000002</ele><time>2025-04-19T02:26:28Z</time></trkpt><trkpt lat="33.4915292" lon="132.8970798"><ele>1182.43</ele><time>2025-04-19T02:26:55Z</time></trkpt><trkpt lat="33.4913647" lon="132.8971684"><ele>1172.4800000000002</ele><time>2025-04-19T02:27:40Z</time></trkpt><trkpt lat="33.4911863" lon="132.8971265"><ele>1163.28</ele><time>2025-04-19T02:28:30Z</time></trkpt><trkpt lat="33.4910144" lon="132.8972104"><ele>1153.9633333333334</ele><time>2025-04-19T02:29:09Z</time></trkpt><trkpt lat="33.4908354" lon="132.8972712"><ele>1147.8766666666668</ele><time>2025-04-19T02:30:33Z</time></trkpt><trkpt lat="33.4906563" lon="132.8974096"><ele>1141.5333333333335</ele><time>2025-04-19T02:30:57Z</time></trkpt><trkpt lat="33.4904985" lon="132.8975424"><ele>1138.1133333333335</ele><time>2025-04-19T02:31:18Z</time></trkpt><trkpt lat="33.4904158" lon="132.8977395"><ele>1135.16</ele><time>2025-04-19T02:31:39Z</time></trkpt><trkpt lat="33.4903195" lon="132.8979411"><ele>1132.0633333333333</ele><time>2025-04-19T02:32:12Z</time></trkpt><trkpt lat="33.4902516" lon="132.8981556"><ele>1129.0766666666666</ele><time>2025-04-19T02:32:39Z</time></trkpt><trkpt lat="33.4901418" lon="132.8983346"><ele>1127.43</ele><time>2025-04-19T02:33:41Z</time></trkpt><trkpt lat="33.4899658" lon="132.8984076"><ele>1128.1233333333332</ele><time>2025-04-19T02:34:20Z</time></trkpt><trkpt lat="33.4897723" lon="132.898431"><ele>1129.3966666666668</ele><time>2025-04-19T02:34:47Z</time></trkpt><trkpt lat="33.4895738" lon="132.8984189"><ele>1130.2466666666667</ele><time>2025-04-19T02:35:20Z</time></trkpt><trkpt lat="33.4893923" lon="132.8984805"><ele>1130.6366666666665</ele><time>2025-04-19T02:37:23Z</time></trkpt><trkpt lat="33.4892964" lon="132.8986868"><ele>1128.29</ele><time>2025-04-19T02:38:20Z</time></trkpt><trkpt lat="33.4892057" lon="132.8988847"><ele>1122.2866666666669</ele><time>2025-04-19T02:39:11Z</time></trkpt><trkpt lat="33.4890783" lon="132.8990509"><ele>1111.1833333333334</ele><time>2025-04-19T02:40:20Z</time></trkpt><trkpt lat="33.4889048" lon="132.8991221"><ele>1100.6866666666667</ele><time>2025-04-19T02:42:47Z</time></trkpt><trkpt lat="33.4887552" lon="132.8992546"><ele>1090.4733333333334</ele><time>2025-04-19T02:43:56Z</time></trkpt><trkpt lat="33.4886313" lon="132.8994313"><ele>1082.53</ele><time>2025-04-19T02:44:41Z</time></trkpt><trkpt lat="33.4885803" lon="132.8996381"><ele>1072.6666666666667</ele><time>2025-04-19T02:46:11Z</time></trkpt><trkpt lat="33.488469" lon="132.8998096"><ele>1063.0766666666666</ele><time>2025-04-19T02:46:56Z</time></trkpt><trkpt lat="33.4884427" lon="132.9000309"><ele>1053.2133333333334</ele><time>2025-04-19T02:47:41Z</time></trkpt><trkpt lat="33.4884179" lon="132.9002523"><ele>1041.01</ele><time>2025-04-19T02:48:32Z</time></trkpt><trkpt lat="33.488324" lon="132.9004422"><ele>1028.26</ele><time>2025-04-19T02:49:44Z</time></trkpt><trkpt lat="33.4882622" lon="132.9006458"><ele>1015.4499999999999</ele><time>2025-04-19T02:50:44Z</time></trkpt><trkpt lat="33.4882617" lon="132.9008649"><ele>1003.7133333333335</ele><time>2025-04-19T02:51:53Z</time></trkpt><trkpt lat="33.4881787" lon="132.9010598"><ele>991.5533333333333</ele><time>2025-04-19T02:52:56Z</time></trkpt><trkpt lat="33.4881278" lon="132.9012663"><ele>978.2833333333334</ele><time>2025-04-19T02:53:38Z</time></trkpt><trkpt lat="33.4880392" lon="132.9014548"><ele>965.36</ele><time>2025-04-19T02:54:26Z</time></trkpt><trkpt lat="33.4880977" lon="132.9016606"><ele>953.2433333333333</ele><time>2025-04-19T02:55:05Z</time></trkpt><trkpt lat="33.4881358" lon="132.901889"><ele>941.2433333333335</ele><time>2025-04-19T02:55:38Z</time></trkpt><trkpt lat="33.4879816" lon="132.9020265"><ele>932.5433333333334</ele><time>2025-04-19T02:56:50Z</time></trkpt><trkpt lat="33.4878752" lon="132.9018057"><ele>928.1366666666667</ele><time>2025-04-19T02:57:22Z</time></trkpt><trkpt lat="33.4877562" lon="132.9016108"><ele>928.44</ele><time>2025-04-19T02:57:42Z</time></trkpt><trkpt lat="33.487701" lon="132.9014019"><ele>929.2433333333333</ele><time>2025-04-19T02:57:59Z</time></trkpt><trkpt lat="33.4876176" lon="132.9011902"><ele>928.64</ele><time>2025-04-19T02:58:19Z</time></trkpt><trkpt lat="33.4876048" lon="132.9009583"><ele>928.64</ele><time>2025-04-19T02:58:39Z</time></trkpt><trkpt lat="33.4875138" lon="132.9007421"><ele>929.1433333333333</ele><time>2025-04-19T02:58:59Z</time></trkpt><trkpt lat="33.4874261" lon="132.9005453"><ele>931.1666666666666</ele><time>2025-04-19T02:59:13Z</time></trkpt><trkpt lat="33.487291" lon="132.9003903"><ele>932.2599999999999</ele><time>2025-04-19T02:59:27Z</time></trkpt><trkpt lat="33.4871913" lon="132.9001781"><ele>933.9966666666668</ele><time>2025-04-19T02:59:46Z</time></trkpt><trkpt lat="33.487011" lon="132.9000847"><ele>934.7866666666667</ele><time>2025-04-19T03:00:03Z</time></trkpt><trkpt lat="33.4868197" lon="132.9000987"><ele>935.2066666666666</ele><time>2025-04-19T03:00:20Z</time></trkpt><trkpt lat="33.4866444" lon="132.8999892"><ele>933.65</ele><time>2025-04-19T03:00:36Z</time></trkpt><trkpt lat="33.4866384" lon="132.8997691"><ele>932.2433333333333</ele><time>2025-04-19T03:00:53Z</time></trkpt><trkpt lat="33.4867613" lon="132.8995661"><ele>932.5866666666667</ele><time>2025-04-19T03:01:46Z</time></trkpt><trkpt lat="33.4868851" lon="132.8993773"><ele>934.35</ele><time>2025-04-19T03:02:06Z</time></trkpt><trkpt lat="33.486847" lon="132.8991436"><ele>935.0066666666667</ele><time>2025-04-19T03:02:24Z</time></trkpt><trkpt lat="33.4867942" lon="132.8989198"><ele>935.4733333333334</ele><time>2025-04-19T03:02:47Z</time></trkpt><trkpt lat="33.4867436" lon="132.8987042"><ele>934.8866666666667</ele><time>2025-04-19T03:03:04Z</time></trkpt><trkpt lat="33.486797" lon="132.8984668"><ele>935.7199999999999</ele><time>2025-04-19T03:03:45Z</time></trkpt><trkpt lat="33.4868782" lon="132.8982647"><ele>935.5966666666667</ele><time>2025-04-19T03:04:27Z</time></trkpt><trkpt lat="33.4869066" lon="132.8980347"><ele>935.6866666666666</ele><time>2025-04-19T03:04:54Z</time></trkpt><trkpt lat="33.486969" lon="132.8978029"><ele>935.5433333333334</ele><time>2025-04-19T03:05:12Z</time></trkpt><trkpt lat="33.4869543" lon="132.8975562"><ele>934.9466666666667</ele><time>2025-04-19T03:05:29Z</time></trkpt><trkpt lat="33.4869884" lon="132.8973218"><ele>935.4699999999999</ele><time>2025-04-19T03:06:08Z</time></trkpt><trkpt lat="33.4870761" lon="132.8970949"><ele>936.3266666666667</ele><time>2025-04-19T03:06:28Z</time></trkpt><trkpt lat="33.4871241" lon="132.8968863"><ele>939.4933333333333</ele><time>2025-04-19T03:06:45Z</time></trkpt><trkpt lat="33.4871213" lon="132.8966441"><ele>942.3633333333333</ele><time>2025-04-19T03:07:05Z</time></trkpt><trkpt lat="33.4871122" lon="132.8963853"><ele>946.7599999999999</ele><time>2025-04-19T03:07:39Z</time></trkpt><trkpt lat="33.4870759" lon="132.8961414"><ele>948.6866666666668</ele><time>2025-04-19T03:07:56Z</time></trkpt><trkpt lat="33.4870487" lon="132.895922"><ele>950.8733333333333</ele><time>2025-04-19T03:08:13Z</time></trkpt><trkpt lat="33.4870987" lon="132.8956728"><ele>951.9833333333332</ele><time>2025-04-19T03:08:42Z</time></trkpt><trkpt lat="33.4871479" lon="132.8954606"><ele>953.6266666666667</ele><time>2025-04-19T03:08:59Z</time></trkpt><trkpt lat="33.4871743" lon="132.8952239"><ele>955.73</ele><time>2025-04-19T03:09:17Z</time></trkpt><trkpt lat="33.4872404" lon="132.894978"><ele>956.3466666666667</ele><time>2025-04-19T03:10:08Z</time></trkpt><trkpt lat="33.4872205" lon="132.8947556"><ele>955.8466666666667</ele><time>2025-04-19T03:10:40Z</time></trkpt><trkpt lat="33.4871987" lon="132.8945105"><ele>955.1033333333335</ele><time>2025-04-19T03:10:57Z</time></trkpt><trkpt lat="33.4873609" lon="132.8943613"><ele>956.6066666666667</ele><time>2025-04-19T03:11:14Z</time></trkpt><trkpt lat="33.4874403" lon="132.8941245"><ele>960.5</ele><time>2025-04-19T03:11:30Z</time></trkpt><trkpt lat="33.4873548" lon="132.8938889"><ele>962.1966666666667</ele><time>2025-04-19T03:11:45Z</time></trkpt><trkpt lat="33.4873485" lon="132.8936478"><ele>961.9900000000001</ele><time>2025-04-19T03:11:59Z</time></trkpt><trkpt lat="33.487337" lon="132.8934266"><ele>959.89</ele><time>2025-04-19T03:12:22Z</time></trkpt><trkpt lat="33.4873072" lon="132.8932096"><ele>959.5533333333334</ele><time>2025-04-19T03:12:40Z</time></trkpt><trkpt lat="33.4874408" lon="132.8930619"><ele>959.2766666666666</ele><time>2025-04-19T03:13:24Z</time></trkpt><trkpt lat="33.4873791" lon="132.8928129"><ele>960.5100000000001</ele><time>2025-04-19T03:13:41Z</time></trkpt><trkpt lat="33.4873004" lon="132.8926027"><ele>963.2333333333332</ele><time>2025-04-19T03:14:04Z</time></trkpt><trkpt lat="33.4873191" lon="132.8923754"><ele>967.9133333333333</ele><time>2025-04-19T03:14:30Z</time></trkpt><trkpt lat="33.4872873" lon="132.8921498"><ele>972.6333333333333</ele><time>2025-04-19T03:14:47Z</time></trkpt><trkpt lat="33.4871859" lon="132.8919349"><ele>976.91</ele><time>2025-04-19T03:15:06Z</time></trkpt><trkpt lat="33.4871884" lon="132.8916994"><ele>980.3299999999999</ele><time>2025-04-19T03:15:23Z</time></trkpt><trkpt lat="33.4872234" lon="132.8914642"><ele>981.35</ele><time>2025-04-19T03:15:40Z</time></trkpt><trkpt lat="33.4871906" lon="132.8912525"><ele>982.54</ele><time>2025-04-19T03:15:57Z</time></trkpt><trkpt lat="33.4871261" lon="132.8910181"><ele>983.4733333333334</ele><time>2025-04-19T03:16:14Z</time></trkpt><trkpt lat="33.4870823" lon="132.8907724"><ele>985.1733333333333</ele><time>2025-04-19T03:16:31Z</time></trkpt><trkpt lat="33.4870126" lon="132.8905588"><ele>986.08</ele><time>2025-04-19T03:16:58Z</time></trkpt><trkpt lat="33.4870349" lon="132.8903296"><ele>985.6166666666667</ele><time>2025-04-19T03:17:24Z</time></trkpt><trkpt lat="33.4871409" lon="132.8901178"><ele>985.0033333333334</ele><time>2025-04-19T03:17:44Z</time></trkpt><trkpt lat="33.4871299" lon="132.8898966"><ele>984.3100000000001</ele><time>2025-04-19T03:18:01Z</time></trkpt><trkpt lat="33.4871301" lon="132.8896592"><ele>984.3100000000001</ele><time>2025-04-19T03:18:17Z</time></trkpt><trkpt lat="33.4871101" lon="132.8894101"><ele>985.09</ele><time>2025-04-19T03:18:37Z</time></trkpt><trkpt lat="33.4870641" lon="132.8892003"><ele>985.7433333333333</ele><time>2025-04-19T03:18:53Z</time></trkpt><trkpt lat="33.4869078" lon="132.8890278"><ele>986.7933333333334</ele><time>2025-04-19T03:19:13Z</time></trkpt><trkpt lat="33.4867416" lon="132.8889207"><ele>989.9233333333333</ele><time>2025-04-19T03:19:27Z</time></trkpt><trkpt lat="33.4866385" lon="132.8887225"><ele>992.9266666666667</ele><time>2025-04-19T03:19:44Z</time></trkpt><trkpt lat="33.4865868" lon="132.8884753"><ele>994.14</ele><time>2025-04-19T03:20:02Z</time></trkpt><trkpt lat="33.486506" lon="132.8882754"><ele>995.04</ele><time>2025-04-19T03:20:17Z</time></trkpt><trkpt lat="33.4863512" lon="132.8881473"><ele>998.0233333333332</ele><time>2025-04-19T03:20:31Z</time></trkpt><trkpt lat="33.4862296" lon="132.8879806"><ele>1000.8800000000001</ele><time>2025-04-19T03:20:48Z</time></trkpt><trkpt lat="33.4860569" lon="132.8878921"><ele>1003.1566666666668</ele><time>2025-04-19T03:21:18Z</time></trkpt><trkpt lat="33.4859026" lon="132.8877746"><ele>1002.5033333333334</ele><time>2025-04-19T03:21:32Z</time></trkpt><trkpt lat="33.4857245" lon="132.8876315"><ele>1003.6866666666666</ele><time>2025-04-19T03:21:49Z</time></trkpt><trkpt lat="33.4855821" lon="132.8874772"><ele>1003.7033333333334</ele><time>2025-04-19T03:22:06Z</time></trkpt><trkpt lat="33.4854353" lon="132.8873122"><ele>1005.0433333333334</ele><time>2025-04-19T03:22:36Z</time></trkpt><trkpt lat="33.4852544" lon="132.8871787"><ele>1007.7733333333334</ele><time>2025-04-19T03:23:17Z</time></trkpt><trkpt lat="33.4851967" lon="132.8869669"><ele>1010.4933333333335</ele><time>2025-04-19T03:23:37Z</time></trkpt><trkpt lat="33.4850794" lon="132.8867615"><ele>1013.3166666666666</ele><time>2025-04-19T03:23:57Z</time></trkpt><trkpt lat="33.4850196" lon="132.886536"><ele>1014.7933333333334</ele><time>2025-04-19T03:24:16Z</time></trkpt><trkpt lat="33.484981" lon="132.8863174"><ele>1017.5766666666667</ele><time>2025-04-19T03:24:43Z</time></trkpt><trkpt lat="33.4849236" lon="132.8860848"><ele>1021.4900000000001</ele><time>2025-04-19T03:25:06Z</time></trkpt><trkpt lat="33.4848752" lon="132.8858698"><ele>1024.22</ele><time>2025-04-19T03:25:26Z</time></trkpt><trkpt lat="33.4848556" lon="132.885634"><ele>1026.0633333333333</ele><time>2025-04-19T03:25:43Z</time></trkpt><trkpt lat="33.4848108" lon="132.8853991"><ele>1025.86</ele><time>2025-04-19T03:26:00Z</time></trkpt><trkpt lat="33.48481" lon="132.8851542"><ele>1028.0566666666666</ele><time>2025-04-19T03:26:20Z</time></trkpt><trkpt lat="33.4848431" lon="132.8849217"><ele>1030.41</ele><time>2025-04-19T03:26:40Z</time></trkpt><trkpt lat="33.4848617" lon="132.8847022"><ele>1032.0433333333333</ele><time>2025-04-19T03:26:57Z</time></trkpt><trkpt lat="33.4848588" lon="132.8844804"><ele>1033.0566666666666</ele><time>2025-04-19T03:27:14Z</time></trkpt><trkpt lat="33.4848474" lon="132.8842303"><ele>1032.9533333333331</ele><time>2025-04-19T03:27:31Z</time></trkpt><trkpt lat="33.4848862" lon="132.8840178"><ele>1031.82</ele><time>2025-04-19T03:27:45Z</time></trkpt><trkpt lat="33.4849184" lon="132.8837963"><ele>1029.4399999999998</ele><time>2025-04-19T03:28:00Z</time></trkpt><trkpt lat="33.4849134" lon="132.8835681"><ele>1028.3766666666668</ele><time>2025-04-19T03:28:17Z</time></trkpt><trkpt lat="33.4848466" lon="132.8833585"><ele>1032.0266666666666</ele><time>2025-04-19T03:28:35Z</time></trkpt><trkpt lat="33.4847824" lon="132.8831238"><ele>1037.9799999999998</ele><time>2025-04-19T03:28:53Z</time></trkpt><trkpt lat="33.4847234" lon="132.8828765"><ele>1042.4433333333334</ele><time>2025-04-19T03:29:14Z</time></trkpt><trkpt lat="33.4847162" lon="132.8826564"><ele>1044.57</ele><time>2025-04-19T03:29:56Z</time></trkpt><trkpt lat="33.4846831" lon="132.8824225"><ele>1043.5033333333333</ele><time>2025-04-19T03:30:22Z</time></trkpt><trkpt lat="33.4846008" lon="132.8821924"><ele>1044.2433333333333</ele><time>2025-04-19T03:30:40Z</time></trkpt><trkpt lat="33.4846634" lon="132.8819823"><ele>1045.0433333333333</ele><time>2025-04-19T03:30:57Z</time></trkpt><trkpt lat="33.4848286" lon="132.8818217"><ele>1046.5666666666666</ele><time>2025-04-19T03:31:23Z</time></trkpt><trkpt lat="33.4849015" lon="132.8815974"><ele>1049.5266666666666</ele><time>2025-04-19T03:31:44Z</time></trkpt><trkpt lat="33.4849889" lon="132.8814088"><ele>1052.0933333333332</ele><time>2025-04-19T03:32:01Z</time></trkpt><trkpt lat="33.4850961" lon="132.8811992"><ele>1054.8933333333334</ele><time>2025-04-19T03:32:22Z</time></trkpt><trkpt lat="33.4851213" lon="132.8809623"><ele>1057.0966666666666</ele><time>2025-04-19T03:32:41Z</time></trkpt><trkpt lat="33.4849706" lon="132.8808423"><ele>1060.4366666666667</ele><time>2025-04-19T03:32:59Z</time></trkpt><trkpt lat="33.4847971" lon="132.8807669"><ele>1064.5333333333335</ele><time>2025-04-19T03:33:16Z</time></trkpt><trkpt lat="33.4846097" lon="132.8806775"><ele>1069.2099999999998</ele><time>2025-04-19T03:33:32Z</time></trkpt><trkpt lat="33.4844696" lon="132.880514"><ele>1071.9866666666667</ele><time>2025-04-19T03:33:55Z</time></trkpt><trkpt lat="33.4842864" lon="132.8804178"><ele>1075.3933333333332</ele><time>2025-04-19T03:34:12Z</time></trkpt><trkpt lat="33.4841973" lon="132.8802021"><ele>1075.7366666666667</ele><time>2025-04-19T03:34:32Z</time></trkpt><trkpt lat="33.4843941" lon="132.8802183"><ele>1075.6866666666665</ele><time>2025-04-19T03:34:48Z</time></trkpt><trkpt lat="33.4845791" lon="132.8802342"><ele>1073.6266666666668</ele><time>2025-04-19T03:35:03Z</time></trkpt><trkpt lat="33.4847671" lon="132.8801896"><ele>1072.01</ele><time>2025-04-19T03:35:20Z</time></trkpt><trkpt lat="33.4849664" lon="132.8801097"><ele>1072.1166666666666</ele><time>2025-04-19T03:35:47Z</time></trkpt><trkpt lat="33.4851475" lon="132.88009"><ele>1071.9966666666667</ele><time>2025-04-19T03:36:03Z</time></trkpt><trkpt lat="33.4852255" lon="132.8798796"><ele>1071.8799999999999</ele><time>2025-04-19T03:36:26Z</time></trkpt><trkpt lat="33.4850344" lon="132.8799325"><ele>1072.96</ele><time>2025-04-19T03:50:44Z</time></trkpt><trkpt lat="33.4848355" lon="132.8799248"><ele>1076.1066666666666</ele><time>2025-04-19T03:51:04Z</time></trkpt><trkpt lat="33.4846564" lon="132.8798965"><ele>1079.5266666666669</ele><time>2025-04-19T03:51:24Z</time></trkpt><trkpt lat="33.4844743" lon="132.8798832"><ele>1082.3233333333335</ele><time>2025-04-19T03:51:44Z</time></trkpt><trkpt lat="33.4842863" lon="132.8799177"><ele>1083.5966666666666</ele><time>2025-04-19T03:52:00Z</time></trkpt><trkpt lat="33.4840778" lon="132.8798568"><ele>1087.676666666667</ele><time>2025-04-19T03:52:17Z</time></trkpt><trkpt lat="33.4839042" lon="132.8799151"><ele>1090.0766666666668</ele><time>2025-04-19T03:52:37Z</time></trkpt><trkpt lat="33.4837133" lon="132.880031"><ele>1092.6000000000001</ele><time>2025-04-19T03:52:58Z</time></trkpt><trkpt lat="33.4837392" lon="132.8802597"><ele>1094.78</ele><time>2025-04-19T03:53:18Z</time></trkpt><trkpt lat="33.4838499" lon="132.8804342"><ele>1098.8766666666668</ele><time>2025-04-19T03:53:36Z</time></trkpt><trkpt lat="33.4839945" lon="132.8805843"><ele>1103.29</ele><time>2025-04-19T03:53:53Z</time></trkpt><trkpt lat="33.4841369" lon="132.8807348"><ele>1104.3533333333332</ele><time>2025-04-19T03:54:10Z</time></trkpt><trkpt lat="33.4842555" lon="132.8809151"><ele>1103.9933333333336</ele><time>2025-04-19T03:54:28Z</time></trkpt><trkpt lat="33.4843102" lon="132.8811517"><ele>1104.15</ele><time>2025-04-19T03:54:55Z</time></trkpt><trkpt lat="33.4841951" lon="132.8813566"><ele>1105.3933333333332</ele><time>2025-04-19T03:55:16Z</time></trkpt><trkpt lat="33.4840312" lon="132.8814596"><ele>1106.7033333333331</ele><time>2025-04-19T03:55:42Z</time></trkpt><trkpt lat="33.4838628" lon="132.8815743"><ele>1107.07</ele><time>2025-04-19T03:58:33Z</time></trkpt><trkpt lat="33.483688" lon="132.8816878"><ele>1108.2533333333333</ele><time>2025-04-19T03:58:51Z</time></trkpt><trkpt lat="33.4835761" lon="132.8818799"><ele>1108.5233333333333</ele><time>2025-04-19T03:59:06Z</time></trkpt><trkpt lat="33.483509" lon="132.8820967"><ele>1110.1566666666668</ele><time>2025-04-19T03:59:21Z</time></trkpt><trkpt lat="33.4835517" lon="132.8823414"><ele>1111.0733333333335</ele><time>2025-04-19T03:59:38Z</time></trkpt><trkpt lat="33.4836185" lon="132.8825538"><ele>1111.7133333333334</ele><time>2025-04-19T03:59:53Z</time></trkpt><trkpt lat="33.4836926" lon="132.8827606"><ele>1111.3933333333332</ele><time>2025-04-19T04:00:08Z</time></trkpt><trkpt lat="33.4837939" lon="132.882949"><ele>1111.09</ele><time>2025-04-19T04:00:23Z</time></trkpt><trkpt lat="33.48381" lon="132.8831958"><ele>1113.0900000000001</ele><time>2025-04-19T04:00:44Z</time></trkpt><trkpt lat="33.4837961" lon="132.8834462"><ele>1115.1466666666668</ele><time>2025-04-19T04:01:05Z</time></trkpt><trkpt lat="33.483764" lon="132.8836703"><ele>1117.5333333333333</ele><time>2025-04-19T04:01:19Z</time></trkpt><trkpt lat="33.4836798" lon="132.8839163"><ele>1118.7966666666669</ele><time>2025-04-19T04:01:37Z</time></trkpt><trkpt lat="33.4835521" lon="132.8841121"><ele>1118.7133333333334</ele><time>2025-04-19T04:01:54Z</time></trkpt><trkpt lat="33.4833901" lon="132.8842775"><ele>1116.3366666666666</ele><time>2025-04-19T04:02:12Z</time></trkpt><trkpt lat="33.4831876" lon="132.8843084"><ele>1114.3033333333333</ele><time>2025-04-19T04:02:32Z</time></trkpt><trkpt lat="33.4829849" lon="132.8843074"><ele>1113.4966666666667</ele><time>2025-04-19T04:02:47Z</time></trkpt><trkpt lat="33.4827792" lon="132.8842186"><ele>1117.0266666666666</ele><time>2025-04-19T04:03:02Z</time></trkpt><trkpt lat="33.4825968" lon="132.8841333"><ele>1120.9133333333334</ele><time>2025-04-19T04:03:17Z</time></trkpt><trkpt lat="33.4824161" lon="132.8840448"><ele>1124.45</ele><time>2025-04-19T04:03:32Z</time></trkpt><trkpt lat="33.482213" lon="132.8840109"><ele>1125.4333333333334</ele><time>2025-04-19T04:03:50Z</time></trkpt><trkpt lat="33.4820293" lon="132.8841057"><ele>1125.2333333333333</ele><time>2025-04-19T04:04:04Z</time></trkpt><trkpt lat="33.4818668" lon="132.8842187"><ele>1124.8666666666666</ele><time>2025-04-19T04:04:19Z</time></trkpt><trkpt lat="33.4817076" lon="132.8843527"><ele>1123.6133333333335</ele><time>2025-04-19T04:04:35Z</time></trkpt><trkpt lat="33.4815349" lon="132.8844835"><ele>1123.4266666666665</ele><time>2025-04-19T04:04:52Z</time></trkpt><trkpt lat="33.4813702" lon="132.8846011"><ele>1123.6866666666667</ele><time>2025-04-19T04:05:08Z</time></trkpt><trkpt lat="33.4812053" lon="132.8847059"><ele>1125.3166666666668</ele><time>2025-04-19T04:05:22Z</time></trkpt><trkpt lat="33.4810316" lon="132.8848329"><ele>1126.8100000000002</ele><time>2025-04-19T04:05:39Z</time></trkpt><trkpt lat="33.4808594" lon="132.8849388"><ele>1128.2233333333334</ele><time>2025-04-19T04:05:56Z</time></trkpt><trkpt lat="33.4806888" lon="132.8850183"><ele>1128.5833333333333</ele><time>2025-04-19T04:06:11Z</time></trkpt><trkpt lat="33.4805063" lon="132.8851239"><ele>1128.6133333333332</ele><time>2025-04-19T04:06:26Z</time></trkpt><trkpt lat="33.4803" lon="132.885114"><ele>1128.5866666666668</ele><time>2025-04-19T04:06:53Z</time></trkpt><trkpt lat="33.4801079" lon="132.8851134"><ele>1128.6699999999998</ele><time>2025-04-19T04:07:08Z</time></trkpt><trkpt lat="33.4799223" lon="132.8851162"><ele>1128.54</ele><time>2025-04-19T04:07:22Z</time></trkpt><trkpt lat="33.4797086" lon="132.8851189"><ele>1128.6133333333335</ele><time>2025-04-19T04:07:39Z</time></trkpt><trkpt lat="33.4795106" lon="132.8851102"><ele>1129.1066666666668</ele><time>2025-04-19T04:07:56Z</time></trkpt><trkpt lat="33.4793011" lon="132.885105"><ele>1130.0</ele><time>2025-04-19T04:08:13Z</time></trkpt><trkpt lat="33.4791118" lon="132.8850414"><ele>1131.49</ele><time>2025-04-19T04:08:30Z</time></trkpt><trkpt lat="33.4789348" lon="132.8849735"><ele>1133.19</ele><time>2025-04-19T04:08:47Z</time></trkpt><trkpt lat="33.4787894" lon="132.8848399"><ele>1134.7433333333336</ele><time>2025-04-19T04:09:01Z</time></trkpt><trkpt lat="33.4785898" lon="132.8847322"><ele>1135.68</ele><time>2025-04-19T04:09:19Z</time></trkpt><trkpt lat="33.4784066" lon="132.884761"><ele>1136.1433333333334</ele><time>2025-04-19T04:09:33Z</time></trkpt><trkpt lat="33.4782404" lon="132.8848615"><ele>1136.4266666666667</ele><time>2025-04-19T04:09:48Z</time></trkpt><trkpt lat="33.4780745" lon="132.8850302"><ele>1136.8733333333334</ele><time>2025-04-19T04:10:06Z</time></trkpt><trkpt lat="33.4779106" lon="132.885144"><ele>1138.0600000000002</ele><time>2025-04-19T04:10:21Z</time></trkpt><trkpt lat="33.4777151" lon="132.8851877"><ele>1139.55</ele><time>2025-04-19T04:10:36Z</time></trkpt><trkpt lat="33.4775328" lon="132.8851565"><ele>1141.3166666666668</ele><time>2025-04-19T04:10:51Z</time></trkpt><trkpt lat="33.4773322" lon="132.8850698"><ele>1142.7866666666666</ele><time>2025-04-19T04:11:08Z</time></trkpt><trkpt lat="33.4771412" lon="132.8849507"><ele>1143.7300000000002</ele><time>2025-04-19T04:11:25Z</time></trkpt><trkpt lat="33.4770397" lon="132.8847392"><ele>1143.7933333333333</ele><time>2025-04-19T04:11:43Z</time></trkpt><trkpt lat="33.47707" lon="132.8845008"><ele>1142.4266666666665</ele><time>2025-04-19T04:12:01Z</time></trkpt><trkpt lat="33.4771631" lon="132.8842735"><ele>1141.5633333333333</ele><time>2025-04-19T04:12:30Z</time></trkpt><trkpt lat="33.4772404" lon="132.884078"><ele>1140.4633333333334</ele><time>2025-04-19T04:12:44Z</time></trkpt><trkpt lat="33.4773149" lon="132.8838763"><ele>1139.4533333333331</ele><time>2025-04-19T04:12:59Z</time></trkpt><trkpt lat="33.4774039" lon="132.8836636"><ele>1138.09</ele><time>2025-04-19T04:13:14Z</time></trkpt><trkpt lat="33.477496" lon="132.8834515"><ele>1136.8366666666668</ele><time>2025-04-19T04:13:30Z</time></trkpt><trkpt lat="33.4775856" lon="132.8832369"><ele>1136.5533333333335</ele><time>2025-04-19T04:13:47Z</time></trkpt><trkpt lat="33.4776628" lon="132.8830211"><ele>1136.3366666666668</ele><time>2025-04-19T04:14:07Z</time></trkpt><trkpt lat="33.4777239" lon="132.8828009"><ele>1136.5866666666668</ele><time>2025-04-19T04:14:23Z</time></trkpt><trkpt lat="33.4777601" lon="132.8825898"><ele>1136.8799999999999</ele><time>2025-04-19T04:14:41Z</time></trkpt><trkpt lat="33.477717" lon="132.8823433"><ele>1137.1633333333332</ele><time>2025-04-19T04:15:04Z</time></trkpt><trkpt lat="33.4776797" lon="132.8821094"><ele>1137.52</ele><time>2025-04-19T04:15:20Z</time></trkpt><trkpt lat="33.4776967" lon="132.8818776"><ele>1138.1166666666666</ele><time>2025-04-19T04:15:37Z</time></trkpt><trkpt lat="33.4778112" lon="132.8816873"><ele>1139.5766666666666</ele><time>2025-04-19T04:15:57Z</time></trkpt><trkpt lat="33.4779553" lon="132.8815353"><ele>1141.0733333333335</ele><time>2025-04-19T04:16:15Z</time></trkpt><trkpt lat="33.4780657" lon="132.8813537"><ele>1142.8933333333332</ele><time>2025-04-19T04:16:33Z</time></trkpt><trkpt lat="33.4781226" lon="132.8811408"><ele>1144.2633333333333</ele><time>2025-04-19T04:16:50Z</time></trkpt><trkpt lat="33.4782022" lon="132.880913"><ele>1146.0066666666664</ele><time>2025-04-19T04:17:13Z</time></trkpt><trkpt lat="33.4783367" lon="132.8807682"><ele>1147.55</ele><time>2025-04-19T04:17:30Z</time></trkpt><trkpt lat="33.4785277" lon="132.8806912"><ele>1149.7166666666667</ele><time>2025-04-19T04:17:47Z</time></trkpt><trkpt lat="33.4787164" lon="132.880679"><ele>1152.27</ele><time>2025-04-19T04:18:10Z</time></trkpt><trkpt lat="33.4788946" lon="132.8807617"><ele>1154.6766666666667</ele><time>2025-04-19T04:18:27Z</time></trkpt><trkpt lat="33.4790663" lon="132.8808842"><ele>1156.1666666666667</ele><time>2025-04-19T04:18:44Z</time></trkpt><trkpt lat="33.4792632" lon="132.8809718"><ele>1157.136666666667</ele><time>2025-04-19T04:19:02Z</time></trkpt><trkpt lat="33.4794691" lon="132.8810169"><ele>1158.96</ele><time>2025-04-19T04:19:19Z</time></trkpt><trkpt lat="33.479676" lon="132.8810207"><ele>1160.7233333333334</ele><time>2025-04-19T04:19:55Z</time></trkpt><trkpt lat="33.4798841" lon="132.8810208"><ele>1162.3833333333334</ele><time>2025-04-19T04:20:11Z</time></trkpt><trkpt lat="33.4800797" lon="132.8810527"><ele>1163.4333333333334</ele><time>2025-04-19T04:20:28Z</time></trkpt><trkpt lat="33.4802483" lon="132.8811518"><ele>1164.12</ele><time>2025-04-19T04:20:45Z</time></trkpt><trkpt lat="33.4804097" lon="132.8813066"><ele>1163.9066666666665</ele><time>2025-04-19T04:21:05Z</time></trkpt><trkpt lat="33.4805536" lon="132.8814562"><ele>1162.3566666666668</ele><time>2025-04-19T04:21:22Z</time></trkpt><trkpt lat="33.4807047" lon="132.8815854"><ele>1160.8766666666668</ele><time>2025-04-19T04:21:39Z</time></trkpt><trkpt lat="33.4808935" lon="132.881621"><ele>1161.8500000000001</ele><time>2025-04-19T04:21:57Z</time></trkpt><trkpt lat="33.4810818" lon="132.8815031"><ele>1167.7566666666667</ele><time>2025-04-19T04:22:14Z</time></trkpt><trkpt lat="33.4811587" lon="132.881306"><ele>1175.0966666666666</ele><time>2025-04-19T04:22:29Z</time></trkpt><trkpt lat="33.4811328" lon="132.8810533"><ele>1180.22</ele><time>2025-04-19T04:22:46Z</time></trkpt><trkpt lat="33.4809895" lon="132.8808857"><ele>1180.5933333333335</ele><time>2025-04-19T04:23:04Z</time></trkpt><trkpt lat="33.4807922" lon="132.8808262"><ele>1179.1633333333332</ele><time>2025-04-19T04:23:21Z</time></trkpt><trkpt lat="33.4806079" lon="132.8807418"><ele>1177.8100000000002</ele><time>2025-04-19T04:23:38Z</time></trkpt><trkpt lat="33.4804351" lon="132.8806726"><ele>1176.5566666666666</ele><time>2025-04-19T04:23:55Z</time></trkpt><trkpt lat="33.4802671" lon="132.8805724"><ele>1176.3600000000001</ele><time>2025-04-19T04:24:13Z</time></trkpt><trkpt lat="33.4801042" lon="132.8804582"><ele>1176.3266666666666</ele><time>2025-04-19T04:24:30Z</time></trkpt><trkpt lat="33.4799371" lon="132.8803333"><ele>1176.5466666666669</ele><time>2025-04-19T04:24:47Z</time></trkpt><trkpt lat="33.4797843" lon="132.8801864"><ele>1176.8833333333332</ele><time>2025-04-19T04:25:04Z</time></trkpt><trkpt lat="33.4796324" lon="132.8800295"><ele>1178.0266666666666</ele><time>2025-04-19T04:25:21Z</time></trkpt><trkpt lat="33.4795304" lon="132.879822"><ele>1180.9199999999998</ele><time>2025-04-19T04:25:39Z</time></trkpt><trkpt lat="33.4794789" lon="132.8795846"><ele>1183.98</ele><time>2025-04-19T04:25:59Z</time></trkpt><trkpt lat="33.479473" lon="132.879357"><ele>1186.68</ele><time>2025-04-19T04:26:16Z</time></trkpt><trkpt lat="33.4794726" lon="132.8791302"><ele>1187.7666666666667</ele><time>2025-04-19T04:26:33Z</time></trkpt><trkpt lat="33.4794799" lon="132.8788966"><ele>1188.1133333333335</ele><time>2025-04-19T04:26:50Z</time></trkpt><trkpt lat="33.4794971" lon="132.8786553"><ele>1190.1233333333332</ele><time>2025-04-19T04:27:20Z</time></trkpt><trkpt lat="33.479358" lon="132.8784735"><ele>1192.96</ele><time>2025-04-19T04:27:38Z</time></trkpt><trkpt lat="33.4792645" lon="132.8782802"><ele>1195.4266666666665</ele><time>2025-04-19T04:27:55Z</time></trkpt><trkpt lat="33.479189" lon="132.8780648"><ele>1196.2533333333333</ele><time>2025-04-19T04:28:13Z</time></trkpt><trkpt lat="33.4791518" lon="132.8778454"><ele>1196.8133333333335</ele><time>2025-04-19T04:28:30Z</time></trkpt><trkpt lat="33.4791248" lon="132.8776077"><ele>1197.7233333333334</ele><time>2025-04-19T04:28:48Z</time></trkpt><trkpt lat="33.4791127" lon="132.8773846"><ele>1198.42</ele><time>2025-04-19T04:29:11Z</time></trkpt><trkpt lat="33.479098" lon="132.8771484"><ele>1198.78</ele><time>2025-04-19T04:29:31Z</time></trkpt><trkpt lat="33.4790876" lon="132.8769221"><ele>1199.1466666666668</ele><time>2025-04-19T04:29:48Z</time></trkpt><trkpt lat="33.4790013" lon="132.8766921"><ele>1199.1866666666665</ele><time>2025-04-19T04:30:08Z</time></trkpt><trkpt lat="33.4790176" lon="132.876453"><ele>1198.5900000000001</ele><time>2025-04-19T04:30:24Z</time></trkpt><trkpt lat="33.4790509" lon="132.8762246"><ele>1197.6666666666667</ele><time>2025-04-19T04:30:41Z</time></trkpt><trkpt lat="33.4791254" lon="132.876"><ele>1196.8366666666668</ele><time>2025-04-19T04:30:58Z</time></trkpt><trkpt lat="33.4792095" lon="132.8757964"><ele>1196.6966666666667</ele><time>2025-04-19T04:31:13Z</time></trkpt><trkpt lat="33.4793072" lon="132.8755725"><ele>1196.4533333333334</ele><time>2025-04-19T04:31:30Z</time></trkpt><trkpt lat="33.4794001" lon="132.8753673"><ele>1196.1966666666667</ele><time>2025-04-19T04:31:47Z</time></trkpt><trkpt lat="33.4795151" lon="132.8751605"><ele>1195.2966666666669</ele><time>2025-04-19T04:32:04Z</time></trkpt><trkpt lat="33.4796247" lon="132.8749894"><ele>1194.1533333333334</ele><time>2025-04-19T04:32:18Z</time></trkpt><trkpt lat="33.479775" lon="132.8748435"><ele>1192.5333333333335</ele><time>2025-04-19T04:32:35Z</time></trkpt><trkpt lat="33.479897" lon="132.874663"><ele>1190.7033333333334</ele><time>2025-04-19T04:32:53Z</time></trkpt><trkpt lat="33.4797683" lon="132.8745093"><ele>1189.5500000000002</ele><time>2025-04-19T04:33:07Z</time></trkpt></trkseg></trk></gpx>