<?xml version='1.0' encoding='UTF-8'?><gpx creator="YAMAP - https://yamap.com" xsi:schemaLocation="http://www.topografix.com/GPX/1/1 http://www.topografix.com/GPX/1/1/gpx.xsd" version="1.1" xmlns="http://www.topografix.com/GPX/1/1" xmlns:xsi="http://www.w3.org/2001/XMLSchema-instance"><metadata><bounds maxlat="33.0394762" maxlon="132.4078766" minlat="33.0221229" minlon="132.3871091"/></metadata><trk><name>由良山</name><number>1</number><trkseg><trkpt lat="33.0382641" lon="132.4078766"><ele>51.51</ele><time>2023-01-10T01:30:43Z</time></trkpt><trkpt lat="33.0382138" lon="132.407667"><ele>49.870000000000005</ele><time>2023-01-10T01:31:10Z</time></trkpt><trkpt lat="33.0383053" lon="132.4074789"><ele>48.48333333333334</ele><time>2023-01-10T01:32:16Z</time></trkpt><trkpt lat="33.0384433" lon="132.407338"><ele>48.53333333333333</ele><time>2023-01-10T01:32:29Z</time></trkpt><trkpt lat="33.0384983" lon="132.4071264"><ele>50.080000000000005</ele><time>2023-01-10T01:32:43Z</time></trkpt><trkpt lat="33.0384071" lon="132.4069353"><ele>51.77666666666667</ele><time>2023-01-10T01:32:58Z</time></trkpt><trkpt lat="33.0383062" lon="132.4067389"><ele>50.73333333333334</ele><time>2023-01-10T01:33:16Z</time></trkpt><trkpt lat="33.0383117" lon="132.4065165"><ele>48.78666666666667</ele><time>2023-01-10T01:33:30Z</time></trkpt><trkpt lat="33.0384219" lon="132.4063426"><ele>50.72666666666667</ele><time>2023-01-10T01:33:51Z</time></trkpt><trkpt lat="33.0385305" lon="132.4061677"><ele>56.06666666666666</ele><time>2023-01-10T01:34:15Z</time></trkpt><trkpt lat="33.0386668" lon="132.4060153"><ele>62.32</ele><time>2023-01-10T01:40:07Z</time></trkpt><trkpt lat="33.0386974" lon="132.4057999"><ele>67.52333333333333</ele><time>2023-01-10T01:40:17Z</time></trkpt><trkpt lat="33.0387921" lon="132.405608"><ele>72.80333333333334</ele><time>2023-01-10T01:40:47Z</time></trkpt><trkpt lat="33.0386997" lon="132.4054168"><ele>77.43</ele><time>2023-01-10T01:41:02Z</time></trkpt><trkpt lat="33.038704" lon="132.4052009"><ele>79.76</ele><time>2023-01-10T01:41:26Z</time></trkpt><trkpt lat="33.0387731" lon="132.4049972"><ele>81.07333333333332</ele><time>2023-01-10T01:41:56Z</time></trkpt><trkpt lat="33.0387573" lon="132.40477"><ele>84.07333333333334</ele><time>2023-01-10T01:42:08Z</time></trkpt><trkpt lat="33.0386616" lon="132.404584"><ele>85.64333333333333</ele><time>2023-01-10T01:42:46Z</time></trkpt><trkpt lat="33.0386815" lon="132.4043667"><ele>87.52666666666669</ele><time>2023-01-10T01:43:00Z</time></trkpt><trkpt lat="33.0387001" lon="132.4041382"><ele>87.86333333333334</ele><time>2023-01-10T01:43:14Z</time></trkpt><trkpt lat="33.0386365" lon="132.4039277"><ele>89.64333333333333</ele><time>2023-01-10T01:43:29Z</time></trkpt><trkpt lat="33.0385383" lon="132.4037345"><ele>90.05666666666666</ele><time>2023-01-10T01:43:48Z</time></trkpt><trkpt lat="33.0384916" lon="132.4035206"><ele>91.78333333333335</ele><time>2023-01-10T01:44:52Z</time></trkpt><trkpt lat="33.0383771" lon="132.4033521"><ele>95.04333333333334</ele><time>2023-01-10T01:45:07Z</time></trkpt><trkpt lat="33.0381967" lon="132.4033348"><ele>97.59666666666665</ele><time>2023-01-10T01:46:36Z</time></trkpt><trkpt lat="33.0380594" lon="132.4031873"><ele>99.48333333333333</ele><time>2023-01-10T01:47:03Z</time></trkpt><trkpt lat="33.0379458" lon="132.4030201"><ele>99.74</ele><time>2023-01-10T01:47:16Z</time></trkpt><trkpt lat="33.0378949" lon="132.4028127"><ele>103.02</ele><time>2023-01-10T01:50:42Z</time></trkpt><trkpt lat="33.0377868" lon="132.4026355"><ele>106.55000000000001</ele><time>2023-01-10T01:51:13Z</time></trkpt><trkpt lat="33.0376381" lon="132.4025143"><ele>110.64333333333333</ele><time>2023-01-10T01:51:29Z</time></trkpt><trkpt lat="33.0374816" lon="132.402406"><ele>114.92333333333333</ele><time>2023-01-10T01:51:45Z</time></trkpt><trkpt lat="33.0373092" lon="132.4023262"><ele>119.53333333333335</ele><time>2023-01-10T01:52:02Z</time></trkpt><trkpt lat="33.0371308" lon="132.4022568"><ele>124.55333333333333</ele><time>2023-01-10T01:52:21Z</time></trkpt><trkpt lat="33.0369428" lon="132.4022878"><ele>127.73666666666668</ele><time>2023-01-10T01:52:53Z</time></trkpt><trkpt lat="33.0368932" lon="132.4020781"><ele>133.26666666666665</ele><time>2023-01-10T01:53:20Z</time></trkpt><trkpt lat="33.036807" lon="132.4018866"><ele>139.57333333333335</ele><time>2023-01-10T01:53:38Z</time></trkpt><trkpt lat="33.0366761" lon="132.4017304"><ele>145.88</ele><time>2023-01-10T01:53:59Z</time></trkpt><trkpt lat="33.0365587" lon="132.401564"><ele>149.12</ele><time>2023-01-10T01:54:23Z</time></trkpt><trkpt lat="33.0363958" lon="132.4014701"><ele>152.86333333333332</ele><time>2023-01-10T01:54:39Z</time></trkpt><trkpt lat="33.0362482" lon="132.4013412"><ele>156.31333333333333</ele><time>2023-01-10T01:54:55Z</time></trkpt><trkpt lat="33.0360748" lon="132.4012715"><ele>160.29333333333332</ele><time>2023-01-10T01:55:20Z</time></trkpt><trkpt lat="33.0358904" lon="132.4012599"><ele>161.74333333333334</ele><time>2023-01-10T01:55:41Z</time></trkpt><trkpt lat="33.0357179" lon="132.4011943"><ele>160.97</ele><time>2023-01-10T01:56:06Z</time></trkpt><trkpt lat="33.0355648" lon="132.4010737"><ele>157.82000000000002</ele><time>2023-01-10T01:56:22Z</time></trkpt><trkpt lat="33.0354692" lon="132.4008916"><ele>155.13666666666668</ele><time>2023-01-10T01:57:28Z</time></trkpt><trkpt lat="33.0353025" lon="132.4008087"><ele>153.37333333333333</ele><time>2023-01-10T01:58:03Z</time></trkpt><trkpt lat="33.0351857" lon="132.4006415"><ele>152.96</ele><time>2023-01-10T01:58:26Z</time></trkpt><trkpt lat="33.0350512" lon="132.4004923"><ele>152.57</ele><time>2023-01-10T01:58:46Z</time></trkpt><trkpt lat="33.034869" lon="132.4004743"><ele>152.32333333333335</ele><time>2023-01-10T01:59:03Z</time></trkpt><trkpt lat="33.034697" lon="132.4005493"><ele>151.91333333333333</ele><time>2023-01-10T01:59:21Z</time></trkpt><trkpt lat="33.0345195" lon="132.4006199"><ele>151.29999999999998</ele><time>2023-01-10T01:59:41Z</time></trkpt><trkpt lat="33.0343458" lon="132.400686"><ele>150.88333333333333</ele><time>2023-01-10T01:59:54Z</time></trkpt><trkpt lat="33.0341597" lon="132.4006853"><ele>150.69</ele><time>2023-01-10T02:00:12Z</time></trkpt><trkpt lat="33.0339771" lon="132.400731"><ele>150.38666666666668</ele><time>2023-01-10T02:00:28Z</time></trkpt><trkpt lat="33.0338003" lon="132.400798"><ele>148.95000000000002</ele><time>2023-01-10T02:00:41Z</time></trkpt><trkpt lat="33.033615" lon="132.400789"><ele>148.64666666666665</ele><time>2023-01-10T02:00:57Z</time></trkpt><trkpt lat="33.0334338" lon="132.4007827"><ele>148.83</ele><time>2023-01-10T02:01:10Z</time></trkpt><trkpt lat="33.0332504" lon="132.4007374"><ele>150.34</ele><time>2023-01-10T02:01:30Z</time></trkpt><trkpt lat="33.0330704" lon="132.400799"><ele>150.61</ele><time>2023-01-10T02:01:59Z</time></trkpt><trkpt lat="33.0328856" lon="132.400794"><ele>150.74666666666667</ele><time>2023-01-10T02:02:24Z</time></trkpt><trkpt lat="33.0326969" lon="132.4007443"><ele>150.97333333333333</ele><time>2023-01-10T02:02:40Z</time></trkpt><trkpt lat="33.0325436" lon="132.4006254"><ele>151.8766666666667</ele><time>2023-01-10T02:02:54Z</time></trkpt><trkpt lat="33.032359" lon="132.4006064"><ele>154.50333333333333</ele><time>2023-01-10T02:03:07Z</time></trkpt><trkpt lat="33.032183" lon="132.4005438"><ele>157.95333333333335</ele><time>2023-01-10T02:03:34Z</time></trkpt><trkpt lat="33.0320111" lon="132.4004756"><ele>162.21</ele><time>2023-01-10T02:04:20Z</time></trkpt><trkpt lat="33.0318289" lon="132.4004436"><ele>167.36333333333334</ele><time>2023-01-10T02:04:43Z</time></trkpt><trkpt lat="33.0316473" lon="132.4004367"><ele>173.26333333333332</ele><time>2023-01-10T02:05:56Z</time></trkpt><trkpt lat="33.0314803" lon="132.4003396"><ele>180.61666666666667</ele><time>2023-01-10T02:06:16Z</time></trkpt><trkpt lat="33.0313002" lon="132.4002729"><ele>189.07666666666668</ele><time>2023-01-10T02:06:51Z</time></trkpt><trkpt lat="33.0311272" lon="132.4002072"><ele>195.8066666666667</ele><time>2023-01-10T02:08:30Z</time></trkpt><trkpt lat="33.0309538" lon="132.400148"><ele>197.41</ele><time>2023-01-10T02:10:24Z</time></trkpt><trkpt lat="33.030784" lon="132.4000649"><ele>195.11666666666667</ele><time>2023-01-10T02:10:36Z</time></trkpt><trkpt lat="33.0306132" lon="132.399974"><ele>194.63</ele><time>2023-01-10T02:11:41Z</time></trkpt><trkpt lat="33.0304241" lon="132.3999567"><ele>197.50666666666666</ele><time>2023-01-10T02:12:01Z</time></trkpt><trkpt lat="33.0302527" lon="132.3998837"><ele>196.66</ele><time>2023-01-10T02:12:24Z</time></trkpt><trkpt lat="33.0300797" lon="132.3999591"><ele>192.07000000000002</ele><time>2023-01-10T02:12:44Z</time></trkpt><trkpt lat="33.0298859" lon="132.3999851"><ele>183.68666666666664</ele><time>2023-01-10T02:13:16Z</time></trkpt><trkpt lat="33.0297223" lon="132.3998699"><ele>179.01666666666665</ele><time>2023-01-10T02:13:31Z</time></trkpt><trkpt lat="33.0295512" lon="132.3997921"><ele>175.59666666666666</ele><time>2023-01-10T02:14:05Z</time></trkpt><trkpt lat="33.0294221" lon="132.3996374"><ele>173.82000000000002</ele><time>2023-01-10T02:14:23Z</time></trkpt><trkpt lat="33.0292428" lon="132.3995648"><ele>171.48333333333335</ele><time>2023-01-10T02:14:37Z</time></trkpt><trkpt lat="33.0290701" lon="132.3994583"><ele>168.71333333333334</ele><time>2023-01-10T02:14:57Z</time></trkpt><trkpt lat="33.0288983" lon="132.3993867"><ele>166.39000000000001</ele><time>2023-01-10T02:15:14Z</time></trkpt><trkpt lat="33.0287076" lon="132.3993892"><ele>162.90333333333334</ele><time>2023-01-10T02:15:31Z</time></trkpt><trkpt lat="33.0285586" lon="132.3992383"><ele>160.07000000000002</ele><time>2023-01-10T02:15:52Z</time></trkpt><trkpt lat="33.0283756" lon="132.3992341"><ele>154.15</ele><time>2023-01-10T02:16:50Z</time></trkpt><trkpt lat="33.0282553" lon="132.3990639"><ele>148.82666666666668</ele><time>2023-01-10T02:17:03Z</time></trkpt><trkpt lat="33.0281807" lon="132.3988636"><ele>141.59</ele><time>2023-01-10T02:17:12Z</time></trkpt><trkpt lat="33.0282107" lon="132.3986476"><ele>138.48999999999998</ele><time>2023-01-10T02:17:24Z</time></trkpt><trkpt lat="33.0283266" lon="132.3984767"><ele>138.16666666666666</ele><time>2023-01-10T02:17:39Z</time></trkpt><trkpt lat="33.0282463" lon="132.3982755"><ele>136.42666666666668</ele><time>2023-01-10T02:17:52Z</time></trkpt><trkpt lat="33.0280651" lon="132.3982252"><ele>134.66666666666666</ele><time>2023-01-10T02:18:07Z</time></trkpt><trkpt lat="33.0278852" lon="132.3982681"><ele>129.17666666666668</ele><time>2023-01-10T02:18:21Z</time></trkpt><trkpt lat="33.0277663" lon="132.3980995"><ele>127.09000000000002</ele><time>2023-01-10T02:18:41Z</time></trkpt><trkpt lat="33.0275934" lon="132.3980089"><ele>124.27666666666669</ele><time>2023-01-10T02:19:00Z</time></trkpt><trkpt lat="33.0274247" lon="132.3980915"><ele>122.55333333333334</ele><time>2023-01-10T02:19:16Z</time></trkpt><trkpt lat="33.027252" lon="132.3981719"><ele>119.27666666666669</ele><time>2023-01-10T02:19:29Z</time></trkpt><trkpt lat="33.0270646" lon="132.3981669"><ele>115.58</ele><time>2023-01-10T02:19:43Z</time></trkpt><trkpt lat="33.0268813" lon="132.3981989"><ele>112.49333333333334</ele><time>2023-01-10T02:19:59Z</time></trkpt><trkpt lat="33.0267007" lon="132.3981427"><ele>109.46999999999998</ele><time>2023-01-10T02:20:12Z</time></trkpt><trkpt lat="33.0265474" lon="132.3980168"><ele>108.07</ele><time>2023-01-10T02:20:25Z</time></trkpt><trkpt lat="33.0263968" lon="132.3978956"><ele>106.61666666666666</ele><time>2023-01-10T02:20:37Z</time></trkpt><trkpt lat="33.0263301" lon="132.3976723"><ele>109.61</ele><time>2023-01-10T02:20:55Z</time></trkpt><trkpt lat="33.0261785" lon="132.3975531"><ele>113.43666666666667</ele><time>2023-01-10T02:21:16Z</time></trkpt><trkpt lat="33.0259994" lon="132.3975914"><ele>118.62666666666667</ele><time>2023-01-10T02:21:33Z</time></trkpt><trkpt lat="33.0258382" lon="132.3974873"><ele>121.72000000000001</ele><time>2023-01-10T02:21:52Z</time></trkpt><trkpt lat="33.0257091" lon="132.397336"><ele>124.92</ele><time>2023-01-10T02:22:13Z</time></trkpt><trkpt lat="33.0255299" lon="132.3972856"><ele>127.57333333333334</ele><time>2023-01-10T02:22:33Z</time></trkpt><trkpt lat="33.0253517" lon="132.3972354"><ele>131.07000000000002</ele><time>2023-01-10T02:22:51Z</time></trkpt><trkpt lat="33.0251709" lon="132.3972072"><ele>132.70333333333335</ele><time>2023-01-10T02:23:11Z</time></trkpt><trkpt lat="33.0249949" lon="132.3971449"><ele>133.98</ele><time>2023-01-10T02:23:44Z</time></trkpt><trkpt lat="33.0249459" lon="132.3969327"><ele>134.65333333333334</ele><time>2023-01-10T02:24:00Z</time></trkpt><trkpt lat="33.0248187" lon="132.396768"><ele>134.00333333333333</ele><time>2023-01-10T02:24:14Z</time></trkpt><trkpt lat="33.0247244" lon="132.3965804"><ele>135.5533333333333</ele><time>2023-01-10T02:24:55Z</time></trkpt><trkpt lat="33.0246283" lon="132.3963972"><ele>136.91333333333333</ele><time>2023-01-10T02:25:17Z</time></trkpt><trkpt lat="33.0245629" lon="132.396188"><ele>140.04</ele><time>2023-01-10T02:25:39Z</time></trkpt><trkpt lat="33.0244885" lon="132.3959902"><ele>141.32333333333335</ele><time>2023-01-10T02:26:12Z</time></trkpt><trkpt lat="33.0244754" lon="132.3957746"><ele>142.20666666666668</ele><time>2023-01-10T02:26:28Z</time></trkpt><trkpt lat="33.0243429" lon="132.3956246"><ele>142.5233333333333</ele><time>2023-01-10T02:27:03Z</time></trkpt><trkpt lat="33.0243034" lon="132.3954106"><ele>142.98</ele><time>2023-01-10T02:27:21Z</time></trkpt><trkpt lat="33.0241971" lon="132.3952292"><ele>142.60666666666665</ele><time>2023-01-10T02:30:15Z</time></trkpt><trkpt lat="33.0241865" lon="132.3950116"><ele>144.2733333333333</ele><time>2023-01-10T02:30:32Z</time></trkpt><trkpt lat="33.0241659" lon="132.3947836"><ele>146.88666666666666</ele><time>2023-01-10T02:30:56Z</time></trkpt><trkpt lat="33.0240911" lon="132.3945875"><ele>151.14333333333335</ele><time>2023-01-10T02:31:17Z</time></trkpt><trkpt lat="33.0239783" lon="132.3944185"><ele>153.48666666666665</ele><time>2023-01-10T02:31:39Z</time></trkpt><trkpt lat="33.0238022" lon="132.3943658"><ele>153.63</ele><time>2023-01-10T02:31:54Z</time></trkpt><trkpt lat="33.0236261" lon="132.3942846"><ele>152.66333333333333</ele><time>2023-01-10T02:32:11Z</time></trkpt><trkpt lat="33.0234581" lon="132.3942038"><ele>151.97666666666666</ele><time>2023-01-10T02:32:32Z</time></trkpt><trkpt lat="33.0232867" lon="132.3941321"><ele>152.33666666666667</ele><time>2023-01-10T02:33:01Z</time></trkpt><trkpt lat="33.0231128" lon="132.394059"><ele>153.47333333333333</ele><time>2023-01-10T02:33:17Z</time></trkpt><trkpt lat="33.0229454" lon="132.3939702"><ele>155.7733333333333</ele><time>2023-01-10T02:33:34Z</time></trkpt><trkpt lat="33.0227629" lon="132.393935"><ele>156.99666666666667</ele><time>2023-01-10T02:33:55Z</time></trkpt><trkpt lat="33.0225773" lon="132.3939033"><ele>160.06</ele><time>2023-01-10T02:34:14Z</time></trkpt><trkpt lat="33.0224133" lon="132.3938038"><ele>163.91</ele><time>2023-01-10T02:34:33Z</time></trkpt><trkpt lat="33.0222556" lon="132.3936995"><ele>169.4466666666667</ele><time>2023-01-10T02:36:05Z</time></trkpt><trkpt lat="33.022179" lon="132.3935009"><ele>171.65666666666667</ele><time>2023-01-10T02:36:27Z</time></trkpt><trkpt lat="33.0221229" lon="132.3932928"><ele>168.78666666666666</ele><time>2023-01-10T02:36:43Z</time></trkpt><trkpt lat="33.0221296" lon="132.3930731"><ele>163.67</ele><time>2023-01-10T02:36:59Z</time></trkpt><trkpt lat="33.0221374" lon="132.3932914"><ele>160.74</ele><time>2023-01-10T02:39:30Z</time></trkpt><trkpt lat="33.0222336" lon="132.393474"><ele>163.48</ele><time>2023-01-10T02:40:41Z</time></trkpt><trkpt lat="33.0223738" lon="132.3936239"><ele>169.46</ele><time>2023-01-10T02:41:24Z</time></trkpt><trkpt lat="33.0225575" lon="132.3936036"><ele>174.71666666666667</ele><time>2023-01-10T02:42:08Z</time></trkpt><trkpt lat="33.0226442" lon="132.3934122"><ele>178.00666666666666</ele><time>2023-01-10T02:42:46Z</time></trkpt><trkpt lat="33.0226846" lon="132.3932005"><ele>179.95000000000002</ele><time>2023-01-10T02:43:03Z</time></trkpt><trkpt lat="33.0227301" lon="132.3929878"><ele>181.78666666666666</ele><time>2023-01-10T02:43:21Z</time></trkpt><trkpt lat="33.0226981" lon="132.3927681"><ele>183.46333333333334</ele><time>2023-01-10T02:43:49Z</time></trkpt><trkpt lat="33.0227462" lon="132.3925609"><ele>185.20666666666668</ele><time>2023-01-10T02:44:07Z</time></trkpt><trkpt lat="33.0228284" lon="132.3923686"><ele>187.11333333333334</ele><time>2023-01-10T02:44:23Z</time></trkpt><trkpt lat="33.0227765" lon="132.3921591"><ele>189.36</ele><time>2023-01-10T02:44:45Z</time></trkpt><trkpt lat="33.0227701" lon="132.3919421"><ele>192.50666666666666</ele><time>2023-01-10T02:45:05Z</time></trkpt><trkpt lat="33.0228482" lon="132.3917406"><ele>195.70000000000002</ele><time>2023-01-10T02:45:24Z</time></trkpt><trkpt lat="33.0227961" lon="132.391529"><ele>200.00666666666666</ele><time>2023-01-10T02:45:45Z</time></trkpt><trkpt lat="33.0228307" lon="132.3913165"><ele>206.16333333333333</ele><time>2023-01-10T02:46:24Z</time></trkpt><trkpt lat="33.0228226" lon="132.3910995"><ele>212.95000000000002</ele><time>2023-01-10T02:46:48Z</time></trkpt><trkpt lat="33.0226924" lon="132.3909431"><ele>215.9466666666667</ele><time>2023-01-10T02:47:45Z</time></trkpt><trkpt lat="33.0226212" lon="132.3907415"><ele>214.77666666666664</ele><time>2023-01-10T02:48:02Z</time></trkpt><trkpt lat="33.0226366" lon="132.3905252"><ele>212.33666666666667</ele><time>2023-01-10T02:48:44Z</time></trkpt><trkpt lat="33.0226148" lon="132.3903019"><ele>211.67999999999998</ele><time>2023-01-10T02:48:59Z</time></trkpt><trkpt lat="33.0226384" lon="132.3900864"><ele>212.45333333333335</ele><time>2023-01-10T02:49:11Z</time></trkpt><trkpt lat="33.0226452" lon="132.3898615"><ele>214.57000000000002</ele><time>2023-01-10T02:49:31Z</time></trkpt><trkpt lat="33.02274" lon="132.3896776"><ele>218.67999999999998</ele><time>2023-01-10T02:50:01Z</time></trkpt><trkpt lat="33.0228367" lon="132.3894943"><ele>224.14</ele><time>2023-01-10T02:50:45Z</time></trkpt><trkpt lat="33.0227245" lon="132.3893216"><ele>228.16666666666666</ele><time>2023-01-10T02:51:09Z</time></trkpt><trkpt lat="33.0226465" lon="132.3891281"><ele>230.22</ele><time>2023-01-10T02:51:51Z</time></trkpt><trkpt lat="33.0225802" lon="132.3889272"><ele>230.40666666666667</ele><time>2023-01-10T02:52:09Z</time></trkpt><trkpt lat="33.0225459" lon="132.3887155"><ele>230.21333333333334</ele><time>2023-01-10T02:52:29Z</time></trkpt><trkpt lat="33.0225608" lon="132.3884979"><ele>231.29666666666665</ele><time>2023-01-10T02:52:47Z</time></trkpt><trkpt lat="33.0225965" lon="132.3882876"><ele>232.67999999999998</ele><time>2023-01-10T02:53:17Z</time></trkpt><trkpt lat="33.0226541" lon="132.388079"><ele>234.4666666666667</ele><time>2023-01-10T02:54:06Z</time></trkpt><trkpt lat="33.0227298" lon="132.3878779"><ele>235.58</ele><time>2023-01-10T02:54:27Z</time></trkpt><trkpt lat="33.0228399" lon="132.3877078"><ele>236.83</ele><time>2023-01-10T02:55:07Z</time></trkpt><trkpt lat="33.0229026" lon="132.3875027"><ele>238.93666666666664</ele><time>2023-01-10T02:55:21Z</time></trkpt><trkpt lat="33.0228469" lon="132.3872893"><ele>241.80333333333337</ele><time>2023-01-10T02:55:45Z</time></trkpt><trkpt lat="33.0229468" lon="132.3871091"><ele>243.15</ele><time>2023-01-10T02:57:22Z</time></trkpt><trkpt lat="33.0229168" lon="132.387323"><ele>243.4</ele><time>2023-01-10T02:58:30Z</time></trkpt><trkpt lat="33.0228528" lon="132.3875244"><ele>241.95666666666668</ele><time>2023-01-10T03:13:46Z</time></trkpt><trkpt lat="33.0228299" lon="132.3877429"><ele>240.61</ele><time>2023-01-10T03:13:57Z</time></trkpt><trkpt lat="33.022738" lon="132.3879305"><ele>238.37</ele><time>2023-01-10T03:14:08Z</time></trkpt><trkpt lat="33.0226665" lon="132.388134"><ele>236.15333333333334</ele><time>2023-01-10T03:14:23Z</time></trkpt><trkpt lat="33.0226094" lon="132.3883479"><ele>234.78333333333333</ele><time>2023-01-10T03:15:58Z</time></trkpt><trkpt lat="33.0226108" lon="132.3885672"><ele>234.0566666666667</ele><time>2023-01-10T03:16:09Z</time></trkpt><trkpt lat="33.0225819" lon="132.3887839"><ele>232.87333333333336</ele><time>2023-01-10T03:16:23Z</time></trkpt><trkpt lat="33.0225629" lon="132.3889985"><ele>231.41333333333333</ele><time>2023-01-10T03:16:39Z</time></trkpt><trkpt lat="33.0226245" lon="132.3892051"><ele>229.59666666666666</ele><time>2023-01-10T03:16:54Z</time></trkpt><trkpt lat="33.0227237" lon="132.3893886"><ele>229.21666666666667</ele><time>2023-01-10T03:17:09Z</time></trkpt><trkpt lat="33.0228042" lon="132.3895894"><ele>228.79999999999998</ele><time>2023-01-10T03:17:24Z</time></trkpt><trkpt lat="33.0227936" lon="132.3898078"><ele>226.49666666666667</ele><time>2023-01-10T03:17:41Z</time></trkpt><trkpt lat="33.0226972" lon="132.3899985"><ele>221.61333333333334</ele><time>2023-01-10T03:17:56Z</time></trkpt><trkpt lat="33.0225229" lon="132.3900751"><ele>215.47000000000003</ele><time>2023-01-10T03:18:11Z</time></trkpt><trkpt lat="33.0224372" lon="132.3902881"><ele>210.01</ele><time>2023-01-10T03:18:28Z</time></trkpt><trkpt lat="33.0225458" lon="132.3904698"><ele>207.75</ele><time>2023-01-10T03:18:41Z</time></trkpt><trkpt lat="33.0226273" lon="132.3906636"><ele>209.0666666666667</ele><time>2023-01-10T03:19:03Z</time></trkpt><trkpt lat="33.0227566" lon="132.3908169"><ele>213.25</ele><time>2023-01-10T03:19:55Z</time></trkpt><trkpt lat="33.0227331" lon="132.3910325"><ele>216.84333333333333</ele><time>2023-01-10T03:20:08Z</time></trkpt><trkpt lat="33.0228658" lon="132.3911775"><ele>217.41666666666666</ele><time>2023-01-10T03:20:27Z</time></trkpt><trkpt lat="33.0230339" lon="132.3912603"><ele>212.21</ele><time>2023-01-10T03:20:38Z</time></trkpt><trkpt lat="33.022987" lon="132.3914764"><ele>205.39000000000001</ele><time>2023-01-10T03:20:49Z</time></trkpt><trkpt lat="33.0228804" lon="132.3916548"><ele>200.69000000000003</ele><time>2023-01-10T03:21:05Z</time></trkpt><trkpt lat="33.0227684" lon="132.3918405"><ele>198.7166666666667</ele><time>2023-01-10T03:21:18Z</time></trkpt><trkpt lat="33.0227458" lon="132.3920581"><ele>196.38333333333335</ele><time>2023-01-10T03:21:30Z</time></trkpt><trkpt lat="33.0228175" lon="132.3922583"><ele>192.78333333333333</ele><time>2023-01-10T03:21:45Z</time></trkpt><trkpt lat="33.0228316" lon="132.3924737"><ele>189.4766666666667</ele><time>2023-01-10T03:22:05Z</time></trkpt><trkpt lat="33.022744" lon="132.3926646"><ele>187.49333333333334</ele><time>2023-01-10T03:22:24Z</time></trkpt><trkpt lat="33.0227374" lon="132.3928786"><ele>185.47333333333333</ele><time>2023-01-10T03:22:39Z</time></trkpt><trkpt lat="33.022749" lon="132.3930926"><ele>184.54</ele><time>2023-01-10T03:22:53Z</time></trkpt><trkpt lat="33.0227391" lon="132.393309"><ele>182.91</ele><time>2023-01-10T03:23:07Z</time></trkpt><trkpt lat="33.0226261" lon="132.3934779"><ele>181.38666666666668</ele><time>2023-01-10T03:23:23Z</time></trkpt><trkpt lat="33.0224905" lon="132.3936304"><ele>179.45666666666668</ele><time>2023-01-10T03:23:39Z</time></trkpt><trkpt lat="33.0223626" lon="132.3937928"><ele>176.17</ele><time>2023-01-10T03:23:54Z</time></trkpt><trkpt lat="33.0224104" lon="132.3940094"><ele>167.53666666666666</ele><time>2023-01-10T03:24:12Z</time></trkpt><trkpt lat="33.0226097" lon="132.3940261"><ele>158.76333333333332</ele><time>2023-01-10T03:24:22Z</time></trkpt><trkpt lat="33.0227932" lon="132.393998"><ele>154.03333333333333</ele><time>2023-01-10T03:24:32Z</time></trkpt><trkpt lat="33.0229743" lon="132.3939793"><ele>155.65666666666667</ele><time>2023-01-10T03:24:45Z</time></trkpt><trkpt lat="33.0231385" lon="132.3940718"><ele>156.9466666666667</ele><time>2023-01-10T03:25:00Z</time></trkpt><trkpt lat="33.0232932" lon="132.3941894"><ele>155.18666666666667</ele><time>2023-01-10T03:25:17Z</time></trkpt><trkpt lat="33.0234673" lon="132.3942499"><ele>152.88666666666666</ele><time>2023-01-10T03:25:32Z</time></trkpt><trkpt lat="33.0236428" lon="132.3943053"><ele>152.23</ele><time>2023-01-10T03:26:20Z</time></trkpt><trkpt lat="33.0238226" lon="132.3943259"><ele>153.28333333333333</ele><time>2023-01-10T03:26:34Z</time></trkpt><trkpt lat="33.0239564" lon="132.3944793"><ele>152.54333333333332</ele><time>2023-01-10T03:26:48Z</time></trkpt><trkpt lat="33.0241201" lon="132.3946117"><ele>152.31666666666666</ele><time>2023-01-10T03:27:01Z</time></trkpt><trkpt lat="33.0241671" lon="132.3948208"><ele>151.12666666666667</ele><time>2023-01-10T03:27:17Z</time></trkpt><trkpt lat="33.0242218" lon="132.3950374"><ele>150.73666666666668</ele><time>2023-01-10T03:27:36Z</time></trkpt><trkpt lat="33.0243126" lon="132.3952245"><ele>148.63000000000002</ele><time>2023-01-10T03:28:07Z</time></trkpt><trkpt lat="33.024398" lon="132.39543"><ele>146.03666666666666</ele><time>2023-01-10T03:28:27Z</time></trkpt><trkpt lat="33.024408" lon="132.3956467"><ele>144.31</ele><time>2023-01-10T03:28:39Z</time></trkpt><trkpt lat="33.0244586" lon="132.3958561"><ele>143.43333333333334</ele><time>2023-01-10T03:28:53Z</time></trkpt><trkpt lat="33.0245489" lon="132.3960459"><ele>143.01666666666668</ele><time>2023-01-10T03:29:11Z</time></trkpt><trkpt lat="33.0246771" lon="132.3962021"><ele>142.00666666666666</ele><time>2023-01-10T03:29:27Z</time></trkpt><trkpt lat="33.0246688" lon="132.3964217"><ele>140.91333333333333</ele><time>2023-01-10T03:30:06Z</time></trkpt><trkpt lat="33.0247954" lon="132.3965893"><ele>138.65333333333334</ele><time>2023-01-10T03:30:16Z</time></trkpt><trkpt lat="33.0249311" lon="132.3967339"><ele>135.63333333333333</ele><time>2023-01-10T03:30:27Z</time></trkpt><trkpt lat="33.0249719" lon="132.3969509"><ele>134.51666666666668</ele><time>2023-01-10T03:30:40Z</time></trkpt><trkpt lat="33.025092" lon="132.3971137"><ele>135.24666666666667</ele><time>2023-01-10T03:30:57Z</time></trkpt><trkpt lat="33.0252703" lon="132.3971611"><ele>137.85999999999999</ele><time>2023-01-10T03:31:10Z</time></trkpt><trkpt lat="33.0254252" lon="132.3972786"><ele>134.85999999999999</ele><time>2023-01-10T03:31:27Z</time></trkpt><trkpt lat="33.0255928" lon="132.397364"><ele>130.59666666666666</ele><time>2023-01-10T03:31:45Z</time></trkpt><trkpt lat="33.0257197" lon="132.3975197"><ele>124.21666666666668</ele><time>2023-01-10T03:32:03Z</time></trkpt><trkpt lat="33.0259029" lon="132.3974821"><ele>123.23000000000002</ele><time>2023-01-10T03:32:16Z</time></trkpt><trkpt lat="33.0260751" lon="132.3975828"><ele>122.0</ele><time>2023-01-10T03:32:48Z</time></trkpt><trkpt lat="33.0262395" lon="132.3976834"><ele>120.48666666666668</ele><time>2023-01-10T03:33:09Z</time></trkpt><trkpt lat="33.0263984" lon="132.3977922"><ele>115.59666666666668</ele><time>2023-01-10T03:33:21Z</time></trkpt><trkpt lat="33.0265374" lon="132.3979295"><ele>112.15666666666668</ele><time>2023-01-10T03:33:32Z</time></trkpt><trkpt lat="33.026688" lon="132.3980535"><ele>109.93333333333334</ele><time>2023-01-10T03:33:44Z</time></trkpt><trkpt lat="33.0268684" lon="132.3981"><ele>110.63333333333333</ele><time>2023-01-10T03:33:58Z</time></trkpt><trkpt lat="33.0270484" lon="132.3981491"><ele>111.07666666666667</ele><time>2023-01-10T03:34:13Z</time></trkpt><trkpt lat="33.0272286" lon="132.3981249"><ele>113.84666666666665</ele><time>2023-01-10T03:34:37Z</time></trkpt><trkpt lat="33.0274049" lon="132.3980618"><ele>116.55333333333333</ele><time>2023-01-10T03:34:54Z</time></trkpt><trkpt lat="33.027577" lon="132.3979947"><ele>120.03000000000002</ele><time>2023-01-10T03:35:12Z</time></trkpt><trkpt lat="33.0277535" lon="132.3980494"><ele>122.33333333333333</ele><time>2023-01-10T03:35:36Z</time></trkpt><trkpt lat="33.0278973" lon="132.3981787"><ele>124.81666666666668</ele><time>2023-01-10T03:35:47Z</time></trkpt><trkpt lat="33.0280527" lon="132.3982972"><ele>127.85000000000001</ele><time>2023-01-10T03:36:01Z</time></trkpt><trkpt lat="33.0282183" lon="132.3983886"><ele>132.32333333333335</ele><time>2023-01-10T03:36:27Z</time></trkpt><trkpt lat="33.0283165" lon="132.3985755"><ele>137.92999999999998</ele><time>2023-01-10T03:37:03Z</time></trkpt><trkpt lat="33.0283074" lon="132.3987942"><ele>141.84666666666666</ele><time>2023-01-10T03:37:29Z</time></trkpt><trkpt lat="33.0282815" lon="132.3990098"><ele>143.39666666666668</ele><time>2023-01-10T03:37:53Z</time></trkpt><trkpt lat="33.0284251" lon="132.3991439"><ele>146.19666666666666</ele><time>2023-01-10T03:38:14Z</time></trkpt><trkpt lat="33.0285641" lon="132.399285"><ele>150.18666666666667</ele><time>2023-01-10T03:38:44Z</time></trkpt><trkpt lat="33.0287206" lon="132.3993922"><ele>155.51</ele><time>2023-01-10T03:39:15Z</time></trkpt><trkpt lat="33.028887" lon="132.3994762"><ele>159.34333333333333</ele><time>2023-01-10T03:39:33Z</time></trkpt><trkpt lat="33.0290299" lon="132.3996119"><ele>161.19666666666666</ele><time>2023-01-10T03:39:54Z</time></trkpt><trkpt lat="33.0291991" lon="132.399689"><ele>164.0</ele><time>2023-01-10T03:40:10Z</time></trkpt><trkpt lat="33.0293829" lon="132.3997188"><ele>166.66666666666666</ele><time>2023-01-10T03:40:26Z</time></trkpt><trkpt lat="33.0295471" lon="132.3998166"><ele>171.12333333333333</ele><time>2023-01-10T03:40:45Z</time></trkpt><trkpt lat="33.0297306" lon="132.3998196"><ele>174.86333333333334</ele><time>2023-01-10T03:41:41Z</time></trkpt><trkpt lat="33.0298863" lon="132.3999296"><ele>177.66</ele><time>2023-01-10T03:42:01Z</time></trkpt><trkpt lat="33.0300672" lon="132.3999676"><ele>181.08</ele><time>2023-01-10T03:42:21Z</time></trkpt><trkpt lat="33.0302477" lon="132.4000019"><ele>185.51999999999998</ele><time>2023-01-10T03:42:58Z</time></trkpt><trkpt lat="33.030429" lon="132.4000142"><ele>192.56000000000003</ele><time>2023-01-10T03:44:20Z</time></trkpt><trkpt lat="33.0306025" lon="132.4001005"><ele>196.88333333333333</ele><time>2023-01-10T03:44:48Z</time></trkpt><trkpt lat="33.0307674" lon="132.4002053"><ele>196.52</ele><time>2023-01-10T03:45:07Z</time></trkpt><trkpt lat="33.0309537" lon="132.4002174"><ele>193.41666666666666</ele><time>2023-01-10T03:45:52Z</time></trkpt><trkpt lat="33.0311116" lon="132.4003278"><ele>192.88333333333335</ele><time>2023-01-10T03:46:14Z</time></trkpt><trkpt lat="33.0312919" lon="132.4002976"><ele>195.91333333333333</ele><time>2023-01-10T03:48:37Z</time></trkpt><trkpt lat="33.0314617" lon="132.4003881"><ele>195.34666666666666</ele><time>2023-01-10T03:48:51Z</time></trkpt><trkpt lat="33.0316402" lon="132.4004386"><ele>189.90333333333334</ele><time>2023-01-10T03:49:07Z</time></trkpt><trkpt lat="33.0318151" lon="132.4005078"><ele>180.79</ele><time>2023-01-10T03:49:20Z</time></trkpt><trkpt lat="33.0320109" lon="132.4005595"><ele>171.52666666666667</ele><time>2023-01-10T03:49:31Z</time></trkpt><trkpt lat="33.0321818" lon="132.4004669"><ele>166.07333333333335</ele><time>2023-01-10T03:54:30Z</time></trkpt><trkpt lat="33.0323427" lon="132.4006061"><ele>161.55666666666664</ele><time>2023-01-10T03:54:43Z</time></trkpt><trkpt lat="33.0325037" lon="132.4007052"><ele>157.46666666666667</ele><time>2023-01-10T03:54:59Z</time></trkpt><trkpt lat="33.0326807" lon="132.4007643"><ele>153.57</ele><time>2023-01-10T03:55:16Z</time></trkpt><trkpt lat="33.032804" lon="132.4009225"><ele>149.73333333333335</ele><time>2023-01-10T03:55:34Z</time></trkpt><trkpt lat="33.032983" lon="132.40088"><ele>149.00000000000003</ele><time>2023-01-10T03:55:47Z</time></trkpt><trkpt lat="33.0331657" lon="132.4008602"><ele>148.58666666666667</ele><time>2023-01-10T03:56:02Z</time></trkpt><trkpt lat="33.0333535" lon="132.400883"><ele>147.95333333333335</ele><time>2023-01-10T03:56:19Z</time></trkpt><trkpt lat="33.0335335" lon="132.4009131"><ele>145.91666666666666</ele><time>2023-01-10T03:56:35Z</time></trkpt><trkpt lat="33.0337202" lon="132.4009022"><ele>142.4466666666667</ele><time>2023-01-10T03:56:49Z</time></trkpt><trkpt lat="33.0338967" lon="132.4008407"><ele>142.90666666666667</ele><time>2023-01-10T03:57:04Z</time></trkpt><trkpt lat="33.0340841" lon="132.4008014"><ele>144.37666666666667</ele><time>2023-01-10T03:57:23Z</time></trkpt><trkpt lat="33.034276" lon="132.4007755"><ele>147.54333333333332</ele><time>2023-01-10T03:57:44Z</time></trkpt><trkpt lat="33.0344546" lon="132.4007362"><ele>148.33333333333334</ele><time>2023-01-10T03:57:57Z</time></trkpt><trkpt lat="33.0346303" lon="132.4006733"><ele>149.51</ele><time>2023-01-10T03:58:11Z</time></trkpt><trkpt lat="33.0348025" lon="132.4005906"><ele>150.10333333333332</ele><time>2023-01-10T03:58:27Z</time></trkpt><trkpt lat="33.0349846" lon="132.4006518"><ele>150.38333333333333</ele><time>2023-01-10T03:58:44Z</time></trkpt><trkpt lat="33.035163" lon="132.40073"><ele>150.92</ele><time>2023-01-10T03:59:05Z</time></trkpt><trkpt lat="33.0352827" lon="132.4008931"><ele>150.46333333333334</ele><time>2023-01-10T03:59:29Z</time></trkpt><trkpt lat="33.0354392" lon="132.4010299"><ele>151.59</ele><time>2023-01-10T03:59:40Z</time></trkpt><trkpt lat="33.035587" lon="132.4011663"><ele>152.4333333333333</ele><time>2023-01-10T03:59:56Z</time></trkpt><trkpt lat="33.0357549" lon="132.4012491"><ele>155.24</ele><time>2023-01-10T04:00:13Z</time></trkpt><trkpt lat="33.0359366" lon="132.4012797"><ele>158.09666666666666</ele><time>2023-01-10T04:00:34Z</time></trkpt><trkpt lat="33.0361167" lon="132.4013134"><ele>160.13333333333333</ele><time>2023-01-10T04:00:50Z</time></trkpt><trkpt lat="33.0362735" lon="132.401433"><ele>159.18666666666664</ele><time>2023-01-10T04:01:08Z</time></trkpt><trkpt lat="33.0364071" lon="132.4015913"><ele>154.35333333333332</ele><time>2023-01-10T04:01:25Z</time></trkpt><trkpt lat="33.0365496" lon="132.4017312"><ele>150.00333333333333</ele><time>2023-01-10T04:01:41Z</time></trkpt><trkpt lat="33.036704" lon="132.401844"><ele>146.37333333333333</ele><time>2023-01-10T04:01:56Z</time></trkpt><trkpt lat="33.0368122" lon="132.4020268"><ele>144.96333333333334</ele><time>2023-01-10T04:02:13Z</time></trkpt><trkpt lat="33.0369166" lon="132.4022129"><ele>141.74</ele><time>2023-01-10T04:02:30Z</time></trkpt><trkpt lat="33.0370734" lon="132.4023198"><ele>136.85333333333335</ele><time>2023-01-10T04:03:09Z</time></trkpt><trkpt lat="33.0372554" lon="132.4022956"><ele>130.41333333333333</ele><time>2023-01-10T04:03:28Z</time></trkpt><trkpt lat="33.0373831" lon="132.4024669"><ele>121.48</ele><time>2023-01-10T04:03:46Z</time></trkpt><trkpt lat="33.0375238" lon="132.4026078"><ele>112.41666666666667</ele><time>2023-01-10T04:04:01Z</time></trkpt><trkpt lat="33.0376839" lon="132.402713"><ele>105.69666666666666</ele><time>2023-01-10T04:04:16Z</time></trkpt><trkpt lat="33.0378232" lon="132.402859"><ele>102.19333333333334</ele><time>2023-01-10T04:04:30Z</time></trkpt><trkpt lat="33.03795" lon="132.4030201"><ele>101.20666666666666</ele><time>2023-01-10T04:04:45Z</time></trkpt><trkpt lat="33.0380224" lon="132.4032162"><ele>97.44333333333334</ele><time>2023-01-10T04:04:56Z</time></trkpt><trkpt lat="33.0381545" lon="132.403386"><ele>94.2</ele><time>2023-01-10T04:05:08Z</time></trkpt><trkpt lat="33.0383167" lon="132.4034827"><ele>92.43666666666667</ele><time>2023-01-10T04:05:22Z</time></trkpt><trkpt lat="33.0384481" lon="132.403632"><ele>91.42333333333333</ele><time>2023-01-10T04:05:34Z</time></trkpt><trkpt lat="33.0386032" lon="132.4037501"><ele>92.03333333333335</ele><time>2023-01-10T04:05:47Z</time></trkpt><trkpt lat="33.0387663" lon="132.4038711"><ele>91.45</ele><time>2023-01-10T04:06:03Z</time></trkpt><trkpt lat="33.0388236" lon="132.4040759"><ele>94.61000000000001</ele><time>2023-01-10T04:06:21Z</time></trkpt><trkpt lat="33.0388621" lon="132.4042862"><ele>96.90333333333332</ele><time>2023-01-10T04:07:01Z</time></trkpt><trkpt lat="33.0389705" lon="132.4044699"><ele>101.23666666666668</ele><time>2023-01-10T04:07:38Z</time></trkpt><trkpt lat="33.0390734" lon="132.4046537"><ele>105.30666666666667</ele><time>2023-01-10T04:07:55Z</time></trkpt><trkpt lat="33.0391182" lon="132.4048654"><ele>110.25</ele><time>2023-01-10T04:08:11Z</time></trkpt><trkpt lat="33.0392522" lon="132.4050135"><ele>115.47666666666667</ele><time>2023-01-10T04:08:35Z</time></trkpt><trkpt lat="33.0392961" lon="132.4052218"><ele>118.75333333333333</ele><time>2023-01-10T04:09:11Z</time></trkpt><trkpt lat="33.0394762" lon="132.405193"><ele>122.68666666666668</ele><time>2023-01-10T04:12:00Z</time></trkpt><trkpt lat="33.0393551" lon="132.4050327"><ele>122.93333333333334</ele><time>2023-01-10T04:12:12Z</time></trkpt><trkpt lat="33.0392128" lon="132.4048985"><ele>121.60333333333335</ele><time>2023-01-10T04:12:22Z</time></trkpt><trkpt lat="33.0391741" lon="132.4046871"><ele>117.08</ele><time>2023-01-10T04:12:37Z</time></trkpt><trkpt lat="33.0390422" lon="132.4045398"><ele>113.01</ele><time>2023-01-10T04:12:52Z</time></trkpt><trkpt lat="33.0389553" lon="132.4043476"><ele>108.25666666666666</ele><time>2023-01-10T04:13:11Z</time></trkpt><trkpt lat="33.0389776" lon="132.404131"><ele>104.58</ele><time>2023-01-10T04:13:25Z</time></trkpt><trkpt lat="33.0388476" lon="132.4039738"><ele>100.42333333333333</ele><time>2023-01-10T04:13:45Z</time></trkpt><trkpt lat="33.0387964" lon="132.4037652"><ele>96.82333333333334</ele><time>2023-01-10T04:14:06Z</time></trkpt><trkpt lat="33.038614" lon="132.4037441"><ele>93.85333333333334</ele><time>2023-01-10T04:14:32Z</time></trkpt><trkpt lat="33.0386213" lon="132.4039671"><ele>90.51</ele><time>2023-01-10T04:15:09Z</time></trkpt><trkpt lat="33.0386578" lon="132.4041951"><ele>88.41666666666667</ele><time>2023-01-10T04:15:20Z</time></trkpt><trkpt lat="33.0387208" lon="132.4044004"><ele>87.56666666666668</ele><time>2023-01-10T04:15:34Z</time></trkpt><trkpt lat="33.0387922" lon="132.4045991"><ele>89.09666666666668</ele><time>2023-01-10T04:15:46Z</time></trkpt><trkpt lat="33.0387491" lon="132.4048182"><ele>90.21666666666668</ele><time>2023-01-10T04:15:58Z</time></trkpt><trkpt lat="33.0386692" lon="132.4050165"><ele>84.38333333333334</ele><time>2023-01-10T04:16:10Z</time></trkpt><trkpt lat="33.0386401" lon="132.4052336"><ele>78.56333333333333</ele><time>2023-01-10T04:16:25Z</time></trkpt><trkpt lat="33.0385643" lon="132.4054402"><ele>72.77333333333333</ele><time>2023-01-10T04:16:41Z</time></trkpt><trkpt lat="33.0386995" lon="132.4055932"><ele>74.66666666666667</ele><time>2023-01-10T04:16:55Z</time></trkpt><trkpt lat="33.0388026" lon="132.4057691"><ele>75.61666666666666</ele><time>2023-01-10T04:17:10Z</time></trkpt><trkpt lat="33.0387717" lon="132.4059899"><ele>77.51</ele><time>2023-01-10T04:17:23Z</time></trkpt><trkpt lat="33.0386381" lon="132.4061413"><ele>74.70666666666666</ele><time>2023-01-10T04:17:36Z</time></trkpt><trkpt lat="33.0384776" lon="132.4062494"><ele>69.3</ele><time>2023-01-10T04:17:52Z</time></trkpt><trkpt lat="33.0383606" lon="132.4064238"><ele>61.150000000000006</ele><time>2023-01-10T04:18:11Z</time></trkpt><trkpt lat="33.0382813" lon="132.4066198"><ele>54.19</ele><time>2023-01-10T04:18:30Z</time></trkpt><trkpt lat="33.0383736" lon="132.4068054"><ele>50.656666666666666</ele><time>2023-01-10T04:18:42Z</time></trkpt><trkpt lat="33.0384682" lon="132.4069907"><ele>50.97</ele><time>2023-01-10T04:18:54Z</time></trkpt><trkpt lat="33.0384697" lon="132.4072209"><ele>52.656666666666666</ele><time>2023-01-10T04:19:07Z</time></trkpt><trkpt lat="33.0383529" lon="132.407403"><ele>52.093333333333334</ele><time>2023-01-10T04:19:21Z</time></trkpt><trkpt lat="33.0382563" lon="132.4075898"><ele>50.78</ele><time>2023-01-10T04:19:37Z</time></trkpt><trkpt lat="33.0381888" lon="132.4077897"><ele>49.20333333333334</ele><time>2023-01-10T04:20:33Z</time></trkpt></trkseg></trk></gpx>