<?xml version='1.0' encoding='UTF-8'?><gpx creator="YAMAP - https://yamap.com" xsi:schemaLocation="http://www.topografix.com/GPX/1/1 http://www.topografix.com/GPX/1/1/gpx.xsd" version="1.1" xmlns="http://www.topografix.com/GPX/1/1" xmlns:xsi="http://www.w3.org/2001/XMLSchema-instance"><metadata><bounds maxlat="33.480676" maxlon="133.0153687" minlat="33.4773831" minlon="133.0055897"/></metadata><trk><name>天狗ノ森 </name><number>1</number><trkseg><trkpt lat="33.4774653" lon="133.0058635"><ele>1363.82</ele><time>2025-08-15T00:21:18Z</time></trkpt><trkpt lat="33.4775502" lon="133.0060649"><ele>1365.3249999999998</ele><time>2025-08-15T00:22:11Z</time></trkpt><trkpt lat="33.4775596" lon="133.0062888"><ele>1367.7099999999998</ele><time>2025-08-15T00:22:41Z</time></trkpt><trkpt lat="33.4775912" lon="133.0065009"><ele>1372.26</ele><time>2025-08-15T00:23:08Z</time></trkpt><trkpt lat="33.4777292" lon="133.0066452"><ele>1377.3666666666668</ele><time>2025-08-15T00:23:29Z</time></trkpt><trkpt lat="33.4778677" lon="133.0068082"><ele>1381.6499999999999</ele><time>2025-08-15T00:24:38Z</time></trkpt><trkpt lat="33.4779249" lon="133.0070336"><ele>1386.006666666667</ele><time>2025-08-15T00:24:59Z</time></trkpt><trkpt lat="33.4778241" lon="133.0072132"><ele>1389.4733333333334</ele><time>2025-08-15T00:25:23Z</time></trkpt><trkpt lat="33.4778385" lon="133.0074395"><ele>1392.9833333333336</ele><time>2025-08-15T00:25:49Z</time></trkpt><trkpt lat="33.4778828" lon="133.0076699"><ele>1396.743333333333</ele><time>2025-08-15T00:26:57Z</time></trkpt><trkpt lat="33.4779049" lon="133.0079027"><ele>1401.1633333333332</ele><time>2025-08-15T00:27:14Z</time></trkpt><trkpt lat="33.4779504" lon="133.0081171"><ele>1405.8266666666668</ele><time>2025-08-15T00:27:35Z</time></trkpt><trkpt lat="33.4780301" lon="133.0083112"><ele>1409.8400000000001</ele><time>2025-08-15T00:28:45Z</time></trkpt><trkpt lat="33.4781637" lon="133.0084663"><ele>1413.7133333333334</ele><time>2025-08-15T00:29:03Z</time></trkpt><trkpt lat="33.4782461" lon="133.0086762"><ele>1417.43</ele><time>2025-08-15T00:29:33Z</time></trkpt><trkpt lat="33.47838" lon="133.0088578"><ele>1421.2266666666667</ele><time>2025-08-15T00:30:34Z</time></trkpt><trkpt lat="33.4784376" lon="133.0090754"><ele>1424.6066666666666</ele><time>2025-08-15T00:30:57Z</time></trkpt><trkpt lat="33.4784817" lon="133.0093151"><ele>1426.7066666666667</ele><time>2025-08-15T00:31:21Z</time></trkpt><trkpt lat="33.4785461" lon="133.0095236"><ele>1428.08</ele><time>2025-08-15T00:31:45Z</time></trkpt><trkpt lat="33.4786738" lon="133.0096768"><ele>1431.8733333333332</ele><time>2025-08-15T00:32:54Z</time></trkpt><trkpt lat="33.478806" lon="133.0098329"><ele>1440.0200000000002</ele><time>2025-08-15T00:33:53Z</time></trkpt><trkpt lat="33.4789959" lon="133.0098607"><ele>1450.256666666667</ele><time>2025-08-15T00:35:07Z</time></trkpt><trkpt lat="33.4790581" lon="133.0100632"><ele>1457.4599999999998</ele><time>2025-08-15T00:37:25Z</time></trkpt><trkpt lat="33.4790809" lon="133.0103049"><ele>1460.2966666666664</ele><time>2025-08-15T00:37:57Z</time></trkpt><trkpt lat="33.4791828" lon="133.0104853"><ele>1460.1000000000001</ele><time>2025-08-15T00:39:01Z</time></trkpt><trkpt lat="33.4792763" lon="133.0106788"><ele>1458.3433333333332</ele><time>2025-08-15T00:39:24Z</time></trkpt><trkpt lat="33.4793296" lon="133.0108931"><ele>1455.9099999999999</ele><time>2025-08-15T00:39:43Z</time></trkpt><trkpt lat="33.4794061" lon="133.0110977"><ele>1453.5600000000002</ele><time>2025-08-15T00:40:06Z</time></trkpt><trkpt lat="33.4793847" lon="133.0113148"><ele>1452.0166666666667</ele><time>2025-08-15T00:40:37Z</time></trkpt><trkpt lat="33.4793612" lon="133.0115696"><ele>1451.256666666667</ele><time>2025-08-15T00:41:08Z</time></trkpt><trkpt lat="33.4793761" lon="133.0117937"><ele>1450.756666666667</ele><time>2025-08-15T00:41:35Z</time></trkpt><trkpt lat="33.4794742" lon="133.0119981"><ele>1451.4866666666667</ele><time>2025-08-15T00:42:05Z</time></trkpt><trkpt lat="33.479507" lon="133.0122165"><ele>1452.4399999999998</ele><time>2025-08-15T00:42:29Z</time></trkpt><trkpt lat="33.4795684" lon="133.0124372"><ele>1453.1833333333334</ele><time>2025-08-15T00:42:50Z</time></trkpt><trkpt lat="33.4795724" lon="133.0126587"><ele>1453.47</ele><time>2025-08-15T00:43:18Z</time></trkpt><trkpt lat="33.4796686" lon="133.0128753"><ele>1453.45</ele><time>2025-08-15T00:43:40Z</time></trkpt><trkpt lat="33.4796574" lon="133.0131023"><ele>1453.596666666667</ele><time>2025-08-15T00:44:07Z</time></trkpt><trkpt lat="33.479684" lon="133.0133209"><ele>1453.68</ele><time>2025-08-15T00:44:30Z</time></trkpt><trkpt lat="33.4798278" lon="133.0134572"><ele>1455.0766666666668</ele><time>2025-08-15T00:44:52Z</time></trkpt><trkpt lat="33.4798572" lon="133.0136698"><ele>1457.3533333333332</ele><time>2025-08-15T00:47:07Z</time></trkpt><trkpt lat="33.4799807" lon="133.0138315"><ele>1460.1533333333336</ele><time>2025-08-15T00:49:18Z</time></trkpt><trkpt lat="33.4800713" lon="133.0140272"><ele>1462.5433333333333</ele><time>2025-08-15T00:49:54Z</time></trkpt><trkpt lat="33.4801004" lon="133.0142482"><ele>1464.2833333333335</ele><time>2025-08-15T00:50:12Z</time></trkpt><trkpt lat="33.4801749" lon="133.0144643"><ele>1466.4233333333332</ele><time>2025-08-15T00:50:29Z</time></trkpt><trkpt lat="33.4802882" lon="133.0146543"><ele>1468.7033333333336</ele><time>2025-08-15T00:50:53Z</time></trkpt><trkpt lat="33.4803247" lon="133.0148985"><ele>1470.1666666666667</ele><time>2025-08-15T00:51:30Z</time></trkpt><trkpt lat="33.4803898" lon="133.0151172"><ele>1471.4933333333336</ele><time>2025-08-15T00:52:42Z</time></trkpt><trkpt lat="33.4805061" lon="133.0152902"><ele>1473.7266666666667</ele><time>2025-08-15T00:53:09Z</time></trkpt><trkpt lat="33.480676" lon="133.0153687"><ele>1477.4566666666667</ele><time>2025-08-15T00:55:38Z</time></trkpt><trkpt lat="33.4805132" lon="133.0152222"><ele>1479.58</ele><time>2025-08-15T01:04:32Z</time></trkpt><trkpt lat="33.4803928" lon="133.0150567"><ele>1477.6499999999999</ele><time>2025-08-15T01:04:53Z</time></trkpt><trkpt lat="33.4803306" lon="133.0148468"><ele>1473.92</ele><time>2025-08-15T01:05:17Z</time></trkpt><trkpt lat="33.4802515" lon="133.0146518"><ele>1470.58</ele><time>2025-08-15T01:05:40Z</time></trkpt><trkpt lat="33.4801396" lon="133.0144703"><ele>1469.3133333333333</ele><time>2025-08-15T01:06:04Z</time></trkpt><trkpt lat="33.4800666" lon="133.0142465"><ele>1467.8500000000001</ele><time>2025-08-15T01:06:25Z</time></trkpt><trkpt lat="33.4801153" lon="133.0139861"><ele>1466.4233333333334</ele><time>2025-08-15T01:06:50Z</time></trkpt><trkpt lat="33.4800678" lon="133.013775"><ele>1464.0866666666668</ele><time>2025-08-15T01:07:08Z</time></trkpt><trkpt lat="33.4798961" lon="133.0136877"><ele>1462.3466666666666</ele><time>2025-08-15T01:08:34Z</time></trkpt><trkpt lat="33.4797447" lon="133.0135548"><ele>1459.6066666666666</ele><time>2025-08-15T01:09:00Z</time></trkpt><trkpt lat="33.4796914" lon="133.0133236"><ele>1457.0033333333333</ele><time>2025-08-15T01:09:08Z</time></trkpt><trkpt lat="33.4795782" lon="133.013116"><ele>1454.4666666666665</ele><time>2025-08-15T01:09:23Z</time></trkpt><trkpt lat="33.4796887" lon="133.0129302"><ele>1453.42</ele><time>2025-08-15T01:09:40Z</time></trkpt><trkpt lat="33.4796634" lon="133.0127051"><ele>1453.1733333333334</ele><time>2025-08-15T01:09:57Z</time></trkpt><trkpt lat="33.4796478" lon="133.012474"><ele>1452.79</ele><time>2025-08-15T01:10:15Z</time></trkpt><trkpt lat="33.4795521" lon="133.0122617"><ele>1452.75</ele><time>2025-08-15T01:10:33Z</time></trkpt><trkpt lat="33.4795153" lon="133.0120488"><ele>1452.6500000000003</ele><time>2025-08-15T01:11:03Z</time></trkpt><trkpt lat="33.4795018" lon="133.0118159"><ele>1452.886666666667</ele><time>2025-08-15T01:11:22Z</time></trkpt><trkpt lat="33.4794732" lon="133.0116011"><ele>1452.6200000000001</ele><time>2025-08-15T01:11:43Z</time></trkpt><trkpt lat="33.479454" lon="133.0113637"><ele>1452.6566666666668</ele><time>2025-08-15T01:12:10Z</time></trkpt><trkpt lat="33.4794498" lon="133.0111301"><ele>1453.01</ele><time>2025-08-15T01:12:28Z</time></trkpt><trkpt lat="33.4794399" lon="133.0109053"><ele>1453.2866666666669</ele><time>2025-08-15T01:12:44Z</time></trkpt><trkpt lat="33.47941" lon="133.0106916"><ele>1453.0199999999998</ele><time>2025-08-15T01:13:25Z</time></trkpt><trkpt lat="33.4792962" lon="133.0105071"><ele>1453.7066666666667</ele><time>2025-08-15T01:14:04Z</time></trkpt><trkpt lat="33.4791576" lon="133.0103406"><ele>1455.8133333333333</ele><time>2025-08-15T01:14:25Z</time></trkpt><trkpt lat="33.4791235" lon="133.0100909"><ele>1458.2233333333334</ele><time>2025-08-15T01:14:46Z</time></trkpt><trkpt lat="33.4790614" lon="133.0098832"><ele>1459.7466666666667</ele><time>2025-08-15T01:15:03Z</time></trkpt><trkpt lat="33.4788583" lon="133.0098854"><ele>1458.7333333333333</ele><time>2025-08-15T01:16:07Z</time></trkpt><trkpt lat="33.4787802" lon="133.0096699"><ele>1455.2366666666667</ele><time>2025-08-15T01:16:49Z</time></trkpt><trkpt lat="33.4786739" lon="133.0094468"><ele>1447.4033333333334</ele><time>2025-08-15T01:18:14Z</time></trkpt><trkpt lat="33.4785065" lon="133.0093124"><ele>1438.4933333333336</ele><time>2025-08-15T01:18:44Z</time></trkpt><trkpt lat="33.4784024" lon="133.0091283"><ele>1430.63</ele><time>2025-08-15T01:19:02Z</time></trkpt><trkpt lat="33.4784109" lon="133.0088915"><ele>1426.8533333333335</ele><time>2025-08-15T01:19:20Z</time></trkpt><trkpt lat="33.4784385" lon="133.008655"><ele>1425.1266666666668</ele><time>2025-08-15T01:19:50Z</time></trkpt><trkpt lat="33.4783369" lon="133.0084714"><ele>1423.5266666666666</ele><time>2025-08-15T01:20:08Z</time></trkpt><trkpt lat="33.4781491" lon="133.0084115"><ele>1420.92</ele><time>2025-08-15T01:20:29Z</time></trkpt><trkpt lat="33.477973" lon="133.0083569"><ele>1416.756666666667</ele><time>2025-08-15T01:20:48Z</time></trkpt><trkpt lat="33.47788" lon="133.0081411"><ele>1413.1066666666666</ele><time>2025-08-15T01:21:12Z</time></trkpt><trkpt lat="33.4778915" lon="133.0079184"><ele>1409.2333333333336</ele><time>2025-08-15T01:21:31Z</time></trkpt><trkpt lat="33.4779574" lon="133.0076952"><ele>1406.03</ele><time>2025-08-15T01:21:58Z</time></trkpt><trkpt lat="33.4778582" lon="133.0075016"><ele>1402.4133333333332</ele><time>2025-08-15T01:22:19Z</time></trkpt><trkpt lat="33.4778164" lon="133.007265"><ele>1397.9933333333336</ele><time>2025-08-15T01:22:46Z</time></trkpt><trkpt lat="33.477911" lon="133.0070773"><ele>1393.7866666666666</ele><time>2025-08-15T01:23:09Z</time></trkpt><trkpt lat="33.4778647" lon="133.0068652"><ele>1389.8100000000002</ele><time>2025-08-15T01:23:35Z</time></trkpt><trkpt lat="33.4777256" lon="133.0066946"><ele>1386.6633333333332</ele><time>2025-08-15T01:24:07Z</time></trkpt><trkpt lat="33.4777027" lon="133.0064753"><ele>1382.8233333333335</ele><time>2025-08-15T01:24:44Z</time></trkpt><trkpt lat="33.4778266" lon="133.0062695"><ele>1378.8133333333333</ele><time>2025-08-15T01:25:08Z</time></trkpt><trkpt lat="33.4777" lon="133.0060901"><ele>1374.72</ele><time>2025-08-15T01:25:29Z</time></trkpt><trkpt lat="33.4775116" lon="133.0059717"><ele>1370.6599999999999</ele><time>2025-08-15T01:25:44Z</time></trkpt><trkpt lat="33.4773831" lon="133.0057864"><ele>1366.2833333333335</ele><time>2025-08-15T01:26:02Z</time></trkpt><trkpt lat="33.4774765" lon="133.0055897"><ele>1363.8233333333335</ele><time>2025-08-15T01:26:43Z</time></trkpt></trkseg></trk></gpx>