<?xml version='1.0' encoding='UTF-8'?><gpx creator="YAMAP - https://yamap.com" xsi:schemaLocation="http://www.topografix.com/GPX/1/1 http://www.topografix.com/GPX/1/1/gpx.xsd" version="1.1" xmlns="http://www.topografix.com/GPX/1/1" xmlns:xsi="http://www.w3.org/2001/XMLSchema-instance"><metadata><bounds maxlat="34.2446074" maxlon="133.2075797" minlat="34.2438466" minlon="133.2060316"/></metadata><trk><name>久司山</name><number>1</number><trkseg><trkpt lat="34.2438466" lon="133.2073907"><ele>91.43</ele><time>2022-09-15T02:50:04Z</time></trkpt><trkpt lat="34.24399" lon="133.2072485"><ele>93.005</ele><time>2022-09-15T02:51:43Z</time></trkpt><trkpt lat="34.2441707" lon="133.2072393"><ele>95.52666666666666</ele><time>2022-09-15T02:52:36Z</time></trkpt><trkpt lat="34.2443334" lon="133.207133"><ele>100.92666666666666</ele><time>2022-09-15T02:52:52Z</time></trkpt><trkpt lat="34.2444451" lon="133.2069588"><ele>108.42999999999999</ele><time>2022-09-15T02:54:08Z</time></trkpt><trkpt lat="34.2443547" lon="133.2067661"><ele>115.04</ele><time>2022-09-15T02:54:24Z</time></trkpt><trkpt lat="34.2444912" lon="133.206618"><ele>121.57000000000001</ele><time>2022-09-15T02:54:44Z</time></trkpt><trkpt lat="34.2445287" lon="133.2064025"><ele>125.26666666666667</ele><time>2022-09-15T02:55:03Z</time></trkpt><trkpt lat="34.2444386" lon="133.2062097"><ele>130.87</ele><time>2022-09-15T02:55:26Z</time></trkpt><trkpt lat="34.2443275" lon="133.2060316"><ele>135.39666666666668</ele><time>2022-09-15T02:55:47Z</time></trkpt><trkpt lat="34.2444484" lon="133.2061963"><ele>136.67</ele><time>2022-09-15T03:01:50Z</time></trkpt><trkpt lat="34.2446074" lon="133.2063147"><ele>132.34666666666666</ele><time>2022-09-15T03:02:05Z</time></trkpt><trkpt lat="34.2445166" lon="133.2065081"><ele>128.64333333333335</ele><time>2022-09-15T03:02:45Z</time></trkpt><trkpt lat="34.2443787" lon="133.2066654"><ele>125.97333333333334</ele><time>2022-09-15T03:03:24Z</time></trkpt><trkpt lat="34.244217" lon="133.2067674"><ele>122.41333333333334</ele><time>2022-09-15T03:03:34Z</time></trkpt><trkpt lat="34.2442969" lon="133.2069944"><ele>116.58333333333333</ele><time>2022-09-15T03:03:42Z</time></trkpt><trkpt lat="34.2444294" lon="133.2071464"><ele>111.62333333333333</ele><time>2022-09-15T03:03:49Z</time></trkpt><trkpt lat="34.2443516" lon="133.2072535"><ele>107.92333333333333</ele><time>2022-09-15T03:04:23Z</time></trkpt><trkpt lat="34.2441214" lon="133.2072634"><ele>102.81333333333333</ele><time>2022-09-15T03:04:52Z</time></trkpt><trkpt lat="34.2440093" lon="133.2074374"><ele>97.50333333333333</ele><time>2022-09-15T03:05:06Z</time></trkpt><trkpt lat="34.2438695" lon="133.2075797"><ele>94.23333333333335</ele><time>2022-09-15T03:06:01Z</time></trkpt></trkseg></trk></gpx>