<?xml version='1.0' encoding='UTF-8'?><gpx creator="YAMAP - https://yamap.com" xsi:schemaLocation="http://www.topografix.com/GPX/1/1 http://www.topografix.com/GPX/1/1/gpx.xsd" version="1.1" xmlns="http://www.topografix.com/GPX/1/1" xmlns:xsi="http://www.w3.org/2001/XMLSchema-instance"><metadata><bounds maxlat="33.4341818" maxlon="132.2096318" minlat="33.4329656" minlon="132.2065119"/></metadata><trk><name>見晴山</name><number>1</number><trkseg><trkpt lat="33.4334762" lon="132.2092648"><ele>368.01</ele><time>2023-01-21T01:45:40Z</time></trkpt><trkpt lat="33.4333535" lon="132.2091016"><ele>367.735</ele><time>2023-01-21T01:46:37Z</time></trkpt><trkpt lat="33.4333168" lon="132.2088843"><ele>366.8533333333333</ele><time>2023-01-21T01:46:52Z</time></trkpt><trkpt lat="33.4332467" lon="132.2086794"><ele>366.01666666666665</ele><time>2023-01-21T01:47:08Z</time></trkpt><trkpt lat="33.4332298" lon="132.2084487"><ele>365.5733333333333</ele><time>2023-01-21T01:47:18Z</time></trkpt><trkpt lat="33.4331681" lon="132.2082432"><ele>365.4633333333333</ele><time>2023-01-21T01:47:34Z</time></trkpt><trkpt lat="33.4331079" lon="132.2080376"><ele>366.07666666666665</ele><time>2023-01-21T01:47:46Z</time></trkpt><trkpt lat="33.4331216" lon="132.2078208"><ele>368.02</ele><time>2023-01-21T01:48:27Z</time></trkpt><trkpt lat="33.4331658" lon="132.2076082"><ele>370.69</ele><time>2023-01-21T01:48:48Z</time></trkpt><trkpt lat="33.4332355" lon="132.2074038"><ele>372.57666666666665</ele><time>2023-01-21T01:49:05Z</time></trkpt><trkpt lat="33.4332181" lon="132.2071854"><ele>373.62000000000006</ele><time>2023-01-21T01:49:22Z</time></trkpt><trkpt lat="33.4332436" lon="132.2069683"><ele>374.67</ele><time>2023-01-21T01:49:38Z</time></trkpt><trkpt lat="33.4332291" lon="132.2067401"><ele>378.52666666666664</ele><time>2023-01-21T01:49:56Z</time></trkpt><trkpt lat="33.4331041" lon="132.2069034"><ele>380.8766666666667</ele><time>2023-01-21T01:50:40Z</time></trkpt><trkpt lat="33.4329656" lon="132.2067608"><ele>385.80333333333334</ele><time>2023-01-21T01:51:35Z</time></trkpt><trkpt lat="33.4329848" lon="132.2065462"><ele>388.87999999999994</ele><time>2023-01-21T01:51:53Z</time></trkpt><trkpt lat="33.4331629" lon="132.2065119"><ele>391.68666666666667</ele><time>2023-01-21T01:54:44Z</time></trkpt><trkpt lat="33.433325" lon="132.2066314"><ele>388.6666666666667</ele><time>2023-01-21T01:55:47Z</time></trkpt><trkpt lat="33.4333325" lon="132.20685"><ele>382.26</ele><time>2023-01-21T01:56:14Z</time></trkpt><trkpt lat="33.4332669" lon="132.2070565"><ele>376.6766666666667</ele><time>2023-01-21T01:56:35Z</time></trkpt><trkpt lat="33.4333224" lon="132.2072684"><ele>372.65000000000003</ele><time>2023-01-21T01:56:49Z</time></trkpt><trkpt lat="33.4332169" lon="132.2074604"><ele>372.75333333333333</ele><time>2023-01-21T01:57:02Z</time></trkpt><trkpt lat="33.4331076" lon="132.2076384"><ele>373.18</ele><time>2023-01-21T01:57:16Z</time></trkpt><trkpt lat="33.433105" lon="132.2078555"><ele>373.32666666666665</ele><time>2023-01-21T01:57:29Z</time></trkpt><trkpt lat="33.4331521" lon="132.2080712"><ele>370.81</ele><time>2023-01-21T01:57:38Z</time></trkpt><trkpt lat="33.4331666" lon="132.2082956"><ele>367.44000000000005</ele><time>2023-01-21T01:57:49Z</time></trkpt><trkpt lat="33.4331753" lon="132.2085112"><ele>366.15000000000003</ele><time>2023-01-21T01:58:00Z</time></trkpt><trkpt lat="33.4331824" lon="132.2087264"><ele>366.1966666666667</ele><time>2023-01-21T01:58:13Z</time></trkpt><trkpt lat="33.4332658" lon="132.2089208"><ele>366.63000000000005</ele><time>2023-01-21T01:58:30Z</time></trkpt><trkpt lat="33.4334487" lon="132.2089678"><ele>366.23</ele><time>2023-01-21T01:58:50Z</time></trkpt><trkpt lat="33.433614" lon="132.209066"><ele>365.4566666666667</ele><time>2023-01-21T01:59:04Z</time></trkpt><trkpt lat="33.4337614" lon="132.2092185"><ele>365.72333333333336</ele><time>2023-01-21T01:59:18Z</time></trkpt><trkpt lat="33.4339082" lon="132.209363"><ele>366.33666666666664</ele><time>2023-01-21T01:59:32Z</time></trkpt><trkpt lat="33.4340746" lon="132.2094549"><ele>366.4833333333333</ele><time>2023-01-21T01:59:44Z</time></trkpt><trkpt lat="33.4341818" lon="132.2096318"><ele>365.77666666666664</ele><time>2023-01-21T01:59:54Z</time></trkpt></trkseg></trk></gpx>