<?xml version='1.0' encoding='UTF-8'?><gpx creator="YAMAP - https://yamap.com" xsi:schemaLocation="http://www.topografix.com/GPX/1/1 http://www.topografix.com/GPX/1/1/gpx.xsd" version="1.1" xmlns="http://www.topografix.com/GPX/1/1" xmlns:xsi="http://www.w3.org/2001/XMLSchema-instance"><metadata><bounds maxlat="33.953648" maxlon="132.8184367" minlat="33.9491315" minlon="132.8111047"/></metadata><trk><name>高穴山</name><number>1</number><trkseg><trkpt lat="33.9491729" lon="132.8148789"><ele>184.78</ele><time>2025-02-11T00:46:30Z</time></trkpt><trkpt lat="33.949302" lon="132.8150477"><ele>184.47</ele><time>2025-02-11T00:46:49Z</time></trkpt><trkpt lat="33.9494379" lon="132.8152378"><ele>184.91666666666666</ele><time>2025-02-11T00:47:06Z</time></trkpt><trkpt lat="33.9495565" lon="132.8154541"><ele>185.74333333333334</ele><time>2025-02-11T00:47:23Z</time></trkpt><trkpt lat="33.9496512" lon="132.8156727"><ele>187.07000000000002</ele><time>2025-02-11T00:47:41Z</time></trkpt><trkpt lat="33.9496348" lon="132.8158998"><ele>188.22</ele><time>2025-02-11T00:47:56Z</time></trkpt><trkpt lat="33.9496114" lon="132.8161327"><ele>190.76</ele><time>2025-02-11T00:48:11Z</time></trkpt><trkpt lat="33.9497356" lon="132.8163085"><ele>193.01</ele><time>2025-02-11T00:48:26Z</time></trkpt><trkpt lat="33.9497969" lon="132.8165246"><ele>195.29333333333332</ele><time>2025-02-11T00:49:11Z</time></trkpt><trkpt lat="33.949818" lon="132.8167523"><ele>196.5666666666667</ele><time>2025-02-11T00:49:26Z</time></trkpt><trkpt lat="33.9498391" lon="132.81697"><ele>198.41</ele><time>2025-02-11T00:49:42Z</time></trkpt><trkpt lat="33.9497772" lon="132.8171873"><ele>201.42999999999998</ele><time>2025-02-11T00:49:56Z</time></trkpt><trkpt lat="33.9496714" lon="132.8173986"><ele>203.32333333333335</ele><time>2025-02-11T00:50:08Z</time></trkpt><trkpt lat="33.9495849" lon="132.817619"><ele>205.49333333333334</ele><time>2025-02-11T00:50:23Z</time></trkpt><trkpt lat="33.9494763" lon="132.8178243"><ele>206.43666666666664</ele><time>2025-02-11T00:50:38Z</time></trkpt><trkpt lat="33.9493523" lon="132.8180039"><ele>208.02333333333334</ele><time>2025-02-11T00:50:56Z</time></trkpt><trkpt lat="33.9492872" lon="132.8182251"><ele>210.06333333333336</ele><time>2025-02-11T00:51:16Z</time></trkpt><trkpt lat="33.9493622" lon="132.8184367"><ele>214.49333333333334</ele><time>2025-02-11T00:51:41Z</time></trkpt><trkpt lat="33.9494897" lon="132.81825"><ele>219.63000000000002</ele><time>2025-02-11T00:52:05Z</time></trkpt><trkpt lat="33.9495721" lon="132.8180009"><ele>221.57000000000002</ele><time>2025-02-11T00:52:20Z</time></trkpt><trkpt lat="33.9496696" lon="132.8178143"><ele>219.35666666666668</ele><time>2025-02-11T00:52:33Z</time></trkpt><trkpt lat="33.9498632" lon="132.8176878"><ele>218.65666666666667</ele><time>2025-02-11T00:52:50Z</time></trkpt><trkpt lat="33.9499981" lon="132.8175092"><ele>220.8066666666667</ele><time>2025-02-11T00:53:09Z</time></trkpt><trkpt lat="33.9499904" lon="132.8172866"><ele>221.77666666666664</ele><time>2025-02-11T00:53:27Z</time></trkpt><trkpt lat="33.950186" lon="132.8173541"><ele>223.12</ele><time>2025-02-11T00:53:39Z</time></trkpt><trkpt lat="33.9503497" lon="132.8174629"><ele>226.84666666666666</ele><time>2025-02-11T00:53:54Z</time></trkpt><trkpt lat="33.9504932" lon="132.8173173"><ele>231.81333333333336</ele><time>2025-02-11T00:54:12Z</time></trkpt><trkpt lat="33.950518" lon="132.8170801"><ele>231.43000000000004</ele><time>2025-02-11T00:54:37Z</time></trkpt><trkpt lat="33.9506946" lon="132.8171627"><ele>228.81333333333336</ele><time>2025-02-11T00:55:13Z</time></trkpt><trkpt lat="33.9508853" lon="132.8170625"><ele>228.92333333333332</ele><time>2025-02-11T00:55:47Z</time></trkpt><trkpt lat="33.9509813" lon="132.8168674"><ele>233.38333333333333</ele><time>2025-02-11T00:55:59Z</time></trkpt><trkpt lat="33.9510831" lon="132.8166569"><ele>237.70666666666668</ele><time>2025-02-11T00:56:36Z</time></trkpt><trkpt lat="33.9509458" lon="132.8164705"><ele>240.07000000000002</ele><time>2025-02-11T00:57:03Z</time></trkpt><trkpt lat="33.9511146" lon="132.8165722"><ele>241.23000000000002</ele><time>2025-02-11T00:57:17Z</time></trkpt><trkpt lat="33.9512481" lon="132.8164085"><ele>241.85333333333332</ele><time>2025-02-11T00:57:38Z</time></trkpt><trkpt lat="33.9512105" lon="132.8161795"><ele>243.20333333333335</ele><time>2025-02-11T00:58:12Z</time></trkpt><trkpt lat="33.9510926" lon="132.8160013"><ele>244.4766666666667</ele><time>2025-02-11T00:58:42Z</time></trkpt><trkpt lat="33.9510925" lon="132.8157453"><ele>246.7566666666667</ele><time>2025-02-11T00:59:05Z</time></trkpt><trkpt lat="33.9511591" lon="132.8155431"><ele>250.05333333333337</ele><time>2025-02-11T01:00:03Z</time></trkpt><trkpt lat="33.9512414" lon="132.8153095"><ele>253.89666666666668</ele><time>2025-02-11T01:06:58Z</time></trkpt><trkpt lat="33.9514178" lon="132.8151876"><ele>254.90333333333334</ele><time>2025-02-11T01:07:22Z</time></trkpt><trkpt lat="33.9514414" lon="132.8149561"><ele>258.8566666666666</ele><time>2025-02-11T01:07:38Z</time></trkpt><trkpt lat="33.9515359" lon="132.8147671"><ele>263.55</ele><time>2025-02-11T01:08:02Z</time></trkpt><trkpt lat="33.9517237" lon="132.8146869"><ele>270.07666666666665</ele><time>2025-02-11T01:09:02Z</time></trkpt><trkpt lat="33.9518127" lon="132.8144976"><ele>275.0233333333333</ele><time>2025-02-11T01:09:36Z</time></trkpt><trkpt lat="33.9519755" lon="132.814385"><ele>274.56</ele><time>2025-02-11T01:10:02Z</time></trkpt><trkpt lat="33.9521496" lon="132.8142916"><ele>272.6066666666666</ele><time>2025-02-11T01:10:29Z</time></trkpt><trkpt lat="33.9523298" lon="132.8141849"><ele>268.2233333333333</ele><time>2025-02-11T01:10:55Z</time></trkpt><trkpt lat="33.9525071" lon="132.8140835"><ele>268.1266666666667</ele><time>2025-02-11T01:11:15Z</time></trkpt><trkpt lat="33.9526958" lon="132.8140103"><ele>267.77</ele><time>2025-02-11T01:11:34Z</time></trkpt><trkpt lat="33.9526647" lon="132.8137898"><ele>265.7633333333334</ele><time>2025-02-11T01:12:35Z</time></trkpt><trkpt lat="33.9527117" lon="132.8135727"><ele>261.26666666666665</ele><time>2025-02-11T01:12:55Z</time></trkpt><trkpt lat="33.9528333" lon="132.8133736"><ele>259.6433333333333</ele><time>2025-02-11T01:13:16Z</time></trkpt><trkpt lat="33.9529577" lon="132.8131817"><ele>261.6166666666666</ele><time>2025-02-11T01:15:55Z</time></trkpt><trkpt lat="33.9530755" lon="132.8130177"><ele>266.1566666666667</ele><time>2025-02-11T01:16:22Z</time></trkpt><trkpt lat="33.9531885" lon="132.8128354"><ele>269.14666666666665</ele><time>2025-02-11T01:17:10Z</time></trkpt><trkpt lat="33.9532017" lon="132.8126157"><ele>270.06333333333333</ele><time>2025-02-11T01:17:40Z</time></trkpt><trkpt lat="33.953215" lon="132.8123756"><ele>267.7966666666667</ele><time>2025-02-11T01:18:02Z</time></trkpt><trkpt lat="33.9532509" lon="132.8121467"><ele>263.07666666666665</ele><time>2025-02-11T01:18:28Z</time></trkpt><trkpt lat="33.9532995" lon="132.8119127"><ele>257.14000000000004</ele><time>2025-02-11T01:18:51Z</time></trkpt><trkpt lat="33.9533665" lon="132.8117002"><ele>255.36666666666665</ele><time>2025-02-11T01:19:16Z</time></trkpt><trkpt lat="33.9534929" lon="132.8115379"><ele>259.39</ele><time>2025-02-11T01:20:28Z</time></trkpt><trkpt lat="33.9535552" lon="132.8113304"><ele>267.46333333333337</ele><time>2025-02-11T01:21:12Z</time></trkpt><trkpt lat="33.953648" lon="132.8111047"><ele>278.20000000000005</ele><time>2025-02-11T01:22:59Z</time></trkpt><trkpt lat="33.9536062" lon="132.8113157"><ele>282.46000000000004</ele><time>2025-02-11T01:30:40Z</time></trkpt><trkpt lat="33.9535555" lon="132.8115249"><ele>279.8</ele><time>2025-02-11T01:31:47Z</time></trkpt><trkpt lat="33.9534767" lon="132.8117325"><ele>270.0133333333333</ele><time>2025-02-11T01:32:37Z</time></trkpt><trkpt lat="33.9534024" lon="132.8119469"><ele>260.78000000000003</ele><time>2025-02-11T01:32:55Z</time></trkpt><trkpt lat="33.9533513" lon="132.8121674"><ele>255.92</ele><time>2025-02-11T01:33:44Z</time></trkpt><trkpt lat="33.9532846" lon="132.8123956"><ele>256.25</ele><time>2025-02-11T01:34:14Z</time></trkpt><trkpt lat="33.9532695" lon="132.8126362"><ele>261.5566666666667</ele><time>2025-02-11T01:34:40Z</time></trkpt><trkpt lat="33.9532315" lon="132.8128681"><ele>266.69666666666666</ele><time>2025-02-11T01:35:04Z</time></trkpt><trkpt lat="33.9531104" lon="132.8130549"><ele>269.31333333333333</ele><time>2025-02-11T01:35:28Z</time></trkpt><trkpt lat="33.9530091" lon="132.81325"><ele>267.78000000000003</ele><time>2025-02-11T01:36:03Z</time></trkpt><trkpt lat="33.9529191" lon="132.8134589"><ele>264.09999999999997</ele><time>2025-02-11T01:36:26Z</time></trkpt><trkpt lat="33.9528154" lon="132.8136542"><ele>260.0866666666667</ele><time>2025-02-11T01:36:44Z</time></trkpt><trkpt lat="33.9527434" lon="132.8138878"><ele>259.7766666666667</ele><time>2025-02-11T01:37:17Z</time></trkpt><trkpt lat="33.9526479" lon="132.8140865"><ele>263.3333333333333</ele><time>2025-02-11T01:37:40Z</time></trkpt><trkpt lat="33.9524664" lon="132.8141108"><ele>267.3466666666667</ele><time>2025-02-11T01:39:32Z</time></trkpt><trkpt lat="33.9523391" lon="132.8142677"><ele>268.05333333333334</ele><time>2025-02-11T01:39:58Z</time></trkpt><trkpt lat="33.9521767" lon="132.8144093"><ele>267.0</ele><time>2025-02-11T01:40:31Z</time></trkpt><trkpt lat="33.9520082" lon="132.8145222"><ele>267.31</ele><time>2025-02-11T01:41:01Z</time></trkpt><trkpt lat="33.9518453" lon="132.814626"><ele>270.8233333333333</ele><time>2025-02-11T01:41:25Z</time></trkpt><trkpt lat="33.9516984" lon="132.8148062"><ele>271.3766666666667</ele><time>2025-02-11T01:41:46Z</time></trkpt><trkpt lat="33.9515196" lon="132.8149254"><ele>268.6433333333333</ele><time>2025-02-11T01:42:04Z</time></trkpt><trkpt lat="33.9514321" lon="132.8151149"><ele>262.26</ele><time>2025-02-11T01:42:27Z</time></trkpt><trkpt lat="33.9513114" lon="132.8152841"><ele>259.2166666666667</ele><time>2025-02-11T01:42:48Z</time></trkpt><trkpt lat="33.9512125" lon="132.815484"><ele>256.50666666666666</ele><time>2025-02-11T01:43:06Z</time></trkpt><trkpt lat="33.9511741" lon="132.8157146"><ele>254.4</ele><time>2025-02-11T01:43:28Z</time></trkpt><trkpt lat="33.9511637" lon="132.815949"><ele>250.73666666666668</ele><time>2025-02-11T01:43:45Z</time></trkpt><trkpt lat="33.951208" lon="132.8161955"><ele>247.30000000000004</ele><time>2025-02-11T01:44:10Z</time></trkpt><trkpt lat="33.9511596" lon="132.8164367"><ele>245.10333333333335</ele><time>2025-02-11T01:44:30Z</time></trkpt><trkpt lat="33.9511159" lon="132.8166801"><ele>243.21</ele><time>2025-02-11T01:44:53Z</time></trkpt><trkpt lat="33.9509394" lon="132.8168315"><ele>241.18333333333337</ele><time>2025-02-11T01:45:07Z</time></trkpt><trkpt lat="33.9508458" lon="132.8170417"><ele>237.42</ele><time>2025-02-11T01:45:28Z</time></trkpt><trkpt lat="33.9506791" lon="132.8171427"><ele>232.67999999999998</ele><time>2025-02-11T01:45:43Z</time></trkpt><trkpt lat="33.9504958" lon="132.8172664"><ele>230.88333333333333</ele><time>2025-02-11T01:46:01Z</time></trkpt><trkpt lat="33.9503083" lon="132.8173032"><ele>229.14333333333335</ele><time>2025-02-11T01:46:16Z</time></trkpt><trkpt lat="33.9500928" lon="132.8172186"><ele>225.89666666666665</ele><time>2025-02-11T01:46:31Z</time></trkpt><trkpt lat="33.9499833" lon="132.8173957"><ele>221.81000000000003</ele><time>2025-02-11T01:46:49Z</time></trkpt><trkpt lat="33.9499075" lon="132.8176312"><ele>218.80333333333337</ele><time>2025-02-11T01:47:25Z</time></trkpt><trkpt lat="33.9497417" lon="132.8177486"><ele>217.59</ele><time>2025-02-11T01:47:37Z</time></trkpt><trkpt lat="33.9496166" lon="132.8179717"><ele>217.14666666666668</ele><time>2025-02-11T01:48:28Z</time></trkpt><trkpt lat="33.9495686" lon="132.8182044"><ele>221.04333333333332</ele><time>2025-02-11T01:48:46Z</time></trkpt><trkpt lat="33.949396" lon="132.8182761"><ele>222.58</ele><time>2025-02-11T01:49:01Z</time></trkpt><trkpt lat="33.94926" lon="132.8181121"><ele>219.86</ele><time>2025-02-11T01:49:27Z</time></trkpt><trkpt lat="33.9493249" lon="132.8178951"><ele>212.70000000000002</ele><time>2025-02-11T01:49:58Z</time></trkpt><trkpt lat="33.9494244" lon="132.8177141"><ele>208.88000000000002</ele><time>2025-02-11T01:50:12Z</time></trkpt><trkpt lat="33.9495251" lon="132.8174763"><ele>207.14333333333335</ele><time>2025-02-11T01:50:30Z</time></trkpt><trkpt lat="33.9496488" lon="132.8172936"><ele>205.49666666666667</ele><time>2025-02-11T01:50:48Z</time></trkpt><trkpt lat="33.9496982" lon="132.8170788"><ele>203.6833333333333</ele><time>2025-02-11T01:51:07Z</time></trkpt><trkpt lat="33.9496877" lon="132.8168411"><ele>202.01</ele><time>2025-02-11T01:51:21Z</time></trkpt><trkpt lat="33.9497564" lon="132.8166215"><ele>199.89333333333335</ele><time>2025-02-11T01:51:40Z</time></trkpt><trkpt lat="33.9497787" lon="132.8163773"><ele>197.52</ele><time>2025-02-11T01:52:06Z</time></trkpt><trkpt lat="33.9497023" lon="132.8161643"><ele>194.71000000000004</ele><time>2025-02-11T01:52:22Z</time></trkpt><trkpt lat="33.9496274" lon="132.8159318"><ele>191.97333333333336</ele><time>2025-02-11T01:52:39Z</time></trkpt><trkpt lat="33.9495959" lon="132.8156987"><ele>189.88333333333333</ele><time>2025-02-11T01:52:54Z</time></trkpt><trkpt lat="33.949498" lon="132.815465"><ele>188.24</ele><time>2025-02-11T01:53:13Z</time></trkpt><trkpt lat="33.9493748" lon="132.8152862"><ele>187.25</ele><time>2025-02-11T01:53:27Z</time></trkpt><trkpt lat="33.9492868" lon="132.8150876"><ele>185.85666666666665</ele><time>2025-02-11T01:53:42Z</time></trkpt><trkpt lat="33.9491315" lon="132.814963"><ele>186.0233333333333</ele><time>2025-02-11T01:53:57Z</time></trkpt></trkseg></trk></gpx>