<?xml version='1.0' encoding='UTF-8'?><gpx creator="YAMAP - https://yamap.com" xsi:schemaLocation="http://www.topografix.com/GPX/1/1 http://www.topografix.com/GPX/1/1/gpx.xsd" version="1.1" xmlns="http://www.topografix.com/GPX/1/1" xmlns:xsi="http://www.w3.org/2001/XMLSchema-instance"><metadata><bounds maxlat="33.8962355" maxlon="132.7646371" minlat="33.8940283" minlon="132.761948"/></metadata><trk><name>佐古田山</name><number>1</number><trkseg><trkpt lat="33.8962355" lon="132.7620116"><ele>19.39</ele><time>2023-01-28T04:44:39Z</time></trkpt><trkpt lat="33.8960544" lon="132.7620438"><ele>19.835</ele><time>2023-01-28T04:45:29Z</time></trkpt><trkpt lat="33.8959156" lon="132.7622043"><ele>20.223333333333333</ele><time>2023-01-28T04:45:40Z</time></trkpt><trkpt lat="33.895797" lon="132.7623714"><ele>20.546666666666667</ele><time>2023-01-28T04:45:51Z</time></trkpt><trkpt lat="33.8956457" lon="132.7624892"><ele>20.77</ele><time>2023-01-28T04:46:07Z</time></trkpt><trkpt lat="33.8954753" lon="132.7625764"><ele>21.593333333333334</ele><time>2023-01-28T04:46:21Z</time></trkpt><trkpt lat="33.8953514" lon="132.7627367"><ele>23.293333333333333</ele><time>2023-01-28T04:46:37Z</time></trkpt><trkpt lat="33.8951804" lon="132.7628247"><ele>25.80333333333333</ele><time>2023-01-28T04:46:55Z</time></trkpt><trkpt lat="33.8950089" lon="132.7629106"><ele>27.713333333333335</ele><time>2023-01-28T04:47:17Z</time></trkpt><trkpt lat="33.8948279" lon="132.7629625"><ele>29.186666666666667</ele><time>2023-01-28T04:47:27Z</time></trkpt><trkpt lat="33.8946587" lon="132.7630728"><ele>30.99</ele><time>2023-01-28T04:47:39Z</time></trkpt><trkpt lat="33.894537" lon="132.7632393"><ele>33.65</ele><time>2023-01-28T04:47:52Z</time></trkpt><trkpt lat="33.8944731" lon="132.7634418"><ele>36.083333333333336</ele><time>2023-01-28T04:48:06Z</time></trkpt><trkpt lat="33.8945136" lon="132.7636676"><ele>36.77</ele><time>2023-01-28T04:48:19Z</time></trkpt><trkpt lat="33.8943473" lon="132.7637563"><ele>37.06666666666666</ele><time>2023-01-28T04:48:36Z</time></trkpt><trkpt lat="33.8941977" lon="132.7638776"><ele>38.29333333333334</ele><time>2023-01-28T04:49:08Z</time></trkpt><trkpt lat="33.8940283" lon="132.7639649"><ele>42.77</ele><time>2023-01-28T04:49:27Z</time></trkpt><trkpt lat="33.8941827" lon="132.7640872"><ele>44.51</ele><time>2023-01-28T04:49:44Z</time></trkpt><trkpt lat="33.894366" lon="132.7640963"><ele>44.76666666666667</ele><time>2023-01-28T04:50:04Z</time></trkpt><trkpt lat="33.894497" lon="132.7642553"><ele>43.96333333333333</ele><time>2023-01-28T04:50:21Z</time></trkpt><trkpt lat="33.8944654" lon="132.7644695"><ele>48.06999999999999</ele><time>2023-01-28T04:51:02Z</time></trkpt><trkpt lat="33.8943325" lon="132.7646169"><ele>54.166666666666664</ele><time>2023-01-28T04:52:23Z</time></trkpt><trkpt lat="33.8941455" lon="132.7646371"><ele>59.99333333333334</ele><time>2023-01-28T04:53:50Z</time></trkpt><trkpt lat="33.8942348" lon="132.7644459"><ele>59.47666666666667</ele><time>2023-01-28T04:54:39Z</time></trkpt><trkpt lat="33.8943349" lon="132.7642612"><ele>54.98666666666667</ele><time>2023-01-28T04:54:54Z</time></trkpt><trkpt lat="33.8944002" lon="132.7640596"><ele>47.38</ele><time>2023-01-28T04:55:13Z</time></trkpt><trkpt lat="33.8942189" lon="132.764028"><ele>43.09666666666667</ele><time>2023-01-28T04:55:35Z</time></trkpt><trkpt lat="33.894032" lon="132.7640296"><ele>44.34666666666667</ele><time>2023-01-28T04:55:49Z</time></trkpt><trkpt lat="33.8941484" lon="132.7638619"><ele>44.089999999999996</ele><time>2023-01-28T04:56:08Z</time></trkpt><trkpt lat="33.8942909" lon="132.7637236"><ele>43.04333333333333</ele><time>2023-01-28T04:56:23Z</time></trkpt><trkpt lat="33.8944713" lon="132.7637238"><ele>38.693333333333335</ele><time>2023-01-28T04:56:41Z</time></trkpt><trkpt lat="33.8945436" lon="132.7635245"><ele>36.949999999999996</ele><time>2023-01-28T04:56:57Z</time></trkpt><trkpt lat="33.8945043" lon="132.7633119"><ele>36.48666666666667</ele><time>2023-01-28T04:57:08Z</time></trkpt><trkpt lat="33.8945836" lon="132.7631063"><ele>36.03333333333333</ele><time>2023-01-28T04:57:21Z</time></trkpt><trkpt lat="33.8947347" lon="132.7629765"><ele>34.669999999999995</ele><time>2023-01-28T04:57:36Z</time></trkpt><trkpt lat="33.8949082" lon="132.7629129"><ele>32.193333333333335</ele><time>2023-01-28T04:57:49Z</time></trkpt><trkpt lat="33.8950854" lon="132.7628497"><ele>29.703333333333333</ele><time>2023-01-28T04:58:03Z</time></trkpt><trkpt lat="33.8952662" lon="132.7628275"><ele>28.656666666666666</ele><time>2023-01-28T04:58:16Z</time></trkpt><trkpt lat="33.8954263" lon="132.7627102"><ele>27.136666666666667</ele><time>2023-01-28T04:58:26Z</time></trkpt><trkpt lat="33.8955876" lon="132.7626108"><ele>25.083333333333332</ele><time>2023-01-28T04:58:39Z</time></trkpt><trkpt lat="33.8957719" lon="132.7625805"><ele>22.566666666666666</ele><time>2023-01-28T04:58:55Z</time></trkpt><trkpt lat="33.8958846" lon="132.7623988"><ele>20.89</ele><time>2023-01-28T04:59:11Z</time></trkpt><trkpt lat="33.895963" lon="132.7622028"><ele>20.27</ele><time>2023-01-28T04:59:22Z</time></trkpt><trkpt lat="33.8960002" lon="132.7619852"><ele>20.080000000000002</ele><time>2023-01-28T04:59:35Z</time></trkpt><trkpt lat="33.8961816" lon="132.761948"><ele>20.203333333333333</ele><time>2023-01-28T04:59:53Z</time></trkpt></trkseg></trk></gpx>