<?xml version='1.0' encoding='UTF-8'?><gpx creator="YAMAP - https://yamap.com" xsi:schemaLocation="http://www.topografix.com/GPX/1/1 http://www.topografix.com/GPX/1/1/gpx.xsd" version="1.1" xmlns="http://www.topografix.com/GPX/1/1" xmlns:xsi="http://www.w3.org/2001/XMLSchema-instance"><metadata><bounds maxlat="33.4144664" maxlon="132.1755571" minlat="33.4133064" minlon="132.1727123"/></metadata><trk><name>大森山</name><number>1</number><trkseg><trkpt lat="33.4133238" lon="132.1727123"><ele>183.04</ele><time>2023-01-21T00:56:37Z</time></trkpt><trkpt lat="33.4133677" lon="132.1729256"><ele>187.34</ele><time>2023-01-21T00:58:32Z</time></trkpt><trkpt lat="33.4134563" lon="132.1731183"><ele>192.3066666666667</ele><time>2023-01-21T00:59:07Z</time></trkpt><trkpt lat="33.4136096" lon="132.1732433"><ele>200.28666666666666</ele><time>2023-01-21T01:01:18Z</time></trkpt><trkpt lat="33.4135888" lon="132.1734608"><ele>209.04</ele><time>2023-01-21T01:02:03Z</time></trkpt><trkpt lat="33.4135815" lon="132.1736805"><ele>217.25333333333333</ele><time>2023-01-21T01:02:19Z</time></trkpt><trkpt lat="33.4135267" lon="132.1738975"><ele>227.16666666666666</ele><time>2023-01-21T01:03:10Z</time></trkpt><trkpt lat="33.4135679" lon="132.1741076"><ele>235.86666666666667</ele><time>2023-01-21T01:03:57Z</time></trkpt><trkpt lat="33.41369" lon="132.1742801"><ele>244.12666666666667</ele><time>2023-01-21T01:04:53Z</time></trkpt><trkpt lat="33.4137108" lon="132.174494"><ele>252.44999999999996</ele><time>2023-01-21T01:05:33Z</time></trkpt><trkpt lat="33.4136594" lon="132.1747023"><ele>260.9666666666667</ele><time>2023-01-21T01:05:58Z</time></trkpt><trkpt lat="33.4137636" lon="132.1748791"><ele>269.3</ele><time>2023-01-21T01:08:36Z</time></trkpt><trkpt lat="33.4136339" lon="132.1750289"><ele>276.4566666666667</ele><time>2023-01-21T01:10:01Z</time></trkpt><trkpt lat="33.4135468" lon="132.1752328"><ele>280.21333333333337</ele><time>2023-01-21T01:10:25Z</time></trkpt><trkpt lat="33.4134334" lon="132.1754037"><ele>284.2033333333333</ele><time>2023-01-21T01:10:45Z</time></trkpt><trkpt lat="33.4133064" lon="132.1755571"><ele>286.6766666666667</ele><time>2023-01-21T01:11:43Z</time></trkpt><trkpt lat="33.4134474" lon="132.1753954"><ele>289.2</ele><time>2023-01-21T01:15:51Z</time></trkpt><trkpt lat="33.4135121" lon="132.1751817"><ele>288.2</ele><time>2023-01-21T01:16:02Z</time></trkpt><trkpt lat="33.4136372" lon="132.1750265"><ele>285.7266666666667</ele><time>2023-01-21T01:16:15Z</time></trkpt><trkpt lat="33.4138254" lon="132.1750367"><ele>282.95</ele><time>2023-01-21T01:17:22Z</time></trkpt><trkpt lat="33.4140073" lon="132.1750725"><ele>279.28333333333336</ele><time>2023-01-21T01:17:39Z</time></trkpt><trkpt lat="33.4141919" lon="132.1750834"><ele>275.56</ele><time>2023-01-21T01:18:06Z</time></trkpt><trkpt lat="33.4143752" lon="132.1750917"><ele>271.86333333333334</ele><time>2023-01-21T01:18:25Z</time></trkpt><trkpt lat="33.4144664" lon="132.1749051"><ele>267.7066666666667</ele><time>2023-01-21T01:19:35Z</time></trkpt><trkpt lat="33.4143963" lon="132.1747042"><ele>261.5566666666667</ele><time>2023-01-21T01:20:32Z</time></trkpt><trkpt lat="33.4143453" lon="132.1744843"><ele>253.87</ele><time>2023-01-21T01:20:57Z</time></trkpt><trkpt lat="33.4143796" lon="132.1742732"><ele>243.88</ele><time>2023-01-21T01:21:59Z</time></trkpt><trkpt lat="33.4144147" lon="132.1740531"><ele>233.66</ele><time>2023-01-21T01:22:18Z</time></trkpt><trkpt lat="33.4143629" lon="132.1738413"><ele>224.5666666666667</ele><time>2023-01-21T01:23:48Z</time></trkpt><trkpt lat="33.4143914" lon="132.1736221"><ele>218.85666666666665</ele><time>2023-01-21T01:24:03Z</time></trkpt><trkpt lat="33.4142601" lon="132.1734524"><ele>215.23000000000002</ele><time>2023-01-21T01:24:16Z</time></trkpt><trkpt lat="33.4141428" lon="132.1732879"><ele>211.93666666666664</ele><time>2023-01-21T01:24:58Z</time></trkpt><trkpt lat="33.4139699" lon="132.1731826"><ele>209.27666666666667</ele><time>2023-01-21T01:25:38Z</time></trkpt><trkpt lat="33.4138862" lon="132.1729913"><ele>204.33666666666667</ele><time>2023-01-21T01:26:42Z</time></trkpt><trkpt lat="33.4137567" lon="132.1728396"><ele>199.35</ele><time>2023-01-21T01:27:25Z</time></trkpt><trkpt lat="33.4135791" lon="132.1727949"><ele>193.50666666666666</ele><time>2023-01-21T01:28:10Z</time></trkpt><trkpt lat="33.4133959" lon="132.1727773"><ele>190.0466666666667</ele><time>2023-01-21T01:28:26Z</time></trkpt></trkseg></trk></gpx>