<?xml version='1.0' encoding='UTF-8'?><gpx creator="YAMAP - https://yamap.com" xsi:schemaLocation="http://www.topografix.com/GPX/1/1 http://www.topografix.com/GPX/1/1/gpx.xsd" version="1.1" xmlns="http://www.topografix.com/GPX/1/1" xmlns:xsi="http://www.w3.org/2001/XMLSchema-instance"><metadata><bounds maxlat="34.0139365" maxlon="133.6057317" minlat="34.0111872" minlon="133.5984298"/></metadata><trk><name>高文殊山</name><number>1</number><trkseg><trkpt lat="34.0114075" lon="133.5991623"><ele>38.609449064207894</ele><time>2022-09-21T04:09:44Z</time></trkpt><trkpt lat="34.0114915" lon="133.5989682"><ele>39.41533901528271</ele><time>2022-09-21T04:11:35Z</time></trkpt><trkpt lat="34.011618" lon="133.598804"><ele>41.927880194759084</ele><time>2022-09-21T04:11:45Z</time></trkpt><trkpt lat="34.0117431" lon="133.5986387"><ele>42.46575943206985</ele><time>2022-09-21T04:11:58Z</time></trkpt><trkpt lat="34.0118044" lon="133.5984298"><ele>42.46668403554215</ele><time>2022-09-21T04:12:11Z</time></trkpt><trkpt lat="34.0119857" lon="133.5984414"><ele>39.401401805419056</ele><time>2022-09-21T04:12:31Z</time></trkpt><trkpt lat="34.0121432" lon="133.5985604"><ele>39.21198270481853</ele><time>2022-09-21T04:12:43Z</time></trkpt><trkpt lat="34.0122311" lon="133.5987568"><ele>39.923146476624446</ele><time>2022-09-21T04:12:56Z</time></trkpt><trkpt lat="34.0122896" lon="133.5989619"><ele>41.925535089331994</ele><time>2022-09-21T04:13:14Z</time></trkpt><trkpt lat="34.0122386" lon="133.5991708"><ele>43.214756762788966</ele><time>2022-09-21T04:13:33Z</time></trkpt><trkpt lat="34.0123387" lon="133.5993515"><ele>43.602962145825245</ele><time>2022-09-21T04:14:03Z</time></trkpt><trkpt lat="34.0123891" lon="133.5995617"><ele>43.522030614459595</ele><time>2022-09-21T04:14:18Z</time></trkpt><trkpt lat="34.0125515" lon="133.5996607"><ele>43.521720161317354</ele><time>2022-09-21T04:14:34Z</time></trkpt><trkpt lat="34.0127022" lon="133.5997897"><ele>44.68547455706996</ele><time>2022-09-21T04:14:46Z</time></trkpt><trkpt lat="34.0128481" lon="133.5999186"><ele>45.47816271012265</ele><time>2022-09-21T04:15:00Z</time></trkpt><trkpt lat="34.0129443" lon="133.6001096"><ele>47.21647833564242</ele><time>2022-09-21T04:15:14Z</time></trkpt><trkpt lat="34.0131066" lon="133.6002104"><ele>52.06703053121254</ele><time>2022-09-21T04:15:32Z</time></trkpt><trkpt lat="34.0132698" lon="133.6003053"><ele>57.04523389828774</ele><time>2022-09-21T04:15:45Z</time></trkpt><trkpt lat="34.0132853" lon="133.6005211"><ele>61.075189666530015</ele><time>2022-09-21T04:15:59Z</time></trkpt><trkpt lat="34.0133156" lon="133.6007353"><ele>62.30684856399142</ele><time>2022-09-21T04:16:10Z</time></trkpt><trkpt lat="34.0133684" lon="133.600944"><ele>62.52006078144118</ele><time>2022-09-21T04:16:24Z</time></trkpt><trkpt lat="34.0132776" lon="133.6011483"><ele>64.02688990197753</ele><time>2022-09-21T04:17:39Z</time></trkpt><trkpt lat="34.0132831" lon="133.6013687"><ele>69.52307311017726</ele><time>2022-09-21T04:18:23Z</time></trkpt><trkpt lat="34.0133029" lon="133.6015921"><ele>75.54020753467984</ele><time>2022-09-21T04:18:42Z</time></trkpt><trkpt lat="34.0134015" lon="133.6017781"><ele>82.47922067349012</ele><time>2022-09-21T04:19:20Z</time></trkpt><trkpt lat="34.0134704" lon="133.6019803"><ele>86.9497557862638</ele><time>2022-09-21T04:20:22Z</time></trkpt><trkpt lat="34.013572" lon="133.6021603"><ele>91.68020145759438</ele><time>2022-09-21T04:20:47Z</time></trkpt><trkpt lat="34.0134772" lon="133.6023447"><ele>93.0517450907728</ele><time>2022-09-21T04:22:19Z</time></trkpt><trkpt lat="34.0133062" lon="133.6022697"><ele>98.24917802621287</ele><time>2022-09-21T04:23:28Z</time></trkpt><trkpt lat="34.0131444" lon="133.6023671"><ele>103.92233483368095</ele><time>2022-09-21T04:23:59Z</time></trkpt><trkpt lat="34.0131172" lon="133.6025875"><ele>114.30849002797612</ele><time>2022-09-21T04:25:13Z</time></trkpt><trkpt lat="34.0132303" lon="133.6027609"><ele>117.02887486490296</ele><time>2022-09-21T04:25:30Z</time></trkpt><trkpt lat="34.0133219" lon="133.6029548"><ele>121.05504901562078</ele><time>2022-09-21T04:25:48Z</time></trkpt><trkpt lat="34.0134833" lon="133.6030638"><ele>118.52000223794278</ele><time>2022-09-21T04:26:17Z</time></trkpt><trkpt lat="34.0134692" lon="133.6032798"><ele>120.18710583466333</ele><time>2022-09-21T04:26:34Z</time></trkpt><trkpt lat="34.0135074" lon="133.603492"><ele>122.3164376922819</ele><time>2022-09-21T04:27:19Z</time></trkpt><trkpt lat="34.0136508" lon="133.6036283"><ele>130.63260431195394</ele><time>2022-09-21T04:27:59Z</time></trkpt><trkpt lat="34.0137578" lon="133.6038045"><ele>135.73168983679622</ele><time>2022-09-21T04:28:29Z</time></trkpt><trkpt lat="34.0139365" lon="133.6038412"><ele>138.4437606147524</ele><time>2022-09-21T04:29:10Z</time></trkpt><trkpt lat="34.0138341" lon="133.6040248"><ele>141.66900844995908</ele><time>2022-09-21T04:29:57Z</time></trkpt><trkpt lat="34.0136811" lon="133.6041461"><ele>150.44835781831296</ele><time>2022-09-21T04:31:05Z</time></trkpt><trkpt lat="34.013586" lon="133.6043363"><ele>163.13055348856594</ele><time>2022-09-21T04:31:55Z</time></trkpt><trkpt lat="34.0134447" lon="133.6044799"><ele>174.97432354082193</ele><time>2022-09-21T04:32:51Z</time></trkpt><trkpt lat="34.0133776" lon="133.6046837"><ele>182.68096341421483</ele><time>2022-09-21T04:33:50Z</time></trkpt><trkpt lat="34.0133946" lon="133.6049083"><ele>190.97658492826767</ele><time>2022-09-21T04:34:57Z</time></trkpt><trkpt lat="34.013306" lon="133.6050998"><ele>198.72057845424874</ele><time>2022-09-21T04:35:33Z</time></trkpt><trkpt lat="34.0132351" lon="133.6053021"><ele>207.06724209897345</ele><time>2022-09-21T04:36:41Z</time></trkpt><trkpt lat="34.0132022" lon="133.6055161"><ele>217.18458099003473</ele><time>2022-09-21T04:37:14Z</time></trkpt><trkpt lat="34.0131673" lon="133.6057317"><ele>224.19645036842658</ele><time>2022-09-21T04:41:53Z</time></trkpt><trkpt lat="34.0131705" lon="133.6055034"><ele>227.89170104701893</ele><time>2022-09-21T04:46:18Z</time></trkpt><trkpt lat="34.0131898" lon="133.6052877"><ele>223.8316492403071</ele><time>2022-09-21T04:46:31Z</time></trkpt><trkpt lat="34.0132053" lon="133.6050651"><ele>217.83620059479597</ele><time>2022-09-21T04:46:38Z</time></trkpt><trkpt lat="34.0131049" lon="133.6048824"><ele>212.60066669664434</ele><time>2022-09-21T04:47:02Z</time></trkpt><trkpt lat="34.0132746" lon="133.6047876"><ele>209.1701703952946</ele><time>2022-09-21T04:47:29Z</time></trkpt><trkpt lat="34.0134768" lon="133.6048043"><ele>207.1112522576946</ele><time>2022-09-21T04:47:40Z</time></trkpt><trkpt lat="34.0133491" lon="133.6045999"><ele>201.79727534597927</ele><time>2022-09-21T04:48:28Z</time></trkpt><trkpt lat="34.0135116" lon="133.6045022"><ele>197.12323501869935</ele><time>2022-09-21T04:48:47Z</time></trkpt><trkpt lat="34.0134499" lon="133.604298"><ele>191.15025776146862</ele><time>2022-09-21T04:48:58Z</time></trkpt><trkpt lat="34.0134981" lon="133.60408"><ele>188.71282235863927</ele><time>2022-09-21T04:49:13Z</time></trkpt><trkpt lat="34.0136044" lon="133.6039032"><ele>183.10484222786508</ele><time>2022-09-21T04:49:50Z</time></trkpt><trkpt lat="34.0137873" lon="133.6039161"><ele>128.41734541808086</ele><time>2022-09-21T04:50:12Z</time></trkpt><trkpt lat="34.0138827" lon="133.6037298"><ele>118.68925359547325</ele><time>2022-09-21T04:50:30Z</time></trkpt><trkpt lat="34.0135929" lon="133.6034668"><ele>107.1874550569875</ele><time>2022-09-21T04:51:15Z</time></trkpt><trkpt lat="34.0134131" lon="133.6034957"><ele>143.6718670724542</ele><time>2022-09-21T04:51:54Z</time></trkpt><trkpt lat="34.0132651" lon="133.6033571"><ele>136.46818595380796</ele><time>2022-09-21T04:52:09Z</time></trkpt><trkpt lat="34.0131944" lon="133.6031481"><ele>132.00583642171634</ele><time>2022-09-21T04:52:23Z</time></trkpt><trkpt lat="34.0132401" lon="133.6029206"><ele>129.48169124353942</ele><time>2022-09-21T04:52:42Z</time></trkpt><trkpt lat="34.0131065" lon="133.6027505"><ele>126.12113565146535</ele><time>2022-09-21T04:53:03Z</time></trkpt><trkpt lat="34.0129686" lon="133.6026064"><ele>124.83793951430215</ele><time>2022-09-21T04:53:19Z</time></trkpt><trkpt lat="34.0131165" lon="133.6024735"><ele>124.74778218798424</ele><time>2022-09-21T04:53:31Z</time></trkpt><trkpt lat="34.0132002" lon="133.6022737"><ele>120.65557912183556</ele><time>2022-09-21T04:53:42Z</time></trkpt><trkpt lat="34.0132563" lon="133.602048"><ele>114.45178521949397</ele><time>2022-09-21T04:54:11Z</time></trkpt><trkpt lat="34.0134097" lon="133.6019256"><ele>108.19546860391576</ele><time>2022-09-21T04:54:23Z</time></trkpt><trkpt lat="34.0132769" lon="133.6017595"><ele>103.16287082806231</ele><time>2022-09-21T04:55:08Z</time></trkpt><trkpt lat="34.013182" lon="133.6015692"><ele>96.49061185117408</ele><time>2022-09-21T04:55:28Z</time></trkpt><trkpt lat="34.0131593" lon="133.6013538"><ele>90.2049022303179</ele><time>2022-09-21T04:56:09Z</time></trkpt><trkpt lat="34.0131333" lon="133.6011362"><ele>82.9236021437615</ele><time>2022-09-21T04:56:27Z</time></trkpt><trkpt lat="34.0130804" lon="133.6009026"><ele>75.54182810700097</ele><time>2022-09-21T04:56:47Z</time></trkpt><trkpt lat="34.013215" lon="133.6007505"><ele>70.13378203964419</ele><time>2022-09-21T04:58:43Z</time></trkpt><trkpt lat="34.0131892" lon="133.60053"><ele>65.29685188922919</ele><time>2022-09-21T04:59:01Z</time></trkpt><trkpt lat="34.01319" lon="133.6003052"><ele>66.54631635823314</ele><time>2022-09-21T04:59:12Z</time></trkpt><trkpt lat="34.0132041" lon="133.6000796"><ele>65.52660264516436</ele><time>2022-09-21T04:59:24Z</time></trkpt><trkpt lat="34.0130251" lon="133.6001458"><ele>66.64521441346163</ele><time>2022-09-21T04:59:50Z</time></trkpt><trkpt lat="34.0128619" lon="133.6000151"><ele>65.161729807196</ele><time>2022-09-21T04:59:58Z</time></trkpt><trkpt lat="34.0127339" lon="133.5998519"><ele>63.0491559571195</ele><time>2022-09-21T05:00:13Z</time></trkpt><trkpt lat="34.0126409" lon="133.5996263"><ele>56.02819412323606</ele><time>2022-09-21T05:00:24Z</time></trkpt><trkpt lat="34.0124555" lon="133.5995422"><ele>52.305527872921324</ele><time>2022-09-21T05:00:38Z</time></trkpt><trkpt lat="34.0122903" lon="133.5994471"><ele>49.71003106092465</ele><time>2022-09-21T05:00:52Z</time></trkpt><trkpt lat="34.0122198" lon="133.5992311"><ele>52.33605953069576</ele><time>2022-09-21T05:01:07Z</time></trkpt><trkpt lat="34.0121056" lon="133.5990609"><ele>49.20326167641087</ele><time>2022-09-21T05:01:20Z</time></trkpt><trkpt lat="34.01198" lon="133.5992164"><ele>47.97640511427014</ele><time>2022-09-21T05:01:31Z</time></trkpt><trkpt lat="34.011648" lon="133.5992002"><ele>44.88333895741882</ele><time>2022-09-21T05:02:01Z</time></trkpt><trkpt lat="34.0113143" lon="133.5990169"><ele>43.78268736096348</ele><time>2022-09-21T05:02:32Z</time></trkpt><trkpt lat="34.0111872" lon="133.5988602"><ele>41.48740036716871</ele><time>2022-09-21T05:02:45Z</time></trkpt><trkpt lat="34.0112955" lon="133.5990343"><ele>42.053951835296985</ele><time>2022-09-21T05:03:13Z</time></trkpt></trkseg></trk></gpx>