<?xml version='1.0' encoding='UTF-8'?><gpx creator="YAMAP - https://yamap.com" xsi:schemaLocation="http://www.topografix.com/GPX/1/1 http://www.topografix.com/GPX/1/1/gpx.xsd" version="1.1" xmlns="http://www.topografix.com/GPX/1/1" xmlns:xsi="http://www.w3.org/2001/XMLSchema-instance"><metadata><bounds maxlat="34.0296849" maxlon="133.0359468" minlat="34.0274965" minlon="133.032579"/></metadata><trk><name>唐子山</name><number>1</number><trkseg><trkpt lat="34.029644" lon="133.0359468"><ele>8.996792467830204</ele><time>2022-12-25T03:44:58Z</time></trkpt><trkpt lat="34.0296849" lon="133.0357244"><ele>10.737978875981074</ele><time>2022-12-25T03:45:55Z</time></trkpt><trkpt lat="34.0295175" lon="133.0356381"><ele>11.1164624508462</ele><time>2022-12-25T03:46:25Z</time></trkpt><trkpt lat="34.0293385" lon="133.0356024"><ele>12.733562632756495</ele><time>2022-12-25T03:46:44Z</time></trkpt><trkpt lat="34.0291689" lon="133.0355226"><ele>13.40292311006039</ele><time>2022-12-25T03:47:01Z</time></trkpt><trkpt lat="34.0290023" lon="133.0354323"><ele>16.784451649026003</ele><time>2022-12-25T03:48:05Z</time></trkpt><trkpt lat="34.0289235" lon="133.0352288"><ele>20.51615976652978</ele><time>2022-12-25T03:48:24Z</time></trkpt><trkpt lat="34.028867" lon="133.0350222"><ele>24.66646714819774</ele><time>2022-12-25T03:48:44Z</time></trkpt><trkpt lat="34.0288544" lon="133.034806"><ele>27.264000073958574</ele><time>2022-12-25T03:49:00Z</time></trkpt><trkpt lat="34.028793" lon="133.0345943"><ele>29.99930137805897</ele><time>2022-12-25T03:49:13Z</time></trkpt><trkpt lat="34.0287597" lon="133.0343793"><ele>33.148587398421526</ele><time>2022-12-25T03:49:32Z</time></trkpt><trkpt lat="34.0286675" lon="133.0341776"><ele>38.53578370055758</ele><time>2022-12-25T03:50:09Z</time></trkpt><trkpt lat="34.0286392" lon="133.0339627"><ele>46.33582826937093</ele><time>2022-12-25T03:50:47Z</time></trkpt><trkpt lat="34.0284799" lon="133.0338549"><ele>54.9429052487037</ele><time>2022-12-25T03:51:09Z</time></trkpt><trkpt lat="34.028323" lon="133.0337439"><ele>62.253372873899934</ele><time>2022-12-25T03:51:35Z</time></trkpt><trkpt lat="34.02818" lon="133.0336035"><ele>68.04647907895406</ele><time>2022-12-25T03:52:06Z</time></trkpt><trkpt lat="34.0280026" lon="133.0335283"><ele>72.8728154969365</ele><time>2022-12-25T03:52:25Z</time></trkpt><trkpt lat="34.027911" lon="133.0333351"><ele>75.82364686734005</ele><time>2022-12-25T03:52:41Z</time></trkpt><trkpt lat="34.0278077" lon="133.0331522"><ele>81.8636021293048</ele><time>2022-12-25T03:53:38Z</time></trkpt><trkpt lat="34.0276684" lon="133.0330114"><ele>90.28457770399332</ele><time>2022-12-25T03:54:08Z</time></trkpt><trkpt lat="34.027591" lon="133.0328109"><ele>100.85027885079056</ele><time>2022-12-25T03:54:53Z</time></trkpt><trkpt lat="34.0275699" lon="133.032584"><ele>106.42404417961882</ele><time>2022-12-25T03:55:12Z</time></trkpt><trkpt lat="34.0275152" lon="133.0328043"><ele>108.67275161426574</ele><time>2022-12-25T03:56:51Z</time></trkpt><trkpt lat="34.0274965" lon="133.032579"><ele>108.91779584922217</ele><time>2022-12-25T03:58:27Z</time></trkpt><trkpt lat="34.0276114" lon="133.0327463"><ele>108.93343425944016</ele><time>2022-12-25T04:02:14Z</time></trkpt><trkpt lat="34.0276774" lon="133.0329525"><ele>106.574103052221</ele><time>2022-12-25T04:02:59Z</time></trkpt><trkpt lat="34.0278083" lon="133.0331166"><ele>100.9359036756404</ele><time>2022-12-25T04:03:21Z</time></trkpt><trkpt lat="34.0279193" lon="133.0333007"><ele>92.2858660738935</ele><time>2022-12-25T04:03:51Z</time></trkpt><trkpt lat="34.0280219" lon="133.0334835"><ele>84.58966274115699</ele><time>2022-12-25T04:04:10Z</time></trkpt><trkpt lat="34.028208" lon="133.0335369"><ele>77.88959598948631</ele><time>2022-12-25T04:04:32Z</time></trkpt><trkpt lat="34.0283685" lon="133.0336383"><ele>72.08399357555354</ele><time>2022-12-25T04:04:51Z</time></trkpt><trkpt lat="34.0285218" lon="133.0337635"><ele>65.04182391270975</ele><time>2022-12-25T04:05:28Z</time></trkpt><trkpt lat="34.0286126" lon="133.0339589"><ele>56.46486229946939</ele><time>2022-12-25T04:05:56Z</time></trkpt><trkpt lat="34.0287158" lon="133.0341412"><ele>46.379150446198615</ele><time>2022-12-25T04:06:12Z</time></trkpt><trkpt lat="34.0287856" lon="133.0343554"><ele>39.5260565218139</ele><time>2022-12-25T04:06:27Z</time></trkpt><trkpt lat="34.0288903" lon="133.0345342"><ele>34.85151663966117</ele><time>2022-12-25T04:06:45Z</time></trkpt><trkpt lat="34.0289225" lon="133.0347516"><ele>31.088367160605944</ele><time>2022-12-25T04:07:01Z</time></trkpt><trkpt lat="34.0289152" lon="133.0349685"><ele>27.737003893236647</ele><time>2022-12-25T04:07:18Z</time></trkpt><trkpt lat="34.0289787" lon="133.0351862"><ele>25.23387013256907</ele><time>2022-12-25T04:07:37Z</time></trkpt><trkpt lat="34.0291167" lon="133.0353373"><ele>20.919539612241987</ele><time>2022-12-25T04:07:51Z</time></trkpt><trkpt lat="34.0291863" lon="133.0355484"><ele>14.13238216207415</ele><time>2022-12-25T04:08:02Z</time></trkpt><trkpt lat="34.0293596" lon="133.0356269"><ele>7.971485780867151</ele><time>2022-12-25T04:08:14Z</time></trkpt><trkpt lat="34.0295356" lon="133.0356783"><ele>5.326995124918807</ele><time>2022-12-25T04:08:28Z</time></trkpt><trkpt lat="34.0296794" lon="133.0358225"><ele>-18.37146529178556</ele><time>2022-12-25T04:08:45Z</time></trkpt></trkseg></trk></gpx>