<?xml version='1.0' encoding='UTF-8'?><gpx creator="YAMAP - https://yamap.com" xsi:schemaLocation="http://www.topografix.com/GPX/1/1 http://www.topografix.com/GPX/1/1/gpx.xsd" version="1.1" xmlns="http://www.topografix.com/GPX/1/1" xmlns:xsi="http://www.w3.org/2001/XMLSchema-instance"><metadata><bounds maxlat="33.5959052" maxlon="132.798511" minlat="33.5859883" minlon="132.7806606"/></metadata><trk><name>登議城山</name><number>1</number><trkseg><trkpt lat="33.5958509" lon="132.7856117"><ele>175.96</ele><time>2026-03-03T21:40:06Z</time></trkpt><trkpt lat="33.5956601" lon="132.785555"><ele>177.59</ele><time>2026-03-03T21:40:47Z</time></trkpt><trkpt lat="33.5954609" lon="132.7855252"><ele>179.42333333333332</ele><time>2026-03-03T21:41:10Z</time></trkpt><trkpt lat="33.5954437" lon="132.7857422"><ele>186.43999999999997</ele><time>2026-03-03T21:41:32Z</time></trkpt><trkpt lat="33.5956343" lon="132.7857871"><ele>190.85666666666668</ele><time>2026-03-03T21:41:51Z</time></trkpt><trkpt lat="33.5958519" lon="132.7858268"><ele>191.91333333333333</ele><time>2026-03-03T21:42:22Z</time></trkpt><trkpt lat="33.5959052" lon="132.7860345"><ele>188.20666666666668</ele><time>2026-03-03T21:42:37Z</time></trkpt><trkpt lat="33.5958154" lon="132.7862369"><ele>190.26333333333332</ele><time>2026-03-03T21:42:51Z</time></trkpt><trkpt lat="33.5957197" lon="132.7864294"><ele>194.62</ele><time>2026-03-03T21:43:08Z</time></trkpt><trkpt lat="33.5955636" lon="132.7865391"><ele>201.95000000000002</ele><time>2026-03-03T21:43:24Z</time></trkpt><trkpt lat="33.5955404" lon="132.7867682"><ele>203.91</ele><time>2026-03-03T21:44:05Z</time></trkpt><trkpt lat="33.5955382" lon="132.7869925"><ele>205.10666666666665</ele><time>2026-03-03T21:44:20Z</time></trkpt><trkpt lat="33.5954592" lon="132.7872016"><ele>207.73666666666668</ele><time>2026-03-03T21:44:34Z</time></trkpt><trkpt lat="33.5954163" lon="132.7874391"><ele>211.77666666666667</ele><time>2026-03-03T21:44:54Z</time></trkpt><trkpt lat="33.5954542" lon="132.7876637"><ele>216.29333333333332</ele><time>2026-03-03T21:45:11Z</time></trkpt><trkpt lat="33.5954461" lon="132.7878955"><ele>214.88333333333333</ele><time>2026-03-03T21:45:30Z</time></trkpt><trkpt lat="33.5953029" lon="132.7880598"><ele>214.81000000000003</ele><time>2026-03-03T21:46:18Z</time></trkpt><trkpt lat="33.5951595" lon="132.788199"><ele>217.33333333333334</ele><time>2026-03-03T21:46:33Z</time></trkpt><trkpt lat="33.5949722" lon="132.7882865"><ele>223.30000000000004</ele><time>2026-03-03T21:47:05Z</time></trkpt><trkpt lat="33.594847" lon="132.7884462"><ele>227.85666666666668</ele><time>2026-03-03T21:47:19Z</time></trkpt><trkpt lat="33.5946787" lon="132.788562"><ele>231.51999999999998</ele><time>2026-03-03T21:47:39Z</time></trkpt><trkpt lat="33.5945115" lon="132.7886867"><ele>234.89333333333335</ele><time>2026-03-03T21:47:59Z</time></trkpt><trkpt lat="33.5944764" lon="132.7889066"><ele>235.22000000000003</ele><time>2026-03-03T21:48:13Z</time></trkpt><trkpt lat="33.5943128" lon="132.7890401"><ele>236.6966666666667</ele><time>2026-03-03T21:48:33Z</time></trkpt><trkpt lat="33.594397" lon="132.789247"><ele>235.25666666666666</ele><time>2026-03-03T21:49:07Z</time></trkpt><trkpt lat="33.5945909" lon="132.7891941"><ele>236.22000000000003</ele><time>2026-03-03T21:49:22Z</time></trkpt><trkpt lat="33.5945949" lon="132.7894162"><ele>236.5</ele><time>2026-03-03T21:49:52Z</time></trkpt><trkpt lat="33.5945396" lon="132.7896475"><ele>241.60999999999999</ele><time>2026-03-03T21:50:09Z</time></trkpt><trkpt lat="33.5944713" lon="132.7898862"><ele>248.29</ele><time>2026-03-03T21:50:28Z</time></trkpt><trkpt lat="33.5943839" lon="132.7900772"><ele>254.75</ele><time>2026-03-03T21:50:43Z</time></trkpt><trkpt lat="33.5942478" lon="132.7898917"><ele>258.05333333333334</ele><time>2026-03-03T21:52:47Z</time></trkpt><trkpt lat="33.5941459" lon="132.7896891"><ele>263.2566666666667</ele><time>2026-03-03T21:53:17Z</time></trkpt><trkpt lat="33.5940378" lon="132.7894983"><ele>267.30333333333334</ele><time>2026-03-03T21:53:44Z</time></trkpt><trkpt lat="33.5939233" lon="132.7893158"><ele>274.43666666666667</ele><time>2026-03-03T21:54:09Z</time></trkpt><trkpt lat="33.5939487" lon="132.7895555"><ele>281.9866666666667</ele><time>2026-03-03T21:56:45Z</time></trkpt><trkpt lat="33.5938786" lon="132.789828"><ele>291.32</ele><time>2026-03-03T21:57:27Z</time></trkpt><trkpt lat="33.5937474" lon="132.7900043"><ele>297.5333333333333</ele><time>2026-03-03T21:58:09Z</time></trkpt><trkpt lat="33.5938093" lon="132.7902368"><ele>299.6066666666666</ele><time>2026-03-03T21:58:42Z</time></trkpt><trkpt lat="33.5938171" lon="132.7904525"><ele>298.31</ele><time>2026-03-03T21:58:59Z</time></trkpt><trkpt lat="33.5937599" lon="132.7906578"><ele>300.40333333333336</ele><time>2026-03-03T21:59:18Z</time></trkpt><trkpt lat="33.5936845" lon="132.7908689"><ele>305.95666666666665</ele><time>2026-03-03T21:59:45Z</time></trkpt><trkpt lat="33.5936659" lon="132.7910851"><ele>313.3566666666667</ele><time>2026-03-03T22:00:15Z</time></trkpt><trkpt lat="33.5934821" lon="132.7911049"><ele>320.1566666666667</ele><time>2026-03-03T22:03:25Z</time></trkpt><trkpt lat="33.5932881" lon="132.7911254"><ele>328.06666666666666</ele><time>2026-03-03T22:04:34Z</time></trkpt><trkpt lat="33.593109" lon="132.7910828"><ele>337.92</ele><time>2026-03-03T22:06:19Z</time></trkpt><trkpt lat="33.5930534" lon="132.7908464"><ele>346.72333333333336</ele><time>2026-03-03T22:07:41Z</time></trkpt><trkpt lat="33.5929856" lon="132.7906167"><ele>351.5133333333333</ele><time>2026-03-03T22:08:02Z</time></trkpt><trkpt lat="33.5927877" lon="132.7905082"><ele>355.53999999999996</ele><time>2026-03-03T22:08:24Z</time></trkpt><trkpt lat="33.5927372" lon="132.7902981"><ele>358.2266666666667</ele><time>2026-03-03T22:08:45Z</time></trkpt><trkpt lat="33.5928543" lon="132.7901258"><ele>359.0466666666667</ele><time>2026-03-03T22:09:16Z</time></trkpt><trkpt lat="33.5927779" lon="132.7899133"><ele>359.4766666666667</ele><time>2026-03-03T22:09:33Z</time></trkpt><trkpt lat="33.5926747" lon="132.7897164"><ele>360.16333333333336</ele><time>2026-03-03T22:09:48Z</time></trkpt><trkpt lat="33.592542" lon="132.7895367"><ele>363.91</ele><time>2026-03-03T22:10:06Z</time></trkpt><trkpt lat="33.5923654" lon="132.7894301"><ele>367.4533333333334</ele><time>2026-03-03T22:10:26Z</time></trkpt><trkpt lat="33.5924865" lon="132.7896275"><ele>369.67</ele><time>2026-03-03T22:11:17Z</time></trkpt><trkpt lat="33.5925669" lon="132.7898555"><ele>370.52</ele><time>2026-03-03T22:11:34Z</time></trkpt><trkpt lat="33.5924952" lon="132.7900659"><ele>371.41333333333336</ele><time>2026-03-03T22:11:51Z</time></trkpt><trkpt lat="33.5923287" lon="132.7902098"><ele>375.16333333333336</ele><time>2026-03-03T22:12:19Z</time></trkpt><trkpt lat="33.5923458" lon="132.7904253"><ele>379.00333333333333</ele><time>2026-03-03T22:13:44Z</time></trkpt><trkpt lat="33.5922625" lon="132.7906436"><ele>383.3433333333333</ele><time>2026-03-03T22:13:58Z</time></trkpt><trkpt lat="33.5922024" lon="132.7908483"><ele>387.06</ele><time>2026-03-03T22:14:16Z</time></trkpt><trkpt lat="33.5922104" lon="132.7910664"><ele>391.72</ele><time>2026-03-03T22:14:40Z</time></trkpt><trkpt lat="33.5922765" lon="132.7912823"><ele>393.1366666666666</ele><time>2026-03-03T22:15:03Z</time></trkpt><trkpt lat="33.5923225" lon="132.7915234"><ele>391.31666666666666</ele><time>2026-03-03T22:15:21Z</time></trkpt><trkpt lat="33.5921672" lon="132.7916844"><ele>392.9166666666667</ele><time>2026-03-03T22:15:39Z</time></trkpt><trkpt lat="33.5920288" lon="132.7918304"><ele>397.90333333333336</ele><time>2026-03-03T22:15:59Z</time></trkpt><trkpt lat="33.592034" lon="132.7920491"><ele>403.50666666666666</ele><time>2026-03-03T22:16:17Z</time></trkpt><trkpt lat="33.5920548" lon="132.7922991"><ele>405.30333333333334</ele><time>2026-03-03T22:16:39Z</time></trkpt><trkpt lat="33.5919249" lon="132.7924939"><ele>407.3533333333333</ele><time>2026-03-03T22:19:44Z</time></trkpt><trkpt lat="33.5917864" lon="132.7926645"><ele>413.59</ele><time>2026-03-03T22:20:52Z</time></trkpt><trkpt lat="33.5917603" lon="132.7929178"><ele>419.88000000000005</ele><time>2026-03-03T22:21:10Z</time></trkpt><trkpt lat="33.5917604" lon="132.7931346"><ele>421.67333333333335</ele><time>2026-03-03T22:21:40Z</time></trkpt><trkpt lat="33.5916505" lon="132.7933171"><ele>422.48333333333335</ele><time>2026-03-03T22:21:55Z</time></trkpt><trkpt lat="33.5916039" lon="132.7935417"><ele>420.52</ele><time>2026-03-03T22:22:13Z</time></trkpt><trkpt lat="33.591438" lon="132.7936525"><ele>424.53333333333336</ele><time>2026-03-03T22:22:37Z</time></trkpt><trkpt lat="33.5914572" lon="132.7934346"><ele>428.75666666666666</ele><time>2026-03-03T22:24:57Z</time></trkpt><trkpt lat="33.591265" lon="132.7934207"><ele>438.1166666666666</ele><time>2026-03-03T22:25:41Z</time></trkpt><trkpt lat="33.5910899" lon="132.7933446"><ele>447.81666666666666</ele><time>2026-03-03T22:28:42Z</time></trkpt><trkpt lat="33.5909568" lon="132.7934921"><ele>456.5466666666666</ele><time>2026-03-03T22:29:25Z</time></trkpt><trkpt lat="33.5907889" lon="132.793574"><ele>466.27</ele><time>2026-03-03T22:32:24Z</time></trkpt><trkpt lat="33.5906086" lon="132.7936275"><ele>474.6033333333333</ele><time>2026-03-03T22:33:18Z</time></trkpt><trkpt lat="33.5905514" lon="132.7934205"><ele>482.84666666666664</ele><time>2026-03-03T22:34:25Z</time></trkpt><trkpt lat="33.5903758" lon="132.7933251"><ele>492.1666666666667</ele><time>2026-03-03T22:37:19Z</time></trkpt><trkpt lat="33.5902104" lon="132.7931791"><ele>502.57</ele><time>2026-03-03T22:38:51Z</time></trkpt><trkpt lat="33.590035" lon="132.7930768"><ele>514.43</ele><time>2026-03-03T22:39:42Z</time></trkpt><trkpt lat="33.5898658" lon="132.7931734"><ele>523.73</ele><time>2026-03-03T22:42:35Z</time></trkpt><trkpt lat="33.5897075" lon="132.7933027"><ele>530.4866666666667</ele><time>2026-03-03T22:43:11Z</time></trkpt><trkpt lat="33.5895951" lon="132.7935052"><ele>534.0366666666667</ele><time>2026-03-03T22:44:05Z</time></trkpt><trkpt lat="33.5895253" lon="132.7937221"><ele>535.3266666666667</ele><time>2026-03-03T22:44:28Z</time></trkpt><trkpt lat="33.5894863" lon="132.7939349"><ele>536.7533333333333</ele><time>2026-03-03T22:44:51Z</time></trkpt><trkpt lat="33.5894436" lon="132.7941606"><ele>538.49</ele><time>2026-03-03T22:45:15Z</time></trkpt><trkpt lat="33.5893659" lon="132.7943771"><ele>539.7366666666667</ele><time>2026-03-03T22:45:39Z</time></trkpt><trkpt lat="33.5892914" lon="132.7946147"><ele>539.1666666666666</ele><time>2026-03-03T22:46:02Z</time></trkpt><trkpt lat="33.5892179" lon="132.794818"><ele>536.9499999999999</ele><time>2026-03-03T22:46:44Z</time></trkpt><trkpt lat="33.5891253" lon="132.7950112"><ele>536.0333333333333</ele><time>2026-03-03T22:47:59Z</time></trkpt><trkpt lat="33.5890363" lon="132.7952068"><ele>537.6866666666666</ele><time>2026-03-03T22:48:41Z</time></trkpt><trkpt lat="33.5889108" lon="132.7953647"><ele>544.3466666666667</ele><time>2026-03-03T22:49:20Z</time></trkpt><trkpt lat="33.5887432" lon="132.7954948"><ele>552.2299999999999</ele><time>2026-03-03T22:50:23Z</time></trkpt><trkpt lat="33.5885932" lon="132.7956288"><ele>559.65</ele><time>2026-03-03T22:50:59Z</time></trkpt><trkpt lat="33.5884347" lon="132.7957389"><ele>565.2166666666667</ele><time>2026-03-03T22:51:41Z</time></trkpt><trkpt lat="33.5882599" lon="132.7958213"><ele>569.7033333333333</ele><time>2026-03-03T22:52:08Z</time></trkpt><trkpt lat="33.588117" lon="132.7959744"><ele>574.32</ele><time>2026-03-03T22:52:38Z</time></trkpt><trkpt lat="33.58796" lon="132.7961023"><ele>578.5933333333334</ele><time>2026-03-03T22:53:29Z</time></trkpt><trkpt lat="33.5878086" lon="132.7962396"><ele>582.6033333333334</ele><time>2026-03-03T22:54:08Z</time></trkpt><trkpt lat="33.5877776" lon="132.7964579"><ele>587.7033333333334</ele><time>2026-03-03T22:55:53Z</time></trkpt><trkpt lat="33.5877309" lon="132.7966701"><ele>596.8100000000001</ele><time>2026-03-03T22:57:23Z</time></trkpt><trkpt lat="33.5877927" lon="132.7968833"><ele>609.37</ele><time>2026-03-03T22:58:28Z</time></trkpt><trkpt lat="33.5879347" lon="132.7970333"><ele>620.0400000000001</ele><time>2026-03-03T22:59:10Z</time></trkpt><trkpt lat="33.5880918" lon="132.7971419"><ele>624.1333333333333</ele><time>2026-03-03T22:59:37Z</time></trkpt><trkpt lat="33.5882922" lon="132.7971937"><ele>622.6433333333333</ele><time>2026-03-03T23:00:24Z</time></trkpt><trkpt lat="33.5884694" lon="132.7972621"><ele>617.8366666666667</ele><time>2026-03-03T23:01:30Z</time></trkpt><trkpt lat="33.5886668" lon="132.7972831"><ele>613.8033333333333</ele><time>2026-03-03T23:02:06Z</time></trkpt><trkpt lat="33.5888384" lon="132.7973555"><ele>611.6233333333333</ele><time>2026-03-03T23:02:32Z</time></trkpt><trkpt lat="33.5890082" lon="132.7974853"><ele>611.4966666666668</ele><time>2026-03-03T23:02:56Z</time></trkpt><trkpt lat="33.5891674" lon="132.7975998"><ele>611.8566666666667</ele><time>2026-03-03T23:03:16Z</time></trkpt><trkpt lat="33.5892785" lon="132.7977889"><ele>612.0266666666668</ele><time>2026-03-03T23:03:49Z</time></trkpt><trkpt lat="33.589422" lon="132.79794"><ele>613.7166666666667</ele><time>2026-03-03T23:04:16Z</time></trkpt><trkpt lat="33.5895757" lon="132.798092"><ele>617.2033333333334</ele><time>2026-03-03T23:05:04Z</time></trkpt><trkpt lat="33.5897421" lon="132.7982088"><ele>622.9866666666667</ele><time>2026-03-03T23:06:01Z</time></trkpt><trkpt lat="33.5898851" lon="132.7983689"><ele>629.4833333333335</ele><time>2026-03-03T23:06:48Z</time></trkpt><trkpt lat="33.5900615" lon="132.7984303"><ele>635.8033333333334</ele><time>2026-03-03T23:07:48Z</time></trkpt><trkpt lat="33.5902392" lon="132.798478"><ele>641.7166666666667</ele><time>2026-03-03T23:08:33Z</time></trkpt><trkpt lat="33.5904198" lon="132.7985012"><ele>647.0300000000001</ele><time>2026-03-03T23:09:00Z</time></trkpt><trkpt lat="33.590232" lon="132.798511"><ele>649.16</ele><time>2026-03-03T23:17:22Z</time></trkpt><trkpt lat="33.5900715" lon="132.7984009"><ele>647.0300000000001</ele><time>2026-03-03T23:18:12Z</time></trkpt><trkpt lat="33.5899458" lon="132.7982167"><ele>640.48</ele><time>2026-03-03T23:19:15Z</time></trkpt><trkpt lat="33.5897604" lon="132.7982188"><ele>634.5666666666667</ele><time>2026-03-03T23:19:45Z</time></trkpt><trkpt lat="33.589587" lon="132.7980922"><ele>628.2466666666668</ele><time>2026-03-03T23:20:17Z</time></trkpt><trkpt lat="33.5894175" lon="132.7979757"><ele>622.9866666666668</ele><time>2026-03-03T23:20:46Z</time></trkpt><trkpt lat="33.5892988" lon="132.7977778"><ele>617.2033333333334</ele><time>2026-03-03T23:21:07Z</time></trkpt><trkpt lat="33.5891716" lon="132.7975873"><ele>613.4166666666666</ele><time>2026-03-03T23:21:28Z</time></trkpt><trkpt lat="33.5890093" lon="132.7974567"><ele>611.7266666666668</ele><time>2026-03-03T23:21:45Z</time></trkpt><trkpt lat="33.5888436" lon="132.7973597"><ele>611.5566666666667</ele><time>2026-03-03T23:22:06Z</time></trkpt><trkpt lat="33.5886571" lon="132.7972636"><ele>611.4966666666668</ele><time>2026-03-03T23:22:29Z</time></trkpt><trkpt lat="33.5884674" lon="132.7972524"><ele>611.6233333333333</ele><time>2026-03-03T23:22:50Z</time></trkpt><trkpt lat="33.5882837" lon="132.7972409"><ele>613.8033333333333</ele><time>2026-03-03T23:23:23Z</time></trkpt><trkpt lat="33.5881195" lon="132.7971135"><ele>616.9266666666666</ele><time>2026-03-03T23:23:52Z</time></trkpt><trkpt lat="33.587934" lon="132.7970124"><ele>621.7333333333333</ele><time>2026-03-03T23:24:25Z</time></trkpt><trkpt lat="33.5877543" lon="132.7969674"><ele>625.2066666666666</ele><time>2026-03-03T23:25:34Z</time></trkpt><trkpt lat="33.5876266" lon="132.7971296"><ele>629.64</ele><time>2026-03-03T23:27:47Z</time></trkpt><trkpt lat="33.5874451" lon="132.7970707"><ele>631.2866666666667</ele><time>2026-03-03T23:28:29Z</time></trkpt><trkpt lat="33.5872702" lon="132.7969844"><ele>631.0233333333334</ele><time>2026-03-03T23:28:52Z</time></trkpt><trkpt lat="33.5871201" lon="132.7968386"><ele>627.26</ele><time>2026-03-03T23:29:10Z</time></trkpt><trkpt lat="33.5869456" lon="132.7966839"><ele>624.1866666666666</ele><time>2026-03-03T23:29:43Z</time></trkpt><trkpt lat="33.5868347" lon="132.7965129"><ele>622.5</ele><time>2026-03-03T23:30:25Z</time></trkpt><trkpt lat="33.5866914" lon="132.7963711"><ele>624.1166666666667</ele><time>2026-03-03T23:31:19Z</time></trkpt><trkpt lat="33.5865076" lon="132.7963174"><ele>626.0133333333333</ele><time>2026-03-03T23:31:43Z</time></trkpt><trkpt lat="33.586341" lon="132.7962253"><ele>626.23</ele><time>2026-03-03T23:32:40Z</time></trkpt><trkpt lat="33.5862999" lon="132.7959953"><ele>620.07</ele><time>2026-03-03T23:33:19Z</time></trkpt><trkpt lat="33.5861928" lon="132.7957963"><ele>611.0166666666667</ele><time>2026-03-03T23:34:04Z</time></trkpt><trkpt lat="33.5861295" lon="132.7955821"><ele>600.38</ele><time>2026-03-03T23:35:04Z</time></trkpt><trkpt lat="33.5860394" lon="132.7953949"><ele>593.4033333333333</ele><time>2026-03-03T23:35:40Z</time></trkpt><trkpt lat="33.5859883" lon="132.7951831"><ele>587.31</ele><time>2026-03-03T23:36:10Z</time></trkpt><trkpt lat="33.5860032" lon="132.7949664"><ele>581.8233333333333</ele><time>2026-03-03T23:36:37Z</time></trkpt><trkpt lat="33.5860385" lon="132.7947491"><ele>574.8833333333333</ele><time>2026-03-03T23:37:13Z</time></trkpt><trkpt lat="33.5861154" lon="132.7945504"><ele>566.67</ele><time>2026-03-03T23:37:49Z</time></trkpt><trkpt lat="33.5861961" lon="132.7943498"><ele>558.5699999999999</ele><time>2026-03-03T23:38:19Z</time></trkpt><trkpt lat="33.5862929" lon="132.7941373"><ele>550.3933333333333</ele><time>2026-03-03T23:38:49Z</time></trkpt><trkpt lat="33.5863926" lon="132.793947"><ele>541.64</ele><time>2026-03-03T23:40:21Z</time></trkpt><trkpt lat="33.5865123" lon="132.7937462"><ele>532.5466666666666</ele><time>2026-03-03T23:40:45Z</time></trkpt><trkpt lat="33.5864953" lon="132.793522"><ele>525.38</ele><time>2026-03-03T23:41:09Z</time></trkpt><trkpt lat="33.5865451" lon="132.7932874"><ele>520.4599999999999</ele><time>2026-03-03T23:41:30Z</time></trkpt><trkpt lat="33.5865697" lon="132.7930665"><ele>517.8833333333333</ele><time>2026-03-03T23:42:00Z</time></trkpt><trkpt lat="33.5866265" lon="132.7928405"><ele>515.4966666666667</ele><time>2026-03-03T23:42:30Z</time></trkpt><trkpt lat="33.5866488" lon="132.7926226"><ele>513.64</ele><time>2026-03-03T23:42:47Z</time></trkpt><trkpt lat="33.5866057" lon="132.7924125"><ele>509.71000000000004</ele><time>2026-03-03T23:43:23Z</time></trkpt><trkpt lat="33.5865971" lon="132.7921894"><ele>504.2366666666667</ele><time>2026-03-03T23:44:05Z</time></trkpt><trkpt lat="33.586616" lon="132.7919614"><ele>495.79333333333335</ele><time>2026-03-03T23:44:38Z</time></trkpt><trkpt lat="33.5867119" lon="132.791775"><ele>487.19000000000005</ele><time>2026-03-03T23:45:08Z</time></trkpt><trkpt lat="33.5867262" lon="132.791549"><ele>476.40000000000003</ele><time>2026-03-03T23:46:23Z</time></trkpt><trkpt lat="33.5868273" lon="132.7913509"><ele>465.8433333333333</ele><time>2026-03-03T23:47:20Z</time></trkpt><trkpt lat="33.5869856" lon="132.7912373"><ele>455.45666666666665</ele><time>2026-03-03T23:48:38Z</time></trkpt><trkpt lat="33.5870661" lon="132.7910434"><ele>444.1966666666667</ele><time>2026-03-03T23:50:05Z</time></trkpt><trkpt lat="33.5871873" lon="132.7912301"><ele>436.2966666666666</ele><time>2026-03-03T23:50:41Z</time></trkpt><trkpt lat="33.5873721" lon="132.7911976"><ele>427.82</ele><time>2026-03-03T23:51:08Z</time></trkpt><trkpt lat="33.5875472" lon="132.7912978"><ele>422.67</ele><time>2026-03-03T23:51:17Z</time></trkpt><trkpt lat="33.5877026" lon="132.7914321"><ele>417.22333333333336</ele><time>2026-03-03T23:51:29Z</time></trkpt><trkpt lat="33.5879104" lon="132.7914025"><ele>411.6566666666667</ele><time>2026-03-03T23:51:50Z</time></trkpt><trkpt lat="33.5878979" lon="132.7911572"><ele>408.2733333333333</ele><time>2026-03-03T23:52:08Z</time></trkpt><trkpt lat="33.5877856" lon="132.7909386"><ele>402.93666666666667</ele><time>2026-03-03T23:52:23Z</time></trkpt><trkpt lat="33.5877809" lon="132.7906861"><ele>400.18</ele><time>2026-03-03T23:52:38Z</time></trkpt><trkpt lat="33.5877733" lon="132.7904329"><ele>397.2733333333333</ele><time>2026-03-03T23:52:53Z</time></trkpt><trkpt lat="33.58772" lon="132.7901815"><ele>395.9666666666667</ele><time>2026-03-03T23:53:08Z</time></trkpt><trkpt lat="33.5876104" lon="132.7899689"><ele>393.92333333333335</ele><time>2026-03-03T23:53:23Z</time></trkpt><trkpt lat="33.5875373" lon="132.7897362"><ele>390.9666666666667</ele><time>2026-03-03T23:53:38Z</time></trkpt><trkpt lat="33.587481" lon="132.7895117"><ele>388.32</ele><time>2026-03-03T23:53:53Z</time></trkpt><trkpt lat="33.5874449" lon="132.789284"><ele>386.45666666666665</ele><time>2026-03-03T23:54:08Z</time></trkpt><trkpt lat="33.5873867" lon="132.7890519"><ele>385.86666666666673</ele><time>2026-03-03T23:54:23Z</time></trkpt><trkpt lat="33.5873333" lon="132.788817"><ele>384.83666666666664</ele><time>2026-03-03T23:54:38Z</time></trkpt><trkpt lat="33.5873525" lon="132.7885962"><ele>384.1133333333334</ele><time>2026-03-03T23:55:08Z</time></trkpt><trkpt lat="33.5874541" lon="132.7883873"><ele>381.1966666666667</ele><time>2026-03-03T23:55:23Z</time></trkpt><trkpt lat="33.5875396" lon="132.7881823"><ele>378.73</ele><time>2026-03-03T23:55:38Z</time></trkpt><trkpt lat="33.5875197" lon="132.7879383"><ele>375.3433333333333</ele><time>2026-03-03T23:55:53Z</time></trkpt><trkpt lat="33.5874896" lon="132.7877142"><ele>373.60999999999996</ele><time>2026-03-03T23:56:07Z</time></trkpt><trkpt lat="33.5874967" lon="132.7874843"><ele>370.19</ele><time>2026-03-03T23:56:22Z</time></trkpt><trkpt lat="33.5875477" lon="132.7872598"><ele>367.96000000000004</ele><time>2026-03-03T23:56:37Z</time></trkpt><trkpt lat="33.5874786" lon="132.7870441"><ele>364.25</ele><time>2026-03-03T23:56:52Z</time></trkpt><trkpt lat="33.5874504" lon="132.7868056"><ele>359.94000000000005</ele><time>2026-03-03T23:57:07Z</time></trkpt><trkpt lat="33.5874481" lon="132.7865845"><ele>355.52666666666664</ele><time>2026-03-03T23:57:25Z</time></trkpt><trkpt lat="33.5873398" lon="132.7864013"><ele>352.41</ele><time>2026-03-03T23:57:37Z</time></trkpt><trkpt lat="33.5872603" lon="132.7861766"><ele>350.89000000000004</ele><time>2026-03-03T23:57:52Z</time></trkpt><trkpt lat="33.5873313" lon="132.7859392"><ele>348.21999999999997</ele><time>2026-03-03T23:58:07Z</time></trkpt><trkpt lat="33.5874435" lon="132.78577"><ele>345.5033333333334</ele><time>2026-03-03T23:58:22Z</time></trkpt><trkpt lat="33.5873425" lon="132.7855411"><ele>340.5833333333333</ele><time>2026-03-03T23:58:40Z</time></trkpt><trkpt lat="33.5873303" lon="132.7853112"><ele>336.61000000000007</ele><time>2026-03-03T23:58:52Z</time></trkpt><trkpt lat="33.5873566" lon="132.785098"><ele>332.4166666666667</ele><time>2026-03-03T23:59:04Z</time></trkpt><trkpt lat="33.587362" lon="132.7848524"><ele>329.93</ele><time>2026-03-03T23:59:22Z</time></trkpt><trkpt lat="33.5873153" lon="132.7845951"><ele>326.59</ele><time>2026-03-03T23:59:37Z</time></trkpt><trkpt lat="33.5871874" lon="132.7843872"><ele>321.42</ele><time>2026-03-03T23:59:51Z</time></trkpt><trkpt lat="33.5871497" lon="132.7841213"><ele>317.34</ele><time>2026-03-04T00:00:18Z</time></trkpt><trkpt lat="33.5871545" lon="132.7838861"><ele>314.3033333333333</ele><time>2026-03-04T00:00:33Z</time></trkpt><trkpt lat="33.5872411" lon="132.7836465"><ele>313.5933333333333</ele><time>2026-03-04T00:00:48Z</time></trkpt><trkpt lat="33.5872928" lon="132.7834121"><ele>311.9066666666667</ele><time>2026-03-04T00:01:03Z</time></trkpt><trkpt lat="33.5872717" lon="132.783156"><ele>309.96666666666664</ele><time>2026-03-04T00:01:18Z</time></trkpt><trkpt lat="33.5872498" lon="132.7829039"><ele>308.2733333333333</ele><time>2026-03-04T00:01:33Z</time></trkpt><trkpt lat="33.5872389" lon="132.7826464"><ele>307.8733333333333</ele><time>2026-03-04T00:01:48Z</time></trkpt><trkpt lat="33.5872384" lon="132.7823879"><ele>306.58</ele><time>2026-03-04T00:02:03Z</time></trkpt><trkpt lat="33.5873229" lon="132.7821509"><ele>306.1266666666667</ele><time>2026-03-04T00:02:18Z</time></trkpt><trkpt lat="33.587423" lon="132.7819135"><ele>304.7933333333333</ele><time>2026-03-04T00:02:33Z</time></trkpt><trkpt lat="33.5874088" lon="132.781659"><ele>302.29</ele><time>2026-03-04T00:02:48Z</time></trkpt><trkpt lat="33.5874026" lon="132.7814115"><ele>298.4766666666667</ele><time>2026-03-04T00:03:03Z</time></trkpt><trkpt lat="33.5874879" lon="132.7811998"><ele>296.0133333333333</ele><time>2026-03-04T00:03:18Z</time></trkpt><trkpt lat="33.5876587" lon="132.7811203"><ele>296.56666666666666</ele><time>2026-03-04T00:03:33Z</time></trkpt><trkpt lat="33.5877921" lon="132.7809538"><ele>296.8433333333333</ele><time>2026-03-04T00:03:48Z</time></trkpt><trkpt lat="33.5879316" lon="132.7807637"><ele>295.03999999999996</ele><time>2026-03-04T00:04:03Z</time></trkpt><trkpt lat="33.5881201" lon="132.7806606"><ele>290.5566666666666</ele><time>2026-03-04T00:04:18Z</time></trkpt><trkpt lat="33.5883138" lon="132.7807415"><ele>286.18</ele><time>2026-03-04T00:04:36Z</time></trkpt><trkpt lat="33.5883359" lon="132.7810121"><ele>284.3</ele><time>2026-03-04T00:04:54Z</time></trkpt><trkpt lat="33.5883588" lon="132.781259"><ele>284.5533333333333</ele><time>2026-03-04T00:05:09Z</time></trkpt><trkpt lat="33.5883463" lon="132.7814835"><ele>285.56666666666666</ele><time>2026-03-04T00:05:24Z</time></trkpt><trkpt lat="33.5883512" lon="132.7817158"><ele>286.1033333333333</ele><time>2026-03-04T00:05:36Z</time></trkpt><trkpt lat="33.5884065" lon="132.7819567"><ele>285.1666666666667</ele><time>2026-03-04T00:05:51Z</time></trkpt><trkpt lat="33.5885406" lon="132.7818072"><ele>281.44666666666666</ele><time>2026-03-04T00:06:12Z</time></trkpt><trkpt lat="33.5885235" lon="132.7815706"><ele>278.8733333333333</ele><time>2026-03-04T00:06:27Z</time></trkpt><trkpt lat="33.5885235" lon="132.7813384"><ele>277.83666666666664</ele><time>2026-03-04T00:06:39Z</time></trkpt><trkpt lat="33.5886655" lon="132.7814796"><ele>277.20000000000005</ele><time>2026-03-04T00:06:57Z</time></trkpt><trkpt lat="33.5886969" lon="132.7817154"><ele>273.7</ele><time>2026-03-04T00:07:12Z</time></trkpt><trkpt lat="33.5887854" lon="132.7819327"><ele>268.94</ele><time>2026-03-04T00:07:30Z</time></trkpt><trkpt lat="33.5889437" lon="132.7820482"><ele>264.3633333333333</ele><time>2026-03-04T00:07:45Z</time></trkpt><trkpt lat="33.5891139" lon="132.7821496"><ele>257.68666666666667</ele><time>2026-03-04T00:07:57Z</time></trkpt><trkpt lat="33.5892981" lon="132.7822357"><ele>251.28333333333333</ele><time>2026-03-04T00:08:11Z</time></trkpt><trkpt lat="33.589481" lon="132.7823205"><ele>246.82333333333335</ele><time>2026-03-04T00:08:29Z</time></trkpt><trkpt lat="33.5896772" lon="132.7824113"><ele>245.91333333333333</ele><time>2026-03-04T00:08:47Z</time></trkpt><trkpt lat="33.589871" lon="132.7824451"><ele>244.4466666666667</ele><time>2026-03-04T00:08:59Z</time></trkpt><trkpt lat="33.5900471" lon="132.7825234"><ele>241.01999999999998</ele><time>2026-03-04T00:09:17Z</time></trkpt><trkpt lat="33.5902142" lon="132.7826892"><ele>238.19000000000003</ele><time>2026-03-04T00:09:35Z</time></trkpt><trkpt lat="33.5903512" lon="132.7828685"><ele>237.11333333333334</ele><time>2026-03-04T00:09:50Z</time></trkpt><trkpt lat="33.5905001" lon="132.7830253"><ele>237.35666666666665</ele><time>2026-03-04T00:10:02Z</time></trkpt><trkpt lat="33.590648" lon="132.7832137"><ele>234.5</ele><time>2026-03-04T00:10:16Z</time></trkpt><trkpt lat="33.5908091" lon="132.7833304"><ele>229.62</ele><time>2026-03-04T00:10:28Z</time></trkpt><trkpt lat="33.5910022" lon="132.7834475"><ele>223.47333333333336</ele><time>2026-03-04T00:10:40Z</time></trkpt><trkpt lat="33.5911455" lon="132.7835787"><ele>219.14666666666668</ele><time>2026-03-04T00:10:52Z</time></trkpt><trkpt lat="33.5912865" lon="132.7837577"><ele>216.6933333333333</ele><time>2026-03-04T00:11:04Z</time></trkpt><trkpt lat="33.5914227" lon="132.7839233"><ele>214.72</ele><time>2026-03-04T00:11:16Z</time></trkpt><trkpt lat="33.5915933" lon="132.7840118"><ele>210.62666666666667</ele><time>2026-03-04T00:11:31Z</time></trkpt><trkpt lat="33.5917655" lon="132.7841026"><ele>203.4466666666667</ele><time>2026-03-04T00:11:46Z</time></trkpt><trkpt lat="33.5919192" lon="132.7842268"><ele>197.87333333333333</ele><time>2026-03-04T00:12:01Z</time></trkpt><trkpt lat="33.592086" lon="132.7843396"><ele>195.08333333333334</ele><time>2026-03-04T00:12:13Z</time></trkpt><trkpt lat="33.5922608" lon="132.7844593"><ele>195.17</ele><time>2026-03-04T00:12:28Z</time></trkpt><trkpt lat="33.5923736" lon="132.7846355"><ele>195.9</ele><time>2026-03-04T00:12:40Z</time></trkpt><trkpt lat="33.5925178" lon="132.7848211"><ele>196.45000000000002</ele><time>2026-03-04T00:12:55Z</time></trkpt><trkpt lat="33.5926589" lon="132.7849639"><ele>196.30000000000004</ele><time>2026-03-04T00:13:07Z</time></trkpt><trkpt lat="33.5928411" lon="132.7849354"><ele>194.08333333333334</ele><time>2026-03-04T00:13:22Z</time></trkpt><trkpt lat="33.5928869" lon="132.7847051"><ele>190.1</ele><time>2026-03-04T00:13:37Z</time></trkpt><trkpt lat="33.5930043" lon="132.7845226"><ele>185.0666666666667</ele><time>2026-03-04T00:13:52Z</time></trkpt><trkpt lat="33.5931772" lon="132.7844232"><ele>180.32666666666668</ele><time>2026-03-04T00:14:07Z</time></trkpt><trkpt lat="33.5933862" lon="132.7843763"><ele>177.35000000000002</ele><time>2026-03-04T00:14:25Z</time></trkpt><trkpt lat="33.5935714" lon="132.7843841"><ele>174.83666666666667</ele><time>2026-03-04T00:14:40Z</time></trkpt><trkpt lat="33.5937556" lon="132.784483"><ele>172.36666666666667</ele><time>2026-03-04T00:15:01Z</time></trkpt><trkpt lat="33.5939512" lon="132.7845964"><ele>170.59333333333333</ele><time>2026-03-04T00:15:16Z</time></trkpt><trkpt lat="33.5941605" lon="132.784685"><ele>171.14000000000001</ele><time>2026-03-04T00:15:31Z</time></trkpt><trkpt lat="33.5943425" lon="132.7847176"><ele>173.87</ele><time>2026-03-04T00:15:43Z</time></trkpt><trkpt lat="33.5945406" lon="132.7847108"><ele>174.24666666666667</ele><time>2026-03-04T00:15:55Z</time></trkpt><trkpt lat="33.5947427" lon="132.784779"><ele>172.51999999999998</ele><time>2026-03-04T00:16:10Z</time></trkpt><trkpt lat="33.5949222" lon="132.7849174"><ele>171.86666666666665</ele><time>2026-03-04T00:16:25Z</time></trkpt><trkpt lat="33.5950646" lon="132.7850726"><ele>173.63</ele><time>2026-03-04T00:16:43Z</time></trkpt><trkpt lat="33.5952168" lon="132.7852462"><ele>176.82666666666668</ele><time>2026-03-04T00:17:01Z</time></trkpt><trkpt lat="33.5954079" lon="132.7853169"><ele>177.33333333333334</ele><time>2026-03-04T00:17:22Z</time></trkpt><trkpt lat="33.5956078" lon="132.7853952"><ele>176.17333333333332</ele><time>2026-03-04T00:17:34Z</time></trkpt><trkpt lat="33.5957725" lon="132.7855189"><ele>175.20333333333335</ele><time>2026-03-04T00:17:49Z</time></trkpt></trkseg></trk></gpx>