<?xml version='1.0' encoding='UTF-8'?><gpx creator="YAMAP - https://yamap.com" xsi:schemaLocation="http://www.topografix.com/GPX/1/1 http://www.topografix.com/GPX/1/1/gpx.xsd" version="1.1" xmlns="http://www.topografix.com/GPX/1/1" xmlns:xsi="http://www.w3.org/2001/XMLSchema-instance"><metadata><bounds maxlat="34.2620075" maxlon="133.1497828" minlat="34.2543434" minlon="133.1443471"/></metadata><trk><name>積善山</name><number>1</number><trkseg><trkpt lat="34.2620075" lon="133.1467464"><ele>154.80493802348263</ele><time>2022-06-18T02:15:18Z</time></trkpt><trkpt lat="34.2618611" lon="133.1468917"><ele>155.75859791145552</ele><time>2022-06-18T02:15:44Z</time></trkpt><trkpt lat="34.2619767" lon="133.146724"><ele>155.1920054691672</ele><time>2022-06-18T02:15:57Z</time></trkpt><trkpt lat="34.2618177" lon="133.1468319"><ele>155.37027642737763</ele><time>2022-06-18T02:17:18Z</time></trkpt><trkpt lat="34.2616259" lon="133.1468547"><ele>155.85034724905174</ele><time>2022-06-18T02:17:38Z</time></trkpt><trkpt lat="34.2614425" lon="133.1468871"><ele>156.76789226179383</ele><time>2022-06-18T02:17:49Z</time></trkpt><trkpt lat="34.2612532" lon="133.1468569"><ele>158.35699100657231</ele><time>2022-06-18T02:18:05Z</time></trkpt><trkpt lat="34.2610719" lon="133.1468976"><ele>159.08943604680857</ele><time>2022-06-18T02:18:20Z</time></trkpt><trkpt lat="34.2608947" lon="133.1469795"><ele>160.3484635624657</ele><time>2022-06-18T02:18:35Z</time></trkpt><trkpt lat="34.2607114" lon="133.1470451"><ele>162.87393326850471</ele><time>2022-06-18T02:18:51Z</time></trkpt><trkpt lat="34.2605225" lon="133.1470064"><ele>164.27030472607092</ele><time>2022-06-18T02:19:05Z</time></trkpt><trkpt lat="34.2603484" lon="133.1469285"><ele>167.46005660714957</ele><time>2022-06-18T02:19:17Z</time></trkpt><trkpt lat="34.2601781" lon="133.1468466"><ele>168.14423600534906</ele><time>2022-06-18T02:19:31Z</time></trkpt><trkpt lat="34.2600023" lon="133.1469176"><ele>170.4886555732466</ele><time>2022-06-18T02:19:49Z</time></trkpt><trkpt lat="34.2598257" lon="133.1469846"><ele>171.0458350660045</ele><time>2022-06-18T02:20:03Z</time></trkpt><trkpt lat="34.2596399" lon="133.1470139"><ele>172.54859548066852</ele><time>2022-06-18T02:20:19Z</time></trkpt><trkpt lat="34.2594793" lon="133.1471194"><ele>173.8227301152796</ele><time>2022-06-18T02:20:50Z</time></trkpt><trkpt lat="34.2596095" lon="133.1472841"><ele>176.29605041468065</ele><time>2022-06-18T02:21:35Z</time></trkpt><trkpt lat="34.2597712" lon="133.1473909"><ele>176.96654681584218</ele><time>2022-06-18T02:21:52Z</time></trkpt><trkpt lat="34.2599255" lon="133.1475089"><ele>178.47241908081594</ele><time>2022-06-18T02:22:09Z</time></trkpt><trkpt lat="34.2600623" lon="133.1476647"><ele>178.65666281086087</ele><time>2022-06-18T02:22:23Z</time></trkpt><trkpt lat="34.2602379" lon="133.1477216"><ele>181.95895667060304</ele><time>2022-06-18T02:22:55Z</time></trkpt><trkpt lat="34.2602687" lon="133.1479379"><ele>184.2480693338833</ele><time>2022-06-18T02:23:06Z</time></trkpt><trkpt lat="34.2600808" lon="133.1479935"><ele>187.59230969008595</ele><time>2022-06-18T02:23:18Z</time></trkpt><trkpt lat="34.259944" lon="133.1478449"><ele>188.355484882915</ele><time>2022-06-18T02:23:31Z</time></trkpt><trkpt lat="34.259784" lon="133.1477382"><ele>189.29223296426588</ele><time>2022-06-18T02:23:49Z</time></trkpt><trkpt lat="34.2596117" lon="133.1478104"><ele>189.214673142157</ele><time>2022-06-18T02:24:33Z</time></trkpt><trkpt lat="34.2594999" lon="133.1476302"><ele>190.71643471967536</ele><time>2022-06-18T02:24:45Z</time></trkpt><trkpt lat="34.2593481" lon="133.1474955"><ele>192.37988822505622</ele><time>2022-06-18T02:25:01Z</time></trkpt><trkpt lat="34.2591726" lon="133.1475459"><ele>194.54877835476046</ele><time>2022-06-18T02:25:18Z</time></trkpt><trkpt lat="34.2589903" lon="133.1474845"><ele>195.8613113970293</ele><time>2022-06-18T02:25:32Z</time></trkpt><trkpt lat="34.2588496" lon="133.1473158"><ele>197.92078659275555</ele><time>2022-06-18T02:25:48Z</time></trkpt><trkpt lat="34.2587109" lon="133.1471659"><ele>199.3212927015695</ele><time>2022-06-18T02:26:05Z</time></trkpt><trkpt lat="34.2585563" lon="133.1470467"><ele>200.537710356517</ele><time>2022-06-18T02:26:19Z</time></trkpt><trkpt lat="34.2585787" lon="133.1468226"><ele>200.5236061943573</ele><time>2022-06-18T02:26:30Z</time></trkpt><trkpt lat="34.258733" lon="133.1467032"><ele>201.31161878820686</ele><time>2022-06-18T02:26:39Z</time></trkpt><trkpt lat="34.2588789" lon="133.1465604"><ele>201.4791972597333</ele><time>2022-06-18T02:26:53Z</time></trkpt><trkpt lat="34.2589909" lon="133.1463866"><ele>203.43321075796734</ele><time>2022-06-18T02:27:38Z</time></trkpt><trkpt lat="34.2591549" lon="133.1462843"><ele>204.63271411769233</ele><time>2022-06-18T02:27:52Z</time></trkpt><trkpt lat="34.2593075" lon="133.1461665"><ele>207.3852916892146</ele><time>2022-06-18T02:28:12Z</time></trkpt><trkpt lat="34.2591621" lon="133.1460304"><ele>209.0567537626018</ele><time>2022-06-18T02:28:24Z</time></trkpt><trkpt lat="34.2589862" lon="133.146082"><ele>211.99632785375465</ele><time>2022-06-18T02:28:38Z</time></trkpt><trkpt lat="34.2588119" lon="133.1461543"><ele>213.82940165071318</ele><time>2022-06-18T02:28:55Z</time></trkpt><trkpt lat="34.2586291" lon="133.1461572"><ele>215.16769174114197</ele><time>2022-06-18T02:29:10Z</time></trkpt><trkpt lat="34.2585057" lon="133.1459935"><ele>216.73709920317265</ele><time>2022-06-18T02:29:23Z</time></trkpt><trkpt lat="34.2585823" lon="133.1457873"><ele>218.99586119410526</ele><time>2022-06-18T02:29:37Z</time></trkpt><trkpt lat="34.2587344" lon="133.1456539"><ele>220.13691403420407</ele><time>2022-06-18T02:29:52Z</time></trkpt><trkpt lat="34.258605" lon="133.1454849"><ele>220.85758936835418</ele><time>2022-06-18T02:30:03Z</time></trkpt><trkpt lat="34.2584235" lon="133.1454369"><ele>220.87120667366108</ele><time>2022-06-18T02:30:15Z</time></trkpt><trkpt lat="34.2582473" lon="133.145374"><ele>222.82017862610016</ele><time>2022-06-18T02:30:29Z</time></trkpt><trkpt lat="34.258069" lon="133.1454174"><ele>224.65156839211977</ele><time>2022-06-18T02:30:49Z</time></trkpt><trkpt lat="34.2579379" lon="133.1455716"><ele>226.7250232107349</ele><time>2022-06-18T02:31:07Z</time></trkpt><trkpt lat="34.2577782" lon="133.1456797"><ele>228.3629818373263</ele><time>2022-06-18T02:31:22Z</time></trkpt><trkpt lat="34.2576077" lon="133.1457987"><ele>229.77125008194184</ele><time>2022-06-18T02:31:39Z</time></trkpt><trkpt lat="34.2574134" lon="133.1458172"><ele>232.3618822305151</ele><time>2022-06-18T02:31:54Z</time></trkpt><trkpt lat="34.2572887" lon="133.1456512"><ele>234.11317683118702</ele><time>2022-06-18T02:32:07Z</time></trkpt><trkpt lat="34.2573266" lon="133.1454332"><ele>236.010340695712</ele><time>2022-06-18T02:34:28Z</time></trkpt><trkpt lat="34.2572965" lon="133.1452137"><ele>237.15473800115174</ele><time>2022-06-18T02:34:52Z</time></trkpt><trkpt lat="34.2571461" lon="133.1450902"><ele>239.414756056107</ele><time>2022-06-18T02:35:08Z</time></trkpt><trkpt lat="34.2569674" lon="133.1450412"><ele>240.65050739253513</ele><time>2022-06-18T02:35:19Z</time></trkpt><trkpt lat="34.2567844" lon="133.145072"><ele>242.54481366422343</ele><time>2022-06-18T02:35:36Z</time></trkpt><trkpt lat="34.2566843" lon="133.144885"><ele>243.03758250388304</ele><time>2022-06-18T02:35:49Z</time></trkpt><trkpt lat="34.2568436" lon="133.1450089"><ele>245.77678473923478</ele><time>2022-06-18T02:36:24Z</time></trkpt><trkpt lat="34.2570204" lon="133.1450571"><ele>248.40001065462397</ele><time>2022-06-18T02:36:38Z</time></trkpt><trkpt lat="34.25713" lon="133.1452336"><ele>251.03969851226643</ele><time>2022-06-18T02:36:54Z</time></trkpt><trkpt lat="34.2569772" lon="133.1453543"><ele>253.45820845811633</ele><time>2022-06-18T02:37:05Z</time></trkpt><trkpt lat="34.2567953" lon="133.1453292"><ele>254.7063921818951</ele><time>2022-06-18T02:37:34Z</time></trkpt><trkpt lat="34.2566376" lon="133.1454365"><ele>257.5668862280725</ele><time>2022-06-18T02:37:46Z</time></trkpt><trkpt lat="34.256476" lon="133.1455702"><ele>259.10049884678074</ele><time>2022-06-18T02:38:01Z</time></trkpt><trkpt lat="34.256303" lon="133.1454896"><ele>260.904745056021</ele><time>2022-06-18T02:38:13Z</time></trkpt><trkpt lat="34.2561213" lon="133.1454493"><ele>261.40255961495745</ele><time>2022-06-18T02:38:28Z</time></trkpt><trkpt lat="34.2559824" lon="133.1455915"><ele>263.8779499471597</ele><time>2022-06-18T02:38:45Z</time></trkpt><trkpt lat="34.2557904" lon="133.1455917"><ele>265.0463421611425</ele><time>2022-06-18T02:39:01Z</time></trkpt><trkpt lat="34.2556419" lon="133.1454653"><ele>266.6469310015062</ele><time>2022-06-18T02:39:13Z</time></trkpt><trkpt lat="34.2555465" lon="133.1452702"><ele>266.285838637227</ele><time>2022-06-18T02:39:25Z</time></trkpt><trkpt lat="34.2555723" lon="133.1450329"><ele>267.00971290962156</ele><time>2022-06-18T02:39:36Z</time></trkpt><trkpt lat="34.2555322" lon="133.1448162"><ele>265.94649455312793</ele><time>2022-06-18T02:39:50Z</time></trkpt><trkpt lat="34.2553555" lon="133.1447674"><ele>268.2484173837942</ele><time>2022-06-18T02:40:04Z</time></trkpt><trkpt lat="34.2551799" lon="133.1448475"><ele>270.58050443631987</ele><time>2022-06-18T02:40:19Z</time></trkpt><trkpt lat="34.2550282" lon="133.1449663"><ele>274.56818259020105</ele><time>2022-06-18T02:40:33Z</time></trkpt><trkpt lat="34.254836" lon="133.1450234"><ele>276.05231825111974</ele><time>2022-06-18T02:40:47Z</time></trkpt><trkpt lat="34.2546752" lon="133.1449144"><ele>278.3616962272535</ele><time>2022-06-18T02:40:59Z</time></trkpt><trkpt lat="34.254534" lon="133.1447703"><ele>278.60640017573314</ele><time>2022-06-18T02:41:11Z</time></trkpt><trkpt lat="34.2545309" lon="133.1445416"><ele>279.55541408538465</ele><time>2022-06-18T02:41:22Z</time></trkpt><trkpt lat="34.2544412" lon="133.1443471"><ele>279.47824006993574</ele><time>2022-06-18T02:41:37Z</time></trkpt><trkpt lat="34.2544816" lon="133.144576"><ele>282.22694030759175</ele><time>2022-06-18T02:41:52Z</time></trkpt><trkpt lat="34.254509" lon="133.1447923"><ele>283.0862574088006</ele><time>2022-06-18T02:42:16Z</time></trkpt><trkpt lat="34.254623" lon="133.1449638"><ele>285.32273534705905</ele><time>2022-06-18T02:42:26Z</time></trkpt><trkpt lat="34.2547521" lon="133.1451261"><ele>286.5841339441531</ele><time>2022-06-18T02:42:40Z</time></trkpt><trkpt lat="34.254907" lon="133.1452426"><ele>288.2815958906751</ele><time>2022-06-18T02:42:54Z</time></trkpt><trkpt lat="34.2550812" lon="133.1451733"><ele>290.4779425054884</ele><time>2022-06-18T02:43:08Z</time></trkpt><trkpt lat="34.2552378" lon="133.1452838"><ele>292.26605520568495</ele><time>2022-06-18T02:43:22Z</time></trkpt><trkpt lat="34.2552697" lon="133.1455156"><ele>293.15657707998463</ele><time>2022-06-18T02:43:34Z</time></trkpt><trkpt lat="34.2553176" lon="133.1457327"><ele>292.87157941593745</ele><time>2022-06-18T02:43:48Z</time></trkpt><trkpt lat="34.2554285" lon="133.1459259"><ele>293.7103036823448</ele><time>2022-06-18T02:44:04Z</time></trkpt><trkpt lat="34.2556004" lon="133.1459918"><ele>295.75748738440615</ele><time>2022-06-18T02:44:22Z</time></trkpt><trkpt lat="34.2556228" lon="133.1462091"><ele>297.1168024775565</ele><time>2022-06-18T02:44:58Z</time></trkpt><trkpt lat="34.2557203" lon="133.146394"><ele>298.4574086384594</ele><time>2022-06-18T02:45:25Z</time></trkpt><trkpt lat="34.2558792" lon="133.1465029"><ele>300.6521523915197</ele><time>2022-06-18T02:45:47Z</time></trkpt><trkpt lat="34.256047" lon="133.1463905"><ele>302.86820611516924</ele><time>2022-06-18T02:46:04Z</time></trkpt><trkpt lat="34.256225" lon="133.1463331"><ele>304.60642367787574</ele><time>2022-06-18T02:46:22Z</time></trkpt><trkpt lat="34.256357" lon="133.1464917"><ele>305.66710532459774</ele><time>2022-06-18T02:46:42Z</time></trkpt><trkpt lat="34.256537" lon="133.1464648"><ele>306.77667027747844</ele><time>2022-06-18T02:46:58Z</time></trkpt><trkpt lat="34.2567177" lon="133.1464026"><ele>308.97658066794884</ele><time>2022-06-18T02:47:15Z</time></trkpt><trkpt lat="34.2568374" lon="133.1465851"><ele>309.83616810318176</ele><time>2022-06-18T02:47:35Z</time></trkpt><trkpt lat="34.2569025" lon="133.1467916"><ele>311.4242429191174</ele><time>2022-06-18T02:47:58Z</time></trkpt><trkpt lat="34.2570295" lon="133.1469472"><ele>312.71241163908127</ele><time>2022-06-18T02:48:15Z</time></trkpt><trkpt lat="34.2571847" lon="133.1470838"><ele>314.44152031120376</ele><time>2022-06-18T02:48:35Z</time></trkpt><trkpt lat="34.2571562" lon="133.1473"><ele>316.40060809764583</ele><time>2022-06-18T02:48:52Z</time></trkpt><trkpt lat="34.2571602" lon="133.1475258"><ele>319.1761905617528</ele><time>2022-06-18T02:49:08Z</time></trkpt><trkpt lat="34.2572905" lon="133.1476871"><ele>320.2727824435553</ele><time>2022-06-18T02:49:25Z</time></trkpt><trkpt lat="34.2573554" lon="133.1478932"><ele>321.45724140183165</ele><time>2022-06-18T02:49:42Z</time></trkpt><trkpt lat="34.2573338" lon="133.1481168"><ele>320.8700249219189</ele><time>2022-06-18T02:49:57Z</time></trkpt><trkpt lat="34.2571792" lon="133.1482513"><ele>322.47453921846187</ele><time>2022-06-18T02:50:10Z</time></trkpt><trkpt lat="34.257034" lon="133.1483938"><ele>323.0972541661791</ele><time>2022-06-18T02:50:26Z</time></trkpt><trkpt lat="34.2569506" lon="133.1485897"><ele>324.02084148250157</ele><time>2022-06-18T02:50:44Z</time></trkpt><trkpt lat="34.256856" lon="133.148402"><ele>217.6590419294794</ele><time>2022-06-18T02:51:26Z</time></trkpt><trkpt lat="34.2569346" lon="133.1482006"><ele>220.77352497943755</ele><time>2022-06-18T02:51:46Z</time></trkpt><trkpt lat="34.2569695" lon="133.1479874"><ele>226.32872699255213</ele><time>2022-06-18T02:52:07Z</time></trkpt><trkpt lat="34.2569179" lon="133.1477763"><ele>341.35206010838874</ele><time>2022-06-18T02:52:35Z</time></trkpt><trkpt lat="34.2567841" lon="133.1476281"><ele>347.7023392960328</ele><time>2022-06-18T02:52:53Z</time></trkpt><trkpt lat="34.2566138" lon="133.1475441"><ele>351.50782970274184</ele><time>2022-06-18T02:53:15Z</time></trkpt><trkpt lat="34.2565386" lon="133.1473407"><ele>354.44610448878575</ele><time>2022-06-18T02:53:34Z</time></trkpt><trkpt lat="34.2564783" lon="133.1471302"><ele>357.55561401241135</ele><time>2022-06-18T02:54:03Z</time></trkpt><trkpt lat="34.2566179" lon="133.1472694"><ele>362.9624348270379</ele><time>2022-06-18T02:54:22Z</time></trkpt><trkpt lat="34.2566278" lon="133.1474902"><ele>363.7359939346231</ele><time>2022-06-18T02:58:49Z</time></trkpt><trkpt lat="34.2567165" lon="133.1476907"><ele>360.255867246864</ele><time>2022-06-18T02:59:01Z</time></trkpt><trkpt lat="34.2568403" lon="133.1478649"><ele>357.296251841884</ele><time>2022-06-18T02:59:13Z</time></trkpt><trkpt lat="34.2568954" lon="133.1480761"><ele>351.4755119518377</ele><time>2022-06-18T02:59:53Z</time></trkpt><trkpt lat="34.2569088" lon="133.1483237"><ele>347.42782878195504</ele><time>2022-06-18T03:00:05Z</time></trkpt><trkpt lat="34.2567972" lon="133.148501"><ele>337.3390189709439</ele><time>2022-06-18T03:00:21Z</time></trkpt><trkpt lat="34.2568328" lon="133.148714"><ele>338.53939815604764</ele><time>2022-06-18T03:00:40Z</time></trkpt><trkpt lat="34.2568335" lon="133.1489415"><ele>334.18658921609705</ele><time>2022-06-18T03:00:54Z</time></trkpt><trkpt lat="34.2568344" lon="133.1491609"><ele>335.55404715969763</ele><time>2022-06-18T03:01:10Z</time></trkpt><trkpt lat="34.2568362" lon="133.149385"><ele>329.77093738051263</ele><time>2022-06-18T03:01:29Z</time></trkpt><trkpt lat="34.2568641" lon="133.1496047"><ele>332.9075984979358</ele><time>2022-06-18T03:01:46Z</time></trkpt><trkpt lat="34.2569844" lon="133.1497828"><ele>333.42892704169327</ele><time>2022-06-18T03:02:09Z</time></trkpt><trkpt lat="34.2568206" lon="133.1496763"><ele>335.3108796829172</ele><time>2022-06-18T03:02:54Z</time></trkpt><trkpt lat="34.2567528" lon="133.1494739"><ele>336.1426066312192</ele><time>2022-06-18T03:03:31Z</time></trkpt><trkpt lat="34.2567144" lon="133.1492521"><ele>335.45089049907136</ele><time>2022-06-18T03:03:43Z</time></trkpt><trkpt lat="34.2567461" lon="133.1490309"><ele>334.46644086431724</ele><time>2022-06-18T03:03:54Z</time></trkpt><trkpt lat="34.2568218" lon="133.1488289"><ele>332.97001943457354</ele><time>2022-06-18T03:04:06Z</time></trkpt><trkpt lat="34.2568639" lon="133.1486155"><ele>333.1073981450672</ele><time>2022-06-18T03:04:23Z</time></trkpt><trkpt lat="34.2569676" lon="133.1484236"><ele>332.97689557051314</ele><time>2022-06-18T03:04:36Z</time></trkpt><trkpt lat="34.2571126" lon="133.1482734"><ele>331.8718867746093</ele><time>2022-06-18T03:04:49Z</time></trkpt><trkpt lat="34.2572652" lon="133.1481349"><ele>331.2332082044153</ele><time>2022-06-18T03:05:04Z</time></trkpt><trkpt lat="34.2573732" lon="133.1479588"><ele>330.219741065213</ele><time>2022-06-18T03:05:19Z</time></trkpt><trkpt lat="34.2573375" lon="133.1477451"><ele>329.5496526139769</ele><time>2022-06-18T03:05:33Z</time></trkpt><trkpt lat="34.2572393" lon="133.1475581"><ele>326.86120972309027</ele><time>2022-06-18T03:05:45Z</time></trkpt><trkpt lat="34.2571132" lon="133.1473974"><ele>326.3100791122044</ele><time>2022-06-18T03:05:56Z</time></trkpt><trkpt lat="34.257166" lon="133.1471758"><ele>324.9124868739611</ele><time>2022-06-18T03:06:11Z</time></trkpt><trkpt lat="34.257238" lon="133.1469763"><ele>325.101451581926</ele><time>2022-06-18T03:06:25Z</time></trkpt><trkpt lat="34.2570907" lon="133.1468404"><ele>324.0623277411</ele><time>2022-06-18T03:06:38Z</time></trkpt><trkpt lat="34.2569118" lon="133.1467812"><ele>321.05200729243944</ele><time>2022-06-18T03:06:50Z</time></trkpt><trkpt lat="34.2568148" lon="133.1465921"><ele>319.59440762778223</ele><time>2022-06-18T03:07:02Z</time></trkpt><trkpt lat="34.2567661" lon="133.1463786"><ele>317.6992636413806</ele><time>2022-06-18T03:07:19Z</time></trkpt><trkpt lat="34.2565907" lon="133.1464635"><ele>319.2385764185055</ele><time>2022-06-18T03:07:32Z</time></trkpt><trkpt lat="34.2563981" lon="133.146476"><ele>316.9905838731591</ele><time>2022-06-18T03:07:45Z</time></trkpt><trkpt lat="34.2562582" lon="133.1463015"><ele>315.50191080933183</ele><time>2022-06-18T03:07:57Z</time></trkpt><trkpt lat="34.2561556" lon="133.1461152"><ele>313.0401340804245</ele><time>2022-06-18T03:08:10Z</time></trkpt><trkpt lat="34.2559775" lon="133.146188"><ele>312.9518811473719</ele><time>2022-06-18T03:08:22Z</time></trkpt><trkpt lat="34.255825" lon="133.1463078"><ele>311.1054354099556</ele><time>2022-06-18T03:08:36Z</time></trkpt><trkpt lat="34.255652" lon="133.1462109"><ele>310.4435751934027</ele><time>2022-06-18T03:08:47Z</time></trkpt><trkpt lat="34.255521" lon="133.1460493"><ele>308.29033366787843</ele><time>2022-06-18T03:09:57Z</time></trkpt><trkpt lat="34.2553394" lon="133.1460357"><ele>306.76810372020236</ele><time>2022-06-18T03:10:45Z</time></trkpt><trkpt lat="34.2551733" lon="133.1459249"><ele>304.2633502429949</ele><time>2022-06-18T03:10:59Z</time></trkpt><trkpt lat="34.2551152" lon="133.1457119"><ele>302.4805483151729</ele><time>2022-06-18T03:11:11Z</time></trkpt><trkpt lat="34.2551751" lon="133.1454986"><ele>300.89845221692485</ele><time>2022-06-18T03:11:24Z</time></trkpt><trkpt lat="34.2551993" lon="133.1452799"><ele>300.2242157602455</ele><time>2022-06-18T03:11:36Z</time></trkpt><trkpt lat="34.2550685" lon="133.1451226"><ele>299.44240075934636</ele><time>2022-06-18T03:12:10Z</time></trkpt><trkpt lat="34.2549631" lon="133.1452993"><ele>298.6067733357177</ele><time>2022-06-18T03:12:24Z</time></trkpt><trkpt lat="34.2547782" lon="133.1453174"><ele>297.0914980937726</ele><time>2022-06-18T03:12:37Z</time></trkpt><trkpt lat="34.2546238" lon="133.145163"><ele>296.70370686583846</ele><time>2022-06-18T03:12:50Z</time></trkpt><trkpt lat="34.2545002" lon="133.1450036"><ele>296.3870478299099</ele><time>2022-06-18T03:13:03Z</time></trkpt><trkpt lat="34.2543434" lon="133.1448884"><ele>298.2332442727374</ele><time>2022-06-18T03:13:15Z</time></trkpt><trkpt lat="34.2545212" lon="133.1449367"><ele>298.8249324573704</ele><time>2022-06-18T03:14:53Z</time></trkpt><trkpt lat="34.2546466" lon="133.1451046"><ele>299.2775203572676</ele><time>2022-06-18T03:15:08Z</time></trkpt><trkpt lat="34.2546207" lon="133.1448867"><ele>297.4787986585707</ele><time>2022-06-18T03:15:29Z</time></trkpt><trkpt lat="34.2544687" lon="133.1447583"><ele>296.1049993314716</ele><time>2022-06-18T03:15:42Z</time></trkpt><trkpt lat="34.2543589" lon="133.144582"><ele>294.92516651915065</ele><time>2022-06-18T03:15:55Z</time></trkpt><trkpt lat="34.2544863" lon="133.1444252"><ele>291.0680887267709</ele><time>2022-06-18T03:16:13Z</time></trkpt><trkpt lat="34.2545975" lon="133.1445987"><ele>288.16332849335976</ele><time>2022-06-18T03:16:29Z</time></trkpt><trkpt lat="34.254735" lon="133.1447477"><ele>286.60133189691504</ele><time>2022-06-18T03:16:44Z</time></trkpt><trkpt lat="34.2548924" lon="133.1448601"><ele>287.4187901999423</ele><time>2022-06-18T03:17:00Z</time></trkpt><trkpt lat="34.2550727" lon="133.1447666"><ele>288.9697187105423</ele><time>2022-06-18T03:17:13Z</time></trkpt><trkpt lat="34.2552277" lon="133.1446543"><ele>286.926939260495</ele><time>2022-06-18T03:17:29Z</time></trkpt><trkpt lat="34.255413" lon="133.1446571"><ele>285.2567242388056</ele><time>2022-06-18T03:17:48Z</time></trkpt><trkpt lat="34.2555311" lon="133.1448267"><ele>278.6541866329531</ele><time>2022-06-18T03:18:01Z</time></trkpt><trkpt lat="34.2555956" lon="133.1450388"><ele>278.1162646676719</ele><time>2022-06-18T03:18:14Z</time></trkpt><trkpt lat="34.2556767" lon="133.1452362"><ele>277.24482207033844</ele><time>2022-06-18T03:18:29Z</time></trkpt><trkpt lat="34.2558569" lon="133.145281"><ele>277.5580587545516</ele><time>2022-06-18T03:18:52Z</time></trkpt><trkpt lat="34.2560081" lon="133.1451476"><ele>274.9779939901549</ele><time>2022-06-18T03:19:04Z</time></trkpt><trkpt lat="34.2561928" lon="133.1451988"><ele>272.5674144235877</ele><time>2022-06-18T03:19:18Z</time></trkpt><trkpt lat="34.2563535" lon="133.1453179"><ele>272.5859181667579</ele><time>2022-06-18T03:19:31Z</time></trkpt><trkpt lat="34.2565358" lon="133.1452693"><ele>270.91055954798736</ele><time>2022-06-18T03:19:43Z</time></trkpt><trkpt lat="34.2567284" lon="133.1452653"><ele>269.2233895049733</ele><time>2022-06-18T03:20:13Z</time></trkpt><trkpt lat="34.2568932" lon="133.1453573"><ele>266.85697382878976</ele><time>2022-06-18T03:20:27Z</time></trkpt><trkpt lat="34.2570408" lon="133.1452304"><ele>264.7603335890931</ele><time>2022-06-18T03:20:41Z</time></trkpt><trkpt lat="34.2568671" lon="133.1451458"><ele>262.4397944357409</ele><time>2022-06-18T03:20:55Z</time></trkpt><trkpt lat="34.2566836" lon="133.1451386"><ele>259.85499337166306</ele><time>2022-06-18T03:21:10Z</time></trkpt><trkpt lat="34.2565624" lon="133.1449741"><ele>257.58050198083413</ele><time>2022-06-18T03:21:27Z</time></trkpt><trkpt lat="34.256713" lon="133.1448459"><ele>255.48377343073795</ele><time>2022-06-18T03:21:36Z</time></trkpt><trkpt lat="34.2568662" lon="133.1449718"><ele>254.2194837279312</ele><time>2022-06-18T03:21:52Z</time></trkpt><trkpt lat="34.2570466" lon="133.1449327"><ele>252.49907539130012</ele><time>2022-06-18T03:22:04Z</time></trkpt><trkpt lat="34.2571752" lon="133.1450876"><ele>250.67677708025886</ele><time>2022-06-18T03:22:20Z</time></trkpt><trkpt lat="34.257211" lon="133.1453144"><ele>247.8743851783715</ele><time>2022-06-18T03:23:24Z</time></trkpt><trkpt lat="34.2573665" lon="133.1454278"><ele>245.83191398046952</ele><time>2022-06-18T03:23:54Z</time></trkpt><trkpt lat="34.2574253" lon="133.14564"><ele>243.6676168011205</ele><time>2022-06-18T03:24:05Z</time></trkpt><trkpt lat="34.2575755" lon="133.1457708"><ele>241.7244280496727</ele><time>2022-06-18T03:24:44Z</time></trkpt><trkpt lat="34.2577145" lon="133.1456217"><ele>238.9982106579146</ele><time>2022-06-18T03:24:59Z</time></trkpt><trkpt lat="34.2578303" lon="133.1454544"><ele>236.89018555848574</ele><time>2022-06-18T03:25:12Z</time></trkpt><trkpt lat="34.2579431" lon="133.1452577"><ele>234.25501119404987</ele><time>2022-06-18T03:25:24Z</time></trkpt><trkpt lat="34.2581307" lon="133.1452672"><ele>233.36102727429363</ele><time>2022-06-18T03:25:41Z</time></trkpt><trkpt lat="34.2583144" lon="133.1452578"><ele>231.72912764617115</ele><time>2022-06-18T03:25:53Z</time></trkpt><trkpt lat="34.2584949" lon="133.1453538"><ele>230.97735706680942</ele><time>2022-06-18T03:26:10Z</time></trkpt><trkpt lat="34.2586389" lon="133.1454867"><ele>228.71517567983165</ele><time>2022-06-18T03:26:24Z</time></trkpt><trkpt lat="34.2586618" lon="133.1457041"><ele>227.29972208262666</ele><time>2022-06-18T03:26:36Z</time></trkpt><trkpt lat="34.2585553" lon="133.145899"><ele>225.7861153697668</ele><time>2022-06-18T03:26:49Z</time></trkpt><trkpt lat="34.2586344" lon="133.1460981"><ele>224.3125394818851</ele><time>2022-06-18T03:27:08Z</time></trkpt><trkpt lat="34.2588343" lon="133.1460882"><ele>222.2833112474688</ele><time>2022-06-18T03:27:21Z</time></trkpt><trkpt lat="34.2590242" lon="133.1460573"><ele>220.49712418318407</ele><time>2022-06-18T03:27:36Z</time></trkpt><trkpt lat="34.2592086" lon="133.1460382"><ele>218.9047580596879</ele><time>2022-06-18T03:27:53Z</time></trkpt><trkpt lat="34.259291" lon="133.1462433"><ele>217.62525927051618</ele><time>2022-06-18T03:28:09Z</time></trkpt><trkpt lat="34.259176" lon="133.1464176"><ele>215.15576406622782</ele><time>2022-06-18T03:28:21Z</time></trkpt><trkpt lat="34.2590113" lon="133.1465148"><ele>213.86609754271896</ele><time>2022-06-18T03:28:38Z</time></trkpt><trkpt lat="34.2588376" lon="133.1465995"><ele>211.5477645733721</ele><time>2022-06-18T03:28:52Z</time></trkpt><trkpt lat="34.2587199" lon="133.146769"><ele>210.76856047969034</ele><time>2022-06-18T03:29:06Z</time></trkpt><trkpt lat="34.2587308" lon="133.14699"><ele>207.65542958847718</ele><time>2022-06-18T03:29:23Z</time></trkpt><trkpt lat="34.2588839" lon="133.1471123"><ele>206.57537212646298</ele><time>2022-06-18T03:29:35Z</time></trkpt><trkpt lat="34.2590288" lon="133.1472497"><ele>204.2117431160185</ele><time>2022-06-18T03:29:48Z</time></trkpt><trkpt lat="34.2591113" lon="133.1474442"><ele>203.92410797769222</ele><time>2022-06-18T03:30:02Z</time></trkpt><trkpt lat="34.2592859" lon="133.1475237"><ele>201.8848834505692</ele><time>2022-06-18T03:30:17Z</time></trkpt><trkpt lat="34.2594587" lon="133.1474353"><ele>200.8681882588672</ele><time>2022-06-18T03:30:31Z</time></trkpt><trkpt lat="34.2595887" lon="133.1475864"><ele>198.6918596862312</ele><time>2022-06-18T03:30:45Z</time></trkpt><trkpt lat="34.2597328" lon="133.1477269"><ele>197.69687483872949</ele><time>2022-06-18T03:31:01Z</time></trkpt><trkpt lat="34.2598408" lon="133.1479194"><ele>195.73346518358883</ele><time>2022-06-18T03:31:15Z</time></trkpt><trkpt lat="34.2600122" lon="133.1479943"><ele>194.55577229765694</ele><time>2022-06-18T03:31:37Z</time></trkpt><trkpt lat="34.2601888" lon="133.1479168"><ele>193.00104125030248</ele><time>2022-06-18T03:31:48Z</time></trkpt><trkpt lat="34.2601791" lon="133.1476986"><ele>191.6937601693916</ele><time>2022-06-18T03:32:03Z</time></trkpt><trkpt lat="34.2600003" lon="133.1476657"><ele>190.051697072022</ele><time>2022-06-18T03:32:15Z</time></trkpt><trkpt lat="34.2598193" lon="133.1476254"><ele>190.73279159773776</ele><time>2022-06-18T03:32:28Z</time></trkpt><trkpt lat="34.2596785" lon="133.1474883"><ele>188.7509642142953</ele><time>2022-06-18T03:32:41Z</time></trkpt><trkpt lat="34.2595893" lon="133.1472868"><ele>187.38935365416884</ele><time>2022-06-18T03:32:54Z</time></trkpt><trkpt lat="34.2594528" lon="133.147082"><ele>182.96275977447343</ele><time>2022-06-18T03:33:21Z</time></trkpt><trkpt lat="34.2594849" lon="133.1468647"><ele>180.81511955786422</ele><time>2022-06-18T03:33:37Z</time></trkpt><trkpt lat="34.2596639" lon="133.1467977"><ele>178.15772583285806</ele><time>2022-06-18T03:34:06Z</time></trkpt><trkpt lat="34.2598651" lon="133.1468221"><ele>170.13165418098524</ele><time>2022-06-18T03:34:20Z</time></trkpt><trkpt lat="34.2600547" lon="133.146834"><ele>169.2636947828835</ele><time>2022-06-18T03:34:30Z</time></trkpt><trkpt lat="34.2602496" lon="133.1468239"><ele>167.98948750355427</ele><time>2022-06-18T03:34:57Z</time></trkpt><trkpt lat="34.2604414" lon="133.146858"><ele>165.3658475295408</ele><time>2022-06-18T03:35:08Z</time></trkpt><trkpt lat="34.2606253" lon="133.1468877"><ele>163.0830545194478</ele><time>2022-06-18T03:35:15Z</time></trkpt><trkpt lat="34.2608062" lon="133.1468683"><ele>161.2757958799908</ele><time>2022-06-18T03:35:28Z</time></trkpt><trkpt lat="34.2609883" lon="133.1468969"><ele>166.05987896427447</ele><time>2022-06-18T03:35:40Z</time></trkpt><trkpt lat="34.2611798" lon="133.146898"><ele>164.9411361298434</ele><time>2022-06-18T03:35:52Z</time></trkpt><trkpt lat="34.2613624" lon="133.1469233"><ele>163.20511337909295</ele><time>2022-06-18T03:36:03Z</time></trkpt><trkpt lat="34.2615439" lon="133.1469605"><ele>163.19711303756358</ele><time>2022-06-18T03:36:18Z</time></trkpt><trkpt lat="34.2617261" lon="133.147006"><ele>161.16780867537244</ele><time>2022-06-18T03:36:33Z</time></trkpt><trkpt lat="34.2619065" lon="133.1469473"><ele>160.39007722356905</ele><time>2022-06-18T03:36:46Z</time></trkpt><trkpt lat="34.2619842" lon="133.1467478"><ele>158.11301828955243</ele><time>2022-06-18T03:36:55Z</time></trkpt></trkseg></trk></gpx>