<?xml version='1.0' encoding='UTF-8'?><gpx creator="YAMAP - https://yamap.com" xsi:schemaLocation="http://www.topografix.com/GPX/1/1 http://www.topografix.com/GPX/1/1/gpx.xsd" version="1.1" xmlns="http://www.topografix.com/GPX/1/1" xmlns:xsi="http://www.w3.org/2001/XMLSchema-instance"><metadata><bounds maxlat="33.5807958" maxlon="132.4662139" minlat="33.5573048" minlon="132.4368706"/></metadata><trk><name>トギ・張木山・高手山</name><number>1</number><trkseg><trkpt lat="33.5739873" lon="132.4426818"><ele>7.210590978871338</ele><time>2024-03-16T00:21:27Z</time></trkpt><trkpt lat="33.5738054" lon="132.4426711"><ele>7.21063346996492</ele><time>2024-03-16T00:22:00Z</time></trkpt><trkpt lat="33.5736217" lon="132.4426695"><ele>7.210684571879522</ele><time>2024-03-16T00:22:15Z</time></trkpt><trkpt lat="33.573441" lon="132.4426708"><ele>7.277454423615189</ele><time>2024-03-16T00:22:30Z</time></trkpt><trkpt lat="33.5732507" lon="132.4426299"><ele>7.277533022099651</ele><time>2024-03-16T00:22:52Z</time></trkpt><trkpt lat="33.5731111" lon="132.4424916"><ele>7.2774785742706</ele><time>2024-03-16T00:23:03Z</time></trkpt><trkpt lat="33.5729558" lon="132.4423556"><ele>6.910628246188954</ele><time>2024-03-16T00:23:17Z</time></trkpt><trkpt lat="33.5728151" lon="132.4421947"><ele>6.610324411529976</ele><time>2024-03-16T00:23:34Z</time></trkpt><trkpt lat="33.5726352" lon="132.4421524"><ele>6.310115860131449</ele><time>2024-03-16T00:23:49Z</time></trkpt><trkpt lat="33.5725293" lon="132.4423311"><ele>7.110183156723731</ele><time>2024-03-16T00:24:05Z</time></trkpt><trkpt lat="33.5724031" lon="132.4421731"><ele>8.59305257612669</ele><time>2024-03-16T00:24:22Z</time></trkpt><trkpt lat="33.572264" lon="132.4420331"><ele>10.397874829007831</ele><time>2024-03-16T00:24:39Z</time></trkpt><trkpt lat="33.5721278" lon="132.4418824"><ele>12.052797435808865</ele><time>2024-03-16T00:24:51Z</time></trkpt><trkpt lat="33.5720212" lon="132.4417036"><ele>13.79521806609074</ele><time>2024-03-16T00:25:07Z</time></trkpt><trkpt lat="33.5719322" lon="132.4415118"><ele>15.680141004295393</ele><time>2024-03-16T00:25:25Z</time></trkpt><trkpt lat="33.5718122" lon="132.4413423"><ele>17.446240906998472</ele><time>2024-03-16T00:25:41Z</time></trkpt><trkpt lat="33.5716318" lon="132.4414045"><ele>18.755679985407415</ele><time>2024-03-16T00:25:56Z</time></trkpt><trkpt lat="33.5714517" lon="132.4413509"><ele>20.35210228037602</ele><time>2024-03-16T00:26:12Z</time></trkpt><trkpt lat="33.5715032" lon="132.4411317"><ele>22.01175247601364</ele><time>2024-03-16T00:26:23Z</time></trkpt><trkpt lat="33.5716206" lon="132.4409664"><ele>23.47361826161706</ele><time>2024-03-16T00:26:37Z</time></trkpt><trkpt lat="33.5718006" lon="132.4409521"><ele>24.728519017044547</ele><time>2024-03-16T00:27:05Z</time></trkpt><trkpt lat="33.571981" lon="132.4409469"><ele>25.248273193429934</ele><time>2024-03-16T00:27:18Z</time></trkpt><trkpt lat="33.5719161" lon="132.440741"><ele>27.18237789090951</ele><time>2024-03-16T00:27:40Z</time></trkpt><trkpt lat="33.5717406" lon="132.4406585"><ele>29.565142482760237</ele><time>2024-03-16T00:27:58Z</time></trkpt><trkpt lat="33.5715585" lon="132.4406615"><ele>33.12494887660018</ele><time>2024-03-16T00:28:16Z</time></trkpt><trkpt lat="33.5714014" lon="132.4405552"><ele>35.565271408447394</ele><time>2024-03-16T00:28:29Z</time></trkpt><trkpt lat="33.5712619" lon="132.4407027"><ele>37.58041245615223</ele><time>2024-03-16T00:28:48Z</time></trkpt><trkpt lat="33.571125" lon="132.4408437"><ele>39.87097850025895</ele><time>2024-03-16T00:29:31Z</time></trkpt><trkpt lat="33.5710769" lon="132.4406099"><ele>41.40828039909135</ele><time>2024-03-16T00:29:49Z</time></trkpt><trkpt lat="33.5711067" lon="132.440395"><ele>43.62659096300656</ele><time>2024-03-16T00:30:04Z</time></trkpt><trkpt lat="33.5712518" lon="132.44025"><ele>45.11065414887489</ele><time>2024-03-16T00:30:22Z</time></trkpt><trkpt lat="33.571406" lon="132.4401137"><ele>47.308794107278224</ele><time>2024-03-16T00:30:29Z</time></trkpt><trkpt lat="33.5715884" lon="132.440026"><ele>48.7141598687105</ele><time>2024-03-16T00:30:44Z</time></trkpt><trkpt lat="33.5717792" lon="132.4399745"><ele>49.82115094615424</ele><time>2024-03-16T00:31:00Z</time></trkpt><trkpt lat="33.5718801" lon="132.439793"><ele>51.02585686605831</ele><time>2024-03-16T00:31:17Z</time></trkpt><trkpt lat="33.5719357" lon="132.4395833"><ele>52.672988301078554</ele><time>2024-03-16T00:31:33Z</time></trkpt><trkpt lat="33.5718229" lon="132.4394099"><ele>53.87248695313929</ele><time>2024-03-16T00:31:43Z</time></trkpt><trkpt lat="33.5717065" lon="132.4395763"><ele>56.07212930121855</ele><time>2024-03-16T00:31:59Z</time></trkpt><trkpt lat="33.5716016" lon="132.4397574"><ele>57.90287395640913</ele><time>2024-03-16T00:32:11Z</time></trkpt><trkpt lat="33.5714699" lon="132.4399187"><ele>60.209571817304116</ele><time>2024-03-16T00:32:24Z</time></trkpt><trkpt lat="33.5712913" lon="132.4399775"><ele>61.558594416143755</ele><time>2024-03-16T00:32:39Z</time></trkpt><trkpt lat="33.5711145" lon="132.4399244"><ele>62.95143307646118</ele><time>2024-03-16T00:32:54Z</time></trkpt><trkpt lat="33.5709423" lon="132.4399887"><ele>65.31273348563424</ele><time>2024-03-16T00:33:13Z</time></trkpt><trkpt lat="33.5707698" lon="132.4400824"><ele>67.67045121038386</ele><time>2024-03-16T00:33:30Z</time></trkpt><trkpt lat="33.5706994" lon="132.4402865"><ele>70.17036267696416</ele><time>2024-03-16T00:33:50Z</time></trkpt><trkpt lat="33.5706118" lon="132.4404841"><ele>72.23963307389216</ele><time>2024-03-16T00:34:09Z</time></trkpt><trkpt lat="33.5704623" lon="132.44061"><ele>73.98504727184995</ele><time>2024-03-16T00:34:22Z</time></trkpt><trkpt lat="33.570449" lon="132.4408319"><ele>75.79003142137678</ele><time>2024-03-16T00:34:34Z</time></trkpt><trkpt lat="33.5702651" lon="132.440817"><ele>78.63619066487318</ele><time>2024-03-16T00:35:10Z</time></trkpt><trkpt lat="33.5702571" lon="132.4406003"><ele>82.04483080515912</ele><time>2024-03-16T00:35:24Z</time></trkpt><trkpt lat="33.5703469" lon="132.4404075"><ele>85.17576142492256</ele><time>2024-03-16T00:35:37Z</time></trkpt><trkpt lat="33.5703593" lon="132.4401859"><ele>86.70060291095133</ele><time>2024-03-16T00:35:52Z</time></trkpt><trkpt lat="33.5703944" lon="132.439956"><ele>87.76591432809347</ele><time>2024-03-16T00:36:08Z</time></trkpt><trkpt lat="33.5704796" lon="132.4397581"><ele>88.67367444802323</ele><time>2024-03-16T00:36:23Z</time></trkpt><trkpt lat="33.5705621" lon="132.4395644"><ele>89.66257191123863</ele><time>2024-03-16T00:36:38Z</time></trkpt><trkpt lat="33.5706785" lon="132.4393921"><ele>91.56679687503517</ele><time>2024-03-16T00:36:55Z</time></trkpt><trkpt lat="33.5708565" lon="132.4393373"><ele>94.03881490044618</ele><time>2024-03-16T00:38:10Z</time></trkpt><trkpt lat="33.5710395" lon="132.43929"><ele>96.77557048928584</ele><time>2024-03-16T00:38:26Z</time></trkpt><trkpt lat="33.5710327" lon="132.4390656"><ele>98.68082470748554</ele><time>2024-03-16T00:38:39Z</time></trkpt><trkpt lat="33.5708866" lon="132.4389302"><ele>101.33029939790576</ele><time>2024-03-16T00:38:59Z</time></trkpt><trkpt lat="33.5707057" lon="132.4389038"><ele>103.77477143560021</ele><time>2024-03-16T00:39:17Z</time></trkpt><trkpt lat="33.5705249" lon="132.4388011"><ele>106.43557562543295</ele><time>2024-03-16T00:39:30Z</time></trkpt><trkpt lat="33.5704678" lon="132.4385925"><ele>107.87593364193765</ele><time>2024-03-16T00:39:41Z</time></trkpt><trkpt lat="33.5704991" lon="132.4383721"><ele>108.90068917517146</ele><time>2024-03-16T00:39:50Z</time></trkpt><trkpt lat="33.570413" lon="132.4381824"><ele>110.11714649481091</ele><time>2024-03-16T00:40:05Z</time></trkpt><trkpt lat="33.5704252" lon="132.4379623"><ele>110.98236690681767</ele><time>2024-03-16T00:40:17Z</time></trkpt><trkpt lat="33.570419" lon="132.4377364"><ele>111.99586493550858</ele><time>2024-03-16T00:40:30Z</time></trkpt><trkpt lat="33.5703066" lon="132.4375527"><ele>112.31691147143373</ele><time>2024-03-16T00:40:45Z</time></trkpt><trkpt lat="33.5701065" lon="132.4375095"><ele>112.53931576288265</ele><time>2024-03-16T00:41:08Z</time></trkpt><trkpt lat="33.5699246" lon="132.4375042"><ele>112.43087756590337</ele><time>2024-03-16T00:41:21Z</time></trkpt><trkpt lat="33.569743" lon="132.4375213"><ele>112.26237499522934</ele><time>2024-03-16T00:41:37Z</time></trkpt><trkpt lat="33.5695774" lon="132.4376147"><ele>112.20028789153291</ele><time>2024-03-16T00:41:52Z</time></trkpt><trkpt lat="33.5693957" lon="132.4376581"><ele>112.08950373502994</ele><time>2024-03-16T00:42:06Z</time></trkpt><trkpt lat="33.5692313" lon="132.4375468"><ele>112.13431659183868</ele><time>2024-03-16T00:42:18Z</time></trkpt><trkpt lat="33.5691167" lon="132.437378"><ele>111.76428508248262</ele><time>2024-03-16T00:42:28Z</time></trkpt><trkpt lat="33.5689758" lon="132.4372412"><ele>111.26685496963637</ele><time>2024-03-16T00:42:42Z</time></trkpt><trkpt lat="33.5688711" lon="132.4370636"><ele>110.0972070426311</ele><time>2024-03-16T00:42:58Z</time></trkpt><trkpt lat="33.568781" lon="132.4368706"><ele>108.37986049666313</ele><time>2024-03-16T00:43:15Z</time></trkpt><trkpt lat="33.5685976" lon="132.4368798"><ele>107.67285580909156</ele><time>2024-03-16T00:43:30Z</time></trkpt><trkpt lat="33.5684325" lon="132.4369797"><ele>107.65256572884418</ele><time>2024-03-16T00:43:46Z</time></trkpt><trkpt lat="33.5683156" lon="132.4371442"><ele>109.23048502330444</ele><time>2024-03-16T00:44:03Z</time></trkpt><trkpt lat="33.5683853" lon="132.4373433"><ele>111.51104567814637</ele><time>2024-03-16T00:44:27Z</time></trkpt><trkpt lat="33.5685631" lon="132.4374033"><ele>114.08347255978155</ele><time>2024-03-16T00:44:46Z</time></trkpt><trkpt lat="33.5687476" lon="132.4373954"><ele>117.19358514909061</ele><time>2024-03-16T00:45:06Z</time></trkpt><trkpt lat="33.5689081" lon="132.4374966"><ele>120.7126231249615</ele><time>2024-03-16T00:45:37Z</time></trkpt><trkpt lat="33.569048" lon="132.4376381"><ele>124.06295878921355</ele><time>2024-03-16T00:45:51Z</time></trkpt><trkpt lat="33.5691402" lon="132.4378292"><ele>125.70710191995916</ele><time>2024-03-16T00:46:00Z</time></trkpt><trkpt lat="33.5692915" lon="132.4379564"><ele>127.02770385153902</ele><time>2024-03-16T00:46:15Z</time></trkpt><trkpt lat="33.5694561" lon="132.4380492"><ele>126.88832846960469</ele><time>2024-03-16T00:46:34Z</time></trkpt><trkpt lat="33.5696327" lon="132.4381141"><ele>127.43819125541104</ele><time>2024-03-16T00:46:51Z</time></trkpt><trkpt lat="33.5698104" lon="132.438162"><ele>126.85557418265124</ele><time>2024-03-16T00:47:06Z</time></trkpt><trkpt lat="33.5699623" lon="132.4382892"><ele>127.35372859402487</ele><time>2024-03-16T00:47:23Z</time></trkpt><trkpt lat="33.5700812" lon="132.4384668"><ele>128.3505682947587</ele><time>2024-03-16T00:47:36Z</time></trkpt><trkpt lat="33.5701912" lon="132.4386395"><ele>129.13517540527653</ele><time>2024-03-16T00:47:52Z</time></trkpt><trkpt lat="33.5702767" lon="132.4388325"><ele>130.00110119438838</ele><time>2024-03-16T00:48:05Z</time></trkpt><trkpt lat="33.5702079" lon="132.4390341"><ele>130.17012072081087</ele><time>2024-03-16T00:48:25Z</time></trkpt><trkpt lat="33.5700348" lon="132.4391002"><ele>130.90273418937215</ele><time>2024-03-16T00:48:39Z</time></trkpt><trkpt lat="33.5698474" lon="132.4390828"><ele>132.08007336861434</ele><time>2024-03-16T00:49:00Z</time></trkpt><trkpt lat="33.5697201" lon="132.4392461"><ele>134.04560162977248</ele><time>2024-03-16T00:49:13Z</time></trkpt><trkpt lat="33.5697619" lon="132.439463"><ele>135.26556189546682</ele><time>2024-03-16T00:49:28Z</time></trkpt><trkpt lat="33.5698322" lon="132.4396639"><ele>136.98181530224915</ele><time>2024-03-16T00:49:46Z</time></trkpt><trkpt lat="33.5697864" lon="132.4398736"><ele>138.3070767237942</ele><time>2024-03-16T00:50:02Z</time></trkpt><trkpt lat="33.569637" lon="132.439999"><ele>141.1893225107286</ele><time>2024-03-16T00:50:21Z</time></trkpt><trkpt lat="33.5696806" lon="132.4397817"><ele>144.61504339662966</ele><time>2024-03-16T00:51:25Z</time></trkpt><trkpt lat="33.5695836" lon="132.4395993"><ele>147.72024437013977</ele><time>2024-03-16T00:51:38Z</time></trkpt><trkpt lat="33.569397" lon="132.4396118"><ele>150.89006704962114</ele><time>2024-03-16T00:51:58Z</time></trkpt><trkpt lat="33.569372" lon="132.4393977"><ele>154.89963011550938</ele><time>2024-03-16T00:52:36Z</time></trkpt><trkpt lat="33.5692401" lon="132.439235"><ele>160.53622845951546</ele><time>2024-03-16T00:53:02Z</time></trkpt><trkpt lat="33.5692576" lon="132.4390182"><ele>164.48036442785735</ele><time>2024-03-16T00:53:43Z</time></trkpt><trkpt lat="33.5690755" lon="132.4390537"><ele>166.89093442648448</ele><time>2024-03-16T00:54:48Z</time></trkpt><trkpt lat="33.568906" lon="132.4391341"><ele>167.79830568196573</ele><time>2024-03-16T00:54:58Z</time></trkpt><trkpt lat="33.5687354" lon="132.4392119"><ele>171.06721043192002</ele><time>2024-03-16T00:55:54Z</time></trkpt><trkpt lat="33.5685608" lon="132.4392787"><ele>174.88261124638515</ele><time>2024-03-16T00:56:16Z</time></trkpt><trkpt lat="33.5684027" lon="132.4393843"><ele>179.15609939309786</ele><time>2024-03-16T00:56:34Z</time></trkpt><trkpt lat="33.5682367" lon="132.4394935"><ele>182.6623544761519</ele><time>2024-03-16T00:57:19Z</time></trkpt><trkpt lat="33.5681038" lon="132.4396462"><ele>186.37866538229108</ele><time>2024-03-16T00:58:03Z</time></trkpt><trkpt lat="33.5680358" lon="132.4398564"><ele>190.95448112294153</ele><time>2024-03-16T00:58:33Z</time></trkpt><trkpt lat="33.5679057" lon="132.4400205"><ele>194.3698799570759</ele><time>2024-03-16T00:58:49Z</time></trkpt><trkpt lat="33.567885" lon="132.4402385"><ele>196.75408166307776</ele><time>2024-03-16T00:59:12Z</time></trkpt><trkpt lat="33.5678909" lon="132.4404619"><ele>197.51173644031383</ele><time>2024-03-16T00:59:31Z</time></trkpt><trkpt lat="33.5678643" lon="132.4406789"><ele>198.60681956875092</ele><time>2024-03-16T00:59:50Z</time></trkpt><trkpt lat="33.5677074" lon="132.4408106"><ele>198.9028207311726</ele><time>2024-03-16T01:00:10Z</time></trkpt><trkpt lat="33.5676601" lon="132.4410215"><ele>200.01736167383532</ele><time>2024-03-16T01:00:25Z</time></trkpt><trkpt lat="33.5676519" lon="132.4412402"><ele>201.00133368116622</ele><time>2024-03-16T01:00:39Z</time></trkpt><trkpt lat="33.5676727" lon="132.4414548"><ele>202.46441601992055</ele><time>2024-03-16T01:00:53Z</time></trkpt><trkpt lat="33.5676887" lon="132.4416696"><ele>203.4259502267447</ele><time>2024-03-16T01:01:14Z</time></trkpt><trkpt lat="33.567714" lon="132.4418835"><ele>204.77493421344664</ele><time>2024-03-16T01:01:41Z</time></trkpt><trkpt lat="33.567704" lon="132.4421024"><ele>206.32189804824702</ele><time>2024-03-16T01:01:56Z</time></trkpt><trkpt lat="33.5676883" lon="132.4423201"><ele>208.15832430838077</ele><time>2024-03-16T01:02:09Z</time></trkpt><trkpt lat="33.5676434" lon="132.4425332"><ele>209.0220077077281</ele><time>2024-03-16T01:02:24Z</time></trkpt><trkpt lat="33.5674878" lon="132.4426489"><ele>210.8474456097134</ele><time>2024-03-16T01:02:52Z</time></trkpt><trkpt lat="33.5674591" lon="132.4428627"><ele>213.06403679828634</ele><time>2024-03-16T01:03:08Z</time></trkpt><trkpt lat="33.5672721" lon="132.4429026"><ele>216.33992808493994</ele><time>2024-03-16T01:03:28Z</time></trkpt><trkpt lat="33.5671018" lon="132.4428217"><ele>218.99773869308856</ele><time>2024-03-16T01:05:15Z</time></trkpt><trkpt lat="33.5669253" lon="132.4427684"><ele>222.54800216340007</ele><time>2024-03-16T01:05:38Z</time></trkpt><trkpt lat="33.5667554" lon="132.4426918"><ele>225.7292032042163</ele><time>2024-03-16T01:06:00Z</time></trkpt><trkpt lat="33.5666305" lon="132.4425345"><ele>230.59663560488443</ele><time>2024-03-16T01:06:26Z</time></trkpt><trkpt lat="33.5664606" lon="132.4424095"><ele>237.61096676484726</ele><time>2024-03-16T01:07:41Z</time></trkpt><trkpt lat="33.5662768" lon="132.4423937"><ele>247.1036973174789</ele><time>2024-03-16T01:13:01Z</time></trkpt><trkpt lat="33.5661481" lon="132.4425636"><ele>255.48900199388527</ele><time>2024-03-16T01:13:17Z</time></trkpt><trkpt lat="33.5660803" lon="132.4427795"><ele>260.991605586038</ele><time>2024-03-16T01:13:33Z</time></trkpt><trkpt lat="33.5659676" lon="132.4429546"><ele>264.8976044261028</ele><time>2024-03-16T01:14:04Z</time></trkpt><trkpt lat="33.5658224" lon="132.4430892"><ele>269.25682763305645</ele><time>2024-03-16T01:14:38Z</time></trkpt><trkpt lat="33.5657039" lon="132.4432534"><ele>274.8900344923527</ele><time>2024-03-16T01:15:19Z</time></trkpt><trkpt lat="33.5655361" lon="132.4434049"><ele>280.2245740992583</ele><time>2024-03-16T01:16:08Z</time></trkpt><trkpt lat="33.565402" lon="132.4435593"><ele>286.9616075037025</ele><time>2024-03-16T01:16:56Z</time></trkpt><trkpt lat="33.5652002" lon="132.4435952"><ele>295.4331767347124</ele><time>2024-03-16T01:17:56Z</time></trkpt><trkpt lat="33.5650913" lon="132.4438233"><ele>303.5643288194642</ele><time>2024-03-16T01:18:27Z</time></trkpt><trkpt lat="33.5650317" lon="132.4440342"><ele>309.9225365338571</ele><time>2024-03-16T01:18:57Z</time></trkpt><trkpt lat="33.5648958" lon="132.4441789"><ele>313.2838478151383</ele><time>2024-03-16T01:19:19Z</time></trkpt><trkpt lat="33.5648336" lon="132.4443819"><ele>317.0811041951028</ele><time>2024-03-16T01:19:46Z</time></trkpt><trkpt lat="33.564801" lon="132.4445948"><ele>321.5514734320605</ele><time>2024-03-16T01:20:37Z</time></trkpt><trkpt lat="33.5647549" lon="132.4448039"><ele>325.4757590078187</ele><time>2024-03-16T01:21:05Z</time></trkpt><trkpt lat="33.5647011" lon="132.4450108"><ele>329.47166520369075</ele><time>2024-03-16T01:21:28Z</time></trkpt><trkpt lat="33.5646695" lon="132.4452311"><ele>332.700397426764</ele><time>2024-03-16T01:21:50Z</time></trkpt><trkpt lat="33.5646376" lon="132.4454473"><ele>336.5498434346114</ele><time>2024-03-16T01:22:12Z</time></trkpt><trkpt lat="33.564674" lon="132.4456603"><ele>343.08075679663733</ele><time>2024-03-16T01:23:24Z</time></trkpt><trkpt lat="33.5646131" lon="132.4459129"><ele>350.1823573913936</ele><time>2024-03-16T01:24:18Z</time></trkpt><trkpt lat="33.5645221" lon="132.4461135"><ele>357.9876029798491</ele><time>2024-03-16T01:24:54Z</time></trkpt><trkpt lat="33.5644148" lon="132.4462898"><ele>362.78285184794555</ele><time>2024-03-16T01:25:21Z</time></trkpt><trkpt lat="33.5643039" lon="132.4464646"><ele>367.67462671757784</ele><time>2024-03-16T01:26:03Z</time></trkpt><trkpt lat="33.5642612" lon="132.4466755"><ele>371.5210760911969</ele><time>2024-03-16T01:26:18Z</time></trkpt><trkpt lat="33.5642306" lon="132.4468919"><ele>375.297264293883</ele><time>2024-03-16T01:26:39Z</time></trkpt><trkpt lat="33.5643626" lon="132.4470412"><ele>378.62730534383945</ele><time>2024-03-16T01:27:10Z</time></trkpt><trkpt lat="33.5645186" lon="132.4471597"><ele>384.6365517477038</ele><time>2024-03-16T01:28:26Z</time></trkpt><trkpt lat="33.5646069" lon="132.4473521"><ele>392.1204780743762</ele><time>2024-03-16T01:32:21Z</time></trkpt><trkpt lat="33.5647722" lon="132.4474429"><ele>397.2153490282578</ele><time>2024-03-16T01:33:00Z</time></trkpt><trkpt lat="33.5645873" lon="132.4474446"><ele>400.2598487801719</ele><time>2024-03-16T01:37:11Z</time></trkpt><trkpt lat="33.5644286" lon="132.4475495"><ele>400.0914719380069</ele><time>2024-03-16T01:38:23Z</time></trkpt><trkpt lat="33.5642626" lon="132.4476381"><ele>398.1620626835445</ele><time>2024-03-16T01:40:28Z</time></trkpt><trkpt lat="33.5640944" lon="132.4477213"><ele>392.3682014804761</ele><time>2024-03-16T01:41:06Z</time></trkpt><trkpt lat="33.5639622" lon="132.447869"><ele>387.32882208947257</ele><time>2024-03-16T01:41:28Z</time></trkpt><trkpt lat="33.5637909" lon="132.4479482"><ele>385.4435714284063</ele><time>2024-03-16T01:41:53Z</time></trkpt><trkpt lat="33.5636064" lon="132.4479866"><ele>385.4421298289439</ele><time>2024-03-16T01:42:12Z</time></trkpt><trkpt lat="33.5634224" lon="132.4480045"><ele>384.8900440922741</ele><time>2024-03-16T01:42:31Z</time></trkpt><trkpt lat="33.5632362" lon="132.4480317"><ele>383.50815651920067</ele><time>2024-03-16T01:42:53Z</time></trkpt><trkpt lat="33.5630583" lon="132.4480718"><ele>380.97830363952306</ele><time>2024-03-16T01:43:15Z</time></trkpt><trkpt lat="33.5628777" lon="132.4481012"><ele>377.28121542104117</ele><time>2024-03-16T01:43:38Z</time></trkpt><trkpt lat="33.5626935" lon="132.448141"><ele>373.28058398279904</ele><time>2024-03-16T01:44:10Z</time></trkpt><trkpt lat="33.5625299" lon="132.4482366"><ele>371.4068021163699</ele><time>2024-03-16T01:44:35Z</time></trkpt><trkpt lat="33.5623642" lon="132.448322"><ele>372.70625059621926</ele><time>2024-03-16T01:45:08Z</time></trkpt><trkpt lat="33.5622097" lon="132.448439"><ele>376.4118631269534</ele><time>2024-03-16T01:45:39Z</time></trkpt><trkpt lat="33.5620293" lon="132.4484299"><ele>378.84441651833714</ele><time>2024-03-16T01:46:13Z</time></trkpt><trkpt lat="33.5618511" lon="132.4483968"><ele>380.00019849004417</ele><time>2024-03-16T01:46:46Z</time></trkpt><trkpt lat="33.5616709" lon="132.4484291"><ele>381.6100762575445</ele><time>2024-03-16T01:47:08Z</time></trkpt><trkpt lat="33.5615075" lon="132.4485239"><ele>384.611642617507</ele><time>2024-03-16T01:47:37Z</time></trkpt><trkpt lat="33.5613387" lon="132.4486181"><ele>388.5629202436691</ele><time>2024-03-16T01:48:05Z</time></trkpt><trkpt lat="33.5611814" lon="132.4487276"><ele>390.578294964671</ele><time>2024-03-16T01:48:28Z</time></trkpt><trkpt lat="33.5609993" lon="132.4487839"><ele>392.5166782087297</ele><time>2024-03-16T01:48:49Z</time></trkpt><trkpt lat="33.5608173" lon="132.4488252"><ele>394.2167254451454</ele><time>2024-03-16T01:49:13Z</time></trkpt><trkpt lat="33.5606375" lon="132.4488634"><ele>395.692338017244</ele><time>2024-03-16T01:49:36Z</time></trkpt><trkpt lat="33.5604909" lon="132.4489946"><ele>396.84441926007315</ele><time>2024-03-16T01:49:56Z</time></trkpt><trkpt lat="33.5604359" lon="132.4492059"><ele>397.8043803006519</ele><time>2024-03-16T01:50:21Z</time></trkpt><trkpt lat="33.5603685" lon="132.449408"><ele>399.00739955037557</ele><time>2024-03-16T01:50:43Z</time></trkpt><trkpt lat="33.5602678" lon="132.4495881"><ele>400.4330284549001</ele><time>2024-03-16T01:51:05Z</time></trkpt><trkpt lat="33.5601405" lon="132.4497459"><ele>401.76221004999064</ele><time>2024-03-16T01:51:25Z</time></trkpt><trkpt lat="33.5599932" lon="132.4498713"><ele>404.18672287121063</ele><time>2024-03-16T01:51:59Z</time></trkpt><trkpt lat="33.5598441" lon="132.4499929"><ele>406.9492424286805</ele><time>2024-03-16T01:52:18Z</time></trkpt><trkpt lat="33.5597019" lon="132.4501266"><ele>410.02765544127533</ele><time>2024-03-16T01:52:41Z</time></trkpt><trkpt lat="33.5595182" lon="132.450134"><ele>412.3278694610536</ele><time>2024-03-16T01:53:03Z</time></trkpt><trkpt lat="33.5593419" lon="132.4502053"><ele>414.998151234621</ele><time>2024-03-16T01:53:28Z</time></trkpt><trkpt lat="33.5591878" lon="132.4503284"><ele>417.8713088735847</ele><time>2024-03-16T01:53:58Z</time></trkpt><trkpt lat="33.5590164" lon="132.4504045"><ele>420.7253373157118</ele><time>2024-03-16T01:54:28Z</time></trkpt><trkpt lat="33.5588786" lon="132.4505485"><ele>421.6268287245978</ele><time>2024-03-16T01:54:46Z</time></trkpt><trkpt lat="33.5587515" lon="132.4507028"><ele>420.6190203106972</ele><time>2024-03-16T01:55:04Z</time></trkpt><trkpt lat="33.558676" lon="132.4509009"><ele>419.09270858479704</ele><time>2024-03-16T01:55:29Z</time></trkpt><trkpt lat="33.5586099" lon="132.4511058"><ele>419.35599293747947</ele><time>2024-03-16T01:56:49Z</time></trkpt><trkpt lat="33.5585208" lon="132.4512995"><ele>421.45909618785004</ele><time>2024-03-16T01:57:09Z</time></trkpt><trkpt lat="33.5583951" lon="132.4514605"><ele>424.2694364207161</ele><time>2024-03-16T01:57:29Z</time></trkpt><trkpt lat="33.5582421" lon="132.4515871"><ele>426.6786521574849</ele><time>2024-03-16T01:57:49Z</time></trkpt><trkpt lat="33.5580946" lon="132.4517243"><ele>428.59419116605903</ele><time>2024-03-16T01:58:06Z</time></trkpt><trkpt lat="33.5579816" lon="132.4518948"><ele>430.1152541314018</ele><time>2024-03-16T01:58:23Z</time></trkpt><trkpt lat="33.5578154" lon="132.4519937"><ele>431.54144895960525</ele><time>2024-03-16T01:58:42Z</time></trkpt><trkpt lat="33.5577" lon="132.4521613"><ele>432.7813899755556</ele><time>2024-03-16T01:59:20Z</time></trkpt><trkpt lat="33.5576401" lon="132.4523653"><ele>433.5734848792068</ele><time>2024-03-16T02:01:53Z</time></trkpt><trkpt lat="33.5575346" lon="132.4525453"><ele>433.54583051192503</ele><time>2024-03-16T02:02:12Z</time></trkpt><trkpt lat="33.5574064" lon="132.452699"><ele>433.25521560574066</ele><time>2024-03-16T02:02:28Z</time></trkpt><trkpt lat="33.5573179" lon="132.4528958"><ele>432.7758257537016</ele><time>2024-03-16T02:02:42Z</time></trkpt><trkpt lat="33.5573048" lon="132.4531247"><ele>432.8375538079076</ele><time>2024-03-16T02:03:00Z</time></trkpt><trkpt lat="33.557309" lon="132.4533437"><ele>433.0058624232634</ele><time>2024-03-16T02:03:14Z</time></trkpt><trkpt lat="33.5574021" lon="132.4535447"><ele>433.2534711363983</ele><time>2024-03-16T02:03:30Z</time></trkpt><trkpt lat="33.557491" lon="132.4537384"><ele>433.4229869196879</ele><time>2024-03-16T02:03:45Z</time></trkpt><trkpt lat="33.5575856" lon="132.4539241"><ele>432.389595155814</ele><time>2024-03-16T02:04:20Z</time></trkpt><trkpt lat="33.5576961" lon="132.4540971"><ele>431.15679410585176</ele><time>2024-03-16T02:04:32Z</time></trkpt><trkpt lat="33.5577789" lon="132.4542887"><ele>431.345136663849</ele><time>2024-03-16T02:05:15Z</time></trkpt><trkpt lat="33.5578664" lon="132.4544825"><ele>433.0832904386836</ele><time>2024-03-16T02:05:31Z</time></trkpt><trkpt lat="33.5579217" lon="132.4546923"><ele>436.05462574173816</ele><time>2024-03-16T02:05:47Z</time></trkpt><trkpt lat="33.5580139" lon="132.4548782"><ele>438.5189564832082</ele><time>2024-03-16T02:06:06Z</time></trkpt><trkpt lat="33.558142" lon="132.4550373"><ele>441.2948413373888</ele><time>2024-03-16T02:06:26Z</time></trkpt><trkpt lat="33.5582821" lon="132.4551822"><ele>443.89120972975394</ele><time>2024-03-16T02:06:42Z</time></trkpt><trkpt lat="33.5584161" lon="132.4553269"><ele>445.7530306572332</ele><time>2024-03-16T02:06:58Z</time></trkpt><trkpt lat="33.5585433" lon="132.4554867"><ele>447.9090148202344</ele><time>2024-03-16T02:07:15Z</time></trkpt><trkpt lat="33.558674" lon="132.4556395"><ele>450.06410303953317</ele><time>2024-03-16T02:07:34Z</time></trkpt><trkpt lat="33.5588267" lon="132.455765"><ele>452.5509984450193</ele><time>2024-03-16T02:07:51Z</time></trkpt><trkpt lat="33.5589475" lon="132.4559293"><ele>454.43329791319417</ele><time>2024-03-16T02:08:17Z</time></trkpt><trkpt lat="33.5590716" lon="132.4560894"><ele>456.64907605510615</ele><time>2024-03-16T02:08:33Z</time></trkpt><trkpt lat="33.5592215" lon="132.4562109"><ele>458.15000185128787</ele><time>2024-03-16T02:08:49Z</time></trkpt><trkpt lat="33.5593565" lon="132.4563651"><ele>460.02099179989864</ele><time>2024-03-16T02:09:22Z</time></trkpt><trkpt lat="33.5595267" lon="132.4564507"><ele>461.3318334135458</ele><time>2024-03-16T02:09:39Z</time></trkpt><trkpt lat="33.5596953" lon="132.4565532"><ele>462.1569634550204</ele><time>2024-03-16T02:09:52Z</time></trkpt><trkpt lat="33.5598494" lon="132.45667"><ele>461.30465120950976</ele><time>2024-03-16T02:10:16Z</time></trkpt><trkpt lat="33.559951" lon="132.4568538"><ele>460.10881745804016</ele><time>2024-03-16T02:10:31Z</time></trkpt><trkpt lat="33.5601104" lon="132.456984"><ele>458.29669544973945</ele><time>2024-03-16T02:10:44Z</time></trkpt><trkpt lat="33.5602784" lon="132.457068"><ele>457.45787051572796</ele><time>2024-03-16T02:11:01Z</time></trkpt><trkpt lat="33.5604527" lon="132.4571359"><ele>456.30988803815467</ele><time>2024-03-16T02:11:35Z</time></trkpt><trkpt lat="33.5606328" lon="132.4571715"><ele>456.809284093185</ele><time>2024-03-16T02:11:49Z</time></trkpt><trkpt lat="33.5608173" lon="132.4572344"><ele>457.52389698533426</ele><time>2024-03-16T02:12:04Z</time></trkpt><trkpt lat="33.5609959" lon="132.4572766"><ele>458.23010379837916</ele><time>2024-03-16T02:12:20Z</time></trkpt><trkpt lat="33.561164" lon="132.4573713"><ele>458.52960656545383</ele><time>2024-03-16T02:12:34Z</time></trkpt><trkpt lat="33.5613474" lon="132.4573463"><ele>458.7726739388058</ele><time>2024-03-16T02:12:51Z</time></trkpt><trkpt lat="33.5615259" lon="132.4572875"><ele>458.9015290326203</ele><time>2024-03-16T02:13:07Z</time></trkpt><trkpt lat="33.5617062" lon="132.4573032"><ele>459.4494814293708</ele><time>2024-03-16T02:13:20Z</time></trkpt><trkpt lat="33.5618753" lon="132.4573905"><ele>458.8152030924811</ele><time>2024-03-16T02:13:37Z</time></trkpt><trkpt lat="33.5620448" lon="132.4574719"><ele>457.2722005189423</ele><time>2024-03-16T02:13:52Z</time></trkpt><trkpt lat="33.5622063" lon="132.4575692"><ele>455.1913069256243</ele><time>2024-03-16T02:14:12Z</time></trkpt><trkpt lat="33.5623529" lon="132.4577042"><ele>453.7660496299256</ele><time>2024-03-16T02:14:25Z</time></trkpt><trkpt lat="33.5624885" lon="132.4578563"><ele>453.3010491488385</ele><time>2024-03-16T02:14:42Z</time></trkpt><trkpt lat="33.56265" lon="132.457956"><ele>452.7051626510858</ele><time>2024-03-16T02:14:57Z</time></trkpt><trkpt lat="33.562796" lon="132.4580921"><ele>451.63674308578766</ele><time>2024-03-16T02:15:12Z</time></trkpt><trkpt lat="33.5629308" lon="132.4582456"><ele>450.2040482153729</ele><time>2024-03-16T02:15:26Z</time></trkpt><trkpt lat="33.5631" lon="132.4583398"><ele>448.08281371630324</ele><time>2024-03-16T02:15:45Z</time></trkpt><trkpt lat="33.5631594" lon="132.4585478"><ele>451.1756579983335</ele><time>2024-03-16T02:16:32Z</time></trkpt><trkpt lat="33.5630661" lon="132.4587391"><ele>457.56524233444156</ele><time>2024-03-16T02:17:25Z</time></trkpt><trkpt lat="33.5630519" lon="132.458956"><ele>467.0000342282285</ele><time>2024-03-16T02:18:10Z</time></trkpt><trkpt lat="33.5631264" lon="132.4591522"><ele>473.83117814748454</ele><time>2024-03-16T02:19:07Z</time></trkpt><trkpt lat="33.5631794" lon="132.459359"><ele>477.89803202820576</ele><time>2024-03-16T02:21:56Z</time></trkpt><trkpt lat="33.5633078" lon="132.4595104"><ele>478.6550169816155</ele><time>2024-03-16T02:22:18Z</time></trkpt><trkpt lat="33.5634523" lon="132.4596426"><ele>477.8922286451063</ele><time>2024-03-16T02:25:31Z</time></trkpt><trkpt lat="33.5635738" lon="132.459802"><ele>476.15775683598457</ele><time>2024-03-16T02:25:51Z</time></trkpt><trkpt lat="33.5637237" lon="132.4599268"><ele>474.73478468255627</ele><time>2024-03-16T02:26:13Z</time></trkpt><trkpt lat="33.5638336" lon="132.4600987"><ele>471.78741766543004</ele><time>2024-03-16T02:26:31Z</time></trkpt><trkpt lat="33.5639373" lon="132.4602802"><ele>468.24234776827734</ele><time>2024-03-16T02:26:50Z</time></trkpt><trkpt lat="33.564079" lon="132.4604271"><ele>463.9606722337929</ele><time>2024-03-16T02:27:15Z</time></trkpt><trkpt lat="33.5642254" lon="132.4605546"><ele>460.0796855924298</ele><time>2024-03-16T02:27:36Z</time></trkpt><trkpt lat="33.5644014" lon="132.4606066"><ele>458.1663328353955</ele><time>2024-03-16T02:28:12Z</time></trkpt><trkpt lat="33.5644697" lon="132.4604052"><ele>455.26812774397627</ele><time>2024-03-16T02:28:35Z</time></trkpt><trkpt lat="33.5646516" lon="132.4603797"><ele>451.6781163615223</ele><time>2024-03-16T02:28:53Z</time></trkpt><trkpt lat="33.5648256" lon="132.460309"><ele>447.33362939608884</ele><time>2024-03-16T02:29:10Z</time></trkpt><trkpt lat="33.5650012" lon="132.4602285"><ele>444.0784981398956</ele><time>2024-03-16T02:29:34Z</time></trkpt><trkpt lat="33.5651816" lon="132.4602886"><ele>442.31280388942605</ele><time>2024-03-16T02:29:56Z</time></trkpt><trkpt lat="33.5652985" lon="132.4604664"><ele>441.8553027928242</ele><time>2024-03-16T02:30:10Z</time></trkpt><trkpt lat="33.5653937" lon="132.4606504"><ele>443.4206373302113</ele><time>2024-03-16T02:30:24Z</time></trkpt><trkpt lat="33.5655088" lon="132.4608255"><ele>445.8194461397982</ele><time>2024-03-16T02:30:39Z</time></trkpt><trkpt lat="33.5656265" lon="132.4609949"><ele>447.73068864510395</ele><time>2024-03-16T02:30:57Z</time></trkpt><trkpt lat="33.5658049" lon="132.4610318"><ele>449.06837089164856</ele><time>2024-03-16T02:31:26Z</time></trkpt><trkpt lat="33.5659789" lon="132.4611023"><ele>449.2118383627913</ele><time>2024-03-16T02:31:40Z</time></trkpt><trkpt lat="33.5661503" lon="132.4611974"><ele>448.56530940559605</ele><time>2024-03-16T02:31:57Z</time></trkpt><trkpt lat="33.5663319" lon="132.4612471"><ele>447.32916884535325</ele><time>2024-03-16T02:32:11Z</time></trkpt><trkpt lat="33.5664981" lon="132.4613366"><ele>446.73040731971514</ele><time>2024-03-16T02:32:25Z</time></trkpt><trkpt lat="33.5666761" lon="132.4612885"><ele>445.7440360774699</ele><time>2024-03-16T02:32:41Z</time></trkpt><trkpt lat="33.5668562" lon="132.4612557"><ele>445.1810059992902</ele><time>2024-03-16T02:32:57Z</time></trkpt><trkpt lat="33.5670421" lon="132.4612442"><ele>443.761018404386</ele><time>2024-03-16T02:33:18Z</time></trkpt><trkpt lat="33.5672193" lon="132.4613048"><ele>442.46664599644345</ele><time>2024-03-16T02:33:46Z</time></trkpt><trkpt lat="33.5673737" lon="132.4614224"><ele>440.7376931751564</ele><time>2024-03-16T02:33:59Z</time></trkpt><trkpt lat="33.5675082" lon="132.4615764"><ele>439.68243603600195</ele><time>2024-03-16T02:34:12Z</time></trkpt><trkpt lat="33.5675945" lon="132.4617718"><ele>438.4157458355548</ele><time>2024-03-16T02:34:27Z</time></trkpt><trkpt lat="33.5676653" lon="132.4619758"><ele>436.67726096724283</ele><time>2024-03-16T02:34:43Z</time></trkpt><trkpt lat="33.567839" lon="132.4620605"><ele>434.75755251775917</ele><time>2024-03-16T02:34:55Z</time></trkpt><trkpt lat="33.5679621" lon="132.4622247"><ele>432.90636797321025</ele><time>2024-03-16T02:35:08Z</time></trkpt><trkpt lat="33.5681163" lon="132.4623507"><ele>431.97625758171984</ele><time>2024-03-16T02:35:23Z</time></trkpt><trkpt lat="33.5682634" lon="132.4624769"><ele>430.641908388379</ele><time>2024-03-16T02:35:38Z</time></trkpt><trkpt lat="33.5684341" lon="132.4625501"><ele>430.05731329713166</ele><time>2024-03-16T02:35:52Z</time></trkpt><trkpt lat="33.5686133" lon="132.4625926"><ele>429.1386059787109</ele><time>2024-03-16T02:36:06Z</time></trkpt><trkpt lat="33.5687914" lon="132.4626575"><ele>427.9934475411015</ele><time>2024-03-16T02:36:22Z</time></trkpt><trkpt lat="33.5689499" lon="132.4627745"><ele>426.09408042661966</ele><time>2024-03-16T02:36:32Z</time></trkpt><trkpt lat="33.56913" lon="132.4628466"><ele>424.60594978734974</ele><time>2024-03-16T02:36:48Z</time></trkpt><trkpt lat="33.5693065" lon="132.462939"><ele>422.959141921696</ele><time>2024-03-16T02:37:03Z</time></trkpt><trkpt lat="33.5694674" lon="132.4630363"><ele>421.89904851570776</ele><time>2024-03-16T02:37:17Z</time></trkpt><trkpt lat="33.56963" lon="132.4631361"><ele>420.00952447038225</ele><time>2024-03-16T02:37:31Z</time></trkpt><trkpt lat="33.5697981" lon="132.4632315"><ele>418.55994745689577</ele><time>2024-03-16T02:37:46Z</time></trkpt><trkpt lat="33.569975" lon="132.4632842"><ele>416.60784636137333</ele><time>2024-03-16T02:37:59Z</time></trkpt><trkpt lat="33.570154" lon="132.463314"><ele>414.58926985563875</ele><time>2024-03-16T02:38:54Z</time></trkpt><trkpt lat="33.570337" lon="132.4632842"><ele>412.2985077409201</ele><time>2024-03-16T02:39:10Z</time></trkpt><trkpt lat="33.570516" lon="132.4633603"><ele>409.6376514463441</ele><time>2024-03-16T02:39:24Z</time></trkpt><trkpt lat="33.5706498" lon="132.463517"><ele>406.8001387184958</ele><time>2024-03-16T02:39:36Z</time></trkpt><trkpt lat="33.5707471" lon="132.4636999"><ele>403.2526736289623</ele><time>2024-03-16T02:39:49Z</time></trkpt><trkpt lat="33.5708748" lon="132.463853"><ele>399.99306185392265</ele><time>2024-03-16T02:40:01Z</time></trkpt><trkpt lat="33.5709534" lon="132.464056"><ele>396.79711736221225</ele><time>2024-03-16T02:40:15Z</time></trkpt><trkpt lat="33.5709069" lon="132.4642645"><ele>393.8519990194357</ele><time>2024-03-16T02:40:28Z</time></trkpt><trkpt lat="33.5709317" lon="132.4644828"><ele>391.2806989950236</ele><time>2024-03-16T02:40:40Z</time></trkpt><trkpt lat="33.5710705" lon="132.464637"><ele>389.14809706923296</ele><time>2024-03-16T02:40:53Z</time></trkpt><trkpt lat="33.5712267" lon="132.4647543"><ele>388.0906504984257</ele><time>2024-03-16T02:41:10Z</time></trkpt><trkpt lat="33.5714129" lon="132.4647647"><ele>386.96000625160195</ele><time>2024-03-16T02:41:24Z</time></trkpt><trkpt lat="33.5715933" lon="132.4647431"><ele>386.3504158662747</ele><time>2024-03-16T02:41:38Z</time></trkpt><trkpt lat="33.5717758" lon="132.4647479"><ele>385.2306413872745</ele><time>2024-03-16T02:41:52Z</time></trkpt><trkpt lat="33.5719563" lon="132.4647801"><ele>384.82401172409226</ele><time>2024-03-16T02:42:25Z</time></trkpt><trkpt lat="33.5720516" lon="132.4649643"><ele>383.90149979764215</ele><time>2024-03-16T02:42:45Z</time></trkpt><trkpt lat="33.5721137" lon="132.4651716"><ele>382.75837537110345</ele><time>2024-03-16T02:43:00Z</time></trkpt><trkpt lat="33.5722143" lon="132.4653618"><ele>380.5391006871732</ele><time>2024-03-16T02:43:21Z</time></trkpt><trkpt lat="33.5723848" lon="132.4654667"><ele>379.75669701549896</ele><time>2024-03-16T02:43:32Z</time></trkpt><trkpt lat="33.5725159" lon="132.4656237"><ele>380.5847390810571</ele><time>2024-03-16T02:43:47Z</time></trkpt><trkpt lat="33.5725924" lon="132.4658233"><ele>382.6067650571331</ele><time>2024-03-16T02:44:02Z</time></trkpt><trkpt lat="33.5726268" lon="132.4660399"><ele>383.5477069076231</ele><time>2024-03-16T02:44:22Z</time></trkpt><trkpt lat="33.572803" lon="132.466105"><ele>384.0074457754884</ele><time>2024-03-16T02:44:36Z</time></trkpt><trkpt lat="33.5729826" lon="132.4661284"><ele>385.91006467069525</ele><time>2024-03-16T02:44:57Z</time></trkpt><trkpt lat="33.5731541" lon="132.4662139"><ele>389.81443399090176</ele><time>2024-03-16T02:45:19Z</time></trkpt><trkpt lat="33.5732604" lon="132.4660352"><ele>390.4619718553619</ele><time>2024-03-16T02:46:42Z</time></trkpt><trkpt lat="33.5734047" lon="132.4658944"><ele>387.7418782282525</ele><time>2024-03-16T02:47:20Z</time></trkpt><trkpt lat="33.5735434" lon="132.4657507"><ele>382.61779486818006</ele><time>2024-03-16T02:48:10Z</time></trkpt><trkpt lat="33.5736473" lon="132.4655735"><ele>378.30394683081084</ele><time>2024-03-16T02:48:34Z</time></trkpt><trkpt lat="33.5737634" lon="132.4654049"><ele>375.1330728922025</ele><time>2024-03-16T02:48:58Z</time></trkpt><trkpt lat="33.5738803" lon="132.4652325"><ele>371.71666422258903</ele><time>2024-03-16T02:49:23Z</time></trkpt><trkpt lat="33.57397" lon="132.4650437"><ele>367.76736717834575</ele><time>2024-03-16T02:49:53Z</time></trkpt><trkpt lat="33.5741397" lon="132.4649487"><ele>362.7456643549286</ele><time>2024-03-16T02:50:12Z</time></trkpt><trkpt lat="33.5742414" lon="132.4647668"><ele>356.30658610314623</ele><time>2024-03-16T02:50:40Z</time></trkpt><trkpt lat="33.5740623" lon="132.4647401"><ele>351.6282088210778</ele><time>2024-03-16T02:51:42Z</time></trkpt><trkpt lat="33.5741282" lon="132.4645324"><ele>346.92606287846144</ele><time>2024-03-16T02:52:03Z</time></trkpt><trkpt lat="33.5742714" lon="132.4643898"><ele>342.7746972908244</ele><time>2024-03-16T02:52:32Z</time></trkpt><trkpt lat="33.5744134" lon="132.4642529"><ele>338.8698447308503</ele><time>2024-03-16T02:52:47Z</time></trkpt><trkpt lat="33.5743225" lon="132.4640578"><ele>335.3936161856066</ele><time>2024-03-16T02:53:07Z</time></trkpt><trkpt lat="33.5744768" lon="132.4639437"><ele>332.15056783311684</ele><time>2024-03-16T02:53:19Z</time></trkpt><trkpt lat="33.5746542" lon="132.4639998"><ele>329.0071928190101</ele><time>2024-03-16T02:53:34Z</time></trkpt><trkpt lat="33.5747692" lon="132.4641747"><ele>326.7471631639117</ele><time>2024-03-16T02:53:51Z</time></trkpt><trkpt lat="33.5748816" lon="132.4643461"><ele>325.95485211599424</ele><time>2024-03-16T02:54:04Z</time></trkpt><trkpt lat="33.574806" lon="132.4641329"><ele>323.23367175388904</ele><time>2024-03-16T02:54:33Z</time></trkpt><trkpt lat="33.5747946" lon="132.463913"><ele>319.0497603782963</ele><time>2024-03-16T02:54:49Z</time></trkpt><trkpt lat="33.5748136" lon="132.4636982"><ele>313.49491338395717</ele><time>2024-03-16T02:55:10Z</time></trkpt><trkpt lat="33.5749372" lon="132.4638638"><ele>309.6631361191963</ele><time>2024-03-16T02:56:33Z</time></trkpt><trkpt lat="33.5751143" lon="132.4639219"><ele>304.0657936081351</ele><time>2024-03-16T02:57:55Z</time></trkpt><trkpt lat="33.5751954" lon="132.4641154"><ele>300.04118062406036</ele><time>2024-03-16T02:58:09Z</time></trkpt><trkpt lat="33.5753212" lon="132.4639595"><ele>296.1910159642885</ele><time>2024-03-16T02:58:21Z</time></trkpt><trkpt lat="33.5754489" lon="132.4638039"><ele>295.53447197323766</ele><time>2024-03-16T02:58:38Z</time></trkpt><trkpt lat="33.5756189" lon="132.4637062"><ele>294.285106188481</ele><time>2024-03-16T02:58:54Z</time></trkpt><trkpt lat="33.5758058" lon="132.4636709"><ele>292.6954067795605</ele><time>2024-03-16T02:59:09Z</time></trkpt><trkpt lat="33.5759539" lon="132.4635363"><ele>290.4557377808228</ele><time>2024-03-16T02:59:23Z</time></trkpt><trkpt lat="33.5759954" lon="132.4633233"><ele>288.4391783350797</ele><time>2024-03-16T02:59:41Z</time></trkpt><trkpt lat="33.5760548" lon="132.463115"><ele>286.4252100080308</ele><time>2024-03-16T02:59:58Z</time></trkpt><trkpt lat="33.576191" lon="132.4629609"><ele>284.87980549536456</ele><time>2024-03-16T03:00:12Z</time></trkpt><trkpt lat="33.5763332" lon="132.4628258"><ele>283.66566624493834</ele><time>2024-03-16T03:00:58Z</time></trkpt><trkpt lat="33.5764846" lon="132.4626944"><ele>282.99916198075226</ele><time>2024-03-16T03:01:15Z</time></trkpt><trkpt lat="33.5766675" lon="132.4627004"><ele>282.2611702913153</ele><time>2024-03-16T03:06:59Z</time></trkpt><trkpt lat="33.5766142" lon="132.4624934"><ele>280.0910714932786</ele><time>2024-03-16T03:08:44Z</time></trkpt><trkpt lat="33.5766936" lon="132.4622968"><ele>275.4701771396955</ele><time>2024-03-16T03:09:06Z</time></trkpt><trkpt lat="33.5768709" lon="132.4622505"><ele>270.08244092968096</ele><time>2024-03-16T03:09:27Z</time></trkpt><trkpt lat="33.577021" lon="132.4623729"><ele>265.6261631618409</ele><time>2024-03-16T03:09:51Z</time></trkpt><trkpt lat="33.5769424" lon="132.4621772"><ele>261.8218112060138</ele><time>2024-03-16T03:11:04Z</time></trkpt><trkpt lat="33.5768749" lon="132.4619749"><ele>257.1237311751683</ele><time>2024-03-16T03:11:51Z</time></trkpt><trkpt lat="33.5770551" lon="132.4618828"><ele>253.6368411312303</ele><time>2024-03-16T03:12:22Z</time></trkpt><trkpt lat="33.5772319" lon="132.4618359"><ele>253.72488862429654</ele><time>2024-03-16T03:13:16Z</time></trkpt><trkpt lat="33.5773309" lon="132.4616517"><ele>256.95513627802376</ele><time>2024-03-16T03:14:08Z</time></trkpt><trkpt lat="33.5774812" lon="132.4615239"><ele>258.7474466886828</ele><time>2024-03-16T03:14:41Z</time></trkpt><trkpt lat="33.5776031" lon="132.4613476"><ele>263.09674483418496</ele><time>2024-03-16T03:15:51Z</time></trkpt><trkpt lat="33.5777107" lon="132.4611641"><ele>267.9728864285382</ele><time>2024-03-16T03:16:21Z</time></trkpt><trkpt lat="33.5778673" lon="132.4610537"><ele>274.7957752045367</ele><time>2024-03-16T03:16:58Z</time></trkpt><trkpt lat="33.5780409" lon="132.460992"><ele>278.39849401265</ele><time>2024-03-16T03:17:27Z</time></trkpt><trkpt lat="33.5781968" lon="132.4608831"><ele>281.8928028810755</ele><time>2024-03-16T03:17:57Z</time></trkpt><trkpt lat="33.57837" lon="132.4608225"><ele>287.29996277576896</ele><time>2024-03-16T03:19:25Z</time></trkpt><trkpt lat="33.578543" lon="132.4607568"><ele>294.35207886815505</ele><time>2024-03-16T03:20:10Z</time></trkpt><trkpt lat="33.5787263" lon="132.4607501"><ele>301.8261931640863</ele><time>2024-03-16T03:20:44Z</time></trkpt><trkpt lat="33.5789045" lon="132.4607115"><ele>306.996686541308</ele><time>2024-03-16T03:21:12Z</time></trkpt><trkpt lat="33.5790764" lon="132.4606344"><ele>312.3992519233287</ele><time>2024-03-16T03:22:17Z</time></trkpt><trkpt lat="33.5792618" lon="132.4606182"><ele>316.69928117858575</ele><time>2024-03-16T03:22:35Z</time></trkpt><trkpt lat="33.5794407" lon="132.4606477"><ele>323.2536782003116</ele><time>2024-03-16T03:23:21Z</time></trkpt><trkpt lat="33.5796216" lon="132.4606652"><ele>328.62377333146907</ele><time>2024-03-16T03:23:53Z</time></trkpt><trkpt lat="33.5798021" lon="132.4606206"><ele>335.27552189189106</ele><time>2024-03-16T03:24:46Z</time></trkpt><trkpt lat="33.5799797" lon="132.4605515"><ele>340.56168247055234</ele><time>2024-03-16T03:25:14Z</time></trkpt><trkpt lat="33.5801339" lon="132.4604389"><ele>348.3828004737545</ele><time>2024-03-16T03:26:14Z</time></trkpt><trkpt lat="33.5803008" lon="132.4603428"><ele>353.60769981179124</ele><time>2024-03-16T03:27:17Z</time></trkpt><trkpt lat="33.580324" lon="132.4601288"><ele>361.14410816684784</ele><time>2024-03-16T03:28:30Z</time></trkpt><trkpt lat="33.5803642" lon="132.4599132"><ele>367.4079061124806</ele><time>2024-03-16T03:29:10Z</time></trkpt><trkpt lat="33.5803562" lon="132.459686"><ele>379.75321473016635</ele><time>2024-03-16T03:30:22Z</time></trkpt><trkpt lat="33.5804586" lon="132.4595063"><ele>388.60802036005225</ele><time>2024-03-16T03:30:59Z</time></trkpt><trkpt lat="33.580614" lon="132.4593903"><ele>393.6237060359985</ele><time>2024-03-16T03:31:39Z</time></trkpt><trkpt lat="33.5807958" lon="132.4593823"><ele>392.01896750183323</ele><time>2024-03-16T03:32:07Z</time></trkpt><trkpt lat="33.5806252" lon="132.4593069"><ele>391.45205218380346</ele><time>2024-03-16T03:33:11Z</time></trkpt><trkpt lat="33.5804532" lon="132.459235"><ele>390.9365544601215</ele><time>2024-03-16T03:36:15Z</time></trkpt><trkpt lat="33.5802696" lon="132.4592036"><ele>391.96560224592145</ele><time>2024-03-16T03:38:40Z</time></trkpt><trkpt lat="33.5800893" lon="132.4591872"><ele>388.51628548073467</ele><time>2024-03-16T03:39:10Z</time></trkpt><trkpt lat="33.5799625" lon="132.4593427"><ele>383.4887464474776</ele><time>2024-03-16T03:39:45Z</time></trkpt><trkpt lat="33.579791" lon="132.4594301"><ele>376.48390626213524</ele><time>2024-03-16T03:40:01Z</time></trkpt><trkpt lat="33.5796161" lon="132.4595203"><ele>369.2362891324447</ele><time>2024-03-16T03:40:26Z</time></trkpt><trkpt lat="33.5794511" lon="132.4596162"><ele>361.79311393710026</ele><time>2024-03-16T03:40:49Z</time></trkpt><trkpt lat="33.5792814" lon="132.4595317"><ele>353.3048376260038</ele><time>2024-03-16T03:41:10Z</time></trkpt><trkpt lat="33.5791066" lon="132.4595942"><ele>345.6370533725379</ele><time>2024-03-16T03:41:28Z</time></trkpt><trkpt lat="33.578938" lon="132.4596841"><ele>335.7366272268471</ele><time>2024-03-16T03:42:08Z</time></trkpt><trkpt lat="33.5787574" lon="132.4597352"><ele>325.2611363875048</ele><time>2024-03-16T03:42:33Z</time></trkpt><trkpt lat="33.5785776" lon="132.4597615"><ele>315.4045406443493</ele><time>2024-03-16T03:42:52Z</time></trkpt><trkpt lat="33.5783952" lon="132.459758"><ele>307.6549447089679</ele><time>2024-03-16T03:43:25Z</time></trkpt><trkpt lat="33.578217" lon="132.4597221"><ele>301.0958109562356</ele><time>2024-03-16T03:43:59Z</time></trkpt><trkpt lat="33.5780369" lon="132.4597035"><ele>294.4242307261636</ele><time>2024-03-16T03:44:14Z</time></trkpt><trkpt lat="33.5778939" lon="132.459571"><ele>287.7718950014865</ele><time>2024-03-16T03:45:01Z</time></trkpt><trkpt lat="33.5777426" lon="132.4594521"><ele>280.84412793722163</ele><time>2024-03-16T03:45:24Z</time></trkpt><trkpt lat="33.5775606" lon="132.4594535"><ele>274.0338072601289</ele><time>2024-03-16T03:47:23Z</time></trkpt><trkpt lat="33.5773844" lon="132.4594997"><ele>268.6397761462173</ele><time>2024-03-16T03:47:45Z</time></trkpt><trkpt lat="33.5772119" lon="132.4594326"><ele>264.8677967262017</ele><time>2024-03-16T03:48:07Z</time></trkpt><trkpt lat="33.5770835" lon="132.4595903"><ele>263.06685452428616</ele><time>2024-03-16T03:48:50Z</time></trkpt><trkpt lat="33.5771102" lon="132.4598039"><ele>261.7485597639849</ele><time>2024-03-16T03:49:08Z</time></trkpt><trkpt lat="33.5771137" lon="132.4600208"><ele>260.8251501921239</ele><time>2024-03-16T03:50:41Z</time></trkpt><trkpt lat="33.5769316" lon="132.4600076"><ele>257.3319622497766</ele><time>2024-03-16T03:54:03Z</time></trkpt><trkpt lat="33.5768247" lon="132.4598261"><ele>253.25321573917086</ele><time>2024-03-16T03:54:23Z</time></trkpt><trkpt lat="33.5767442" lon="132.4596302"><ele>248.59061159017926</ele><time>2024-03-16T03:54:38Z</time></trkpt><trkpt lat="33.57665" lon="132.4594431"><ele>244.81219206557248</ele><time>2024-03-16T03:54:53Z</time></trkpt><trkpt lat="33.5765596" lon="132.4592516"><ele>241.73314746792582</ele><time>2024-03-16T03:55:07Z</time></trkpt><trkpt lat="33.5765141" lon="132.4590344"><ele>238.63150325177898</ele><time>2024-03-16T03:55:23Z</time></trkpt><trkpt lat="33.5764767" lon="132.4588218"><ele>237.16847158411542</ele><time>2024-03-16T03:55:35Z</time></trkpt><trkpt lat="33.5765073" lon="132.4586041"><ele>235.5333585322132</ele><time>2024-03-16T03:55:49Z</time></trkpt><trkpt lat="33.5765129" lon="132.4583851"><ele>234.3779620915022</ele><time>2024-03-16T03:56:03Z</time></trkpt><trkpt lat="33.5764538" lon="132.4581783"><ele>231.43194489570237</ele><time>2024-03-16T03:56:25Z</time></trkpt><trkpt lat="33.5765611" lon="132.458002"><ele>229.29696171137115</ele><time>2024-03-16T03:56:37Z</time></trkpt><trkpt lat="33.5767009" lon="132.457851"><ele>226.85715673747904</ele><time>2024-03-16T03:56:50Z</time></trkpt><trkpt lat="33.5767504" lon="132.4576341"><ele>226.03362879734968</ele><time>2024-03-16T03:57:04Z</time></trkpt><trkpt lat="33.5768436" lon="132.4574442"><ele>225.03413964953313</ele><time>2024-03-16T03:57:19Z</time></trkpt><trkpt lat="33.5769908" lon="132.4572925"><ele>224.61603689526396</ele><time>2024-03-16T03:57:33Z</time></trkpt><trkpt lat="33.5769948" lon="132.4570711"><ele>223.127447782109</ele><time>2024-03-16T03:57:47Z</time></trkpt><trkpt lat="33.5768066" lon="132.4571035"><ele>221.50154337638</ele><time>2024-03-16T03:58:02Z</time></trkpt><trkpt lat="33.5767488" lon="132.4568968"><ele>218.74752996710677</ele><time>2024-03-16T03:58:19Z</time></trkpt><trkpt lat="33.5768923" lon="132.4567609"><ele>217.31022145249403</ele><time>2024-03-16T03:58:32Z</time></trkpt><trkpt lat="33.5770041" lon="132.4565888"><ele>215.13826871011636</ele><time>2024-03-16T03:58:45Z</time></trkpt><trkpt lat="33.5770317" lon="132.4563704"><ele>214.0026908714755</ele><time>2024-03-16T03:58:59Z</time></trkpt><trkpt lat="33.5770071" lon="132.4561564"><ele>211.80908205499404</ele><time>2024-03-16T03:59:14Z</time></trkpt><trkpt lat="33.576894" lon="132.4559885"><ele>209.78710424980213</ele><time>2024-03-16T03:59:29Z</time></trkpt><trkpt lat="33.5767656" lon="132.4558194"><ele>207.65563726563278</ele><time>2024-03-16T03:59:43Z</time></trkpt><trkpt lat="33.5766415" lon="132.4556548"><ele>205.73684949736278</ele><time>2024-03-16T03:59:58Z</time></trkpt><trkpt lat="33.576559" lon="132.4554605"><ele>204.8160625219385</ele><time>2024-03-16T04:00:10Z</time></trkpt><trkpt lat="33.5764265" lon="132.4553064"><ele>203.3637030792146</ele><time>2024-03-16T04:00:50Z</time></trkpt><trkpt lat="33.5764451" lon="132.4555268"><ele>201.66478291991004</ele><time>2024-03-16T04:01:06Z</time></trkpt><trkpt lat="33.5765002" lon="132.4557429"><ele>199.48579787126707</ele><time>2024-03-16T04:01:22Z</time></trkpt><trkpt lat="33.5765955" lon="132.4559385"><ele>197.48761155205773</ele><time>2024-03-16T04:01:36Z</time></trkpt><trkpt lat="33.5766214" lon="132.4561564"><ele>195.43635828214246</ele><time>2024-03-16T04:01:49Z</time></trkpt><trkpt lat="33.5764612" lon="132.4560401"><ele>192.62451522702398</ele><time>2024-03-16T04:02:03Z</time></trkpt><trkpt lat="33.5763249" lon="132.455883"><ele>190.40403307017664</ele><time>2024-03-16T04:02:16Z</time></trkpt><trkpt lat="33.576224" lon="132.4557013"><ele>188.27926439842796</ele><time>2024-03-16T04:02:29Z</time></trkpt><trkpt lat="33.5761202" lon="132.4558789"><ele>186.12194594897542</ele><time>2024-03-16T04:03:02Z</time></trkpt><trkpt lat="33.5762637" lon="132.4560231"><ele>183.58788375668055</ele><time>2024-03-16T04:03:15Z</time></trkpt><trkpt lat="33.5763755" lon="132.4561981"><ele>181.50679989054387</ele><time>2024-03-16T04:03:29Z</time></trkpt><trkpt lat="33.5761953" lon="132.4561819"><ele>178.93156691055188</ele><time>2024-03-16T04:04:34Z</time></trkpt><trkpt lat="33.5760436" lon="132.456061"><ele>176.5871875978621</ele><time>2024-03-16T04:04:46Z</time></trkpt><trkpt lat="33.5759252" lon="132.4558919"><ele>173.52779773193788</ele><time>2024-03-16T04:05:06Z</time></trkpt><trkpt lat="33.5758636" lon="132.4556804"><ele>172.26851886463905</ele><time>2024-03-16T04:05:21Z</time></trkpt><trkpt lat="33.5758908" lon="132.4554663"><ele>171.0529704518493</ele><time>2024-03-16T04:05:34Z</time></trkpt><trkpt lat="33.5759007" lon="132.4552487"><ele>170.21988058754945</ele><time>2024-03-16T04:05:49Z</time></trkpt><trkpt lat="33.575904" lon="132.455027"><ele>169.06697383847347</ele><time>2024-03-16T04:06:01Z</time></trkpt><trkpt lat="33.5758795" lon="132.4548115"><ele>167.61007928706033</ele><time>2024-03-16T04:06:15Z</time></trkpt><trkpt lat="33.5758599" lon="132.4545888"><ele>166.60625598667613</ele><time>2024-03-16T04:06:29Z</time></trkpt><trkpt lat="33.5758347" lon="132.4543701"><ele>165.3372940236394</ele><time>2024-03-16T04:06:42Z</time></trkpt><trkpt lat="33.5758214" lon="132.4541439"><ele>164.30502596336038</ele><time>2024-03-16T04:06:56Z</time></trkpt><trkpt lat="33.5757993" lon="132.4539281"><ele>162.2167284543235</ele><time>2024-03-16T04:07:10Z</time></trkpt><trkpt lat="33.5757267" lon="132.4537303"><ele>160.36990607771307</ele><time>2024-03-16T04:07:23Z</time></trkpt><trkpt lat="33.575596" lon="132.4535567"><ele>157.9125911419895</ele><time>2024-03-16T04:07:38Z</time></trkpt><trkpt lat="33.5754795" lon="132.45339"><ele>156.25832836412516</ele><time>2024-03-16T04:07:51Z</time></trkpt><trkpt lat="33.5753625" lon="132.4532123"><ele>153.85454270045588</ele><time>2024-03-16T04:08:06Z</time></trkpt><trkpt lat="33.5751909" lon="132.4531163"><ele>152.30073911893277</ele><time>2024-03-16T04:08:21Z</time></trkpt><trkpt lat="33.5750277" lon="132.453007"><ele>150.39871489240576</ele><time>2024-03-16T04:08:35Z</time></trkpt><trkpt lat="33.574885" lon="132.4528648"><ele>149.26983147013496</ele><time>2024-03-16T04:08:48Z</time></trkpt><trkpt lat="33.574768" lon="132.4526951"><ele>147.45518366590375</ele><time>2024-03-16T04:09:01Z</time></trkpt><trkpt lat="33.5746818" lon="132.4525027"><ele>145.92735126925848</ele><time>2024-03-16T04:09:15Z</time></trkpt><trkpt lat="33.5747115" lon="132.4522868"><ele>143.74212993872322</ele><time>2024-03-16T04:09:29Z</time></trkpt><trkpt lat="33.5746989" lon="132.4520715"><ele>141.95934158321253</ele><time>2024-03-16T04:09:42Z</time></trkpt><trkpt lat="33.5746505" lon="132.4518619"><ele>139.7533822668768</ele><time>2024-03-16T04:09:55Z</time></trkpt><trkpt lat="33.5746131" lon="132.451633"><ele>138.1904057438945</ele><time>2024-03-16T04:10:08Z</time></trkpt><trkpt lat="33.574656" lon="132.4514156"><ele>135.67386235024603</ele><time>2024-03-16T04:10:21Z</time></trkpt><trkpt lat="33.5746785" lon="132.4512"><ele>133.82387128838954</ele><time>2024-03-16T04:10:34Z</time></trkpt><trkpt lat="33.5745837" lon="132.4510155"><ele>131.96525787448078</ele><time>2024-03-16T04:10:49Z</time></trkpt><trkpt lat="33.5744481" lon="132.4508582"><ele>130.75172099408113</ele><time>2024-03-16T04:11:04Z</time></trkpt><trkpt lat="33.574282" lon="132.4507671"><ele>129.01254866397156</ele><time>2024-03-16T04:11:17Z</time></trkpt><trkpt lat="33.5741171" lon="132.4506617"><ele>127.68864701320778</ele><time>2024-03-16T04:11:31Z</time></trkpt><trkpt lat="33.5740273" lon="132.4504748"><ele>126.0775789503504</ele><time>2024-03-16T04:11:43Z</time></trkpt><trkpt lat="33.5739622" lon="132.4502576"><ele>124.72579117669513</ele><time>2024-03-16T04:11:57Z</time></trkpt><trkpt lat="33.5739055" lon="132.4500483"><ele>123.69342308259888</ele><time>2024-03-16T04:12:11Z</time></trkpt><trkpt lat="33.5738099" lon="132.4498542"><ele>122.9349304939135</ele><time>2024-03-16T04:12:24Z</time></trkpt><trkpt lat="33.5736604" lon="132.4497276"><ele>122.29045402407043</ele><time>2024-03-16T04:12:37Z</time></trkpt><trkpt lat="33.5735165" lon="132.4495865"><ele>120.69184332772174</ele><time>2024-03-16T04:12:51Z</time></trkpt><trkpt lat="33.5734173" lon="132.4493961"><ele>119.84089992902666</ele><time>2024-03-16T04:13:05Z</time></trkpt><trkpt lat="33.5733692" lon="132.4491774"><ele>118.57757653613449</ele><time>2024-03-16T04:13:18Z</time></trkpt><trkpt lat="33.5734164" lon="132.4489575"><ele>118.00993734913955</ele><time>2024-03-16T04:13:33Z</time></trkpt><trkpt lat="33.5736012" lon="132.4489148"><ele>116.49298762759088</ele><time>2024-03-16T04:13:55Z</time></trkpt><trkpt lat="33.5737751" lon="132.4490072"><ele>114.9719022656415</ele><time>2024-03-16T04:14:10Z</time></trkpt><trkpt lat="33.5739553" lon="132.448945"><ele>112.72119929283501</ele><time>2024-03-16T04:14:27Z</time></trkpt><trkpt lat="33.574004" lon="132.4487355"><ele>110.44152252758754</ele><time>2024-03-16T04:14:40Z</time></trkpt><trkpt lat="33.5739528" lon="132.4485251"><ele>109.14745597792853</ele><time>2024-03-16T04:14:54Z</time></trkpt><trkpt lat="33.5739346" lon="132.4483099"><ele>107.69214134219591</ele><time>2024-03-16T04:15:06Z</time></trkpt><trkpt lat="33.5739225" lon="132.4480903"><ele>106.27457232872496</ele><time>2024-03-16T04:15:21Z</time></trkpt><trkpt lat="33.573978" lon="132.4478737"><ele>104.66299034934379</ele><time>2024-03-16T04:15:34Z</time></trkpt><trkpt lat="33.5740487" lon="132.4476697"><ele>103.14876288717943</ele><time>2024-03-16T04:15:47Z</time></trkpt><trkpt lat="33.5742236" lon="132.4476134"><ele>102.43579258523465</ele><time>2024-03-16T04:16:00Z</time></trkpt><trkpt lat="33.5743999" lon="132.4476692"><ele>101.04454116422967</ele><time>2024-03-16T04:16:11Z</time></trkpt><trkpt lat="33.5745602" lon="132.4477835"><ele>99.8491015571427</ele><time>2024-03-16T04:16:25Z</time></trkpt><trkpt lat="33.5747408" lon="132.447811"><ele>97.61710961762698</ele><time>2024-03-16T04:16:39Z</time></trkpt><trkpt lat="33.5748622" lon="132.4476501"><ele>95.3792266877299</ele><time>2024-03-16T04:16:52Z</time></trkpt><trkpt lat="33.5748036" lon="132.4474456"><ele>92.16756260370835</ele><time>2024-03-16T04:17:06Z</time></trkpt><trkpt lat="33.5746698" lon="132.4472883"><ele>89.68533631088955</ele><time>2024-03-16T04:17:23Z</time></trkpt><trkpt lat="33.5746267" lon="132.4470602"><ele>86.66412365651252</ele><time>2024-03-16T04:17:37Z</time></trkpt><trkpt lat="33.5745615" lon="132.4468553"><ele>84.54269763079007</ele><time>2024-03-16T04:17:49Z</time></trkpt><trkpt lat="33.5744311" lon="132.4467062"><ele>81.93474491678153</ele><time>2024-03-16T04:18:04Z</time></trkpt><trkpt lat="33.5743268" lon="132.446522"><ele>79.8050730992354</ele><time>2024-03-16T04:18:17Z</time></trkpt><trkpt lat="33.5742745" lon="132.4463047"><ele>77.76421153387984</ele><time>2024-03-16T04:18:30Z</time></trkpt><trkpt lat="33.5743073" lon="132.4460801"><ele>76.01550037623599</ele><time>2024-03-16T04:18:44Z</time></trkpt><trkpt lat="33.5743306" lon="132.4458635"><ele>74.20452132066553</ele><time>2024-03-16T04:18:57Z</time></trkpt><trkpt lat="33.5743948" lon="132.4456619"><ele>72.25297154456523</ele><time>2024-03-16T04:19:10Z</time></trkpt><trkpt lat="33.5743261" lon="132.4454537"><ele>69.6721080677265</ele><time>2024-03-16T04:19:27Z</time></trkpt><trkpt lat="33.5742124" lon="132.4452765"><ele>67.08593804409144</ele><time>2024-03-16T04:19:57Z</time></trkpt><trkpt lat="33.5741422" lon="132.4450743"><ele>64.03126241539358</ele><time>2024-03-16T04:20:11Z</time></trkpt><trkpt lat="33.5740536" lon="132.4448803"><ele>61.11726676384924</ele><time>2024-03-16T04:20:24Z</time></trkpt><trkpt lat="33.5740127" lon="132.4446611"><ele>58.56379120397718</ele><time>2024-03-16T04:20:37Z</time></trkpt><trkpt lat="33.574023" lon="132.4444288"><ele>56.1289833937935</ele><time>2024-03-16T04:20:51Z</time></trkpt><trkpt lat="33.5740762" lon="132.4442153"><ele>53.39498130661909</ele><time>2024-03-16T04:21:03Z</time></trkpt><trkpt lat="33.5741323" lon="132.4440011"><ele>50.18136016029367</ele><time>2024-03-16T04:21:17Z</time></trkpt><trkpt lat="33.5742291" lon="132.4438117"><ele>47.652371390940154</ele><time>2024-03-16T04:21:32Z</time></trkpt><trkpt lat="33.574414" lon="132.4437825"><ele>45.31433133051309</ele><time>2024-03-16T04:21:45Z</time></trkpt><trkpt lat="33.5746016" lon="132.4438098"><ele>42.38760215010224</ele><time>2024-03-16T04:21:59Z</time></trkpt><trkpt lat="33.5746568" lon="132.4436036"><ele>38.608067944329534</ele><time>2024-03-16T04:22:13Z</time></trkpt><trkpt lat="33.5746137" lon="132.4433769"><ele>35.30038066388624</ele><time>2024-03-16T04:22:25Z</time></trkpt><trkpt lat="33.5746036" lon="132.4431603"><ele>32.38883569849156</ele><time>2024-03-16T04:22:38Z</time></trkpt><trkpt lat="33.574623" lon="132.4429317"><ele>29.525196019062236</ele><time>2024-03-16T04:22:51Z</time></trkpt><trkpt lat="33.5746898" lon="132.4427219"><ele>26.340073267922588</ele><time>2024-03-16T04:23:06Z</time></trkpt><trkpt lat="33.5747488" lon="132.4425164"><ele>23.334251131312044</ele><time>2024-03-16T04:23:19Z</time></trkpt><trkpt lat="33.5746051" lon="132.4426491"><ele>21.06632763933579</ele><time>2024-03-16T04:23:37Z</time></trkpt><trkpt lat="33.5744547" lon="132.4427728"><ele>19.247072770284124</ele><time>2024-03-16T04:23:55Z</time></trkpt><trkpt lat="33.574261" lon="132.4427611"><ele>17.72640586804676</ele><time>2024-03-16T04:24:10Z</time></trkpt></trkseg></trk></gpx>