<?xml version='1.0' encoding='UTF-8'?><gpx creator="YAMAP - https://yamap.com" xsi:schemaLocation="http://www.topografix.com/GPX/1/1 http://www.topografix.com/GPX/1/1/gpx.xsd" version="1.1" xmlns="http://www.topografix.com/GPX/1/1" xmlns:xsi="http://www.w3.org/2001/XMLSchema-instance"><metadata><bounds maxlat="34.1405931" maxlon="133.0529424" minlat="34.1367719" minlon="133.0474557"/></metadata><trk><name>八幡山</name><number>1</number><trkseg><trkpt lat="34.1368897" lon="133.0525879"><ele>64.03</ele><time>2025-02-09T03:21:17Z</time></trkpt><trkpt lat="34.1370746" lon="133.0526057"><ele>67.73</ele><time>2025-02-09T03:22:30Z</time></trkpt><trkpt lat="34.1372425" lon="133.0526983"><ele>71.65333333333334</ele><time>2025-02-09T03:24:06Z</time></trkpt><trkpt lat="34.1374251" lon="133.0528226"><ele>77.67</ele><time>2025-02-09T03:24:28Z</time></trkpt><trkpt lat="34.137595" lon="133.0529072"><ele>82.39</ele><time>2025-02-09T03:25:20Z</time></trkpt><trkpt lat="34.1377842" lon="133.052919"><ele>86.52666666666669</ele><time>2025-02-09T03:27:20Z</time></trkpt><trkpt lat="34.1379808" lon="133.0528632"><ele>91.74666666666667</ele><time>2025-02-09T03:28:50Z</time></trkpt><trkpt lat="34.1381592" lon="133.0527659"><ele>96.72000000000001</ele><time>2025-02-09T03:29:29Z</time></trkpt><trkpt lat="34.138277" lon="133.0525939"><ele>98.37666666666667</ele><time>2025-02-09T03:30:50Z</time></trkpt><trkpt lat="34.1382813" lon="133.0523765"><ele>96.35333333333334</ele><time>2025-02-09T03:31:08Z</time></trkpt><trkpt lat="34.13843" lon="133.0522149"><ele>96.31333333333333</ele><time>2025-02-09T03:31:29Z</time></trkpt><trkpt lat="34.1385475" lon="133.0520335"><ele>100.93666666666667</ele><time>2025-02-09T03:32:01Z</time></trkpt><trkpt lat="34.1386659" lon="133.0518396"><ele>107.79</ele><time>2025-02-09T03:32:49Z</time></trkpt><trkpt lat="34.1386739" lon="133.0516103"><ele>110.40666666666668</ele><time>2025-02-09T03:33:09Z</time></trkpt><trkpt lat="34.1388189" lon="133.0514711"><ele>112.17666666666668</ele><time>2025-02-09T03:33:30Z</time></trkpt><trkpt lat="34.1389915" lon="133.0513852"><ele>115.74000000000001</ele><time>2025-02-09T03:33:50Z</time></trkpt><trkpt lat="34.1390641" lon="133.0511765"><ele>121.93</ele><time>2025-02-09T03:34:19Z</time></trkpt><trkpt lat="34.1391383" lon="133.0509766"><ele>126.25333333333333</ele><time>2025-02-09T03:35:14Z</time></trkpt><trkpt lat="34.1391629" lon="133.0507584"><ele>128.15666666666667</ele><time>2025-02-09T03:35:34Z</time></trkpt><trkpt lat="34.1392256" lon="133.0505209"><ele>127.72666666666665</ele><time>2025-02-09T03:36:04Z</time></trkpt><trkpt lat="34.1392491" lon="133.0503002"><ele>126.00666666666666</ele><time>2025-02-09T03:36:34Z</time></trkpt><trkpt lat="34.1392503" lon="133.0500715"><ele>124.0</ele><time>2025-02-09T03:36:52Z</time></trkpt><trkpt lat="34.139347" lon="133.0498833"><ele>123.25333333333333</ele><time>2025-02-09T03:37:16Z</time></trkpt><trkpt lat="34.1394911" lon="133.0495148"><ele>122.77333333333333</ele><time>2025-02-09T03:37:45Z</time></trkpt><trkpt lat="34.1395862" lon="133.0493289"><ele>125.07000000000001</ele><time>2025-02-09T03:38:20Z</time></trkpt><trkpt lat="34.1396752" lon="133.0491299"><ele>129.81</ele><time>2025-02-09T03:39:31Z</time></trkpt><trkpt lat="34.1398367" lon="133.049025"><ele>137.09333333333333</ele><time>2025-02-09T03:40:29Z</time></trkpt><trkpt lat="34.1400257" lon="133.0490642"><ele>145.32333333333332</ele><time>2025-02-09T03:41:52Z</time></trkpt><trkpt lat="34.1402122" lon="133.0489696"><ele>153.11666666666667</ele><time>2025-02-09T03:42:13Z</time></trkpt><trkpt lat="34.1404228" lon="133.048699"><ele>162.46333333333334</ele><time>2025-02-09T03:43:55Z</time></trkpt><trkpt lat="34.1405075" lon="133.0484968"><ele>171.37333333333333</ele><time>2025-02-09T03:44:56Z</time></trkpt><trkpt lat="34.1405097" lon="133.0482739"><ele>180.90333333333334</ele><time>2025-02-09T03:45:25Z</time></trkpt><trkpt lat="34.1405931" lon="133.0480562"><ele>189.07000000000002</ele><time>2025-02-09T03:46:55Z</time></trkpt><trkpt lat="34.1405544" lon="133.047825"><ele>197.37666666666667</ele><time>2025-02-09T03:47:26Z</time></trkpt><trkpt lat="34.1404595" lon="133.0476374"><ele>204.73333333333332</ele><time>2025-02-09T03:48:38Z</time></trkpt><trkpt lat="34.1403414" lon="133.0474557"><ele>209.51333333333332</ele><time>2025-02-09T03:49:35Z</time></trkpt><trkpt lat="34.140513" lon="133.0475658"><ele>211.73666666666668</ele><time>2025-02-09T03:54:52Z</time></trkpt><trkpt lat="34.1405746" lon="133.0478183"><ele>209.83666666666667</ele><time>2025-02-09T03:55:28Z</time></trkpt><trkpt lat="34.1405355" lon="133.0480412"><ele>204.35333333333335</ele><time>2025-02-09T03:55:43Z</time></trkpt><trkpt lat="34.1404561" lon="133.0482654"><ele>195.76</ele><time>2025-02-09T03:56:20Z</time></trkpt><trkpt lat="34.1404235" lon="133.0485166"><ele>186.24</ele><time>2025-02-09T03:59:04Z</time></trkpt><trkpt lat="34.1403386" lon="133.0487267"><ele>177.06000000000003</ele><time>2025-02-09T03:59:28Z</time></trkpt><trkpt lat="34.1402023" lon="133.0488953"><ele>168.48333333333335</ele><time>2025-02-09T04:00:17Z</time></trkpt><trkpt lat="34.1400264" lon="133.0489764"><ele>161.00666666666666</ele><time>2025-02-09T04:00:46Z</time></trkpt><trkpt lat="34.1398525" lon="133.0490369"><ele>153.37666666666667</ele><time>2025-02-09T04:01:54Z</time></trkpt><trkpt lat="34.1396743" lon="133.0491648"><ele>145.35666666666665</ele><time>2025-02-09T04:03:52Z</time></trkpt><trkpt lat="34.139547" lon="133.0493262"><ele>135.82666666666668</ele><time>2025-02-09T04:04:27Z</time></trkpt><trkpt lat="34.1394301" lon="133.0495404"><ele>127.92</ele><time>2025-02-09T04:04:48Z</time></trkpt><trkpt lat="34.1393508" lon="133.0497441"><ele>122.94</ele><time>2025-02-09T04:05:07Z</time></trkpt><trkpt lat="34.1393002" lon="133.0499933"><ele>121.66666666666667</ele><time>2025-02-09T04:05:24Z</time></trkpt><trkpt lat="34.1392849" lon="133.0502358"><ele>122.69666666666667</ele><time>2025-02-09T04:05:39Z</time></trkpt><trkpt lat="34.1391829" lon="133.050433"><ele>123.27</ele><time>2025-02-09T04:05:56Z</time></trkpt><trkpt lat="34.1392506" lon="133.0506437"><ele>124.07333333333334</ele><time>2025-02-09T04:06:11Z</time></trkpt><trkpt lat="34.1391484" lon="133.0508342"><ele>126.16666666666667</ele><time>2025-02-09T04:06:26Z</time></trkpt><trkpt lat="34.1390371" lon="133.0510327"><ele>127.19666666666667</ele><time>2025-02-09T04:06:46Z</time></trkpt><trkpt lat="34.1389281" lon="133.051214"><ele>124.55666666666667</ele><time>2025-02-09T04:07:04Z</time></trkpt><trkpt lat="34.1387601" lon="133.0512928"><ele>117.99000000000001</ele><time>2025-02-09T04:07:15Z</time></trkpt><trkpt lat="34.1387018" lon="133.0514997"><ele>111.80333333333334</ele><time>2025-02-09T04:07:36Z</time></trkpt><trkpt lat="34.1386225" lon="133.0517306"><ele>109.05000000000001</ele><time>2025-02-09T04:08:01Z</time></trkpt><trkpt lat="34.1386053" lon="133.0519545"><ele>109.63</ele><time>2025-02-09T04:08:24Z</time></trkpt><trkpt lat="34.1386905" lon="133.0521976"><ele>109.54333333333334</ele><time>2025-02-09T04:08:57Z</time></trkpt><trkpt lat="34.138853" lon="133.0523416"><ele>108.83</ele><time>2025-02-09T04:09:17Z</time></trkpt><trkpt lat="34.1388167" lon="133.0525573"><ele>104.70333333333333</ele><time>2025-02-09T04:09:38Z</time></trkpt><trkpt lat="34.1387647" lon="133.0523399"><ele>103.16000000000001</ele><time>2025-02-09T04:10:48Z</time></trkpt><trkpt lat="34.1386467" lon="133.0521668"><ele>103.79</ele><time>2025-02-09T04:11:23Z</time></trkpt><trkpt lat="34.1384622" lon="133.0521594"><ele>105.87333333333333</ele><time>2025-02-09T04:12:05Z</time></trkpt><trkpt lat="34.1383862" lon="133.0523739"><ele>104.63666666666666</ele><time>2025-02-09T04:12:26Z</time></trkpt><trkpt lat="34.1382792" lon="133.0525536"><ele>100.21666666666665</ele><time>2025-02-09T04:12:44Z</time></trkpt><trkpt lat="34.138147" lon="133.0527442"><ele>97.92</ele><time>2025-02-09T04:13:05Z</time></trkpt><trkpt lat="34.1379665" lon="133.0528628"><ele>97.28333333333335</ele><time>2025-02-09T04:14:02Z</time></trkpt><trkpt lat="34.13779" lon="133.0529331"><ele>96.09333333333332</ele><time>2025-02-09T04:14:32Z</time></trkpt><trkpt lat="34.137607" lon="133.0529424"><ele>92.15000000000002</ele><time>2025-02-09T04:15:08Z</time></trkpt><trkpt lat="34.1374528" lon="133.0528275"><ele>86.93</ele><time>2025-02-09T04:15:41Z</time></trkpt><trkpt lat="34.1373083" lon="133.0526666"><ele>81.95</ele><time>2025-02-09T04:16:05Z</time></trkpt><trkpt lat="34.1371429" lon="133.0525629"><ele>76.95</ele><time>2025-02-09T04:16:53Z</time></trkpt><trkpt lat="34.1369678" lon="133.0524964"><ele>70.90666666666668</ele><time>2025-02-09T04:17:32Z</time></trkpt><trkpt lat="34.1367719" lon="133.0524405"><ele>63.79</ele><time>2025-02-09T04:17:53Z</time></trkpt></trkseg></trk></gpx>