<?xml version='1.0' encoding='UTF-8'?><gpx creator="YAMAP - https://yamap.com" xsi:schemaLocation="http://www.topografix.com/GPX/1/1 http://www.topografix.com/GPX/1/1/gpx.xsd" version="1.1" xmlns="http://www.topografix.com/GPX/1/1" xmlns:xsi="http://www.w3.org/2001/XMLSchema-instance"><metadata><bounds maxlat="33.8406439" maxlon="133.2843385" minlat="33.828063" minlon="133.2581172"/></metadata><trk><name>丸山・ちち山・笹ヶ峰</name><number>1</number><trkseg><trkpt lat="33.8395083" lon="133.2590971"><ele>1007.6700000000001</ele><time>2026-05-05T22:28:55Z</time></trkpt><trkpt lat="33.839694" lon="133.2590577"><ele>1006.655</ele><time>2026-05-05T22:35:26Z</time></trkpt><trkpt lat="33.8398102" lon="133.2588673"><ele>1005.36</ele><time>2026-05-05T22:35:44Z</time></trkpt><trkpt lat="33.839933" lon="133.2586734"><ele>1001.6266666666667</ele><time>2026-05-05T22:36:04Z</time></trkpt><trkpt lat="33.8400145" lon="133.2584718"><ele>997.18</ele><time>2026-05-05T22:36:21Z</time></trkpt><trkpt lat="33.8401331" lon="133.2582979"><ele>993.09</ele><time>2026-05-05T22:36:39Z</time></trkpt><trkpt lat="33.8403039" lon="133.2581806"><ele>990.4500000000002</ele><time>2026-05-05T22:37:01Z</time></trkpt><trkpt lat="33.8404847" lon="133.2582995"><ele>989.7066666666668</ele><time>2026-05-05T22:37:19Z</time></trkpt><trkpt lat="33.8406244" lon="133.2581172"><ele>988.8433333333334</ele><time>2026-05-05T22:37:36Z</time></trkpt><trkpt lat="33.8405734" lon="133.258329"><ele>991.38</ele><time>2026-05-05T22:38:28Z</time></trkpt><trkpt lat="33.8404021" lon="133.258243"><ele>992.06</ele><time>2026-05-05T22:39:01Z</time></trkpt><trkpt lat="33.8402271" lon="133.2581212"><ele>990.4733333333334</ele><time>2026-05-05T22:39:25Z</time></trkpt><trkpt lat="33.840035" lon="133.258239"><ele>987.1933333333333</ele><time>2026-05-05T22:39:43Z</time></trkpt><trkpt lat="33.8399254" lon="133.2584376"><ele>986.62</ele><time>2026-05-05T22:39:57Z</time></trkpt><trkpt lat="33.839863" lon="133.2586617"><ele>990.1333333333333</ele><time>2026-05-05T22:40:14Z</time></trkpt><trkpt lat="33.8398705" lon="133.2588968"><ele>995.7066666666666</ele><time>2026-05-05T22:40:50Z</time></trkpt><trkpt lat="33.8397266" lon="133.2590317"><ele>1001.0666666666666</ele><time>2026-05-05T22:41:35Z</time></trkpt><trkpt lat="33.8396106" lon="133.259203"><ele>1006.21</ele><time>2026-05-05T22:43:44Z</time></trkpt><trkpt lat="33.8397154" lon="133.2589843"><ele>1006.5900000000001</ele><time>2026-05-05T23:12:58Z</time></trkpt><trkpt lat="33.8395988" lon="133.2591891"><ele>1007.4733333333334</ele><time>2026-05-05T23:19:29Z</time></trkpt><trkpt lat="33.8396731" lon="133.2593948"><ele>1010.1533333333333</ele><time>2026-05-05T23:20:32Z</time></trkpt><trkpt lat="33.8395208" lon="133.2595414"><ele>1016.2400000000001</ele><time>2026-05-05T23:22:13Z</time></trkpt><trkpt lat="33.8395219" lon="133.2597586"><ele>1022.8633333333333</ele><time>2026-05-05T23:22:58Z</time></trkpt><trkpt lat="33.8395118" lon="133.2599772"><ele>1031.41</ele><time>2026-05-05T23:23:46Z</time></trkpt><trkpt lat="33.8394158" lon="133.260171"><ele>1040.49</ele><time>2026-05-05T23:24:28Z</time></trkpt><trkpt lat="33.8394494" lon="133.2603861"><ele>1050.1933333333334</ele><time>2026-05-05T23:25:10Z</time></trkpt><trkpt lat="33.8394237" lon="133.2606151"><ele>1056.5933333333332</ele><time>2026-05-05T23:25:37Z</time></trkpt><trkpt lat="33.8393663" lon="133.2608293"><ele>1061.5266666666666</ele><time>2026-05-05T23:26:37Z</time></trkpt><trkpt lat="33.8392716" lon="133.2610384"><ele>1063.78</ele><time>2026-05-05T23:27:10Z</time></trkpt><trkpt lat="33.8393151" lon="133.2612719"><ele>1066.2866666666666</ele><time>2026-05-05T23:27:52Z</time></trkpt><trkpt lat="33.8392632" lon="133.2614801"><ele>1068.3500000000001</ele><time>2026-05-05T23:28:36Z</time></trkpt><trkpt lat="33.8392891" lon="133.261714"><ele>1073.3633333333335</ele><time>2026-05-05T23:29:12Z</time></trkpt><trkpt lat="33.8392642" lon="133.2619352"><ele>1077.0833333333333</ele><time>2026-05-05T23:29:38Z</time></trkpt><trkpt lat="33.839184" lon="133.2621457"><ele>1081.08</ele><time>2026-05-05T23:30:25Z</time></trkpt><trkpt lat="33.8391838" lon="133.2623753"><ele>1083.6166666666668</ele><time>2026-05-05T23:32:19Z</time></trkpt><trkpt lat="33.839074" lon="133.2625543"><ele>1087.2766666666666</ele><time>2026-05-05T23:33:01Z</time></trkpt><trkpt lat="33.8391838" lon="133.2627371"><ele>1093.55</ele><time>2026-05-05T23:33:52Z</time></trkpt><trkpt lat="33.8391516" lon="133.2629574"><ele>1100.1866666666667</ele><time>2026-05-05T23:34:49Z</time></trkpt><trkpt lat="33.8391095" lon="133.2631817"><ele>1108.39</ele><time>2026-05-05T23:35:28Z</time></trkpt><trkpt lat="33.8391246" lon="133.2634123"><ele>1118.86</ele><time>2026-05-05T23:37:01Z</time></trkpt><trkpt lat="33.8389941" lon="133.2635812"><ele>1127.6066666666666</ele><time>2026-05-05T23:37:34Z</time></trkpt><trkpt lat="33.8389336" lon="133.2638105"><ele>1134.63</ele><time>2026-05-05T23:38:16Z</time></trkpt><trkpt lat="33.8388553" lon="133.2640081"><ele>1137.1200000000001</ele><time>2026-05-05T23:38:52Z</time></trkpt><trkpt lat="33.8388574" lon="133.264236"><ele>1140.1699999999998</ele><time>2026-05-05T23:39:21Z</time></trkpt><trkpt lat="33.8389616" lon="133.2644319"><ele>1143.9566666666667</ele><time>2026-05-05T23:39:48Z</time></trkpt><trkpt lat="33.8389932" lon="133.2646528"><ele>1148.1833333333334</ele><time>2026-05-05T23:40:09Z</time></trkpt><trkpt lat="33.839057" lon="133.2648659"><ele>1153.1933333333334</ele><time>2026-05-05T23:40:45Z</time></trkpt><trkpt lat="33.8392321" lon="133.264931"><ele>1159.8700000000001</ele><time>2026-05-05T23:41:57Z</time></trkpt><trkpt lat="33.8393246" lon="133.2651314"><ele>1167.1133333333332</ele><time>2026-05-05T23:42:39Z</time></trkpt><trkpt lat="33.8393993" lon="133.2653334"><ele>1175.5233333333333</ele><time>2026-05-05T23:43:06Z</time></trkpt><trkpt lat="33.8395074" lon="133.2655168"><ele>1184.4733333333334</ele><time>2026-05-05T23:44:39Z</time></trkpt><trkpt lat="33.8395495" lon="133.2657362"><ele>1191.8099999999997</ele><time>2026-05-05T23:45:12Z</time></trkpt><trkpt lat="33.8394497" lon="133.2659419"><ele>1196.0266666666666</ele><time>2026-05-05T23:45:36Z</time></trkpt><trkpt lat="33.8393539" lon="133.2661285"><ele>1196.7766666666666</ele><time>2026-05-05T23:46:00Z</time></trkpt><trkpt lat="33.8394106" lon="133.2663521"><ele>1200.006666666667</ele><time>2026-05-05T23:46:30Z</time></trkpt><trkpt lat="33.8394897" lon="133.2665556"><ele>1206.2633333333333</ele><time>2026-05-05T23:47:45Z</time></trkpt><trkpt lat="33.8395066" lon="133.266782"><ele>1215.3266666666666</ele><time>2026-05-05T23:48:41Z</time></trkpt><trkpt lat="33.8394992" lon="133.267007"><ele>1223.3500000000001</ele><time>2026-05-05T23:49:41Z</time></trkpt><trkpt lat="33.8394881" lon="133.2672302"><ele>1229.3966666666668</ele><time>2026-05-05T23:50:23Z</time></trkpt><trkpt lat="33.8396426" lon="133.2671144"><ele>1235.1866666666667</ele><time>2026-05-05T23:51:05Z</time></trkpt><trkpt lat="33.8396402" lon="133.2673312"><ele>1239.4833333333336</ele><time>2026-05-05T23:51:38Z</time></trkpt><trkpt lat="33.8398236" lon="133.2673488"><ele>1245.9633333333334</ele><time>2026-05-05T23:53:14Z</time></trkpt><trkpt lat="33.8400048" lon="133.2673245"><ele>1254.5933333333332</ele><time>2026-05-05T23:54:08Z</time></trkpt><trkpt lat="33.8401678" lon="133.2671907"><ele>1265.89</ele><time>2026-05-05T23:54:59Z</time></trkpt><trkpt lat="33.8402416" lon="133.2673968"><ele>1277.37</ele><time>2026-05-05T23:55:56Z</time></trkpt><trkpt lat="33.8401596" lon="133.2676128"><ele>1282.67</ele><time>2026-05-05T23:56:32Z</time></trkpt><trkpt lat="33.8401745" lon="133.2678313"><ele>1285.34</ele><time>2026-05-05T23:57:11Z</time></trkpt><trkpt lat="33.8402496" lon="133.2680463"><ele>1287.716666666667</ele><time>2026-05-05T23:57:32Z</time></trkpt><trkpt lat="33.8402433" lon="133.2682783"><ele>1291.0466666666669</ele><time>2026-05-05T23:57:52Z</time></trkpt><trkpt lat="33.8401828" lon="133.2684841"><ele>1294.24</ele><time>2026-05-05T23:58:22Z</time></trkpt><trkpt lat="33.8403585" lon="133.2685696"><ele>1297.0866666666668</ele><time>2026-05-05T23:59:28Z</time></trkpt><trkpt lat="33.8404695" lon="133.2687417"><ele>1302.7033333333334</ele><time>2026-05-06T00:00:28Z</time></trkpt><trkpt lat="33.8405065" lon="133.2689674"><ele>1311.1066666666666</ele><time>2026-05-06T00:01:07Z</time></trkpt><trkpt lat="33.8405608" lon="133.2691742"><ele>1318.3033333333335</ele><time>2026-05-06T00:01:37Z</time></trkpt><trkpt lat="33.8406439" lon="133.2693774"><ele>1324.2500000000002</ele><time>2026-05-06T00:02:52Z</time></trkpt><trkpt lat="33.8405137" lon="133.2695507"><ele>1327.47</ele><time>2026-05-06T00:03:46Z</time></trkpt><trkpt lat="33.8404156" lon="133.2697456"><ele>1330.3333333333335</ele><time>2026-05-06T00:04:25Z</time></trkpt><trkpt lat="33.8403703" lon="133.2699564"><ele>1331.8333333333335</ele><time>2026-05-06T00:04:58Z</time></trkpt><trkpt lat="33.8402257" lon="133.2701091"><ele>1333.1533333333334</ele><time>2026-05-06T00:05:19Z</time></trkpt><trkpt lat="33.840038" lon="133.2701354"><ele>1333.9466666666667</ele><time>2026-05-06T00:05:42Z</time></trkpt><trkpt lat="33.8398568" lon="133.2700732"><ele>1335.1233333333332</ele><time>2026-05-06T00:06:09Z</time></trkpt><trkpt lat="33.8396706" lon="133.2699988"><ele>1337.8866666666665</ele><time>2026-05-06T00:06:36Z</time></trkpt><trkpt lat="33.8394738" lon="133.269953"><ele>1341.63</ele><time>2026-05-06T00:07:06Z</time></trkpt><trkpt lat="33.83928" lon="133.2699324"><ele>1346.0766666666666</ele><time>2026-05-06T00:07:32Z</time></trkpt><trkpt lat="33.8390765" lon="133.2698783"><ele>1349.4033333333334</ele><time>2026-05-06T00:07:58Z</time></trkpt><trkpt lat="33.8388862" lon="133.2698116"><ele>1351.0833333333333</ele><time>2026-05-06T00:08:22Z</time></trkpt><trkpt lat="33.8386906" lon="133.2697994"><ele>1352.1866666666667</ele><time>2026-05-06T00:08:46Z</time></trkpt><trkpt lat="33.8385171" lon="133.2698944"><ele>1353.68</ele><time>2026-05-06T00:09:10Z</time></trkpt><trkpt lat="33.8383332" lon="133.2699611"><ele>1356.1999999999998</ele><time>2026-05-06T00:09:37Z</time></trkpt><trkpt lat="33.8381927" lon="133.2701134"><ele>1360.3866666666665</ele><time>2026-05-06T00:10:01Z</time></trkpt><trkpt lat="33.837995" lon="133.2701844"><ele>1364.9333333333334</ele><time>2026-05-06T00:10:28Z</time></trkpt><trkpt lat="33.8378038" lon="133.2702585"><ele>1370.7433333333336</ele><time>2026-05-06T00:10:55Z</time></trkpt><trkpt lat="33.8376214" lon="133.2702928"><ele>1375.3133333333335</ele><time>2026-05-06T00:11:28Z</time></trkpt><trkpt lat="33.837435" lon="133.2703593"><ele>1381.14</ele><time>2026-05-06T00:12:19Z</time></trkpt><trkpt lat="33.8372558" lon="133.2703353"><ele>1385.1066666666666</ele><time>2026-05-06T00:12:58Z</time></trkpt><trkpt lat="33.8370721" lon="133.270341"><ele>1389.8033333333333</ele><time>2026-05-06T00:13:28Z</time></trkpt><trkpt lat="33.8368874" lon="133.2704031"><ele>1393.0166666666667</ele><time>2026-05-06T00:14:16Z</time></trkpt><trkpt lat="33.8366941" lon="133.2704172"><ele>1396.96</ele><time>2026-05-06T00:14:46Z</time></trkpt><trkpt lat="33.8365234" lon="133.2705043"><ele>1402.0633333333335</ele><time>2026-05-06T00:15:13Z</time></trkpt><trkpt lat="33.8363388" lon="133.2705422"><ele>1410.2833333333335</ele><time>2026-05-06T00:15:49Z</time></trkpt><trkpt lat="33.8361584" lon="133.2705724"><ele>1419.1533333333334</ele><time>2026-05-06T00:16:31Z</time></trkpt><trkpt lat="33.8359606" lon="133.2705601"><ele>1426.9333333333334</ele><time>2026-05-06T00:17:01Z</time></trkpt><trkpt lat="33.8357704" lon="133.2705055"><ele>1430.6166666666668</ele><time>2026-05-06T00:17:40Z</time></trkpt><trkpt lat="33.8356132" lon="133.2706395"><ele>1434.9399999999998</ele><time>2026-05-06T00:18:40Z</time></trkpt><trkpt lat="33.8354604" lon="133.2707782"><ele>1439.17</ele><time>2026-05-06T00:20:04Z</time></trkpt><trkpt lat="33.8353316" lon="133.270952"><ele>1447.1866666666667</ele><time>2026-05-06T00:20:40Z</time></trkpt><trkpt lat="33.8354869" lon="133.2710963"><ele>1456.3166666666666</ele><time>2026-05-06T00:21:40Z</time></trkpt><trkpt lat="33.8355368" lon="133.2713063"><ele>1470.9033333333334</ele><time>2026-05-06T00:22:49Z</time></trkpt><trkpt lat="33.8353823" lon="133.2714507"><ele>1483.3999999999999</ele><time>2026-05-06T00:23:37Z</time></trkpt><trkpt lat="33.8352195" lon="133.2715776"><ele>1495.1200000000001</ele><time>2026-05-06T00:24:13Z</time></trkpt><trkpt lat="33.8350338" lon="133.2716192"><ele>1497.79</ele><time>2026-05-06T00:24:50Z</time></trkpt><trkpt lat="33.8348811" lon="133.2717376"><ele>1499.9233333333334</ele><time>2026-05-06T00:25:23Z</time></trkpt><trkpt lat="33.8347653" lon="133.2719249"><ele>1500.8433333333332</ele><time>2026-05-06T00:26:20Z</time></trkpt><trkpt lat="33.8346639" lon="133.2721217"><ele>1505.11</ele><time>2026-05-06T00:26:53Z</time></trkpt><trkpt lat="33.8345755" lon="133.2723128"><ele>1509.676666666667</ele><time>2026-05-06T00:27:23Z</time></trkpt><trkpt lat="33.8344396" lon="133.2724801"><ele>1515.1499999999999</ele><time>2026-05-06T00:27:53Z</time></trkpt><trkpt lat="33.8346366" lon="133.2725224"><ele>1521.1833333333334</ele><time>2026-05-06T00:28:46Z</time></trkpt><trkpt lat="33.8348278" lon="133.2724356"><ele>1525.75</ele><time>2026-05-06T00:29:12Z</time></trkpt><trkpt lat="33.8349669" lon="133.2725764"><ele>1531.0733333333335</ele><time>2026-05-06T00:30:06Z</time></trkpt><trkpt lat="33.8350939" lon="133.272731"><ele>1535.2300000000002</ele><time>2026-05-06T00:30:45Z</time></trkpt><trkpt lat="33.8352179" lon="133.2728941"><ele>1539.8966666666668</ele><time>2026-05-06T00:31:11Z</time></trkpt><trkpt lat="33.8350964" lon="133.2727186"><ele>1541.0200000000002</ele><time>2026-05-06T00:34:16Z</time></trkpt><trkpt lat="33.8349907" lon="133.2725081"><ele>1539.4800000000002</ele><time>2026-05-06T00:34:33Z</time></trkpt><trkpt lat="33.8348227" lon="133.2724221"><ele>1534.8133333333335</ele><time>2026-05-06T00:35:05Z</time></trkpt><trkpt lat="33.8346267" lon="133.272509"><ele>1530.1599999999999</ele><time>2026-05-06T00:35:29Z</time></trkpt><trkpt lat="33.8344317" lon="133.2725548"><ele>1526.2633333333333</ele><time>2026-05-06T00:35:58Z</time></trkpt><trkpt lat="33.8342477" lon="133.2725944"><ele>1524.8533333333332</ele><time>2026-05-06T00:36:25Z</time></trkpt><trkpt lat="33.8344303" lon="133.2725449"><ele>1524.07</ele><time>2026-05-06T00:44:13Z</time></trkpt><trkpt lat="33.8342414" lon="133.272573"><ele>1524.07</ele><time>2026-05-06T01:30:28Z</time></trkpt><trkpt lat="33.8341881" lon="133.2727875"><ele>1525.4066666666665</ele><time>2026-05-06T01:31:13Z</time></trkpt><trkpt lat="33.8343258" lon="133.2729477"><ele>1528.93</ele><time>2026-05-06T01:32:01Z</time></trkpt><trkpt lat="33.8344288" lon="133.2731446"><ele>1534.3966666666668</ele><time>2026-05-06T01:33:01Z</time></trkpt><trkpt lat="33.8344608" lon="133.2733662"><ele>1539.9733333333334</ele><time>2026-05-06T01:33:43Z</time></trkpt><trkpt lat="33.8344415" lon="133.2735851"><ele>1544.4733333333334</ele><time>2026-05-06T01:34:10Z</time></trkpt><trkpt lat="33.8344092" lon="133.2738121"><ele>1548.1633333333332</ele><time>2026-05-06T01:34:40Z</time></trkpt><trkpt lat="33.8344359" lon="133.2740485"><ele>1551.4366666666667</ele><time>2026-05-06T01:35:13Z</time></trkpt><trkpt lat="33.8344496" lon="133.274285"><ele>1554.5533333333333</ele><time>2026-05-06T01:35:46Z</time></trkpt><trkpt lat="33.8344545" lon="133.2745132"><ele>1558.0533333333333</ele><time>2026-05-06T01:36:19Z</time></trkpt><trkpt lat="33.8344284" lon="133.2747339"><ele>1562.11</ele><time>2026-05-06T01:36:49Z</time></trkpt><trkpt lat="33.8343628" lon="133.2749424"><ele>1566.9966666666667</ele><time>2026-05-06T01:37:25Z</time></trkpt><trkpt lat="33.8343536" lon="133.2751744"><ele>1573.0666666666666</ele><time>2026-05-06T01:38:22Z</time></trkpt><trkpt lat="33.8344226" lon="133.275379"><ele>1577.3066666666666</ele><time>2026-05-06T01:39:22Z</time></trkpt><trkpt lat="33.834232" lon="133.2753814"><ele>1582.5933333333332</ele><time>2026-05-06T01:40:16Z</time></trkpt><trkpt lat="33.8340493" lon="133.2753405"><ele>1586.993333333333</ele><time>2026-05-06T01:41:22Z</time></trkpt><trkpt lat="33.8338577" lon="133.2753434"><ele>1592.9133333333332</ele><time>2026-05-06T01:42:13Z</time></trkpt><trkpt lat="33.8336612" lon="133.2753714"><ele>1598.7033333333336</ele><time>2026-05-06T01:43:22Z</time></trkpt><trkpt lat="33.8338014" lon="133.2755239"><ele>1602.2399999999998</ele><time>2026-05-06T01:43:55Z</time></trkpt><trkpt lat="33.8337029" lon="133.2757114"><ele>1606.7866666666669</ele><time>2026-05-06T01:44:31Z</time></trkpt><trkpt lat="33.8335662" lon="133.275857"><ele>1609.7533333333333</ele><time>2026-05-06T01:46:04Z</time></trkpt><trkpt lat="33.8334707" lon="133.2760442"><ele>1615.8366666666668</ele><time>2026-05-06T01:46:46Z</time></trkpt><trkpt lat="33.8333968" lon="133.2762472"><ele>1621.7366666666667</ele><time>2026-05-06T01:47:43Z</time></trkpt><trkpt lat="33.8333233" lon="133.2764488"><ele>1630.1966666666667</ele><time>2026-05-06T01:49:49Z</time></trkpt><trkpt lat="33.8332329" lon="133.276651"><ele>1638.9933333333336</ele><time>2026-05-06T01:50:58Z</time></trkpt><trkpt lat="33.8331549" lon="133.2768529"><ele>1648.7933333333333</ele><time>2026-05-06T01:53:07Z</time></trkpt><trkpt lat="33.8330211" lon="133.2770036"><ele>1660.1933333333334</ele><time>2026-05-06T01:55:10Z</time></trkpt><trkpt lat="33.8330002" lon="133.2772261"><ele>1669.6166666666668</ele><time>2026-05-06T01:55:55Z</time></trkpt><trkpt lat="33.8329601" lon="133.2774501"><ele>1678.3766666666668</ele><time>2026-05-06T01:57:01Z</time></trkpt><trkpt lat="33.8329238" lon="133.2776811"><ele>1682.38</ele><time>2026-05-06T01:57:55Z</time></trkpt><trkpt lat="33.8328633" lon="133.2778935"><ele>1688.54</ele><time>2026-05-06T01:59:28Z</time></trkpt><trkpt lat="33.8327676" lon="133.2780974"><ele>1698.8</ele><time>2026-05-06T02:01:37Z</time></trkpt><trkpt lat="33.8327924" lon="133.2783177"><ele>1706.9733333333334</ele><time>2026-05-06T02:02:28Z</time></trkpt><trkpt lat="33.8327876" lon="133.2785342"><ele>1713.176666666667</ele><time>2026-05-06T02:05:22Z</time></trkpt><trkpt lat="33.8326795" lon="133.2787151"><ele>1716.72</ele><time>2026-05-06T02:06:16Z</time></trkpt><trkpt lat="33.8326402" lon="133.2789426"><ele>1722.3233333333335</ele><time>2026-05-06T02:06:55Z</time></trkpt><trkpt lat="33.8325546" lon="133.279135"><ele>1728.9266666666665</ele><time>2026-05-06T02:09:43Z</time></trkpt><trkpt lat="33.8325326" lon="133.2793585"><ele>1730.7366666666667</ele><time>2026-05-06T02:10:37Z</time></trkpt><trkpt lat="33.8324209" lon="133.2795313"><ele>1731.0466666666669</ele><time>2026-05-06T02:11:13Z</time></trkpt><trkpt lat="33.8322356" lon="133.2795462"><ele>1728.636666666667</ele><time>2026-05-06T02:13:10Z</time></trkpt><trkpt lat="33.8320489" lon="133.2795266"><ele>1727.1500000000003</ele><time>2026-05-06T02:15:07Z</time></trkpt><trkpt lat="33.8318673" lon="133.2795212"><ele>1727.8100000000002</ele><time>2026-05-06T02:17:06Z</time></trkpt><trkpt lat="33.8316765" lon="133.2794286"><ele>1728.8533333333332</ele><time>2026-05-06T03:29:33Z</time></trkpt><trkpt lat="33.8315061" lon="133.2793538"><ele>1730.6366666666665</ele><time>2026-05-06T03:30:00Z</time></trkpt><trkpt lat="33.8313026" lon="133.2793344"><ele>1735.7766666666666</ele><time>2026-05-06T03:30:45Z</time></trkpt><trkpt lat="33.8311636" lon="133.2791868"><ele>1742.5533333333333</ele><time>2026-05-06T03:31:12Z</time></trkpt><trkpt lat="33.8310099" lon="133.279038"><ele>1749.4800000000002</ele><time>2026-05-06T03:31:39Z</time></trkpt><trkpt lat="33.8310346" lon="133.2792636"><ele>1751.4466666666667</ele><time>2026-05-06T03:32:45Z</time></trkpt><trkpt lat="33.8311507" lon="133.2794364"><ele>1751.8166666666666</ele><time>2026-05-06T03:33:00Z</time></trkpt><trkpt lat="33.8312317" lon="133.2796344"><ele>1752.4933333333336</ele><time>2026-05-06T03:33:15Z</time></trkpt><trkpt lat="33.8312787" lon="133.2798604"><ele>1755.21</ele><time>2026-05-06T03:33:36Z</time></trkpt><trkpt lat="33.8312287" lon="133.2800974"><ele>1758.4066666666668</ele><time>2026-05-06T03:33:57Z</time></trkpt><trkpt lat="33.8312653" lon="133.2803166"><ele>1759.7466666666667</ele><time>2026-05-06T03:34:21Z</time></trkpt><trkpt lat="33.8314311" lon="133.2804035"><ele>1763.1133333333335</ele><time>2026-05-06T03:35:06Z</time></trkpt><trkpt lat="33.8316061" lon="133.2805014"><ele>1767.61</ele><time>2026-05-06T03:35:39Z</time></trkpt><trkpt lat="33.8316558" lon="133.2807105"><ele>1774.7733333333335</ele><time>2026-05-06T03:36:33Z</time></trkpt><trkpt lat="33.8317246" lon="133.2809231"><ele>1780.49</ele><time>2026-05-06T03:37:00Z</time></trkpt><trkpt lat="33.8316722" lon="133.2811438"><ele>1785.6066666666668</ele><time>2026-05-06T03:37:27Z</time></trkpt><trkpt lat="33.8317375" lon="133.2813516"><ele>1792.49</ele><time>2026-05-06T03:38:03Z</time></trkpt><trkpt lat="33.8318076" lon="133.2815554"><ele>1799.2900000000002</ele><time>2026-05-06T03:39:09Z</time></trkpt><trkpt lat="33.8317256" lon="133.2817517"><ele>1806.4233333333334</ele><time>2026-05-06T03:40:33Z</time></trkpt><trkpt lat="33.8317732" lon="133.281965"><ele>1811.9166666666667</ele><time>2026-05-06T03:41:27Z</time></trkpt><trkpt lat="33.8317913" lon="133.2821964"><ele>1819.17</ele><time>2026-05-06T03:42:03Z</time></trkpt><trkpt lat="33.8319369" lon="133.2823345"><ele>1827.1666666666667</ele><time>2026-05-06T03:42:48Z</time></trkpt><trkpt lat="33.8319943" lon="133.2825663"><ele>1834.96</ele><time>2026-05-06T03:43:24Z</time></trkpt><trkpt lat="33.8320351" lon="133.2827904"><ele>1839.1733333333334</ele><time>2026-05-06T03:43:54Z</time></trkpt><trkpt lat="33.8319696" lon="133.2829987"><ele>1842.0633333333335</ele><time>2026-05-06T03:44:12Z</time></trkpt><trkpt lat="33.8319208" lon="133.283209"><ele>1843.05</ele><time>2026-05-06T03:44:30Z</time></trkpt><trkpt lat="33.8319239" lon="133.2834537"><ele>1844.6933333333334</ele><time>2026-05-06T03:44:57Z</time></trkpt><trkpt lat="33.83181" lon="133.2836352"><ele>1845.2733333333333</ele><time>2026-05-06T03:45:15Z</time></trkpt><trkpt lat="33.8317981" lon="133.2838782"><ele>1847.6200000000001</ele><time>2026-05-06T03:45:36Z</time></trkpt><trkpt lat="33.8317939" lon="133.2841146"><ele>1849.8866666666665</ele><time>2026-05-06T03:46:02Z</time></trkpt><trkpt lat="33.8318153" lon="133.2843385"><ele>1850.1366666666665</ele><time>2026-05-06T03:46:26Z</time></trkpt><trkpt lat="33.8318164" lon="133.2841218"><ele>1850.97</ele><time>2026-05-06T03:48:38Z</time></trkpt><trkpt lat="33.8318187" lon="133.2838923"><ele>1850.1366666666665</ele><time>2026-05-06T03:49:02Z</time></trkpt><trkpt lat="33.8318437" lon="133.2836634"><ele>1850.61</ele><time>2026-05-06T03:49:34Z</time></trkpt><trkpt lat="33.8319463" lon="133.2834524"><ele>1848.3433333333335</ele><time>2026-05-06T03:49:58Z</time></trkpt><trkpt lat="33.8319591" lon="133.2832277"><ele>1846.4366666666667</ele><time>2026-05-06T03:50:19Z</time></trkpt><trkpt lat="33.8320013" lon="133.2829849"><ele>1844.5466666666664</ele><time>2026-05-06T03:50:43Z</time></trkpt><trkpt lat="33.8320399" lon="133.2827549"><ele>1842.8133333333335</ele><time>2026-05-06T03:51:03Z</time></trkpt><trkpt lat="33.8320118" lon="133.2825115"><ele>1840.8933333333334</ele><time>2026-05-06T03:51:30Z</time></trkpt><trkpt lat="33.8319441" lon="133.2823044"><ele>1838.5900000000001</ele><time>2026-05-06T03:51:53Z</time></trkpt><trkpt lat="33.831758" lon="133.2822712"><ele>1833.2</ele><time>2026-05-06T03:52:16Z</time></trkpt><trkpt lat="33.8318512" lon="133.2820804"><ele>1828.1066666666668</ele><time>2026-05-06T03:52:49Z</time></trkpt><trkpt lat="33.8317716" lon="133.2818657"><ele>1821.5133333333333</ele><time>2026-05-06T03:53:25Z</time></trkpt><trkpt lat="33.831749" lon="133.2816496"><ele>1816.0866666666668</ele><time>2026-05-06T03:54:04Z</time></trkpt><trkpt lat="33.8318576" lon="133.2814496"><ele>1808.6866666666665</ele><time>2026-05-06T03:55:19Z</time></trkpt><trkpt lat="33.8317934" lon="133.2812444"><ele>1802.7666666666667</ele><time>2026-05-06T03:55:49Z</time></trkpt><trkpt lat="33.8316759" lon="133.2810744"><ele>1796.3433333333335</ele><time>2026-05-06T03:56:43Z</time></trkpt><trkpt lat="33.8317406" lon="133.280872"><ele>1790.3666666666668</ele><time>2026-05-06T03:57:07Z</time></trkpt><trkpt lat="33.8316501" lon="133.2806579"><ele>1784.6533333333334</ele><time>2026-05-06T03:57:30Z</time></trkpt><trkpt lat="33.8315797" lon="133.2804432"><ele>1778.3266666666668</ele><time>2026-05-06T03:57:57Z</time></trkpt><trkpt lat="33.831396" lon="133.280384"><ele>1772.4466666666667</ele><time>2026-05-06T03:58:26Z</time></trkpt><trkpt lat="33.8312601" lon="133.2802284"><ele>1765.4333333333332</ele><time>2026-05-06T03:59:08Z</time></trkpt><trkpt lat="33.8312416" lon="133.2800125"><ele>1762.22</ele><time>2026-05-06T03:59:29Z</time></trkpt><trkpt lat="33.8313167" lon="133.2798096"><ele>1759.4133333333332</ele><time>2026-05-06T04:00:37Z</time></trkpt><trkpt lat="33.8312496" lon="133.279588"><ele>1757.1966666666667</ele><time>2026-05-06T04:01:16Z</time></trkpt><trkpt lat="33.8311556" lon="133.2793923"><ele>1753.926666666667</ele><time>2026-05-06T04:01:33Z</time></trkpt><trkpt lat="33.8310192" lon="133.2792279"><ele>1751.7666666666667</ele><time>2026-05-06T04:01:51Z</time></trkpt><trkpt lat="33.8309073" lon="133.2790509"><ele>1752.32</ele><time>2026-05-06T04:02:09Z</time></trkpt><trkpt lat="33.8307851" lon="133.2788601"><ele>1755.03</ele><time>2026-05-06T04:02:45Z</time></trkpt><trkpt lat="33.8306516" lon="133.2787043"><ele>1759.7233333333334</ele><time>2026-05-06T04:03:12Z</time></trkpt><trkpt lat="33.8305595" lon="133.2785176"><ele>1764.216666666667</ele><time>2026-05-06T04:03:33Z</time></trkpt><trkpt lat="33.8304607" lon="133.2783287"><ele>1766.92</ele><time>2026-05-06T04:03:57Z</time></trkpt><trkpt lat="33.8304055" lon="133.2781045"><ele>1769.5166666666667</ele><time>2026-05-06T04:04:51Z</time></trkpt><trkpt lat="33.8302942" lon="133.2779085"><ele>1773.3700000000001</ele><time>2026-05-06T04:05:15Z</time></trkpt><trkpt lat="33.8301623" lon="133.2777385"><ele>1778.4533333333331</ele><time>2026-05-06T04:05:42Z</time></trkpt><trkpt lat="33.8303677" lon="133.2776882"><ele>1783.5666666666668</ele><time>2026-05-06T04:07:00Z</time></trkpt><trkpt lat="33.8305625" lon="133.2776766"><ele>1787.7933333333333</ele><time>2026-05-06T04:07:33Z</time></trkpt><trkpt lat="33.8307534" lon="133.2776575"><ele>1793.4766666666667</ele><time>2026-05-06T04:08:06Z</time></trkpt><trkpt lat="33.830942" lon="133.277675"><ele>1798.37</ele><time>2026-05-06T04:08:39Z</time></trkpt><trkpt lat="33.8310482" lon="133.277499"><ele>1803.05</ele><time>2026-05-06T04:09:05Z</time></trkpt><trkpt lat="33.8309064" lon="133.2773389"><ele>1806.3733333333332</ele><time>2026-05-06T04:09:38Z</time></trkpt><trkpt lat="33.8307734" lon="133.2771566"><ele>1809.4233333333334</ele><time>2026-05-06T04:09:59Z</time></trkpt><trkpt lat="33.8306202" lon="133.2769927"><ele>1812.2300000000002</ele><time>2026-05-06T04:10:23Z</time></trkpt><trkpt lat="33.8304649" lon="133.2768806"><ele>1814.21</ele><time>2026-05-06T04:10:40Z</time></trkpt><trkpt lat="33.8303128" lon="133.2767017"><ele>1816.4533333333331</ele><time>2026-05-06T04:11:01Z</time></trkpt><trkpt lat="33.8301529" lon="133.2765387"><ele>1818.6133333333335</ele><time>2026-05-06T04:11:21Z</time></trkpt><trkpt lat="33.8299977" lon="133.2764058"><ele>1820.9133333333332</ele><time>2026-05-06T04:11:38Z</time></trkpt><trkpt lat="33.8298667" lon="133.276244"><ele>1822.2533333333333</ele><time>2026-05-06T04:11:59Z</time></trkpt><trkpt lat="33.8297191" lon="133.2761133"><ele>1823.3633333333335</ele><time>2026-05-06T04:12:16Z</time></trkpt><trkpt lat="33.8295898" lon="133.2759536"><ele>1824.34</ele><time>2026-05-06T04:12:34Z</time></trkpt><trkpt lat="33.8294646" lon="133.2757723"><ele>1825.4433333333334</ele><time>2026-05-06T04:12:54Z</time></trkpt><trkpt lat="33.8293409" lon="133.27561"><ele>1827.0900000000001</ele><time>2026-05-06T04:13:18Z</time></trkpt><trkpt lat="33.8292186" lon="133.2754387"><ele>1829.4799999999998</ele><time>2026-05-06T04:14:09Z</time></trkpt><trkpt lat="33.8290881" lon="133.2752851"><ele>1833.5133333333333</ele><time>2026-05-06T04:14:45Z</time></trkpt><trkpt lat="33.828965" lon="133.2751221"><ele>1838.3100000000002</ele><time>2026-05-06T04:15:15Z</time></trkpt><trkpt lat="33.8288145" lon="133.2750007"><ele>1843.4400000000003</ele><time>2026-05-06T04:15:42Z</time></trkpt><trkpt lat="33.8286466" lon="133.2749006"><ele>1847.6200000000001</ele><time>2026-05-06T04:16:08Z</time></trkpt><trkpt lat="33.8284545" lon="133.2748237"><ele>1850.9133333333332</ele><time>2026-05-06T04:16:32Z</time></trkpt><trkpt lat="33.8282812" lon="133.2747379"><ele>1853.4333333333334</ele><time>2026-05-06T04:16:53Z</time></trkpt><trkpt lat="33.8281146" lon="133.2746182"><ele>1855.7300000000002</ele><time>2026-05-06T04:17:17Z</time></trkpt><trkpt lat="33.8280769" lon="133.2743948"><ele>1856.6633333333332</ele><time>2026-05-06T04:26:02Z</time></trkpt><trkpt lat="33.828063" lon="133.2741742"><ele>1855.8</ele><time>2026-05-06T04:27:08Z</time></trkpt><trkpt lat="33.8281401" lon="133.2739477"><ele>1853.1666666666667</ele><time>2026-05-06T04:27:38Z</time></trkpt><trkpt lat="33.8282521" lon="133.2737434"><ele>1848.82</ele><time>2026-05-06T04:28:11Z</time></trkpt><trkpt lat="33.8283584" lon="133.2735467"><ele>1843.8633333333335</ele><time>2026-05-06T04:28:40Z</time></trkpt><trkpt lat="33.8284784" lon="133.2733689"><ele>1836.7033333333336</ele><time>2026-05-06T04:29:13Z</time></trkpt><trkpt lat="33.8286558" lon="133.2734439"><ele>1829.5900000000001</ele><time>2026-05-06T04:29:37Z</time></trkpt><trkpt lat="33.8288101" lon="133.2735763"><ele>1822.7533333333333</ele><time>2026-05-06T04:29:58Z</time></trkpt><trkpt lat="33.8289432" lon="133.27373"><ele>1818.4233333333334</ele><time>2026-05-06T04:30:25Z</time></trkpt><trkpt lat="33.8290862" lon="133.2738847"><ele>1815.7866666666666</ele><time>2026-05-06T04:30:49Z</time></trkpt><trkpt lat="33.8291867" lon="133.2740757"><ele>1815.2900000000002</ele><time>2026-05-06T04:31:19Z</time></trkpt><trkpt lat="33.829347" lon="133.2741846"><ele>1814.4933333333336</ele><time>2026-05-06T04:31:46Z</time></trkpt><trkpt lat="33.8294995" lon="133.2743239"><ele>1813.84</ele><time>2026-05-06T04:32:04Z</time></trkpt><trkpt lat="33.829692" lon="133.2744165"><ele>1810.1066666666666</ele><time>2026-05-06T04:32:25Z</time></trkpt><trkpt lat="33.8298571" lon="133.2745109"><ele>1804.7533333333333</ele><time>2026-05-06T04:32:43Z</time></trkpt><trkpt lat="33.8299933" lon="133.274681"><ele>1800.2333333333333</ele><time>2026-05-06T04:33:03Z</time></trkpt><trkpt lat="33.8300994" lon="133.27486"><ele>1797.0533333333333</ele><time>2026-05-06T04:33:27Z</time></trkpt><trkpt lat="33.830269" lon="133.2749415"><ele>1794.4333333333334</ele><time>2026-05-06T04:34:03Z</time></trkpt><trkpt lat="33.8304226" lon="133.2750961"><ele>1790.24</ele><time>2026-05-06T04:34:26Z</time></trkpt><trkpt lat="33.8306123" lon="133.2751723"><ele>1784.14</ele><time>2026-05-06T04:34:53Z</time></trkpt><trkpt lat="33.8306947" lon="133.2749459"><ele>1776.6833333333334</ele><time>2026-05-06T04:35:23Z</time></trkpt><trkpt lat="33.8306219" lon="133.2747175"><ele>1770.3833333333332</ele><time>2026-05-06T04:35:43Z</time></trkpt><trkpt lat="33.8305777" lon="133.2744988"><ele>1765.0600000000002</ele><time>2026-05-06T04:36:07Z</time></trkpt><trkpt lat="33.8305493" lon="133.2742843"><ele>1761.57</ele><time>2026-05-06T04:36:43Z</time></trkpt><trkpt lat="33.8305265" lon="133.2740695"><ele>1755.346666666667</ele><time>2026-05-06T04:40:31Z</time></trkpt><trkpt lat="33.8307122" lon="133.2741858"><ele>1747.3366666666668</ele><time>2026-05-06T04:41:15Z</time></trkpt><trkpt lat="33.830881" lon="133.2743228"><ele>1739.6066666666668</ele><time>2026-05-06T04:41:39Z</time></trkpt><trkpt lat="33.831038" lon="133.2744606"><ele>1733.3666666666668</ele><time>2026-05-06T04:42:02Z</time></trkpt><trkpt lat="33.8311946" lon="133.2746036"><ele>1728.456666666667</ele><time>2026-05-06T04:42:29Z</time></trkpt><trkpt lat="33.8311883" lon="133.2743786"><ele>1722.6033333333335</ele><time>2026-05-06T04:43:05Z</time></trkpt><trkpt lat="33.8311443" lon="133.2741571"><ele>1714.97</ele><time>2026-05-06T04:43:26Z</time></trkpt><trkpt lat="33.8313422" lon="133.2741268"><ele>1706.8266666666666</ele><time>2026-05-06T04:44:20Z</time></trkpt><trkpt lat="33.8315025" lon="133.2742333"><ele>1696.8466666666666</ele><time>2026-05-06T04:44:47Z</time></trkpt><trkpt lat="33.8316452" lon="133.274367"><ele>1687.8000000000002</ele><time>2026-05-06T04:45:16Z</time></trkpt><trkpt lat="33.83165" lon="133.2741359"><ele>1679.14</ele><time>2026-05-06T04:45:49Z</time></trkpt><trkpt lat="33.8316045" lon="133.2739233"><ele>1672.4366666666667</ele><time>2026-05-06T04:46:12Z</time></trkpt><trkpt lat="33.8315607" lon="133.2737137"><ele>1667.14</ele><time>2026-05-06T04:46:39Z</time></trkpt><trkpt lat="33.8316084" lon="133.2735002"><ele>1660.5266666666666</ele><time>2026-05-06T04:47:53Z</time></trkpt><trkpt lat="33.8315395" lon="133.2732912"><ele>1655.0933333333335</ele><time>2026-05-06T04:48:29Z</time></trkpt><trkpt lat="33.8314634" lon="133.2730636"><ele>1647.7333333333336</ele><time>2026-05-06T04:49:26Z</time></trkpt><trkpt lat="33.8313611" lon="133.2728772"><ele>1643.2866666666669</ele><time>2026-05-06T04:50:38Z</time></trkpt><trkpt lat="33.8315159" lon="133.2729926"><ele>1637.2</ele><time>2026-05-06T04:51:59Z</time></trkpt><trkpt lat="33.8316879" lon="133.2730938"><ele>1632.8500000000001</ele><time>2026-05-06T04:52:26Z</time></trkpt><trkpt lat="33.8317566" lon="133.2728902"><ele>1622.72</ele><time>2026-05-06T04:53:14Z</time></trkpt><trkpt lat="33.8318986" lon="133.2727502"><ele>1610.8500000000001</ele><time>2026-05-06T04:54:23Z</time></trkpt><trkpt lat="33.8320336" lon="133.2725843"><ele>1596.0833333333333</ele><time>2026-05-06T04:55:14Z</time></trkpt><trkpt lat="33.8320438" lon="133.2723611"><ele>1584.2866666666666</ele><time>2026-05-06T04:55:53Z</time></trkpt><trkpt lat="33.8322075" lon="133.2724653"><ele>1574.9166666666667</ele><time>2026-05-06T04:56:17Z</time></trkpt><trkpt lat="33.8323577" lon="133.2726008"><ele>1566.9966666666667</ele><time>2026-05-06T04:56:47Z</time></trkpt><trkpt lat="33.832511" lon="133.272729"><ele>1561.5766666666666</ele><time>2026-05-06T04:57:16Z</time></trkpt><trkpt lat="33.8326701" lon="133.272868"><ele>1557.5966666666666</ele><time>2026-05-06T04:57:44Z</time></trkpt><trkpt lat="33.8328227" lon="133.2730206"><ele>1555.4266666666665</ele><time>2026-05-06T04:58:11Z</time></trkpt><trkpt lat="33.8329843" lon="133.2731573"><ele>1553.3133333333333</ele><time>2026-05-06T04:58:37Z</time></trkpt><trkpt lat="33.8331344" lon="133.27331"><ele>1551.11</ele><time>2026-05-06T04:59:01Z</time></trkpt><trkpt lat="33.8333266" lon="133.2733517"><ele>1548.61</ele><time>2026-05-06T04:59:37Z</time></trkpt><trkpt lat="33.8334961" lon="133.2732607"><ele>1546.1499999999999</ele><time>2026-05-06T04:59:58Z</time></trkpt><trkpt lat="33.8336427" lon="133.2731186"><ele>1543.0266666666666</ele><time>2026-05-06T05:00:13Z</time></trkpt><trkpt lat="33.8337584" lon="133.2729172"><ele>1539.1833333333332</ele><time>2026-05-06T05:00:36Z</time></trkpt><trkpt lat="33.8338752" lon="133.2727513"><ele>1534.58</ele><time>2026-05-06T05:01:00Z</time></trkpt><trkpt lat="33.83404" lon="133.2726536"><ele>1529.3</ele><time>2026-05-06T05:01:57Z</time></trkpt><trkpt lat="33.8342387" lon="133.2725991"><ele>1525.6633333333332</ele><time>2026-05-06T05:02:24Z</time></trkpt><trkpt lat="33.8344227" lon="133.2725549"><ele>1523.9466666666667</ele><time>2026-05-06T05:02:47Z</time></trkpt><trkpt lat="33.8345392" lon="133.2723887"><ele>1522.0966666666666</ele><time>2026-05-06T05:19:14Z</time></trkpt><trkpt lat="33.8346559" lon="133.272208"><ele>1518.3233333333335</ele><time>2026-05-06T05:19:32Z</time></trkpt><trkpt lat="33.8347597" lon="133.2720024"><ele>1513.4666666666665</ele><time>2026-05-06T05:19:53Z</time></trkpt><trkpt lat="33.8348743" lon="133.2718132"><ele>1509.3533333333332</ele><time>2026-05-06T05:20:20Z</time></trkpt><trkpt lat="33.834998" lon="133.271648"><ele>1505.5733333333335</ele><time>2026-05-06T05:20:47Z</time></trkpt><trkpt lat="33.8351748" lon="133.2715841"><ele>1502.5466666666669</ele><time>2026-05-06T05:21:13Z</time></trkpt><trkpt lat="33.8353643" lon="133.2715357"><ele>1500.37</ele><time>2026-05-06T05:21:40Z</time></trkpt><trkpt lat="33.8354852" lon="133.2713579"><ele>1496.2066666666667</ele><time>2026-05-06T05:22:10Z</time></trkpt><trkpt lat="33.8356307" lon="133.2712151"><ele>1490.1066666666666</ele><time>2026-05-06T05:22:40Z</time></trkpt><trkpt lat="33.8355214" lon="133.2710426"><ele>1479.29</ele><time>2026-05-06T05:23:25Z</time></trkpt><trkpt lat="33.8353194" lon="133.2710625"><ele>1471.3766666666668</ele><time>2026-05-06T05:24:16Z</time></trkpt><trkpt lat="33.8353938" lon="133.2708479"><ele>1458.9366666666667</ele><time>2026-05-06T05:24:37Z</time></trkpt><trkpt lat="33.8355229" lon="133.2706942"><ele>1450.5566666666666</ele><time>2026-05-06T05:25:16Z</time></trkpt><trkpt lat="33.8356884" lon="133.270579"><ele>1440.9833333333333</ele><time>2026-05-06T05:25:49Z</time></trkpt><trkpt lat="33.8358469" lon="133.2704728"><ele>1436.0333333333335</ele><time>2026-05-06T05:26:19Z</time></trkpt><trkpt lat="33.8360256" lon="133.2705065"><ele>1430.8666666666668</ele><time>2026-05-06T05:26:52Z</time></trkpt><trkpt lat="33.8362136" lon="133.2705357"><ele>1426.7366666666667</ele><time>2026-05-06T05:27:25Z</time></trkpt><trkpt lat="33.8364139" lon="133.27049"><ele>1421.7433333333336</ele><time>2026-05-06T05:27:48Z</time></trkpt><trkpt lat="33.8365999" lon="133.2704297"><ele>1415.256666666667</ele><time>2026-05-06T05:28:15Z</time></trkpt><trkpt lat="33.8367792" lon="133.2703832"><ele>1406.6366666666665</ele><time>2026-05-06T05:28:38Z</time></trkpt><trkpt lat="33.8369717" lon="133.2703493"><ele>1400.3533333333335</ele><time>2026-05-06T05:29:08Z</time></trkpt><trkpt lat="33.8371591" lon="133.2703459"><ele>1395.71</ele><time>2026-05-06T05:29:43Z</time></trkpt><trkpt lat="33.8373491" lon="133.2702958"><ele>1391.3700000000001</ele><time>2026-05-06T05:30:58Z</time></trkpt><trkpt lat="33.837549" lon="133.2703394"><ele>1386.4766666666667</ele><time>2026-05-06T05:31:43Z</time></trkpt><trkpt lat="33.8377348" lon="133.2702975"><ele>1381.2233333333334</ele><time>2026-05-06T05:32:25Z</time></trkpt><trkpt lat="33.837922" lon="133.2702379"><ele>1376.1966666666667</ele><time>2026-05-06T05:33:22Z</time></trkpt><trkpt lat="33.8380964" lon="133.2701348"><ele>1371.1666666666667</ele><time>2026-05-06T05:33:46Z</time></trkpt><trkpt lat="33.8382753" lon="133.2700332"><ele>1366.0166666666667</ele><time>2026-05-06T05:34:10Z</time></trkpt><trkpt lat="33.8384236" lon="133.2698676"><ele>1361.4266666666665</ele><time>2026-05-06T05:34:43Z</time></trkpt><trkpt lat="33.8385976" lon="133.2697848"><ele>1357.2933333333333</ele><time>2026-05-06T05:35:07Z</time></trkpt><trkpt lat="33.8387928" lon="133.2697625"><ele>1354.1266666666668</ele><time>2026-05-06T05:35:27Z</time></trkpt><trkpt lat="33.8389742" lon="133.2698193"><ele>1351.9533333333331</ele><time>2026-05-06T05:35:48Z</time></trkpt><trkpt lat="33.8391612" lon="133.2699029"><ele>1350.9533333333331</ele><time>2026-05-06T05:36:08Z</time></trkpt><trkpt lat="33.8393433" lon="133.2699245"><ele>1349.5866666666668</ele><time>2026-05-06T05:36:26Z</time></trkpt><trkpt lat="33.8395044" lon="133.2700354"><ele>1348.3033333333333</ele><time>2026-05-06T05:37:35Z</time></trkpt><trkpt lat="33.8396811" lon="133.2701159"><ele>1345.7866666666666</ele><time>2026-05-06T05:38:41Z</time></trkpt><trkpt lat="33.8398274" lon="133.2699893"><ele>1342.2966666666666</ele><time>2026-05-06T05:39:47Z</time></trkpt><trkpt lat="33.8402882" lon="133.2671038"><ele>1321.5166666666667</ele><time>2026-05-06T05:50:43Z</time></trkpt><trkpt lat="33.8401104" lon="133.2672002"><ele>1297.86</ele><time>2026-05-06T05:51:19Z</time></trkpt><trkpt lat="33.8399475" lon="133.2673291"><ele>1272.6533333333334</ele><time>2026-05-06T05:51:55Z</time></trkpt><trkpt lat="33.8397596" lon="133.2673054"><ele>1260.8333333333333</ele><time>2026-05-06T05:52:54Z</time></trkpt><trkpt lat="33.8396768" lon="133.2671094"><ele>1250.82</ele><time>2026-05-06T05:53:37Z</time></trkpt><trkpt lat="33.8395259" lon="133.2672536"><ele>1241.6633333333336</ele><time>2026-05-06T05:54:16Z</time></trkpt><trkpt lat="33.8394818" lon="133.267025"><ele>1235.7866666666666</ele><time>2026-05-06T05:54:52Z</time></trkpt><trkpt lat="33.8395033" lon="133.2667989"><ele>1229.9966666666667</ele><time>2026-05-06T05:55:19Z</time></trkpt><trkpt lat="33.8394933" lon="133.2665726"><ele>1224.2833333333333</ele><time>2026-05-06T05:55:49Z</time></trkpt><trkpt lat="33.8393822" lon="133.2663904"><ele>1214.79</ele><time>2026-05-06T05:56:49Z</time></trkpt><trkpt lat="33.8393298" lon="133.2661603"><ele>1204.6166666666666</ele><time>2026-05-06T05:57:34Z</time></trkpt><trkpt lat="33.8394431" lon="133.2659834"><ele>1198.7166666666665</ele><time>2026-05-06T05:57:55Z</time></trkpt><trkpt lat="33.8395744" lon="133.2658197"><ele>1199.47</ele><time>2026-05-06T05:58:15Z</time></trkpt><trkpt lat="33.8395078" lon="133.2656174"><ele>1199.8733333333332</ele><time>2026-05-06T05:58:39Z</time></trkpt><trkpt lat="33.8395362" lon="133.2654011"><ele>1198.3233333333333</ele><time>2026-05-06T05:59:02Z</time></trkpt><trkpt lat="33.8394153" lon="133.2652303"><ele>1192.7333333333333</ele><time>2026-05-06T05:59:46Z</time></trkpt><trkpt lat="33.8393096" lon="133.2650336"><ele>1185.3166666666666</ele><time>2026-05-06T06:00:12Z</time></trkpt><trkpt lat="33.839196" lon="133.2648628"><ele>1176.5800000000002</ele><time>2026-05-06T06:00:42Z</time></trkpt><trkpt lat="33.8390413" lon="133.2647428"><ele>1164.99</ele><time>2026-05-06T06:01:39Z</time></trkpt><trkpt lat="33.8389623" lon="133.2645165"><ele>1156.4766666666667</ele><time>2026-05-06T06:02:05Z</time></trkpt><trkpt lat="33.8389319" lon="133.2643022"><ele>1150.0633333333333</ele><time>2026-05-06T06:02:29Z</time></trkpt><trkpt lat="33.8388452" lon="133.2641026"><ele>1146.4433333333334</ele><time>2026-05-06T06:02:50Z</time></trkpt><trkpt lat="33.8388802" lon="133.2638716"><ele>1142.2833333333333</ele><time>2026-05-06T06:03:14Z</time></trkpt><trkpt lat="33.8389647" lon="133.263671"><ele>1136.8733333333332</ele><time>2026-05-06T06:03:41Z</time></trkpt><trkpt lat="33.8389877" lon="133.2634234"><ele>1130.993333333333</ele><time>2026-05-06T06:04:12Z</time></trkpt><trkpt lat="33.8391014" lon="133.2632433"><ele>1125.83</ele><time>2026-05-06T06:04:39Z</time></trkpt><trkpt lat="33.8391303" lon="133.2630193"><ele>1118.6533333333334</ele><time>2026-05-06T06:05:15Z</time></trkpt><trkpt lat="33.8391695" lon="133.2627863"><ele>1111.0533333333335</ele><time>2026-05-06T06:05:44Z</time></trkpt><trkpt lat="33.839149" lon="133.2625529"><ele>1102.38</ele><time>2026-05-06T06:07:08Z</time></trkpt><trkpt lat="33.8392055" lon="133.2623466"><ele>1094.3500000000001</ele><time>2026-05-06T06:08:03Z</time></trkpt><trkpt lat="33.83922" lon="133.2621041"><ele>1088.61</ele><time>2026-05-06T06:08:33Z</time></trkpt><trkpt lat="33.8392608" lon="133.2618875"><ele>1083.72</ele><time>2026-05-06T06:08:57Z</time></trkpt><trkpt lat="33.8392799" lon="133.2616725"><ele>1081.14</ele><time>2026-05-06T06:09:18Z</time></trkpt><trkpt lat="33.8392706" lon="133.2614512"><ele>1077.4233333333334</ele><time>2026-05-06T06:09:44Z</time></trkpt><trkpt lat="33.8392714" lon="133.2612173"><ele>1073.6666666666667</ele><time>2026-05-06T06:10:14Z</time></trkpt><trkpt lat="33.8392728" lon="133.2609773"><ele>1068.0100000000002</ele><time>2026-05-06T06:10:50Z</time></trkpt><trkpt lat="33.8393638" lon="133.2607716"><ele>1064.6166666666668</ele><time>2026-05-06T06:11:17Z</time></trkpt><trkpt lat="33.8394061" lon="133.2605581"><ele>1061.5733333333335</ele><time>2026-05-06T06:11:44Z</time></trkpt><trkpt lat="33.8393788" lon="133.2603213"><ele>1058.3266666666666</ele><time>2026-05-06T06:12:10Z</time></trkpt><trkpt lat="33.8394269" lon="133.2600904"><ele>1052.3866666666668</ele><time>2026-05-06T06:12:43Z</time></trkpt><trkpt lat="33.8395075" lon="133.2598919"><ele>1045.3433333333335</ele><time>2026-05-06T06:13:15Z</time></trkpt><trkpt lat="33.8396191" lon="133.2597083"><ele>1037.6266666666668</ele><time>2026-05-06T06:13:48Z</time></trkpt><trkpt lat="33.8394904" lon="133.2595523"><ele>1030.07</ele><time>2026-05-06T06:14:50Z</time></trkpt><trkpt lat="33.8396547" lon="133.2594232"><ele>1023.2133333333333</ele><time>2026-05-06T06:15:14Z</time></trkpt><trkpt lat="33.8397823" lon="133.2592362"><ele>1017.2399999999999</ele><time>2026-05-06T06:15:47Z</time></trkpt><trkpt lat="33.8395894" lon="133.2592479"><ele>1012.8000000000001</ele><time>2026-05-06T06:16:11Z</time></trkpt></trkseg></trk></gpx>