<?xml version='1.0' encoding='UTF-8'?><gpx creator="YAMAP - https://yamap.com" xsi:schemaLocation="http://www.topografix.com/GPX/1/1 http://www.topografix.com/GPX/1/1/gpx.xsd" version="1.1" xmlns="http://www.topografix.com/GPX/1/1" xmlns:xsi="http://www.w3.org/2001/XMLSchema-instance"><metadata><bounds maxlat="33.3601508" maxlon="132.5146074" minlat="33.3540224" minlon="132.5018777"/></metadata><trk><name>黒瀬山(黒瀬城址)・岡山(岡山城址)・鉢ヶ森(鉢ヶ森城址)・護摩ヶ森(護摩ヶ森城址)・我合山(...</name><number>1</number><trkseg><trkpt lat="33.358283" lon="132.5091292"><ele>222.82</ele><time>2023-01-08T05:24:29Z</time></trkpt><trkpt lat="33.3583429" lon="132.508922"><ele>224.375</ele><time>2023-01-08T05:24:46Z</time></trkpt><trkpt lat="33.3584236" lon="132.5087251"><ele>226.07333333333335</ele><time>2023-01-08T05:25:07Z</time></trkpt><trkpt lat="33.3585994" lon="132.5088008"><ele>229.32000000000002</ele><time>2023-01-08T05:25:36Z</time></trkpt><trkpt lat="33.3587787" lon="132.5087764"><ele>234.38333333333333</ele><time>2023-01-08T05:26:18Z</time></trkpt><trkpt lat="33.3589629" lon="132.5088185"><ele>240.49333333333334</ele><time>2023-01-08T05:26:41Z</time></trkpt><trkpt lat="33.3591485" lon="132.5088375"><ele>248.76333333333332</ele><time>2023-01-08T05:27:04Z</time></trkpt><trkpt lat="33.3593208" lon="132.5089162"><ele>255.61</ele><time>2023-01-08T05:28:06Z</time></trkpt><trkpt lat="33.3595009" lon="132.5088757"><ele>263.6933333333333</ele><time>2023-01-08T05:28:21Z</time></trkpt><trkpt lat="33.3596478" lon="132.5090114"><ele>269.74</ele><time>2023-01-08T05:28:50Z</time></trkpt><trkpt lat="33.3598134" lon="132.509104"><ele>274.74666666666667</ele><time>2023-01-08T05:29:10Z</time></trkpt><trkpt lat="33.3599926" lon="132.5090738"><ele>277.27000000000004</ele><time>2023-01-08T05:29:38Z</time></trkpt><trkpt lat="33.3601508" lon="132.5089696"><ele>278.34999999999997</ele><time>2023-01-08T05:30:08Z</time></trkpt><trkpt lat="33.3600663" lon="132.5087755"><ele>283.0566666666667</ele><time>2023-01-08T05:30:59Z</time></trkpt><trkpt lat="33.360091" lon="132.5085626"><ele>290.65333333333336</ele><time>2023-01-08T05:31:24Z</time></trkpt><trkpt lat="33.3600291" lon="132.5083457"><ele>301.6166666666667</ele><time>2023-01-08T05:32:26Z</time></trkpt><trkpt lat="33.3599905" lon="132.5081319"><ele>311.19666666666666</ele><time>2023-01-08T05:32:51Z</time></trkpt><trkpt lat="33.3599027" lon="132.5079398"><ele>317.75333333333333</ele><time>2023-01-08T05:33:11Z</time></trkpt><trkpt lat="33.3599798" lon="132.5077443"><ele>319.79333333333335</ele><time>2023-01-08T05:33:30Z</time></trkpt><trkpt lat="33.3598682" lon="132.5075725"><ele>320.25333333333333</ele><time>2023-01-08T05:33:46Z</time></trkpt><trkpt lat="33.3598335" lon="132.5073512"><ele>322.49666666666667</ele><time>2023-01-08T05:34:10Z</time></trkpt><trkpt lat="33.3598925" lon="132.5071472"><ele>326.08</ele><time>2023-01-08T05:34:26Z</time></trkpt><trkpt lat="33.35998" lon="132.506957"><ele>327.70666666666665</ele><time>2023-01-08T05:34:46Z</time></trkpt><trkpt lat="33.3597997" lon="132.5068839"><ele>330.90333333333336</ele><time>2023-01-08T05:35:00Z</time></trkpt><trkpt lat="33.3597008" lon="132.5066885"><ele>334.9766666666667</ele><time>2023-01-08T05:35:20Z</time></trkpt><trkpt lat="33.3596161" lon="132.5064977"><ele>339.9333333333334</ele><time>2023-01-08T05:35:35Z</time></trkpt><trkpt lat="33.359482" lon="132.5063465"><ele>340.6033333333334</ele><time>2023-01-08T05:36:16Z</time></trkpt><trkpt lat="33.3593874" lon="132.5061591"><ele>339.82666666666665</ele><time>2023-01-08T05:36:31Z</time></trkpt><trkpt lat="33.3593625" lon="132.5059379"><ele>336.1466666666667</ele><time>2023-01-08T05:36:41Z</time></trkpt><trkpt lat="33.3593802" lon="132.5057143"><ele>329.88</ele><time>2023-01-08T05:36:53Z</time></trkpt><trkpt lat="33.3593769" lon="132.5054926"><ele>324.7733333333333</ele><time>2023-01-08T05:37:07Z</time></trkpt><trkpt lat="33.3594666" lon="132.5053044"><ele>320.73333333333335</ele><time>2023-01-08T05:37:19Z</time></trkpt><trkpt lat="33.3595036" lon="132.5050925"><ele>317.25333333333333</ele><time>2023-01-08T05:37:31Z</time></trkpt><trkpt lat="33.3595024" lon="132.5048758"><ele>315.27000000000004</ele><time>2023-01-08T05:38:10Z</time></trkpt><trkpt lat="33.3594383" lon="132.5046716"><ele>318.0566666666667</ele><time>2023-01-08T05:38:52Z</time></trkpt><trkpt lat="33.3594307" lon="132.5044544"><ele>324.88</ele><time>2023-01-08T05:39:35Z</time></trkpt><trkpt lat="33.3594691" lon="132.5042262"><ele>330.0733333333333</ele><time>2023-01-08T05:39:46Z</time></trkpt><trkpt lat="33.35948" lon="132.5040108"><ele>331.81333333333333</ele><time>2023-01-08T05:40:01Z</time></trkpt><trkpt lat="33.3593128" lon="132.5039071"><ele>334.35999999999996</ele><time>2023-01-08T05:40:21Z</time></trkpt><trkpt lat="33.359137" lon="132.5039779"><ele>338.4566666666667</ele><time>2023-01-08T05:40:38Z</time></trkpt><trkpt lat="33.3589519" lon="132.5039635"><ele>343.08666666666664</ele><time>2023-01-08T05:40:52Z</time></trkpt><trkpt lat="33.3587741" lon="132.5039153"><ele>346.3233333333333</ele><time>2023-01-08T05:41:11Z</time></trkpt><trkpt lat="33.3585944" lon="132.5038758"><ele>348.05</ele><time>2023-01-08T05:41:55Z</time></trkpt><trkpt lat="33.3584291" lon="132.5037824"><ele>351.9333333333334</ele><time>2023-01-08T05:43:46Z</time></trkpt><trkpt lat="33.3582485" lon="132.5036586"><ele>351.18666666666667</ele><time>2023-01-08T05:44:04Z</time></trkpt><trkpt lat="33.358134" lon="132.503481"><ele>350.1466666666667</ele><time>2023-01-08T05:44:11Z</time></trkpt><trkpt lat="33.3580653" lon="132.5032741"><ele>345.60999999999996</ele><time>2023-01-08T05:44:24Z</time></trkpt><trkpt lat="33.3579683" lon="132.5030808"><ele>343.61999999999995</ele><time>2023-01-08T05:44:37Z</time></trkpt><trkpt lat="33.3577829" lon="132.5030989"><ele>342.2366666666667</ele><time>2023-01-08T05:44:48Z</time></trkpt><trkpt lat="33.3576104" lon="132.5030349"><ele>342.68666666666667</ele><time>2023-01-08T05:45:04Z</time></trkpt><trkpt lat="33.3574554" lon="132.502902"><ele>346.12999999999994</ele><time>2023-01-08T05:45:25Z</time></trkpt><trkpt lat="33.3573197" lon="132.5027585"><ele>349.56333333333333</ele><time>2023-01-08T05:45:44Z</time></trkpt><trkpt lat="33.3571663" lon="132.5026328"><ele>354.2733333333333</ele><time>2023-01-08T05:46:03Z</time></trkpt><trkpt lat="33.3569927" lon="132.5025683"><ele>357.62000000000006</ele><time>2023-01-08T05:46:46Z</time></trkpt><trkpt lat="33.3568846" lon="132.5023919"><ele>360.98333333333335</ele><time>2023-01-08T05:47:29Z</time></trkpt><trkpt lat="33.3567207" lon="132.5022958"><ele>363.0466666666667</ele><time>2023-01-08T05:47:46Z</time></trkpt><trkpt lat="33.3566653" lon="132.5020741"><ele>365.34999999999997</ele><time>2023-01-08T05:47:59Z</time></trkpt><trkpt lat="33.3565859" lon="132.5018777"><ele>368.7733333333333</ele><time>2023-01-08T05:48:44Z</time></trkpt><trkpt lat="33.3564312" lon="132.502003"><ele>371.5933333333333</ele><time>2023-01-08T05:49:11Z</time></trkpt><trkpt lat="33.3562658" lon="132.5021107"><ele>373.2866666666667</ele><time>2023-01-08T05:49:28Z</time></trkpt><trkpt lat="33.3560854" lon="132.5020978"><ele>375.2833333333333</ele><time>2023-01-08T05:49:52Z</time></trkpt><trkpt lat="33.3558962" lon="132.5021016"><ele>379.3</ele><time>2023-01-08T05:50:50Z</time></trkpt><trkpt lat="33.3557122" lon="132.5021081"><ele>384.7</ele><time>2023-01-08T05:51:23Z</time></trkpt><trkpt lat="33.35553" lon="132.5021157"><ele>391.35999999999996</ele><time>2023-01-08T05:52:01Z</time></trkpt><trkpt lat="33.3553595" lon="132.5020388"><ele>398.2633333333334</ele><time>2023-01-08T05:52:33Z</time></trkpt><trkpt lat="33.3551958" lon="132.5021329"><ele>405.4266666666667</ele><time>2023-01-08T05:52:55Z</time></trkpt><trkpt lat="33.3550231" lon="132.5021958"><ele>412.5833333333333</ele><time>2023-01-08T05:54:22Z</time></trkpt><trkpt lat="33.3548556" lon="132.5022885"><ele>420.2933333333333</ele><time>2023-01-08T05:54:48Z</time></trkpt><trkpt lat="33.3547135" lon="132.5021332"><ele>428.32666666666665</ele><time>2023-01-08T05:55:50Z</time></trkpt><trkpt lat="33.3548241" lon="132.5023048"><ele>432.21000000000004</ele><time>2023-01-08T05:56:12Z</time></trkpt><trkpt lat="33.3548733" lon="132.5025151"><ele>428.93</ele><time>2023-01-08T05:58:13Z</time></trkpt><trkpt lat="33.3547654" lon="132.5026901"><ele>422.9166666666667</ele><time>2023-01-08T05:58:58Z</time></trkpt><trkpt lat="33.3546666" lon="132.5028725"><ele>416.3966666666667</ele><time>2023-01-08T05:59:27Z</time></trkpt><trkpt lat="33.3545517" lon="132.5030495"><ele>411.18666666666667</ele><time>2023-01-08T05:59:55Z</time></trkpt><trkpt lat="33.3544154" lon="132.5032002"><ele>403.55</ele><time>2023-01-08T06:00:35Z</time></trkpt><trkpt lat="33.3544244" lon="132.5034246"><ele>394.3066666666667</ele><time>2023-01-08T06:01:02Z</time></trkpt><trkpt lat="33.3542935" lon="132.5035954"><ele>387.47</ele><time>2023-01-08T06:01:32Z</time></trkpt><trkpt lat="33.3542039" lon="132.5037927"><ele>382.27</ele><time>2023-01-08T06:01:45Z</time></trkpt><trkpt lat="33.3541449" lon="132.5040024"><ele>378.8533333333333</ele><time>2023-01-08T06:02:04Z</time></trkpt><trkpt lat="33.3543148" lon="132.5040884"><ele>373.62999999999994</ele><time>2023-01-08T06:03:07Z</time></trkpt><trkpt lat="33.3544696" lon="132.5042028"><ele>366.9633333333333</ele><time>2023-01-08T06:03:22Z</time></trkpt><trkpt lat="33.3546381" lon="132.5041021"><ele>364.2133333333333</ele><time>2023-01-08T06:03:34Z</time></trkpt><trkpt lat="33.3548252" lon="132.50413"><ele>365.52</ele><time>2023-01-08T06:04:00Z</time></trkpt><trkpt lat="33.3548949" lon="132.5043302"><ele>369.7666666666667</ele><time>2023-01-08T06:04:16Z</time></trkpt><trkpt lat="33.3550696" lon="132.5044099"><ele>370.8866666666667</ele><time>2023-01-08T06:04:53Z</time></trkpt><trkpt lat="33.3549755" lon="132.5045945"><ele>368.67</ele><time>2023-01-08T06:05:21Z</time></trkpt><trkpt lat="33.3549953" lon="132.5048122"><ele>362.75666666666666</ele><time>2023-01-08T06:06:14Z</time></trkpt><trkpt lat="33.3550392" lon="132.5050432"><ele>354.0566666666667</ele><time>2023-01-08T06:07:04Z</time></trkpt><trkpt lat="33.3550778" lon="132.5052699"><ele>344.3766666666667</ele><time>2023-01-08T06:07:08Z</time></trkpt><trkpt lat="33.3550008" lon="132.5054844"><ele>338.1366666666667</ele><time>2023-01-08T06:07:21Z</time></trkpt><trkpt lat="33.3549365" lon="132.5057071"><ele>334.1166666666666</ele><time>2023-01-08T06:07:37Z</time></trkpt><trkpt lat="33.3550574" lon="132.5058679"><ele>331.37</ele><time>2023-01-08T06:07:49Z</time></trkpt><trkpt lat="33.355011" lon="132.5060778"><ele>330.9266666666667</ele><time>2023-01-08T06:08:06Z</time></trkpt><trkpt lat="33.3549524" lon="132.5062971"><ele>333.40333333333336</ele><time>2023-01-08T06:08:44Z</time></trkpt><trkpt lat="33.3548551" lon="132.5064834"><ele>337.64666666666665</ele><time>2023-01-08T06:09:00Z</time></trkpt><trkpt lat="33.3547205" lon="132.5066303"><ele>340.6366666666667</ele><time>2023-01-08T06:09:15Z</time></trkpt><trkpt lat="33.3546023" lon="132.5067982"><ele>342.04</ele><time>2023-01-08T06:09:31Z</time></trkpt><trkpt lat="33.3544925" lon="132.5069691"><ele>343.78</ele><time>2023-01-08T06:09:47Z</time></trkpt><trkpt lat="33.3543402" lon="132.5070902"><ele>347.25</ele><time>2023-01-08T06:10:03Z</time></trkpt><trkpt lat="33.3542035" lon="132.5072526"><ele>352.62999999999994</ele><time>2023-01-08T06:10:20Z</time></trkpt><trkpt lat="33.3542169" lon="132.5074759"><ele>358.12999999999994</ele><time>2023-01-08T06:11:01Z</time></trkpt><trkpt lat="33.3542197" lon="132.5076917"><ele>362.3733333333334</ele><time>2023-01-08T06:11:34Z</time></trkpt><trkpt lat="33.3541459" lon="132.5078911"><ele>366.00333333333333</ele><time>2023-01-08T06:12:01Z</time></trkpt><trkpt lat="33.3540939" lon="132.5081009"><ele>370.43666666666667</ele><time>2023-01-08T06:12:17Z</time></trkpt><trkpt lat="33.3540499" lon="132.5083116"><ele>374.7366666666667</ele><time>2023-01-08T06:12:46Z</time></trkpt><trkpt lat="33.3541072" lon="132.5085203"><ele>377.8966666666667</ele><time>2023-01-08T06:14:15Z</time></trkpt><trkpt lat="33.3541563" lon="132.5087392"><ele>379.3966666666667</ele><time>2023-01-08T06:14:50Z</time></trkpt><trkpt lat="33.3541699" lon="132.5089548"><ele>377.81333333333333</ele><time>2023-01-08T06:15:31Z</time></trkpt><trkpt lat="33.3541381" lon="132.5091714"><ele>374.56666666666666</ele><time>2023-01-08T06:15:58Z</time></trkpt><trkpt lat="33.3541429" lon="132.509397"><ele>368.8333333333333</ele><time>2023-01-08T06:16:05Z</time></trkpt><trkpt lat="33.3540932" lon="132.5096087"><ele>364.3066666666667</ele><time>2023-01-08T06:16:16Z</time></trkpt><trkpt lat="33.3541108" lon="132.5098349"><ele>358.1433333333334</ele><time>2023-01-08T06:16:29Z</time></trkpt><trkpt lat="33.3541533" lon="132.5096087"><ele>356.76666666666665</ele><time>2023-01-08T06:16:33Z</time></trkpt><trkpt lat="33.3541031" lon="132.509844"><ele>354.0933333333333</ele><time>2023-01-08T06:16:46Z</time></trkpt><trkpt lat="33.3540544" lon="132.5100693"><ele>351.4266666666667</ele><time>2023-01-08T06:16:53Z</time></trkpt><trkpt lat="33.3540224" lon="132.5102879"><ele>346.7266666666667</ele><time>2023-01-08T06:17:03Z</time></trkpt><trkpt lat="33.3540813" lon="132.5105009"><ele>343.20000000000005</ele><time>2023-01-08T06:17:14Z</time></trkpt><trkpt lat="33.3540279" lon="132.5107097"><ele>342.08</ele><time>2023-01-08T06:17:25Z</time></trkpt><trkpt lat="33.3540373" lon="132.5109254"><ele>338.01</ele><time>2023-01-08T06:17:38Z</time></trkpt><trkpt lat="33.3541811" lon="132.5110759"><ele>334.31</ele><time>2023-01-08T06:18:09Z</time></trkpt><trkpt lat="33.3543175" lon="132.5112268"><ele>329.31</ele><time>2023-01-08T06:18:28Z</time></trkpt><trkpt lat="33.3544298" lon="132.5114103"><ele>325.6666666666667</ele><time>2023-01-08T06:18:50Z</time></trkpt><trkpt lat="33.3544641" lon="132.5116223"><ele>320.44</ele><time>2023-01-08T06:19:21Z</time></trkpt><trkpt lat="33.3545193" lon="132.511827"><ele>314.8466666666667</ele><time>2023-01-08T06:19:53Z</time></trkpt><trkpt lat="33.3545856" lon="132.5120452"><ele>309.03000000000003</ele><time>2023-01-08T06:20:07Z</time></trkpt><trkpt lat="33.3546722" lon="132.5122401"><ele>304.83666666666664</ele><time>2023-01-08T06:20:20Z</time></trkpt><trkpt lat="33.3546409" lon="132.5124583"><ele>303.4533333333334</ele><time>2023-01-08T06:21:18Z</time></trkpt><trkpt lat="33.3546563" lon="132.5126745"><ele>305.07666666666665</ele><time>2023-01-08T06:22:26Z</time></trkpt><trkpt lat="33.354682" lon="132.512889"><ele>309.66333333333336</ele><time>2023-01-08T06:22:45Z</time></trkpt><trkpt lat="33.3545973" lon="132.5130846"><ele>315.78666666666663</ele><time>2023-01-08T06:23:07Z</time></trkpt><trkpt lat="33.3545195" lon="132.5132858"><ele>320.41</ele><time>2023-01-08T06:23:53Z</time></trkpt><trkpt lat="33.3544151" lon="132.5134671"><ele>321.4266666666667</ele><time>2023-01-08T06:24:17Z</time></trkpt><trkpt lat="33.3543381" lon="132.5136654"><ele>319.0466666666667</ele><time>2023-01-08T06:24:52Z</time></trkpt><trkpt lat="33.354324" lon="132.5138856"><ele>316.78666666666663</ele><time>2023-01-08T06:25:01Z</time></trkpt><trkpt lat="33.3545045" lon="132.5139364"><ele>312.92333333333335</ele><time>2023-01-08T06:26:30Z</time></trkpt><trkpt lat="33.354648" lon="132.5138015"><ele>310.34666666666664</ele><time>2023-01-08T06:26:38Z</time></trkpt><trkpt lat="33.3548364" lon="132.5138146"><ele>309.5566666666667</ele><time>2023-01-08T06:26:57Z</time></trkpt><trkpt lat="33.354966" lon="132.5139671"><ele>311.1066666666666</ele><time>2023-01-08T06:27:32Z</time></trkpt><trkpt lat="33.3551051" lon="132.5141106"><ele>312.8933333333334</ele><time>2023-01-08T06:27:46Z</time></trkpt><trkpt lat="33.3552858" lon="132.5141277"><ele>317.37</ele><time>2023-01-08T06:28:36Z</time></trkpt><trkpt lat="33.3554179" lon="132.5142759"><ele>323.7766666666667</ele><time>2023-01-08T06:28:58Z</time></trkpt><trkpt lat="33.3555175" lon="132.5144603"><ele>329.19</ele><time>2023-01-08T06:29:13Z</time></trkpt><trkpt lat="33.3556502" lon="132.5146074"><ele>330.3833333333334</ele><time>2023-01-08T06:29:32Z</time></trkpt><trkpt lat="33.355771" lon="132.5144462"><ele>333.81</ele><time>2023-01-08T06:30:17Z</time></trkpt><trkpt lat="33.3557297" lon="132.5142274"><ele>339.96666666666664</ele><time>2023-01-08T06:31:30Z</time></trkpt><trkpt lat="33.3557639" lon="132.5140019"><ele>346.6466666666667</ele><time>2023-01-08T06:31:43Z</time></trkpt><trkpt lat="33.3555917" lon="132.5140705"><ele>349.08666666666664</ele><time>2023-01-08T06:34:25Z</time></trkpt><trkpt lat="33.3556223" lon="132.5138567"><ele>349.4466666666667</ele><time>2023-01-08T06:34:42Z</time></trkpt><trkpt lat="33.3554757" lon="132.5139828"><ele>346.82</ele><time>2023-01-08T06:35:23Z</time></trkpt><trkpt lat="33.3552954" lon="132.5139327"><ele>340.93333333333334</ele><time>2023-01-08T06:35:46Z</time></trkpt><trkpt lat="33.3551242" lon="132.5138418"><ele>332.6933333333333</ele><time>2023-01-08T06:36:03Z</time></trkpt><trkpt lat="33.3551042" lon="132.513624"><ele>325.95</ele><time>2023-01-08T06:36:15Z</time></trkpt><trkpt lat="33.355132" lon="132.5133992"><ele>321.01</ele><time>2023-01-08T06:36:58Z</time></trkpt><trkpt lat="33.3550146" lon="132.5132314"><ele>315.3233333333333</ele><time>2023-01-08T06:37:10Z</time></trkpt><trkpt lat="33.3551757" lon="132.5131234"><ele>306.68666666666667</ele><time>2023-01-08T06:37:20Z</time></trkpt><trkpt lat="33.3553168" lon="132.5129592"><ele>298.18</ele><time>2023-01-08T06:37:38Z</time></trkpt><trkpt lat="33.3553529" lon="132.5127477"><ele>290.44</ele><time>2023-01-08T06:37:51Z</time></trkpt><trkpt lat="33.3554409" lon="132.5125383"><ele>282.8766666666667</ele><time>2023-01-08T06:38:02Z</time></trkpt><trkpt lat="33.3555593" lon="132.5123486"><ele>275.21333333333337</ele><time>2023-01-08T06:38:10Z</time></trkpt><trkpt lat="33.3556577" lon="132.5121395"><ele>267.17333333333335</ele><time>2023-01-08T06:38:28Z</time></trkpt><trkpt lat="33.3558067" lon="132.5119981"><ele>261.24333333333334</ele><time>2023-01-08T06:38:49Z</time></trkpt><trkpt lat="33.3559616" lon="132.5118701"><ele>256.41</ele><time>2023-01-08T06:39:00Z</time></trkpt><trkpt lat="33.3561366" lon="132.511932"><ele>253.66666666666666</ele><time>2023-01-08T06:39:15Z</time></trkpt><trkpt lat="33.3563083" lon="132.5120052"><ele>252.77666666666667</ele><time>2023-01-08T06:39:42Z</time></trkpt><trkpt lat="33.3564768" lon="132.5119167"><ele>251.32666666666668</ele><time>2023-01-08T06:39:59Z</time></trkpt><trkpt lat="33.3566589" lon="132.5118842"><ele>249.28666666666666</ele><time>2023-01-08T06:40:12Z</time></trkpt><trkpt lat="33.3568443" lon="132.5118759"><ele>245.44999999999996</ele><time>2023-01-08T06:40:27Z</time></trkpt><trkpt lat="33.3566943" lon="132.5117473"><ele>242.92</ele><time>2023-01-08T06:41:24Z</time></trkpt><trkpt lat="33.3565301" lon="132.5116576"><ele>241.25333333333333</ele><time>2023-01-08T06:41:40Z</time></trkpt><trkpt lat="33.356424" lon="132.5114788"><ele>239.9333333333333</ele><time>2023-01-08T06:41:54Z</time></trkpt><trkpt lat="33.3564912" lon="132.5112696"><ele>237.31333333333336</ele><time>2023-01-08T06:42:17Z</time></trkpt><trkpt lat="33.3565347" lon="132.5110532"><ele>234.49</ele><time>2023-01-08T06:42:32Z</time></trkpt><trkpt lat="33.3565862" lon="132.5108346"><ele>232.73333333333335</ele><time>2023-01-08T06:42:47Z</time></trkpt><trkpt lat="33.3567458" lon="132.51072"><ele>231.98333333333335</ele><time>2023-01-08T06:43:02Z</time></trkpt><trkpt lat="33.3568015" lon="132.5105084"><ele>230.70000000000002</ele><time>2023-01-08T06:43:18Z</time></trkpt><trkpt lat="33.356667" lon="132.5103603"><ele>229.87333333333333</ele><time>2023-01-08T06:43:30Z</time></trkpt><trkpt lat="33.3567043" lon="132.5101497"><ele>228.91</ele><time>2023-01-08T06:43:52Z</time></trkpt><trkpt lat="33.3568953" lon="132.5101344"><ele>228.8066666666667</ele><time>2023-01-08T06:44:10Z</time></trkpt><trkpt lat="33.3570363" lon="132.5099955"><ele>228.3033333333333</ele><time>2023-01-08T06:44:27Z</time></trkpt><trkpt lat="33.3571858" lon="132.5098453"><ele>228.32666666666668</ele><time>2023-01-08T06:44:45Z</time></trkpt><trkpt lat="33.3572908" lon="132.5096694"><ele>228.37</ele><time>2023-01-08T06:45:02Z</time></trkpt><trkpt lat="33.357431" lon="132.5095297"><ele>227.89</ele><time>2023-01-08T06:45:15Z</time></trkpt><trkpt lat="33.357619" lon="132.5094751"><ele>226.80666666666664</ele><time>2023-01-08T06:45:45Z</time></trkpt><trkpt lat="33.357791" lon="132.5094098"><ele>225.0</ele><time>2023-01-08T06:45:55Z</time></trkpt><trkpt lat="33.3579738" lon="132.509363"><ele>223.3166666666667</ele><time>2023-01-08T06:46:08Z</time></trkpt><trkpt lat="33.3579714" lon="132.5095833"><ele>221.84333333333336</ele><time>2023-01-08T06:46:20Z</time></trkpt><trkpt lat="33.3580805" lon="132.5097572"><ele>220.62333333333336</ele><time>2023-01-08T06:46:35Z</time></trkpt><trkpt lat="33.3581856" lon="132.509576"><ele>219.78333333333333</ele><time>2023-01-08T06:46:53Z</time></trkpt><trkpt lat="33.3581914" lon="132.509349"><ele>219.57666666666668</ele><time>2023-01-08T06:47:08Z</time></trkpt><trkpt lat="33.3582866" lon="132.5091412"><ele>220.75</ele><time>2023-01-08T06:47:25Z</time></trkpt></trkseg></trk></gpx>