<?xml version='1.0' encoding='UTF-8'?><gpx creator="YAMAP - https://yamap.com" xsi:schemaLocation="http://www.topografix.com/GPX/1/1 http://www.topografix.com/GPX/1/1/gpx.xsd" version="1.1" xmlns="http://www.topografix.com/GPX/1/1" xmlns:xsi="http://www.w3.org/2001/XMLSchema-instance"><metadata><bounds maxlat="33.2126294" maxlon="132.5239205" minlat="33.1986432" minlon="132.5167103"/></metadata><trk><name>熊ガ峰</name><number>1</number><trkseg><trkpt lat="33.2111752" lon="132.5232102"><ele>24.89</ele><time>2024-02-10T00:58:30Z</time></trkpt><trkpt lat="33.2113358" lon="132.5233208"><ele>26.545</ele><time>2024-02-10T00:58:58Z</time></trkpt><trkpt lat="33.2114827" lon="132.5234716"><ele>27.163333333333338</ele><time>2024-02-10T00:59:14Z</time></trkpt><trkpt lat="33.2116234" lon="132.5236103"><ele>28.906666666666666</ele><time>2024-02-10T00:59:29Z</time></trkpt><trkpt lat="33.2117558" lon="132.5237656"><ele>28.436666666666667</ele><time>2024-02-10T00:59:44Z</time></trkpt><trkpt lat="33.2119088" lon="132.5238859"><ele>25.923333333333332</ele><time>2024-02-10T00:59:58Z</time></trkpt><trkpt lat="33.2120851" lon="132.5238238"><ele>24.01</ele><time>2024-02-10T01:00:16Z</time></trkpt><trkpt lat="33.2122535" lon="132.5237434"><ele>23.72</ele><time>2024-02-10T01:00:32Z</time></trkpt><trkpt lat="33.212445" lon="132.5237723"><ele>24.66333333333333</ele><time>2024-02-10T01:00:45Z</time></trkpt><trkpt lat="33.2126294" lon="132.5237344"><ele>23.136666666666667</ele><time>2024-02-10T01:00:56Z</time></trkpt><trkpt lat="33.2125284" lon="132.5235438"><ele>24.49</ele><time>2024-02-10T01:01:24Z</time></trkpt><trkpt lat="33.2123778" lon="132.5234244"><ele>29.923333333333336</ele><time>2024-02-10T01:01:39Z</time></trkpt><trkpt lat="33.2122205" lon="132.5235332"><ele>34.31</ele><time>2024-02-10T01:01:49Z</time></trkpt><trkpt lat="33.2120613" lon="132.523646"><ele>34.81</ele><time>2024-02-10T01:02:01Z</time></trkpt><trkpt lat="33.2118664" lon="132.5236582"><ele>31.91333333333333</ele><time>2024-02-10T01:02:26Z</time></trkpt><trkpt lat="33.2117824" lon="132.523463"><ele>32.79333333333333</ele><time>2024-02-10T01:02:50Z</time></trkpt><trkpt lat="33.211647" lon="132.5233171"><ele>35.73</ele><time>2024-02-10T01:03:09Z</time></trkpt><trkpt lat="33.211563" lon="132.5231268"><ele>40.04333333333333</ele><time>2024-02-10T01:04:09Z</time></trkpt><trkpt lat="33.2114054" lon="132.5230178"><ele>42.050000000000004</ele><time>2024-02-10T01:04:21Z</time></trkpt><trkpt lat="33.2112707" lon="132.5228725"><ele>43.03333333333333</ele><time>2024-02-10T01:04:31Z</time></trkpt><trkpt lat="33.2111248" lon="132.5227421"><ele>44.17666666666667</ele><time>2024-02-10T01:04:45Z</time></trkpt><trkpt lat="33.2109958" lon="132.5225866"><ele>45.53</ele><time>2024-02-10T01:05:02Z</time></trkpt><trkpt lat="33.2108651" lon="132.5224097"><ele>46.92666666666667</ele><time>2024-02-10T01:05:35Z</time></trkpt><trkpt lat="33.2107375" lon="132.522254"><ele>46.63333333333333</ele><time>2024-02-10T01:05:48Z</time></trkpt><trkpt lat="33.210545" lon="132.5222491"><ele>46.1</ele><time>2024-02-10T01:06:06Z</time></trkpt><trkpt lat="33.2104828" lon="132.5220419"><ele>48.20333333333334</ele><time>2024-02-10T01:06:17Z</time></trkpt><trkpt lat="33.2104234" lon="132.5218385"><ele>51.29999999999999</ele><time>2024-02-10T01:06:33Z</time></trkpt><trkpt lat="33.2102982" lon="132.5216725"><ele>54.97</ele><time>2024-02-10T01:06:46Z</time></trkpt><trkpt lat="33.2101609" lon="132.5215059"><ele>55.26</ele><time>2024-02-10T01:07:01Z</time></trkpt><trkpt lat="33.2100791" lon="132.5213087"><ele>55.73333333333333</ele><time>2024-02-10T01:07:15Z</time></trkpt><trkpt lat="33.2099038" lon="132.5213733"><ele>56.086666666666666</ele><time>2024-02-10T01:07:35Z</time></trkpt><trkpt lat="33.2097115" lon="132.5214004"><ele>56.26666666666667</ele><time>2024-02-10T01:07:53Z</time></trkpt><trkpt lat="33.2095384" lon="132.5213076"><ele>55.873333333333335</ele><time>2024-02-10T01:08:06Z</time></trkpt><trkpt lat="33.2094634" lon="132.5211011"><ele>57.03666666666667</ele><time>2024-02-10T01:08:17Z</time></trkpt><trkpt lat="33.2094306" lon="132.5208884"><ele>59.906666666666666</ele><time>2024-02-10T01:08:33Z</time></trkpt><trkpt lat="33.2094101" lon="132.5206642"><ele>63.05333333333334</ele><time>2024-02-10T01:08:49Z</time></trkpt><trkpt lat="33.2094479" lon="132.5204506"><ele>65.49666666666667</ele><time>2024-02-10T01:09:03Z</time></trkpt><trkpt lat="33.2092956" lon="132.5203216"><ele>66.18</ele><time>2024-02-10T01:09:17Z</time></trkpt><trkpt lat="33.2091719" lon="132.5201264"><ele>66.64</ele><time>2024-02-10T01:09:34Z</time></trkpt><trkpt lat="33.208991" lon="132.5201483"><ele>67.32</ele><time>2024-02-10T01:09:48Z</time></trkpt><trkpt lat="33.208891" lon="132.5203333"><ele>68.73666666666666</ele><time>2024-02-10T01:10:02Z</time></trkpt><trkpt lat="33.2089058" lon="132.52056"><ele>70.29</ele><time>2024-02-10T01:10:17Z</time></trkpt><trkpt lat="33.209077" lon="132.5207092"><ele>67.89333333333333</ele><time>2024-02-10T01:10:28Z</time></trkpt><trkpt lat="33.2090298" lon="132.5209233"><ele>65.10666666666667</ele><time>2024-02-10T01:10:41Z</time></trkpt><trkpt lat="33.2088709" lon="132.5210397"><ele>63.073333333333345</ele><time>2024-02-10T01:10:56Z</time></trkpt><trkpt lat="33.2087161" lon="132.5211675"><ele>65.78</ele><time>2024-02-10T01:11:16Z</time></trkpt><trkpt lat="33.2085575" lon="132.5210621"><ele>69.52333333333333</ele><time>2024-02-10T01:11:27Z</time></trkpt><trkpt lat="33.2083812" lon="132.5210043"><ele>71.29333333333334</ele><time>2024-02-10T01:11:38Z</time></trkpt><trkpt lat="33.2082136" lon="132.5208971"><ele>71.72</ele><time>2024-02-10T01:11:51Z</time></trkpt><trkpt lat="33.2080295" lon="132.5209309"><ele>71.03333333333335</ele><time>2024-02-10T01:12:06Z</time></trkpt><trkpt lat="33.2081886" lon="132.5208119"><ele>72.73666666666666</ele><time>2024-02-10T01:12:48Z</time></trkpt><trkpt lat="33.2083717" lon="132.5207969"><ele>75.74000000000001</ele><time>2024-02-10T01:13:11Z</time></trkpt><trkpt lat="33.2085191" lon="132.5209275"><ele>78.18</ele><time>2024-02-10T01:13:30Z</time></trkpt><trkpt lat="33.2084305" lon="132.5207369"><ele>81.26666666666667</ele><time>2024-02-10T01:13:58Z</time></trkpt><trkpt lat="33.20827" lon="132.5206382"><ele>83.06333333333333</ele><time>2024-02-10T01:14:12Z</time></trkpt><trkpt lat="33.2080825" lon="132.5206442"><ele>84.83</ele><time>2024-02-10T01:14:29Z</time></trkpt><trkpt lat="33.2079268" lon="132.5207578"><ele>84.09</ele><time>2024-02-10T01:14:43Z</time></trkpt><trkpt lat="33.2077457" lon="132.520764"><ele>84.32</ele><time>2024-02-10T01:14:57Z</time></trkpt><trkpt lat="33.2076144" lon="132.5206008"><ele>87.81666666666666</ele><time>2024-02-10T01:15:14Z</time></trkpt><trkpt lat="33.2074194" lon="132.5206067"><ele>90.84333333333335</ele><time>2024-02-10T01:15:29Z</time></trkpt><trkpt lat="33.2072379" lon="132.5206082"><ele>91.96999999999998</ele><time>2024-02-10T01:15:43Z</time></trkpt><trkpt lat="33.2073009" lon="132.5203543"><ele>93.83333333333333</ele><time>2024-02-10T01:15:45Z</time></trkpt><trkpt lat="33.2071312" lon="132.5202723"><ele>96.86</ele><time>2024-02-10T01:15:59Z</time></trkpt><trkpt lat="33.2069568" lon="132.5203459"><ele>99.99333333333334</ele><time>2024-02-10T01:16:11Z</time></trkpt><trkpt lat="33.2067667" lon="132.52034"><ele>99.19333333333334</ele><time>2024-02-10T01:16:24Z</time></trkpt><trkpt lat="33.2065748" lon="132.5203198"><ele>96.72333333333331</ele><time>2024-02-10T01:16:36Z</time></trkpt><trkpt lat="33.2066232" lon="132.5205271"><ele>93.25666666666666</ele><time>2024-02-10T01:17:46Z</time></trkpt><trkpt lat="33.2066548" lon="132.5207404"><ele>91.81666666666666</ele><time>2024-02-10T01:18:04Z</time></trkpt><trkpt lat="33.206529" lon="132.5209031"><ele>92.49333333333334</ele><time>2024-02-10T01:18:23Z</time></trkpt><trkpt lat="33.2064112" lon="132.521071"><ele>94.14</ele><time>2024-02-10T01:18:37Z</time></trkpt><trkpt lat="33.2064469" lon="132.5208537"><ele>97.30333333333333</ele><time>2024-02-10T01:19:07Z</time></trkpt><trkpt lat="33.2065089" lon="132.5206491"><ele>97.52666666666666</ele><time>2024-02-10T01:19:29Z</time></trkpt><trkpt lat="33.2063661" lon="132.5204945"><ele>100.37</ele><time>2024-02-10T01:19:44Z</time></trkpt><trkpt lat="33.2062751" lon="132.5203044"><ele>100.59333333333332</ele><time>2024-02-10T01:20:10Z</time></trkpt><trkpt lat="33.2062795" lon="132.5200836"><ele>102.81666666666668</ele><time>2024-02-10T01:20:33Z</time></trkpt><trkpt lat="33.2062851" lon="132.5198528"><ele>104.93666666666667</ele><time>2024-02-10T01:20:44Z</time></trkpt><trkpt lat="33.2064085" lon="132.5196932"><ele>109.05666666666667</ele><time>2024-02-10T01:21:07Z</time></trkpt><trkpt lat="33.2065894" lon="132.51974"><ele>113.31333333333333</ele><time>2024-02-10T01:21:23Z</time></trkpt><trkpt lat="33.2064716" lon="132.5195624"><ele>118.30000000000001</ele><time>2024-02-10T01:21:45Z</time></trkpt><trkpt lat="33.2062837" lon="132.5195336"><ele>120.70666666666666</ele><time>2024-02-10T01:22:01Z</time></trkpt><trkpt lat="33.2061699" lon="132.5197205"><ele>121.87666666666667</ele><time>2024-02-10T01:22:22Z</time></trkpt><trkpt lat="33.2062098" lon="132.5199455"><ele>117.78000000000002</ele><time>2024-02-10T01:22:38Z</time></trkpt><trkpt lat="33.2060578" lon="132.5200722"><ele>116.26666666666667</ele><time>2024-02-10T01:22:54Z</time></trkpt><trkpt lat="33.2058655" lon="132.5200735"><ele>118.44</ele><time>2024-02-10T01:23:10Z</time></trkpt><trkpt lat="33.2057227" lon="132.5202109"><ele>125.02333333333333</ele><time>2024-02-10T01:23:43Z</time></trkpt><trkpt lat="33.2056464" lon="132.5204059"><ele>128.88333333333333</ele><time>2024-02-10T01:23:59Z</time></trkpt><trkpt lat="33.2054627" lon="132.52041"><ele>130.24333333333334</ele><time>2024-02-10T01:24:15Z</time></trkpt><trkpt lat="33.2052847" lon="132.520353"><ele>129.73</ele><time>2024-02-10T01:24:42Z</time></trkpt><trkpt lat="33.2051112" lon="132.5202809"><ele>130.0533333333333</ele><time>2024-02-10T01:24:59Z</time></trkpt><trkpt lat="33.2049632" lon="132.5201493"><ele>130.81333333333333</ele><time>2024-02-10T01:25:15Z</time></trkpt><trkpt lat="33.2047898" lon="132.5202448"><ele>131.2</ele><time>2024-02-10T01:25:30Z</time></trkpt><trkpt lat="33.2046195" lon="132.5203269"><ele>131.0533333333333</ele><time>2024-02-10T01:26:01Z</time></trkpt><trkpt lat="33.2044406" lon="132.5202587"><ele>132.55</ele><time>2024-02-10T01:27:13Z</time></trkpt><trkpt lat="33.2042577" lon="132.520293"><ele>135.32333333333335</ele><time>2024-02-10T01:27:28Z</time></trkpt><trkpt lat="33.2043659" lon="132.5200879"><ele>141.93333333333334</ele><time>2024-02-10T01:28:26Z</time></trkpt><trkpt lat="33.2045018" lon="132.5199465"><ele>145.71666666666667</ele><time>2024-02-10T01:28:44Z</time></trkpt><trkpt lat="33.2046058" lon="132.5197634"><ele>148.23666666666665</ele><time>2024-02-10T01:29:37Z</time></trkpt><trkpt lat="33.2044938" lon="132.5199432"><ele>147.66666666666666</ele><time>2024-02-10T01:29:48Z</time></trkpt><trkpt lat="33.2044979" lon="132.5196598"><ele>151.80333333333334</ele><time>2024-02-10T01:30:05Z</time></trkpt><trkpt lat="33.2046032" lon="132.519483"><ele>152.83</ele><time>2024-02-10T01:30:38Z</time></trkpt><trkpt lat="33.2046969" lon="132.5196712"><ele>151.11333333333334</ele><time>2024-02-10T01:31:46Z</time></trkpt><trkpt lat="33.2044536" lon="132.519236"><ele>153.13333333333333</ele><time>2024-02-10T01:31:48Z</time></trkpt><trkpt lat="33.2044244" lon="132.5190151"><ele>160.85666666666665</ele><time>2024-02-10T01:31:56Z</time></trkpt><trkpt lat="33.2043079" lon="132.5188437"><ele>170.97</ele><time>2024-02-10T01:32:13Z</time></trkpt><trkpt lat="33.2043378" lon="132.5190767"><ele>174.95333333333335</ele><time>2024-02-10T01:32:58Z</time></trkpt><trkpt lat="33.2043691" lon="132.5192934"><ele>175.13666666666668</ele><time>2024-02-10T01:33:28Z</time></trkpt><trkpt lat="33.2042153" lon="132.5191779"><ele>179.24</ele><time>2024-02-10T01:34:38Z</time></trkpt><trkpt lat="33.2040346" lon="132.5190992"><ele>183.51</ele><time>2024-02-10T01:36:26Z</time></trkpt><trkpt lat="33.2039113" lon="132.5189414"><ele>190.42</ele><time>2024-02-10T01:36:49Z</time></trkpt><trkpt lat="33.203778" lon="132.5187782"><ele>194.58333333333334</ele><time>2024-02-10T01:37:01Z</time></trkpt><trkpt lat="33.2038708" lon="132.5185898"><ele>195.51999999999998</ele><time>2024-02-10T01:37:18Z</time></trkpt><trkpt lat="33.2036848" lon="132.5186624"><ele>198.71</ele><time>2024-02-10T01:40:09Z</time></trkpt><trkpt lat="33.2036116" lon="132.5188675"><ele>202.04999999999998</ele><time>2024-02-10T01:40:30Z</time></trkpt><trkpt lat="33.2036293" lon="132.5190952"><ele>207.60999999999999</ele><time>2024-02-10T01:40:49Z</time></trkpt><trkpt lat="33.2035839" lon="132.5193094"><ele>209.54333333333332</ele><time>2024-02-10T01:41:03Z</time></trkpt><trkpt lat="33.2035138" lon="132.5191043"><ele>211.12</ele><time>2024-02-10T01:41:24Z</time></trkpt><trkpt lat="33.2034762" lon="132.5188941"><ele>212.74</ele><time>2024-02-10T01:41:40Z</time></trkpt><trkpt lat="33.2034312" lon="132.5186832"><ele>216.17</ele><time>2024-02-10T01:42:01Z</time></trkpt><trkpt lat="33.2035318" lon="132.5184737"><ele>217.72000000000003</ele><time>2024-02-10T01:42:50Z</time></trkpt><trkpt lat="33.2035363" lon="132.5182485"><ele>219.79666666666665</ele><time>2024-02-10T01:43:47Z</time></trkpt><trkpt lat="33.2034422" lon="132.5184401"><ele>220.88</ele><time>2024-02-10T01:44:04Z</time></trkpt><trkpt lat="33.203446" lon="132.5182131"><ele>223.27666666666667</ele><time>2024-02-10T01:45:21Z</time></trkpt><trkpt lat="33.2032602" lon="132.5182266"><ele>226.46666666666667</ele><time>2024-02-10T01:46:26Z</time></trkpt><trkpt lat="33.2030701" lon="132.5182118"><ele>231.1833333333333</ele><time>2024-02-10T01:46:59Z</time></trkpt><trkpt lat="33.2028916" lon="132.5182433"><ele>236.38</ele><time>2024-02-10T01:48:05Z</time></trkpt><trkpt lat="33.2027212" lon="132.5181596"><ele>241.1966666666667</ele><time>2024-02-10T01:48:22Z</time></trkpt><trkpt lat="33.202541" lon="132.5181907"><ele>244.67000000000004</ele><time>2024-02-10T01:48:39Z</time></trkpt><trkpt lat="33.2023682" lon="132.5182891"><ele>245.70333333333338</ele><time>2024-02-10T01:49:00Z</time></trkpt><trkpt lat="33.2021898" lon="132.5182451"><ele>244.48666666666668</ele><time>2024-02-10T01:49:13Z</time></trkpt><trkpt lat="33.2019969" lon="132.5182939"><ele>242.47</ele><time>2024-02-10T01:50:34Z</time></trkpt><trkpt lat="33.2018157" lon="132.5182934"><ele>243.85</ele><time>2024-02-10T01:51:20Z</time></trkpt><trkpt lat="33.2016722" lon="132.5181552"><ele>248.6266666666667</ele><time>2024-02-10T01:52:02Z</time></trkpt><trkpt lat="33.2015584" lon="132.5179835"><ele>256.09666666666664</ele><time>2024-02-10T01:52:20Z</time></trkpt><trkpt lat="33.2014692" lon="132.5177946"><ele>263.02333333333337</ele><time>2024-02-10T01:52:44Z</time></trkpt><trkpt lat="33.2014347" lon="132.518012"><ele>265.36999999999995</ele><time>2024-02-10T01:53:30Z</time></trkpt><trkpt lat="33.2013125" lon="132.5181987"><ele>262.68</ele><time>2024-02-10T01:53:57Z</time></trkpt><trkpt lat="33.2012712" lon="132.5178185"><ele>262.09</ele><time>2024-02-10T01:54:04Z</time></trkpt><trkpt lat="33.2012433" lon="132.5175569"><ele>266.7866666666667</ele><time>2024-02-10T01:54:07Z</time></trkpt><trkpt lat="33.2011703" lon="132.5173552"><ele>276.3333333333333</ele><time>2024-02-10T01:54:22Z</time></trkpt><trkpt lat="33.2012153" lon="132.517145"><ele>285.52</ele><time>2024-02-10T01:54:56Z</time></trkpt><trkpt lat="33.2010392" lon="132.5170792"><ele>292.3966666666667</ele><time>2024-02-10T01:55:35Z</time></trkpt><trkpt lat="33.2009697" lon="132.517281"><ele>294.6933333333333</ele><time>2024-02-10T01:56:17Z</time></trkpt><trkpt lat="33.2010505" lon="132.517007"><ele>296.1233333333333</ele><time>2024-02-10T01:56:23Z</time></trkpt><trkpt lat="33.2008716" lon="132.5169463"><ele>297.91</ele><time>2024-02-10T01:57:49Z</time></trkpt><trkpt lat="33.2006884" lon="132.5169758"><ele>304.13000000000005</ele><time>2024-02-10T01:58:03Z</time></trkpt><trkpt lat="33.2005121" lon="132.5170341"><ele>308.5733333333333</ele><time>2024-02-10T01:58:57Z</time></trkpt><trkpt lat="33.2003678" lon="132.5169048"><ele>310.9433333333333</ele><time>2024-02-10T01:59:22Z</time></trkpt><trkpt lat="33.2002321" lon="132.5170531"><ele>312.09666666666664</ele><time>2024-02-10T01:59:34Z</time></trkpt><trkpt lat="33.2000805" lon="132.5171966"><ele>311.87666666666667</ele><time>2024-02-10T02:00:07Z</time></trkpt><trkpt lat="33.1999052" lon="132.5171406"><ele>314.6566666666667</ele><time>2024-02-10T02:00:24Z</time></trkpt><trkpt lat="33.1997261" lon="132.5170831"><ele>317.29</ele><time>2024-02-10T02:00:42Z</time></trkpt><trkpt lat="33.199632" lon="132.5172756"><ele>320.78333333333336</ele><time>2024-02-10T02:01:03Z</time></trkpt><trkpt lat="33.1995556" lon="132.5174705"><ele>321.3666666666667</ele><time>2024-02-10T02:01:20Z</time></trkpt><trkpt lat="33.1994282" lon="132.5176246"><ele>321.1933333333333</ele><time>2024-02-10T02:05:14Z</time></trkpt><trkpt lat="33.199287" lon="132.5177701"><ele>320.85999999999996</ele><time>2024-02-10T02:05:47Z</time></trkpt><trkpt lat="33.1992684" lon="132.5180032"><ele>320.3766666666667</ele><time>2024-02-10T02:06:13Z</time></trkpt><trkpt lat="33.1993122" lon="132.5182193"><ele>319.48</ele><time>2024-02-10T02:06:35Z</time></trkpt><trkpt lat="33.1993382" lon="132.5184434"><ele>319.02</ele><time>2024-02-10T02:07:04Z</time></trkpt><trkpt lat="33.1993553" lon="132.5186623"><ele>319.30333333333334</ele><time>2024-02-10T02:07:34Z</time></trkpt><trkpt lat="33.1994135" lon="132.5188689"><ele>319.39666666666665</ele><time>2024-02-10T02:08:40Z</time></trkpt><trkpt lat="33.1994176" lon="132.5190897"><ele>317.7733333333333</ele><time>2024-02-10T02:09:08Z</time></trkpt><trkpt lat="33.1994278" lon="132.5193178"><ele>315.31666666666666</ele><time>2024-02-10T02:09:30Z</time></trkpt><trkpt lat="33.1993604" lon="132.5195168"><ele>313.65</ele><time>2024-02-10T02:12:01Z</time></trkpt><trkpt lat="33.1993949" lon="132.5197308"><ele>313.27666666666664</ele><time>2024-02-10T02:12:28Z</time></trkpt><trkpt lat="33.1994098" lon="132.5199455"><ele>313.3766666666667</ele><time>2024-02-10T02:12:48Z</time></trkpt><trkpt lat="33.1993976" lon="132.5201622"><ele>313.16333333333336</ele><time>2024-02-10T02:13:15Z</time></trkpt><trkpt lat="33.1993256" lon="132.5203654"><ele>313.91</ele><time>2024-02-10T02:14:01Z</time></trkpt><trkpt lat="33.1992198" lon="132.5205469"><ele>316.0133333333333</ele><time>2024-02-10T02:14:54Z</time></trkpt><trkpt lat="33.1990843" lon="132.5206914"><ele>321.59999999999997</ele><time>2024-02-10T02:15:21Z</time></trkpt><trkpt lat="33.1991129" lon="132.5209053"><ele>328.80333333333334</ele><time>2024-02-10T02:15:56Z</time></trkpt><trkpt lat="33.1991493" lon="132.5211165"><ele>335.6433333333334</ele><time>2024-02-10T02:16:41Z</time></trkpt><trkpt lat="33.1991748" lon="132.521331"><ele>339.67333333333335</ele><time>2024-02-10T02:19:36Z</time></trkpt><trkpt lat="33.1993332" lon="132.5214392"><ele>340.1066666666666</ele><time>2024-02-10T02:20:53Z</time></trkpt><trkpt lat="33.1991626" lon="132.5213654"><ele>340.53999999999996</ele><time>2024-02-10T02:23:57Z</time></trkpt><trkpt lat="33.199009" lon="132.5214926"><ele>338.06</ele><time>2024-02-10T02:24:43Z</time></trkpt><trkpt lat="33.1988634" lon="132.5216237"><ele>336.15333333333336</ele><time>2024-02-10T02:25:09Z</time></trkpt><trkpt lat="33.1987342" lon="132.5217782"><ele>331.19666666666666</ele><time>2024-02-10T02:25:56Z</time></trkpt><trkpt lat="33.1987018" lon="132.5219985"><ele>323.5833333333333</ele><time>2024-02-10T02:26:26Z</time></trkpt><trkpt lat="33.1986432" lon="132.5222023"><ele>313.23</ele><time>2024-02-10T02:27:12Z</time></trkpt><trkpt lat="33.1986599" lon="132.5219856"><ele>308.72333333333336</ele><time>2024-02-10T02:28:30Z</time></trkpt><trkpt lat="33.1987024" lon="132.5217748"><ele>313.85999999999996</ele><time>2024-02-10T02:29:10Z</time></trkpt><trkpt lat="33.1988023" lon="132.5215932"><ele>323.96666666666664</ele><time>2024-02-10T02:29:53Z</time></trkpt><trkpt lat="33.198959" lon="132.5214866"><ele>331.25666666666666</ele><time>2024-02-10T02:30:36Z</time></trkpt><trkpt lat="33.1991084" lon="132.5213644"><ele>335.94666666666666</ele><time>2024-02-10T02:32:24Z</time></trkpt><trkpt lat="33.1991161" lon="132.5211479"><ele>338.82</ele><time>2024-02-10T02:33:02Z</time></trkpt><trkpt lat="33.1990734" lon="132.5209372"><ele>339.53</ele><time>2024-02-10T02:33:32Z</time></trkpt><trkpt lat="33.1990366" lon="132.5207255"><ele>336.6433333333333</ele><time>2024-02-10T02:33:54Z</time></trkpt><trkpt lat="33.1991597" lon="132.5205599"><ele>330.99333333333334</ele><time>2024-02-10T02:34:23Z</time></trkpt><trkpt lat="33.1992636" lon="132.5203798"><ele>324.96</ele><time>2024-02-10T02:34:45Z</time></trkpt><trkpt lat="33.1993444" lon="132.5201797"><ele>318.49666666666667</ele><time>2024-02-10T02:35:12Z</time></trkpt><trkpt lat="33.1993662" lon="132.5199651"><ele>315.08</ele><time>2024-02-10T02:35:32Z</time></trkpt><trkpt lat="33.1993458" lon="132.5197506"><ele>313.11000000000007</ele><time>2024-02-10T02:35:49Z</time></trkpt><trkpt lat="33.1993207" lon="132.5195328"><ele>312.9166666666667</ele><time>2024-02-10T02:36:15Z</time></trkpt><trkpt lat="33.1993673" lon="132.5193255"><ele>312.95666666666665</ele><time>2024-02-10T02:36:40Z</time></trkpt><trkpt lat="33.1993949" lon="132.5191045"><ele>313.31</ele><time>2024-02-10T02:37:09Z</time></trkpt><trkpt lat="33.1994322" lon="132.5188941"><ele>315.07</ele><time>2024-02-10T02:37:31Z</time></trkpt><trkpt lat="33.1993689" lon="132.5186866"><ele>317.3866666666667</ele><time>2024-02-10T02:38:00Z</time></trkpt><trkpt lat="33.1993699" lon="132.5184676"><ele>319.27000000000004</ele><time>2024-02-10T02:38:17Z</time></trkpt><trkpt lat="33.199298" lon="132.5182686"><ele>319.49</ele><time>2024-02-10T02:38:41Z</time></trkpt><trkpt lat="33.1992409" lon="132.5180599"><ele>319.3333333333333</ele><time>2024-02-10T02:39:09Z</time></trkpt><trkpt lat="33.1992861" lon="132.517847"><ele>319.5233333333333</ele><time>2024-02-10T02:39:46Z</time></trkpt><trkpt lat="33.199384" lon="132.5176593"><ele>320.4666666666667</ele><time>2024-02-10T02:40:08Z</time></trkpt><trkpt lat="33.1994962" lon="132.5174842"><ele>321.02</ele><time>2024-02-10T02:40:32Z</time></trkpt><trkpt lat="33.1995733" lon="132.5172845"><ele>321.54333333333335</ele><time>2024-02-10T02:40:58Z</time></trkpt><trkpt lat="33.1995666" lon="132.5170683"><ele>321.92</ele><time>2024-02-10T02:41:20Z</time></trkpt><trkpt lat="33.1997076" lon="132.5169304"><ele>321.60999999999996</ele><time>2024-02-10T02:41:50Z</time></trkpt><trkpt lat="33.1998854" lon="132.5169851"><ele>320.6266666666666</ele><time>2024-02-10T02:42:11Z</time></trkpt><trkpt lat="33.2000525" lon="132.5170665"><ele>318.9866666666666</ele><time>2024-02-10T02:42:38Z</time></trkpt><trkpt lat="33.2002329" lon="132.5171026"><ele>315.74333333333334</ele><time>2024-02-10T02:43:12Z</time></trkpt><trkpt lat="33.2004072" lon="132.5170447"><ele>313.58</ele><time>2024-02-10T02:43:47Z</time></trkpt><trkpt lat="33.2005729" lon="132.5169507"><ele>311.4533333333333</ele><time>2024-02-10T02:44:04Z</time></trkpt><trkpt lat="33.2007286" lon="132.5168386"><ele>310.49666666666667</ele><time>2024-02-10T02:44:27Z</time></trkpt><trkpt lat="33.2008998" lon="132.5167669"><ele>308.12000000000006</ele><time>2024-02-10T02:44:51Z</time></trkpt><trkpt lat="33.2010753" lon="132.5167103"><ele>305.5466666666667</ele><time>2024-02-10T02:45:24Z</time></trkpt><trkpt lat="33.2009711" lon="132.5168941"><ele>304.00333333333333</ele><time>2024-02-10T02:46:18Z</time></trkpt><trkpt lat="33.2011243" lon="132.5170127"><ele>301.45</ele><time>2024-02-10T02:47:02Z</time></trkpt><trkpt lat="33.2012215" lon="132.5171993"><ele>297.6166666666667</ele><time>2024-02-10T02:47:30Z</time></trkpt><trkpt lat="33.2012362" lon="132.517424"><ele>291.5233333333333</ele><time>2024-02-10T02:47:55Z</time></trkpt><trkpt lat="33.2013479" lon="132.5175954"><ele>285.09</ele><time>2024-02-10T02:48:32Z</time></trkpt><trkpt lat="33.2014923" lon="132.5177274"><ele>278.29333333333335</ele><time>2024-02-10T02:49:03Z</time></trkpt><trkpt lat="33.2016312" lon="132.5178678"><ele>271.62666666666667</ele><time>2024-02-10T02:49:24Z</time></trkpt><trkpt lat="33.2017513" lon="132.5180326"><ele>265.4866666666667</ele><time>2024-02-10T02:49:51Z</time></trkpt><trkpt lat="33.2018669" lon="132.5181999"><ele>258.7433333333333</ele><time>2024-02-10T02:50:43Z</time></trkpt><trkpt lat="33.2020481" lon="132.5182416"><ele>251.72000000000003</ele><time>2024-02-10T02:51:11Z</time></trkpt><trkpt lat="33.2022283" lon="132.5182699"><ele>245.94333333333336</ele><time>2024-02-10T02:51:48Z</time></trkpt><trkpt lat="33.2024088" lon="132.5182706"><ele>243.49333333333334</ele><time>2024-02-10T02:52:06Z</time></trkpt><trkpt lat="33.2025898" lon="132.5182405"><ele>242.83333333333334</ele><time>2024-02-10T02:52:24Z</time></trkpt><trkpt lat="33.2027744" lon="132.5182238"><ele>242.74333333333334</ele><time>2024-02-10T02:52:43Z</time></trkpt><trkpt lat="33.2029566" lon="132.5181834"><ele>241.73333333333335</ele><time>2024-02-10T02:53:01Z</time></trkpt><trkpt lat="33.2031371" lon="132.5181687"><ele>239.83</ele><time>2024-02-10T02:53:18Z</time></trkpt><trkpt lat="33.2033094" lon="132.5182491"><ele>235.58666666666667</ele><time>2024-02-10T02:53:36Z</time></trkpt><trkpt lat="33.2034862" lon="132.5181992"><ele>230.45666666666668</ele><time>2024-02-10T02:54:19Z</time></trkpt><trkpt lat="33.2035215" lon="132.5184151"><ele>224.99</ele><time>2024-02-10T02:54:39Z</time></trkpt><trkpt lat="33.2034787" lon="132.5186335"><ele>220.98000000000002</ele><time>2024-02-10T02:55:53Z</time></trkpt><trkpt lat="33.2034573" lon="132.5188518"><ele>217.70333333333335</ele><time>2024-02-10T02:56:19Z</time></trkpt><trkpt lat="33.2035351" lon="132.5190521"><ele>215.39333333333335</ele><time>2024-02-10T02:56:35Z</time></trkpt><trkpt lat="33.2035552" lon="132.5192676"><ele>212.92</ele><time>2024-02-10T02:56:50Z</time></trkpt><trkpt lat="33.203602" lon="132.5190539"><ele>211.4</ele><time>2024-02-10T02:57:15Z</time></trkpt><trkpt lat="33.2036115" lon="132.5188377"><ele>209.7733333333333</ele><time>2024-02-10T02:57:31Z</time></trkpt><trkpt lat="33.2036857" lon="132.5186384"><ele>207.5233333333333</ele><time>2024-02-10T02:57:50Z</time></trkpt><trkpt lat="33.2038365" lon="132.5185154"><ele>204.21666666666667</ele><time>2024-02-10T02:58:06Z</time></trkpt><trkpt lat="33.2038562" lon="132.518731"><ele>199.5</ele><time>2024-02-10T03:00:51Z</time></trkpt><trkpt lat="33.2039363" lon="132.5189296"><ele>195.1866666666667</ele><time>2024-02-10T03:01:08Z</time></trkpt><trkpt lat="33.2040883" lon="132.5190568"><ele>190.27333333333334</ele><time>2024-02-10T03:01:26Z</time></trkpt><trkpt lat="33.2042156" lon="132.519215"><ele>187.48666666666668</ele><time>2024-02-10T03:02:26Z</time></trkpt><trkpt lat="33.2042773" lon="132.519418"><ele>183.12333333333333</ele><time>2024-02-10T03:02:42Z</time></trkpt><trkpt lat="33.204276" lon="132.5191927"><ele>182.1</ele><time>2024-02-10T03:03:06Z</time></trkpt><trkpt lat="33.2042504" lon="132.5189709"><ele>179.49</ele><time>2024-02-10T03:03:22Z</time></trkpt><trkpt lat="33.2041404" lon="132.5187946"><ele>180.57666666666668</ele><time>2024-02-10T03:03:38Z</time></trkpt><trkpt lat="33.2043291" lon="132.5187947"><ele>177.55333333333337</ele><time>2024-02-10T03:04:04Z</time></trkpt><trkpt lat="33.2044643" lon="132.5189383"><ele>173.88666666666668</ele><time>2024-02-10T03:04:19Z</time></trkpt><trkpt lat="33.204467" lon="132.5191603"><ele>169.4466666666667</ele><time>2024-02-10T03:04:33Z</time></trkpt><trkpt lat="33.2045521" lon="132.5193546"><ele>164.23666666666668</ele><time>2024-02-10T03:05:09Z</time></trkpt><trkpt lat="33.2045727" lon="132.5195683"><ele>160.69</ele><time>2024-02-10T03:05:36Z</time></trkpt><trkpt lat="33.2045856" lon="132.5197847"><ele>153.68666666666667</ele><time>2024-02-10T03:05:56Z</time></trkpt><trkpt lat="33.2047672" lon="132.5197989"><ele>147.25</ele><time>2024-02-10T03:07:40Z</time></trkpt><trkpt lat="33.2048882" lon="132.519958"><ele>140.13666666666666</ele><time>2024-02-10T03:08:29Z</time></trkpt><trkpt lat="33.2048731" lon="132.5201746"><ele>135.25</ele><time>2024-02-10T03:09:44Z</time></trkpt><trkpt lat="33.2050494" lon="132.5202263"><ele>132.90333333333334</ele><time>2024-02-10T03:11:37Z</time></trkpt><trkpt lat="33.2052128" lon="132.5203257"><ele>131.93</ele><time>2024-02-10T03:11:51Z</time></trkpt><trkpt lat="33.2053816" lon="132.5204191"><ele>131.37333333333333</ele><time>2024-02-10T03:12:08Z</time></trkpt><trkpt lat="33.2055698" lon="132.5204173"><ele>130.72</ele><time>2024-02-10T03:12:22Z</time></trkpt><trkpt lat="33.2056969" lon="132.5202565"><ele>130.35</ele><time>2024-02-10T03:12:39Z</time></trkpt><trkpt lat="33.205783" lon="132.5200618"><ele>129.96</ele><time>2024-02-10T03:12:55Z</time></trkpt><trkpt lat="33.2059638" lon="132.5200068"><ele>128.47666666666666</ele><time>2024-02-10T03:13:08Z</time></trkpt><trkpt lat="33.2061259" lon="132.5199085"><ele>124.87</ele><time>2024-02-10T03:13:24Z</time></trkpt><trkpt lat="33.206157" lon="132.5196914"><ele>123.53333333333335</ele><time>2024-02-10T03:13:40Z</time></trkpt><trkpt lat="33.2062686" lon="132.5195193"><ele>122.54666666666667</ele><time>2024-02-10T03:14:04Z</time></trkpt><trkpt lat="33.2064521" lon="132.5195856"><ele>122.56666666666668</ele><time>2024-02-10T03:14:16Z</time></trkpt><trkpt lat="33.2065945" lon="132.5197179"><ele>120.04</ele><time>2024-02-10T03:14:28Z</time></trkpt><trkpt lat="33.2064116" lon="132.5196995"><ele>117.63333333333334</ele><time>2024-02-10T03:14:57Z</time></trkpt><trkpt lat="33.2063063" lon="132.5198754"><ele>112.84666666666668</ele><time>2024-02-10T03:15:20Z</time></trkpt><trkpt lat="33.2063114" lon="132.5200946"><ele>106.79666666666667</ele><time>2024-02-10T03:15:34Z</time></trkpt><trkpt lat="33.2062536" lon="132.5202987"><ele>102.67666666666668</ele><time>2024-02-10T03:15:53Z</time></trkpt><trkpt lat="33.2063307" lon="132.520493"><ele>101.45666666666666</ele><time>2024-02-10T03:16:09Z</time></trkpt><trkpt lat="33.2064584" lon="132.5206596"><ele>100.59333333333335</ele><time>2024-02-10T03:16:24Z</time></trkpt><trkpt lat="33.2065137" lon="132.5208643"><ele>99.40666666666665</ele><time>2024-02-10T03:16:43Z</time></trkpt><trkpt lat="33.2063806" lon="132.5210097"><ele>97.84666666666668</ele><time>2024-02-10T03:16:57Z</time></trkpt><trkpt lat="33.206551" lon="132.5209307"><ele>97.62333333333333</ele><time>2024-02-10T03:17:34Z</time></trkpt><trkpt lat="33.2065742" lon="132.5207175"><ele>96.28666666666668</ele><time>2024-02-10T03:17:56Z</time></trkpt><trkpt lat="33.2064886" lon="132.5205273"><ele>95.39666666666666</ele><time>2024-02-10T03:18:11Z</time></trkpt><trkpt lat="33.2065113" lon="132.5203082"><ele>94.80666666666667</ele><time>2024-02-10T03:18:28Z</time></trkpt><trkpt lat="33.2066731" lon="132.5204197"><ele>93.52333333333335</ele><time>2024-02-10T03:18:50Z</time></trkpt><trkpt lat="33.2068515" lon="132.5204819"><ele>91.44</ele><time>2024-02-10T03:19:08Z</time></trkpt><trkpt lat="33.2070405" lon="132.5204777"><ele>90.74666666666667</ele><time>2024-02-10T03:19:27Z</time></trkpt><trkpt lat="33.207214" lon="132.5205672"><ele>90.11333333333334</ele><time>2024-02-10T03:19:40Z</time></trkpt><trkpt lat="33.2073909" lon="132.5206283"><ele>89.72333333333334</ele><time>2024-02-10T03:19:53Z</time></trkpt><trkpt lat="33.2075756" lon="132.5206311"><ele>88.71</ele><time>2024-02-10T03:20:11Z</time></trkpt><trkpt lat="33.2077454" lon="132.5207405"><ele>87.58333333333333</ele><time>2024-02-10T03:20:26Z</time></trkpt><trkpt lat="33.207931" lon="132.5207601"><ele>86.17333333333333</ele><time>2024-02-10T03:20:42Z</time></trkpt><trkpt lat="33.2080975" lon="132.5206595"><ele>84.32</ele><time>2024-02-10T03:20:56Z</time></trkpt><trkpt lat="33.2082806" lon="132.5206236"><ele>84.08999999999999</ele><time>2024-02-10T03:21:11Z</time></trkpt><trkpt lat="33.2084243" lon="132.5207697"><ele>84.83</ele><time>2024-02-10T03:21:24Z</time></trkpt><trkpt lat="33.2085875" lon="132.5208827"><ele>83.01666666666667</ele><time>2024-02-10T03:21:41Z</time></trkpt><trkpt lat="33.2084046" lon="132.5208512"><ele>81.68333333333334</ele><time>2024-02-10T03:21:58Z</time></trkpt><trkpt lat="33.2082435" lon="132.5207542"><ele>79.94000000000001</ele><time>2024-02-10T03:22:14Z</time></trkpt><trkpt lat="33.2080762" lon="132.5208364"><ele>79.03333333333335</ele><time>2024-02-10T03:22:31Z</time></trkpt><trkpt lat="33.2082573" lon="132.5208554"><ele>77.86666666666667</ele><time>2024-02-10T03:23:03Z</time></trkpt><trkpt lat="33.2084193" lon="132.5209639"><ele>75.61666666666666</ele><time>2024-02-10T03:23:17Z</time></trkpt><trkpt lat="33.2085809" lon="132.5210949"><ele>74.81666666666668</ele><time>2024-02-10T03:23:32Z</time></trkpt><trkpt lat="33.2087608" lon="132.5210751"><ele>71.85000000000001</ele><time>2024-02-10T03:23:51Z</time></trkpt><trkpt lat="33.2088302" lon="132.5208749"><ele>70.78333333333335</ele><time>2024-02-10T03:24:08Z</time></trkpt><trkpt lat="33.2089678" lon="132.520715"><ele>68.75333333333334</ele><time>2024-02-10T03:24:25Z</time></trkpt><trkpt lat="33.2088888" lon="132.5205163"><ele>70.35000000000001</ele><time>2024-02-10T03:24:41Z</time></trkpt><trkpt lat="33.2089322" lon="132.5202937"><ele>70.30333333333334</ele><time>2024-02-10T03:24:58Z</time></trkpt><trkpt lat="33.2090444" lon="132.5201127"><ele>70.35666666666667</ele><time>2024-02-10T03:25:12Z</time></trkpt><trkpt lat="33.2092236" lon="132.5201699"><ele>68.63333333333334</ele><time>2024-02-10T03:25:29Z</time></trkpt><trkpt lat="33.2093353" lon="132.5203465"><ele>67.91000000000001</ele><time>2024-02-10T03:25:42Z</time></trkpt><trkpt lat="33.2094716" lon="132.5205091"><ele>69.04</ele><time>2024-02-10T03:25:57Z</time></trkpt><trkpt lat="33.2094455" lon="132.5207359"><ele>67.82000000000001</ele><time>2024-02-10T03:26:10Z</time></trkpt><trkpt lat="33.2094418" lon="132.5209512"><ele>66.44333333333333</ele><time>2024-02-10T03:26:29Z</time></trkpt><trkpt lat="33.2094953" lon="132.5211588"><ele>63.29333333333333</ele><time>2024-02-10T03:26:42Z</time></trkpt><trkpt lat="33.2095867" lon="132.5213618"><ele>60.339999999999996</ele><time>2024-02-10T03:26:56Z</time></trkpt><trkpt lat="33.2097551" lon="132.5214586"><ele>57.41</ele><time>2024-02-10T03:27:07Z</time></trkpt><trkpt lat="33.2099351" lon="132.5214017"><ele>54.86666666666667</ele><time>2024-02-10T03:27:25Z</time></trkpt><trkpt lat="33.2101076" lon="132.5213261"><ele>55.26</ele><time>2024-02-10T03:27:44Z</time></trkpt><trkpt lat="33.2102233" lon="132.5215"><ele>55.903333333333336</ele><time>2024-02-10T03:27:59Z</time></trkpt><trkpt lat="33.2103298" lon="132.5216809"><ele>57.47666666666667</ele><time>2024-02-10T03:28:13Z</time></trkpt><trkpt lat="33.2104496" lon="132.5218439"><ele>57.00333333333333</ele><time>2024-02-10T03:28:29Z</time></trkpt><trkpt lat="33.2105053" lon="132.522058"><ele>55.949999999999996</ele><time>2024-02-10T03:28:44Z</time></trkpt><trkpt lat="33.2106107" lon="132.5222493"><ele>51.29999999999999</ele><time>2024-02-10T03:28:58Z</time></trkpt><trkpt lat="33.2107919" lon="132.5222748"><ele>48.72666666666667</ele><time>2024-02-10T03:29:16Z</time></trkpt><trkpt lat="33.2109057" lon="132.5224509"><ele>46.673333333333325</ele><time>2024-02-10T03:29:30Z</time></trkpt><trkpt lat="33.2109998" lon="132.5226408"><ele>47.20666666666667</ele><time>2024-02-10T03:30:12Z</time></trkpt><trkpt lat="33.2111606" lon="132.5227663"><ele>45.54666666666666</ele><time>2024-02-10T03:30:30Z</time></trkpt><trkpt lat="33.2113108" lon="132.5228982"><ele>44.1</ele><time>2024-02-10T03:30:45Z</time></trkpt><trkpt lat="33.2114701" lon="132.5230025"><ele>43.723333333333336</ele><time>2024-02-10T03:31:00Z</time></trkpt><trkpt lat="33.2115923" lon="132.5231608"><ele>44.01</ele><time>2024-02-10T03:31:15Z</time></trkpt><trkpt lat="33.2117291" lon="132.5233058"><ele>43.46666666666667</ele><time>2024-02-10T03:31:30Z</time></trkpt><trkpt lat="33.2118738" lon="132.5234368"><ele>41.76</ele><time>2024-02-10T03:31:45Z</time></trkpt><trkpt lat="33.2119106" lon="132.5236546"><ele>37.77</ele><time>2024-02-10T03:31:58Z</time></trkpt><trkpt lat="33.212078" lon="132.5237503"><ele>33.09</ele><time>2024-02-10T03:32:17Z</time></trkpt><trkpt lat="33.2122533" lon="132.5236498"><ele>29.67</ele><time>2024-02-10T03:32:33Z</time></trkpt><trkpt lat="33.2122142" lon="132.5238636"><ele>26.526666666666667</ele><time>2024-02-10T03:32:59Z</time></trkpt><trkpt lat="33.2120388" lon="132.5239205"><ele>24.26666666666667</ele><time>2024-02-10T03:33:14Z</time></trkpt><trkpt lat="33.2118544" lon="132.5238932"><ele>21.64333333333333</ele><time>2024-02-10T03:33:29Z</time></trkpt><trkpt lat="33.2117254" lon="132.5237393"><ele>22.959999999999997</ele><time>2024-02-10T03:33:44Z</time></trkpt><trkpt lat="33.2115993" lon="132.5235822"><ele>25.513333333333335</ele><time>2024-02-10T03:33:58Z</time></trkpt><trkpt lat="33.2114748" lon="132.5234114"><ele>27.823333333333334</ele><time>2024-02-10T03:34:13Z</time></trkpt><trkpt lat="33.2113224" lon="132.5232745"><ele>27.679999999999996</ele><time>2024-02-10T03:34:29Z</time></trkpt></trkseg></trk></gpx>