<?xml version='1.0' encoding='UTF-8'?><gpx creator="YAMAP - https://yamap.com" xsi:schemaLocation="http://www.topografix.com/GPX/1/1 http://www.topografix.com/GPX/1/1/gpx.xsd" version="1.1" xmlns="http://www.topografix.com/GPX/1/1" xmlns:xsi="http://www.w3.org/2001/XMLSchema-instance"><metadata><bounds maxlat="33.2574987" maxlon="132.5736714" minlat="33.2493025" minlon="132.5560665"/></metadata><trk><name>槇ノ山</name><number>1</number><trkseg><trkpt lat="33.254166" lon="132.5736714"><ele>36.14</ele><time>2026-01-30T22:40:10Z</time></trkpt><trkpt lat="33.2539545" lon="132.5736691"><ele>35.655</ele><time>2026-01-30T22:40:36Z</time></trkpt><trkpt lat="33.2537366" lon="132.5736526"><ele>35.153333333333336</ele><time>2026-01-30T22:40:53Z</time></trkpt><trkpt lat="33.2535681" lon="132.5735637"><ele>35.36333333333334</ele><time>2026-01-30T22:41:05Z</time></trkpt><trkpt lat="33.2533908" lon="132.5734211"><ele>34.61333333333334</ele><time>2026-01-30T22:41:20Z</time></trkpt><trkpt lat="33.2532338" lon="132.5732623"><ele>33.32333333333333</ele><time>2026-01-30T22:41:34Z</time></trkpt><trkpt lat="33.2530891" lon="132.5730695"><ele>30.36666666666667</ele><time>2026-01-30T22:41:48Z</time></trkpt><trkpt lat="33.2529142" lon="132.5729106"><ele>28.610000000000003</ele><time>2026-01-30T22:42:03Z</time></trkpt><trkpt lat="33.2527503" lon="132.5727444"><ele>27.50666666666667</ele><time>2026-01-30T22:42:18Z</time></trkpt><trkpt lat="33.252594" lon="132.5725791"><ele>27.16</ele><time>2026-01-30T22:42:33Z</time></trkpt><trkpt lat="33.252439" lon="132.5724167"><ele>26.826666666666668</ele><time>2026-01-30T22:42:48Z</time></trkpt><trkpt lat="33.2522654" lon="132.5722567"><ele>26.786666666666672</ele><time>2026-01-30T22:43:02Z</time></trkpt><trkpt lat="33.2521223" lon="132.5721017"><ele>26.849999999999998</ele><time>2026-01-30T22:43:17Z</time></trkpt><trkpt lat="33.2519534" lon="132.5719627"><ele>26.576666666666668</ele><time>2026-01-30T22:43:31Z</time></trkpt><trkpt lat="33.2518026" lon="132.5718116"><ele>26.330000000000002</ele><time>2026-01-30T22:43:46Z</time></trkpt><trkpt lat="33.2516534" lon="132.5716335"><ele>26.086666666666662</ele><time>2026-01-30T22:44:00Z</time></trkpt><trkpt lat="33.2514936" lon="132.5714519"><ele>26.22</ele><time>2026-01-30T22:44:15Z</time></trkpt><trkpt lat="33.2513423" lon="132.5712703"><ele>26.08</ele><time>2026-01-30T22:44:29Z</time></trkpt><trkpt lat="33.251191" lon="132.5710976"><ele>25.24666666666667</ele><time>2026-01-30T22:44:43Z</time></trkpt><trkpt lat="33.2510489" lon="132.5709378"><ele>23.3</ele><time>2026-01-30T22:44:58Z</time></trkpt><trkpt lat="33.2508764" lon="132.5708097"><ele>21.366666666666664</ele><time>2026-01-30T22:45:13Z</time></trkpt><trkpt lat="33.2507194" lon="132.570626"><ele>20.05666666666667</ele><time>2026-01-30T22:45:27Z</time></trkpt><trkpt lat="33.2505674" lon="132.5704469"><ele>19.873333333333335</ele><time>2026-01-30T22:45:42Z</time></trkpt><trkpt lat="33.2504129" lon="132.5703094"><ele>19.843333333333334</ele><time>2026-01-30T22:46:06Z</time></trkpt><trkpt lat="33.2502942" lon="132.5701461"><ele>19.790000000000003</ele><time>2026-01-30T22:46:18Z</time></trkpt><trkpt lat="33.250183" lon="132.5699535"><ele>19.82</ele><time>2026-01-30T22:46:30Z</time></trkpt><trkpt lat="33.2500902" lon="132.5697403"><ele>20.063333333333333</ele><time>2026-01-30T22:46:44Z</time></trkpt><trkpt lat="33.249903" lon="132.569604"><ele>20.783333333333335</ele><time>2026-01-30T22:46:59Z</time></trkpt><trkpt lat="33.2497187" lon="132.5695474"><ele>20.733333333333334</ele><time>2026-01-30T22:47:11Z</time></trkpt><trkpt lat="33.2495909" lon="132.5693596"><ele>20.423333333333336</ele><time>2026-01-30T22:47:26Z</time></trkpt><trkpt lat="33.249429" lon="132.5692014"><ele>19.553333333333335</ele><time>2026-01-30T22:47:41Z</time></trkpt><trkpt lat="33.2493025" lon="132.5690393"><ele>19.386666666666667</ele><time>2026-01-30T22:48:02Z</time></trkpt><trkpt lat="33.2494781" lon="132.5689765"><ele>19.983333333333334</ele><time>2026-01-30T22:48:17Z</time></trkpt><trkpt lat="33.2496705" lon="132.5690668"><ele>21.563333333333333</ele><time>2026-01-30T22:48:29Z</time></trkpt><trkpt lat="33.249775" lon="132.5688626"><ele>24.666666666666668</ele><time>2026-01-30T22:48:44Z</time></trkpt><trkpt lat="33.249673" lon="132.5686849"><ele>27.810000000000002</ele><time>2026-01-30T22:48:59Z</time></trkpt><trkpt lat="33.2495518" lon="132.5684546"><ele>31.899999999999995</ele><time>2026-01-30T22:49:24Z</time></trkpt><trkpt lat="33.2497384" lon="132.5683948"><ele>37.89666666666667</ele><time>2026-01-30T22:50:00Z</time></trkpt><trkpt lat="33.2499185" lon="132.5685153"><ele>40.6</ele><time>2026-01-30T22:50:21Z</time></trkpt><trkpt lat="33.2500858" lon="132.5684292"><ele>42.529999999999994</ele><time>2026-01-30T22:51:28Z</time></trkpt><trkpt lat="33.2502858" lon="132.5684293"><ele>43.02333333333333</ele><time>2026-01-30T22:52:59Z</time></trkpt><trkpt lat="33.2504157" lon="132.5682551"><ele>49.160000000000004</ele><time>2026-01-30T22:54:03Z</time></trkpt><trkpt lat="33.2502917" lon="132.5680939"><ele>56.59666666666667</ele><time>2026-01-30T22:56:24Z</time></trkpt><trkpt lat="33.250194" lon="132.5679093"><ele>63.326666666666675</ele><time>2026-01-30T22:57:30Z</time></trkpt><trkpt lat="33.2500733" lon="132.5676746"><ele>66.91</ele><time>2026-01-30T22:57:57Z</time></trkpt><trkpt lat="33.2500505" lon="132.5674497"><ele>71.75666666666667</ele><time>2026-01-30T22:58:42Z</time></trkpt><trkpt lat="33.250231" lon="132.5674644"><ele>78.85333333333334</ele><time>2026-01-30T23:02:10Z</time></trkpt><trkpt lat="33.2504031" lon="132.5673645"><ele>89.02333333333335</ele><time>2026-01-30T23:04:26Z</time></trkpt><trkpt lat="33.2503423" lon="132.5671549"><ele>96.75666666666666</ele><time>2026-01-30T23:07:02Z</time></trkpt><trkpt lat="33.2503345" lon="132.5669115"><ele>102.2</ele><time>2026-01-30T23:09:43Z</time></trkpt><trkpt lat="33.2503845" lon="132.5666969"><ele>108.09333333333332</ele><time>2026-01-30T23:10:08Z</time></trkpt><trkpt lat="33.2503506" lon="132.5664856"><ele>115.66333333333334</ele><time>2026-01-30T23:10:47Z</time></trkpt><trkpt lat="33.2503507" lon="132.5662571"><ele>124.44666666666667</ele><time>2026-01-30T23:12:41Z</time></trkpt><trkpt lat="33.2504353" lon="132.5660619"><ele>128.91666666666666</ele><time>2026-01-30T23:13:14Z</time></trkpt><trkpt lat="33.2503171" lon="132.5658891"><ele>133.18666666666664</ele><time>2026-01-30T23:13:46Z</time></trkpt><trkpt lat="33.2502186" lon="132.5657033"><ele>138.84333333333333</ele><time>2026-01-30T23:14:46Z</time></trkpt><trkpt lat="33.2500823" lon="132.565551"><ele>148.61333333333334</ele><time>2026-01-30T23:15:49Z</time></trkpt><trkpt lat="33.2499515" lon="132.5653968"><ele>157.91</ele><time>2026-01-30T23:16:15Z</time></trkpt><trkpt lat="33.2498798" lon="132.5651859"><ele>165.4933333333333</ele><time>2026-01-30T23:17:30Z</time></trkpt><trkpt lat="33.2499172" lon="132.5649627"><ele>168.81333333333336</ele><time>2026-01-30T23:18:07Z</time></trkpt><trkpt lat="33.2498628" lon="132.5647307"><ele>173.26</ele><time>2026-01-30T23:19:09Z</time></trkpt><trkpt lat="33.2498141" lon="132.5645203"><ele>177.71333333333337</ele><time>2026-01-30T23:20:02Z</time></trkpt><trkpt lat="33.249658" lon="132.5642994"><ele>185.03333333333333</ele><time>2026-01-30T23:23:03Z</time></trkpt><trkpt lat="33.2498422" lon="132.5643206"><ele>188.42666666666665</ele><time>2026-01-30T23:23:27Z</time></trkpt><trkpt lat="33.2499623" lon="132.5641515"><ele>190.0666666666667</ele><time>2026-01-30T23:23:48Z</time></trkpt><trkpt lat="33.2499689" lon="132.5639073"><ele>194.39666666666665</ele><time>2026-01-30T23:24:15Z</time></trkpt><trkpt lat="33.2500628" lon="132.563706"><ele>201.04333333333332</ele><time>2026-01-30T23:25:38Z</time></trkpt><trkpt lat="33.2501743" lon="132.5635343"><ele>209.32333333333335</ele><time>2026-01-30T23:26:09Z</time></trkpt><trkpt lat="33.2503447" lon="132.5634369"><ele>214.99666666666667</ele><time>2026-01-30T23:26:57Z</time></trkpt><trkpt lat="33.2504044" lon="132.5632149"><ele>219.97333333333336</ele><time>2026-01-30T23:27:31Z</time></trkpt><trkpt lat="33.2503535" lon="132.5629792"><ele>222.70333333333335</ele><time>2026-01-30T23:28:09Z</time></trkpt><trkpt lat="33.2505539" lon="132.5629276"><ele>225.50666666666666</ele><time>2026-01-30T23:29:35Z</time></trkpt><trkpt lat="33.250735" lon="132.5629042"><ele>228.65666666666667</ele><time>2026-01-30T23:30:06Z</time></trkpt><trkpt lat="33.2508401" lon="132.5627185"><ele>234.06000000000003</ele><time>2026-01-30T23:30:26Z</time></trkpt><trkpt lat="33.2508817" lon="132.5625054"><ele>238.01</ele><time>2026-01-30T23:30:44Z</time></trkpt><trkpt lat="33.2510623" lon="132.5625377"><ele>244.92666666666665</ele><time>2026-01-30T23:34:05Z</time></trkpt><trkpt lat="33.2512502" lon="132.5626092"><ele>253.73333333333335</ele><time>2026-01-30T23:36:23Z</time></trkpt><trkpt lat="33.2512922" lon="132.5623996"><ele>263.75</ele><time>2026-01-30T23:38:15Z</time></trkpt><trkpt lat="33.2514735" lon="132.5623381"><ele>274.03000000000003</ele><time>2026-01-30T23:38:47Z</time></trkpt><trkpt lat="33.2516659" lon="132.5622841"><ele>282.21000000000004</ele><time>2026-01-30T23:40:20Z</time></trkpt><trkpt lat="33.2518643" lon="132.562258"><ele>289.87000000000006</ele><time>2026-01-30T23:41:33Z</time></trkpt><trkpt lat="33.2519928" lon="132.5620812"><ele>289.78000000000003</ele><time>2026-01-30T23:41:54Z</time></trkpt><trkpt lat="33.251956" lon="132.5618503"><ele>288.01000000000005</ele><time>2026-01-30T23:42:16Z</time></trkpt><trkpt lat="33.2519955" lon="132.5616227"><ele>284.1233333333333</ele><time>2026-01-30T23:42:34Z</time></trkpt><trkpt lat="33.2520376" lon="132.5613956"><ele>285.2266666666667</ele><time>2026-01-30T23:43:31Z</time></trkpt><trkpt lat="33.2519052" lon="132.5612208"><ele>287.53</ele><time>2026-01-30T23:44:11Z</time></trkpt><trkpt lat="33.2517771" lon="132.5610696"><ele>289.34999999999997</ele><time>2026-01-30T23:44:26Z</time></trkpt><trkpt lat="33.2519576" lon="132.5610738"><ele>290.8933333333333</ele><time>2026-01-30T23:45:06Z</time></trkpt><trkpt lat="33.2521396" lon="132.5611605"><ele>291.07666666666665</ele><time>2026-01-30T23:45:30Z</time></trkpt><trkpt lat="33.2522704" lon="132.5610119"><ele>294.3866666666667</ele><time>2026-01-30T23:45:41Z</time></trkpt><trkpt lat="33.2523651" lon="132.5608291"><ele>297.8</ele><time>2026-01-30T23:45:56Z</time></trkpt><trkpt lat="33.2525156" lon="132.5606984"><ele>303.40666666666664</ele><time>2026-01-30T23:46:21Z</time></trkpt><trkpt lat="33.2524574" lon="132.560495"><ele>309.71666666666664</ele><time>2026-01-30T23:48:38Z</time></trkpt><trkpt lat="33.252365" lon="132.5602874"><ele>315.46</ele><time>2026-01-30T23:49:00Z</time></trkpt><trkpt lat="33.2522301" lon="132.5601415"><ele>318.78000000000003</ele><time>2026-01-30T23:49:51Z</time></trkpt><trkpt lat="33.2522242" lon="132.559915"><ele>322.3666666666667</ele><time>2026-01-30T23:50:38Z</time></trkpt><trkpt lat="33.2523096" lon="132.5597206"><ele>326.4166666666667</ele><time>2026-01-30T23:51:19Z</time></trkpt><trkpt lat="33.2525082" lon="132.5597316"><ele>333.67333333333335</ele><time>2026-01-30T23:52:48Z</time></trkpt><trkpt lat="33.2526914" lon="132.5596315"><ele>341.4533333333334</ele><time>2026-01-30T23:53:15Z</time></trkpt><trkpt lat="33.2528396" lon="132.5594727"><ele>347.6166666666666</ele><time>2026-01-30T23:53:41Z</time></trkpt><trkpt lat="33.2529281" lon="132.5592814"><ele>351.33666666666664</ele><time>2026-01-30T23:54:26Z</time></trkpt><trkpt lat="33.2530698" lon="132.5591286"><ele>353.86999999999995</ele><time>2026-01-30T23:59:37Z</time></trkpt><trkpt lat="33.2529102" lon="132.5589826"><ele>358.3733333333333</ele><time>2026-01-31T00:00:39Z</time></trkpt><trkpt lat="33.2527213" lon="132.558863"><ele>364.0566666666666</ele><time>2026-01-31T00:01:03Z</time></trkpt><trkpt lat="33.2525878" lon="132.5586899"><ele>367.51666666666665</ele><time>2026-01-31T00:01:36Z</time></trkpt><trkpt lat="33.2524" lon="132.558671"><ele>365.82666666666665</ele><time>2026-01-31T00:02:21Z</time></trkpt><trkpt lat="33.25237" lon="132.5583955"><ele>361.31</ele><time>2026-01-31T00:02:47Z</time></trkpt><trkpt lat="33.2522573" lon="132.5581977"><ele>355.2633333333333</ele><time>2026-01-31T00:03:50Z</time></trkpt><trkpt lat="33.2521384" lon="132.5579926"><ele>350.78000000000003</ele><time>2026-01-31T00:03:59Z</time></trkpt><trkpt lat="33.2519967" lon="132.5578345"><ele>344.8733333333333</ele><time>2026-01-31T00:04:24Z</time></trkpt><trkpt lat="33.2517992" lon="132.557817"><ele>338.97666666666663</ele><time>2026-01-31T00:04:55Z</time></trkpt><trkpt lat="33.2516308" lon="132.55793"><ele>334.82666666666665</ele><time>2026-01-31T00:05:13Z</time></trkpt><trkpt lat="33.2514531" lon="132.5580419"><ele>333.2666666666667</ele><time>2026-01-31T00:05:33Z</time></trkpt><trkpt lat="33.251264" lon="132.5581247"><ele>333.65000000000003</ele><time>2026-01-31T00:05:54Z</time></trkpt><trkpt lat="33.251089" lon="132.5581946"><ele>336.23</ele><time>2026-01-31T00:06:37Z</time></trkpt><trkpt lat="33.25089" lon="132.5581893"><ele>339.73333333333335</ele><time>2026-01-31T00:07:01Z</time></trkpt><trkpt lat="33.2507075" lon="132.5582692"><ele>341.29</ele><time>2026-01-31T00:07:17Z</time></trkpt><trkpt lat="33.2505442" lon="132.5583909"><ele>338.1766666666667</ele><time>2026-01-31T00:07:32Z</time></trkpt><trkpt lat="33.2503479" lon="132.558439"><ele>334.89000000000004</ele><time>2026-01-31T00:08:08Z</time></trkpt><trkpt lat="33.2501482" lon="132.558424"><ele>332.3866666666667</ele><time>2026-01-31T00:09:27Z</time></trkpt><trkpt lat="33.2503253" lon="132.5584998"><ele>332.3766666666667</ele><time>2026-01-31T00:12:26Z</time></trkpt><trkpt lat="33.2505024" lon="132.5584523"><ele>331.8833333333334</ele><time>2026-01-31T00:12:41Z</time></trkpt><trkpt lat="33.2506528" lon="132.5583176"><ele>332.98</ele><time>2026-01-31T00:13:38Z</time></trkpt><trkpt lat="33.2507187" lon="132.5581102"><ele>337.4266666666667</ele><time>2026-01-31T00:14:24Z</time></trkpt><trkpt lat="33.2508994" lon="132.5580522"><ele>342.6466666666667</ele><time>2026-01-31T00:15:26Z</time></trkpt><trkpt lat="33.2508529" lon="132.5578323"><ele>350.22333333333336</ele><time>2026-01-31T00:17:02Z</time></trkpt><trkpt lat="33.2509762" lon="132.5576665"><ele>357.72666666666663</ele><time>2026-01-31T00:17:33Z</time></trkpt><trkpt lat="33.251087" lon="132.5574932"><ele>365.84</ele><time>2026-01-31T00:18:00Z</time></trkpt><trkpt lat="33.2512351" lon="132.5573656"><ele>372.78666666666663</ele><time>2026-01-31T00:18:52Z</time></trkpt><trkpt lat="33.251381" lon="132.5572367"><ele>377.5466666666667</ele><time>2026-01-31T00:19:32Z</time></trkpt><trkpt lat="33.251387" lon="132.5570156"><ele>381.81333333333333</ele><time>2026-01-31T00:19:59Z</time></trkpt><trkpt lat="33.2512643" lon="132.5568074"><ele>385.1566666666667</ele><time>2026-01-31T00:20:20Z</time></trkpt><trkpt lat="33.2511538" lon="132.5566122"><ele>385.7666666666667</ele><time>2026-01-31T00:20:41Z</time></trkpt><trkpt lat="33.2513225" lon="132.5565033"><ele>389.28000000000003</ele><time>2026-01-31T00:22:47Z</time></trkpt><trkpt lat="33.2514598" lon="132.5566476"><ele>393.19</ele><time>2026-01-31T00:23:36Z</time></trkpt><trkpt lat="33.2516376" lon="132.556693"><ele>399.39000000000004</ele><time>2026-01-31T00:24:20Z</time></trkpt><trkpt lat="33.2516669" lon="132.5564795"><ele>404.23</ele><time>2026-01-31T00:24:52Z</time></trkpt><trkpt lat="33.2517871" lon="132.5562968"><ele>410.1933333333334</ele><time>2026-01-31T00:25:22Z</time></trkpt><trkpt lat="33.2519026" lon="132.5561232"><ele>416.95</ele><time>2026-01-31T00:26:37Z</time></trkpt><trkpt lat="33.252092" lon="132.5560726"><ele>421.31666666666666</ele><time>2026-01-31T00:26:56Z</time></trkpt><trkpt lat="33.2522921" lon="132.5560665"><ele>423.6566666666667</ele><time>2026-01-31T00:27:32Z</time></trkpt><trkpt lat="33.2524047" lon="132.5562368"><ele>424.9066666666667</ele><time>2026-01-31T00:28:06Z</time></trkpt><trkpt lat="33.2525876" lon="132.5562709"><ele>426.85999999999996</ele><time>2026-01-31T00:28:32Z</time></trkpt><trkpt lat="33.2527717" lon="132.5562309"><ele>428.9466666666667</ele><time>2026-01-31T00:29:01Z</time></trkpt><trkpt lat="33.2529776" lon="132.5562439"><ele>430.4466666666667</ele><time>2026-01-31T00:30:18Z</time></trkpt><trkpt lat="33.253118" lon="132.5564102"><ele>431.90333333333336</ele><time>2026-01-31T00:30:53Z</time></trkpt><trkpt lat="33.2533161" lon="132.5564232"><ele>433.24</ele><time>2026-01-31T00:31:10Z</time></trkpt><trkpt lat="33.2535255" lon="132.5564349"><ele>433.6333333333334</ele><time>2026-01-31T00:34:53Z</time></trkpt><trkpt lat="33.253618" lon="132.5566484"><ele>433.17333333333335</ele><time>2026-01-31T00:35:11Z</time></trkpt><trkpt lat="33.2537343" lon="132.5568571"><ele>429.68</ele><time>2026-01-31T00:36:03Z</time></trkpt><trkpt lat="33.2538448" lon="132.5570293"><ele>425.46000000000004</ele><time>2026-01-31T00:36:20Z</time></trkpt><trkpt lat="33.2539663" lon="132.5572275"><ele>420.18</ele><time>2026-01-31T00:36:38Z</time></trkpt><trkpt lat="33.2540001" lon="132.5574626"><ele>416.78666666666663</ele><time>2026-01-31T00:36:59Z</time></trkpt><trkpt lat="33.2541367" lon="132.557611"><ele>414.56333333333333</ele><time>2026-01-31T00:37:27Z</time></trkpt><trkpt lat="33.2542947" lon="132.5577351"><ele>412.91333333333336</ele><time>2026-01-31T00:37:42Z</time></trkpt><trkpt lat="33.254454" lon="132.557625"><ele>411.73333333333335</ele><time>2026-01-31T00:38:06Z</time></trkpt><trkpt lat="33.2546469" lon="132.5577267"><ele>410.27666666666664</ele><time>2026-01-31T00:38:23Z</time></trkpt><trkpt lat="33.2547794" lon="132.5578814"><ele>407.7133333333333</ele><time>2026-01-31T00:38:35Z</time></trkpt><trkpt lat="33.2549401" lon="132.558052"><ele>404.26666666666665</ele><time>2026-01-31T00:38:53Z</time></trkpt><trkpt lat="33.2551099" lon="132.5581767"><ele>400.7033333333333</ele><time>2026-01-31T00:39:08Z</time></trkpt><trkpt lat="33.255284" lon="132.5582383"><ele>397.3966666666667</ele><time>2026-01-31T00:39:46Z</time></trkpt><trkpt lat="33.2553922" lon="132.5584485"><ele>394.6466666666667</ele><time>2026-01-31T00:40:04Z</time></trkpt><trkpt lat="33.2555068" lon="132.5586586"><ele>392.16333333333336</ele><time>2026-01-31T00:40:22Z</time></trkpt><trkpt lat="33.2556373" lon="132.5588096"><ele>391.25333333333333</ele><time>2026-01-31T00:40:36Z</time></trkpt><trkpt lat="33.2557786" lon="132.5589509"><ele>391.09</ele><time>2026-01-31T00:40:54Z</time></trkpt><trkpt lat="33.2558849" lon="132.5591347"><ele>392.7633333333333</ele><time>2026-01-31T00:41:53Z</time></trkpt><trkpt lat="33.255992" lon="132.5593378"><ele>394.45000000000005</ele><time>2026-01-31T00:42:25Z</time></trkpt><trkpt lat="33.2560441" lon="132.5595512"><ele>395.81666666666666</ele><time>2026-01-31T00:42:40Z</time></trkpt><trkpt lat="33.2559453" lon="132.5597429"><ele>395.10999999999996</ele><time>2026-01-31T00:42:57Z</time></trkpt><trkpt lat="33.2560758" lon="132.5599341"><ele>392.77666666666664</ele><time>2026-01-31T00:43:32Z</time></trkpt><trkpt lat="33.2561755" lon="132.560113"><ele>388.83666666666664</ele><time>2026-01-31T00:43:57Z</time></trkpt><trkpt lat="33.2560695" lon="132.560287"><ele>383.7833333333333</ele><time>2026-01-31T00:44:59Z</time></trkpt><trkpt lat="33.25589" lon="132.5602143"><ele>379.22333333333336</ele><time>2026-01-31T00:45:24Z</time></trkpt><trkpt lat="33.2556797" lon="132.5601592"><ele>374.3633333333334</ele><time>2026-01-31T00:46:30Z</time></trkpt><trkpt lat="33.2555095" lon="132.5603022"><ele>368.2633333333333</ele><time>2026-01-31T00:46:45Z</time></trkpt><trkpt lat="33.2553407" lon="132.5603987"><ele>359.27333333333337</ele><time>2026-01-31T00:47:00Z</time></trkpt><trkpt lat="33.2552078" lon="132.5605639"><ele>350.51666666666665</ele><time>2026-01-31T00:47:43Z</time></trkpt><trkpt lat="33.255321" lon="132.5607439"><ele>344.3966666666667</ele><time>2026-01-31T00:48:15Z</time></trkpt><trkpt lat="33.2553934" lon="132.5609504"><ele>342.25333333333333</ele><time>2026-01-31T00:48:30Z</time></trkpt><trkpt lat="33.2553651" lon="132.5611784"><ele>341.22</ele><time>2026-01-31T00:48:48Z</time></trkpt><trkpt lat="33.2552074" lon="132.5613149"><ele>338.19666666666666</ele><time>2026-01-31T00:49:06Z</time></trkpt><trkpt lat="33.255023" lon="132.5613312"><ele>333.72333333333336</ele><time>2026-01-31T00:49:21Z</time></trkpt><trkpt lat="33.2551382" lon="132.5615042"><ele>328.17333333333335</ele><time>2026-01-31T00:50:31Z</time></trkpt><trkpt lat="33.2551667" lon="132.5617315"><ele>322.91333333333336</ele><time>2026-01-31T00:50:57Z</time></trkpt><trkpt lat="33.2550669" lon="132.5619327"><ele>315.3833333333334</ele><time>2026-01-31T00:51:21Z</time></trkpt><trkpt lat="33.254867" lon="132.5619201"><ele>306.7733333333333</ele><time>2026-01-31T00:52:05Z</time></trkpt><trkpt lat="33.2549483" lon="132.5621274"><ele>299.38</ele><time>2026-01-31T00:52:27Z</time></trkpt><trkpt lat="33.2551148" lon="132.5622272"><ele>295.83666666666664</ele><time>2026-01-31T00:52:54Z</time></trkpt><trkpt lat="33.2553118" lon="132.5622829"><ele>295.8433333333333</ele><time>2026-01-31T00:53:26Z</time></trkpt><trkpt lat="33.2551233" lon="132.5623273"><ele>293.23333333333335</ele><time>2026-01-31T00:54:17Z</time></trkpt><trkpt lat="33.2552379" lon="132.5625157"><ele>287.73</ele><time>2026-01-31T00:54:35Z</time></trkpt><trkpt lat="33.2553371" lon="132.5627094"><ele>278.8</ele><time>2026-01-31T00:55:00Z</time></trkpt><trkpt lat="33.2555096" lon="132.5628283"><ele>272.6933333333333</ele><time>2026-01-31T00:55:43Z</time></trkpt><trkpt lat="33.2556106" lon="132.5630233"><ele>266.2966666666667</ele><time>2026-01-31T00:56:20Z</time></trkpt><trkpt lat="33.2556135" lon="132.5632553"><ele>261.3</ele><time>2026-01-31T00:56:38Z</time></trkpt><trkpt lat="33.2557748" lon="132.563379"><ele>257.1566666666667</ele><time>2026-01-31T00:57:16Z</time></trkpt><trkpt lat="33.2558593" lon="132.563578"><ele>254.52333333333334</ele><time>2026-01-31T00:57:31Z</time></trkpt><trkpt lat="33.2559198" lon="132.5638278"><ele>252.02999999999997</ele><time>2026-01-31T00:57:55Z</time></trkpt><trkpt lat="33.2559988" lon="132.5640237"><ele>247.96666666666667</ele><time>2026-01-31T00:58:24Z</time></trkpt><trkpt lat="33.2559221" lon="132.5638076"><ele>246.83333333333334</ele><time>2026-01-31T00:59:05Z</time></trkpt><trkpt lat="33.255861" lon="132.5635803"><ele>247.96666666666667</ele><time>2026-01-31T00:59:26Z</time></trkpt><trkpt lat="33.2560161" lon="132.5634647"><ele>250.22333333333333</ele><time>2026-01-31T01:00:52Z</time></trkpt><trkpt lat="33.2561524" lon="132.5636174"><ele>248.66</ele><time>2026-01-31T01:01:10Z</time></trkpt><trkpt lat="33.256328" lon="132.5637396"><ele>244.73666666666668</ele><time>2026-01-31T01:01:28Z</time></trkpt><trkpt lat="33.2564976" lon="132.5638297"><ele>241.23666666666668</ele><time>2026-01-31T01:01:45Z</time></trkpt><trkpt lat="33.2566933" lon="132.5638474"><ele>239.63333333333335</ele><time>2026-01-31T01:02:27Z</time></trkpt><trkpt lat="33.2567953" lon="132.5640488"><ele>238.14</ele><time>2026-01-31T01:02:48Z</time></trkpt><trkpt lat="33.256861" lon="132.5642511"><ele>236.22</ele><time>2026-01-31T01:03:14Z</time></trkpt><trkpt lat="33.2568967" lon="132.5644719"><ele>233.65</ele><time>2026-01-31T01:03:56Z</time></trkpt><trkpt lat="33.2569575" lon="132.5647032"><ele>231.77333333333334</ele><time>2026-01-31T01:04:38Z</time></trkpt><trkpt lat="33.2569897" lon="132.5649312"><ele>229.35666666666668</ele><time>2026-01-31T01:05:11Z</time></trkpt><trkpt lat="33.2569781" lon="132.5651548"><ele>227.42333333333332</ele><time>2026-01-31T01:06:05Z</time></trkpt><trkpt lat="33.2570481" lon="132.5653795"><ele>226.85333333333332</ele><time>2026-01-31T01:06:34Z</time></trkpt><trkpt lat="33.2571852" lon="132.5655298"><ele>228.26</ele><time>2026-01-31T01:07:36Z</time></trkpt><trkpt lat="33.2573372" lon="132.5656746"><ele>230.28333333333333</ele><time>2026-01-31T01:07:57Z</time></trkpt><trkpt lat="33.2574987" lon="132.5658138"><ele>231.05000000000004</ele><time>2026-01-31T01:08:35Z</time></trkpt><trkpt lat="33.2574545" lon="132.5660322"><ele>230.73666666666668</ele><time>2026-01-31T01:09:03Z</time></trkpt><trkpt lat="33.2573935" lon="132.5662361"><ele>230.1266666666667</ele><time>2026-01-31T01:10:24Z</time></trkpt><trkpt lat="33.2572533" lon="132.5664121"><ele>228.68333333333337</ele><time>2026-01-31T01:10:48Z</time></trkpt><trkpt lat="33.2571814" lon="132.5666143"><ele>224.92</ele><time>2026-01-31T01:11:15Z</time></trkpt><trkpt lat="33.2572054" lon="132.5668293"><ele>218.99333333333334</ele><time>2026-01-31T01:11:32Z</time></trkpt><trkpt lat="33.2572464" lon="132.5670506"><ele>211.28</ele><time>2026-01-31T01:11:59Z</time></trkpt><trkpt lat="33.2571103" lon="132.56722"><ele>204.37333333333333</ele><time>2026-01-31T01:12:56Z</time></trkpt><trkpt lat="33.2570088" lon="132.5674076"><ele>198.09</ele><time>2026-01-31T01:13:35Z</time></trkpt><trkpt lat="33.2569707" lon="132.5676304"><ele>194.89333333333335</ele><time>2026-01-31T01:14:23Z</time></trkpt><trkpt lat="33.2569646" lon="132.567877"><ele>192.45333333333335</ele><time>2026-01-31T01:14:57Z</time></trkpt><trkpt lat="33.2569525" lon="132.5681261"><ele>190.3033333333333</ele><time>2026-01-31T01:17:19Z</time></trkpt><trkpt lat="33.2568545" lon="132.5683335"><ele>187.21</ele><time>2026-01-31T01:17:59Z</time></trkpt><trkpt lat="33.25674" lon="132.5685053"><ele>184.27666666666667</ele><time>2026-01-31T01:19:43Z</time></trkpt><trkpt lat="33.2565218" lon="132.5685099"><ele>179.64333333333335</ele><time>2026-01-31T01:20:10Z</time></trkpt><trkpt lat="33.2565123" lon="132.568855"><ele>175.57333333333335</ele><time>2026-01-31T01:20:27Z</time></trkpt><trkpt lat="33.2563721" lon="132.5690127"><ele>168.57666666666668</ele><time>2026-01-31T01:20:45Z</time></trkpt><trkpt lat="33.2562966" lon="132.5692609"><ele>162.8033333333333</ele><time>2026-01-31T01:21:23Z</time></trkpt><trkpt lat="33.2562835" lon="132.5695029"><ele>155.48999999999998</ele><time>2026-01-31T01:22:11Z</time></trkpt><trkpt lat="33.2562385" lon="132.569725"><ele>146.37666666666667</ele><time>2026-01-31T01:22:32Z</time></trkpt><trkpt lat="33.2560384" lon="132.5697639"><ele>134.53333333333333</ele><time>2026-01-31T01:23:10Z</time></trkpt><trkpt lat="33.255861" lon="132.5698225"><ele>121.18666666666667</ele><time>2026-01-31T01:25:06Z</time></trkpt><trkpt lat="33.2557466" lon="132.5700143"><ele>111.47666666666667</ele><time>2026-01-31T01:25:30Z</time></trkpt><trkpt lat="33.2557081" lon="132.57023"><ele>104.96</ele><time>2026-01-31T01:25:45Z</time></trkpt><trkpt lat="33.255787" lon="132.5704285"><ele>100.55666666666667</ele><time>2026-01-31T01:26:03Z</time></trkpt><trkpt lat="33.2559077" lon="132.5706406"><ele>98.56333333333333</ele><time>2026-01-31T01:26:21Z</time></trkpt><trkpt lat="33.2561003" lon="132.570544"><ele>95.58</ele><time>2026-01-31T01:26:48Z</time></trkpt><trkpt lat="33.2559978" lon="132.5707843"><ele>95.97333333333334</ele><time>2026-01-31T01:27:05Z</time></trkpt><trkpt lat="33.2561556" lon="132.5709324"><ele>94.59666666666668</ele><time>2026-01-31T01:27:18Z</time></trkpt><trkpt lat="33.2563488" lon="132.5709544"><ele>90.35000000000001</ele><time>2026-01-31T01:27:30Z</time></trkpt><trkpt lat="33.2565445" lon="132.57104"><ele>82.17333333333333</ele><time>2026-01-31T01:27:42Z</time></trkpt><trkpt lat="33.2567023" lon="132.5712177"><ele>73.42</ele><time>2026-01-31T01:27:56Z</time></trkpt><trkpt lat="33.2568457" lon="132.5713944"><ele>67.84333333333333</ele><time>2026-01-31T01:28:11Z</time></trkpt><trkpt lat="33.2568231" lon="132.5716526"><ele>61.82</ele><time>2026-01-31T01:28:25Z</time></trkpt><trkpt lat="33.256979" lon="132.5718323"><ele>56.123333333333335</ele><time>2026-01-31T01:28:43Z</time></trkpt><trkpt lat="33.2570497" lon="132.5720526"><ele>50.583333333333336</ele><time>2026-01-31T01:28:58Z</time></trkpt><trkpt lat="33.2570912" lon="132.5722911"><ele>45.54333333333333</ele><time>2026-01-31T01:29:18Z</time></trkpt><trkpt lat="33.2571313" lon="132.5725305"><ele>41.53333333333333</ele><time>2026-01-31T01:29:33Z</time></trkpt><trkpt lat="33.2572712" lon="132.5727319"><ele>38.68</ele><time>2026-01-31T01:29:48Z</time></trkpt><trkpt lat="33.2571001" lon="132.5728786"><ele>37.403333333333336</ele><time>2026-01-31T01:30:00Z</time></trkpt><trkpt lat="33.2568975" lon="132.5729316"><ele>36.483333333333334</ele><time>2026-01-31T01:30:15Z</time></trkpt><trkpt lat="33.2566816" lon="132.5729403"><ele>36.4</ele><time>2026-01-31T01:30:30Z</time></trkpt><trkpt lat="33.256488" lon="132.572974"><ele>36.43333333333333</ele><time>2026-01-31T01:30:42Z</time></trkpt><trkpt lat="33.2562983" lon="132.5728767"><ele>37.26666666666667</ele><time>2026-01-31T01:31:06Z</time></trkpt><trkpt lat="33.2561148" lon="132.5728448"><ele>37.85</ele><time>2026-01-31T01:31:21Z</time></trkpt><trkpt lat="33.2559781" lon="132.5730613"><ele>37.623333333333335</ele><time>2026-01-31T01:31:33Z</time></trkpt><trkpt lat="33.2558145" lon="132.5732477"><ele>36.233333333333334</ele><time>2026-01-31T01:31:45Z</time></trkpt><trkpt lat="33.2556176" lon="132.5732834"><ele>34.88999999999999</ele><time>2026-01-31T01:31:57Z</time></trkpt><trkpt lat="33.2554066" lon="132.5732867"><ele>34.42333333333334</ele><time>2026-01-31T01:32:12Z</time></trkpt><trkpt lat="33.2552177" lon="132.5734111"><ele>34.25333333333333</ele><time>2026-01-31T01:32:28Z</time></trkpt><trkpt lat="33.255023" lon="132.5735072"><ele>34.12</ele><time>2026-01-31T01:32:42Z</time></trkpt><trkpt lat="33.2548277" lon="132.5735615"><ele>34.17333333333334</ele><time>2026-01-31T01:32:57Z</time></trkpt><trkpt lat="33.2546316" lon="132.573606"><ele>34.44</ele><time>2026-01-31T01:33:12Z</time></trkpt><trkpt lat="33.2544271" lon="132.573614"><ele>35.013333333333335</ele><time>2026-01-31T01:33:30Z</time></trkpt><trkpt lat="33.2542244" lon="132.5736269"><ele>35.64333333333333</ele><time>2026-01-31T01:33:45Z</time></trkpt></trkseg></trk></gpx>