<?xml version='1.0' encoding='UTF-8'?><gpx creator="YAMAP - https://yamap.com" xsi:schemaLocation="http://www.topografix.com/GPX/1/1 http://www.topografix.com/GPX/1/1/gpx.xsd" version="1.1" xmlns="http://www.topografix.com/GPX/1/1" xmlns:xsi="http://www.w3.org/2001/XMLSchema-instance"><metadata><bounds maxlat="34.2902057" maxlon="133.0152899" minlat="34.2797712" minlon="133.0097301"/></metadata><trk><name>二反山</name><number>1</number><trkseg><trkpt lat="34.2900852" lon="133.0152899"><ele>104.03</ele><time>2024-06-13T21:46:43Z</time></trkpt><trkpt lat="34.2900988" lon="133.0150666"><ele>103.125</ele><time>2024-06-13T21:47:06Z</time></trkpt><trkpt lat="34.2901044" lon="133.0148479"><ele>102.66000000000001</ele><time>2024-06-13T21:47:23Z</time></trkpt><trkpt lat="34.290089" lon="133.0145935"><ele>101.77666666666666</ele><time>2024-06-13T21:47:44Z</time></trkpt><trkpt lat="34.2900553" lon="133.0143683"><ele>103.11000000000001</ele><time>2024-06-13T21:48:01Z</time></trkpt><trkpt lat="34.2902057" lon="133.0141951"><ele>102.96</ele><time>2024-06-13T21:48:23Z</time></trkpt><trkpt lat="34.2901953" lon="133.0139657"><ele>103.92</ele><time>2024-06-13T21:48:43Z</time></trkpt><trkpt lat="34.2900142" lon="133.0138763"><ele>104.92333333333335</ele><time>2024-06-13T21:51:29Z</time></trkpt><trkpt lat="34.2898673" lon="133.0137072"><ele>109.44666666666667</ele><time>2024-06-13T21:51:44Z</time></trkpt><trkpt lat="34.2897057" lon="133.0135552"><ele>115.81333333333333</ele><time>2024-06-13T21:52:14Z</time></trkpt><trkpt lat="34.2895208" lon="133.013537"><ele>125.31</ele><time>2024-06-13T21:53:56Z</time></trkpt><trkpt lat="34.2893456" lon="133.0135973"><ele>138.01333333333332</ele><time>2024-06-13T21:55:01Z</time></trkpt><trkpt lat="34.2891692" lon="133.0136495"><ele>151.13333333333333</ele><time>2024-06-13T21:57:05Z</time></trkpt><trkpt lat="34.2890049" lon="133.01374"><ele>162.49333333333334</ele><time>2024-06-13T21:59:08Z</time></trkpt><trkpt lat="34.2888258" lon="133.013676"><ele>173.71666666666667</ele><time>2024-06-13T22:00:25Z</time></trkpt><trkpt lat="34.2886831" lon="133.0135365"><ele>184.07333333333335</ele><time>2024-06-13T22:03:07Z</time></trkpt><trkpt lat="34.2886174" lon="133.0133132"><ele>195.11333333333332</ele><time>2024-06-13T22:04:19Z</time></trkpt><trkpt lat="34.2884848" lon="133.0131358"><ele>205.14333333333335</ele><time>2024-06-13T22:05:38Z</time></trkpt><trkpt lat="34.288324" lon="133.0130344"><ele>216.37</ele><time>2024-06-13T22:06:57Z</time></trkpt><trkpt lat="34.2881746" lon="133.0128814"><ele>229.29333333333332</ele><time>2024-06-13T22:08:56Z</time></trkpt><trkpt lat="34.2880275" lon="133.0127426"><ele>241.40666666666667</ele><time>2024-06-13T22:09:32Z</time></trkpt><trkpt lat="34.2878443" lon="133.0127582"><ele>255.39333333333335</ele><time>2024-06-13T22:12:49Z</time></trkpt><trkpt lat="34.2876271" lon="133.012725"><ele>268.8433333333333</ele><time>2024-06-13T22:17:01Z</time></trkpt><trkpt lat="34.2874486" lon="133.0126929"><ele>279.6166666666667</ele><time>2024-06-13T22:17:25Z</time></trkpt><trkpt lat="34.2872719" lon="133.0127426"><ele>285.99</ele><time>2024-06-13T22:18:31Z</time></trkpt><trkpt lat="34.28712" lon="133.0128731"><ele>292.73</ele><time>2024-06-13T22:20:47Z</time></trkpt><trkpt lat="34.2869329" lon="133.0129365"><ele>301.76</ele><time>2024-06-13T22:22:04Z</time></trkpt><trkpt lat="34.2867498" lon="133.0130245"><ele>312.0266666666667</ele><time>2024-06-13T22:22:25Z</time></trkpt><trkpt lat="34.2865814" lon="133.0131076"><ele>317.9766666666667</ele><time>2024-06-13T22:26:32Z</time></trkpt><trkpt lat="34.2863935" lon="133.0131129"><ele>321.47</ele><time>2024-06-13T22:27:06Z</time></trkpt><trkpt lat="34.286239" lon="133.0129562"><ele>323.49333333333334</ele><time>2024-06-13T22:27:40Z</time></trkpt><trkpt lat="34.2860851" lon="133.0128363"><ele>325.1433333333334</ele><time>2024-06-13T22:27:55Z</time></trkpt><trkpt lat="34.2859557" lon="133.0126822"><ele>327.29</ele><time>2024-06-13T22:28:34Z</time></trkpt><trkpt lat="34.2857743" lon="133.0125887"><ele>328.8733333333334</ele><time>2024-06-13T22:29:23Z</time></trkpt><trkpt lat="34.285609" lon="133.0124608"><ele>330.03</ele><time>2024-06-13T22:29:38Z</time></trkpt><trkpt lat="34.2854941" lon="133.0122664"><ele>330.5566666666667</ele><time>2024-06-13T22:30:11Z</time></trkpt><trkpt lat="34.2853324" lon="133.0121443"><ele>330.53333333333336</ele><time>2024-06-13T22:30:33Z</time></trkpt><trkpt lat="34.2851919" lon="133.0119782"><ele>330.61</ele><time>2024-06-13T22:30:51Z</time></trkpt><trkpt lat="34.2851195" lon="133.0117725"><ele>331.19666666666666</ele><time>2024-06-13T22:31:06Z</time></trkpt><trkpt lat="34.2850025" lon="133.0115605"><ele>332.24333333333334</ele><time>2024-06-13T22:31:52Z</time></trkpt><trkpt lat="34.2848293" lon="133.0114656"><ele>333.81</ele><time>2024-06-13T22:32:17Z</time></trkpt><trkpt lat="34.2846545" lon="133.0114006"><ele>332.2633333333334</ele><time>2024-06-13T22:32:40Z</time></trkpt><trkpt lat="34.2845682" lon="133.0111949"><ele>333.24</ele><time>2024-06-13T22:32:58Z</time></trkpt><trkpt lat="34.2844639" lon="133.0110151"><ele>335.77</ele><time>2024-06-13T22:34:17Z</time></trkpt><trkpt lat="34.2843907" lon="133.0108154"><ele>343.56</ele><time>2024-06-13T22:35:11Z</time></trkpt><trkpt lat="34.2843441" lon="133.0105845"><ele>353.32</ele><time>2024-06-13T22:49:19Z</time></trkpt><trkpt lat="34.2842433" lon="133.0103954"><ele>363.42333333333335</ele><time>2024-06-13T22:49:52Z</time></trkpt><trkpt lat="34.2841256" lon="133.0102209"><ele>372.99333333333334</ele><time>2024-06-13T22:51:01Z</time></trkpt><trkpt lat="34.2839766" lon="133.0100741"><ele>380.4066666666667</ele><time>2024-06-13T22:51:46Z</time></trkpt><trkpt lat="34.2837951" lon="133.0100495"><ele>386.00333333333333</ele><time>2024-06-13T22:52:19Z</time></trkpt><trkpt lat="34.2836127" lon="133.0100598"><ele>389.73333333333335</ele><time>2024-06-13T22:52:45Z</time></trkpt><trkpt lat="34.2832835" lon="133.0099761"><ele>390.93666666666667</ele><time>2024-06-13T22:59:37Z</time></trkpt><trkpt lat="34.2831738" lon="133.0097849"><ele>388.93</ele><time>2024-06-13T23:00:07Z</time></trkpt><trkpt lat="34.2829926" lon="133.0097928"><ele>386.11666666666673</ele><time>2024-06-13T23:00:26Z</time></trkpt><trkpt lat="34.2828126" lon="133.0097301"><ele>383.12999999999994</ele><time>2024-06-13T23:01:00Z</time></trkpt><trkpt lat="34.2826264" lon="133.009739"><ele>383.77666666666664</ele><time>2024-06-13T23:01:15Z</time></trkpt><trkpt lat="34.2824204" lon="133.0098101"><ele>384.38000000000005</ele><time>2024-06-13T23:03:52Z</time></trkpt><trkpt lat="34.2823967" lon="133.010032"><ele>382.8033333333333</ele><time>2024-06-13T23:14:20Z</time></trkpt><trkpt lat="34.2823564" lon="133.0102987"><ele>375.8533333333333</ele><time>2024-06-13T23:14:39Z</time></trkpt><trkpt lat="34.2823485" lon="133.0100241"><ele>373.72</ele><time>2024-06-13T23:14:44Z</time></trkpt><trkpt lat="34.2820973" lon="133.0103105"><ele>370.3566666666666</ele><time>2024-06-13T23:14:50Z</time></trkpt><trkpt lat="34.2819243" lon="133.0104438"><ele>368.76</ele><time>2024-06-13T23:15:02Z</time></trkpt><trkpt lat="34.2817936" lon="133.0105968"><ele>361.3733333333334</ele><time>2024-06-13T23:15:28Z</time></trkpt><trkpt lat="34.2816753" lon="133.0107676"><ele>355.90333333333336</ele><time>2024-06-13T23:22:15Z</time></trkpt><trkpt lat="34.2814822" lon="133.0107869"><ele>350.3566666666666</ele><time>2024-06-13T23:22:47Z</time></trkpt><trkpt lat="34.2812337" lon="133.0109301"><ele>342.73333333333335</ele><time>2024-06-13T23:30:56Z</time></trkpt><trkpt lat="34.2810457" lon="133.0110573"><ele>335.89000000000004</ele><time>2024-06-13T23:31:13Z</time></trkpt><trkpt lat="34.2809828" lon="133.011263"><ele>334.84999999999997</ele><time>2024-06-13T23:31:22Z</time></trkpt><trkpt lat="34.2808548" lon="133.0114442"><ele>339.87666666666667</ele><time>2024-06-13T23:32:01Z</time></trkpt><trkpt lat="34.2807192" lon="133.0116113"><ele>347.23333333333335</ele><time>2024-06-13T23:32:31Z</time></trkpt><trkpt lat="34.2806135" lon="133.0118326"><ele>353.1466666666667</ele><time>2024-06-13T23:32:47Z</time></trkpt><trkpt lat="34.2804391" lon="133.0119531"><ele>357.21000000000004</ele><time>2024-06-13T23:33:20Z</time></trkpt><trkpt lat="34.2803856" lon="133.0121617"><ele>360.00666666666666</ele><time>2024-06-13T23:33:44Z</time></trkpt><trkpt lat="34.2803949" lon="133.0124018"><ele>361.0333333333333</ele><time>2024-06-13T23:34:18Z</time></trkpt><trkpt lat="34.2803494" lon="133.0126233"><ele>363.6766666666667</ele><time>2024-06-13T23:34:39Z</time></trkpt><trkpt lat="34.2802643" lon="133.0128298"><ele>365.78999999999996</ele><time>2024-06-13T23:35:03Z</time></trkpt><trkpt lat="34.280186" lon="133.0130275"><ele>366.77</ele><time>2024-06-13T23:35:24Z</time></trkpt><trkpt lat="34.2801561" lon="133.0132804"><ele>365.2</ele><time>2024-06-13T23:35:48Z</time></trkpt><trkpt lat="34.2800722" lon="133.0134759"><ele>363.17333333333335</ele><time>2024-06-13T23:36:05Z</time></trkpt><trkpt lat="34.2800664" lon="133.0136961"><ele>361.8533333333333</ele><time>2024-06-13T23:36:42Z</time></trkpt><trkpt lat="34.28" lon="133.0139123"><ele>358.24</ele><time>2024-06-13T23:50:55Z</time></trkpt><trkpt lat="34.2798505" lon="133.0140743"><ele>353.2866666666667</ele><time>2024-06-13T23:51:27Z</time></trkpt><trkpt lat="34.2797712" lon="133.0142897"><ele>348.3666666666666</ele><time>2024-06-13T23:51:44Z</time></trkpt><trkpt lat="34.279773" lon="133.0145096"><ele>345.8</ele><time>2024-06-13T23:52:13Z</time></trkpt><trkpt lat="34.2799264" lon="133.0146555"><ele>343.7266666666667</ele><time>2024-06-13T23:56:11Z</time></trkpt><trkpt lat="34.2797913" lon="133.0148039"><ele>342.90333333333336</ele><time>2024-06-13T23:56:24Z</time></trkpt><trkpt lat="34.2797728" lon="133.0145651"><ele>342.7633333333333</ele><time>2024-06-14T00:07:58Z</time></trkpt><trkpt lat="34.2798026" lon="133.0143428"><ele>344.9066666666667</ele><time>2024-06-14T00:08:25Z</time></trkpt><trkpt lat="34.2799418" lon="133.0141764"><ele>345.98</ele><time>2024-06-14T00:09:01Z</time></trkpt><trkpt lat="34.2800029" lon="133.0139605"><ele>348.68666666666667</ele><time>2024-06-14T00:09:18Z</time></trkpt><trkpt lat="34.2800213" lon="133.013719"><ele>351.52666666666664</ele><time>2024-06-14T00:10:04Z</time></trkpt><trkpt lat="34.2801892" lon="133.0135792"><ele>356.92</ele><time>2024-06-14T00:11:28Z</time></trkpt><trkpt lat="34.2802514" lon="133.0133447"><ele>360.32666666666665</ele><time>2024-06-14T00:11:40Z</time></trkpt><trkpt lat="34.2802581" lon="133.0131125"><ele>363.99333333333334</ele><time>2024-06-14T00:11:59Z</time></trkpt><trkpt lat="34.2801947" lon="133.012896"><ele>364.21333333333337</ele><time>2024-06-14T00:12:13Z</time></trkpt><trkpt lat="34.2803357" lon="133.0127573"><ele>366.1033333333333</ele><time>2024-06-14T00:12:28Z</time></trkpt><trkpt lat="34.2804947" lon="133.0126178"><ele>363.3</ele><time>2024-06-14T00:12:46Z</time></trkpt><trkpt lat="34.2805966" lon="133.0124142"><ele>361.34666666666664</ele><time>2024-06-14T00:13:13Z</time></trkpt><trkpt lat="34.2805146" lon="133.0121929"><ele>359.24333333333334</ele><time>2024-06-14T00:13:27Z</time></trkpt><trkpt lat="34.2805818" lon="133.0119765"><ele>359.77</ele><time>2024-06-14T00:13:48Z</time></trkpt><trkpt lat="34.2807497" lon="133.011836"><ele>358.59666666666675</ele><time>2024-06-14T00:14:15Z</time></trkpt><trkpt lat="34.2808546" lon="133.011659"><ele>353.91333333333336</ele><time>2024-06-14T00:14:49Z</time></trkpt><trkpt lat="34.280903" lon="133.011435"><ele>350.26000000000005</ele><time>2024-06-14T00:15:37Z</time></trkpt><trkpt lat="34.2810523" lon="133.011296"><ele>346.12000000000006</ele><time>2024-06-14T00:16:04Z</time></trkpt><trkpt lat="34.2812124" lon="133.0111536"><ele>344.0366666666667</ele><time>2024-06-14T00:16:19Z</time></trkpt><trkpt lat="34.2813521" lon="133.0110023"><ele>342.09</ele><time>2024-06-14T00:16:52Z</time></trkpt><trkpt lat="34.2815148" lon="133.0108653"><ele>343.49666666666667</ele><time>2024-06-14T00:17:28Z</time></trkpt><trkpt lat="34.2816839" lon="133.010779"><ele>346.45666666666665</ele><time>2024-06-14T00:18:25Z</time></trkpt><trkpt lat="34.2817339" lon="133.0105544"><ele>349.51</ele><time>2024-06-14T00:23:53Z</time></trkpt><trkpt lat="34.2819177" lon="133.0105115"><ele>354.84999999999997</ele><time>2024-06-14T00:24:05Z</time></trkpt><trkpt lat="34.282111" lon="133.0104038"><ele>360.43</ele><time>2024-06-14T00:24:23Z</time></trkpt><trkpt lat="34.2822587" lon="133.0102407"><ele>367.6766666666667</ele><time>2024-06-14T00:24:41Z</time></trkpt><trkpt lat="34.282394" lon="133.0100714"><ele>373.20666666666665</ele><time>2024-06-14T00:25:03Z</time></trkpt><trkpt lat="34.2824365" lon="133.0098394"><ele>378.8333333333333</ele><time>2024-06-14T00:25:39Z</time></trkpt><trkpt lat="34.2826266" lon="133.0097978"><ele>382.2966666666666</ele><time>2024-06-14T00:26:01Z</time></trkpt><trkpt lat="34.2827965" lon="133.0098933"><ele>382.97666666666663</ele><time>2024-06-14T00:26:40Z</time></trkpt><trkpt lat="34.2829668" lon="133.0098022"><ele>382.3733333333334</ele><time>2024-06-14T00:26:55Z</time></trkpt><trkpt lat="34.2831683" lon="133.0098122"><ele>382.47333333333336</ele><time>2024-06-14T00:27:25Z</time></trkpt><trkpt lat="34.2833383" lon="133.0098933"><ele>386.0933333333333</ele><time>2024-06-14T00:27:59Z</time></trkpt><trkpt lat="34.2834565" lon="133.0100673"><ele>389.43</ele><time>2024-06-14T00:28:53Z</time></trkpt><trkpt lat="34.28362" lon="133.0099608"><ele>391.75</ele><time>2024-06-14T00:33:45Z</time></trkpt><trkpt lat="34.2838069" lon="133.0100314"><ele>391.39000000000004</ele><time>2024-06-14T00:33:57Z</time></trkpt><trkpt lat="34.2840035" lon="133.0100831"><ele>389.6433333333334</ele><time>2024-06-14T00:34:22Z</time></trkpt><trkpt lat="34.2840382" lon="133.0103118"><ele>384.59999999999997</ele><time>2024-06-14T00:34:55Z</time></trkpt><trkpt lat="34.284171" lon="133.0104847"><ele>378.09</ele><time>2024-06-14T00:35:24Z</time></trkpt><trkpt lat="34.2843154" lon="133.0106175"><ele>369.21</ele><time>2024-06-14T00:35:45Z</time></trkpt><trkpt lat="34.2844222" lon="133.0107945"><ele>361.04333333333335</ele><time>2024-06-14T00:38:04Z</time></trkpt><trkpt lat="34.2842074" lon="133.0108001"><ele>352.50666666666666</ele><time>2024-06-14T00:39:34Z</time></trkpt><trkpt lat="34.2844364" lon="133.0108253"><ele>349.31</ele><time>2024-06-14T00:39:37Z</time></trkpt><trkpt lat="34.2845344" lon="133.0110091"><ele>346.21000000000004</ele><time>2024-06-14T00:40:00Z</time></trkpt><trkpt lat="34.2845708" lon="133.0112277"><ele>341.99</ele><time>2024-06-14T00:40:22Z</time></trkpt><trkpt lat="34.284736" lon="133.0113829"><ele>336.48</ele><time>2024-06-14T00:40:48Z</time></trkpt><trkpt lat="34.2849046" lon="133.0115334"><ele>333.93</ele><time>2024-06-14T00:41:07Z</time></trkpt><trkpt lat="34.2849733" lon="133.0117453"><ele>331.98333333333335</ele><time>2024-06-14T00:41:34Z</time></trkpt><trkpt lat="34.2851109" lon="133.0118894"><ele>330.83666666666664</ele><time>2024-06-14T00:41:52Z</time></trkpt><trkpt lat="34.2852805" lon="133.0120287"><ele>329.5933333333333</ele><time>2024-06-14T00:42:25Z</time></trkpt><trkpt lat="34.285436" lon="133.0121887"><ele>330.87</ele><time>2024-06-14T00:42:50Z</time></trkpt><trkpt lat="34.2855177" lon="133.0123924"><ele>330.50000000000006</ele><time>2024-06-14T00:43:10Z</time></trkpt><trkpt lat="34.2856598" lon="133.0125726"><ele>330.3966666666667</ele><time>2024-06-14T00:43:28Z</time></trkpt><trkpt lat="34.2858248" lon="133.0126804"><ele>329.92333333333335</ele><time>2024-06-14T00:44:19Z</time></trkpt><trkpt lat="34.2860229" lon="133.0128111"><ele>328.85666666666674</ele><time>2024-06-14T00:47:00Z</time></trkpt><trkpt lat="34.2861945" lon="133.0129237"><ele>327.3566666666667</ele><time>2024-06-14T00:47:16Z</time></trkpt><trkpt lat="34.2863047" lon="133.0131505"><ele>325.13000000000005</ele><time>2024-06-14T00:47:44Z</time></trkpt><trkpt lat="34.2864511" lon="133.0133514"><ele>323.25</ele><time>2024-06-14T00:47:58Z</time></trkpt><trkpt lat="34.2864705" lon="133.0131264"><ele>322.38666666666666</ele><time>2024-06-14T00:48:16Z</time></trkpt><trkpt lat="34.2865401" lon="133.012916"><ele>321.09333333333336</ele><time>2024-06-14T00:49:12Z</time></trkpt><trkpt lat="34.2865502" lon="133.013203"><ele>321.3666666666667</ele><time>2024-06-14T00:49:17Z</time></trkpt><trkpt lat="34.2867681" lon="133.0131854"><ele>320.13000000000005</ele><time>2024-06-14T00:49:33Z</time></trkpt><trkpt lat="34.2869629" lon="133.0132014"><ele>317.0466666666667</ele><time>2024-06-14T00:49:50Z</time></trkpt><trkpt lat="34.2871229" lon="133.0130615"><ele>311.8</ele><time>2024-06-14T00:51:09Z</time></trkpt><trkpt lat="34.2872475" lon="133.0129035"><ele>305.09999999999997</ele><time>2024-06-14T00:51:23Z</time></trkpt><trkpt lat="34.2874391" lon="133.0128831"><ele>299.12000000000006</ele><time>2024-06-14T00:51:54Z</time></trkpt><trkpt lat="34.2875833" lon="133.0127477"><ele>291.5933333333333</ele><time>2024-06-14T00:52:49Z</time></trkpt><trkpt lat="34.2877329" lon="133.0129001"><ele>283.7066666666667</ele><time>2024-06-14T00:54:43Z</time></trkpt><trkpt lat="34.2879098" lon="133.0129584"><ele>274.1566666666667</ele><time>2024-06-14T00:55:19Z</time></trkpt><trkpt lat="34.2881" lon="133.0128793"><ele>262.6666666666667</ele><time>2024-06-14T00:55:45Z</time></trkpt><trkpt lat="34.2883413" lon="133.0130083"><ele>247.35</ele><time>2024-06-14T00:56:42Z</time></trkpt><trkpt lat="34.2885126" lon="133.0131075"><ele>230.88666666666666</ele><time>2024-06-14T00:57:12Z</time></trkpt><trkpt lat="34.2885013" lon="133.0133262"><ele>216.88333333333335</ele><time>2024-06-14T00:57:41Z</time></trkpt><trkpt lat="34.2886148" lon="133.013496"><ele>206.24666666666667</ele><time>2024-06-14T00:58:05Z</time></trkpt><trkpt lat="34.2887221" lon="133.0136713"><ele>198.35</ele><time>2024-06-14T00:59:29Z</time></trkpt><trkpt lat="34.2888554" lon="133.0138237"><ele>188.79999999999998</ele><time>2024-06-14T01:00:14Z</time></trkpt><trkpt lat="34.2890415" lon="133.0138416"><ele>179.26666666666668</ele><time>2024-06-14T01:01:20Z</time></trkpt><trkpt lat="34.2892821" lon="133.0137507"><ele>166.64000000000001</ele><time>2024-06-14T01:03:55Z</time></trkpt><trkpt lat="34.289438" lon="133.0136193"><ele>154.49</ele><time>2024-06-14T01:04:40Z</time></trkpt><trkpt lat="34.2896409" lon="133.0136411"><ele>140.6</ele><time>2024-06-14T01:04:53Z</time></trkpt><trkpt lat="34.289824" lon="133.0137124"><ele>129.1966666666667</ele><time>2024-06-14T01:05:14Z</time></trkpt><trkpt lat="34.289995" lon="133.0136378"><ele>118.92999999999999</ele><time>2024-06-14T01:05:41Z</time></trkpt><trkpt lat="34.2900143" lon="133.0138551"><ele>112.74666666666667</ele><time>2024-06-14T01:06:39Z</time></trkpt><trkpt lat="34.2901878" lon="133.0140316"><ele>108.38333333333333</ele><time>2024-06-14T01:08:12Z</time></trkpt><trkpt lat="34.2901831" lon="133.0142831"><ele>105.25</ele><time>2024-06-14T01:09:17Z</time></trkpt><trkpt lat="34.2900859" lon="133.0144994"><ele>102.71333333333332</ele><time>2024-06-14T01:09:35Z</time></trkpt><trkpt lat="34.2901148" lon="133.0147266"><ele>101.71</ele><time>2024-06-14T01:09:53Z</time></trkpt><trkpt lat="34.2901394" lon="133.0149909"><ele>100.83</ele><time>2024-06-14T01:10:14Z</time></trkpt><trkpt lat="34.290116" lon="133.015241"><ele>101.45333333333333</ele><time>2024-06-14T01:10:35Z</time></trkpt></trkseg></trk></gpx>