<?xml version='1.0' encoding='UTF-8'?><gpx creator="YAMAP - https://yamap.com" xsi:schemaLocation="http://www.topografix.com/GPX/1/1 http://www.topografix.com/GPX/1/1/gpx.xsd" version="1.1" xmlns="http://www.topografix.com/GPX/1/1" xmlns:xsi="http://www.w3.org/2001/XMLSchema-instance"><metadata><bounds maxlat="33.8923662" maxlon="132.8308361" minlat="33.8697699" minlon="132.8257537"/></metadata><trk><name>奥之城山・ヌタノサコ</name><number>1</number><trkseg><trkpt lat="33.8697699" lon="132.8282646"><ele>131.78</ele><time>2022-03-03T01:47:05Z</time></trkpt><trkpt lat="33.8699276" lon="132.8281565"><ele>133.065</ele><time>2022-03-03T01:47:30Z</time></trkpt><trkpt lat="33.8700658" lon="132.8280097"><ele>134.61666666666667</ele><time>2022-03-03T01:47:49Z</time></trkpt><trkpt lat="33.8701628" lon="132.8278193"><ele>134.62333333333333</ele><time>2022-03-03T01:48:19Z</time></trkpt><trkpt lat="33.8703528" lon="132.8278264"><ele>135.22666666666666</ele><time>2022-03-03T01:48:32Z</time></trkpt><trkpt lat="33.8705363" lon="132.8278692"><ele>135.7266666666667</ele><time>2022-03-03T01:48:44Z</time></trkpt><trkpt lat="33.8707089" lon="132.8279508"><ele>141.23</ele><time>2022-03-03T01:48:56Z</time></trkpt><trkpt lat="33.8708882" lon="132.8278751"><ele>144.16333333333333</ele><time>2022-03-03T01:49:41Z</time></trkpt><trkpt lat="33.8710748" lon="132.8278519"><ele>147.35</ele><time>2022-03-03T01:49:54Z</time></trkpt><trkpt lat="33.8712311" lon="132.8277118"><ele>147.93333333333334</ele><time>2022-03-03T01:50:06Z</time></trkpt><trkpt lat="33.8711611" lon="132.8279398"><ele>150.51666666666668</ele><time>2022-03-03T01:50:42Z</time></trkpt><trkpt lat="33.871312" lon="132.8280586"><ele>155.72333333333333</ele><time>2022-03-03T01:50:54Z</time></trkpt><trkpt lat="33.8714361" lon="132.8278947"><ele>159.53666666666666</ele><time>2022-03-03T01:51:07Z</time></trkpt><trkpt lat="33.8714369" lon="132.8276771"><ele>162.20333333333335</ele><time>2022-03-03T01:51:24Z</time></trkpt><trkpt lat="33.8715652" lon="132.8275038"><ele>163.21</ele><time>2022-03-03T01:51:42Z</time></trkpt><trkpt lat="33.8716835" lon="132.8273326"><ele>165.29</ele><time>2022-03-03T01:51:55Z</time></trkpt><trkpt lat="33.8718035" lon="132.8271561"><ele>168.26666666666668</ele><time>2022-03-03T01:52:10Z</time></trkpt><trkpt lat="33.8719457" lon="132.8270137"><ele>168.66666666666666</ele><time>2022-03-03T01:52:23Z</time></trkpt><trkpt lat="33.8720747" lon="132.826862"><ele>170.35999999999999</ele><time>2022-03-03T01:52:38Z</time></trkpt><trkpt lat="33.8722187" lon="132.8269993"><ele>171.87</ele><time>2022-03-03T01:53:02Z</time></trkpt><trkpt lat="33.8724106" lon="132.8270061"><ele>175.02333333333334</ele><time>2022-03-03T01:53:17Z</time></trkpt><trkpt lat="33.8722909" lon="132.8271863"><ele>177.18999999999997</ele><time>2022-03-03T01:53:30Z</time></trkpt><trkpt lat="33.872111" lon="132.8271683"><ele>178.48666666666668</ele><time>2022-03-03T01:53:44Z</time></trkpt><trkpt lat="33.8719369" lon="132.8272534"><ele>179.16333333333333</ele><time>2022-03-03T01:54:08Z</time></trkpt><trkpt lat="33.8717922" lon="132.8273958"><ele>179.8066666666667</ele><time>2022-03-03T01:54:26Z</time></trkpt><trkpt lat="33.8717511" lon="132.8276232"><ele>179.81000000000003</ele><time>2022-03-03T01:54:36Z</time></trkpt><trkpt lat="33.8717685" lon="132.82784"><ele>179.09666666666666</ele><time>2022-03-03T01:54:48Z</time></trkpt><trkpt lat="33.871834" lon="132.8280445"><ele>180.32000000000002</ele><time>2022-03-03T01:55:01Z</time></trkpt><trkpt lat="33.8716934" lon="132.8281804"><ele>181.23666666666668</ele><time>2022-03-03T01:55:16Z</time></trkpt><trkpt lat="33.8715115" lon="132.8282353"><ele>181.75666666666666</ele><time>2022-03-03T01:55:30Z</time></trkpt><trkpt lat="33.871425" lon="132.8284298"><ele>181.55000000000004</ele><time>2022-03-03T01:55:43Z</time></trkpt><trkpt lat="33.8712908" lon="132.8285752"><ele>183.7266666666667</ele><time>2022-03-03T01:55:59Z</time></trkpt><trkpt lat="33.8711085" lon="132.8285539"><ele>184.96333333333334</ele><time>2022-03-03T01:56:14Z</time></trkpt><trkpt lat="33.8710626" lon="132.8287632"><ele>185.74</ele><time>2022-03-03T01:56:35Z</time></trkpt><trkpt lat="33.8712405" lon="132.8287125"><ele>186.42</ele><time>2022-03-03T01:56:46Z</time></trkpt><trkpt lat="33.8714064" lon="132.8286275"><ele>188.28666666666666</ele><time>2022-03-03T01:57:00Z</time></trkpt><trkpt lat="33.8715549" lon="132.8284932"><ele>189.58333333333334</ele><time>2022-03-03T01:57:15Z</time></trkpt><trkpt lat="33.8716896" lon="132.8283365"><ele>189.16333333333333</ele><time>2022-03-03T01:57:32Z</time></trkpt><trkpt lat="33.8718589" lon="132.8284451"><ele>193.1</ele><time>2022-03-03T01:57:47Z</time></trkpt><trkpt lat="33.8719842" lon="132.8282802"><ele>197.89</ele><time>2022-03-03T01:57:59Z</time></trkpt><trkpt lat="33.8719854" lon="132.8280482"><ele>202.4766666666667</ele><time>2022-03-03T01:58:12Z</time></trkpt><trkpt lat="33.871891" lon="132.8278545"><ele>199.46</ele><time>2022-03-03T01:58:25Z</time></trkpt><trkpt lat="33.8718965" lon="132.8276332"><ele>195.05333333333337</ele><time>2022-03-03T01:58:41Z</time></trkpt><trkpt lat="33.8720681" lon="132.8275536"><ele>195.41</ele><time>2022-03-03T01:58:53Z</time></trkpt><trkpt lat="33.8722479" lon="132.8274992"><ele>198.8166666666667</ele><time>2022-03-03T01:59:07Z</time></trkpt><trkpt lat="33.8724162" lon="132.8275811"><ele>204.03666666666666</ele><time>2022-03-03T01:59:23Z</time></trkpt><trkpt lat="33.8725983" lon="132.8276307"><ele>207.96666666666667</ele><time>2022-03-03T01:59:38Z</time></trkpt><trkpt lat="33.8727574" lon="132.8275257"><ele>210.6866666666667</ele><time>2022-03-03T01:59:49Z</time></trkpt><trkpt lat="33.8729045" lon="132.8273941"><ele>211.32333333333335</ele><time>2022-03-03T02:00:05Z</time></trkpt><trkpt lat="33.87307" lon="132.8273062"><ele>208.45666666666668</ele><time>2022-03-03T02:00:20Z</time></trkpt><trkpt lat="33.8732362" lon="132.8272158"><ele>206.30666666666664</ele><time>2022-03-03T02:00:36Z</time></trkpt><trkpt lat="33.8733939" lon="132.827108"><ele>209.10333333333332</ele><time>2022-03-03T02:00:52Z</time></trkpt><trkpt lat="33.8735199" lon="132.827266"><ele>213.36666666666665</ele><time>2022-03-03T02:01:10Z</time></trkpt><trkpt lat="33.8733577" lon="132.8273741"><ele>218.62333333333333</ele><time>2022-03-03T02:01:24Z</time></trkpt><trkpt lat="33.8731872" lon="132.8274454"><ele>217.91333333333333</ele><time>2022-03-03T02:01:40Z</time></trkpt><trkpt lat="33.8730099" lon="132.8275004"><ele>218.36333333333334</ele><time>2022-03-03T02:01:56Z</time></trkpt><trkpt lat="33.8728665" lon="132.8276396"><ele>220.74333333333334</ele><time>2022-03-03T02:02:11Z</time></trkpt><trkpt lat="33.8727249" lon="132.8277964"><ele>223.57666666666668</ele><time>2022-03-03T02:02:26Z</time></trkpt><trkpt lat="33.8725255" lon="132.8278102"><ele>224.0</ele><time>2022-03-03T02:02:43Z</time></trkpt><trkpt lat="33.8723329" lon="132.8278073"><ele>220.99</ele><time>2022-03-03T02:02:58Z</time></trkpt><trkpt lat="33.8722787" lon="132.8280322"><ele>220.60333333333335</ele><time>2022-03-03T02:03:14Z</time></trkpt><trkpt lat="33.8723788" lon="132.828215"><ele>223.65333333333334</ele><time>2022-03-03T02:03:27Z</time></trkpt><trkpt lat="33.8722946" lon="132.8284126"><ele>226.94000000000003</ele><time>2022-03-03T02:03:46Z</time></trkpt><trkpt lat="33.8723204" lon="132.8286273"><ele>226.63</ele><time>2022-03-03T02:03:59Z</time></trkpt><trkpt lat="33.8724665" lon="132.8287735"><ele>224.04666666666665</ele><time>2022-03-03T02:04:14Z</time></trkpt><trkpt lat="33.8726421" lon="132.8288414"><ele>220.83</ele><time>2022-03-03T02:04:32Z</time></trkpt><trkpt lat="33.8726971" lon="132.8286216"><ele>223.25666666666666</ele><time>2022-03-03T02:04:47Z</time></trkpt><trkpt lat="33.8725177" lon="132.8285676"><ele>226.67666666666665</ele><time>2022-03-03T02:05:05Z</time></trkpt><trkpt lat="33.8723847" lon="132.8284172"><ele>231.12</ele><time>2022-03-03T02:05:20Z</time></trkpt><trkpt lat="33.8725175" lon="132.828268"><ele>234.45000000000002</ele><time>2022-03-03T02:05:37Z</time></trkpt><trkpt lat="33.8726842" lon="132.8281697"><ele>236.91</ele><time>2022-03-03T02:05:58Z</time></trkpt><trkpt lat="33.872868" lon="132.8281148"><ele>240.26</ele><time>2022-03-03T02:06:17Z</time></trkpt><trkpt lat="33.8730397" lon="132.8280487"><ele>241.34333333333333</ele><time>2022-03-03T02:06:32Z</time></trkpt><trkpt lat="33.873115" lon="132.8278407"><ele>241.46333333333334</ele><time>2022-03-03T02:06:44Z</time></trkpt><trkpt lat="33.8733002" lon="132.8278335"><ele>243.32333333333335</ele><time>2022-03-03T02:07:03Z</time></trkpt><trkpt lat="33.8734842" lon="132.8278404"><ele>246.21333333333334</ele><time>2022-03-03T02:07:21Z</time></trkpt><trkpt lat="33.8736676" lon="132.827843"><ele>251.31333333333336</ele><time>2022-03-03T02:07:37Z</time></trkpt><trkpt lat="33.8738387" lon="132.8277704"><ele>255.51666666666665</ele><time>2022-03-03T02:07:53Z</time></trkpt><trkpt lat="33.874022" lon="132.8277209"><ele>260.3566666666667</ele><time>2022-03-03T02:08:26Z</time></trkpt><trkpt lat="33.8741221" lon="132.8274997"><ele>262.0233333333333</ele><time>2022-03-03T02:08:37Z</time></trkpt><trkpt lat="33.8741299" lon="132.827278"><ele>261.5</ele><time>2022-03-03T02:08:44Z</time></trkpt><trkpt lat="33.8740867" lon="132.8270536"><ele>258.2633333333333</ele><time>2022-03-03T02:08:56Z</time></trkpt><trkpt lat="33.8741016" lon="132.8268357"><ele>258.42</ele><time>2022-03-03T02:09:10Z</time></trkpt><trkpt lat="33.8742835" lon="132.8268666"><ele>258.3</ele><time>2022-03-03T02:09:33Z</time></trkpt><trkpt lat="33.8743604" lon="132.8270685"><ele>259.43666666666667</ele><time>2022-03-03T02:09:47Z</time></trkpt><trkpt lat="33.8744628" lon="132.827252"><ele>260.01</ele><time>2022-03-03T02:10:02Z</time></trkpt><trkpt lat="33.8744371" lon="132.8274665"><ele>265.67</ele><time>2022-03-03T02:10:20Z</time></trkpt><trkpt lat="33.8744184" lon="132.8276837"><ele>272.7766666666667</ele><time>2022-03-03T02:10:52Z</time></trkpt><trkpt lat="33.874533" lon="132.8278542"><ele>281.70666666666665</ele><time>2022-03-03T02:11:56Z</time></trkpt><trkpt lat="33.8747173" lon="132.8278471"><ele>287.90000000000003</ele><time>2022-03-03T02:12:23Z</time></trkpt><trkpt lat="33.874895" lon="132.8279174"><ele>293.25</ele><time>2022-03-03T02:12:42Z</time></trkpt><trkpt lat="33.8750235" lon="132.8280743"><ele>296.74666666666667</ele><time>2022-03-03T02:13:00Z</time></trkpt><trkpt lat="33.8751753" lon="132.8282008"><ele>299.39000000000004</ele><time>2022-03-03T02:13:18Z</time></trkpt><trkpt lat="33.8753342" lon="132.8283051"><ele>299.8533333333333</ele><time>2022-03-03T02:13:35Z</time></trkpt><trkpt lat="33.875493" lon="132.8284196"><ele>300.50333333333333</ele><time>2022-03-03T02:13:51Z</time></trkpt><trkpt lat="33.8755641" lon="132.8286232"><ele>302.84</ele><time>2022-03-03T02:15:12Z</time></trkpt><trkpt lat="33.8757379" lon="132.8287059"><ele>307.11</ele><time>2022-03-03T02:15:38Z</time></trkpt><trkpt lat="33.8758613" lon="132.8288714"><ele>311.31666666666666</ele><time>2022-03-03T02:15:58Z</time></trkpt><trkpt lat="33.8760075" lon="132.8290036"><ele>315.3933333333334</ele><time>2022-03-03T02:16:22Z</time></trkpt><trkpt lat="33.8761948" lon="132.8290241"><ele>323.46999999999997</ele><time>2022-03-03T02:16:39Z</time></trkpt><trkpt lat="33.8763389" lon="132.8291596"><ele>332.78000000000003</ele><time>2022-03-03T02:17:44Z</time></trkpt><trkpt lat="33.8764842" lon="132.8293098"><ele>340.92</ele><time>2022-03-03T02:18:24Z</time></trkpt><trkpt lat="33.8766456" lon="132.8292127"><ele>347.6366666666667</ele><time>2022-03-03T02:19:10Z</time></trkpt><trkpt lat="33.8767912" lon="132.8290815"><ele>354.3933333333334</ele><time>2022-03-03T02:20:36Z</time></trkpt><trkpt lat="33.8769531" lon="132.8292239"><ele>362.90000000000003</ele><time>2022-03-03T02:21:00Z</time></trkpt><trkpt lat="33.8771202" lon="132.8293284"><ele>367.24</ele><time>2022-03-03T02:21:37Z</time></trkpt><trkpt lat="33.8772284" lon="132.8295059"><ele>369.59</ele><time>2022-03-03T02:22:58Z</time></trkpt><trkpt lat="33.8773767" lon="132.8296319"><ele>369.48333333333335</ele><time>2022-03-03T02:23:29Z</time></trkpt><trkpt lat="33.8774593" lon="132.8298319"><ele>372.11666666666673</ele><time>2022-03-03T02:23:51Z</time></trkpt><trkpt lat="33.8775741" lon="132.8300034"><ele>375.06333333333333</ele><time>2022-03-03T02:24:07Z</time></trkpt><trkpt lat="33.8776319" lon="132.8302111"><ele>383.3866666666666</ele><time>2022-03-03T02:24:41Z</time></trkpt><trkpt lat="33.8776064" lon="132.8304291"><ele>392.52666666666664</ele><time>2022-03-03T02:25:35Z</time></trkpt><trkpt lat="33.8776963" lon="132.8306326"><ele>403.93</ele><time>2022-03-03T02:26:29Z</time></trkpt><trkpt lat="33.87776" lon="132.8308361"><ele>411.5366666666667</ele><time>2022-03-03T02:26:56Z</time></trkpt><trkpt lat="33.8778648" lon="132.8306597"><ele>414.2866666666667</ele><time>2022-03-03T02:34:29Z</time></trkpt><trkpt lat="33.8777495" lon="132.8304908"><ele>411.84999999999997</ele><time>2022-03-03T02:34:53Z</time></trkpt><trkpt lat="33.8776065" lon="132.8303541"><ele>406.29</ele><time>2022-03-03T02:35:43Z</time></trkpt><trkpt lat="33.8777148" lon="132.8301789"><ele>397.3933333333334</ele><time>2022-03-03T02:37:08Z</time></trkpt><trkpt lat="33.8778958" lon="132.8301548"><ele>388.73</ele><time>2022-03-03T02:38:41Z</time></trkpt><trkpt lat="33.8780733" lon="132.8302325"><ele>382.3233333333333</ele><time>2022-03-03T02:39:02Z</time></trkpt><trkpt lat="33.8782279" lon="132.830347"><ele>381.89000000000004</ele><time>2022-03-03T02:39:13Z</time></trkpt><trkpt lat="33.8784089" lon="132.8303563"><ele>380.3</ele><time>2022-03-03T02:39:29Z</time></trkpt><trkpt lat="33.878593" lon="132.8303209"><ele>375.96000000000004</ele><time>2022-03-03T02:40:06Z</time></trkpt><trkpt lat="33.8787726" lon="132.8303016"><ele>368.40333333333336</ele><time>2022-03-03T02:40:16Z</time></trkpt><trkpt lat="33.878917" lon="132.8301327"><ele>364.37000000000006</ele><time>2022-03-03T02:40:28Z</time></trkpt><trkpt lat="33.8789232" lon="132.8299092"><ele>365.25</ele><time>2022-03-03T02:40:39Z</time></trkpt><trkpt lat="33.8789366" lon="132.8296729"><ele>369.31333333333333</ele><time>2022-03-03T02:40:53Z</time></trkpt><trkpt lat="33.879053" lon="132.8294867"><ele>372.4166666666667</ele><time>2022-03-03T02:41:07Z</time></trkpt><trkpt lat="33.8791877" lon="132.829335"><ele>373.16333333333336</ele><time>2022-03-03T02:41:24Z</time></trkpt><trkpt lat="33.8792942" lon="132.8291555"><ele>374.3833333333334</ele><time>2022-03-03T02:41:40Z</time></trkpt><trkpt lat="33.8793606" lon="132.8289542"><ele>376.92333333333335</ele><time>2022-03-03T02:41:54Z</time></trkpt><trkpt lat="33.8793012" lon="132.8287367"><ele>379.72</ele><time>2022-03-03T02:42:10Z</time></trkpt><trkpt lat="33.8793542" lon="132.8285217"><ele>382.09</ele><time>2022-03-03T02:42:25Z</time></trkpt><trkpt lat="33.879479" lon="132.8283538"><ele>384.92666666666673</ele><time>2022-03-03T02:42:54Z</time></trkpt><trkpt lat="33.879575" lon="132.8281671"><ele>387.5333333333333</ele><time>2022-03-03T02:43:08Z</time></trkpt><trkpt lat="33.8796415" lon="132.8279613"><ele>387.06</ele><time>2022-03-03T02:43:22Z</time></trkpt><trkpt lat="33.8798091" lon="132.8280598"><ele>387.21999999999997</ele><time>2022-03-03T02:43:53Z</time></trkpt><trkpt lat="33.8799969" lon="132.8280521"><ele>385.40333333333336</ele><time>2022-03-03T02:44:02Z</time></trkpt><trkpt lat="33.8801653" lon="132.8279703"><ele>385.49</ele><time>2022-03-03T02:44:13Z</time></trkpt><trkpt lat="33.8803" lon="132.8278204"><ele>384.1066666666666</ele><time>2022-03-03T02:44:26Z</time></trkpt><trkpt lat="33.8804276" lon="132.8276441"><ele>382.02666666666664</ele><time>2022-03-03T02:44:39Z</time></trkpt><trkpt lat="33.8806002" lon="132.8275807"><ele>377.1366666666666</ele><time>2022-03-03T02:44:54Z</time></trkpt><trkpt lat="33.8807905" lon="132.827646"><ele>371.05</ele><time>2022-03-03T02:45:10Z</time></trkpt><trkpt lat="33.880975" lon="132.8276369"><ele>365.81666666666666</ele><time>2022-03-03T02:45:23Z</time></trkpt><trkpt lat="33.8811561" lon="132.8276421"><ele>362.58</ele><time>2022-03-03T02:45:34Z</time></trkpt><trkpt lat="33.881337" lon="132.8276738"><ele>358.3866666666666</ele><time>2022-03-03T02:45:45Z</time></trkpt><trkpt lat="33.8815162" lon="132.8276992"><ele>356.34</ele><time>2022-03-03T02:46:08Z</time></trkpt><trkpt lat="33.8816972" lon="132.827738"><ele>357.0733333333333</ele><time>2022-03-03T02:46:19Z</time></trkpt><trkpt lat="33.8818768" lon="132.8278195"><ele>359.3066666666667</ele><time>2022-03-03T02:46:32Z</time></trkpt><trkpt lat="33.8820566" lon="132.8278988"><ele>360.4166666666667</ele><time>2022-03-03T02:46:46Z</time></trkpt><trkpt lat="33.8822039" lon="132.8280544"><ele>359.20000000000005</ele><time>2022-03-03T02:46:58Z</time></trkpt><trkpt lat="33.882343" lon="132.8282075"><ele>358.8566666666666</ele><time>2022-03-03T02:47:10Z</time></trkpt><trkpt lat="33.8825325" lon="132.8282129"><ele>357.32666666666665</ele><time>2022-03-03T02:47:22Z</time></trkpt><trkpt lat="33.882717" lon="132.8281796"><ele>356.00333333333333</ele><time>2022-03-03T02:47:34Z</time></trkpt><trkpt lat="33.8829106" lon="132.8281967"><ele>355.06333333333333</ele><time>2022-03-03T02:47:48Z</time></trkpt><trkpt lat="33.8830924" lon="132.828159"><ele>356.99666666666667</ele><time>2022-03-03T02:48:01Z</time></trkpt><trkpt lat="33.8832612" lon="132.8280576"><ele>359.49333333333334</ele><time>2022-03-03T02:48:13Z</time></trkpt><trkpt lat="33.8834394" lon="132.8280205"><ele>360.29333333333335</ele><time>2022-03-03T02:48:31Z</time></trkpt><trkpt lat="33.8836223" lon="132.8279967"><ele>359.76</ele><time>2022-03-03T02:48:45Z</time></trkpt><trkpt lat="33.883778" lon="132.8281156"><ele>359.3333333333333</ele><time>2022-03-03T02:48:59Z</time></trkpt><trkpt lat="33.8839045" lon="132.8282713"><ele>356.96333333333337</ele><time>2022-03-03T02:49:24Z</time></trkpt><trkpt lat="33.8840689" lon="132.8283712"><ele>353.76000000000005</ele><time>2022-03-03T02:49:39Z</time></trkpt><trkpt lat="33.8842495" lon="132.8283444"><ele>351.23333333333335</ele><time>2022-03-03T02:49:53Z</time></trkpt><trkpt lat="33.8843694" lon="132.8281767"><ele>353.4433333333333</ele><time>2022-03-03T02:50:26Z</time></trkpt><trkpt lat="33.8844724" lon="132.8279983"><ele>358.3533333333333</ele><time>2022-03-03T02:50:42Z</time></trkpt><trkpt lat="33.8845697" lon="132.8278106"><ele>362.09999999999997</ele><time>2022-03-03T02:51:07Z</time></trkpt><trkpt lat="33.8847381" lon="132.8277186"><ele>364.1233333333334</ele><time>2022-03-03T02:51:31Z</time></trkpt><trkpt lat="33.8848916" lon="132.8276043"><ele>364.27</ele><time>2022-03-03T02:51:51Z</time></trkpt><trkpt lat="33.8850786" lon="132.8276465"><ele>367.56</ele><time>2022-03-03T02:52:13Z</time></trkpt><trkpt lat="33.8852392" lon="132.8275424"><ele>371.19000000000005</ele><time>2022-03-03T02:52:41Z</time></trkpt><trkpt lat="33.8853504" lon="132.8273567"><ele>373.92</ele><time>2022-03-03T02:52:57Z</time></trkpt><trkpt lat="33.8854821" lon="132.8272001"><ele>372.3866666666667</ele><time>2022-03-03T02:53:13Z</time></trkpt><trkpt lat="33.8855548" lon="132.8269944"><ele>369.99333333333334</ele><time>2022-03-03T02:53:35Z</time></trkpt><trkpt lat="33.885708" lon="132.8268748"><ele>367.5133333333333</ele><time>2022-03-03T02:53:49Z</time></trkpt><trkpt lat="33.8858692" lon="132.8267647"><ele>366.18666666666667</ele><time>2022-03-03T02:54:02Z</time></trkpt><trkpt lat="33.8860446" lon="132.8266974"><ele>362.89000000000004</ele><time>2022-03-03T02:54:18Z</time></trkpt><trkpt lat="33.8862256" lon="132.8266878"><ele>360.27666666666664</ele><time>2022-03-03T02:54:35Z</time></trkpt><trkpt lat="33.8863495" lon="132.8265058"><ele>359.75666666666666</ele><time>2022-03-03T02:55:55Z</time></trkpt><trkpt lat="33.8865341" lon="132.8264501"><ele>360.42</ele><time>2022-03-03T02:56:51Z</time></trkpt><trkpt lat="33.8866866" lon="132.8263223"><ele>362.18666666666667</ele><time>2022-03-03T02:57:00Z</time></trkpt><trkpt lat="33.8868401" lon="132.826057"><ele>363.57</ele><time>2022-03-03T02:57:42Z</time></trkpt><trkpt lat="33.8870213" lon="132.8260846"><ele>365.29</ele><time>2022-03-03T02:58:26Z</time></trkpt><trkpt lat="33.8872078" lon="132.8260612"><ele>366.62999999999994</ele><time>2022-03-03T02:58:45Z</time></trkpt><trkpt lat="33.8873942" lon="132.8260309"><ele>365.6966666666667</ele><time>2022-03-03T02:59:10Z</time></trkpt><trkpt lat="33.8875692" lon="132.8260932"><ele>365.68666666666667</ele><time>2022-03-03T02:59:34Z</time></trkpt><trkpt lat="33.8877461" lon="132.8261356"><ele>367.70666666666665</ele><time>2022-03-03T02:59:49Z</time></trkpt><trkpt lat="33.8879151" lon="132.8260466"><ele>372.84</ele><time>2022-03-03T03:01:29Z</time></trkpt><trkpt lat="33.8880915" lon="132.8259842"><ele>380.1066666666666</ele><time>2022-03-03T03:02:23Z</time></trkpt><trkpt lat="33.8882727" lon="132.8259723"><ele>387.0233333333333</ele><time>2022-03-03T03:02:56Z</time></trkpt><trkpt lat="33.8884477" lon="132.8260395"><ele>395.40000000000003</ele><time>2022-03-03T03:03:49Z</time></trkpt><trkpt lat="33.8886311" lon="132.8260549"><ele>403.49</ele><time>2022-03-03T03:06:31Z</time></trkpt><trkpt lat="33.8888153" lon="132.8260558"><ele>413.1466666666667</ele><time>2022-03-03T03:07:01Z</time></trkpt><trkpt lat="33.8889993" lon="132.8260956"><ele>421.5333333333333</ele><time>2022-03-03T03:07:19Z</time></trkpt><trkpt lat="33.8891667" lon="132.8260117"><ele>428.26000000000005</ele><time>2022-03-03T03:07:38Z</time></trkpt><trkpt lat="33.8893437" lon="132.8259447"><ele>431.83666666666664</ele><time>2022-03-03T03:07:56Z</time></trkpt><trkpt lat="33.8895179" lon="132.8260044"><ele>433.18</ele><time>2022-03-03T03:08:27Z</time></trkpt><trkpt lat="33.8896941" lon="132.8259549"><ele>435.04333333333335</ele><time>2022-03-03T03:08:54Z</time></trkpt><trkpt lat="33.8898146" lon="132.8257867"><ele>437.5133333333333</ele><time>2022-03-03T03:09:23Z</time></trkpt><trkpt lat="33.8899786" lon="132.8258892"><ele>441.3966666666667</ele><time>2022-03-03T03:10:12Z</time></trkpt><trkpt lat="33.890162" lon="132.8259024"><ele>446.1666666666667</ele><time>2022-03-03T03:10:48Z</time></trkpt><trkpt lat="33.890325" lon="132.8258071"><ele>451.01</ele><time>2022-03-03T03:11:07Z</time></trkpt><trkpt lat="33.8905056" lon="132.8257537"><ele>455.5233333333333</ele><time>2022-03-03T03:11:38Z</time></trkpt><trkpt lat="33.8906893" lon="132.8257622"><ele>457.59999999999997</ele><time>2022-03-03T03:12:12Z</time></trkpt><trkpt lat="33.890864" lon="132.8258193"><ele>458.27</ele><time>2022-03-03T03:12:40Z</time></trkpt><trkpt lat="33.8909998" lon="132.8259694"><ele>461.1266666666667</ele><time>2022-03-03T03:13:01Z</time></trkpt><trkpt lat="33.891081" lon="132.8261627"><ele>466.26</ele><time>2022-03-03T03:13:58Z</time></trkpt><trkpt lat="33.8911771" lon="132.8263527"><ele>473.25666666666666</ele><time>2022-03-03T03:14:13Z</time></trkpt><trkpt lat="33.891232" lon="132.8265715"><ele>477.1033333333334</ele><time>2022-03-03T03:14:30Z</time></trkpt><trkpt lat="33.891281" lon="132.8267835"><ele>480.5933333333334</ele><time>2022-03-03T03:15:43Z</time></trkpt><trkpt lat="33.89142" lon="132.826932"><ele>483.0533333333333</ele><time>2022-03-03T03:16:10Z</time></trkpt><trkpt lat="33.8914966" lon="132.8271282"><ele>487.9066666666667</ele><time>2022-03-03T03:16:26Z</time></trkpt><trkpt lat="33.8916131" lon="132.827297"><ele>493.79333333333335</ele><time>2022-03-03T03:16:59Z</time></trkpt><trkpt lat="33.8917791" lon="132.827386"><ele>501.31333333333333</ele><time>2022-03-03T03:18:09Z</time></trkpt><trkpt lat="33.8918841" lon="132.8275724"><ele>506.7366666666667</ele><time>2022-03-03T03:18:47Z</time></trkpt><trkpt lat="33.8920651" lon="132.8275143"><ele>507.75666666666666</ele><time>2022-03-03T03:20:50Z</time></trkpt><trkpt lat="33.8922068" lon="132.8273765"><ele>505.77666666666664</ele><time>2022-03-03T03:21:01Z</time></trkpt><trkpt lat="33.8923662" lon="132.827263"><ele>505.98333333333335</ele><time>2022-03-03T03:21:16Z</time></trkpt><trkpt lat="33.8922116" lon="132.827398"><ele>505.02</ele><time>2022-03-03T03:31:57Z</time></trkpt><trkpt lat="33.8920484" lon="132.827498"><ele>505.98333333333335</ele><time>2022-03-03T03:32:10Z</time></trkpt><trkpt lat="33.8918867" lon="132.8276064"><ele>505.77666666666664</ele><time>2022-03-03T03:32:33Z</time></trkpt><trkpt lat="33.8918749" lon="132.8278326"><ele>506.45666666666665</ele><time>2022-03-03T03:34:25Z</time></trkpt><trkpt lat="33.8918182" lon="132.8280384"><ele>504.9266666666667</ele><time>2022-03-03T03:34:46Z</time></trkpt><trkpt lat="33.8918579" lon="132.8282505"><ele>499.32666666666665</ele><time>2022-03-03T03:34:59Z</time></trkpt><trkpt lat="33.8918196" lon="132.8284745"><ele>495.3833333333334</ele><time>2022-03-03T03:35:15Z</time></trkpt><trkpt lat="33.8918923" lon="132.8286739"><ele>494.83666666666664</ele><time>2022-03-03T03:35:35Z</time></trkpt><trkpt lat="33.8918952" lon="132.8289085"><ele>497.21999999999997</ele><time>2022-03-03T03:36:23Z</time></trkpt><trkpt lat="33.8918729" lon="132.8291261"><ele>497.3066666666667</ele><time>2022-03-03T03:37:00Z</time></trkpt><trkpt lat="33.8917243" lon="132.829252"><ele>493.33666666666664</ele><time>2022-03-03T03:37:26Z</time></trkpt><trkpt lat="33.8916652" lon="132.8294605"><ele>482.22333333333336</ele><time>2022-03-03T03:45:54Z</time></trkpt><trkpt lat="33.8916168" lon="132.8296697"><ele>469.59999999999997</ele><time>2022-03-03T03:48:11Z</time></trkpt><trkpt lat="33.8915501" lon="132.8298987"><ele>452.10999999999996</ele><time>2022-03-03T03:49:42Z</time></trkpt><trkpt lat="33.8913991" lon="132.8300257"><ele>439.7333333333333</ele><time>2022-03-03T03:50:08Z</time></trkpt><trkpt lat="33.8912778" lon="132.830199"><ele>427.59999999999997</ele><time>2022-03-03T03:50:24Z</time></trkpt><trkpt lat="33.8911201" lon="132.8303465"><ele>418.5466666666666</ele><time>2022-03-03T03:51:09Z</time></trkpt><trkpt lat="33.8909451" lon="132.8304278"><ele>409.8433333333333</ele><time>2022-03-03T03:51:20Z</time></trkpt><trkpt lat="33.8908647" lon="132.830229"><ele>405.59</ele><time>2022-03-03T03:52:29Z</time></trkpt><trkpt lat="33.8909472" lon="132.8300266"><ele>407.73333333333335</ele><time>2022-03-03T03:52:56Z</time></trkpt><trkpt lat="33.8908258" lon="132.8298605"><ele>408.32</ele><time>2022-03-03T03:53:09Z</time></trkpt><trkpt lat="33.8906375" lon="132.8299356"><ele>404.31666666666666</ele><time>2022-03-03T03:53:24Z</time></trkpt><trkpt lat="33.8904591" lon="132.829988"><ele>394.1933333333334</ele><time>2022-03-03T03:53:39Z</time></trkpt><trkpt lat="33.8900715" lon="132.8299116"><ele>384.06666666666666</ele><time>2022-03-03T03:54:09Z</time></trkpt><trkpt lat="33.8899116" lon="132.8298106"><ele>376.77</ele><time>2022-03-03T03:54:21Z</time></trkpt><trkpt lat="33.8897332" lon="132.8297734"><ele>371.4666666666667</ele><time>2022-03-03T03:54:36Z</time></trkpt><trkpt lat="33.8898612" lon="132.8296105"><ele>370.28999999999996</ele><time>2022-03-03T03:55:52Z</time></trkpt><trkpt lat="33.8899813" lon="132.8294481"><ele>369.99333333333334</ele><time>2022-03-03T03:56:06Z</time></trkpt><trkpt lat="33.8901265" lon="132.8293156"><ele>373.63000000000005</ele><time>2022-03-03T03:56:24Z</time></trkpt><trkpt lat="33.8899945" lon="132.8291646"><ele>375.62999999999994</ele><time>2022-03-03T03:56:40Z</time></trkpt><trkpt lat="33.8899853" lon="132.8289469"><ele>378.40000000000003</ele><time>2022-03-03T03:57:04Z</time></trkpt><trkpt lat="33.8900953" lon="132.8287638"><ele>380.42333333333335</ele><time>2022-03-03T03:57:19Z</time></trkpt><trkpt lat="33.8902442" lon="132.8286369"><ele>383.54</ele><time>2022-03-03T03:57:34Z</time></trkpt><trkpt lat="33.8901684" lon="132.8284305"><ele>385.29</ele><time>2022-03-03T03:57:52Z</time></trkpt><trkpt lat="33.8900008" lon="132.8283442"><ele>383.37000000000006</ele><time>2022-03-03T03:58:07Z</time></trkpt><trkpt lat="33.8898879" lon="132.8281744"><ele>382.31</ele><time>2022-03-03T03:58:22Z</time></trkpt><trkpt lat="33.8897065" lon="132.8281985"><ele>379.6133333333334</ele><time>2022-03-03T03:58:44Z</time></trkpt><trkpt lat="33.8895222" lon="132.8282425"><ele>376.98333333333335</ele><time>2022-03-03T03:58:56Z</time></trkpt><trkpt lat="33.8893724" lon="132.8283677"><ele>371.07666666666665</ele><time>2022-03-03T03:59:07Z</time></trkpt><trkpt lat="33.8890762" lon="132.8281731"><ele>367.1366666666666</ele><time>2022-03-03T03:59:30Z</time></trkpt><trkpt lat="33.8891223" lon="132.8279495"><ele>367.3433333333333</ele><time>2022-03-03T03:59:41Z</time></trkpt><trkpt lat="33.8891257" lon="132.8277257"><ele>369.25666666666666</ele><time>2022-03-03T03:59:53Z</time></trkpt><trkpt lat="33.8891302" lon="132.8275006"><ele>370.83666666666664</ele><time>2022-03-03T04:00:09Z</time></trkpt><trkpt lat="33.8892031" lon="132.8272963"><ele>371.2366666666667</ele><time>2022-03-03T04:00:22Z</time></trkpt><trkpt lat="33.8891558" lon="132.8270732"><ele>371.76</ele><time>2022-03-03T04:00:33Z</time></trkpt><trkpt lat="33.8890282" lon="132.8272377"><ele>370.69666666666666</ele><time>2022-03-03T04:01:04Z</time></trkpt><trkpt lat="33.8889099" lon="132.8274062"><ele>366.6666666666667</ele><time>2022-03-03T04:01:14Z</time></trkpt><trkpt lat="33.8886878" lon="132.8277494"><ele>358.56666666666666</ele><time>2022-03-03T04:01:40Z</time></trkpt><trkpt lat="33.8885326" lon="132.8278691"><ele>354.16333333333336</ele><time>2022-03-03T04:01:57Z</time></trkpt><trkpt lat="33.8882876" lon="132.8279755"><ele>353.1366666666667</ele><time>2022-03-03T04:02:24Z</time></trkpt><trkpt lat="33.8879689" lon="132.8277449"><ele>358.6166666666666</ele><time>2022-03-03T04:03:10Z</time></trkpt><trkpt lat="33.8878107" lon="132.8276081"><ele>365.78999999999996</ele><time>2022-03-03T04:03:28Z</time></trkpt><trkpt lat="33.8876323" lon="132.8275565"><ele>369.52666666666664</ele><time>2022-03-03T04:03:43Z</time></trkpt><trkpt lat="33.8876492" lon="132.827338"><ele>370.58666666666664</ele><time>2022-03-03T04:03:55Z</time></trkpt><trkpt lat="33.8877099" lon="132.8271124"><ele>368.8966666666667</ele><time>2022-03-03T04:04:13Z</time></trkpt><trkpt lat="33.8878045" lon="132.8269093"><ele>369.01</ele><time>2022-03-03T04:04:26Z</time></trkpt><trkpt lat="33.8879499" lon="132.8267591"><ele>370.5333333333333</ele><time>2022-03-03T04:04:41Z</time></trkpt><trkpt lat="33.8880383" lon="132.826555"><ele>372.6466666666667</ele><time>2022-03-03T04:04:57Z</time></trkpt><trkpt lat="33.8880229" lon="132.8263316"><ele>375.5366666666667</ele><time>2022-03-03T04:05:09Z</time></trkpt><trkpt lat="33.8878232" lon="132.8263103"><ele>373.52</ele><time>2022-03-03T04:05:21Z</time></trkpt><trkpt lat="33.8876446" lon="132.8263534"><ele>366.8866666666667</ele><time>2022-03-03T04:05:35Z</time></trkpt><trkpt lat="33.887474" lon="132.8262787"><ele>360.1933333333333</ele><time>2022-03-03T04:05:50Z</time></trkpt><trkpt lat="33.8873549" lon="132.8261114"><ele>358.6333333333334</ele><time>2022-03-03T04:06:18Z</time></trkpt><trkpt lat="33.8871733" lon="132.8260882"><ele>361.3233333333333</ele><time>2022-03-03T04:06:37Z</time></trkpt><trkpt lat="33.8869978" lon="132.8261473"><ele>364.10999999999996</ele><time>2022-03-03T04:06:54Z</time></trkpt><trkpt lat="33.886833" lon="132.8262358"><ele>364.3233333333333</ele><time>2022-03-03T04:07:10Z</time></trkpt><trkpt lat="33.8866839" lon="132.8263657"><ele>363.25</ele><time>2022-03-03T04:07:27Z</time></trkpt><trkpt lat="33.8865134" lon="132.8264494"><ele>361.99</ele><time>2022-03-03T04:07:44Z</time></trkpt><trkpt lat="33.886371" lon="132.8265884"><ele>361.44666666666666</ele><time>2022-03-03T04:08:02Z</time></trkpt><trkpt lat="33.8861898" lon="132.8266011"><ele>361.38000000000005</ele><time>2022-03-03T04:08:17Z</time></trkpt><trkpt lat="33.8860159" lon="132.8266689"><ele>361.5</ele><time>2022-03-03T04:08:30Z</time></trkpt><trkpt lat="33.8858942" lon="132.8268324"><ele>360.71333333333337</ele><time>2022-03-03T04:08:43Z</time></trkpt><trkpt lat="33.8857361" lon="132.8269502"><ele>361.49666666666667</ele><time>2022-03-03T04:08:57Z</time></trkpt><trkpt lat="33.8855895" lon="132.8270833"><ele>363.1466666666667</ele><time>2022-03-03T04:09:12Z</time></trkpt><trkpt lat="33.885481" lon="132.8272591"><ele>366.1966666666667</ele><time>2022-03-03T04:09:23Z</time></trkpt><trkpt lat="33.8853202" lon="132.8273635"><ele>369.52333333333337</ele><time>2022-03-03T04:09:42Z</time></trkpt><trkpt lat="33.8851958" lon="132.8275268"><ele>370.9166666666667</ele><time>2022-03-03T04:09:54Z</time></trkpt><trkpt lat="33.8850354" lon="132.827629"><ele>372.45000000000005</ele><time>2022-03-03T04:10:08Z</time></trkpt><trkpt lat="33.8848505" lon="132.8275917"><ele>369.05</ele><time>2022-03-03T04:10:22Z</time></trkpt><trkpt lat="33.8846897" lon="132.8276946"><ele>365.6933333333333</ele><time>2022-03-03T04:10:34Z</time></trkpt><trkpt lat="33.8845528" lon="132.8278477"><ele>362.40333333333336</ele><time>2022-03-03T04:10:51Z</time></trkpt><trkpt lat="33.884485" lon="132.8280507"><ele>362.92666666666673</ele><time>2022-03-03T04:11:04Z</time></trkpt><trkpt lat="33.884372" lon="132.8282215"><ele>362.1000000000001</ele><time>2022-03-03T04:11:18Z</time></trkpt><trkpt lat="33.8842399" lon="132.8283732"><ele>358.3533333333333</ele><time>2022-03-03T04:11:38Z</time></trkpt><trkpt lat="33.8840501" lon="132.8284042"><ele>352.1966666666667</ele><time>2022-03-03T04:11:54Z</time></trkpt><trkpt lat="33.8839096" lon="132.8282584"><ele>349.9866666666667</ele><time>2022-03-03T04:12:29Z</time></trkpt><trkpt lat="33.8837879" lon="132.8280894"><ele>352.5133333333333</ele><time>2022-03-03T04:12:39Z</time></trkpt><trkpt lat="33.8836293" lon="132.8279684"><ele>355.84</ele><time>2022-03-03T04:12:50Z</time></trkpt><trkpt lat="33.8834405" lon="132.8279958"><ele>358.21000000000004</ele><time>2022-03-03T04:13:01Z</time></trkpt><trkpt lat="33.88326" lon="132.8279896"><ele>358.49333333333334</ele><time>2022-03-03T04:13:14Z</time></trkpt><trkpt lat="33.8830827" lon="132.828047"><ele>359.53000000000003</ele><time>2022-03-03T04:13:27Z</time></trkpt><trkpt lat="33.8829281" lon="132.8281802"><ele>358.73</ele><time>2022-03-03T04:13:39Z</time></trkpt><trkpt lat="33.8827493" lon="132.828223"><ele>356.58666666666664</ele><time>2022-03-03T04:13:52Z</time></trkpt><trkpt lat="33.8825605" lon="132.8281986"><ele>355.2733333333333</ele><time>2022-03-03T04:14:05Z</time></trkpt><trkpt lat="33.8823804" lon="132.8281603"><ele>356.21333333333337</ele><time>2022-03-03T04:14:21Z</time></trkpt><trkpt lat="33.882202" lon="132.8280707"><ele>358.0566666666667</ele><time>2022-03-03T04:14:36Z</time></trkpt><trkpt lat="33.8820205" lon="132.8280112"><ele>359.9866666666667</ele><time>2022-03-03T04:14:50Z</time></trkpt><trkpt lat="33.8818991" lon="132.8278396"><ele>360.37000000000006</ele><time>2022-03-03T04:15:05Z</time></trkpt><trkpt lat="33.8817398" lon="132.8277305"><ele>360.8566666666666</ele><time>2022-03-03T04:15:19Z</time></trkpt><trkpt lat="33.8815571" lon="132.8277207"><ele>360.45</ele><time>2022-03-03T04:15:32Z</time></trkpt><trkpt lat="33.8813654" lon="132.8276745"><ele>358.17666666666673</ele><time>2022-03-03T04:15:46Z</time></trkpt><trkpt lat="33.8811812" lon="132.8276216"><ele>355.52</ele><time>2022-03-03T04:16:01Z</time></trkpt><trkpt lat="33.8809871" lon="132.8276407"><ele>356.46333333333337</ele><time>2022-03-03T04:16:16Z</time></trkpt><trkpt lat="33.8807881" lon="132.8276229"><ele>358.73333333333335</ele><time>2022-03-03T04:16:31Z</time></trkpt><trkpt lat="33.8806105" lon="132.8275842"><ele>362.9066666666667</ele><time>2022-03-03T04:16:46Z</time></trkpt><trkpt lat="33.8804271" lon="132.8275431"><ele>366.59999999999997</ele><time>2022-03-03T04:17:04Z</time></trkpt><trkpt lat="33.8803409" lon="132.8277527"><ele>373.78999999999996</ele><time>2022-03-03T04:17:21Z</time></trkpt><trkpt lat="33.8802798" lon="132.8279569"><ele>381.23333333333335</ele><time>2022-03-03T04:17:38Z</time></trkpt><trkpt lat="33.8801815" lon="132.8281439"><ele>383.49666666666667</ele><time>2022-03-03T04:17:55Z</time></trkpt><trkpt lat="33.8799815" lon="132.8281351"><ele>384.10999999999996</ele><time>2022-03-03T04:18:12Z</time></trkpt><trkpt lat="33.8798374" lon="132.828003"><ele>384.0133333333333</ele><time>2022-03-03T04:18:23Z</time></trkpt><trkpt lat="33.879644" lon="132.8279972"><ele>386.62000000000006</ele><time>2022-03-03T04:18:37Z</time></trkpt><trkpt lat="33.8795615" lon="132.8282109"><ele>388.2833333333333</ele><time>2022-03-03T04:18:52Z</time></trkpt><trkpt lat="33.8794257" lon="132.8283861"><ele>387.56666666666666</ele><time>2022-03-03T04:19:07Z</time></trkpt><trkpt lat="33.8792917" lon="132.828531"><ele>385.57</ele><time>2022-03-03T04:19:23Z</time></trkpt><trkpt lat="33.8792492" lon="132.8287518"><ele>381.92333333333335</ele><time>2022-03-03T04:19:38Z</time></trkpt><trkpt lat="33.8792739" lon="132.8289662"><ele>380.2133333333333</ele><time>2022-03-03T04:19:50Z</time></trkpt><trkpt lat="33.879239" lon="132.8291824"><ele>377.90000000000003</ele><time>2022-03-03T04:20:03Z</time></trkpt><trkpt lat="33.8792015" lon="132.8294015"><ele>375.57</ele><time>2022-03-03T04:22:15Z</time></trkpt><trkpt lat="33.8790863" lon="132.8295739"><ele>372.7133333333333</ele><time>2022-03-03T04:22:29Z</time></trkpt><trkpt lat="33.878975" lon="132.8297453"><ele>371.4166666666667</ele><time>2022-03-03T04:22:44Z</time></trkpt><trkpt lat="33.8788775" lon="132.8299455"><ele>371.44</ele><time>2022-03-03T04:22:54Z</time></trkpt><trkpt lat="33.8787591" lon="132.8301219"><ele>370.7733333333333</ele><time>2022-03-03T04:23:06Z</time></trkpt><trkpt lat="33.8786663" lon="132.8303153"><ele>368.95666666666665</ele><time>2022-03-03T04:23:23Z</time></trkpt><trkpt lat="33.8784787" lon="132.8303514"><ele>369.0166666666667</ele><time>2022-03-03T04:23:37Z</time></trkpt><trkpt lat="33.8783026" lon="132.830267"><ele>371.98</ele><time>2022-03-03T04:23:50Z</time></trkpt><trkpt lat="33.8781402" lon="132.8301488"><ele>375.1566666666666</ele><time>2022-03-03T04:24:06Z</time></trkpt><trkpt lat="33.8779647" lon="132.8302185"><ele>379.4066666666666</ele><time>2022-03-03T04:24:30Z</time></trkpt><trkpt lat="33.8777944" lon="132.8301469"><ele>380.72333333333336</ele><time>2022-03-03T04:24:48Z</time></trkpt><trkpt lat="33.8776681" lon="132.8299886"><ele>380.85999999999996</ele><time>2022-03-03T04:25:02Z</time></trkpt><trkpt lat="33.8775699" lon="132.8297919"><ele>374.84666666666664</ele><time>2022-03-03T04:25:16Z</time></trkpt><trkpt lat="33.8773998" lon="132.8297084"><ele>370.8333333333333</ele><time>2022-03-03T04:25:29Z</time></trkpt><trkpt lat="33.877219" lon="132.8296597"><ele>370.7366666666667</ele><time>2022-03-03T04:25:42Z</time></trkpt><trkpt lat="33.8771348" lon="132.8294351"><ele>373.06</ele><time>2022-03-03T04:25:51Z</time></trkpt><trkpt lat="33.8770466" lon="132.8292413"><ele>372.34</ele><time>2022-03-03T04:26:05Z</time></trkpt><trkpt lat="33.8768699" lon="132.8291961"><ele>369.6333333333334</ele><time>2022-03-03T04:26:19Z</time></trkpt><trkpt lat="33.8766894" lon="132.8291842"><ele>364.8566666666666</ele><time>2022-03-03T04:26:39Z</time></trkpt><trkpt lat="33.876587" lon="132.8293646"><ele>356.91333333333336</ele><time>2022-03-03T04:26:57Z</time></trkpt><trkpt lat="33.8767496" lon="132.8294726"><ele>351.41</ele><time>2022-03-03T04:27:15Z</time></trkpt><trkpt lat="33.8765669" lon="132.8294505"><ele>345.2366666666667</ele><time>2022-03-03T04:27:28Z</time></trkpt><trkpt lat="33.8764262" lon="132.829308"><ele>344.31333333333333</ele><time>2022-03-03T04:27:39Z</time></trkpt><trkpt lat="33.8762742" lon="132.8291639"><ele>340.78333333333336</ele><time>2022-03-03T04:27:53Z</time></trkpt><trkpt lat="33.8761291" lon="132.8290341"><ele>337.4766666666667</ele><time>2022-03-03T04:28:07Z</time></trkpt><trkpt lat="33.8759427" lon="132.8290184"><ele>328.57</ele><time>2022-03-03T04:28:25Z</time></trkpt><trkpt lat="33.8758261" lon="132.8288408"><ele>319.3333333333333</ele><time>2022-03-03T04:28:37Z</time></trkpt><trkpt lat="33.8755278" lon="132.8285789"><ele>310.8333333333333</ele><time>2022-03-03T04:29:00Z</time></trkpt><trkpt lat="33.8753833" lon="132.8284362"><ele>307.07666666666665</ele><time>2022-03-03T04:29:15Z</time></trkpt><trkpt lat="33.8752099" lon="132.8283336"><ele>303.76000000000005</ele><time>2022-03-03T04:29:26Z</time></trkpt><trkpt lat="33.8750625" lon="132.8281975"><ele>302.47</ele><time>2022-03-03T04:29:38Z</time></trkpt><trkpt lat="33.8749531" lon="132.8280191"><ele>301.02</ele><time>2022-03-03T04:29:47Z</time></trkpt><trkpt lat="33.874801" lon="132.8278721"><ele>297.75666666666666</ele><time>2022-03-03T04:29:59Z</time></trkpt><trkpt lat="33.8746209" lon="132.8278295"><ele>294.7366666666666</ele><time>2022-03-03T04:30:13Z</time></trkpt><trkpt lat="33.8744507" lon="132.827938"><ele>290.77333333333337</ele><time>2022-03-03T04:30:27Z</time></trkpt><trkpt lat="33.8742677" lon="132.8280153"><ele>287.26</ele><time>2022-03-03T04:30:45Z</time></trkpt><trkpt lat="33.8740963" lon="132.8280886"><ele>281.24333333333334</ele><time>2022-03-03T04:31:56Z</time></trkpt><trkpt lat="33.8739158" lon="132.8280528"><ele>275.95666666666665</ele><time>2022-03-03T04:32:28Z</time></trkpt><trkpt lat="33.8737398" lon="132.8281135"><ele>269.64666666666665</ele><time>2022-03-03T04:33:06Z</time></trkpt><trkpt lat="33.8735641" lon="132.8280503"><ele>264.7733333333333</ele><time>2022-03-03T04:33:21Z</time></trkpt><trkpt lat="33.8733882" lon="132.828111"><ele>258.19666666666666</ele><time>2022-03-03T04:33:38Z</time></trkpt><trkpt lat="33.8732132" lon="132.8280506"><ele>253.48000000000002</ele><time>2022-03-03T04:34:14Z</time></trkpt><trkpt lat="33.8730491" lon="132.8281443"><ele>248.65333333333334</ele><time>2022-03-03T04:34:36Z</time></trkpt><trkpt lat="33.8728914" lon="132.8282577"><ele>245.75</ele><time>2022-03-03T04:35:08Z</time></trkpt><trkpt lat="33.8727782" lon="132.828432"><ele>242.14</ele><time>2022-03-03T04:36:39Z</time></trkpt><trkpt lat="33.8726979" lon="132.8286264"><ele>236.79666666666665</ele><time>2022-03-03T04:37:22Z</time></trkpt><trkpt lat="33.872629" lon="132.8288353"><ele>228.31333333333336</ele><time>2022-03-03T04:37:31Z</time></trkpt><trkpt lat="33.8725229" lon="132.8290106"><ele>220.9466666666667</ele><time>2022-03-03T04:37:47Z</time></trkpt><trkpt lat="33.8724626" lon="132.8287947"><ele>218.87</ele><time>2022-03-03T04:38:13Z</time></trkpt><trkpt lat="33.8723516" lon="132.8286217"><ele>221.29999999999998</ele><time>2022-03-03T04:38:28Z</time></trkpt><trkpt lat="33.8721789" lon="132.8287008"><ele>220.14666666666668</ele><time>2022-03-03T04:39:16Z</time></trkpt><trkpt lat="33.872002" lon="132.8287638"><ele>213.99666666666667</ele><time>2022-03-03T04:40:03Z</time></trkpt><trkpt lat="33.8718084" lon="132.8287727"><ele>205.42666666666665</ele><time>2022-03-03T04:40:12Z</time></trkpt><trkpt lat="33.8716429" lon="132.8288591"><ele>199.38666666666668</ele><time>2022-03-03T04:40:24Z</time></trkpt><trkpt lat="33.8714614" lon="132.8288103"><ele>195.50666666666666</ele><time>2022-03-03T04:41:26Z</time></trkpt><trkpt lat="33.8712764" lon="132.8287158"><ele>192.5966666666667</ele><time>2022-03-03T04:42:30Z</time></trkpt><trkpt lat="33.8710729" lon="132.8286905"><ele>189.53666666666666</ele><time>2022-03-03T04:42:38Z</time></trkpt><trkpt lat="33.8710273" lon="132.8284785"><ele>185.49333333333334</ele><time>2022-03-03T04:43:03Z</time></trkpt><trkpt lat="33.8708353" lon="132.8284974"><ele>179.67666666666665</ele><time>2022-03-03T04:43:19Z</time></trkpt><trkpt lat="33.8706552" lon="132.8284319"><ele>173.64666666666668</ele><time>2022-03-03T04:43:31Z</time></trkpt><trkpt lat="33.8705001" lon="132.8282868"><ele>167.6766666666667</ele><time>2022-03-03T04:44:15Z</time></trkpt><trkpt lat="33.8703177" lon="132.8282939"><ele>161.66666666666666</ele><time>2022-03-03T04:44:44Z</time></trkpt><trkpt lat="33.8701367" lon="132.8282686"><ele>155.1266666666667</ele><time>2022-03-03T04:46:35Z</time></trkpt><trkpt lat="33.869956" lon="132.8283277"><ele>146.91333333333333</ele><time>2022-03-03T04:46:52Z</time></trkpt><trkpt lat="33.8697855" lon="132.8282448"><ele>139.37666666666667</ele><time>2022-03-03T04:47:21Z</time></trkpt></trkseg></trk></gpx>